{"type":"FeatureCollection","features":[{"type": "Feature", "id": "eY0kLb9yfLF5Rt1OtfSd9zH45RI=", "properties": {"ref": "545", "@spider": "shoprite", "shop": "supermarket", "addr:street_address": "2101 Rockspring Road", "addr:city": "Forest Hill", "addr:state": "MD", "addr:postcode": "21050", "addr:country": "United States of America (the)", "name": "ShopRite of Forest Hill", "phone": "(410) 420-8220", "website": "https://www.shoprite.com/sm/planning/rsid/545", "opening_hours": "Mo-Su 06:00-22:00", "brand": "ShopRite", "brand:wikidata": "Q7501097", "nsi_id": "shoprite-dde59d"}, "geometry": {"type": "Point", "coordinates": [-76.3850233, 39.5753921]}},
{"type": "Feature", "id": "vUtf8TCI_uQkWtrOiERFS2XSPGs=", "properties": {"ref": "547", "@spider": "shoprite", "shop": "supermarket", "addr:street_address": "223 N Main Street", "addr:city": "Bel Air", "addr:state": "MD", "addr:postcode": "21014", "addr:country": "United States of America (the)", "name": "ShopRite of Main Street", "phone": "(410) 838-4130", "website": "https://www.shoprite.com/sm/planning/rsid/547", "opening_hours": "Mo-Su 07:00-23:00", "brand": "ShopRite", "brand:wikidata": "Q7501097", "nsi_id": "shoprite-dde59d"}, "geometry": {"type": "Point", "coordinates": [-76.355335, 39.5395856]}},
{"type": "Feature", "id": "6O8Kde1pXDkQd3UYwYBzjUpvL14=", "properties": {"ref": "548", "@spider": "shoprite", "shop": "supermarket", "addr:street_address": "949 Beards Hill Road", "addr:city": "Aberdeen", "addr:state": "MD", "addr:postcode": "21001", "addr:country": "United States of America (the)", "name": "ShopRite of Aberdeen, MD", "phone": "(410) 272-3100", "website": "https://www.shoprite.com/sm/planning/rsid/548", "opening_hours": "Mo-Su 06:00-22:00", "brand": "ShopRite", "brand:wikidata": "Q7501097", "nsi_id": "shoprite-dde59d"}, "geometry": {"type": "Point", "coordinates": [-76.1813665, 39.5253454]}},
{"type": "Feature", "id": "SLhmgkT8ebGCYWWqGFDGcEeo_2I=", "properties": {"ref": "549", "@spider": "shoprite", "shop": "supermarket", "addr:street_address": "5 Bel Air South Parkway", "addr:city": "Bel Air", "addr:state": "MD", "addr:postcode": "21015", "addr:country": "United States of America (the)", "name": "ShopRite of Festival", "phone": "(410) 569-0939", "website": "https://www.shoprite.com/sm/planning/rsid/549", "opening_hours": "Mo-Su 06:00-22:00", "brand": "ShopRite", "brand:wikidata": "Q7501097", "nsi_id": "shoprite-dde59d"}, "geometry": {"type": "Point", "coordinates": [-76.327405, 39.4967863]}},
{"type": "Feature", "id": "CRpeUEUAM5OYVTQJNz-r_T7ImG8=", "properties": {"ref": "551", "@spider": "shoprite", "shop": "supermarket", "addr:street_address": "1321 Riverside Parkway", "addr:city": "Belcamp", "addr:state": "MD", "addr:postcode": "21017", "addr:country": "United States of America (the)", "name": "ShopRite of Riverside", "phone": "(410) 272-3900", "website": "https://www.shoprite.com/sm/planning/rsid/551", "opening_hours": "Mo-Su 07:00-23:00", "brand": "ShopRite", "brand:wikidata": "Q7501097", "nsi_id": "shoprite-dde59d"}, "geometry": {"type": "Point", "coordinates": [-76.2473688, 39.4800336]}},
{"type": "Feature", "id": "L8zi2cx96d5rk_uNp2wTlFbuaGs=", "properties": {"ref": "555", "@spider": "shoprite", "shop": "supermarket", "addr:street_address": "1606 Dooley Road", "addr:city": "Cardiff", "addr:state": "MD", "addr:postcode": "21160", "addr:country": "United States of America (the)", "name": "ShopRite of Cardiff", "phone": "(410) 452-5980", "website": "https://www.shoprite.com/sm/planning/rsid/555", "opening_hours": "Mo-Su 07:00-23:00", "brand": "ShopRite", "brand:wikidata": "Q7501097", "nsi_id": "shoprite-dde59d"}, "geometry": {"type": "Point", "coordinates": [-76.3426538, 39.7203296]}},
{"type": "Feature", "id": "tJ-G2k_7EBW6rfxhejfse35hDR4=", "properties": {"ref": "563", "@spider": "shoprite", "shop": "supermarket", "addr:street_address": "14330 Jarrettsville Pike", "addr:city": "Phoenix", "addr:state": "MD", "addr:postcode": "21131", "addr:country": "United States of America (the)", "name": "ShopRite of Jacksonville", "phone": "(410) 666-3500", "website": "https://www.shoprite.com/sm/planning/rsid/563", "opening_hours": "Mo-Su 06:00-22:00", "brand": "ShopRite", "brand:wikidata": "Q7501097", "nsi_id": "shoprite-dde59d"}, "geometry": {"type": "Point", "coordinates": [-76.5602925, 39.5201165]}},
{"type": "Feature", "id": "-UpNPFqjXCV82bIloUCNJhnip1Q=", "properties": {"ref": "567", "@spider": "shoprite", "shop": "supermarket", "addr:street_address": "2401 Cleanleigh Drive", "addr:city": "Parkville", "addr:state": "MD", "addr:postcode": "21234", "addr:country": "United States of America (the)", "name": "ShopRite of Parkville", "phone": "(410) 668-1170", "website": "https://www.shoprite.com/sm/planning/rsid/567", "opening_hours": "Mo-Su 06:00-22:00", "brand": "ShopRite", "brand:wikidata": "Q7501097", "nsi_id": "shoprite-dde59d"}, "geometry": {"type": "Point", "coordinates": [-76.565607, 39.372692]}},
{"type": "Feature", "id": "N8LVxc4Go8UEexwLLcDCiOZvzXk=", "properties": {"ref": "568", "@spider": "shoprite", "shop": "supermarket", "addr:street_address": "4601 Liberty Heights Ave", "addr:city": "Baltimore", "addr:state": "MD", "addr:postcode": "21207", "addr:country": "United States of America (the)", "name": "ShopRite of Howard Park", "phone": "(410) 664-0240", "website": "https://www.shoprite.com/sm/planning/rsid/568", "opening_hours": "Mo-Su 06:00-22:00", "brand": "ShopRite", "brand:wikidata": "Q7501097", "nsi_id": "shoprite-dde59d"}, "geometry": {"type": "Point", "coordinates": [-76.6950029, 39.3308655]}},
{"type": "Feature", "id": "FEn3WzqKUN8iMqi6tC0R_fjanFw=", "properties": {"ref": "542", "@spider": "shoprite", "shop": "supermarket", "addr:street_address": "37 W Aylesbury Road", "addr:city": "Lutherville-Timonium", "addr:state": "MD", "addr:postcode": "21093", "addr:country": "United States of America (the)", "name": "ShopRite of Timonium", "phone": "4102521281", "website": "https://www.shoprite.com/sm/planning/rsid/542", "opening_hours": "Mo-Su 07:00-22:00", "brand": "ShopRite", "brand:wikidata": "Q7501097", "nsi_id": "shoprite-dde59d"}, "geometry": {"type": "Point", "coordinates": [-76.6295847, 39.4373779]}},
{"type": "Feature", "id": "SaaJUVrPukVGPvclT_XHt6Va7Mc=", "properties": {"ref": "114", "@spider": "shoprite", "shop": "supermarket", "addr:street_address": "2656 Hylan Boulevard", "addr:city": "Staten Island", "addr:state": "New York", "addr:postcode": "10306", "addr:country": "US", "name": "ShopRite of Hylan Plaza", "phone": "(718) 979-3303", "website": "https://www.shoprite.com/sm/planning/rsid/114", "opening_hours": "24/7", "brand": "ShopRite", "brand:wikidata": "Q7501097", "nsi_id": "shoprite-dde59d"}, "geometry": {"type": "Point", "coordinates": [-74.11292, 40.56715]}},
{"type": "Feature", "id": "IEfa4lLod9VIsmP42g0KqN1YZpw=", "properties": {"ref": "112", "@spider": "shoprite", "shop": "supermarket", "addr:street_address": "3010 Veterans Rd West", "addr:city": "Staten Island", "addr:state": "NY", "addr:postcode": "10309-2510", "addr:country": "US", "name": "ShopRite of Veterans Rd", "phone": "(718) 948-4945", "website": "https://www.shoprite.com/sm/planning/rsid/112", "opening_hours": "24/7", "brand": "ShopRite", "brand:wikidata": "Q7501097", "nsi_id": "shoprite-dde59d"}, "geometry": {"type": "Point", "coordinates": [-74.235157, 40.528342]}},
{"type": "Feature", "id": "TFrMfuRLNK7296zWbWWZ47dr7qw=", "properties": {"ref": "800", "@spider": "shoprite", "shop": "supermarket", "addr:street_address": "444 Woodbury Road", "addr:city": "Plainview", "addr:state": "New York", "addr:postcode": "11803", "addr:country": "US", "name": "ShopRite of Plainview - Woodbury Rd", "phone": "(516) 938-0240", "website": "https://www.shoprite.com/sm/planning/rsid/800", "opening_hours": "Mo-Su 06:00-00:00", "brand": "ShopRite", "brand:wikidata": "Q7501097", "nsi_id": "shoprite-dde59d"}, "geometry": {"type": "Point", "coordinates": [-73.50072, 40.78571]}},
{"type": "Feature", "id": "2OXKhrrGDMbTx3b-sZz6zPMw_c0=", "properties": {"ref": "801", "@spider": "shoprite", "shop": "supermarket", "addr:street_address": "1905 Sunrise Hwy", "addr:city": "Bay Shore", "addr:state": "NY", "addr:postcode": "11706", "addr:country": "US", "name": "ShopRite of Bay Shore", "phone": "(631) 666-7737", "website": "https://www.shoprite.com/sm/planning/rsid/801", "opening_hours": "Mo-Su 07:00-21:00", "brand": "ShopRite", "brand:wikidata": "Q7501097", "nsi_id": "shoprite-dde59d"}, "geometry": {"type": "Point", "coordinates": [-73.233219, 40.740268]}},
{"type": "Feature", "id": "yuyiXoPHACbrkC2rZbeOMZjf1eI=", "properties": {"ref": "804", "@spider": "shoprite", "shop": "supermarket", "addr:street_address": "1121 Jerusalem Ave", "addr:city": "Uniondale", "addr:state": "NY", "addr:postcode": "11553", "addr:country": "US", "name": "ShopRite of Uniondale", "phone": "(516) 486-0517", "website": "https://www.shoprite.com/sm/planning/rsid/804", "opening_hours": "Mo-Su 06:00-23:00", "brand": "ShopRite", "brand:wikidata": "Q7501097", "nsi_id": "shoprite-dde59d"}, "geometry": {"type": "Point", "coordinates": [-73.578885, 40.695726]}},
{"type": "Feature", "id": "io21sEa9tKwz9z2DsDilhfyvu8Q=", "properties": {"ref": "806", "@spider": "shoprite", "shop": "supermarket", "addr:street_address": "1 Garet Place", "addr:city": "Commack", "addr:state": "NY", "addr:postcode": "11725", "addr:country": "US", "name": "ShopRite of Commack", "phone": "(631) 864-2224", "website": "https://www.shoprite.com/sm/planning/rsid/806", "opening_hours": "Mo-Su 06:00-12:00", "brand": "ShopRite", "brand:wikidata": "Q7501097", "nsi_id": "shoprite-dde59d"}, "geometry": {"type": "Point", "coordinates": [-73.288822, 40.807794]}},
{"type": "Feature", "id": "3AcF6NwHFZigOsOf-FsYil8Gz8Y=", "properties": {"ref": "807", "@spider": "shoprite", "shop": "supermarket", "addr:street_address": "1675 Old Country Road", "addr:city": "Plainview", "addr:state": "NY", "addr:postcode": "11803", "addr:country": "US", "name": "ShopRite of Country Pointe", "phone": "(516) 694-0640", "website": "https://www.shoprite.com/sm/planning/rsid/807", "opening_hours": "Mo-Su 06:00-00:00", "brand": "ShopRite", "brand:wikidata": "Q7501097", "nsi_id": "shoprite-dde59d"}, "geometry": {"type": "Point", "coordinates": [-73.443907, 40.783384]}},
{"type": "Feature", "id": "Ok3pi5i3HYBR_SuXbK3H-Erg4A4=", "properties": {"ref": "808", "@spider": "shoprite", "shop": "supermarket", "addr:street_address": "71 College Plaza Selden", "addr:city": "Selden", "addr:state": "NY", "addr:postcode": "11784", "addr:country": "US", "name": "ShopRite of Selden", "phone": "(631) 561-6050", "website": "https://www.shoprite.com/sm/planning/rsid/808", "opening_hours": "Mo-Su 07:00-23:00", "brand": "ShopRite", "brand:wikidata": "Q7501097", "nsi_id": "shoprite-dde59d"}, "geometry": {"type": "Point", "coordinates": [-73.047136, 40.866247]}},
{"type": "Feature", "id": "CzWYSb3YEuj6TPOdoThbsBbe2LY=", "properties": {"ref": "809", "@spider": "shoprite", "shop": "supermarket", "addr:street_address": "3901 Hempstead Turnpike", "addr:city": "Bethpage", "addr:state": "New York", "addr:postcode": "11714", "addr:country": "US", "name": "ShopRite of Bethpage", "phone": "(516) 731-0130", "website": "https://www.shoprite.com/sm/planning/rsid/809", "opening_hours": "Mo-Su 06:00-00:00", "brand": "ShopRite", "brand:wikidata": "Q7501097", "nsi_id": "shoprite-dde59d"}, "geometry": {"type": "Point", "coordinates": [-73.4915, 40.7263]}},
{"type": "Feature", "id": "H4LyWD5IAfOGTQTZ0C9QgK5ci74=", "properties": {"ref": "811", "@spider": "shoprite", "shop": "supermarket", "addr:street_address": "95 Sunrise Highway", "addr:city": "Patchogue", "addr:state": "New York", "addr:postcode": "11772", "addr:country": "US", "name": "ShopRite of Patchogue", "phone": "(631) 286-5000", "website": "https://www.shoprite.com/sm/planning/rsid/811", "opening_hours": "Mo-Sa 07:00-23:00", "brand": "ShopRite", "brand:wikidata": "Q7501097", "nsi_id": "shoprite-dde59d"}, "geometry": {"type": "Point", "coordinates": [-73.006099, 40.781066]}},
{"type": "Feature", "id": "EqLHGHE8A-Hry1KOYn_LeK5nlJA=", "properties": {"ref": "812", "@spider": "shoprite", "shop": "supermarket", "addr:street_address": "2335 New Hyde Park Road", "addr:city": "New Hyde Park", "addr:state": "NY", "addr:postcode": "11042-1200", "addr:country": "US", "name": "ShopRite of New Hyde Park", "phone": "(516) 352-1603", "website": "https://www.shoprite.com/sm/planning/rsid/812", "opening_hours": "24/7", "brand": "ShopRite", "brand:wikidata": "Q7501097", "nsi_id": "shoprite-dde59d"}, "geometry": {"type": "Point", "coordinates": [-73.689777, 40.758134]}},
{"type": "Feature", "id": "I96ZKqr7PxyfJwnYD3L8S7yenVQ=", "properties": {"ref": "814", "@spider": "shoprite", "shop": "supermarket", "addr:street_address": "1960 Deer Park Avenue", "addr:city": "Deer Park", "addr:state": "NY", "addr:postcode": "11729", "addr:country": "US", "name": "ShopRite of Deer Park", "phone": "(631) 918-4087", "website": "https://www.shoprite.com/sm/planning/rsid/814", "opening_hours": "Mo-Su 07:00-23:00", "brand": "ShopRite", "brand:wikidata": "Q7501097", "nsi_id": "shoprite-dde59d"}, "geometry": {"type": "Point", "coordinates": [-73.331979, 40.764329]}},
{"type": "Feature", "id": "2Hl4oG0AcF-x6EmwZD1Qx3LBhd0=", "properties": {"ref": "815", "@spider": "shoprite", "shop": "supermarket", "addr:street_address": "5508 Sunrise Highway", "addr:city": "Massapequa", "addr:state": "NY", "addr:postcode": "11758", "addr:country": "US", "name": "ShopRite of Massapequa", "phone": "(516) 799-5651", "website": "https://www.shoprite.com/sm/planning/rsid/815", "opening_hours": "Mo-Sa 06:00-22:00", "brand": "ShopRite", "brand:wikidata": "Q7501097", "nsi_id": "shoprite-dde59d"}, "geometry": {"type": "Point", "coordinates": [-73.436986, 40.675679]}},
{"type": "Feature", "id": "D6FTMNEYlD7xYXSDDO_2drfgjH8=", "properties": {"ref": "816", "@spider": "shoprite", "shop": "supermarket", "addr:street_address": "601 Portion Rd", "addr:city": "Lake Ronkonkoma", "addr:state": "New York", "addr:postcode": "11779", "addr:country": "US", "name": "ShopRite of Lake Ronkonkoma", "phone": "(631) 737-0861", "website": "https://www.shoprite.com/sm/planning/rsid/816", "opening_hours": "Mo-Su 07:00-23:00", "brand": "ShopRite", "brand:wikidata": "Q7501097", "nsi_id": "shoprite-dde59d"}, "geometry": {"type": "Point", "coordinates": [-73.089381, 40.832033]}},
{"type": "Feature", "id": "2g4Oy5C-pZ-KMOS3l9445gMZypI=", "properties": {"ref": "817", "@spider": "shoprite", "shop": "supermarket", "addr:street_address": "5145 Nesconset Highway", "addr:city": "Port Jefferson Station", "addr:state": "New York", "addr:postcode": "11776", "addr:country": "US", "name": "ShopRite of Port Jefferson", "phone": "(631) 476-5717", "website": "https://www.shoprite.com/sm/planning/rsid/817", "opening_hours": "Mo-Su 07:00-23:00", "brand": "ShopRite", "brand:wikidata": "Q7501097", "nsi_id": "shoprite-dde59d"}, "geometry": {"type": "Point", "coordinates": [-73.050514, 40.922436]}},
{"type": "Feature", "id": "S-hYCj0X6vTfyr-rklgAIaMVyj8=", "properties": {"ref": "819", "@spider": "shoprite", "shop": "supermarket", "addr:street_address": "1510 Old Country Road", "addr:city": "Riverhead", "addr:state": "NY", "addr:postcode": "11901", "addr:country": "US", "name": "ShopRite of Riverhead", "phone": "(631) 369-6010", "website": "https://www.shoprite.com/sm/planning/rsid/819", "opening_hours": "Mo-Su 06:00-23:00", "brand": "ShopRite", "brand:wikidata": "Q7501097", "nsi_id": "shoprite-dde59d"}, "geometry": {"type": "Point", "coordinates": [-72.695122, 40.929037]}},
{"type": "Feature", "id": "ZuPY_1HrlMlKsLq2jUKI4hd4rrM=", "properties": {"ref": "831", "@spider": "shoprite", "shop": "supermarket", "addr:street_address": "335 Nesconset Hwy (Rt 347)", "addr:city": "Hauppauge", "addr:state": "New York", "addr:postcode": "11788", "addr:country": "US", "name": "ShopRite of Hauppauge", "phone": "(631) 979-0110", "website": "https://www.shoprite.com/sm/planning/rsid/831", "opening_hours": "Mo-Sa 07:00-23:00", "brand": "ShopRite", "brand:wikidata": "Q7501097", "nsi_id": "shoprite-dde59d"}, "geometry": {"type": "Point", "coordinates": [-73.20246, 40.82693]}},
{"type": "Feature", "id": "1bRoz1WP48o_x1ZLSCLepwipVWw=", "properties": {"ref": "413", "@spider": "shoprite", "shop": "supermarket", "addr:street_address": "1568 Chester Pike Unit B-1", "addr:city": "Eddystone", "addr:state": "Pennsylvania", "addr:postcode": "19022", "addr:country": "US", "name": "ShopRite of Eddystone", "phone": "(610) 490-1200", "website": "https://www.shoprite.com/sm/planning/rsid/413", "opening_hours": "Mo-Su 07:00-23:00", "brand": "ShopRite", "brand:wikidata": "Q7501097", "nsi_id": "shoprite-dde59d"}, "geometry": {"type": "Point", "coordinates": [-75.340075, 39.864916]}},
{"type": "Feature", "id": "cLhb13DSL4pYHf4kpUnKF5TjqhY=", "properties": {"ref": "424", "@spider": "shoprite", "shop": "supermarket", "addr:street_address": "55 East Germantown Pike", "addr:city": "East Norriton", "addr:state": "Pennsylvania", "addr:postcode": "19401", "addr:country": "US", "name": "ShopRite of East Norriton", "phone": "(610) 313-5500", "website": "https://www.shoprite.com/sm/planning/rsid/424", "opening_hours": "Mo-Fr 07:00-23:00", "brand": "ShopRite", "brand:wikidata": "Q7501097", "nsi_id": "shoprite-dde59d"}, "geometry": {"type": "Point", "coordinates": [-75.312193, 40.141505]}},
{"type": "Feature", "id": "g1yYuypvBiklv0BDgZJ3YxoTmsg=", "properties": {"ref": "426", "@spider": "shoprite", "shop": "supermarket", "addr:street_address": "2471 W Cheltenham Ave., Ste A", "addr:city": "Wyncote", "addr:state": "Pennsylvania", "addr:postcode": "19095", "addr:country": "US", "name": "ShopRite of Cheltenham Square", "phone": "(215) 887-7300", "website": "https://www.shoprite.com/sm/planning/rsid/426", "opening_hours": "Mo-Fr 07:00-00:00", "brand": "ShopRite", "brand:wikidata": "Q7501097", "nsi_id": "shoprite-dde59d"}, "geometry": {"type": "Point", "coordinates": [-75.15855, 40.07433]}},
{"type": "Feature", "id": "r_XjKfNM_WbZyQNtI1hJ03kFznk=", "properties": {"ref": "431", "@spider": "shoprite", "shop": "supermarket", "addr:street_address": "5000 State Road", "addr:city": "Drexel Hill", "addr:state": "Pennsylvania", "addr:postcode": "19026", "addr:country": "US", "name": "ShopRite of Drexeline ", "phone": "(610) 622-1100", "website": "https://www.shoprite.com/sm/planning/rsid/431", "opening_hours": "Mo-Su 06:00-00:00", "brand": "ShopRite", "brand:wikidata": "Q7501097", "nsi_id": "shoprite-dde59d"}, "geometry": {"type": "Point", "coordinates": [-75.3222, 39.94663]}},
{"type": "Feature", "id": "sakRGzPgZBTX4MRBKdZ86nVC8g4=", "properties": {"ref": "452", "@spider": "shoprite", "shop": "supermarket", "addr:street_address": "5075 Edgmont Ave", "addr:city": "Brookhaven", "addr:state": "PA", "addr:postcode": "19015", "addr:country": "US", "name": "ShopRite of Brookhaven", "phone": "(610) 499-3030", "website": "https://www.shoprite.com/sm/planning/rsid/452", "opening_hours": "Mo-Su 06:00-12:00", "brand": "ShopRite", "brand:wikidata": "Q7501097", "nsi_id": "shoprite-dde59d"}, "geometry": {"type": "Point", "coordinates": [-75.39579, 39.880087]}},
{"type": "Feature", "id": "1AVMIKA_LRxmT2ABCFV8hAYd4CQ=", "properties": {"ref": "454", "@spider": "shoprite", "shop": "supermarket", "addr:street_address": "140 North Macdade Blvd", "addr:city": "Glenolden", "addr:state": "PA", "addr:postcode": "19036-1224", "addr:country": "US", "name": "ShopRite of Glenolden", "phone": "(610) 461-2572", "website": "https://www.shoprite.com/sm/planning/rsid/454", "opening_hours": "Mo-Su 07:00-23:00", "brand": "ShopRite", "brand:wikidata": "Q7501097", "nsi_id": "shoprite-dde59d"}, "geometry": {"type": "Point", "coordinates": [-75.290243, 39.908268]}},
{"type": "Feature", "id": "FtJLlUdutWfNvRAyyv0SiaBcVgk=", "properties": {"ref": "538", "@spider": "shoprite", "shop": "supermarket", "addr:street_address": "1600 W Newport Pike", "addr:city": "Wilmington", "addr:state": "DE", "addr:postcode": "19804", "addr:country": "US", "name": "ShopRite of 1st State Plaza", "phone": "(302) 999-1227", "website": "https://www.shoprite.com/sm/planning/rsid/538", "opening_hours": "Mo-Su 06:00-21:00", "brand": "ShopRite", "brand:wikidata": "Q7501097", "nsi_id": "shoprite-dde59d"}, "geometry": {"type": "Point", "coordinates": [-75.627908, 39.714709]}},
{"type": "Feature", "id": "WQBTcPA-clEjVDaACOPy1PE6nqw=", "properties": {"ref": "558", "@spider": "shoprite", "shop": "supermarket", "addr:street_address": "1300 Rocky Run Parkway", "addr:city": "Wilmington", "addr:state": "Delaware", "addr:postcode": "19803", "addr:country": "US", "name": "ShopRite of Brandywine Commons", "phone": "(302) 477-3270", "website": "https://www.shoprite.com/sm/planning/rsid/558", "opening_hours": "Mo-Su 06:00-21:00", "brand": "ShopRite", "brand:wikidata": "Q7501097", "nsi_id": "shoprite-dde59d"}, "geometry": {"type": "Point", "coordinates": [-75.548435, 39.824967]}},
{"type": "Feature", "id": "4hoUioCw3uCzd0nh6jEGq-HKJn4=", "properties": {"ref": "580", "@spider": "shoprite", "shop": "supermarket", "addr:street_address": "19 Chestnut Hill Plaza", "addr:city": "Newark", "addr:state": "Delaware", "addr:postcode": "19713", "addr:country": "US", "name": "ShopRite of Newark, De", "phone": "(302) 292-1220", "website": "https://www.shoprite.com/sm/planning/rsid/580", "opening_hours": "Mo-Su 06:00-21:00", "brand": "ShopRite", "brand:wikidata": "Q7501097", "nsi_id": "shoprite-dde59d"}, "geometry": {"type": "Point", "coordinates": [-75.724018, 39.661626]}},
{"type": "Feature", "id": "N0bIl4oQ8VOQfeah3gg5FZCUZko=", "properties": {"ref": "588", "@spider": "shoprite", "shop": "supermarket", "addr:street_address": "1101 Governors Place", "addr:city": "Bear", "addr:state": "Delaware", "addr:postcode": "19701", "addr:country": "US", "name": "ShopRite of Governor's Square", "phone": "(302) 392-2900", "website": "https://www.shoprite.com/sm/planning/rsid/588", "opening_hours": "Mo-Su 06:00-21:00", "brand": "ShopRite", "brand:wikidata": "Q7501097", "nsi_id": "shoprite-dde59d"}, "geometry": {"type": "Point", "coordinates": [-75.663207, 39.628223]}},
{"type": "Feature", "id": "odDvC1x9OxLLgmR043IATU5_lBY=", "properties": {"ref": "589", "@spider": "shoprite", "shop": "supermarket", "addr:street_address": "501 South Walnut Street", "addr:city": "Wilmington", "addr:state": "DE", "addr:postcode": "19801", "addr:country": "US", "name": "ShopRite of Christina Crossing", "phone": "(302) 225-6900", "website": "https://www.shoprite.com/sm/planning/rsid/589", "opening_hours": "Mo-Su 06:00-21:00", "brand": "ShopRite", "brand:wikidata": "Q7501097", "nsi_id": "shoprite-dde59d"}, "geometry": {"type": "Point", "coordinates": [-75.554777, 39.731313]}},
{"type": "Feature", "id": "kpmBaZwUnKB_RIzeYs3wOsbzBlo=", "properties": {"ref": "590", "@spider": "shoprite", "shop": "supermarket", "addr:street_address": "700 Plaza Drive", "addr:city": "Newark", "addr:state": "Delaware", "addr:postcode": "19702", "addr:country": "US", "name": "ShopRite of Four Seasons ", "phone": "(302) 525-8855", "website": "https://www.shoprite.com/sm/planning/rsid/590", "opening_hours": "Mo-Su 06:00-21:00", "brand": "ShopRite", "brand:wikidata": "Q7501097", "nsi_id": "shoprite-dde59d"}, "geometry": {"type": "Point", "coordinates": [-75.715016, 39.647911]}},
{"type": "Feature", "id": "AxWgpX5QAaSUwzkNiGjjZHbb09o=", "properties": {"ref": "402", "@spider": "shoprite", "shop": "supermarket", "addr:street_address": "6301 Oxford Avenue", "addr:city": "Philadelphia", "addr:state": "PA", "addr:postcode": "19111", "addr:country": "US", "name": "ShopRite of Oxford & Levick", "phone": "(215) 744-9500", "website": "https://www.shoprite.com/sm/planning/rsid/402", "opening_hours": "Mo-Sa 07:00-00:00", "brand": "ShopRite", "brand:wikidata": "Q7501097", "nsi_id": "shoprite-dde59d"}, "geometry": {"type": "Point", "coordinates": [-75.08816, 40.043858]}},
{"type": "Feature", "id": "HKhpmTjM4Vf8JfMIgO1QMgS9_1Y=", "properties": {"ref": "411", "@spider": "shoprite", "shop": "supermarket", "addr:street_address": "330 Oregon Ave", "addr:city": "Philadelphia", "addr:state": "PA", "addr:postcode": "19148", "addr:country": "US", "name": "ShopRite of Whitman Plaza", "phone": "(215) 271-2711", "website": "https://www.shoprite.com/sm/planning/rsid/411", "opening_hours": "Mo-Sa 06:00-23:00", "brand": "ShopRite", "brand:wikidata": "Q7501097", "nsi_id": "shoprite-dde59d"}, "geometry": {"type": "Point", "coordinates": [-75.155435, 39.913158]}},
{"type": "Feature", "id": "NnMYauZeqV7bbRw4xFZHgLfb39A=", "properties": {"ref": "419", "@spider": "shoprite", "shop": "supermarket", "addr:street_address": "1575 North 52nd St Suite 400", "addr:city": "Philadelphia", "addr:state": "Pennsylvania", "addr:postcode": "19131", "addr:country": "US", "name": "ShopRite of Parkside", "phone": "(215) 220-8700", "website": "https://www.shoprite.com/sm/planning/rsid/419", "opening_hours": "Mo-Su 07:00-23:00", "brand": "ShopRite", "brand:wikidata": "Q7501097", "nsi_id": "shoprite-dde59d"}, "geometry": {"type": "Point", "coordinates": [-75.2270771, 39.9795865]}},
{"type": "Feature", "id": "SaYIQtqsE5Gpoc6PlyiKS2QL4ng=", "properties": {"ref": "420", "@spider": "shoprite", "shop": "supermarket", "addr:street_address": "24th St & Oregon Ave", "addr:city": "Philadelphia", "addr:state": "Pennsylvania", "addr:postcode": "19145", "addr:country": "US", "name": "ShopRite of Oregon Ave", "phone": "(215) 336-7300", "website": "https://www.shoprite.com/sm/planning/rsid/420", "opening_hours": "Mo-Su 06:00-23:00", "brand": "ShopRite", "brand:wikidata": "Q7501097", "nsi_id": "shoprite-dde59d"}, "geometry": {"type": "Point", "coordinates": [-75.191009, 39.927113]}},
{"type": "Feature", "id": "wfwmVBXDyY771k2_tBOZuKQ4R9I=", "properties": {"ref": "423", "@spider": "shoprite", "shop": "supermarket", "addr:street_address": "2900 Island Avenue Suite 2946", "addr:city": "Philadelphia", "addr:state": "PA", "addr:postcode": "19153", "addr:country": "US", "name": "ShopRite of Island Avenue", "phone": "(215) 492-1333", "website": "https://www.shoprite.com/sm/planning/rsid/423", "opening_hours": "Mo-Su 06:00-23:00", "brand": "ShopRite", "brand:wikidata": "Q7501097", "nsi_id": "shoprite-dde59d"}, "geometry": {"type": "Point", "coordinates": [-75.241849, 39.901572]}},
{"type": "Feature", "id": "3yP_SHS6ri4-YdVlSSQVic2t9DU=", "properties": {"ref": "430", "@spider": "shoprite", "shop": "supermarket", "addr:street_address": "2800 Fox Street", "addr:city": "Philadelphia", "addr:state": "PA", "addr:postcode": "19129", "addr:country": "US", "name": "ShopRite of Fox Street", "phone": "(215) 717-1222", "website": "https://www.shoprite.com/sm/planning/rsid/430", "opening_hours": "Mo-Su 07:00-23:00", "brand": "ShopRite", "brand:wikidata": "Q7501097", "nsi_id": "shoprite-dde59d"}, "geometry": {"type": "Point", "coordinates": [-75.179163, 40.009121]}},
{"type": "Feature", "id": "F18mhgyOCR0hoIB8cyhvgNeFhyU=", "properties": {"ref": "436", "@spider": "shoprite", "shop": "supermarket", "addr:street_address": "3745 Aramingo Avenue", "addr:city": "Philadelphia", "addr:state": "Pennsylvania", "addr:postcode": "19137", "addr:country": "US", "name": "ShopRite of Aramingo ", "phone": "(215) 288-7300", "website": "https://www.shoprite.com/sm/planning/rsid/436", "opening_hours": "Mo-Su 06:00-23:00", "brand": "ShopRite", "brand:wikidata": "Q7501097", "nsi_id": "shoprite-dde59d"}, "geometry": {"type": "Point", "coordinates": [-75.0929, 39.99494]}},
{"type": "Feature", "id": "19EmYbJShk_NEvm5Aq3_XUhts7M=", "properties": {"ref": "446", "@spider": "shoprite", "shop": "supermarket", "addr:street_address": "5597 Tulip St #99", "addr:city": "Philadelphia", "addr:state": "Pennsylvania", "addr:postcode": "19124", "addr:country": "US", "name": "ShopRite of Bridge & Harbison", "phone": "(215) 288-1260", "website": "https://www.shoprite.com/sm/planning/rsid/446", "opening_hours": "Mo-Su 06:00-23:00", "brand": "ShopRite", "brand:wikidata": "Q7501097", "nsi_id": "shoprite-dde59d"}, "geometry": {"type": "Point", "coordinates": [-75.06322, 40.01288]}},
{"type": "Feature", "id": "7zeV284PdqIbZcgUJRs8TYC6anI=", "properties": {"ref": "450", "@spider": "shoprite", "shop": "supermarket", "addr:street_address": "9910 Frankford Ave", "addr:city": "Philadelphia", "addr:state": "PA", "addr:postcode": "19114", "addr:country": "US", "name": "ShopRite of Morrell Plaza", "phone": "(215) 637-1555", "website": "https://www.shoprite.com/sm/planning/rsid/450", "opening_hours": "Mo-Sa 06:00-23:00", "brand": "ShopRite", "brand:wikidata": "Q7501097", "nsi_id": "shoprite-dde59d"}, "geometry": {"type": "Point", "coordinates": [-74.985071, 40.064964]}},
{"type": "Feature", "id": "nDGGiyDJVSfnh2dyfryNWrGSxOc=", "properties": {"ref": "462", "@spider": "shoprite", "shop": "supermarket", "addr:street_address": "6725 Frankford Ave", "addr:city": "Philadelphia", "addr:state": "Pennsylvania", "addr:postcode": "19135", "addr:country": "US", "name": "ShopRite of Knorr Street ", "phone": "(215) 331-6030", "website": "https://www.shoprite.com/sm/planning/rsid/462", "opening_hours": "Mo-Su 06:00-23:00", "brand": "ShopRite", "brand:wikidata": "Q7501097", "nsi_id": "shoprite-dde59d"}, "geometry": {"type": "Point", "coordinates": [-75.052578, 40.031788]}},
{"type": "Feature", "id": "VIVIThdnx4TzTgDXxbqOFLGsMwM=", "properties": {"ref": "519", "@spider": "shoprite", "shop": "supermarket", "addr:street_address": "6901 Ridge Avenue", "addr:city": "Philadelphia", "addr:state": "Pennsylvania", "addr:postcode": "19128", "addr:country": "US", "name": "ShopRite of Roxborough", "phone": "(215) 482-9570", "website": "https://www.shoprite.com/sm/planning/rsid/519", "opening_hours": "Mo-Su 06:00-23:00", "brand": "ShopRite", "brand:wikidata": "Q7501097", "nsi_id": "shoprite-dde59d"}, "geometry": {"type": "Point", "coordinates": [-75.227439, 40.043998]}},
{"type": "Feature", "id": "MAYLG5RtR_5Ctt-uMJNcbmkScgY=", "properties": {"ref": "537", "@spider": "shoprite", "shop": "supermarket", "addr:street_address": "101 East Olney Ave", "addr:city": "Philadelphia", "addr:state": "Pennsylvania", "addr:postcode": "19120", "addr:country": "US", "name": "ShopRite of Front & Olney", "phone": "(215) 224-7500", "website": "https://www.shoprite.com/sm/planning/rsid/537", "opening_hours": "Mo-Sa 07:00-00:00", "brand": "ShopRite", "brand:wikidata": "Q7501097", "nsi_id": "shoprite-dde59d"}, "geometry": {"type": "Point", "coordinates": [-75.120672, 40.036415]}},
{"type": "Feature", "id": "dRVtMEPSJ1pgIbKl1DOpuM8AY68=", "properties": {"ref": "561", "@spider": "shoprite", "shop": "supermarket", "addr:street_address": "11000 Roosevelt Blvd", "addr:city": "Philadelphia", "addr:state": "PA", "addr:postcode": "19116", "addr:country": "US", "name": "ShopRite of Roosevelt Blvd", "phone": "(215) 673-1200", "website": "https://www.shoprite.com/sm/planning/rsid/561", "opening_hours": "Mo-Sa 07:00-22:00", "brand": "ShopRite", "brand:wikidata": "Q7501097", "nsi_id": "shoprite-dde59d"}, "geometry": {"type": "Point", "coordinates": [-75.008939, 40.102705]}},
{"type": "Feature", "id": "v3Mez4MiIh5iPsDvniajF3V8Z7I=", "properties": {"ref": "102", "@spider": "shoprite", "shop": "supermarket", "addr:street_address": "1994 Bruckner Blvd", "addr:city": "Bronx", "addr:state": "NY", "addr:postcode": "10473", "addr:country": "US", "name": "ShopRite of Bruckner Blvd", "phone": "(718) 794-1690", "website": "https://www.shoprite.com/sm/planning/rsid/102", "opening_hours": "Mo-Su 06:00-00:00", "brand": "ShopRite", "brand:wikidata": "Q7501097", "nsi_id": "shoprite-dde59d"}, "geometry": {"type": "Point", "coordinates": [-73.855307, 40.824064]}},
{"type": "Feature", "id": "S_vPdh40sccVjOSz6mwiRIgZ33M=", "properties": {"ref": "204", "@spider": "shoprite", "shop": "supermarket", "addr:street_address": "133-11 20th Ave", "addr:city": "College Point", "addr:state": "New York", "addr:postcode": "11356", "addr:country": "US", "name": "ShopRite of 20th Ave", "phone": "(718) 353-3705", "website": "https://www.shoprite.com/sm/planning/rsid/204", "opening_hours": "Mo-Su 06:00-23:00", "brand": "ShopRite", "brand:wikidata": "Q7501097", "nsi_id": "shoprite-dde59d"}, "geometry": {"type": "Point", "coordinates": [-73.846859, 40.781684]}},
{"type": "Feature", "id": "WeIKn8BAiIt32Vk-ZVUOHttd71I=", "properties": {"ref": "218", "@spider": "shoprite", "shop": "supermarket", "addr:street_address": "1080 Mcdonald Ave", "addr:city": "Brooklyn", "addr:state": "New York", "addr:postcode": "11230", "addr:country": "US", "name": "ShopRite of Brooklyn", "phone": "(718) 252-5770", "website": "https://www.shoprite.com/sm/planning/rsid/218", "opening_hours": "24/7", "brand": "ShopRite", "brand:wikidata": "Q7501097", "nsi_id": "shoprite-dde59d"}, "geometry": {"type": "Point", "coordinates": [-73.977121, 40.626733]}},
{"type": "Feature", "id": "Ji1gcq-oTFiqi5mWH7FFSpBK_HE=", "properties": {"ref": "289", "@spider": "shoprite", "shop": "supermarket", "addr:street_address": "590 Gateway Drive", "addr:city": "Brooklyn", "addr:state": "New York", "addr:postcode": "11239", "addr:country": "US", "name": "ShopRite of Gateway Plaza", "phone": "(718) 647-2423", "website": "https://www.shoprite.com/sm/planning/rsid/289", "opening_hours": "Mo-Su 07:00-23:00", "brand": "ShopRite", "brand:wikidata": "Q7501097", "nsi_id": "shoprite-dde59d"}, "geometry": {"type": "Point", "coordinates": [-73.876275, 40.652343]}},
{"type": "Feature", "id": "5FL0ttmGoafO5CPNViiMLvqMtUM=", "properties": {"ref": "214", "@spider": "shoprite", "shop": "supermarket", "addr:street_address": "1730 Central Avenue", "addr:city": "Colonie", "addr:state": "NY", "addr:postcode": "12205", "addr:country": "US", "name": "ShopRite of Colonie", "phone": "(518) 250-5072", "website": "https://www.shoprite.com/sm/planning/rsid/214", "opening_hours": "Mo-Su 06:00-22:00", "brand": "ShopRite", "brand:wikidata": "Q7501097", "nsi_id": "shoprite-dde59d"}, "geometry": {"type": "Point", "coordinates": [-73.844041, 42.724164]}},
{"type": "Feature", "id": "0aceuyKWWVVgXNnqwuhvUaXw3T0=", "properties": {"ref": "229", "@spider": "shoprite", "shop": "supermarket", "addr:street_address": "2333 Nott Street East", "addr:city": "Niskayuna", "addr:state": "New York", "addr:postcode": "12309", "addr:country": "US", "name": "ShopRite of Niskayuna", "phone": "(518) 243-4565", "website": "https://www.shoprite.com/sm/planning/rsid/229", "opening_hours": "Mo-Sa 06:00-00:00", "brand": "ShopRite", "brand:wikidata": "Q7501097", "nsi_id": "shoprite-dde59d"}, "geometry": {"type": "Point", "coordinates": [-73.889747, 42.816638]}},
{"type": "Feature", "id": "hT0GtBtNCDQoB5X1d3iNwiFxY14=", "properties": {"ref": "230", "@spider": "shoprite", "shop": "supermarket", "addr:street_address": "41 Vista Boulevard", "addr:city": "Slingerlands", "addr:state": "NY", "addr:postcode": "12159", "addr:country": "US", "name": "ShopRite of Slingerlands", "phone": "(518) 729-4108", "website": "https://www.shoprite.com/sm/planning/rsid/230", "opening_hours": "Mo-Sa 06:00-22:00", "brand": "ShopRite", "brand:wikidata": "Q7501097", "nsi_id": "shoprite-dde59d"}, "geometry": {"type": "Point", "coordinates": [-73.863074, 42.642028]}},
{"type": "Feature", "id": "skqXDtP5uzd4wwb6LthKrQnQJ_M=", "properties": {"ref": "232", "@spider": "shoprite", "shop": "supermarket", "addr:street_address": "709 Central Ave", "addr:city": "Albany", "addr:state": "NY", "addr:postcode": "12206", "addr:country": "US", "name": "ShopRite of Albany", "phone": "(518) 292-1245", "website": "https://www.shoprite.com/sm/planning/rsid/232", "opening_hours": "Mo-Sa 06:00-23:00", "brand": "ShopRite", "brand:wikidata": "Q7501097", "nsi_id": "shoprite-dde59d"}, "geometry": {"type": "Point", "coordinates": [-73.78455, 42.677409]}},
{"type": "Feature", "id": "GBMbcWWxXpwzwgvsTkcel-AUCmA=", "properties": {"ref": "250", "@spider": "shoprite", "shop": "supermarket", "addr:street_address": "102 Van Rensselaer Square", "addr:city": "Rensselaer", "addr:state": "NY", "addr:postcode": "12144", "addr:country": "US", "name": "ShopRite of North Greenbush", "phone": "(518) 283-7850", "website": "https://www.shoprite.com/sm/planning/rsid/250", "opening_hours": "Mo-Sa 06:00-00:00", "brand": "ShopRite", "brand:wikidata": "Q7501097", "nsi_id": "shoprite-dde59d"}, "geometry": {"type": "Point", "coordinates": [-73.690625, 42.656931]}},
{"type": "Feature", "id": "hmGyVzQrdt4xSwnG8bJxyvSL8RQ=", "properties": {"ref": "109", "@spider": "shoprite", "shop": "supermarket", "addr:street_address": "985 Richmond Avenue", "addr:city": "Staten Island", "addr:state": "NY", "addr:postcode": "10314", "addr:country": "US", "name": "ShopRite of Forest & Richmond", "phone": "(718) 982-8662", "website": "https://www.shoprite.com/sm/planning/rsid/109", "opening_hours": "24/7", "brand": "ShopRite", "brand:wikidata": "Q7501097", "nsi_id": "shoprite-dde59d"}, "geometry": {"type": "Point", "coordinates": [-74.148556, 40.622856]}},
{"type": "Feature", "id": "ORI1ZYbeCcgEvsZi7dCWbwP0a3A=", "properties": {"ref": "546", "@spider": "shoprite", "shop": "supermarket", "addr:street_address": "143 Bridgeton Pike", "addr:city": "Mullica Hill", "addr:state": "NJ", "addr:postcode": "08062", "addr:country": "US", "name": "ShopRite of Mullica Hill", "phone": "(856) 357-9301", "website": "https://www.shoprite.com/sm/planning/rsid/546", "opening_hours": "Mo-Su 06:00-22:00", "brand": "ShopRite", "brand:wikidata": "Q7501097", "nsi_id": "shoprite-dde59d"}, "geometry": {"type": "Point", "coordinates": [-75.218655, 39.724291]}},
{"type": "Feature", "id": "-6Qj4VL9pNBzQ5ZFOMp-UmAWmEQ=", "properties": {"ref": "414", "@spider": "shoprite", "shop": "supermarket", "addr:street_address": "921 Drinker Tnpke Suite 24", "addr:city": "Covington Township", "addr:state": "PA", "addr:postcode": "18444", "addr:country": "US", "name": "ShopRite of Daleville", "phone": "(570) 842-7461", "website": "https://www.shoprite.com/sm/planning/rsid/414", "opening_hours": "Mo-Sa 07:00-22:00", "brand": "ShopRite", "brand:wikidata": "Q7501097", "nsi_id": "shoprite-dde59d"}, "geometry": {"type": "Point", "coordinates": [-75.517868, 41.308322]}},
{"type": "Feature", "id": "cq513nK-FPXAJS2dDCgoUM3tHwc=", "properties": {"ref": "427", "@spider": "shoprite", "shop": "supermarket", "addr:street_address": "547 South Oxford Valley Rd", "addr:city": "Fairless Hills", "addr:state": "PA", "addr:postcode": "19030", "addr:country": "US", "name": "ShopRite of Fairless Hills", "phone": "(215) 547-4600", "website": "https://www.shoprite.com/sm/planning/rsid/427", "opening_hours": "Mo-Fr 07:00-23:00", "brand": "ShopRite", "brand:wikidata": "Q7501097", "nsi_id": "shoprite-dde59d"}, "geometry": {"type": "Point", "coordinates": [-74.847445, 40.169405]}},
{"type": "Feature", "id": "nlrvR5vgp3z7Hfnmh0UHPunQSr4=", "properties": {"ref": "340", "@spider": "shoprite", "shop": "supermarket", "addr:street_address": "31 Main Street", "addr:city": "East Hartford", "addr:state": "CT", "addr:postcode": "06118", "addr:country": "US", "name": "ShopRite of East Hartford", "phone": "(860) 895-8390", "website": "https://www.shoprite.com/sm/planning/rsid/340", "opening_hours": "Mo-Su 06:00-22:00", "brand": "ShopRite", "brand:wikidata": "Q7501097", "nsi_id": "shoprite-dde59d"}, "geometry": {"type": "Point", "coordinates": [-72.618775, 41.728643]}},
{"type": "Feature", "id": "VuZYIyCvyvk9fP3Oxp--5mDM6-I=", "properties": {"ref": "437", "@spider": "shoprite", "shop": "supermarket", "addr:street_address": "1207 Route 22", "addr:city": "Phillipsburg", "addr:state": "NJ", "addr:postcode": "08865", "addr:country": "US", "name": "ShopRite of Greenwich", "phone": "(908) 454-8086", "website": "https://www.shoprite.com/sm/planning/rsid/437", "opening_hours": "Mo-Sa 07:00-21:00", "brand": "ShopRite", "brand:wikidata": "Q7501097", "nsi_id": "shoprite-dde59d"}, "geometry": {"type": "Point", "coordinates": [-75.143415, 40.68015]}},
{"type": "Feature", "id": "aih6e2amPTVylVwIPyB0Qv69Tmk=", "properties": {"ref": "457", "@spider": "shoprite", "shop": "supermarket", "addr:street_address": "272 Rt 202 & 31", "addr:city": "Flemington", "addr:state": "NJ", "addr:postcode": "08822", "addr:country": "US", "name": "ShopRite of Flemington", "phone": "(908) 782-2553", "website": "https://www.shoprite.com/sm/planning/rsid/457", "opening_hours": "Mo-Sa 07:00-21:00", "brand": "ShopRite", "brand:wikidata": "Q7501097", "nsi_id": "shoprite-dde59d"}, "geometry": {"type": "Point", "coordinates": [-74.855271, 40.497006]}},
{"type": "Feature", "id": "DRraRJkXzcmuQ5A2EC_ROkIVGVU=", "properties": {"ref": "497", "@spider": "shoprite", "shop": "supermarket", "addr:street_address": "50 Walmart Plaza", "addr:city": "Clinton", "addr:state": "NJ", "addr:postcode": "08809", "addr:country": "US", "name": "ShopRite of Clinton, NJ", "phone": "(908) 730-6800", "website": "https://www.shoprite.com/sm/planning/rsid/497", "opening_hours": "Mo-Sa 07:00-21:00", "brand": "ShopRite", "brand:wikidata": "Q7501097", "nsi_id": "shoprite-dde59d"}, "geometry": {"type": "Point", "coordinates": [-74.9232099, 40.6268809]}},
{"type": "Feature", "id": "ngAQMQhaQOOZBAqBwEyeh980tNY=", "properties": {"ref": "518", "@spider": "shoprite", "shop": "supermarket", "addr:street_address": "141 Route 130 South", "addr:city": "Cinnaminson", "addr:state": "NJ", "addr:postcode": "08077", "addr:country": "US", "name": "ShopRite of Cinnaminson", "phone": "(856) 303-7676", "website": "https://www.shoprite.com/sm/planning/rsid/518", "opening_hours": "Mo-Su 07:00-22:00", "brand": "ShopRite", "brand:wikidata": "Q7501097", "nsi_id": "shoprite-dde59d"}, "geometry": {"type": "Point", "coordinates": [-75.009923, 39.990748]}},
{"type": "Feature", "id": "aI28uMKdmYBautUspTZIQmVstEw=", "properties": {"ref": "336", "@spider": "shoprite", "shop": "supermarket", "addr:street_address": "634 West Main St", "addr:city": "Norwich", "addr:state": "CT", "addr:postcode": "06360", "addr:country": "US", "name": "ShopRite of Norwich", "phone": "(860) 887-0409", "website": "https://www.shoprite.com/sm/planning/rsid/336", "opening_hours": "Mo-Su 06:00-21:00", "brand": "ShopRite", "brand:wikidata": "Q7501097", "nsi_id": "shoprite-dde59d"}, "geometry": {"type": "Point", "coordinates": [-72.101146, 41.513424]}},
{"type": "Feature", "id": "wAxg9AWN1ur7vmjgSVIiPryEns4=", "properties": {"ref": "354", "@spider": "shoprite", "shop": "supermarket", "addr:street_address": "351 North Frontage Road", "addr:city": "New London", "addr:state": "CT", "addr:postcode": "06320", "addr:country": "US", "name": "ShopRite of New London", "phone": "(860) 447-1424", "website": "https://www.shoprite.com/sm/planning/rsid/354", "opening_hours": "Mo-Su 08:00-21:00", "brand": "ShopRite", "brand:wikidata": "Q7501097", "nsi_id": "shoprite-dde59d"}, "geometry": {"type": "Point", "coordinates": [-72.11758, 41.3717]}},
{"type": "Feature", "id": "Ep0P2gIGKEz2G5oovhLcrjVS6l0=", "properties": {"ref": "487", "@spider": "shoprite", "shop": "supermarket", "addr:street_address": "314 Route 15", "addr:city": "Wharton", "addr:state": "NJ", "addr:postcode": "07885", "addr:country": "US", "name": "ShopRite of Wharton", "phone": "(973) 361-8901", "website": "https://www.shoprite.com/sm/planning/rsid/487", "opening_hours": "24/7", "brand": "ShopRite", "brand:wikidata": "Q7501097", "nsi_id": "shoprite-dde59d"}, "geometry": {"type": "Point", "coordinates": [-74.570405, 40.904952]}},
{"type": "Feature", "id": "9LrnpjKHMN4x4fjKOjCD_E30vtU=", "properties": {"ref": "389", "@spider": "shoprite", "shop": "supermarket", "addr:street_address": "775 Main St South", "addr:city": "Southbury", "addr:state": "CT", "addr:postcode": "06488", "addr:country": "US", "name": "ShopRite of Southbury", "phone": "(203) 262-1477", "website": "https://www.shoprite.com/sm/planning/rsid/389", "opening_hours": "Mo-Su 07:00-22:00", "brand": "ShopRite", "brand:wikidata": "Q7501097", "nsi_id": "shoprite-dde59d"}, "geometry": {"type": "Point", "coordinates": [-73.22966, 41.463003]}},
{"type": "Feature", "id": "MeSI8F2cnebDrsdCO3E9RnWZGBc=", "properties": {"ref": "397", "@spider": "shoprite", "shop": "supermarket", "addr:street_address": "1990 West Main Street", "addr:city": "Stamford", "addr:state": "CT", "addr:postcode": "06902", "addr:country": "US", "name": "ShopRite of Commerce St.-Stamford, CT", "phone": "(203) 978-0464", "website": "https://www.shoprite.com/sm/planning/rsid/397", "opening_hours": "Mo-Su 07:00-22:00", "brand": "ShopRite", "brand:wikidata": "Q7501097", "nsi_id": "shoprite-dde59d"}, "geometry": {"type": "Point", "coordinates": [-73.564922, 41.047371]}},
{"type": "Feature", "id": "mQlppDGhaJPqnfO_CFoO5m_jjHQ=", "properties": {"ref": "398", "@spider": "shoprite", "shop": "supermarket", "addr:street_address": "875 Bridgeport Ave", "addr:city": "Shelton", "addr:state": "CT", "addr:postcode": "06484", "addr:country": "US", "name": "ShopRite of Shelton", "phone": "(203) 225-9224", "website": "https://www.shoprite.com/sm/planning/rsid/398", "opening_hours": "Mo-Su 07:00-22:00", "brand": "ShopRite", "brand:wikidata": "Q7501097", "nsi_id": "shoprite-dde59d"}, "geometry": {"type": "Point", "coordinates": [-73.134702, 41.264899]}},
{"type": "Feature", "id": "D6Wmgnkl0y64g_db1zLJ1vI20oE=", "properties": {"ref": "367", "@spider": "shoprite", "shop": "supermarket", "addr:street_address": "110 Albany Turnpike, Suite 200", "addr:city": "Canton", "addr:state": "CT", "addr:postcode": "06019", "addr:country": "US", "name": "ShopRite of Canton", "phone": "(860) 693-3666", "website": "https://www.shoprite.com/sm/planning/rsid/367", "opening_hours": "Mo-Sa 06:00-22:00", "brand": "ShopRite", "brand:wikidata": "Q7501097", "nsi_id": "shoprite-dde59d"}, "geometry": {"type": "Point", "coordinates": [-72.881104, 41.822048]}},
{"type": "Feature", "id": "r37lec-3JROaHiguMQJMjdWV030=", "properties": {"ref": "523", "@spider": "shoprite", "shop": "supermarket", "addr:street_address": "307 West Route 70", "addr:city": "Marlton", "addr:state": "NJ", "addr:postcode": "08053", "addr:country": "US", "name": "ShopRite of Marlton", "phone": "(856) 983-7370", "website": "https://www.shoprite.com/sm/planning/rsid/523", "opening_hours": "Mo-Su 07:00-22:00", "brand": "ShopRite", "brand:wikidata": "Q7501097", "nsi_id": "shoprite-dde59d"}, "geometry": {"type": "Point", "coordinates": [-74.932543, 39.896088]}},
{"type": "Feature", "id": "nfXUIGp3yQ4tulCQBrKJcf2aWw0=", "properties": {"ref": "525", "@spider": "shoprite", "shop": "supermarket", "addr:street_address": "892 Union Mill Road", "addr:city": "Mount Laurel", "addr:state": "NJ", "addr:postcode": "08054", "addr:country": "US", "name": "ShopRite of Union Mill Road", "phone": "(856) 365-0341", "website": "https://www.shoprite.com/sm/planning/rsid/525", "opening_hours": "Mo-Su 07:00-22:00", "brand": "ShopRite", "brand:wikidata": "Q7501097", "nsi_id": "shoprite-dde59d"}, "geometry": {"type": "Point", "coordinates": [-74.91523, 39.937802]}},
{"type": "Feature", "id": "KJ_EzsCI6L8N9vf2AOmZv5ySP8s=", "properties": {"ref": "529", "@spider": "shoprite", "shop": "supermarket", "addr:street_address": "400 East Evesham Road", "addr:city": "Cherry Hill", "addr:state": "NJ", "addr:postcode": "08003", "addr:country": "US", "name": "ShopRite of Evesham Road", "phone": "(856) 216-1400", "website": "https://www.shoprite.com/sm/planning/rsid/529", "opening_hours": "Mo-Su 07:00-22:00", "brand": "ShopRite", "brand:wikidata": "Q7501097", "nsi_id": "shoprite-dde59d"}, "geometry": {"type": "Point", "coordinates": [-74.972938, 39.861887]}},
{"type": "Feature", "id": "srP8Y5S7z0hYtBCsPlVoYanpXW0=", "properties": {"ref": "570", "@spider": "shoprite", "shop": "supermarket", "addr:street_address": "2240 West Marlton Pike", "addr:city": "Cherry Hill", "addr:state": "NJ", "addr:postcode": "08002", "addr:country": "US", "name": "ShopRite of Garden State Pavilion", "phone": "(856) 910-2300", "website": "https://www.shoprite.com/sm/planning/rsid/570", "opening_hours": "Mo-Su 07:00-22:00", "brand": "ShopRite", "brand:wikidata": "Q7501097", "nsi_id": "shoprite-dde59d"}, "geometry": {"type": "Point", "coordinates": [-75.042474, 39.929158]}},
{"type": "Feature", "id": "jsg5w4swzk9DzAjXJo2tzGcPfsA=", "properties": {"ref": "594", "@spider": "shoprite", "shop": "supermarket", "addr:street_address": "1000 Nixon Drive", "addr:city": "Mount Laurel", "addr:state": "NJ", "addr:postcode": "08054", "addr:country": "US", "name": "ShopRite of Mt. Laurel", "phone": "(856) 439-9700", "website": "https://www.shoprite.com/sm/planning/rsid/594", "opening_hours": "Mo-Su 07:00-22:00", "brand": "ShopRite", "brand:wikidata": "Q7501097", "nsi_id": "shoprite-dde59d"}, "geometry": {"type": "Point", "coordinates": [-74.965851, 39.937974]}},
{"type": "Feature", "id": "bgqfUGUFe2OJIkbSizo7nv9-rss=", "properties": {"ref": "466", "@spider": "shoprite", "shop": "supermarket", "addr:street_address": "611 West Union Avenue", "addr:city": "Bound Brook", "addr:state": "NJ", "addr:postcode": "08805", "addr:country": "US", "name": "ShopRite of Bound Brook", "phone": "(732) 302-9299", "website": "https://www.shoprite.com/sm/planning/rsid/466", "opening_hours": "Mo-Sa 07:00-23:00", "brand": "ShopRite", "brand:wikidata": "Q7501097", "nsi_id": "shoprite-dde59d"}, "geometry": {"type": "Point", "coordinates": [-74.552952, 40.570241]}},
{"type": "Feature", "id": "7uCQqzxh9zf_Qo6VEfPxiz07lak=", "properties": {"ref": "506", "@spider": "shoprite", "shop": "supermarket", "addr:street_address": "319 Route 130", "addr:city": "East Windsor", "addr:state": "NJ", "addr:postcode": "08520", "addr:country": "US", "name": "ShopRite of East Windsor", "phone": "(609) 448-1040", "website": "https://www.shoprite.com/sm/planning/rsid/506", "opening_hours": "Mo-Sa 07:00-23:00", "brand": "ShopRite", "brand:wikidata": "Q7501097", "nsi_id": "shoprite-dde59d"}, "geometry": {"type": "Point", "coordinates": [-74.528836, 40.279793]}},
{"type": "Feature", "id": "2rm49M0wGDw5jYK8W_QTx2t4pYo=", "properties": {"ref": "522", "@spider": "shoprite", "shop": "supermarket", "addr:street_address": "877 St George Ave", "addr:city": "Woodbridge", "addr:state": "NJ", "addr:postcode": "07095", "addr:country": "US", "name": "ShopRite of Woodbridge", "phone": "(732) 636-3500", "website": "https://www.shoprite.com/sm/planning/rsid/522", "opening_hours": "Mo-Sa 07:00-23:00", "brand": "ShopRite", "brand:wikidata": "Q7501097", "nsi_id": "shoprite-dde59d"}, "geometry": {"type": "Point", "coordinates": [-74.292634, 40.567563]}},
{"type": "Feature", "id": "r7cJM33b3L3yTchmH8_mtwRGS2M=", "properties": {"ref": "524", "@spider": "shoprite", "shop": "supermarket", "addr:street_address": "400 Renaissance Blvd", "addr:city": "North Brunswick", "addr:state": "NJ", "addr:postcode": "08902", "addr:country": "US", "name": "ShopRite of North Brunswick", "phone": "(732) 940-3112", "website": "https://www.shoprite.com/sm/planning/rsid/524", "opening_hours": "Mo-Sa 07:00-23:00", "brand": "ShopRite", "brand:wikidata": "Q7501097", "nsi_id": "shoprite-dde59d"}, "geometry": {"type": "Point", "coordinates": [-74.489834, 40.433688]}},
{"type": "Feature", "id": "6T0VL8Q9De-847ZZSGRtREn1kSc=", "properties": {"ref": "533", "@spider": "shoprite", "shop": "supermarket", "addr:street_address": "2555 Pennington Road", "addr:city": "Pennington", "addr:state": "NJ", "addr:postcode": "08534", "addr:country": "US", "name": "ShopRite of Pennington", "phone": "(609) 882-0711", "website": "https://www.shoprite.com/sm/planning/rsid/533", "opening_hours": "Mo-Sa 07:00-23:00", "brand": "ShopRite", "brand:wikidata": "Q7501097", "nsi_id": "shoprite-dde59d"}, "geometry": {"type": "Point", "coordinates": [-74.787115, 40.306228]}},
{"type": "Feature", "id": "XzPMAphi79pZhNDHV5vMpF99URg=", "properties": {"ref": "573", "@spider": "shoprite", "shop": "supermarket", "addr:street_address": "775 US-1", "addr:city": "Edison", "addr:state": "NJ", "addr:postcode": "08817", "addr:country": "US", "name": "ShopRite of Edison", "phone": "(732) 819-0140", "website": "https://www.shoprite.com/sm/planning/rsid/573", "opening_hours": "Mo-Sa 07:00-23:00", "brand": "ShopRite", "brand:wikidata": "Q7501097", "nsi_id": "shoprite-dde59d"}, "geometry": {"type": "Point", "coordinates": [-74.383819, 40.512056]}},
{"type": "Feature", "id": "mrLjYsN5e6JSwTmFYeekGxkYtJg=", "properties": {"ref": "585", "@spider": "shoprite", "shop": "supermarket", "addr:street_address": "14-22 West Prospect Street", "addr:city": "East Brunswick", "addr:state": "NJ", "addr:postcode": "08816", "addr:country": "US", "name": "ShopRite of East Brunswick", "phone": "(732) 257-7575", "website": "https://www.shoprite.com/sm/planning/rsid/585", "opening_hours": "Mo-Sa 07:00-23:00", "brand": "ShopRite", "brand:wikidata": "Q7501097", "nsi_id": "shoprite-dde59d"}, "geometry": {"type": "Point", "coordinates": [-74.396513, 40.456984]}},
{"type": "Feature", "id": "5JDdPZMPt_5ToC77UhYD4B_g6XE=", "properties": {"ref": "509", "@spider": "shoprite", "shop": "supermarket", "addr:street_address": "2239 U.S. 9", "addr:city": "Old Bridge", "addr:state": "NJ", "addr:postcode": "08857", "addr:country": "US", "name": "ShopRite of Old Bridge", "phone": "(732) 727-3533", "website": "https://www.shoprite.com/sm/planning/rsid/509", "opening_hours": "Mo-Sa 07:00-22:00", "brand": "ShopRite", "brand:wikidata": "Q7501097", "nsi_id": "shoprite-dde59d"}, "geometry": {"type": "Point", "coordinates": [-74.304836, 40.410613]}},
{"type": "Feature", "id": "QroyQWEMWkRIqkcgzPrubxvn_EU=", "properties": {"ref": "511", "@spider": "shoprite", "shop": "supermarket", "addr:street_address": "801 Roosevelt Avenue", "addr:city": "Carteret", "addr:state": "NJ", "addr:postcode": "07008", "addr:country": "US", "name": "ShopRite of Carteret", "phone": "(732) 541-6457", "website": "https://www.shoprite.com/sm/planning/rsid/511", "opening_hours": "Mo-Su 08:00-20:00", "brand": "ShopRite", "brand:wikidata": "Q7501097", "nsi_id": "shoprite-dde59d"}, "geometry": {"type": "Point", "coordinates": [-74.228068, 40.589285]}},
{"type": "Feature", "id": "IqYBr6X-0DmdYdDsp-c8-r6J1eU=", "properties": {"ref": "355", "@spider": "shoprite", "shop": "supermarket", "addr:street_address": "808 Route 46", "addr:city": "Parsippany", "addr:state": "NJ", "addr:postcode": "07054", "addr:country": "US", "name": "ShopRite of Parsippany", "phone": "(973) 335-2625", "website": "https://www.shoprite.com/sm/planning/rsid/355", "opening_hours": "Mo-Su 07:00-23:00", "brand": "ShopRite", "brand:wikidata": "Q7501097", "nsi_id": "shoprite-dde59d"}, "geometry": {"type": "Point", "coordinates": [-74.375503, 40.865489]}},
{"type": "Feature", "id": "-aAlHTjthdIqfKQPu9m0DWbNfp0=", "properties": {"ref": "507", "@spider": "shoprite", "shop": "supermarket", "addr:street_address": "1200 Chews Landing Road", "addr:city": "Laurel Springs", "addr:state": "NJ", "addr:postcode": "08021", "addr:country": "US", "name": "ShopRite of Chews Landing", "phone": "(856) 435-0880", "website": "https://www.shoprite.com/sm/planning/rsid/507", "opening_hours": "Mo-Su 07:00-23:00", "brand": "ShopRite", "brand:wikidata": "Q7501097", "nsi_id": "shoprite-dde59d"}, "geometry": {"type": "Point", "coordinates": [-75.037698, 39.818195]}},
{"type": "Feature", "id": "yKOZsCwbNGGLCr1zmRy2ztXZs9Q=", "properties": {"ref": "508", "@spider": "shoprite", "shop": "supermarket", "addr:street_address": "542 Berlin Cross Keys Road", "addr:city": "Sicklerville", "addr:state": "NJ", "addr:postcode": "08081", "addr:country": "US", "name": "ShopRite of Sicklerville", "phone": "(856) 262-0411", "website": "https://www.shoprite.com/sm/planning/rsid/508", "opening_hours": "Mo-Su 07:00-23:00", "brand": "ShopRite", "brand:wikidata": "Q7501097", "nsi_id": "shoprite-dde59d"}, "geometry": {"type": "Point", "coordinates": [-74.996168, 39.741307]}},
{"type": "Feature", "id": "GUcja5bZntjhuFoFdiVw-c0lNUQ=", "properties": {"ref": "502", "@spider": "shoprite", "shop": "supermarket", "addr:street_address": "Route 295 & 401 Harmony Rd", "addr:city": "Gibbstown", "addr:state": "NJ", "addr:postcode": "08027", "addr:country": "US", "name": "ShopRite of Gibbstown", "phone": "(856) 423-3440", "website": "https://www.shoprite.com/sm/planning/rsid/502", "opening_hours": "Mo-Su 07:00-22:00", "brand": "ShopRite", "brand:wikidata": "Q7501097", "nsi_id": "shoprite-dde59d"}, "geometry": {"type": "Point", "coordinates": [-75.26065, 39.817015]}},
{"type": "Feature", "id": "Pyhvjgl0BiLm2aCE6jX_47dDiZg=", "properties": {"ref": "434", "@spider": "shoprite", "shop": "supermarket", "addr:street_address": "2 Club House Drive at Route 31 South", "addr:city": "Washington", "addr:state": "NJ", "addr:postcode": "07882", "addr:country": "US", "name": "ShopRite of Washington, NJ - Rt 31", "phone": "(908) 835-0761", "website": "https://www.shoprite.com/sm/planning/rsid/434", "opening_hours": "Mo-Sa 07:00-22:00", "brand": "ShopRite", "brand:wikidata": "Q7501097", "nsi_id": "shoprite-dde59d"}, "geometry": {"type": "Point", "coordinates": [-74.9778067, 40.7385818]}},
{"type": "Feature", "id": "XzEhy31bIWXTp3oDKBsiuNCqzzI=", "properties": {"ref": "443", "@spider": "shoprite", "shop": "supermarket", "addr:street_address": "1153 Valley Road", "addr:city": "Stirling", "addr:state": "NJ", "addr:postcode": "07980", "addr:country": "US", "name": "ShopRite of Stirling", "phone": "(908) 604-2129", "website": "https://www.shoprite.com/sm/planning/rsid/443", "opening_hours": "Mo-Sa 07:00-22:00", "brand": "ShopRite", "brand:wikidata": "Q7501097", "nsi_id": "shoprite-dde59d"}, "geometry": {"type": "Point", "coordinates": [-74.487877, 40.667276]}},
{"type": "Feature", "id": "Z6hOyyjre_E0TCOM_9CxsrESbOk=", "properties": {"ref": "447", "@spider": "shoprite", "shop": "supermarket", "addr:street_address": "Rt 206 & Amwell Rd", "addr:city": "Hillsborough", "addr:state": "NJ", "addr:postcode": "08844", "addr:country": "US", "name": "ShopRite of Hillsborough", "phone": "(908) 359-7400", "website": "https://www.shoprite.com/sm/planning/rsid/447", "opening_hours": "Mo-Sa 07:00-22:00", "brand": "ShopRite", "brand:wikidata": "Q7501097", "nsi_id": "shoprite-dde59d"}, "geometry": {"type": "Point", "coordinates": [-74.643214, 40.500499]}},
{"type": "Feature", "id": "MDe-5JsHGjreMlmLV7y_qBSAM9A=", "properties": {"ref": "451", "@spider": "shoprite", "shop": "supermarket", "addr:street_address": "435 Elizabeth Avenue", "addr:city": "Somerset", "addr:state": "NJ", "addr:postcode": "08873", "addr:country": "US", "name": "ShopRite of Somerset", "phone": "(732) 356-8703", "website": "https://www.shoprite.com/sm/planning/rsid/451", "opening_hours": "Mo-Su 07:00-22:00", "brand": "ShopRite", "brand:wikidata": "Q7501097", "nsi_id": "shoprite-dde59d"}, "geometry": {"type": "Point", "coordinates": [-74.537774, 40.530764]}},
{"type": "Feature", "id": "hogmyD3d5zSGHbjVLx_0I5Oh23o=", "properties": {"ref": "473", "@spider": "shoprite", "shop": "supermarket", "addr:street_address": "1701 Route 22 West", "addr:city": "Watchung", "addr:state": "NJ", "addr:postcode": "07060", "addr:country": "US", "name": "ShopRite of Watchung", "phone": "(908) 322-6410", "website": "https://www.shoprite.com/sm/planning/rsid/473", "opening_hours": "Mo-Su 07:00-22:00", "brand": "ShopRite", "brand:wikidata": "Q7501097", "nsi_id": "shoprite-dde59d"}, "geometry": {"type": "Point", "coordinates": [-74.409831, 40.649892]}},
{"type": "Feature", "id": "Who72QbhTiH5an4bNfV1XGvJf4c=", "properties": {"ref": "468", "@spider": "shoprite", "shop": "supermarket", "addr:street_address": "1 South Davenport Street", "addr:city": "Somerville", "addr:state": "NJ", "addr:postcode": "08876", "addr:country": "US", "name": "ShopRite of Somerville", "phone": "(908) 231-8100", "website": "https://www.shoprite.com/sm/planning/rsid/468", "opening_hours": "Mo-Sa 07:00-23:00", "brand": "ShopRite", "brand:wikidata": "Q7501097", "nsi_id": "shoprite-dde59d"}, "geometry": {"type": "Point", "coordinates": [-74.615164, 40.56786]}},
{"type": "Feature", "id": "IUcRad6KyzPjG5C02FIfSa0JOyI=", "properties": {"ref": "399", "@spider": "shoprite", "shop": "supermarket", "addr:street_address": "1975 Black Rock Turnpike", "addr:city": "Fairfield", "addr:state": "CT", "addr:postcode": "06825", "addr:country": "US", "name": "ShopRite of Fairfield", "phone": "(203) 615-0140", "website": "https://www.shoprite.com/sm/planning/rsid/399", "opening_hours": "Mo-Su 07:00-22:00", "brand": "ShopRite", "brand:wikidata": "Q7501097", "nsi_id": "shoprite-dde59d"}, "geometry": {"type": "Point", "coordinates": [-73.249904, 41.180002]}},
{"type": "Feature", "id": "rDQ3v6Wog5w9OOCe6EINYWvXuto=", "properties": {"ref": "422", "@spider": "shoprite", "shop": "supermarket", "addr:street_address": "107 Kinsley Drive", "addr:city": "Brodheadsville", "addr:state": "PA", "addr:postcode": "18322", "addr:country": "US", "name": "ShopRite of Brodheadsville", "phone": "(570) 992-2666", "website": "https://www.shoprite.com/sm/planning/rsid/422", "opening_hours": "Mo-Sa 07:00-22:00", "brand": "ShopRite", "brand:wikidata": "Q7501097", "nsi_id": "shoprite-dde59d"}, "geometry": {"type": "Point", "coordinates": [-75.422983, 40.919133]}},
{"type": "Feature", "id": "T93BmKLuNn6W7jRuMMfVm4JLR9s=", "properties": {"ref": "449", "@spider": "shoprite", "shop": "supermarket", "addr:street_address": "4701 Freemansburg Ave", "addr:city": "Bethlehem", "addr:state": "PA", "addr:postcode": "18045", "addr:country": "US", "name": "ShopRite of Bethlehem", "phone": "(610) 865-2439", "website": "https://www.shoprite.com/sm/planning/rsid/449", "opening_hours": "Mo-Sa 07:00-21:00", "brand": "ShopRite", "brand:wikidata": "Q7501097", "nsi_id": "shoprite-dde59d"}, "geometry": {"type": "Point", "coordinates": [-75.295964, 40.649266]}},
{"type": "Feature", "id": "4TOmI-NRb5ySzZdpFInP7WJ9sM0=", "properties": {"ref": "407", "@spider": "shoprite", "shop": "supermarket", "addr:street_address": "1603 Big Oak Road", "addr:city": "Yardley", "addr:state": "PA", "addr:postcode": "19067", "addr:country": "US", "name": "ShopRite of Yardley", "phone": "(215) 595-0078", "website": "https://www.shoprite.com/sm/planning/rsid/407", "opening_hours": "Mo-Sa 07:00-21:00", "brand": "ShopRite", "brand:wikidata": "Q7501097", "nsi_id": "shoprite-dde59d"}, "geometry": {"type": "Point", "coordinates": [-74.866539, 40.198339]}},
{"type": "Feature", "id": "5XPbd0COBsf6vLW_drC22X9--8s=", "properties": {"ref": "579", "@spider": "shoprite", "shop": "supermarket", "addr:street_address": "1817 Mount Holly Rd", "addr:city": "Burlington", "addr:state": "NJ", "addr:postcode": "08016", "addr:country": "US", "name": "ShopRite of Burlington", "phone": "(609) 387-1602", "website": "https://www.shoprite.com/sm/planning/rsid/579", "opening_hours": "Mo-Su 07:00-22:00", "brand": "ShopRite", "brand:wikidata": "Q7501097", "nsi_id": "shoprite-dde59d"}, "geometry": {"type": "Point", "coordinates": [-74.841057, 40.053679]}},
{"type": "Feature", "id": "NNwz-NR_RpEtYL6UpvMDWKa6zDw=", "properties": {"ref": "388", "@spider": "shoprite", "shop": "supermarket", "addr:street_address": "1 Padanaram Rd.", "addr:city": "Danbury", "addr:state": "CT", "addr:postcode": "06811", "addr:country": "US", "name": "ShopRite of Danbury", "phone": "(475) 329-6114", "website": "https://www.shoprite.com/sm/planning/rsid/388", "opening_hours": "Mo-Su 07:00-22:00", "brand": "ShopRite", "brand:wikidata": "Q7501097", "nsi_id": "shoprite-dde59d"}, "geometry": {"type": "Point", "coordinates": [-73.456143, 41.413044]}},
{"type": "Feature", "id": "OP5wZT2LFR5BdYVJrpLFr-5gpZk=", "properties": {"ref": "578", "@spider": "shoprite", "shop": "supermarket", "addr:street_address": "3600 Park Ave", "addr:city": "South Plainfield", "addr:state": "NJ", "addr:postcode": "07080", "addr:country": "US", "name": "ShopRite of South Plainfield", "phone": "(908) 561-2350", "website": "https://www.shoprite.com/sm/planning/rsid/578", "opening_hours": "Mo-Sa 07:00-23:00", "brand": "ShopRite", "brand:wikidata": "Q7501097", "nsi_id": "shoprite-dde59d"}, "geometry": {"type": "Point", "coordinates": [-74.393029, 40.576612]}},
{"type": "Feature", "id": "G1zFevyVOIS2VlH4V4iVJvYol1c=", "properties": {"ref": "350", "@spider": "shoprite", "shop": "supermarket", "addr:street_address": "35 Talcottville Rd", "addr:city": "Vernon", "addr:state": "CT", "addr:postcode": "06066", "addr:country": "US", "name": "ShopRite of Vernon at Tri City Plaza", "phone": "(860) 454-2264", "website": "https://www.shoprite.com/sm/planning/rsid/350", "opening_hours": "Mo-Su 07:00-22:00", "brand": "ShopRite", "brand:wikidata": "Q7501097", "nsi_id": "shoprite-dde59d"}, "geometry": {"type": "Point", "coordinates": [-72.498293, 41.827059]}},
{"type": "Feature", "id": "WOG6repS4XU7gGk6cX3UzzQuJFc=", "properties": {"ref": "433", "@spider": "shoprite", "shop": "supermarket", "addr:street_address": "344 Stroud Mall Rd", "addr:city": "Stroudsburg", "addr:state": "PA", "addr:postcode": "18360", "addr:country": "US", "name": "ShopRite of Stroudsburg", "phone": "(570) 424-5715", "website": "https://www.shoprite.com/sm/planning/rsid/433", "opening_hours": "Mo-Sa 07:00-22:00", "brand": "ShopRite", "brand:wikidata": "Q7501097", "nsi_id": "shoprite-dde59d"}, "geometry": {"type": "Point", "coordinates": [-75.224237, 40.990182]}},
{"type": "Feature", "id": "RAYQcDyobF2CBY-6l_8zHrIB3cs=", "properties": {"ref": "584", "@spider": "shoprite", "shop": "supermarket", "addr:street_address": "4154 US Route 1", "addr:city": "Monmouth Junction", "addr:state": "NJ", "addr:postcode": "08852", "addr:country": "US", "name": "ShopRite of South Brunswick at Heritage Plaza", "phone": "(732) 438-5222", "website": "https://www.shoprite.com/sm/planning/rsid/584", "opening_hours": "Mo-Sa 07:00-23:00", "brand": "ShopRite", "brand:wikidata": "Q7501097", "nsi_id": "shoprite-dde59d"}, "geometry": {"type": "Point", "coordinates": [-74.570601, 40.385439]}},
{"type": "Feature", "id": "YNR_PmbU-RnczoVdnDyGNf86lKk=", "properties": {"ref": "463", "@spider": "shoprite", "shop": "supermarket", "addr:street_address": "111 Hulst Drive", "addr:city": "Matamoras", "addr:state": "PA", "addr:postcode": "18336", "addr:country": "US", "name": "ShopRite of Matamoras", "phone": "(570) 491-3086", "website": "https://www.shoprite.com/sm/planning/rsid/463", "opening_hours": "Mo-Sa 06:00-00:00", "brand": "ShopRite", "brand:wikidata": "Q7501097", "nsi_id": "shoprite-dde59d"}, "geometry": {"type": "Point", "coordinates": [-74.72233, 41.35204]}},
{"type": "Feature", "id": "6BjupofTIK0PAJCjeftdEDZV4fE=", "properties": {"ref": "550", "@spider": "shoprite", "shop": "supermarket", "addr:street_address": "3600 E Landis Ave", "addr:city": "Vineland", "addr:state": "NJ", "addr:postcode": "08360", "addr:country": "US", "name": "ShopRite of Landis", "phone": "(856) 691-0106", "website": "https://www.shoprite.com/sm/planning/rsid/550", "opening_hours": "Mo-Su 07:00-23:00", "brand": "ShopRite", "brand:wikidata": "Q7501097", "nsi_id": "shoprite-dde59d"}, "geometry": {"type": "Point", "coordinates": [-74.959373, 39.484275]}},
{"type": "Feature", "id": "N0hrsZMkbR3g0-wo1IhNtYWDYXc=", "properties": {"ref": "600", "@spider": "shoprite", "shop": "supermarket", "addr:street_address": "401 South Pitney Road", "addr:city": "Galloway", "addr:state": "NJ", "addr:postcode": "08205", "addr:country": "US", "name": "ShopRite of Galloway", "phone": "(609) 404-4160", "website": "https://www.shoprite.com/sm/planning/rsid/600", "opening_hours": "Mo-Sa 07:00-23:00", "brand": "ShopRite", "brand:wikidata": "Q7501097", "nsi_id": "shoprite-dde59d"}, "geometry": {"type": "Point", "coordinates": [-74.495583, 39.462527]}},
{"type": "Feature", "id": "hFcP13cEVxb0NUaoflFCdng4gzQ=", "properties": {"ref": "601", "@spider": "shoprite", "shop": "supermarket", "addr:street_address": "3003 English Creek Avenue", "addr:city": "Egg Harbor Township", "addr:state": "NJ", "addr:postcode": "08234", "addr:country": "US", "name": "ShopRite of English Creek", "phone": "(609) 645-7553", "website": "https://www.shoprite.com/sm/planning/rsid/601", "opening_hours": "Mo-Su 07:00-23:00", "brand": "ShopRite", "brand:wikidata": "Q7501097", "nsi_id": "shoprite-dde59d"}, "geometry": {"type": "Point", "coordinates": [-74.613343, 39.433116]}},
{"type": "Feature", "id": "GZTRtIpUOteYSb-X6j_Wz2fY6Ds=", "properties": {"ref": "603", "@spider": "shoprite", "shop": "supermarket", "addr:street_address": "4 W Roosevelt Blvd", "addr:city": "Marmora", "addr:state": "NJ", "addr:postcode": "08223", "addr:country": "US", "name": "ShopRite of Marmora", "phone": "(609) 545-0410", "website": "https://www.shoprite.com/sm/planning/rsid/603", "opening_hours": "Mo-Su 07:00-22:00", "brand": "ShopRite", "brand:wikidata": "Q7501097", "nsi_id": "shoprite-dde59d"}, "geometry": {"type": "Point", "coordinates": [-74.64702, 39.264032]}},
{"type": "Feature", "id": "U1wx1wNa0GZJFMpexar-Q5OIPG0=", "properties": {"ref": "612", "@spider": "shoprite", "shop": "supermarket", "addr:street_address": "Rt 9 & Bethel Road", "addr:city": "Somers Point", "addr:state": "NJ", "addr:postcode": "08244", "addr:country": "US", "name": "ShopRite of Somers Point", "phone": "(609) 927-8133", "website": "https://www.shoprite.com/sm/planning/rsid/612", "opening_hours": "Mo-Su 07:00-00:00", "brand": "ShopRite", "brand:wikidata": "Q7501097", "nsi_id": "shoprite-dde59d"}, "geometry": {"type": "Point", "coordinates": [-74.596322, 39.332391]}},
{"type": "Feature", "id": "DTi95U6ls7yMvd4CbOm9dIY1f6g=", "properties": {"ref": "633", "@spider": "shoprite", "shop": "supermarket", "addr:street_address": "616 Whitehorse Pike", "addr:city": "Absecon", "addr:state": "NJ", "addr:postcode": "08201", "addr:country": "US", "name": "ShopRite of Absecon", "phone": "(609) 646-2448", "website": "https://www.shoprite.com/sm/planning/rsid/633", "opening_hours": "Mo-Su 07:00-23:00", "brand": "ShopRite", "brand:wikidata": "Q7501097", "nsi_id": "shoprite-dde59d"}, "geometry": {"type": "Point", "coordinates": [-74.511215, 39.433203]}},
{"type": "Feature", "id": "9B0ku1bO8jQgr91EXJPLr8cMoNI=", "properties": {"ref": "642", "@spider": "shoprite", "shop": "supermarket", "addr:street_address": "80 South Whitehorse Pike", "addr:city": "Hammonton", "addr:state": "NJ", "addr:postcode": "08037", "addr:country": "US", "name": "ShopRite of Hammonton", "phone": "(609) 704-7609", "website": "https://www.shoprite.com/sm/planning/rsid/642", "opening_hours": "Mo-Sa 07:00-23:00", "brand": "ShopRite", "brand:wikidata": "Q7501097", "nsi_id": "shoprite-dde59d"}, "geometry": {"type": "Point", "coordinates": [-74.787151, 39.64485]}},
{"type": "Feature", "id": "L7gIwAYH175WNU00rxDYETFrcX0=", "properties": {"ref": "643", "@spider": "shoprite", "shop": "supermarket", "addr:street_address": "1700 Route 47 South", "addr:city": "Rio Grande", "addr:state": "NJ", "addr:postcode": "08242", "addr:country": "US", "name": "ShopRite of Rio Grande", "phone": "(609) 399-3534", "website": "https://www.shoprite.com/sm/planning/rsid/643", "opening_hours": "Mo-Su 07:00-23:00", "brand": "ShopRite", "brand:wikidata": "Q7501097", "nsi_id": "shoprite-dde59d"}, "geometry": {"type": "Point", "coordinates": [-74.86887, 39.01197]}},
{"type": "Feature", "id": "renmycPmj6OCh7Q_SX3jcs4piMg=", "properties": {"ref": "428", "@spider": "shoprite", "shop": "supermarket", "addr:street_address": "2200 Bristol Road ", "addr:city": "Bensalem", "addr:state": "Pennsylvania", "addr:postcode": "19020", "addr:country": "United States of America (the)", "name": "ShopRite of Bensalem", "phone": "(215) 757-5491", "website": "https://www.shoprite.com/sm/planning/rsid/428", "opening_hours": "Mo-Su 06:00-23:00", "brand": "ShopRite", "brand:wikidata": "Q7501097", "nsi_id": "shoprite-dde59d"}, "geometry": {"type": "Point", "coordinates": [-74.9261714, 40.1297662]}},
{"type": "Feature", "id": "1JGfQ7uufoqPimfB4NeAWghAReo=", "properties": {"ref": "471", "@spider": "shoprite", "shop": "supermarket", "addr:street_address": "Rte 130 & Browning Road", "addr:city": "Brooklawn", "addr:state": "New Jersey", "addr:postcode": "08030", "addr:country": "United States of America (the)", "name": "ShopRite of Brooklawn", "phone": "(856) 742-8700", "website": "https://www.shoprite.com/sm/planning/rsid/471", "opening_hours": "Mo-Su 06:00-23:00", "brand": "ShopRite", "brand:wikidata": "Q7501097", "nsi_id": "shoprite-dde59d"}, "geometry": {"type": "Point", "coordinates": [-75.1171646, 39.8782061]}},
{"type": "Feature", "id": "9yvI7aLuEx4thJbXSjUxqNT6EDo=", "properties": {"ref": "500", "@spider": "shoprite", "shop": "supermarket", "addr:street_address": "3373 Brunswick Pike", "addr:city": "Lawrenceville", "addr:state": "New Jersey", "addr:postcode": "08648", "addr:country": "United States of America (the)", "name": "ShopRite of Lawrenceville", "phone": "(609) 275-8555", "website": "https://www.shoprite.com/sm/planning/rsid/500", "opening_hours": "Mo-Sa 07:00-23:00", "brand": "ShopRite", "brand:wikidata": "Q7501097", "nsi_id": "shoprite-dde59d"}, "geometry": {"type": "Point", "coordinates": [-74.6837192, 40.2985097]}},
{"type": "Feature", "id": "t1OdC9vZo_M5lgOyfCVAYS0jXxU=", "properties": {"ref": "504", "@spider": "shoprite", "shop": "supermarket", "addr:street_address": "100 South Blackhorse Pike", "addr:city": "Williamstown", "addr:state": "New Jersey", "addr:postcode": "08094", "addr:country": "United States of America (the)", "name": "ShopRite of Williamstown", "phone": "(856) 728-5600", "website": "https://www.shoprite.com/sm/planning/rsid/504", "opening_hours": "Mo-Su 07:00-23:00", "brand": "ShopRite", "brand:wikidata": "Q7501097", "nsi_id": "shoprite-dde59d"}, "geometry": {"type": "Point", "coordinates": [-74.992193, 39.6884604]}},
{"type": "Feature", "id": "gVvOo2fYChqTjtKHWlyRyeVjcaM=", "properties": {"ref": "505", "@spider": "shoprite", "shop": "supermarket", "addr:street_address": " 2102-2130 North 2nd Street ", "addr:city": "Millville", "addr:state": "New Jersey", "addr:postcode": "08332", "addr:country": "United States of America (the)", "name": "ShopRite of Millville", "phone": "(856) 776-2300", "website": "https://www.shoprite.com/sm/planning/rsid/505", "opening_hours": "Mo-Sa 07:00-22:00", "brand": "ShopRite", "brand:wikidata": "Q7501097", "nsi_id": "shoprite-dde59d"}, "geometry": {"type": "Point", "coordinates": [-75.0441375, 39.4206206]}},
{"type": "Feature", "id": "9NzTRhl1cgnKPWDeMnrqTwNR9I0=", "properties": {"ref": "512", "@spider": "shoprite", "shop": "supermarket", "addr:street_address": "1255 West Landis Avenue", "addr:city": "Vineland", "addr:state": "New Jersey", "addr:postcode": "08360", "addr:country": "United States of America (the)", "name": "ShopRite of Delsea", "phone": "(856) 691-9395", "website": "https://www.shoprite.com/sm/planning/rsid/512", "opening_hours": "Mo-Sa 07:00-22:00", "brand": "ShopRite", "brand:wikidata": "Q7501097", "nsi_id": "shoprite-dde59d"}, "geometry": {"type": "Point", "coordinates": [-75.051439, 39.4848819]}},
{"type": "Feature", "id": "SaGINOnwkJG6EVeyCuWF95swHjY=", "properties": {"ref": "516", "@spider": "shoprite", "shop": "supermarket", "addr:street_address": "1520 Route 38 East", "addr:city": "Hainesport", "addr:state": "NJ", "addr:postcode": "08036", "addr:country": "US", "name": "ShopRite of Hainesport", "phone": "(609) 518-5200", "website": "https://www.shoprite.com/sm/planning/rsid/516", "opening_hours": "Mo-Su 07:00-22:00", "brand": "ShopRite", "brand:wikidata": "Q7501097", "nsi_id": "shoprite-dde59d"}, "geometry": {"type": "Point", "coordinates": [-74.808602, 39.981462]}},
{"type": "Feature", "id": "Q9NS_tFUdfFJImG-WfVnwHntycI=", "properties": {"ref": "615", "@spider": "shoprite", "shop": "supermarket", "addr:street_address": "382 Egg Harbor Road", "addr:city": "Sewell", "addr:state": "New Jersey", "addr:postcode": "08080", "addr:country": "United States of America (the)", "name": "ShopRite of Sewell", "phone": "(856) 582-6330", "website": "https://www.shoprite.com/sm/planning/rsid/615", "opening_hours": "Mo-Sa 07:00-22:00", "brand": "ShopRite", "brand:wikidata": "Q7501097", "nsi_id": "shoprite-dde59d"}, "geometry": {"type": "Point", "coordinates": [-75.0773631, 39.7528315]}},
{"type": "Feature", "id": "jStxFDDvYFz200OFQM-H8YBGG_k=", "properties": {"ref": "202", "@spider": "shoprite", "shop": "supermarket", "addr:street_address": "460 South Riverside Avenue", "addr:city": "Croton-on-Hudson", "addr:state": "New York", "addr:postcode": " 10520", "addr:country": "United States of America (the)", "name": "ShopRite of Croton", "phone": "(914) 271-6400", "website": "https://www.shoprite.com/sm/planning/rsid/202", "opening_hours": "Mo-Sa 06:00-00:00", "brand": "ShopRite", "brand:wikidata": "Q7501097", "nsi_id": "shoprite-dde59d"}, "geometry": {"type": "Point", "coordinates": [-73.8816757, 41.1921736]}},
{"type": "Feature", "id": "GPG3vMjrMPS-hHRKxvdfCRx0OCE=", "properties": {"ref": "206", "@spider": "shoprite", "shop": "supermarket", "addr:street_address": "1895 South Rd Suite 3B", "addr:city": "Poughkeepsie", "addr:state": "New York", "addr:postcode": "12601", "addr:country": "United States of America (the)", "name": "ShopRite of Poughkeepsie", "phone": "(845) 298-0024", "website": "https://www.shoprite.com/sm/planning/rsid/206", "opening_hours": "Mo-Sa 06:00-00:00", "brand": "ShopRite", "brand:wikidata": "Q7501097", "nsi_id": "shoprite-dde59d"}, "geometry": {"type": "Point", "coordinates": [-73.9217958, 41.6193638]}},
{"type": "Feature", "id": "1H1xwzN_DrVPOyi6UEoeSeUtP4s=", "properties": {"ref": "606", "@spider": "shoprite", "shop": "supermarket", "addr:street_address": "Rt 72 Stafford Sq", "addr:city": "Manahawkin", "addr:state": "New Jersey", "addr:postcode": "08050", "addr:country": "United States of America (the)", "name": "ShopRite of Manahawkin", "phone": "(609) 597-0091", "website": "https://www.shoprite.com/sm/planning/rsid/606", "opening_hours": "Mo-Sa 06:00-23:00", "brand": "ShopRite", "brand:wikidata": "Q7501097", "nsi_id": "shoprite-dde59d"}, "geometry": {"type": "Point", "coordinates": [-74.270308, 39.6982107]}},
{"type": "Feature", "id": "mtG4lXWSVY-PPdNiNgqeDAshinU=", "properties": {"ref": "609", "@spider": "shoprite", "shop": "supermarket", "addr:street_address": "Rt 9 & First Street", "addr:city": "Lanoka Harbor", "addr:state": "New Jersey", "addr:postcode": "08734", "addr:country": "United States of America (the)", "name": "ShopRite of Lacey Township", "phone": "(609) 693-1152", "website": "https://www.shoprite.com/sm/planning/rsid/609", "opening_hours": "Mo-Sa 07:00-22:00", "brand": "ShopRite", "brand:wikidata": "Q7501097", "nsi_id": "shoprite-dde59d"}, "geometry": {"type": "Point", "coordinates": [-74.1874582, 39.8508056]}},
{"type": "Feature", "id": "MHKVHD6HtmaLcWGjFC-BccyRjV0=", "properties": {"ref": "106", "@spider": "shoprite", "shop": "supermarket", "addr:street_address": "380 Summerhill Road", "addr:city": "Spotswood ", "addr:state": "New Jersey", "addr:postcode": "08884", "addr:country": "United States of America (the)", "name": "ShopRite of Spotswood", "phone": "(732) 251 - 5202", "website": "https://www.shoprite.com/sm/planning/rsid/106", "opening_hours": "24/7", "brand": "ShopRite", "brand:wikidata": "Q7501097", "nsi_id": "shoprite-dde59d"}, "geometry": {"type": "Point", "coordinates": [-74.3875099, 40.4075022]}},
{"type": "Feature", "id": "_Ucc2GPDIK0ilmVB0bRRrZcgYZs=", "properties": {"ref": "610", "@spider": "shoprite", "shop": "supermarket", "addr:street_address": "860 Fischer Blvd", "addr:city": "Toms River", "addr:state": "New Jersey", "addr:postcode": "08753", "addr:country": "United States of America (the)", "name": "ShopRite of Fischer Bay", "phone": "(732) 270-8833", "website": "https://www.shoprite.com/sm/planning/rsid/610", "opening_hours": "Mo-Sa 06:00-23:00", "brand": "ShopRite", "brand:wikidata": "Q7501097", "nsi_id": "shoprite-dde59d"}, "geometry": {"type": "Point", "coordinates": [-74.2074646, 39.9659716]}},
{"type": "Feature", "id": "68hh1FpSRHVHr3vF8Icu2clM6qc=", "properties": {"ref": "614", "@spider": "shoprite", "shop": "supermarket", "addr:street_address": "1001 Rt 70 West", "addr:city": "Manchester", "addr:state": "New Jersey", "addr:postcode": "08759", "addr:country": "United States of America (the)", "name": "ShopRite of Manchester, NJ", "phone": "(732) 657 - 0700", "website": "https://www.shoprite.com/sm/planning/rsid/614", "opening_hours": "Mo-Sa 07:00-22:00", "brand": "ShopRite", "brand:wikidata": "Q7501097", "nsi_id": "shoprite-dde59d"}, "geometry": {"type": "Point", "coordinates": [-74.3020264, 40.0146708]}},
{"type": "Feature", "id": "h-ePo0GjGF4R-DRaOiYHqEpIJAA=", "properties": {"ref": "107", "@spider": "shoprite", "shop": "supermarket", "addr:street_address": "Rt 17 & Franklin Turnpike", "addr:city": "Ramsey", "addr:state": "New Jersey", "addr:postcode": "07446", "addr:country": "United States of America (the)", "name": "ShopRite of Ramsey", "phone": "(201) 934-8989", "website": "https://www.shoprite.com/sm/planning/rsid/107", "opening_hours": "Mo-Su 07:00-00:00", "brand": "ShopRite", "brand:wikidata": "Q7501097", "nsi_id": "shoprite-dde59d"}, "geometry": {"type": "Point", "coordinates": [-74.1396551, 41.0671898]}},
{"type": "Feature", "id": "q17k51WmLO1kYy0raI_bLwGUPN0=", "properties": {"ref": "316", "@spider": "shoprite", "shop": "supermarket", "addr:street_address": "1200 Farmington Avenue & Route 6 ", "addr:city": "Bristol", "addr:state": "Connecticut", "addr:postcode": "06010", "addr:country": "United States of America (the)", "name": "ShopRite of Bristol at Farmington Ave", "phone": "(860) 584-8022", "website": "https://www.shoprite.com/sm/planning/rsid/316", "opening_hours": "Mo-Su 07:00-21:00", "brand": "ShopRite", "brand:wikidata": "Q7501097", "nsi_id": "shoprite-dde59d"}, "geometry": {"type": "Point", "coordinates": [-72.9029262, 41.6955241]}},
{"type": "Feature", "id": "2hJS2OYqdm4AZSt-JYZfibezZps=", "properties": {"ref": "321", "@spider": "shoprite", "shop": "supermarket", "addr:street_address": "846 North Colony Road ", "addr:city": "Wallingford ", "addr:state": "Connecticut", "addr:postcode": "06492", "addr:country": "United States of America (the)", "name": "ShopRite of Wallingford", "phone": "(203) 626-7760", "website": "https://www.shoprite.com/sm/planning/rsid/321", "opening_hours": "Mo-Su 07:00-21:00", "brand": "ShopRite", "brand:wikidata": "Q7501097", "nsi_id": "shoprite-dde59d"}, "geometry": {"type": "Point", "coordinates": [-72.8110849, 41.4789862]}},
{"type": "Feature", "id": "7tZMF1Tu3N_z87JFn6bCyA9kmrQ=", "properties": {"ref": "416", "@spider": "shoprite", "shop": "supermarket", "addr:street_address": "89 State Route 940", "addr:city": "Mount Pocono", "addr:state": "PA", "addr:postcode": "18344", "addr:country": "US", "name": "ShopRite of Mt Pocono", "phone": "(570) 839-3885", "website": "https://www.shoprite.com/sm/planning/rsid/416", "opening_hours": "Mo-Sa 07:00-22:00", "brand": "ShopRite", "brand:wikidata": "Q7501097", "nsi_id": "shoprite-dde59d"}, "geometry": {"type": "Point", "coordinates": [-75.356767, 41.124588]}},
{"type": "Feature", "id": "vmTpB5hbhU7IHfAwbPHEivf3O2E=", "properties": {"ref": "429", "@spider": "shoprite", "shop": "supermarket", "addr:street_address": "3409 Birney Ave", "addr:city": "Moosic", "addr:state": "PA", "addr:postcode": "18507", "addr:country": "US", "name": "ShopRite of Birney Plaza", "phone": "(570) 904-6040", "website": "https://www.shoprite.com/sm/planning/rsid/429", "opening_hours": "Mo-Sa 07:00-22:00", "brand": "ShopRite", "brand:wikidata": "Q7501097", "nsi_id": "shoprite-dde59d"}, "geometry": {"type": "Point", "coordinates": [-75.702144, 41.375784]}},
{"type": "Feature", "id": "dGGJZkE5tpjjAKQ4I04m3RaaqLQ=", "properties": {"ref": "439", "@spider": "shoprite", "shop": "supermarket", "addr:street_address": "942 West Street Road", "addr:city": "Warminster", "addr:state": "PA", "addr:postcode": "18974", "addr:country": "US", "name": "ShopRite of Warminster", "phone": "(215) 328-4700", "website": "https://www.shoprite.com/sm/planning/rsid/439", "opening_hours": "Mo-Sa 06:00-23:00", "brand": "ShopRite", "brand:wikidata": "Q7501097", "nsi_id": "shoprite-dde59d"}, "geometry": {"type": "Point", "coordinates": [-75.108625, 40.20961]}},
{"type": "Feature", "id": "HM8QEEWNfw6jzBQ0ac5P302tF-M=", "properties": {"ref": "514", "@spider": "shoprite", "shop": "supermarket", "addr:street_address": "1750 North Olden Avenue", "addr:city": "Ewing", "addr:state": "NJ", "addr:postcode": "08638", "addr:country": "US", "name": "ShopRite of Ewing", "phone": "(609) 219-0202", "website": "https://www.shoprite.com/sm/planning/rsid/514", "opening_hours": "Mo-Sa 07:00-23:00", "brand": "ShopRite", "brand:wikidata": "Q7501097", "nsi_id": "shoprite-dde59d"}, "geometry": {"type": "Point", "coordinates": [-74.769471, 40.249662]}},
{"type": "Feature", "id": "ge2pGT4SiMN35Gd8w-Wb6VIQmzQ=", "properties": {"ref": "515", "@spider": "shoprite", "shop": "supermarket", "addr:street_address": "127 Ark Road", "addr:city": "Mount Laurel", "addr:state": "NJ", "addr:postcode": "08054", "addr:country": "US", "name": "ShopRite of Mount Laurel at Ark Road", "phone": "(856) 359-2180", "website": "https://www.shoprite.com/sm/planning/rsid/515", "opening_hours": "Mo-Su 07:00-22:00", "brand": "ShopRite", "brand:wikidata": "Q7501097", "nsi_id": "shoprite-dde59d"}, "geometry": {"type": "Point", "coordinates": [-74.87003, 39.973776]}},
{"type": "Feature", "id": "35_3o28gvyf5CDyzLDaA5OtQ2b8=", "properties": {"ref": "517", "@spider": "shoprite", "shop": "supermarket", "addr:street_address": "1310 Fairview Boulevard", "addr:city": "Delran", "addr:state": "NJ", "addr:postcode": "08075", "addr:country": "US", "name": "ShopRite of Delran", "phone": "(856) 824-1100", "website": "https://www.shoprite.com/sm/planning/rsid/517", "opening_hours": "Mo-Su 07:00-22:00", "brand": "ShopRite", "brand:wikidata": "Q7501097", "nsi_id": "shoprite-dde59d"}, "geometry": {"type": "Point", "coordinates": [-74.945503, 40.018367]}},
{"type": "Feature", "id": "wBveucXPoCOIdjdEFwti2NNcQqg=", "properties": {"ref": "521", "@spider": "shoprite", "shop": "supermarket", "addr:street_address": "130 Marketplace Blvd", "addr:city": "Hamilton Township", "addr:state": "NJ", "addr:postcode": "08691", "addr:country": "US", "name": "ShopRite of Hamilton Market Place", "phone": "(609) 581-5823", "website": "https://www.shoprite.com/sm/planning/rsid/521", "opening_hours": "Mo-Sa 07:00-23:00", "brand": "ShopRite", "brand:wikidata": "Q7501097", "nsi_id": "shoprite-dde59d"}, "geometry": {"type": "Point", "coordinates": [-74.642496, 40.19188]}},
{"type": "Feature", "id": "5Pd1EsNm36FFI74nXepV-BegNaQ=", "properties": {"ref": "526", "@spider": "shoprite", "shop": "supermarket", "addr:street_address": "1000 North Pearl Street", "addr:city": "Upper Deerfield", "addr:state": "NJ", "addr:postcode": "08302", "addr:country": "US", "name": "ShopRite of Upper Deerfield", "phone": "(856) 451-1577", "website": "https://www.shoprite.com/sm/planning/rsid/526", "opening_hours": "Mo-Sa 07:00-22:00", "brand": "ShopRite", "brand:wikidata": "Q7501097", "nsi_id": "shoprite-dde59d"}, "geometry": {"type": "Point", "coordinates": [-75.213233, 39.457366]}},
{"type": "Feature", "id": "P5XfUdo_rfgIm11ZJ9t-9u-Xxks=", "properties": {"ref": "531", "@spider": "shoprite", "shop": "supermarket", "addr:street_address": "Rt 73 & Minck Avenue", "addr:city": "West Berlin", "addr:state": "NJ", "addr:postcode": "08091", "addr:country": "US", "name": "ShopRite of Berlin", "phone": "(856) 768-6450", "website": "https://www.shoprite.com/sm/planning/rsid/531", "opening_hours": "Mo-Su 07:00-23:00", "brand": "ShopRite", "brand:wikidata": "Q7501097", "nsi_id": "shoprite-dde59d"}, "geometry": {"type": "Point", "coordinates": [-74.934481, 39.806977]}},
{"type": "Feature", "id": "S6c5XqfR8Kf0NMmPBp618uCcebk=", "properties": {"ref": "534", "@spider": "shoprite", "shop": "supermarket", "addr:street_address": "130 N White Horse Pike", "addr:city": "Lawnside", "addr:state": "NJ", "addr:postcode": "8045", "addr:country": "US", "name": "ShopRite of Lawnside", "phone": "(856) 547-2590", "website": "https://www.shoprite.com/sm/planning/rsid/534", "opening_hours": "Mo-Su 07:00-23:00", "brand": "ShopRite", "brand:wikidata": "Q7501097", "nsi_id": "shoprite-dde59d"}, "geometry": {"type": "Point", "coordinates": [-75.043639, 39.867741]}},
{"type": "Feature", "id": "lo-7dBcvgWlAEIQiuAJlMTq06n4=", "properties": {"ref": "539", "@spider": "shoprite", "shop": "supermarket", "addr:street_address": "1224 Blackwood/Clementon Rd.", "addr:city": "Clementon", "addr:state": "NJ", "addr:postcode": "08021", "addr:country": "US", "name": "ShopRite of Laurel Hill", "phone": "(856) 627-6500", "website": "https://www.shoprite.com/sm/planning/rsid/539", "opening_hours": "Mo-Su 07:00-23:00", "brand": "ShopRite", "brand:wikidata": "Q7501097", "nsi_id": "shoprite-dde59d"}, "geometry": {"type": "Point", "coordinates": [-75.02544, 39.803096]}},
{"type": "Feature", "id": "s5nbPtX-DIeXESzAXhwwCdys6Y0=", "properties": {"ref": "540", "@spider": "shoprite", "shop": "supermarket", "addr:street_address": "208 Rt 70 East", "addr:city": "Medford", "addr:state": "NJ", "addr:postcode": "08055", "addr:country": "US", "name": "ShopRite of Medford", "phone": "(609) 953-7700", "website": "https://www.shoprite.com/sm/planning/rsid/540", "opening_hours": "Mo-Su 07:00-23:00", "brand": "ShopRite", "brand:wikidata": "Q7501097", "nsi_id": "shoprite-dde59d"}, "geometry": {"type": "Point", "coordinates": [-74.820769, 39.903632]}},
{"type": "Feature", "id": "8KZLOy3pnJOUsqUGnbpAVnupzvs=", "properties": {"ref": "554", "@spider": "shoprite", "shop": "supermarket", "addr:street_address": "201 Dalton Drive", "addr:city": "Glassboro", "addr:state": "NJ", "addr:postcode": "08028", "addr:country": "US", "name": "ShopRite of Glassboro", "phone": "(856) 863-3700", "website": "https://www.shoprite.com/sm/planning/rsid/554", "opening_hours": "Mo-Su 07:00-23:00", "brand": "ShopRite", "brand:wikidata": "Q7501097", "nsi_id": "shoprite-dde59d"}, "geometry": {"type": "Point", "coordinates": [-75.109484, 39.719309]}},
{"type": "Feature", "id": "zVjIhRdytTlK0xwYvCMw8S3Z2uA=", "properties": {"ref": "566", "@spider": "shoprite", "shop": "supermarket", "addr:street_address": "1225 Rt 33 Hamilton Plaza", "addr:city": "Hamilton Township", "addr:state": "NJ", "addr:postcode": "08690", "addr:country": "US", "name": "ShopRite of Hamilton Square", "phone": "(609) 890-8088", "website": "https://www.shoprite.com/sm/planning/rsid/566", "opening_hours": "Mo-Sa 07:00-23:00", "brand": "ShopRite", "brand:wikidata": "Q7501097", "nsi_id": "shoprite-dde59d"}, "geometry": {"type": "Point", "coordinates": [-74.664674, 40.22605]}},
{"type": "Feature", "id": "_uEcuWQscX7aZ0Xqgl8-2AZGCD4=", "properties": {"ref": "572", "@spider": "shoprite", "shop": "supermarket", "addr:street_address": "622 US-206", "addr:city": "Bordentown", "addr:state": "NJ", "addr:postcode": "08505", "addr:country": "US", "name": "ShopRite of Bordentown", "phone": "(609) 298-8700", "website": "https://www.shoprite.com/sm/planning/rsid/572", "opening_hours": "Mo-Sa 07:00-23:00", "brand": "ShopRite", "brand:wikidata": "Q7501097", "nsi_id": "shoprite-dde59d"}, "geometry": {"type": "Point", "coordinates": [-74.703934, 40.173786]}},
{"type": "Feature", "id": "TMWQnhwCmYx7UJ_CdbrC92l33TE=", "properties": {"ref": "597", "@spider": "shoprite", "shop": "supermarket", "addr:street_address": "1115 West Chester Pike", "addr:city": "West Chester", "addr:state": "PA", "addr:postcode": "19382", "addr:country": "US", "name": "ShopRite of West Chester", "phone": "(610) 696-4066", "website": "https://www.shoprite.com/sm/planning/rsid/597", "opening_hours": "Mo-Su 07:00-21:00", "brand": "ShopRite", "brand:wikidata": "Q7501097", "nsi_id": "shoprite-dde59d"}, "geometry": {"type": "Point", "coordinates": [-75.572773, 39.970536]}},
{"type": "Feature", "id": "A-6bx6bTI2GBakjFxwuICoXAcFE=", "properties": {"ref": "599", "@spider": "shoprite", "shop": "supermarket", "addr:street_address": "170 Forty Foot Road", "addr:city": "Hatfield", "addr:state": "PA", "addr:postcode": "19440", "addr:country": "US", "name": "ShopRite of Hatfield", "phone": "(215) 368-4440", "website": "https://www.shoprite.com/sm/planning/rsid/599", "opening_hours": "Mo-Su 07:00-21:00", "brand": "ShopRite", "brand:wikidata": "Q7501097", "nsi_id": "shoprite-dde59d"}, "geometry": {"type": "Point", "coordinates": [-75.317989, 40.266988]}},
{"type": "Feature", "id": "Nwj6ECpK7hsYdQ4J4fTWAs6dgPM=", "properties": {"ref": "651", "@spider": "shoprite", "shop": "supermarket", "addr:street_address": "1077 Mantua Pike", "addr:city": "West Deptford", "addr:state": "NJ", "addr:postcode": "08096", "addr:country": "US", "name": "ShopRite of West Deptford", "phone": "(856) 468-8700", "website": "https://www.shoprite.com/sm/planning/rsid/651", "opening_hours": "Mo-Su 07:00-23:00", "brand": "ShopRite", "brand:wikidata": "Q7501097", "nsi_id": "shoprite-dde59d"}, "geometry": {"type": "Point", "coordinates": [-75.170382, 39.804622]}},
{"type": "Feature", "id": "Obay-xOF8HENGGoUKcZhMwucAuw=", "properties": {"ref": "105", "@spider": "shoprite", "shop": "supermarket", "addr:street_address": "100 Passaic Ave", "addr:city": "Kearny", "addr:state": "NJ", "addr:postcode": "07032", "addr:country": "US", "name": "ShopRite of Kearny", "phone": "(201) 998-1595", "website": "https://www.shoprite.com/sm/planning/rsid/105", "opening_hours": "Mo-Sa 06:00-00:00", "brand": "ShopRite", "brand:wikidata": "Q7501097", "nsi_id": "shoprite-dde59d"}, "geometry": {"type": "Point", "coordinates": [-74.160296, 40.756877]}},
{"type": "Feature", "id": "-a0xpn3ldZuHf082HN1FqDXGqa4=", "properties": {"ref": "111", "@spider": "shoprite", "shop": "supermarket", "addr:street_address": "437 Franklin Ave", "addr:city": "Nutley", "addr:state": "NJ", "addr:postcode": "07110", "addr:country": "US", "name": "ShopRite of Nutley", "phone": "(973) 235-1213", "website": "https://www.shoprite.com/sm/planning/rsid/111", "opening_hours": "Mo-Su 07:00-23:00", "brand": "ShopRite", "brand:wikidata": "Q7501097", "nsi_id": "shoprite-dde59d"}, "geometry": {"type": "Point", "coordinates": [-74.158176, 40.821713]}},
{"type": "Feature", "id": "FdagfFKXm71O4YCdAb8SpXv0XuU=", "properties": {"ref": "113", "@spider": "shoprite", "shop": "supermarket", "addr:street_address": "540 New York Ave", "addr:city": "Lyndhurst", "addr:state": "NJ", "addr:postcode": "07071", "addr:country": "US", "name": "ShopRite of Lyndhurst", "phone": "(201) 372-6181", "website": "https://www.shoprite.com/sm/planning/rsid/113", "opening_hours": "Mo-Su 07:00-00:00", "brand": "ShopRite", "brand:wikidata": "Q7501097", "nsi_id": "shoprite-dde59d"}, "geometry": {"type": "Point", "coordinates": [-74.118779, 40.811994]}},
{"type": "Feature", "id": "12OUw68EFfts3bgSi0wuFmW9VUU=", "properties": {"ref": "117", "@spider": "shoprite", "shop": "supermarket", "addr:street_address": "425 Old Hook Road", "addr:city": "Emerson", "addr:state": "NJ", "addr:postcode": "07630", "addr:country": "US", "name": "ShopRite of Emerson", "phone": "(201) 262-0012", "website": "https://www.shoprite.com/sm/planning/rsid/117", "opening_hours": "Mo-Su 07:00-22:00", "brand": "ShopRite", "brand:wikidata": "Q7501097", "nsi_id": "shoprite-dde59d"}, "geometry": {"type": "Point", "coordinates": [-74.006966, 40.981769]}},
{"type": "Feature", "id": "0wAR3liweoUzs9jLgAxY-nGtZQc=", "properties": {"ref": "118", "@spider": "shoprite", "shop": "supermarket", "addr:street_address": "900 Madison St", "addr:city": "Hoboken", "addr:state": "NJ", "addr:postcode": "07030", "addr:country": "US", "name": "ShopRite of Hoboken", "phone": "(201) 792-6070", "website": "https://www.shoprite.com/sm/planning/rsid/118", "opening_hours": "Mo-Su 07:00-22:00", "brand": "ShopRite", "brand:wikidata": "Q7501097", "nsi_id": "shoprite-dde59d"}, "geometry": {"type": "Point", "coordinates": [-74.036571, 40.749467]}},
{"type": "Feature", "id": "Pj12qm1PFGAuonw8qEiqAhB_8_g=", "properties": {"ref": "119", "@spider": "shoprite", "shop": "supermarket", "addr:street_address": "583-9 Avenue C", "addr:city": "Bayonne", "addr:state": "NJ", "addr:postcode": "07002", "addr:country": "US", "name": "ShopRite of Bayonne-26 Street", "phone": "(201) 437-6000", "website": "https://www.shoprite.com/sm/planning/rsid/119", "opening_hours": "Mo-Su 07:00-00:00", "brand": "ShopRite", "brand:wikidata": "Q7501097", "nsi_id": "shoprite-dde59d"}, "geometry": {"type": "Point", "coordinates": [-74.131019, 40.645915]}},
{"type": "Feature", "id": "8-AsXm52qqMOUPNC4m19EeZM84w=", "properties": {"ref": "120", "@spider": "shoprite", "shop": "supermarket", "addr:street_address": "503 Paulison Avenue", "addr:city": "Passaic", "addr:state": "NJ", "addr:postcode": "07055", "addr:country": "US", "name": "ShopRite of Passaic on Paulison Ave", "phone": "(973) 471-0868", "website": "https://www.shoprite.com/sm/planning/rsid/120", "opening_hours": "Mo-Su 07:00-23:00", "brand": "ShopRite", "brand:wikidata": "Q7501097", "nsi_id": "shoprite-dde59d"}, "geometry": {"type": "Point", "coordinates": [-74.139813, 40.862192]}},
{"type": "Feature", "id": "SIJ9xRnxa7-Jpn1ISD52DGjIP3I=", "properties": {"ref": "121", "@spider": "shoprite", "shop": "supermarket", "addr:street_address": "220 W Passaic St", "addr:city": "Rochelle Park", "addr:state": "NJ", "addr:postcode": "07662", "addr:country": "US", "name": "ShopRite of Rochelle Park", "phone": "(201) 843-1424", "website": "https://www.shoprite.com/sm/planning/rsid/121", "opening_hours": "24/7", "brand": "ShopRite", "brand:wikidata": "Q7501097", "nsi_id": "shoprite-dde59d"}, "geometry": {"type": "Point", "coordinates": [-74.080496, 40.915267]}},
{"type": "Feature", "id": "zhPfsFuoLc8Rjgno_PtEw4sv8Es=", "properties": {"ref": "122", "@spider": "shoprite", "shop": "supermarket", "addr:street_address": "175 Main Street", "addr:city": "Lodi", "addr:state": "NJ", "addr:postcode": "07644", "addr:country": "US", "name": "ShopRite of Lodi", "phone": "(973) 365-2287", "website": "https://www.shoprite.com/sm/planning/rsid/122", "opening_hours": "Mo-Su 07:00-22:00", "brand": "ShopRite", "brand:wikidata": "Q7501097", "nsi_id": "shoprite-dde59d"}, "geometry": {"type": "Point", "coordinates": [-74.085012, 40.879585]}},
{"type": "Feature", "id": "yb-RmZJVhGZrUGnBvDyP3mT2t50=", "properties": {"ref": "123", "@spider": "shoprite", "shop": "supermarket", "addr:street_address": "1717 River Road", "addr:city": "Fair Lawn", "addr:state": "NJ", "addr:postcode": "07410", "addr:country": "US", "name": "ShopRite of River Road", "phone": "(201) 475-3750", "website": "https://www.shoprite.com/sm/planning/rsid/123", "opening_hours": "Mo-Su 07:00-00:00", "brand": "ShopRite", "brand:wikidata": "Q7501097", "nsi_id": "shoprite-dde59d"}, "geometry": {"type": "Point", "coordinates": [-74.13745, 40.938484]}},
{"type": "Feature", "id": "ip3awv4GuFGKZxuRKlwhrJ-E-38=", "properties": {"ref": "126", "@spider": "shoprite", "shop": "supermarket", "addr:street_address": "726 Washington Ave", "addr:city": "Belleville", "addr:state": "NJ", "addr:postcode": "07109", "addr:country": "US", "name": "ShopRite of Belleville", "phone": "(973) 302-8600", "website": "https://www.shoprite.com/sm/planning/rsid/126", "opening_hours": "Mo-Su 07:00-23:00", "brand": "ShopRite", "brand:wikidata": "Q7501097", "nsi_id": "shoprite-dde59d"}, "geometry": {"type": "Point", "coordinates": [-74.145329, 40.804861]}},
{"type": "Feature", "id": "T1uQYzUb-da1d1UslIGGke9jnvU=", "properties": {"ref": "130", "@spider": "shoprite", "shop": "supermarket", "addr:street_address": "3147 Kennedy Blvd", "addr:city": "North Bergen", "addr:state": "NJ", "addr:postcode": "07047", "addr:country": "US", "name": "ShopRite of Columbia Park", "phone": "(201) 553-5700", "website": "https://www.shoprite.com/sm/planning/rsid/130", "opening_hours": "Mo-Su 07:00-00:00", "brand": "ShopRite", "brand:wikidata": "Q7501097", "nsi_id": "shoprite-dde59d"}, "geometry": {"type": "Point", "coordinates": [-74.035172, 40.774653]}},
{"type": "Feature", "id": "bkU8u_QmQLCdt7P4-n2qaSywJcs=", "properties": {"ref": "134", "@spider": "shoprite", "shop": "supermarket", "addr:street_address": "500 South River Street", "addr:city": "Hackensack", "addr:state": "NJ", "addr:postcode": "07601", "addr:country": "US", "name": "ShopRite of Hackensack", "phone": "(201) 329-7470", "website": "https://www.shoprite.com/sm/planning/rsid/134", "opening_hours": "Mo-Su 07:00-22:00", "brand": "ShopRite", "brand:wikidata": "Q7501097", "nsi_id": "shoprite-dde59d"}, "geometry": {"type": "Point", "coordinates": [-74.034559, 40.863578]}},
{"type": "Feature", "id": "hwPR5Ok-IWXloMKLMwRp1jubchY=", "properties": {"ref": "136", "@spider": "shoprite", "shop": "supermarket", "addr:street_address": "375 Paterson Ave.", "addr:city": "Wallington", "addr:state": "NJ", "addr:postcode": "07057", "addr:country": "US", "name": "ShopRite of Wallington", "phone": "(201) 508-8000", "website": "https://www.shoprite.com/sm/planning/rsid/136", "opening_hours": "Mo-Su 07:00-00:00", "brand": "ShopRite", "brand:wikidata": "Q7501097", "nsi_id": "shoprite-dde59d"}, "geometry": {"type": "Point", "coordinates": [-74.106828, 40.84493]}},
{"type": "Feature", "id": "T1RKDi3R-HQ3kN4_uzB9RH252jU=", "properties": {"ref": "139", "@spider": "shoprite", "shop": "supermarket", "addr:street_address": "Luis Marin Blvd & 6th St", "addr:city": "Jersey City", "addr:state": "NJ", "addr:postcode": "07302", "addr:country": "US", "name": "ShopRite of Metro Plaza", "phone": "(201) 418-0300", "website": "https://www.shoprite.com/sm/planning/rsid/139", "opening_hours": "Mo-Su 07:00-00:00", "brand": "ShopRite", "brand:wikidata": "Q7501097", "nsi_id": "shoprite-dde59d"}, "geometry": {"type": "Point", "coordinates": [-74.040099, 40.724348]}},
{"type": "Feature", "id": "rI3CjYQSX5YyQAXIBrPA1dOLAzc=", "properties": {"ref": "140", "@spider": "shoprite", "shop": "supermarket", "addr:street_address": "430 Greenwood Avenue", "addr:city": "Wyckoff", "addr:state": "NJ", "addr:postcode": "07481", "addr:country": "US", "name": "ShopRite of Wyckoff", "phone": "(201) 560-0490", "website": "https://www.shoprite.com/sm/planning/rsid/140", "opening_hours": "Mo-Su 07:00-22:00", "brand": "ShopRite", "brand:wikidata": "Q7501097", "nsi_id": "shoprite-dde59d"}, "geometry": {"type": "Point", "coordinates": [-74.169846, 41.013517]}},
{"type": "Feature", "id": "XICB7p3MxZKJ1avQBVWu3JxLxGM=", "properties": {"ref": "141", "@spider": "shoprite", "shop": "supermarket", "addr:street_address": "250 River Rd", "addr:city": "New Milford", "addr:state": "NJ", "addr:postcode": "07646", "addr:country": "US", "name": "ShopRite of New Milford", "phone": "(201) 262-8834", "website": "https://www.shoprite.com/sm/planning/rsid/141", "opening_hours": "Mo-Su 07:00-12:00", "brand": "ShopRite", "brand:wikidata": "Q7501097", "nsi_id": "shoprite-dde59d"}, "geometry": {"type": "Point", "coordinates": [-74.019998, 40.94515]}},
{"type": "Feature", "id": "779zSc4Gbbq-HRTaVZ0LQUAVb3g=", "properties": {"ref": "150", "@spider": "shoprite", "shop": "supermarket", "addr:street_address": "Central Blvd & Depot Place", "addr:city": "Palisades Park", "addr:state": "NJ", "addr:postcode": "07650", "addr:country": "US", "name": "ShopRite of Palisades Park", "phone": "(201) 461-0219", "website": "https://www.shoprite.com/sm/planning/rsid/150", "opening_hours": "Mo-Su 07:00-22:00", "brand": "ShopRite", "brand:wikidata": "Q7501097", "nsi_id": "shoprite-dde59d"}, "geometry": {"type": "Point", "coordinates": [-74.004666, 40.851981]}},
{"type": "Feature", "id": "5_uNFBsAhKGMqXxZYQzWJPN37Hk=", "properties": {"ref": "151", "@spider": "shoprite", "shop": "supermarket", "addr:street_address": "372 Broadway", "addr:city": "Hillsdale", "addr:state": "NJ", "addr:postcode": "07642", "addr:country": "US", "name": "ShopRite of Hillsdale", "phone": "(201) 666-7821", "website": "https://www.shoprite.com/sm/planning/rsid/151", "opening_hours": "Mo-Su 07:00-22:00", "brand": "ShopRite", "brand:wikidata": "Q7501097", "nsi_id": "shoprite-dde59d"}, "geometry": {"type": "Point", "coordinates": [-74.041369, 41.012753]}},
{"type": "Feature", "id": "USpxVqcHx7KEj77C3s1Bm4MV-a8=", "properties": {"ref": "153", "@spider": "shoprite", "shop": "supermarket", "addr:street_address": "246 Livingston Ave", "addr:city": "Northvale", "addr:state": "NJ", "addr:postcode": "07647", "addr:country": "US", "name": "ShopRite of Northvale", "phone": "(201) 784-0173", "website": "https://www.shoprite.com/sm/planning/rsid/153", "opening_hours": "Mo-Su 07:00-22:00", "brand": "ShopRite", "brand:wikidata": "Q7501097", "nsi_id": "shoprite-dde59d"}, "geometry": {"type": "Point", "coordinates": [-73.944856, 41.012466]}},
{"type": "Feature", "id": "vnyzXvBozLLeBWyZvsTaEM41t8o=", "properties": {"ref": "156", "@spider": "shoprite", "shop": "supermarket", "addr:street_address": "Convery Blvd & Fayette", "addr:city": "Perth Amboy", "addr:state": "NJ", "addr:postcode": "08861", "addr:country": "US", "name": "ShopRite of Perth Amboy", "phone": "(732) 442-1717", "website": "https://www.shoprite.com/sm/planning/rsid/156", "opening_hours": "24/7", "brand": "ShopRite", "brand:wikidata": "Q7501097", "nsi_id": "shoprite-dde59d"}, "geometry": {"type": "Point", "coordinates": [-74.287163, 40.516616]}},
{"type": "Feature", "id": "5UDNqetJHLvaRnet5latP8o97qE=", "properties": {"ref": "159", "@spider": "shoprite", "shop": "supermarket", "addr:street_address": "370 Route 22 West", "addr:city": "Hillside", "addr:state": "NJ", "addr:postcode": "07205", "addr:country": "US", "name": "ShopRite of Hillside", "phone": "(908) 810-4662", "website": "https://www.shoprite.com/sm/planning/rsid/159", "opening_hours": "Mo-Su 06:00-00:00", "brand": "ShopRite", "brand:wikidata": "Q7501097", "nsi_id": "shoprite-dde59d"}, "geometry": {"type": "Point", "coordinates": [-74.234321, 40.700405]}},
{"type": "Feature", "id": "MM-nFq3QqhF7p-WQgyVfl_sswtY=", "properties": {"ref": "160", "@spider": "shoprite", "shop": "supermarket", "addr:street_address": "224 Rt 4 East At Forest Ave", "addr:city": "Paramus", "addr:state": "NJ", "addr:postcode": "07652", "addr:country": "US", "name": "ShopRite of Paramus", "phone": "(201) 843-6616", "website": "https://www.shoprite.com/sm/planning/rsid/160", "opening_hours": "Mo-Su 07:00-23:00", "brand": "ShopRite", "brand:wikidata": "Q7501097", "nsi_id": "shoprite-dde59d"}, "geometry": {"type": "Point", "coordinates": [-74.052792, 40.913967]}},
{"type": "Feature", "id": "6w8eHsCmINnwapp0-jR7kouO8WI=", "properties": {"ref": "162", "@spider": "shoprite", "shop": "supermarket", "addr:street_address": "563 North Avenue East", "addr:city": "Garwood", "addr:state": "NJ", "addr:postcode": "07027", "addr:country": "US", "name": "ShopRite of Garwood", "phone": "(908) 654-0803", "website": "https://www.shoprite.com/sm/planning/rsid/162", "opening_hours": "Mo-Sa 07:00-22:00", "brand": "ShopRite", "brand:wikidata": "Q7501097", "nsi_id": "shoprite-dde59d"}, "geometry": {"type": "Point", "coordinates": [-74.331156, 40.652125]}},
{"type": "Feature", "id": "HKimcILIPKMa63ErmagDQ3W1pB0=", "properties": {"ref": "163", "@spider": "shoprite", "shop": "supermarket", "addr:street_address": "76 Central Avenue", "addr:city": "Clark", "addr:state": "NJ", "addr:postcode": "07066 ", "addr:country": "US", "name": "ShopRite of Clark", "phone": "(732) 381-7600", "website": "https://www.shoprite.com/sm/planning/rsid/163", "opening_hours": "Mo-Sa 06:00-01:00", "brand": "ShopRite", "brand:wikidata": "Q7501097", "nsi_id": "shoprite-dde59d"}, "geometry": {"type": "Point", "coordinates": [-74.305277, 40.629139]}},
{"type": "Feature", "id": "SRFyxctfUnJE-fQJy5T-7zOX-Hw=", "properties": {"ref": "164", "@spider": "shoprite", "shop": "supermarket", "addr:street_address": "Rt 1 N & Stiles Street", "addr:city": "Linden", "addr:state": "NJ", "addr:postcode": "07036", "addr:country": "US", "name": "ShopRite of Linden", "phone": "(908) 523-0707", "website": "https://www.shoprite.com/sm/planning/rsid/164", "opening_hours": "24/7", "brand": "ShopRite", "brand:wikidata": "Q7501097", "nsi_id": "shoprite-dde59d"}, "geometry": {"type": "Point", "coordinates": [-74.247154, 40.618325]}},
{"type": "Feature", "id": "ue6rh9xdF8zgN_LoIsAqiwMEFMY=", "properties": {"ref": "169", "@spider": "shoprite", "shop": "supermarket", "addr:street_address": "40 Nathaniel Place", "addr:city": "Englewood", "addr:state": "NJ", "addr:postcode": "07631", "addr:country": "US", "name": "ShopRite of Englewood", "phone": "(201) 816-8330", "website": "https://www.shoprite.com/sm/planning/rsid/169", "opening_hours": "24/7", "brand": "ShopRite", "brand:wikidata": "Q7501097", "nsi_id": "shoprite-dde59d"}, "geometry": {"type": "Point", "coordinates": [-73.975547, 40.896667]}},
{"type": "Feature", "id": "tLnuuljMjYOfrxXZhd-JEkD18l0=", "properties": {"ref": "191", "@spider": "shoprite", "shop": "supermarket", "addr:street_address": "865 West Grand Street", "addr:city": "Elizabeth", "addr:state": "NJ", "addr:postcode": "07202", "addr:country": "US", "name": "ShopRite of Elizabeth", "phone": "(908) 558-9126", "website": "https://www.shoprite.com/sm/planning/rsid/191", "opening_hours": "24/7", "brand": "ShopRite", "brand:wikidata": "Q7501097", "nsi_id": "shoprite-dde59d"}, "geometry": {"type": "Point", "coordinates": [-74.238914, 40.66384]}},
{"type": "Feature", "id": "u4W6s9n3vcq3albt0KdNynkivYc=", "properties": {"ref": "193", "@spider": "shoprite", "shop": "supermarket", "addr:street_address": "280 Union Hill Rd & Rt 9", "addr:city": "Marlboro", "addr:state": "NJ", "addr:postcode": "07751", "addr:country": "US", "name": "ShopRite of Marlboro", "phone": "(732) 617-0404", "website": "https://www.shoprite.com/sm/planning/rsid/193", "opening_hours": "Mo-Sa 07:00-23:00", "brand": "ShopRite", "brand:wikidata": "Q7501097", "nsi_id": "shoprite-dde59d"}, "geometry": {"type": "Point", "coordinates": [-74.305756, 40.342731]}},
{"type": "Feature", "id": "ygdkN7Xj77jPIXCQu-wYsV4DuW4=", "properties": {"ref": "201", "@spider": "shoprite", "shop": "supermarket", "addr:street_address": "75 Rt 46/Lackawana Plaza", "addr:city": "Netcong", "addr:state": "NJ", "addr:postcode": "07857", "addr:country": "US", "name": "ShopRite of Netcong", "phone": "(973) 347-0138", "website": "https://www.shoprite.com/sm/planning/rsid/201", "opening_hours": "Mo-Sa 08:00-21:00", "brand": "ShopRite", "brand:wikidata": "Q7501097", "nsi_id": "shoprite-dde59d"}, "geometry": {"type": "Point", "coordinates": [-74.705331, 40.896848]}},
{"type": "Feature", "id": "SxG73Ng9XeMWRI-CAxDd8N3qwE8=", "properties": {"ref": "203", "@spider": "shoprite", "shop": "supermarket", "addr:street_address": "90-80 Route 206 North", "addr:city": "Byram Township", "addr:state": "NJ", "addr:postcode": "07874", "addr:country": "US", "name": "ShopRite of Byram", "phone": "(973) 448-9770", "website": "https://www.shoprite.com/sm/planning/rsid/203", "opening_hours": "Mo-Sa 08:00-21:00", "brand": "ShopRite", "brand:wikidata": "Q7501097", "nsi_id": "shoprite-dde59d"}, "geometry": {"type": "Point", "coordinates": [-74.718522, 40.934819]}},
{"type": "Feature", "id": "NWGPJQapKcmdHMaNK_oLupgQtl8=", "properties": {"ref": "205", "@spider": "shoprite", "shop": "supermarket", "addr:street_address": "Browertown Rd", "addr:city": "Little Falls", "addr:state": "NJ", "addr:postcode": "07424", "addr:country": "US", "name": "ShopRite of Little Falls", "phone": "(973) 256-0909", "website": "https://www.shoprite.com/sm/planning/rsid/205", "opening_hours": "Mo-Su 06:00-23:00", "brand": "ShopRite", "brand:wikidata": "Q7501097", "nsi_id": "shoprite-dde59d"}, "geometry": {"type": "Point", "coordinates": [-74.211391, 40.881767]}},
{"type": "Feature", "id": "810bnrwVU4dAaT1VPeKwno7q0pI=", "properties": {"ref": "207", "@spider": "shoprite", "shop": "supermarket", "addr:street_address": "540 Passaic Ave", "addr:city": "West Caldwell", "addr:state": "NJ", "addr:postcode": "07006", "addr:country": "US", "name": "ShopRite of West Caldwell", "phone": "(973) 575-1770", "website": "https://www.shoprite.com/sm/planning/rsid/207", "opening_hours": "Mo-Su 06:00-23:00", "brand": "ShopRite", "brand:wikidata": "Q7501097", "nsi_id": "shoprite-dde59d"}, "geometry": {"type": "Point", "coordinates": [-74.296699, 40.848278]}},
{"type": "Feature", "id": "J4hQIDCPP--V_wT1pu0XCNMbpMQ=", "properties": {"ref": "212", "@spider": "shoprite", "shop": "supermarket", "addr:street_address": "90 Bartley Road", "addr:city": "Flanders", "addr:state": "NJ", "addr:postcode": "07836", "addr:country": "US", "name": "ShopRite of Flanders", "phone": "(973) 252-5160", "website": "https://www.shoprite.com/sm/planning/rsid/212", "opening_hours": "Mo-Sa 08:00-21:00", "brand": "ShopRite", "brand:wikidata": "Q7501097", "nsi_id": "shoprite-dde59d"}, "geometry": {"type": "Point", "coordinates": [-74.7141307, 40.8349643]}},
{"type": "Feature", "id": "o9rUl_jhEGiZKuxP7SDToHh7A_4=", "properties": {"ref": "213", "@spider": "shoprite", "shop": "supermarket", "addr:street_address": "127 Water Street", "addr:city": "Newton", "addr:state": "NJ", "addr:postcode": "07860", "addr:country": "US", "name": "ShopRite of Newton", "phone": "(973) 383-6900", "website": "https://www.shoprite.com/sm/planning/rsid/213", "opening_hours": "Mo-Sa 08:00-21:00", "brand": "ShopRite", "brand:wikidata": "Q7501097", "nsi_id": "shoprite-dde59d"}, "geometry": {"type": "Point", "coordinates": [-74.744878, 41.065498]}},
{"type": "Feature", "id": "k0GF67G8MZhzkreCYEPHFc4y0aM=", "properties": {"ref": "215", "@spider": "shoprite", "shop": "supermarket", "addr:street_address": "1409 Broad Street", "addr:city": "Bloomfield", "addr:state": "NJ", "addr:postcode": "07003", "addr:country": "US", "name": "ShopRite of Brookdale", "phone": "(973) 338-4141", "website": "https://www.shoprite.com/sm/planning/rsid/215", "opening_hours": "Mo-Su 07:00-22:00", "brand": "ShopRite", "brand:wikidata": "Q7501097", "nsi_id": "shoprite-dde59d"}, "geometry": {"type": "Point", "coordinates": [-74.18799, 40.80851]}},
{"type": "Feature", "id": "cp2wSDBH87Jh_tSsjuI2TKT5ryM=", "properties": {"ref": "219", "@spider": "shoprite", "shop": "supermarket", "addr:street_address": "26 N Middletown Rd", "addr:city": "Pearl River", "addr:state": "NY", "addr:postcode": "10965", "addr:country": "US", "name": "ShopRite of Pearl River", "phone": "(845) 735-4871", "website": "https://www.shoprite.com/sm/planning/rsid/219", "opening_hours": "Mo-Su 06:00-23:00", "brand": "ShopRite", "brand:wikidata": "Q7501097", "nsi_id": "shoprite-dde59d"}, "geometry": {"type": "Point", "coordinates": [-74.011663, 41.060814]}},
{"type": "Feature", "id": "S98IrQwHH2EovcCV2hYBkEDpZ8s=", "properties": {"ref": "222", "@spider": "shoprite", "shop": "supermarket", "addr:street_address": "Main St", "addr:city": "New City", "addr:state": "NY", "addr:postcode": "10956", "addr:country": "US", "name": "ShopRite of New City", "phone": "(845) 638-3218", "website": "https://www.shoprite.com/sm/planning/rsid/222", "opening_hours": "Mo-Su 07:00-22:00", "brand": "ShopRite", "brand:wikidata": "Q7501097", "nsi_id": "shoprite-dde59d"}, "geometry": {"type": "Point", "coordinates": [-73.987657, 41.149128]}},
{"type": "Feature", "id": "37TMsrwb66fcBFPicKNfFBADWQQ=", "properties": {"ref": "224", "@spider": "shoprite", "shop": "supermarket", "addr:street_address": "Rt 57 West & Allen St", "addr:city": "Hackettstown", "addr:state": "NJ", "addr:postcode": "07840", "addr:country": "US", "name": "ShopRite of Mansfield", "phone": "(908) 852-1200", "website": "https://www.shoprite.com/sm/planning/rsid/224", "opening_hours": "Mo-Sa 08:00-21:00", "brand": "ShopRite", "brand:wikidata": "Q7501097", "nsi_id": "shoprite-dde59d"}, "geometry": {"type": "Point", "coordinates": [-74.836386, 40.823081]}},
{"type": "Feature", "id": "xSgfbwMznsO-81kFL8zJEiUFhn4=", "properties": {"ref": "225", "@spider": "shoprite", "shop": "supermarket", "addr:street_address": "533 Martin Luther King Boulevard", "addr:city": "East Orange", "addr:state": "NJ", "addr:postcode": "07019", "addr:country": "US", "name": "ShopRite of East Orange", "phone": "(973) 674-1500", "website": "https://www.shoprite.com/sm/planning/rsid/225", "opening_hours": "24/7", "brand": "ShopRite", "brand:wikidata": "Q7501097", "nsi_id": "shoprite-dde59d"}, "geometry": {"type": "Point", "coordinates": [-74.218697, 40.766396]}},
{"type": "Feature", "id": "pGY9HkfLEBxcCJxNXgl52lOCBjI=", "properties": {"ref": "245", "@spider": "shoprite", "shop": "supermarket", "addr:street_address": "178 E Hanover Ave", "addr:city": "Morristown", "addr:state": "NJ", "addr:postcode": "07960", "addr:country": "US", "name": "ShopRite of Greater Morristown", "phone": "(973) 829-6825", "website": "https://www.shoprite.com/sm/planning/rsid/245", "opening_hours": "Mo-Su 06:30-23:00", "brand": "ShopRite", "brand:wikidata": "Q7501097", "nsi_id": "shoprite-dde59d"}, "geometry": {"type": "Point", "coordinates": [-74.468915, 40.81393]}},
{"type": "Feature", "id": "2vLWNL7rBdfgLssWz3rKD6oUfac=", "properties": {"ref": "247", "@spider": "shoprite", "shop": "supermarket", "addr:street_address": "483 S Livingston Avenue", "addr:city": "Livingston", "addr:state": "NJ", "addr:postcode": "07039", "addr:country": "US", "name": "ShopRite of Livingston", "phone": "(973) 740-2004", "website": "https://www.shoprite.com/sm/planning/rsid/247", "opening_hours": "Mo-Su 06:30-23:00", "brand": "ShopRite", "brand:wikidata": "Q7501097", "nsi_id": "shoprite-dde59d"}, "geometry": {"type": "Point", "coordinates": [-74.321517, 40.774985]}},
{"type": "Feature", "id": "nIfCWZU3BscDV6N28Ao3OrAB5lc=", "properties": {"ref": "256", "@spider": "shoprite", "shop": "supermarket", "addr:street_address": "14 Post Road", "addr:city": "Oakland", "addr:state": "NJ", "addr:postcode": "07436", "addr:country": "US", "name": "ShopRite of Oakland", "phone": "(201) 337-3900", "website": "https://www.shoprite.com/sm/planning/rsid/256", "opening_hours": "Mo-Sa 06:00-23:00", "brand": "ShopRite", "brand:wikidata": "Q7501097", "nsi_id": "shoprite-dde59d"}, "geometry": {"type": "Point", "coordinates": [-74.256299, 41.014557]}},
{"type": "Feature", "id": "FvVJOkgYrgivleah_sLiAbVTJN0=", "properties": {"ref": "257", "@spider": "shoprite", "shop": "supermarket", "addr:street_address": "23 Marshall Hill Road", "addr:city": "West Milford", "addr:state": "NJ", "addr:postcode": "07480", "addr:country": "US", "name": "ShopRite of West Milford", "phone": "(973) 728-3458", "website": "https://www.shoprite.com/sm/planning/rsid/257", "opening_hours": "Mo-Su 07:00-00:00", "brand": "ShopRite", "brand:wikidata": "Q7501097", "nsi_id": "shoprite-dde59d"}, "geometry": {"type": "Point", "coordinates": [-74.365469, 41.131412]}},
{"type": "Feature", "id": "KTn9OhnqlfCX7K7BVMNyrmcUkyY=", "properties": {"ref": "262", "@spider": "shoprite", "shop": "supermarket", "addr:street_address": "2401D US Highway 22 W", "addr:city": "Union", "addr:state": "NJ", "addr:postcode": "07083", "addr:country": "US", "name": "ShopRite of Union, NJ - Highway 22", "phone": "(908) 810-6742", "website": "https://www.shoprite.com/sm/planning/rsid/262", "opening_hours": "Mo-Su 07:00-23:00", "brand": "ShopRite", "brand:wikidata": "Q7501097", "nsi_id": "shoprite-dde59d"}, "geometry": {"type": "Point", "coordinates": [-74.296143, 40.691348]}},
{"type": "Feature", "id": "H2mezH_MoWKnFT-fnNhseQdWxW4=", "properties": {"ref": "268", "@spider": "shoprite", "shop": "supermarket", "addr:street_address": "22 Holt Drive", "addr:city": "Stony Point", "addr:state": "NY", "addr:postcode": "10980", "addr:country": "US", "name": "ShopRite of Stony Point", "phone": "(845) 429-0692", "website": "https://www.shoprite.com/sm/planning/rsid/268", "opening_hours": "Mo-Sa 07:00-22:00", "brand": "ShopRite", "brand:wikidata": "Q7501097", "nsi_id": "shoprite-dde59d"}, "geometry": {"type": "Point", "coordinates": [-73.982361, 41.217865]}},
{"type": "Feature", "id": "TeFyHAHtuXAVuGynyqcfHPU3cDk=", "properties": {"ref": "273", "@spider": "shoprite", "shop": "supermarket", "addr:street_address": "Rt 206 Maple Avenue", "addr:city": "Chester", "addr:state": "NJ", "addr:postcode": "07930", "addr:country": "US", "name": "ShopRite of Chester, NJ", "phone": "(908) 879-5836", "website": "https://www.shoprite.com/sm/planning/rsid/273", "opening_hours": "Mo-Sa 07:00-22:00", "brand": "ShopRite", "brand:wikidata": "Q7501097", "nsi_id": "shoprite-dde59d"}, "geometry": {"type": "Point", "coordinates": [-74.694819, 40.780841]}},
{"type": "Feature", "id": "iaMGd_HhS65T0r0xgpsPx8IFUdo=", "properties": {"ref": "281", "@spider": "shoprite", "shop": "supermarket", "addr:street_address": "Roxbury Mall #3", "addr:city": "Succasunna", "addr:state": "NJ", "addr:postcode": "07876", "addr:country": "US", "name": "ShopRite of Succasunna", "phone": "(973) 584-1322", "website": "https://www.shoprite.com/sm/planning/rsid/281", "opening_hours": "Mo-Sa 08:00-21:00", "brand": "ShopRite", "brand:wikidata": "Q7501097", "nsi_id": "shoprite-dde59d"}, "geometry": {"type": "Point", "coordinates": [-74.649069, 40.868014]}},
{"type": "Feature", "id": "ySiLw387cGMmZQD2n-Ts_KRPMI8=", "properties": {"ref": "283", "@spider": "shoprite", "shop": "supermarket", "addr:street_address": "18 North Village Boulevard", "addr:city": "Sparta", "addr:state": "NJ", "addr:postcode": "07871", "addr:country": "US", "name": "ShopRite of Sparta", "phone": "(973) 729-6900", "website": "https://www.shoprite.com/sm/planning/rsid/283", "opening_hours": "Mo-Sa 08:00-21:00", "brand": "ShopRite", "brand:wikidata": "Q7501097", "nsi_id": "shoprite-dde59d"}, "geometry": {"type": "Point", "coordinates": [-74.656539, 41.076683]}},
{"type": "Feature", "id": "zRzm3uEi2twL1T6z8qx1oc56y9Q=", "properties": {"ref": "284", "@spider": "shoprite", "shop": "supermarket", "addr:street_address": "641 Shunpike Road", "addr:city": "Chatham", "addr:state": "NJ", "addr:postcode": "07928", "addr:country": "US", "name": "ShopRite of Chatham", "phone": "(973) 377-4788", "website": "https://www.shoprite.com/sm/planning/rsid/284", "opening_hours": "Mo-Sa 07:00-21:00", "brand": "ShopRite", "brand:wikidata": "Q7501097", "nsi_id": "shoprite-dde59d"}, "geometry": {"type": "Point", "coordinates": [-74.431979, 40.745445]}},
{"type": "Feature", "id": "cVA8d6gkF1jfv95nETT86PXlBmw=", "properties": {"ref": "287", "@spider": "shoprite", "shop": "supermarket", "addr:street_address": "Route 46 East", "addr:city": "Rockaway", "addr:state": "NJ", "addr:postcode": "07866", "addr:country": "US", "name": "ShopRite of Rockaway", "phone": "(973) 366-3343", "website": "https://www.shoprite.com/sm/planning/rsid/287", "opening_hours": "24/7", "brand": "ShopRite", "brand:wikidata": "Q7501097", "nsi_id": "shoprite-dde59d"}, "geometry": {"type": "Point", "coordinates": [-74.536357, 40.884758]}},
{"type": "Feature", "id": "qxQyQFlKDemsAFnn_RKN2RuUwjU=", "properties": {"ref": "288", "@spider": "shoprite", "shop": "supermarket", "addr:street_address": "243 East Route 59", "addr:city": "West Nyack", "addr:state": "NY", "addr:postcode": "10994", "addr:country": "US", "name": "ShopRite of West Nyack", "phone": "(845) 353-7377", "website": "https://www.shoprite.com/sm/planning/rsid/288", "opening_hours": "Mo-Su 07:00-10:00", "brand": "ShopRite", "brand:wikidata": "Q7501097", "nsi_id": "shoprite-dde59d"}, "geometry": {"type": "Point", "coordinates": [-73.95894, 41.092798]}},
{"type": "Feature", "id": "LaR5sOxCyJQl3SBqVKoXob6oFr4=", "properties": {"ref": "291", "@spider": "shoprite", "shop": "supermarket", "addr:street_address": "270 NJ-23", "addr:city": "Franklin", "addr:state": "NJ", "addr:postcode": "07416", "addr:country": "US", "name": "ShopRite of Franklin", "phone": "(973) 827-6135", "website": "https://www.shoprite.com/sm/planning/rsid/291", "opening_hours": "Mo-Sa 08:00-21:00", "brand": "ShopRite", "brand:wikidata": "Q7501097", "nsi_id": "shoprite-dde59d"}, "geometry": {"type": "Point", "coordinates": [-74.579127, 41.117562]}},
{"type": "Feature", "id": "GCDeVAklMrJpYYf_N_XhzdFvyI4=", "properties": {"ref": "292", "@spider": "shoprite", "shop": "supermarket", "addr:street_address": "56 West Ramapo Road", "addr:city": "Garnerville", "addr:state": "NY", "addr:postcode": "10923", "addr:country": "US", "name": "ShopRite of Garnerville", "phone": "(845) 786-3006", "website": "https://www.shoprite.com/sm/planning/rsid/292", "opening_hours": "Mo-Su 07:00-22:00", "brand": "ShopRite", "brand:wikidata": "Q7501097", "nsi_id": "shoprite-dde59d"}, "geometry": {"type": "Point", "coordinates": [-74.008654, 41.200295]}},
{"type": "Feature", "id": "duXwEqL04MOeyLpL_uuzS7Yogto=", "properties": {"ref": "294", "@spider": "shoprite", "shop": "supermarket", "addr:street_address": "727 Morris Tpke", "addr:city": "Springfield", "addr:state": "NJ", "addr:postcode": "07081", "addr:country": "US", "name": "ShopRite of Springfield", "phone": "(973) 376-3028", "website": "https://www.shoprite.com/sm/planning/rsid/294", "opening_hours": "Mo-Sa 07:00-22:00", "brand": "ShopRite", "brand:wikidata": "Q7501097", "nsi_id": "shoprite-dde59d"}, "geometry": {"type": "Point", "coordinates": [-74.331102, 40.718991]}},
{"type": "Feature", "id": "m8eEFzQp2ZztYgSFy9ldu_qlPzI=", "properties": {"ref": "296", "@spider": "shoprite", "shop": "supermarket", "addr:street_address": "1 Rooney Circle", "addr:city": "West Orange", "addr:state": "NJ", "addr:postcode": "07052", "addr:country": "US", "name": "ShopRite of Essex Green", "phone": "(973) 736-9374", "website": "https://www.shoprite.com/sm/planning/rsid/296", "opening_hours": "Mo-Su 06:30-23:00", "brand": "ShopRite", "brand:wikidata": "Q7501097", "nsi_id": "shoprite-dde59d"}, "geometry": {"type": "Point", "coordinates": [-74.255569, 40.79507]}},
{"type": "Feature", "id": "wOjIDaCBCMzqqUOhx3en-NGNk_o=", "properties": {"ref": "297", "@spider": "shoprite", "shop": "supermarket", "addr:street_address": "60 Beaver Brook Rd.", "addr:city": "Lincoln Park", "addr:state": "NJ", "addr:postcode": "07035", "addr:country": "US", "name": "ShopRite of Lincoln Park", "phone": "(973) 694-1080", "website": "https://www.shoprite.com/sm/planning/rsid/297", "opening_hours": "Mo-Sa 07:00-23:00", "brand": "ShopRite", "brand:wikidata": "Q7501097", "nsi_id": "shoprite-dde59d"}, "geometry": {"type": "Point", "coordinates": [-74.31314, 40.93046]}},
{"type": "Feature", "id": "9REWqwxe_XFP2kAwiPaXjMQxxVI=", "properties": {"ref": "298", "@spider": "shoprite", "shop": "supermarket", "addr:street_address": "220 Main Street", "addr:city": "Millburn", "addr:state": "NJ", "addr:postcode": "07041", "addr:country": "US", "name": "ShopRite of Millburn", "phone": "(973) 467-5436", "website": "https://www.shoprite.com/sm/planning/rsid/298", "opening_hours": "Mo-Sa 07:00-21:00", "brand": "ShopRite", "brand:wikidata": "Q7501097", "nsi_id": "shoprite-dde59d"}, "geometry": {"type": "Point", "coordinates": [-74.307334, 40.717988]}},
{"type": "Feature", "id": "ru4OvR27cOwmFCqMnhB6agjHxn4=", "properties": {"ref": "299", "@spider": "shoprite", "shop": "supermarket", "addr:street_address": "2200 Asbury Ave", "addr:city": "Neptune", "addr:state": "NJ", "addr:postcode": "07753", "addr:country": "US", "name": "ShopRite of Neptune", "phone": "(732) 775-4250", "website": "https://www.shoprite.com/sm/planning/rsid/299", "opening_hours": "Mo-Sa 07:00-23:00", "brand": "ShopRite", "brand:wikidata": "Q7501097", "nsi_id": "shoprite-dde59d"}, "geometry": {"type": "Point", "coordinates": [-74.042994, 40.224418]}},
{"type": "Feature", "id": "E0NlO0INXD7FJdkCbBumGKxMPUY=", "properties": {"ref": "453", "@spider": "shoprite", "shop": "supermarket", "addr:street_address": "93 Morristown Road", "addr:city": "Bernardsville", "addr:state": "NJ", "addr:postcode": "07924", "addr:country": "US", "name": "ShopRite of Bernardsville", "phone": "(908) 766-3129", "website": "https://www.shoprite.com/sm/planning/rsid/453", "opening_hours": "Mo-Su 07:00-21:00", "brand": "ShopRite", "brand:wikidata": "Q7501097", "nsi_id": "shoprite-dde59d"}, "geometry": {"type": "Point", "coordinates": [-74.562345, 40.718968]}},
{"type": "Feature", "id": "IfZzpH7-ZTDXRgz5M_hKmxr03bs=", "properties": {"ref": "470", "@spider": "shoprite", "shop": "supermarket", "addr:street_address": "3166 Route 22", "addr:city": "Branchburg", "addr:state": "NJ", "addr:postcode": "08876", "addr:country": "US", "name": "ShopRite of Branchburg", "phone": "(908) 704-3378", "website": "https://www.shoprite.com/sm/planning/rsid/470", "opening_hours": "Mo-Sa 07:00-23:00", "brand": "ShopRite", "brand:wikidata": "Q7501097", "nsi_id": "shoprite-dde59d"}, "geometry": {"type": "Point", "coordinates": [-74.691986, 40.604744]}},
{"type": "Feature", "id": "7F3EJcerUr073OZCc4rz_aGrWZY=", "properties": {"ref": "552", "@spider": "shoprite", "shop": "supermarket", "addr:street_address": "Piscataway Twn Centre", "addr:city": "Piscataway", "addr:state": "NJ", "addr:postcode": "08854", "addr:country": "US", "name": "ShopRite of Piscataway", "phone": "(732) 981-9111", "website": "https://www.shoprite.com/sm/planning/rsid/552", "opening_hours": "Mo-Sa 07:00-23:00", "brand": "ShopRite", "brand:wikidata": "Q7501097", "nsi_id": "shoprite-dde59d"}, "geometry": {"type": "Point", "coordinates": [-74.442585, 40.551542]}},
{"type": "Feature", "id": "Z99A6zgRVkMk2TxSqeyVKMJn6jg=", "properties": {"ref": "553", "@spider": "shoprite", "shop": "supermarket", "addr:street_address": "2909 Washington Road", "addr:city": "Parlin", "addr:state": "NJ", "addr:postcode": "08859", "addr:country": "US", "name": "ShopRite of Ernston Road", "phone": "(732) 525-8282", "website": "https://www.shoprite.com/sm/planning/rsid/553", "opening_hours": "Mo-Sa 07:00-23:00", "brand": "ShopRite", "brand:wikidata": "Q7501097", "nsi_id": "shoprite-dde59d"}, "geometry": {"type": "Point", "coordinates": [-74.312848, 40.467509]}},
{"type": "Feature", "id": "mDRyL7xjszV6xRdnWFo7W2ogj3Y=", "properties": {"ref": "604", "@spider": "shoprite", "shop": "supermarket", "addr:street_address": "2 Route 37 West", "addr:city": "Toms River", "addr:state": "NJ", "addr:postcode": "08753", "addr:country": "US", "name": "ShopRite of Route 37", "phone": "(732) 286-4500", "website": "https://www.shoprite.com/sm/planning/rsid/604", "opening_hours": "Mo-Su 06:00-22:00", "brand": "ShopRite", "brand:wikidata": "Q7501097", "nsi_id": "shoprite-dde59d"}, "geometry": {"type": "Point", "coordinates": [-74.205799, 39.965892]}},
{"type": "Feature", "id": "vBF6x0VEnvd6iwWePq9IdDFlaNs=", "properties": {"ref": "607", "@spider": "shoprite", "shop": "supermarket", "addr:street_address": "South St & Rt # 9", "addr:city": "Freehold", "addr:state": "NJ", "addr:postcode": "07728", "addr:country": "US", "name": "ShopRite of Freehold", "phone": "(732) 462-3120", "website": "https://www.shoprite.com/sm/planning/rsid/607", "opening_hours": "Mo-Sa 07:00-23:00", "brand": "ShopRite", "brand:wikidata": "Q7501097", "nsi_id": "shoprite-dde59d"}, "geometry": {"type": "Point", "coordinates": [-74.275912, 40.243314]}},
{"type": "Feature", "id": "2LpcNQyVcqyT4YbLXIBfR5fL5oA=", "properties": {"ref": "613", "@spider": "shoprite", "shop": "supermarket", "addr:street_address": "318 Lloyd Road", "addr:city": "Aberdeen", "addr:state": "NJ", "addr:postcode": "07747", "addr:country": "US", "name": "ShopRite of Aberdeen, NJ", "phone": "(732) 566-9111", "website": "https://www.shoprite.com/sm/planning/rsid/613", "opening_hours": "Mo-Sa 07:00-23:00", "brand": "ShopRite", "brand:wikidata": "Q7501097", "nsi_id": "shoprite-dde59d"}, "geometry": {"type": "Point", "coordinates": [-74.22154, 40.395279]}},
{"type": "Feature", "id": "vbg9vES2_vng9jdJEaPyc6TAMPs=", "properties": {"ref": "617", "@spider": "shoprite", "shop": "supermarket", "addr:street_address": "Rt 206 and Rt 518", "addr:city": "Montgomery Township", "addr:state": "NJ", "addr:postcode": "08558", "addr:country": "US", "name": "ShopRite of Montgomery, NJ", "phone": "(609) 279-9800", "website": "https://www.shoprite.com/sm/planning/rsid/617", "opening_hours": "Mo-Sa 07:00-23:00", "brand": "ShopRite", "brand:wikidata": "Q7501097", "nsi_id": "shoprite-dde59d"}, "geometry": {"type": "Point", "coordinates": [-74.647089, 40.404866]}},
{"type": "Feature", "id": "malUCUOcJh9r22HQygnuEzap934=", "properties": {"ref": "620", "@spider": "shoprite", "shop": "supermarket", "addr:street_address": "1151 Shrewsbury Avenue", "addr:city": "Shrewsbury", "addr:state": "NJ", "addr:postcode": "07702", "addr:country": "US", "name": "ShopRite of Shrewsbury", "phone": "(732) 380-0411", "website": "https://www.shoprite.com/sm/planning/rsid/620", "opening_hours": "Mo-Sa 07:00-23:00", "brand": "ShopRite", "brand:wikidata": "Q7501097", "nsi_id": "shoprite-dde59d"}, "geometry": {"type": "Point", "coordinates": [-74.065202, 40.313314]}},
{"type": "Feature", "id": "xgwUvhxlLMDybczHohSuR7aKBtE=", "properties": {"ref": "623", "@spider": "shoprite", "shop": "supermarket", "addr:street_address": "Rt 36 and 71", "addr:city": "West Long Branch", "addr:state": "NJ", "addr:postcode": "07764", "addr:country": "US", "name": "ShopRite of West Long Branch", "phone": "(732) 542-5222", "website": "https://www.shoprite.com/sm/planning/rsid/623", "opening_hours": "Mo-Sa 07:00-23:00", "brand": "ShopRite", "brand:wikidata": "Q7501097", "nsi_id": "shoprite-dde59d"}, "geometry": {"type": "Point", "coordinates": [-74.031991, 40.296082]}},
{"type": "Feature", "id": "FwUyjVPBvXSLFTegcegBaecxPYs=", "properties": {"ref": "626", "@spider": "shoprite", "shop": "supermarket", "addr:street_address": "3120 State Highway 35", "addr:city": "Hazlet", "addr:state": "NJ", "addr:postcode": "07730", "addr:country": "US", "name": "ShopRite of Hazlet", "phone": "(732) 264-4110", "website": "https://www.shoprite.com/sm/planning/rsid/626", "opening_hours": "Mo-Sa 07:00-23:00", "brand": "ShopRite", "brand:wikidata": "Q7501097", "nsi_id": "shoprite-dde59d"}, "geometry": {"type": "Point", "coordinates": [-74.183323, 40.419005]}},
{"type": "Feature", "id": "jf_V2-TG8ZxZsaiikGiasqkX2zs=", "properties": {"ref": "630", "@spider": "shoprite", "shop": "supermarket", "addr:street_address": "2433 Highway 34", "addr:city": "Manasquan", "addr:state": "NJ", "addr:postcode": "08736", "addr:country": "US", "name": "ShopRite of Wall Township", "phone": "(732) 292-9780", "website": "https://www.shoprite.com/sm/planning/rsid/630", "opening_hours": "Mo-Sa 07:00-23:00", "brand": "ShopRite", "brand:wikidata": "Q7501097", "nsi_id": "shoprite-dde59d"}, "geometry": {"type": "Point", "coordinates": [-74.08043, 40.121531]}},
{"type": "Feature", "id": "DASb1yb_V3LcZTOXEUy4nXhEo8w=", "properties": {"ref": "631", "@spider": "shoprite", "shop": "supermarket", "addr:street_address": "4594 Route 9 S", "addr:city": "Howell", "addr:state": "NJ", "addr:postcode": "07731", "addr:country": "US", "name": "ShopRite of Howell", "phone": "(848) 299-0080", "website": "https://www.shoprite.com/sm/planning/rsid/631", "opening_hours": "Mo-Sa 07:00-23:00", "brand": "ShopRite", "brand:wikidata": "Q7501097", "nsi_id": "shoprite-dde59d"}, "geometry": {"type": "Point", "coordinates": [-74.225153, 40.139954]}},
{"type": "Feature", "id": "Ix_Pl01lKGLkK1UuKzQLQgMJipw=", "properties": {"ref": "634", "@spider": "shoprite", "shop": "supermarket", "addr:street_address": "1500 State Highway 35 South", "addr:city": "Middletown", "addr:state": "NJ", "addr:postcode": "07748", "addr:country": "US", "name": "ShopRite of Middletown NJ - Kings Commons", "phone": "(732) 671-9444", "website": "https://www.shoprite.com/sm/planning/rsid/634", "opening_hours": "Mo-Sa 07:00-23:00", "brand": "ShopRite", "brand:wikidata": "Q7501097", "nsi_id": "shoprite-dde59d"}, "geometry": {"type": "Point", "coordinates": [-74.127329, 40.403537]}},
{"type": "Feature", "id": "Nhs7xdVdz9ul4l0Yn7Fdu5bsD9w=", "properties": {"ref": "638", "@spider": "shoprite", "shop": "supermarket", "addr:street_address": "1732 NJ-35", "addr:city": "Belmar", "addr:state": "NJ", "addr:postcode": "07719", "addr:country": "US", "name": "ShopRite of Belmar - Rt. 35 & 18th Ave", "phone": "(732) 681-0900", "website": "https://www.shoprite.com/sm/planning/rsid/638", "opening_hours": "Mo-Sa 07:00-23:00", "brand": "ShopRite", "brand:wikidata": "Q7501097", "nsi_id": "shoprite-dde59d"}, "geometry": {"type": "Point", "coordinates": [-74.045029, 40.169794]}},
{"type": "Feature", "id": "s3f1VuMYgJ9NF4APabyNiX8poeI=", "properties": {"ref": "641", "@spider": "shoprite", "shop": "supermarket", "addr:street_address": "668 Rte 70", "addr:city": "Brick", "addr:state": "NJ", "addr:postcode": "08723", "addr:country": "US", "name": "ShopRite of Bricktown", "phone": "(732) 477-7906", "website": "https://www.shoprite.com/sm/planning/rsid/641", "opening_hours": "Mo-Su 06:00-22:00", "brand": "ShopRite", "brand:wikidata": "Q7501097", "nsi_id": "shoprite-dde59d"}, "geometry": {"type": "Point", "coordinates": [-74.144252, 40.061766]}},
{"type": "Feature", "id": "muEEBGOUmKEjONNh3kXPUchFw5w=", "properties": {"ref": "616", "@spider": "shoprite", "shop": "supermarket", "addr:street_address": "260 N County Line Rd", "addr:city": "Jackson", "addr:state": "NJ", "addr:postcode": "08527", "addr:country": "US", "name": "ShopRite of Jackson", "phone": "(732) 886-7009", "website": "https://www.shoprite.com/sm/planning/rsid/616", "opening_hours": "Mo-Sa 07:00-22:00", "brand": "ShopRite", "brand:wikidata": "Q7501097", "nsi_id": "shoprite-dde59d"}, "geometry": {"type": "Point", "coordinates": [-74.293045, 40.139048]}},
{"type": "Feature", "id": "Dzue1nITf1uac-xWd7AGgEkRFBI=", "properties": {"ref": "618", "@spider": "shoprite", "shop": "supermarket", "addr:street_address": "431 Atlantic City Boulevard", "addr:city": "Bayville", "addr:state": "NJ", "addr:postcode": "08721", "addr:country": "US", "name": "ShopRite of Bayville", "phone": "(732) 606-0800", "website": "https://www.shoprite.com/sm/planning/rsid/618", "opening_hours": "Mo-Su 06:00-22:00", "brand": "ShopRite", "brand:wikidata": "Q7501097", "nsi_id": "shoprite-dde59d"}, "geometry": {"type": "Point", "coordinates": [-74.152834, 39.913857]}},
{"type": "Feature", "id": "ZZR_PIFeVQzJaZSFtiL9UrmMewA=", "properties": {"ref": "619", "@spider": "shoprite", "shop": "supermarket", "addr:street_address": "501 Route 9 Suite 100", "addr:city": "Waretown", "addr:state": "NJ", "addr:postcode": "08758", "addr:country": "US", "name": "ShopRite of Waretown", "phone": "(609) 971-6001", "website": "https://www.shoprite.com/sm/planning/rsid/619", "opening_hours": "Mo-Su 06:00-22:00", "brand": "ShopRite", "brand:wikidata": "Q7501097", "nsi_id": "shoprite-dde59d"}, "geometry": {"type": "Point", "coordinates": [-74.199049, 39.795905]}},
{"type": "Feature", "id": "iFmOtDlAFCSJ8FNU7SvYUCnZeac=", "properties": {"ref": "315", "@spider": "shoprite", "shop": "supermarket", "addr:street_address": "750 Queen Street", "addr:city": "Southington", "addr:state": "CT", "addr:postcode": "06489", "addr:country": "US", "name": "ShopRite of Southington", "phone": "(860) 736-0044", "website": "https://www.shoprite.com/sm/planning/rsid/315", "opening_hours": "Mo-Su 07:00-21:00", "brand": "ShopRite", "brand:wikidata": "Q7501097", "nsi_id": "shoprite-dde59d"}, "geometry": {"type": "Point", "coordinates": [-72.875141, 41.636545]}},
{"type": "Feature", "id": "bD9CT5-hscPO62ynUL3vm2KI7z8=", "properties": {"ref": "318", "@spider": "shoprite", "shop": "supermarket", "addr:street_address": "266 East Main Street", "addr:city": "Clinton", "addr:state": "CT", "addr:postcode": "06413", "addr:country": "US", "name": "ShopRite of Clinton, CT", "phone": "(860) 669-0107", "website": "https://www.shoprite.com/sm/planning/rsid/318", "opening_hours": "Mo-Su 07:00-22:00", "brand": "ShopRite", "brand:wikidata": "Q7501097", "nsi_id": "shoprite-dde59d"}, "geometry": {"type": "Point", "coordinates": [-72.501968, 41.27018]}},
{"type": "Feature", "id": "FWoX2BG2SCxhCLc0GI6MHfnw5-A=", "properties": {"ref": "319", "@spider": "shoprite", "shop": "supermarket", "addr:street_address": "40 Hazard Ave", "addr:city": "Enfield", "addr:state": "CT", "addr:postcode": "06082", "addr:country": "US", "name": "ShopRite of Brookside Plaza", "phone": "(860) 745-1621", "website": "https://www.shoprite.com/sm/planning/rsid/319", "opening_hours": "Mo-Su 07:00-22:00", "brand": "ShopRite", "brand:wikidata": "Q7501097", "nsi_id": "shoprite-dde59d"}, "geometry": {"type": "Point", "coordinates": [-72.580462, 41.988055]}},
{"type": "Feature", "id": "LDdYMDZcBjzoOo4iLoWhqjvcnzI=", "properties": {"ref": "320", "@spider": "shoprite", "shop": "supermarket", "addr:street_address": "250 Barnum Ave Cutoff", "addr:city": "Stratford", "addr:state": "CT", "addr:postcode": "06614", "addr:country": "US", "name": "ShopRite of Stratford", "phone": "(203) 378-4296", "website": "https://www.shoprite.com/sm/planning/rsid/320", "opening_hours": "Mo-Su 07:00-22:00", "brand": "ShopRite", "brand:wikidata": "Q7501097", "nsi_id": "shoprite-dde59d"}, "geometry": {"type": "Point", "coordinates": [-73.119744, 41.20078]}},
{"type": "Feature", "id": "v4u3IaSNaF9vPBwX1kAuZhTfHfg=", "properties": {"ref": "324", "@spider": "shoprite", "shop": "supermarket", "addr:street_address": "2100 Dixwell Ave", "addr:city": "Hamden", "addr:state": "CT", "addr:postcode": "06514", "addr:country": "US", "name": "ShopRite of Hamden", "phone": "(203) 230-5000", "website": "https://www.shoprite.com/sm/planning/rsid/324", "opening_hours": "Mo-Su 07:00-22:00", "brand": "ShopRite", "brand:wikidata": "Q7501097", "nsi_id": "shoprite-dde59d"}, "geometry": {"type": "Point", "coordinates": [-72.922289, 41.36965]}},
{"type": "Feature", "id": "YqtubGFqJ5HDRezeeL6Mry3uj2I=", "properties": {"ref": "325", "@spider": "shoprite", "shop": "supermarket", "addr:street_address": "259 Bull Hill Lane", "addr:city": "Orange", "addr:state": "CT", "addr:postcode": "06477", "addr:country": "US", "name": "ShopRite of Orange, CT", "phone": "(203) 795-0628", "website": "https://www.shoprite.com/sm/planning/rsid/325", "opening_hours": "Mo-Su 07:00-22:00", "brand": "ShopRite", "brand:wikidata": "Q7501097", "nsi_id": "shoprite-dde59d"}, "geometry": {"type": "Point", "coordinates": [-72.987141, 41.273704]}},
{"type": "Feature", "id": "JPM_3i3jtgaGJXq_1NepI0KiRdg=", "properties": {"ref": "326", "@spider": "shoprite", "shop": "supermarket", "addr:street_address": "745 Foxon Rd", "addr:city": "East Haven", "addr:state": "CT", "addr:postcode": "06513", "addr:country": "US", "name": "ShopRite of East Haven", "phone": "(475) 202-5180", "website": "https://www.shoprite.com/sm/planning/rsid/326", "opening_hours": "Mo-Su 07:00-22:00", "brand": "ShopRite", "brand:wikidata": "Q7501097", "nsi_id": "shoprite-dde59d"}, "geometry": {"type": "Point", "coordinates": [-72.854753, 41.323544]}},
{"type": "Feature", "id": "ARl47ZJsNWu7gLRxhot8r80G49Y=", "properties": {"ref": "327", "@spider": "shoprite", "shop": "supermarket", "addr:street_address": "935 Boston Post Rd.", "addr:city": "Milford", "addr:state": "CT", "addr:postcode": "06460", "addr:country": "US", "name": "ShopRite of Milford, CT", "phone": "(203) 876-7868", "website": "https://www.shoprite.com/sm/planning/rsid/327", "opening_hours": "Mo-Su 07:00-22:00", "brand": "ShopRite", "brand:wikidata": "Q7501097", "nsi_id": "shoprite-dde59d"}, "geometry": {"type": "Point", "coordinates": [-73.049103, 41.231813]}},
{"type": "Feature", "id": "TV8IjtOwoJFXcF-FVVU02b8aqgw=", "properties": {"ref": "330", "@spider": "shoprite", "shop": "supermarket", "addr:street_address": "214 Spencer Street", "addr:city": "Manchester", "addr:state": "CT", "addr:postcode": "06040", "addr:country": "US", "name": "ShopRite of Manchester", "phone": "(860) 645-3240", "website": "https://www.shoprite.com/sm/planning/rsid/330", "opening_hours": "Mo-Su 06:00-22:00", "brand": "ShopRite", "brand:wikidata": "Q7501097", "nsi_id": "shoprite-dde59d"}, "geometry": {"type": "Point", "coordinates": [-72.57046, 41.765675]}},
{"type": "Feature", "id": "v5sUzWo2_RbmYzCNHXMrowpla10=", "properties": {"ref": "331", "@spider": "shoprite", "shop": "supermarket", "addr:street_address": "45 Shunpike Road", "addr:city": "Cromwell", "addr:state": "CT", "addr:postcode": "06416", "addr:country": "US", "name": "ShopRite of Cromwell", "phone": "(860) 613-2063", "website": "https://www.shoprite.com/sm/planning/rsid/331", "opening_hours": "Mo-Su 07:00-22:00", "brand": "ShopRite", "brand:wikidata": "Q7501097", "nsi_id": "shoprite-dde59d"}, "geometry": {"type": "Point", "coordinates": [-72.678278, 41.604201]}},
{"type": "Feature", "id": "kZy9DG3bHOQc126wCZL5vV8nQMg=", "properties": {"ref": "390", "@spider": "shoprite", "shop": "supermarket", "addr:street_address": "200 Shippan Ave", "addr:city": "Stamford", "addr:state": "CT", "addr:postcode": "06902", "addr:country": "US", "name": "ShopRite of Shippan Ave- Stamford, CT", "phone": "(203) 964-9500", "website": "https://www.shoprite.com/sm/planning/rsid/390", "opening_hours": "Mo-Su 07:00-22:00", "brand": "ShopRite", "brand:wikidata": "Q7501097", "nsi_id": "shoprite-dde59d"}, "geometry": {"type": "Point", "coordinates": [-73.52347, 41.048396]}},
{"type": "Feature", "id": "WRFdP4b49yo4dfpgPxwVAmx9YyQ=", "properties": {"ref": "391", "@spider": "shoprite", "shop": "supermarket", "addr:street_address": "563 Newfield Avenue", "addr:city": "Stamford", "addr:state": "CT", "addr:postcode": "06905", "addr:country": "US", "name": "Grade A Market of Newfield Avenue", "phone": "(203) 356-1662", "website": "https://www.shoprite.com/sm/planning/rsid/391", "opening_hours": "Mo-Su 07:00-22:00", "brand": "ShopRite", "brand:wikidata": "Q7501097", "nsi_id": "shoprite-dde59d"}, "geometry": {"type": "Point", "coordinates": [-73.532366, 41.080393]}},
{"type": "Feature", "id": "9cCS--FNo1ztgN4f3a6zmpf-eR4=", "properties": {"ref": "392", "@spider": "shoprite", "shop": "supermarket", "addr:street_address": "143 Federal Road", "addr:city": "Brookfield", "addr:state": "CT", "addr:postcode": "06804", "addr:country": "US", "name": "ShopRite of Brookfield", "phone": "(203) 775-7078", "website": "https://www.shoprite.com/sm/planning/rsid/392", "opening_hours": "Mo-Su 07:00-22:00", "brand": "ShopRite", "brand:wikidata": "Q7501097", "nsi_id": "shoprite-dde59d"}, "geometry": {"type": "Point", "coordinates": [-73.406313, 41.437047]}},
{"type": "Feature", "id": "3k4cpM6t4YSIAOn-e2huobdDJ04=", "properties": {"ref": "394", "@spider": "shoprite", "shop": "supermarket", "addr:street_address": "Connecticut & Scribner Aves", "addr:city": "Norwalk", "addr:state": "CT", "addr:postcode": "06850", "addr:country": "US", "name": "ShopRite of Norwalk", "phone": "(203) 838-0504", "website": "https://www.shoprite.com/sm/planning/rsid/394", "opening_hours": "Mo-Su 07:00-22:00", "brand": "ShopRite", "brand:wikidata": "Q7501097", "nsi_id": "shoprite-dde59d"}, "geometry": {"type": "Point", "coordinates": [-73.440566, 41.102472]}},
{"type": "Feature", "id": "OgPf2DN9QM6ObFmjb2Pv6G-3oH0=", "properties": {"ref": "395", "@spider": "shoprite", "shop": "supermarket", "addr:street_address": "495 Hope Street", "addr:city": "Stamford", "addr:state": "CT", "addr:postcode": "06906", "addr:country": "US", "name": "Grade A Market of Hope Street", "phone": "(203) 325-9991", "website": "https://www.shoprite.com/sm/planning/rsid/395", "opening_hours": "Mo-Su 07:00-22:00", "brand": "ShopRite", "brand:wikidata": "Q7501097", "nsi_id": "shoprite-dde59d"}, "geometry": {"type": "Point", "coordinates": [-73.521678, 41.076768]}},
{"type": "Feature", "id": "W7L12F4_aFMlwlfgglXGN1VZQHQ=", "properties": {"ref": "396", "@spider": "shoprite", "shop": "supermarket", "addr:street_address": "49 Pershing Drive", "addr:city": "Derby", "addr:state": "CT", "addr:postcode": "06418", "addr:country": "US", "name": "ShopRite of Derby", "phone": "(203) 736-1001", "website": "https://www.shoprite.com/sm/planning/rsid/396", "opening_hours": "Mo-Su 07:00-22:00", "brand": "ShopRite", "brand:wikidata": "Q7501097", "nsi_id": "shoprite-dde59d"}, "geometry": {"type": "Point", "coordinates": [-73.086462, 41.330431]}},
{"type": "Feature", "id": "rJAHQQq2l0FJuuMn2qFjO0e0gN4=", "properties": {"ref": "211", "@spider": "shoprite", "shop": "supermarket", "addr:street_address": "20 Lloyds Lane", "addr:city": "Middletown", "addr:state": "NY", "addr:postcode": "10940", "addr:country": "US", "name": "ShopRite of Wallkill", "phone": "(845) 341-2104", "website": "https://www.shoprite.com/sm/planning/rsid/211", "opening_hours": "Mo-Sa 06:00-00:00", "brand": "ShopRite", "brand:wikidata": "Q7501097", "nsi_id": "shoprite-dde59d"}, "geometry": {"type": "Point", "coordinates": [-74.39907, 41.4537223]}},
{"type": "Feature", "id": "GNjUjwiMAQiOBL1dYaI-7ktOi00=", "properties": {"ref": "220", "@spider": "shoprite", "shop": "supermarket", "addr:street_address": "747 Bedford Road", "addr:city": "Bedford Hills", "addr:state": "NY", "addr:postcode": "10507", "addr:country": "US", "name": "ShopRite of Bedford Hills", "phone": "(914) 666-7990", "website": "https://www.shoprite.com/sm/planning/rsid/220", "opening_hours": "Mo-Sa 06:00-00:00", "brand": "ShopRite", "brand:wikidata": "Q7501097", "nsi_id": "shoprite-dde59d"}, "geometry": {"type": "Point", "coordinates": [-73.715228, 41.224858]}},
{"type": "Feature", "id": "SQdKXvBFkveNUgEJn46Q9FgVG6g=", "properties": {"ref": "227", "@spider": "shoprite", "shop": "supermarket", "addr:street_address": "46 Thompson Square", "addr:city": "Monticello", "addr:state": "NY", "addr:postcode": "12701", "addr:country": "US", "name": "ShopRite of Monticello", "phone": "(845) 794-0777", "website": "https://www.shoprite.com/sm/planning/rsid/227", "opening_hours": "Mo-Sa 06:00-23:00", "brand": "ShopRite", "brand:wikidata": "Q7501097", "nsi_id": "shoprite-dde59d"}, "geometry": {"type": "Point", "coordinates": [-74.6729916, 41.6668484]}},
{"type": "Feature", "id": "6UMIeOuLTiE3joeESJy6os_hq2o=", "properties": {"ref": "231", "@spider": "shoprite", "shop": "supermarket", "addr:street_address": "13 City Place", "addr:city": "White Plains", "addr:state": "NY", "addr:postcode": "10601", "addr:country": "US", "name": "ShopRite of White Plains", "phone": "(914) 539-4500", "website": "https://www.shoprite.com/sm/planning/rsid/231", "opening_hours": "Mo-Sa 07:00-00:00", "brand": "ShopRite", "brand:wikidata": "Q7501097", "nsi_id": "shoprite-dde59d"}, "geometry": {"type": "Point", "coordinates": [-73.7678093, 41.0320538]}},
{"type": "Feature", "id": "8Q6yX8cEJdEY4EZ2c_ylE6-5gSY=", "properties": {"ref": "235", "@spider": "shoprite", "shop": "supermarket", "addr:street_address": "184 Route 52", "addr:city": "Carmel", "addr:state": "NY", "addr:postcode": "10512", "addr:country": "US", "name": "ShopRite of Carmel", "phone": "(845) 225-1011", "website": "https://www.shoprite.com/sm/planning/rsid/235", "opening_hours": "Mo-Sa 06:00-00:00", "brand": "ShopRite", "brand:wikidata": "Q7501097", "nsi_id": "shoprite-dde59d"}, "geometry": {"type": "Point", "coordinates": [-73.680262, 41.43613]}},
{"type": "Feature", "id": "gWAuk-0t7SZ7yj6E5Qbn1lm1gfU=", "properties": {"ref": "237", "@spider": "shoprite", "shop": "supermarket", "addr:street_address": "785 State Route 17M, Suite 1,", "addr:city": "Monroe", "addr:state": "NY", "addr:postcode": "10950", "addr:country": "US", "name": "ShopRite of Monroe", "phone": "(845) 783-4496", "website": "https://www.shoprite.com/sm/planning/rsid/237", "opening_hours": "Mo-Sa 06:00-00:00", "brand": "ShopRite", "brand:wikidata": "Q7501097", "nsi_id": "shoprite-dde59d"}, "geometry": {"type": "Point", "coordinates": [-74.193995, 41.331846]}},
{"type": "Feature", "id": "JB0iZ2ou8XerwtuRpavvX20AtRs=", "properties": {"ref": "239", "@spider": "shoprite", "shop": "supermarket", "addr:street_address": "99 Hawkins Dr", "addr:city": "Montgomery", "addr:state": "NY", "addr:postcode": "12549", "addr:country": "US", "name": "ShopRite of Montgomery, NY", "phone": "(845) 457-4114", "website": "https://www.shoprite.com/sm/planning/rsid/239", "opening_hours": "Mo-Sa 06:00-00:00", "brand": "ShopRite", "brand:wikidata": "Q7501097", "nsi_id": "shoprite-dde59d"}, "geometry": {"type": "Point", "coordinates": [-74.212509, 41.5113673]}},
{"type": "Feature", "id": "RZRUD2Whu85SHzAoOp9TO_9HYXU=", "properties": {"ref": "241", "@spider": "shoprite", "shop": "supermarket", "addr:street_address": "801 Miron Lane", "addr:city": "Kingston", "addr:state": "NY", "addr:postcode": "12401", "addr:country": "US", "name": "ShopRite of Kingston", "phone": "(845) 336-7800", "website": "https://www.shoprite.com/sm/planning/rsid/241", "opening_hours": "Mo-Sa 06:00-00:00", "brand": "ShopRite", "brand:wikidata": "Q7501097", "nsi_id": "shoprite-dde59d"}, "geometry": {"type": "Point", "coordinates": [-73.986227, 41.960128]}},
{"type": "Feature", "id": "26ZYA9P9GVyYhskJYaoweSSNdrI=", "properties": {"ref": "242", "@spider": "shoprite", "shop": "supermarket", "addr:street_address": "78 Brookside Avenue Suite 122", "addr:city": "Chester", "addr:state": "NY", "addr:postcode": "10918", "addr:country": "US", "name": "ShopRite of Chester Plaza, NY", "phone": "(845) 469-7400", "website": "https://www.shoprite.com/sm/planning/rsid/242", "opening_hours": "Mo-Sa 06:00-00:00", "brand": "ShopRite", "brand:wikidata": "Q7501097", "nsi_id": "shoprite-dde59d"}, "geometry": {"type": "Point", "coordinates": [-74.283795, 41.360385]}},
{"type": "Feature", "id": "C9MYXvocNaKktBkFLSxzkxkMpH4=", "properties": {"ref": "244", "@spider": "shoprite", "shop": "supermarket", "addr:street_address": "1643 NY-82 Suite 1", "addr:city": "LaGrangeville", "addr:state": "NY", "addr:postcode": "12540", "addr:country": "US", "name": "ShopRite of LaGrangeville", "phone": "(845) 447-1471", "website": "https://www.shoprite.com/sm/planning/rsid/244", "opening_hours": "Mo-Sa 06:00-00:00", "brand": "ShopRite", "brand:wikidata": "Q7501097", "nsi_id": "shoprite-dde59d"}, "geometry": {"type": "Point", "coordinates": [-73.772687, 41.629522]}},
{"type": "Feature", "id": "73tIt1PubAri350ayJd4bw5gUSw=", "properties": {"ref": "260", "@spider": "shoprite", "shop": "supermarket", "addr:street_address": "384 Windsor Highway", "addr:city": "Vails Gate", "addr:state": "NY", "addr:postcode": "12584", "addr:country": "US", "name": "ShopRite of Vailsgate", "phone": "(845) 863-1051", "website": "https://www.shoprite.com/sm/planning/rsid/260", "opening_hours": "Mo-Sa 06:00-00:00", "brand": "ShopRite", "brand:wikidata": "Q7501097", "nsi_id": "shoprite-dde59d"}, "geometry": {"type": "Point", "coordinates": [-74.057237, 41.45761]}},
{"type": "Feature", "id": "E5ws8WvjeaBH7cvgna6XYGDQ_5M=", "properties": {"ref": "263", "@spider": "shoprite", "shop": "supermarket", "addr:street_address": "1955 State Route 52", "addr:city": "Liberty", "addr:state": "NY", "addr:postcode": "12754", "addr:country": "US", "name": "ShopRite of Liberty", "phone": "(845) 292-3336", "website": "https://www.shoprite.com/sm/planning/rsid/263", "opening_hours": "Mo-Sa 06:00-23:00", "brand": "ShopRite", "brand:wikidata": "Q7501097", "nsi_id": "shoprite-dde59d"}, "geometry": {"type": "Point", "coordinates": [-74.720172, 41.783002]}},
{"type": "Feature", "id": "gTn96dOqwf8BrW_CHSaOdOffXFE=", "properties": {"ref": "266", "@spider": "shoprite", "shop": "supermarket", "addr:street_address": "1 ShopRite Boulevard", "addr:city": "Ellenville", "addr:state": "NY", "addr:postcode": "12428", "addr:country": "US", "name": "ShopRite of Ellenville", "phone": "(845) 647-1090", "website": "https://www.shoprite.com/sm/planning/rsid/266", "opening_hours": "Mo-Su 06:00-22:00", "brand": "ShopRite", "brand:wikidata": "Q7501097", "nsi_id": "shoprite-dde59d"}, "geometry": {"type": "Point", "coordinates": [-74.381492, 41.731107]}},
{"type": "Feature", "id": "rNeY-0Jootcft-ZEeyvmtEogRAw=", "properties": {"ref": "267", "@spider": "shoprite", "shop": "supermarket", "addr:street_address": "153 State Route 94S", "addr:city": "Warwick", "addr:state": "NY", "addr:postcode": "10990", "addr:country": "US", "name": "ShopRite of Warwick", "phone": "(845) 987-1200", "website": "https://www.shoprite.com/sm/planning/rsid/267", "opening_hours": "Mo-Sa 06:00-00:00", "brand": "ShopRite", "brand:wikidata": "Q7501097", "nsi_id": "shoprite-dde59d"}, "geometry": {"type": "Point", "coordinates": [-74.380962, 41.235802]}},
{"type": "Feature", "id": "ZiUeKXnO5Oh7qvW5F9vuV1up03c=", "properties": {"ref": "269", "@spider": "shoprite", "shop": "supermarket", "addr:street_address": "738 Route 9, Suite 2,", "addr:city": "Fishkill", "addr:state": "NY", "addr:postcode": "12524", "addr:country": "US", "name": "ShopRite of Fishkill", "phone": "(845) 897-2211", "website": "https://www.shoprite.com/sm/planning/rsid/269", "opening_hours": "Mo-Sa 07:00-23:00", "brand": "ShopRite", "brand:wikidata": "Q7501097", "nsi_id": "shoprite-dde59d"}, "geometry": {"type": "Point", "coordinates": [-73.897792, 41.539643]}},
{"type": "Feature", "id": "XlXY0u1VhYJG8-Db--Jjn1DgfYY=", "properties": {"ref": "272", "@spider": "shoprite", "shop": "supermarket", "addr:street_address": "125 Dolson Ave", "addr:city": "Middletown", "addr:state": "NY", "addr:postcode": "10940", "addr:country": "US", "name": "ShopRite of Middletown", "phone": "(845) 343-1139", "website": "https://www.shoprite.com/sm/planning/rsid/272", "opening_hours": "Mo-Sa 06:00-00:00", "brand": "ShopRite", "brand:wikidata": "Q7501097", "nsi_id": "shoprite-dde59d"}, "geometry": {"type": "Point", "coordinates": [-74.4266305, 41.429033]}},
{"type": "Feature", "id": "dcyrMoDEZGtx09qzWh2QsnhIMno=", "properties": {"ref": "274", "@spider": "shoprite", "shop": "supermarket", "addr:street_address": "10 Winslow Gate Road", "addr:city": "Poughkeepsie", "addr:state": "NY", "addr:postcode": "12601", "addr:country": "US", "name": "ShopRite of North Poughkeepsie", "phone": "(845) 218-6086", "website": "https://www.shoprite.com/sm/planning/rsid/274", "opening_hours": "Mo-Sa 06:00-00:00", "brand": "ShopRite", "brand:wikidata": "Q7501097", "nsi_id": "shoprite-dde59d"}, "geometry": {"type": "Point", "coordinates": [-73.92826, 41.72909]}},
{"type": "Feature", "id": "TBA7j3pvzSwL1p2vqiOUz7FNuGw=", "properties": {"ref": "275", "@spider": "shoprite", "shop": "supermarket", "addr:street_address": "278 Tuckahoe Road", "addr:city": "Yonkers", "addr:state": "NY", "addr:postcode": "10710", "addr:country": "US", "name": "ShopRite of Tuckahoe", "phone": "(914) 793-2214", "website": "https://www.shoprite.com/sm/planning/rsid/275", "opening_hours": "Mo-Sa 06:00-02:00", "brand": "ShopRite", "brand:wikidata": "Q7501097", "nsi_id": "shoprite-dde59d"}, "geometry": {"type": "Point", "coordinates": [-73.858693, 40.953388]}},
{"type": "Feature", "id": "Cohg1O5jC_JopGsGSIZysCiEYkw=", "properties": {"ref": "276", "@spider": "shoprite", "shop": "supermarket", "addr:street_address": "960 Broadway Rt 141", "addr:city": "Thornwood", "addr:state": "NY", "addr:postcode": "10594", "addr:country": "US", "name": "ShopRite of Thornwood", "phone": "(914) 747-1108", "website": "https://www.shoprite.com/sm/planning/rsid/276", "opening_hours": "Mo-Sa 06:00-00:00", "brand": "ShopRite", "brand:wikidata": "Q7501097", "nsi_id": "shoprite-dde59d"}, "geometry": {"type": "Point", "coordinates": [-73.779213, 41.125156]}},
{"type": "Feature", "id": "9kcjk7Ql3-xQJioPaRJJ8S2GqA8=", "properties": {"ref": "277", "@spider": "shoprite", "shop": "supermarket", "addr:street_address": "351 Fairview Avenue", "addr:city": "Hudson", "addr:state": "NY", "addr:postcode": "12534", "addr:country": "US", "name": "ShopRite of Hudson", "phone": "(518) 828-0192", "website": "https://www.shoprite.com/sm/planning/rsid/277", "opening_hours": "Mo-Sa 06:00-00:00", "brand": "ShopRite", "brand:wikidata": "Q7501097", "nsi_id": "shoprite-dde59d"}, "geometry": {"type": "Point", "coordinates": [-73.763559, 42.272047]}},
{"type": "Feature", "id": "VRk9RBwcXsv779i0b0r-UKYgKEQ=", "properties": {"ref": "278", "@spider": "shoprite", "shop": "supermarket", "addr:street_address": "3140 East Main Street, Suite 300", "addr:city": "Mohegan Lake", "addr:state": "NY", "addr:postcode": "10547", "addr:country": "US", "name": "ShopRite of Cortlandt", "phone": "(914) 737-4335", "website": "https://www.shoprite.com/sm/planning/rsid/278", "opening_hours": "Mo-Sa 06:00-00:00", "brand": "ShopRite", "brand:wikidata": "Q7501097", "nsi_id": "shoprite-dde59d"}, "geometry": {"type": "Point", "coordinates": [-73.868313, 41.313165]}},
{"type": "Feature", "id": "9aJd2tYSBFj5yVaErZ7-lXtw6v8=", "properties": {"ref": "279", "@spider": "shoprite", "shop": "supermarket", "addr:street_address": "25-43 Prospect Street", "addr:city": "Yonkers", "addr:state": "NY", "addr:postcode": "10701", "addr:country": "US", "name": "ShopRite of Greenway Plaza", "phone": "(914) 376-5429", "website": "https://www.shoprite.com/sm/planning/rsid/279", "opening_hours": "Mo-Sa 07:00-00:00", "brand": "ShopRite", "brand:wikidata": "Q7501097", "nsi_id": "shoprite-dde59d"}, "geometry": {"type": "Point", "coordinates": [-73.900797, 40.933047]}},
{"type": "Feature", "id": "zcZPRTgZKUZKtmCANOMsZAhY4mY=", "properties": {"ref": "280", "@spider": "shoprite", "shop": "supermarket", "addr:street_address": "258 Main Street", "addr:city": "New Paltz", "addr:state": "NY", "addr:postcode": "12561", "addr:country": "US", "name": "ShopRite of New Paltz", "phone": "(845) 255-5015", "website": "https://www.shoprite.com/sm/planning/rsid/280", "opening_hours": "Mo-Sa 06:00-00:00", "brand": "ShopRite", "brand:wikidata": "Q7501097", "nsi_id": "shoprite-dde59d"}, "geometry": {"type": "Point", "coordinates": [-74.069413, 41.741537]}},
{"type": "Feature", "id": "KP4PAC7lM18TYRFfHOVKt8E9w20=", "properties": {"ref": "290", "@spider": "shoprite", "shop": "supermarket", "addr:street_address": "955 Central Avenue", "addr:city": "Scarsdale", "addr:state": "NY", "addr:postcode": "10583", "addr:country": "US", "name": "ShopRite of Scarsdale", "phone": "(914) 874-2973", "website": "https://www.shoprite.com/sm/planning/rsid/290", "opening_hours": "Mo-Sa 06:00-00:00", "brand": "ShopRite", "brand:wikidata": "Q7501097", "nsi_id": "shoprite-dde59d"}, "geometry": {"type": "Point", "coordinates": [-73.823111, 40.991499]}},
{"type": "Feature", "id": "cyRMuEF0EEt9bWV88iYOCQwPKPg=", "properties": {"ref": "293", "@spider": "shoprite", "shop": "supermarket", "addr:street_address": "8 Joyce Rd & Palmer Ave", "addr:city": "New Rochelle", "addr:state": "NY", "addr:postcode": "10801", "addr:country": "US", "name": "ShopRite of New Rochelle", "phone": "(914) 740-9764", "website": "https://www.shoprite.com/sm/planning/rsid/293", "opening_hours": "Mo-Sa 06:00-00:00", "brand": "ShopRite", "brand:wikidata": "Q7501097", "nsi_id": "shoprite-dde59d"}, "geometry": {"type": "Point", "coordinates": [-73.778969, 40.916521]}},
{"type": "Feature", "id": "JecxEsbRFwy0nT1AaA4COQfCzj0=", "properties": {"ref": "216", "@spider": "shoprite", "shop": "supermarket", "addr:street_address": "206 Springfield Ave", "addr:city": "Newark", "addr:state": "NJ", "addr:postcode": "07103", "addr:country": "United States of America (the)", "name": "ShopRite of Newark, NJ", "phone": "(973) 273 - 1060", "website": "https://www.shoprite.com/sm/planning/rsid/216", "opening_hours": "Mo-Su 07:00-22:00", "brand": "ShopRite", "brand:wikidata": "Q7501097", "nsi_id": "shoprite-dde59d"}, "geometry": {"type": "Point", "coordinates": [-74.1883863, 40.7366464]}},
{"type": "Feature", "id": "PiIo7MEfE6x40mzVILIvMt7P2nE=", "properties": {"ref": "217", "@spider": "shoprite", "shop": "supermarket", "addr:street_address": "30 Wayne Hills Mall", "addr:city": "Wayne", "addr:state": "NJ", "addr:postcode": "07470", "addr:country": "United States of America (the)", "name": "ShopRite of Wayne Hills Mall", "phone": "(973) 595 - 0079", "website": "https://www.shoprite.com/sm/planning/rsid/217", "opening_hours": "Mo-Su 07:00-00:00", "brand": "ShopRite", "brand:wikidata": "Q7501097", "nsi_id": "shoprite-dde59d"}, "geometry": {"type": "Point", "coordinates": [-74.2411923, 40.9625723]}},
{"type": "Feature", "id": "Ng0445bQR7-AOb3hWHeTYdb-p-A=", "properties": {"ref": "790", "@spider": "shoprite", "shop": "supermarket", "addr:street_address": "35-07 Broadway", "addr:city": "35-07 Broadway", "addr:state": "NJ", "addr:postcode": "07410", "addr:country": "United States of America (the)", "name": "ShopRite Liquors of Fair Lawn", "phone": "(201) 796-2398", "website": "https://www.shoprite.com/sm/planning/rsid/790", "opening_hours": "Mo-Sa 09:00-22:00", "brand": "ShopRite", "brand:wikidata": "Q7501097", "nsi_id": "shoprite-dde59d"}, "geometry": {"type": "Point", "coordinates": [-74.101234, 40.925692]}},
{"type": "Feature", "id": "5DybXY-ssULNBZylO4XNYFsvFvE=", "properties": {"ref": "897", "@spider": "shoprite", "shop": "supermarket", "addr:street_address": "100 State Route 23", "addr:city": "Franklin", "addr:state": "NJ", "addr:postcode": "07416", "addr:country": "United States of America (the)", "name": "ShopRite Liquors of Franklin Boro", "phone": "(973) 827-5787", "website": "https://www.shoprite.com/sm/planning/rsid/897", "opening_hours": "Mo-Sa 09:00-21:00", "brand": "ShopRite", "brand:wikidata": "Q7501097", "nsi_id": "shoprite-dde59d"}, "geometry": {"type": "Point", "coordinates": [-74.581515, 41.102704]}},
{"type": "Feature", "id": "HO1Lny97Kzw0tWqWNIBgVV0xx9U=", "properties": {"ref": "890", "@spider": "shoprite", "shop": "supermarket", "addr:street_address": "400 Luis Marin Blvd.", "addr:city": "Jersey City", "addr:state": "NJ", "addr:postcode": "07302", "addr:country": "United States of America (the)", "name": "ShopRite Liquors of Jersey City", "phone": "(201) 963-6155", "website": "https://www.shoprite.com/sm/planning/rsid/890", "opening_hours": "Mo-Th 09:00-21:00", "brand": "ShopRite", "brand:wikidata": "Q7501097", "nsi_id": "shoprite-dde59d"}, "geometry": {"type": "Point", "coordinates": [-74.040074, 40.724371]}},
{"type": "Feature", "id": "BxESHjsDyX-Lq_ekPdzL3HWswqc=", "properties": {"ref": "881", "@spider": "shoprite", "shop": "supermarket", "addr:street_address": "224 Rt. 4 East & Forest Avenue", "addr:city": "Paramus", "addr:state": "NJ", "addr:postcode": "07652", "addr:country": "United States of America (the)", "name": "ShopRite Liquors of Paramus", "phone": "(201) 843-7283", "website": "https://www.shoprite.com/sm/planning/rsid/881", "opening_hours": "Mo-Sa 08:00-22:00", "brand": "ShopRite", "brand:wikidata": "Q7501097", "nsi_id": "shoprite-dde59d"}, "geometry": {"type": "Point", "coordinates": [-74.052778, 40.913958]}},
{"type": "Feature", "id": "3swej_j14emAIbXsX658aLHMPLo=", "properties": {"ref": "752", "@spider": "shoprite", "shop": "supermarket", "addr:street_address": "220 W. Passaic Street", "addr:city": "Rochelle Park", "addr:state": "NJ", "addr:postcode": "07662", "addr:country": "United States of America (the)", "name": "ShopRite Liquors of Rochelle Park", "phone": "(201) 843-4946", "website": "https://www.shoprite.com/sm/planning/rsid/752", "opening_hours": "Mo-Sa 07:00-22:00", "brand": "ShopRite", "brand:wikidata": "Q7501097", "nsi_id": "shoprite-dde59d"}, "geometry": {"type": "Point", "coordinates": [-74.080509, 40.915295]}},
{"type": "Feature", "id": "b41M5m7VjXEh0-o9BHgFfuo0GZA=", "properties": {"ref": "810", "@spider": "shoprite", "shop": "supermarket", "addr:street_address": "439 Rte. 46 East", "addr:city": "Rockaway", "addr:state": "NJ", "addr:postcode": "07866", "addr:country": "United States of America (the)", "name": "ShopRite Liquors of Rockaway", "phone": "(973) 366-9844", "website": "https://www.shoprite.com/sm/planning/rsid/810", "opening_hours": "Mo-Sa 09:00-22:00", "brand": "ShopRite", "brand:wikidata": "Q7501097", "nsi_id": "shoprite-dde59d"}, "geometry": {"type": "Point", "coordinates": [-74.536357, 40.884758]}},
{"type": "Feature", "id": "CDipZFwdhgLf26Ag0XoKVqPf6TA=", "properties": {"ref": "886", "@spider": "shoprite", "shop": "supermarket", "addr:street_address": "306 Rt. 15", "addr:city": "Wharton", "addr:state": "NJ", "addr:postcode": "07885", "addr:country": "United States of America (the)", "name": "ShopRite Liquors of Wharton", "phone": "(973) 361-9477", "website": "https://www.shoprite.com/sm/planning/rsid/886", "opening_hours": "Mo-Sa 09:00-22:00", "brand": "ShopRite", "brand:wikidata": "Q7501097", "nsi_id": "shoprite-dde59d"}, "geometry": {"type": "Point", "coordinates": [-74.570378, 40.904969]}},
{"type": "Feature", "id": "X1QAWPtvlTjr42b-BSL9R_-njQA=", "properties": {"ref": "895", "@spider": "shoprite", "shop": "supermarket", "addr:street_address": "80-80 Main Street", "addr:city": "Hackettstown", "addr:state": "NJ", "addr:postcode": "07840", "addr:country": "United States of America (the)", "name": "ShopRite Wines & Spirits of Hackettstown", "phone": "(908) 852-3511", "website": "https://www.shoprite.com/sm/planning/rsid/895", "opening_hours": "Mo-Sa 09:00-21:00", "brand": "ShopRite", "brand:wikidata": "Q7501097", "nsi_id": "shoprite-dde59d"}, "geometry": {"type": "Point", "coordinates": [-74.833202, 40.854695]}},
{"type": "Feature", "id": "0klJCuML0Bf0-Fw_hbhT0c1hW58=", "properties": {"ref": "885", "@spider": "shoprite", "shop": "supermarket", "addr:street_address": "583 Avenue C", "addr:city": "Bayonne", "addr:state": "NJ", "addr:postcode": "07002", "addr:country": "United States of America (the)", "name": "ShopRite Wines & Spirits of Bayonne", "phone": "(201) 437-6000", "website": "https://www.shoprite.com/sm/planning/rsid/885", "opening_hours": "Mo-Th 09:00-21:00", "brand": "ShopRite", "brand:wikidata": "Q7501097", "nsi_id": "shoprite-dde59d"}, "geometry": {"type": "Point", "coordinates": [-74.119283, 40.667457]}},
{"type": "Feature", "id": "dLMJrTVvLKfEdgp7wJwfivDy0f8=", "properties": {"ref": "764", "@spider": "shoprite", "shop": "supermarket", "addr:street_address": "90 Route 206 North", "addr:city": "Byram Township", "addr:state": "NJ", "addr:postcode": "07874", "addr:country": "United States of America (the)", "name": "ShopRite Wines & Spirits of Byram", "phone": "(973) 347-2830", "website": "https://www.shoprite.com/sm/planning/rsid/764", "opening_hours": "Mo-Sa 09:00-21:00", "brand": "ShopRite", "brand:wikidata": "Q7501097", "nsi_id": "shoprite-dde59d"}, "geometry": {"type": "Point", "coordinates": [-74.718499, 40.934769]}},
{"type": "Feature", "id": "Zum2PB_cgvJ5WD78LyQLl_zfbWY=", "properties": {"ref": "901", "@spider": "shoprite", "shop": "supermarket", "addr:street_address": "Route 70 and Cornell Drive ", "addr:city": "Cherry Hill", "addr:state": "NJ", "addr:postcode": "08002", "addr:country": "United States of America (the)", "name": "ShopRite Wines & Spirits of Cherry Hill", "phone": "(856) 910-2300", "website": "https://www.shoprite.com/sm/planning/rsid/901", "opening_hours": "Mo-Sa 09:00-22:00", "brand": "ShopRite", "brand:wikidata": "Q7501097", "nsi_id": "shoprite-dde59d"}, "geometry": {"type": "Point", "coordinates": [-75.042514, 39.929203]}},
{"type": "Feature", "id": "r-JzyQQspYyyaUSm_K8vhoJjOD0=", "properties": {"ref": "905", "@spider": "shoprite", "shop": "supermarket", "addr:street_address": "895 Paulison Ave.", "addr:city": "Clifton", "addr:state": "NJ", "addr:postcode": "07011", "addr:country": "United States of America (the)", "name": "ShopRite Wines & Spirits of Clifton", "phone": "(973) 883-1017", "website": "https://www.shoprite.com/sm/planning/rsid/905", "opening_hours": "Mo-Th 09:00-21:00", "brand": "ShopRite", "brand:wikidata": "Q7501097", "nsi_id": "shoprite-dde59d"}, "geometry": {"type": "Point", "coordinates": [-74.154913, 40.871485]}},
{"type": "Feature", "id": "SEFzRvzqfJWHBdfXNLmEjnZ1lKw=", "properties": {"ref": "746", "@spider": "shoprite", "shop": "supermarket", "addr:street_address": "425 Old Hook Road", "addr:city": "Emerson", "addr:state": "NJ", "addr:postcode": "07630", "addr:country": "United States of America (the)", "name": "ShopRite Wines & Spirits of Emerson", "phone": "(201) 262-6656", "website": "https://www.shoprite.com/sm/planning/rsid/746", "opening_hours": "Mo-Th 09:00-21:00", "brand": "ShopRite", "brand:wikidata": "Q7501097", "nsi_id": "shoprite-dde59d"}, "geometry": {"type": "Point", "coordinates": [-74.006647, 40.98061]}},
{"type": "Feature", "id": "-0LFFpzsnkNsezIoMai3RhXIXMo=", "properties": {"ref": "733", "@spider": "shoprite", "shop": "supermarket", "addr:street_address": "55 Nathaniel Place", "addr:city": "Englewood", "addr:state": "NJ", "addr:postcode": "07631", "addr:country": "United States of America (the)", "name": "ShopRite Wines & Spirits of Englewood", "phone": "(201) 816-8266", "website": "https://www.shoprite.com/sm/planning/rsid/733", "opening_hours": "Mo-Th 09:00-21:00", "brand": "ShopRite", "brand:wikidata": "Q7501097", "nsi_id": "shoprite-dde59d"}, "geometry": {"type": "Point", "coordinates": [-73.975545, 40.896677]}},
{"type": "Feature", "id": "RvL-M4sLlftVFypT209ddRBEMsE=", "properties": {"ref": "735", "@spider": "shoprite", "shop": "supermarket", "addr:street_address": "3585 Rt. 9 North", "addr:city": "Freehold", "addr:state": "NJ", "addr:postcode": "07728", "addr:country": "United States of America (the)", "name": "ShopRite Wines & Spirits of Freehold", "phone": "(732) 294-8660", "website": "https://www.shoprite.com/sm/planning/rsid/735", "opening_hours": "Mo-We 09:00-21:00", "brand": "ShopRite", "brand:wikidata": "Q7501097", "nsi_id": "shoprite-dde59d"}, "geometry": {"type": "Point", "coordinates": [-74.277995, 40.243414]}},
{"type": "Feature", "id": "ePAeAvKjBU2L2g5vuREcIikF5ic=", "properties": {"ref": "738", "@spider": "shoprite", "shop": "supermarket", "addr:street_address": "372 Broadway", "addr:city": "Hillsdale", "addr:state": "NJ", "addr:postcode": "07642", "addr:country": "United States of America (the)", "name": "ShopRite Wines & Spirits of Hillsdale", "phone": "(201) 664-3102", "website": "https://www.shoprite.com/sm/planning/rsid/738", "opening_hours": "Mo-Th 09:00-21:00", "brand": "ShopRite", "brand:wikidata": "Q7501097", "nsi_id": "shoprite-dde59d"}, "geometry": {"type": "Point", "coordinates": [-74.041411, 41.012762]}},
{"type": "Feature", "id": "Qp_F1FkpzEkEhoHRIBDBKUyzA4M=", "properties": {"ref": "883", "@spider": "shoprite", "shop": "supermarket", "addr:street_address": "900 Madison St", "addr:city": "Hoboken", "addr:state": "NJ", "addr:postcode": "07030", "addr:country": "United States of America (the)", "name": "ShopRite Wines & Spirits of Hoboken", "phone": "(201) 792-4142", "website": "https://www.shoprite.com/sm/planning/rsid/883", "opening_hours": "Mo-Th 09:00-21:00", "brand": "ShopRite", "brand:wikidata": "Q7501097", "nsi_id": "shoprite-dde59d"}, "geometry": {"type": "Point", "coordinates": [-74.03656, 40.749466]}},
{"type": "Feature", "id": "ktB3E-ZarbpJGrQnfGuFIIwRAKc=", "properties": {"ref": "887", "@spider": "shoprite", "shop": "supermarket", "addr:street_address": "171 Browertown Road", "addr:city": "Little Falls", "addr:state": "NJ", "addr:postcode": "07424", "addr:country": "United States of America (the)", "name": "ShopRite Wines & Spirits of Little Falls", "phone": "(973) 256-5551", "website": "https://www.shoprite.com/sm/planning/rsid/887", "opening_hours": "Mo-Sa 09:00-22:00", "brand": "ShopRite", "brand:wikidata": "Q7501097", "nsi_id": "shoprite-dde59d"}, "geometry": {"type": "Point", "coordinates": [-74.211364, 40.881762]}},
{"type": "Feature", "id": "_pJOqWWLumUHmDmxZfEXTTAsgwk=", "properties": {"ref": "880", "@spider": "shoprite", "shop": "supermarket", "addr:street_address": "165 Main St", "addr:city": "Lodi", "addr:state": "NJ", "addr:postcode": "07644", "addr:country": "United States of America (the)", "name": "ShopRite Wines & Spirits of Lodi", "phone": "(973) 365-2399", "website": "https://www.shoprite.com/sm/planning/rsid/880", "opening_hours": "Mo-Th 09:00-21:00", "brand": "ShopRite", "brand:wikidata": "Q7501097", "nsi_id": "shoprite-dde59d"}, "geometry": {"type": "Point", "coordinates": [-74.085, 40.879584]}},
{"type": "Feature", "id": "QdTy-4tQOXYj9KY0TQRKA-v9VaM=", "properties": {"ref": "723", "@spider": "shoprite", "shop": "supermarket", "addr:street_address": "540 New York Avenue", "addr:city": "Lyndhurst", "addr:state": "NJ", "addr:postcode": "07071", "addr:country": "United States of America (the)", "name": "ShopRite Wines & Spirits of Lyndhurst", "phone": "(201) 935-3838", "website": "https://www.shoprite.com/sm/planning/rsid/723", "opening_hours": "Mo-Th 09:00-21:00", "brand": "ShopRite", "brand:wikidata": "Q7501097", "nsi_id": "shoprite-dde59d"}, "geometry": {"type": "Point", "coordinates": [-74.118642, 40.812131]}},
{"type": "Feature", "id": "FV9xGxon8-0CEnUgue0lul5nMW8=", "properties": {"ref": "628", "@spider": "shoprite", "shop": "supermarket", "addr:street_address": "1500 State Highway Route 35 South", "addr:city": "Middletown", "addr:state": "NJ", "addr:postcode": "07748", "addr:country": "United States of America (the)", "name": "ShopRite Wines & Spirits of Middletown", "phone": "(732) 737-3540", "website": "https://www.shoprite.com/sm/planning/rsid/628", "opening_hours": "Su 10:00-19:00", "brand": "ShopRite", "brand:wikidata": "Q7501097", "nsi_id": "shoprite-dde59d"}, "geometry": {"type": "Point", "coordinates": [-74.127329, 40.403537]}},
{"type": "Feature", "id": "lNHWzjRs1C_vo9Aav7XpUzmbKOs=", "properties": {"ref": "781", "@spider": "shoprite", "shop": "supermarket", "addr:street_address": "2200 Rt. 66", "addr:city": "Neptune", "addr:state": "NJ", "addr:postcode": "07753", "addr:country": "United States of America (the)", "name": "ShopRite Wines & Spirits of Neptune", "phone": "(732) 775-8653", "website": "https://www.shoprite.com/sm/planning/rsid/781", "opening_hours": "Mo-Sa 09:00-21:00", "brand": "ShopRite", "brand:wikidata": "Q7501097", "nsi_id": "shoprite-dde59d"}, "geometry": {"type": "Point", "coordinates": [-74.042817, 40.224616]}},
{"type": "Feature", "id": "DvkiNhC19BFGQya-BerMP1jfCkY=", "properties": {"ref": "755", "@spider": "shoprite", "shop": "supermarket", "addr:street_address": "75 Rte. 46", "addr:city": "Netcong", "addr:state": "NJ", "addr:postcode": "07857", "addr:country": "United States of America (the)", "name": "ShopRite Wines & Spirits of Netcong", "phone": "(973) 347-0137", "website": "https://www.shoprite.com/sm/planning/rsid/755", "opening_hours": "Mo-Sa 09:00-21:00", "brand": "ShopRite", "brand:wikidata": "Q7501097", "nsi_id": "shoprite-dde59d"}, "geometry": {"type": "Point", "coordinates": [-74.705332, 40.896855]}},
{"type": "Feature", "id": "TQsUdkPS0CuXhdDVG0zZI0_tC4o=", "properties": {"ref": "791", "@spider": "shoprite", "shop": "supermarket", "addr:street_address": "246 Livingston Street", "addr:city": "Northvale", "addr:state": "NJ", "addr:postcode": "07647", "addr:country": "United States of America (the)", "name": "ShopRite Wines & Spirits of Northvale", "phone": "(201) 767-8543", "website": "https://www.shoprite.com/sm/planning/rsid/791", "opening_hours": "Mo-Th 09:00-21:00", "brand": "ShopRite", "brand:wikidata": "Q7501097", "nsi_id": "shoprite-dde59d"}, "geometry": {"type": "Point", "coordinates": [-73.944889, 41.012486]}},
{"type": "Feature", "id": "mo6WN-LZrQYefM6Uj1j92CSIjGA=", "properties": {"ref": "908", "@spider": "shoprite", "shop": "supermarket", "addr:street_address": "16 North Village Blvd", "addr:city": "Sparta", "addr:state": "NJ", "addr:postcode": "07871", "addr:country": "United States of America (the)", "name": "ShopRite Wines & Spirits of Sparta", "phone": "(973) 729-2337", "website": "https://www.shoprite.com/sm/planning/rsid/908", "opening_hours": "Mo-Sa 09:00-21:00", "brand": "ShopRite", "brand:wikidata": "Q7501097", "nsi_id": "shoprite-dde59d"}, "geometry": {"type": "Point", "coordinates": [-74.657532, 41.077027]}},
{"type": "Feature", "id": "Wg2u2LarnRSjFtVWHyNYFQSMtpg=", "properties": {"ref": "894", "@spider": "shoprite", "shop": "supermarket", "addr:street_address": "3666 E. Landis Avenue", "addr:city": "Vineland", "addr:state": "NJ", "addr:postcode": "08361", "addr:country": "United States of America (the)", "name": "ShopRite Wines & Spirits of Vineland", "phone": "(856) 696-5555", "website": "https://www.shoprite.com/sm/planning/rsid/894", "opening_hours": "Mo-Sa 09:00-21:00", "brand": "ShopRite", "brand:wikidata": "Q7501097", "nsi_id": "shoprite-dde59d"}, "geometry": {"type": "Point", "coordinates": [-74.959332, 39.484227]}},
{"type": "Feature", "id": "uDYy_Irv-K5ao6yFg8KpCF5Fiio=", "properties": {"ref": "902", "@spider": "shoprite", "shop": "supermarket", "addr:street_address": "375 Paterson Ave.", "addr:city": "Wallington", "addr:state": "NJ", "addr:postcode": "07057", "addr:country": "United States of America (the)", "name": "ShopRite Wines & Spirits of Wallington", "phone": "(201) 528-7440", "website": "https://www.shoprite.com/sm/planning/rsid/902", "opening_hours": "Mo-Th 09:00-21:00", "brand": "ShopRite", "brand:wikidata": "Q7501097", "nsi_id": "shoprite-dde59d"}, "geometry": {"type": "Point", "coordinates": [-74.106626, 40.844815]}},
{"type": "Feature", "id": "1PA-qS4x66dck6fUgdAe8a6eTHI=", "properties": {"ref": "907", "@spider": "shoprite", "shop": "supermarket", "addr:street_address": "766 Route 23", "addr:city": "Wantage", "addr:state": "NJ", "addr:postcode": "07461", "addr:country": "United States of America (the)", "name": "ShopRite Wines & Spirits of Wantage", "phone": "(732) 702-2385", "website": "https://www.shoprite.com/sm/planning/rsid/907", "opening_hours": "Mo-Su 09:00-21:00", "brand": "ShopRite", "brand:wikidata": "Q7501097", "nsi_id": "shoprite-dde59d"}, "geometry": {"type": "Point", "coordinates": [-74.6171471, 41.2247272]}},
{"type": "Feature", "id": "rQ2PPYDvwDYs6spIij5LCH3q5IU=", "properties": {"ref": "889", "@spider": "shoprite", "shop": "supermarket", "addr:street_address": "57 Rt 46 Suite 204", "addr:city": "Hackettstown", "addr:state": "NJ", "addr:postcode": "07840", "addr:country": "United States of America (the)", "name": "ShopRite Wines & Spirits of Wash. Township", "phone": "(973) 534-4271", "website": "https://www.shoprite.com/sm/planning/rsid/889", "opening_hours": "Mo-Sa 09:00-21:00", "brand": "ShopRite", "brand:wikidata": "Q7501097", "nsi_id": "shoprite-dde59d"}, "geometry": {"type": "Point", "coordinates": [-74.81367, 40.84445]}},
{"type": "Feature", "id": "R7oWbVAAOgvaRDtn-R8R8TyvhKg=", "properties": {"ref": "190", "@spider": "shoprite", "shop": "supermarket", "addr:street_address": "847 Pelham Pkwy", "addr:city": "Pelham", "addr:state": "New York", "addr:postcode": "10803", "addr:country": "United States of America (the)", "name": "ShopRite of Pelham Parkway", "phone": "718-569-4544", "website": "https://www.shoprite.com/sm/planning/rsid/190", "opening_hours": "Mo-Sa 07:00-23:00", "brand": "ShopRite", "brand:wikidata": "Q7501097", "nsi_id": "shoprite-dde59d"}, "geometry": {"type": "Point", "coordinates": [-73.8231223, 40.8931936]}},
{"type": "Feature", "id": "TOomMNQgAi9wHQTI2Uuza0OYG6s=", "properties": {"ref": "813", "@spider": "shoprite", "shop": "supermarket", "addr:street_address": "839 New York Ave", "addr:city": "Huntington", "addr:state": "NY", "addr:postcode": "11743", "addr:country": "United States of America (the)", "name": "ShopRite of Huntington Commons - Coming soon!", "website": "https://www.shoprite.com/sm/planning/rsid/813", "brand": "ShopRite", "brand:wikidata": "Q7501097", "nsi_id": "shoprite-dde59d"}, "geometry": {"type": "Point", "coordinates": [-73.4211306, 40.8570424]}},
{"type": "Feature", "id": "gAVCWoEspEjdigyvg6xDlNZ2_BQ=", "properties": {"ref": "591", "@spider": "shoprite", "shop": "supermarket", "addr:street_address": "1080 Auburn Rd", "addr:city": "Woolwich", "addr:state": "NJ", "addr:postcode": "08085", "addr:country": "United States of America (the)", "name": "ShopRite of Center Square Plaza - Coming soon!", "website": "https://www.shoprite.com/sm/planning/rsid/591", "brand": "ShopRite", "brand:wikidata": "Q7501097", "nsi_id": "shoprite-dde59d"}, "geometry": {"type": "Point", "coordinates": [-75.3246918, 39.7371234]}}]}