{"type":"FeatureCollection","features":[{"type": "Feature", "id": "fmz3fBXSnNGC4GoPfh4XWxTXdp0=", "properties": {"ref": "4359", "@spider": "signet_jewelers", "addr:full": "INTU Watford The Harlequin Centre", "addr:city": "Watford", "addr:postcode": "WD17 2HS", "addr:country": "GB", "name": "Watford", "brand": "hsamuel"}, "geometry": {"type": "Point", "coordinates": [-0.3943, 51.656]}},
{"type": "Feature", "id": "FnI_WlDIHnO9ayS57N0irsk-U1k=", "properties": {"ref": "4032", "@spider": "signet_jewelers", "addr:full": "Unit B4", "addr:city": "Brent Cross", "addr:postcode": "NW4 3FQ", "addr:country": "GB", "name": "Brent Cross", "brand": "hsamuel"}, "geometry": {"type": "Point", "coordinates": [-0.2238, 51.5764]}},
{"type": "Feature", "id": "y1oZjHvm0PlHkIa4buGbUEFE1Ts=", "properties": {"ref": "4137", "@spider": "signet_jewelers", "addr:full": "Unit 11", "addr:city": "Harrow", "addr:postcode": "HA1 1AS", "addr:country": "GB", "name": "Harrow St Anns", "brand": "hsamuel"}, "geometry": {"type": "Point", "coordinates": [-0.3369, 51.5809]}},
{"type": "Feature", "id": "kKGDrRqAH4qH-u9EGteqOjqr2to=", "properties": {"ref": "4103", "@spider": "signet_jewelers", "addr:full": "17 Palace Gardens", "addr:city": "Enfield", "addr:postcode": "EN2 6SN", "addr:country": "GB", "name": "Enfield", "brand": "hsamuel"}, "geometry": {"type": "Point", "coordinates": [-0.0835, 51.6512]}},
{"type": "Feature", "id": "DzxNp9HkYlchpCNAsbYFnWP8B1E=", "properties": {"ref": "4368", "@spider": "signet_jewelers", "addr:full": "3 Cheapside", "addr:city": "Wood Green", "addr:postcode": "N22 6HH", "addr:country": "GB", "name": "Wood Green", "brand": "hsamuel"}, "geometry": {"type": "Point", "coordinates": [-0.1066, 51.5932]}},
{"type": "Feature", "id": "x1x7mek6SDJgxVDQUOfPCPvU9wI=", "properties": {"ref": "4105", "@spider": "signet_jewelers", "addr:full": "70 Ealing Broadway Centre", "addr:city": "Ealing", "addr:postcode": "W5 5JY", "addr:country": "GB", "name": "Ealing Broadway", "brand": "hsamuel"}, "geometry": {"type": "Point", "coordinates": [-0.3031, 51.5125]}},
{"type": "Feature", "id": "7ALGCBGSd__rI1nUxvysPl9VYTk=", "properties": {"ref": "4669", "@spider": "signet_jewelers", "addr:full": "Unit 1151", "addr:city": "London", "addr:postcode": "W12 7GG", "addr:country": "GB", "name": "Westfield London", "brand": "hsamuel"}, "geometry": {"type": "Point", "coordinates": [-0.2213, 51.5075]}},
{"type": "Feature", "id": "95gRN0d8dur8qdoZkaUvJrQ5vv0=", "properties": {"ref": "4142", "@spider": "signet_jewelers", "addr:full": "Unit 51", "addr:city": "Hemel Hempstead", "addr:postcode": "HP1 1DX", "addr:country": "GB", "name": "Hemel Hempstead", "brand": "hsamuel"}, "geometry": {"type": "Point", "coordinates": [-0.4717, 51.7491]}},
{"type": "Feature", "id": "4OBhDd3lHthdOo-caFmZ9sYEdLk=", "properties": {"ref": "4253", "@spider": "signet_jewelers", "addr:full": "250 Oxford Street", "addr:city": "London", "addr:postcode": "W1C 1DJ", "addr:country": "GB", "name": "Oxford Circus", "brand": "hsamuel"}, "geometry": {"type": "Point", "coordinates": [-0.1432, 51.5148]}},
{"type": "Feature", "id": "LgdRYTIBCThXbkWhsOFDTuz0JVU=", "properties": {"ref": "4628", "@spider": "signet_jewelers", "addr:full": "230 INTU Uxbridge Shopping Centre", "addr:city": "Uxbridge", "addr:postcode": "UB8 1GB", "addr:country": "GB", "name": "Uxbridge", "brand": "hsamuel"}, "geometry": {"type": "Point", "coordinates": [-0.4774, 51.5456]}},
{"type": "Feature", "id": "gEV1YBhzwlurvdVKuNUWpqUpqW8=", "properties": {"ref": "4680", "@spider": "signet_jewelers", "addr:full": "111 THE GALLERY", "addr:city": "LONDON", "addr:postcode": "E20 1EP", "addr:country": "GB", "name": "Stratford City", "brand": "hsamuel"}, "geometry": {"type": "Point", "coordinates": [-0.0068, 51.5431]}},
{"type": "Feature", "id": "GohPzslDC3QBuLivWC5X6W4Deko=", "properties": {"ref": "4153", "@spider": "signet_jewelers", "addr:full": "20 The Treaty Centre", "addr:city": "Hounslow", "addr:postcode": "TW3 1ES", "addr:country": "GB", "name": "Hounslow", "brand": "hsamuel"}, "geometry": {"type": "Point", "coordinates": [-0.363, 51.4681]}},
{"type": "Feature", "id": "tWcYfyHk7JQjt1P5miDy2HfEWYo=", "properties": {"ref": "4310", "@spider": "signet_jewelers", "addr:full": "Unit 14 Surrey Quays Ctr", "addr:city": "London", "addr:postcode": "SE16 7LL", "addr:country": "GB", "name": "Surrey Quays", "brand": "hsamuel"}, "geometry": {"type": "Point", "coordinates": [-0.0469, 51.4953]}},
{"type": "Feature", "id": "BTp8iOcVraw4Ot9cdfbylIh0q7o=", "properties": {"ref": "4499", "@spider": "signet_jewelers", "addr:full": "53 The Mall", "addr:city": "Luton", "addr:postcode": "LU1 2TD", "addr:country": "GB", "name": "Luton", "brand": "hsamuel"}, "geometry": {"type": "Point", "coordinates": [-0.4121, 51.8794]}},
{"type": "Feature", "id": "FEbpCG4GteEQMbXENmOBP0zWLMY=", "properties": {"ref": "4323", "@spider": "signet_jewelers", "addr:full": "56 Queensway", "addr:city": "Stevenage", "addr:postcode": "SG1 1EE", "addr:country": "GB", "name": "Stevenage", "brand": "hsamuel"}, "geometry": {"type": "Point", "coordinates": [-0.2019, 51.9025]}},
{"type": "Feature", "id": "sP3chQ4fMIHkGB9_eIF6DvH2x0E=", "properties": {"ref": "4495", "@spider": "signet_jewelers", "addr:full": "51-51A Clarence Street", "addr:city": "Kingston", "addr:postcode": "KT1 1RF", "addr:country": "GB", "name": "Kingston Clarence St", "brand": "hsamuel"}, "geometry": {"type": "Point", "coordinates": [-0.3044, 51.4111]}},
{"type": "Feature", "id": "YRN2am1yHXx0gU_yGhoDYNXt-CQ=", "properties": {"ref": "4143", "@spider": "signet_jewelers", "addr:full": "35 Harvey Centre", "addr:city": "Harlow", "addr:postcode": "CM20 1XP", "addr:country": "GB", "name": "Harlow", "brand": "hsamuel"}, "geometry": {"type": "Point", "coordinates": [0.092, 51.7689]}},
{"type": "Feature", "id": "7oKSt6QRpRL_rm0OVNBZcQ_YdzM=", "properties": {"ref": "4332", "@spider": "signet_jewelers", "addr:full": "1 & 2 Elmsleigh Centre", "addr:city": "Staines Upon Thames", "addr:postcode": "TW18 4QB", "addr:country": "GB", "name": "Staines", "brand": "hsamuel"}, "geometry": {"type": "Point", "coordinates": [-0.5098, 51.4334]}},
{"type": "Feature", "id": "uUteDvJ2k1x94JWGZ5Ar311CXFQ=", "properties": {"ref": "4521", "@spider": "signet_jewelers", "addr:full": "11 The Liberty", "addr:city": "Romford", "addr:postcode": "RM1 3RL", "addr:country": "GB", "name": "Romford Liberty", "brand": "hsamuel"}, "geometry": {"type": "Point", "coordinates": [0.1837, 51.5783]}},
{"type": "Feature", "id": "zzMtKtTbarrx29MlvCKQ6F3fiGU=", "properties": {"ref": "4336", "@spider": "signet_jewelers", "addr:full": "128 High Street", "addr:city": "Sutton", "addr:postcode": "SM1 1LU", "addr:country": "GB", "name": "Sutton", "brand": "hsamuel"}, "geometry": {"type": "Point", "coordinates": [-0.1931, 51.3635]}},
{"type": "Feature", "id": "SIIjOvzahcSqJbMy9l-2sT_8G8I=", "properties": {"ref": "4049", "@spider": "signet_jewelers", "addr:full": "37-38 The Mall", "addr:city": "Croydon", "addr:postcode": "CR0 1UP", "addr:country": "GB", "name": "Croydon Whitgift", "brand": "hsamuel"}, "geometry": {"type": "Point", "coordinates": [-0.1001, 51.3766]}},
{"type": "Feature", "id": "s5mCcFKKxI90EBW1LvLRpbK0f6w=", "properties": {"ref": "4182", "@spider": "signet_jewelers", "addr:full": "61 The Glades Centre", "addr:city": "Bromley", "addr:postcode": "BR1 1DD", "addr:country": "GB", "name": "Bromley Glades", "brand": "hsamuel"}, "geometry": {"type": "Point", "coordinates": [0.0166, 51.4038]}},
{"type": "Feature", "id": "PNhLXeqm-BJk3le9GcXbDG6A_IY=", "properties": {"ref": "4210", "@spider": "signet_jewelers", "addr:full": "39 Nicholsons Walk", "addr:city": "Maidenhead", "addr:postcode": "SL6 1LB", "addr:country": "GB", "name": "Maidenhead", "brand": "hsamuel"}, "geometry": {"type": "Point", "coordinates": [-0.7219, 51.5221]}},
{"type": "Feature", "id": "n149S_hGoxE46vRJo2ScZyNo2EA=", "properties": {"ref": "4120", "@spider": "signet_jewelers", "addr:full": "Unit 61", "addr:city": "Bexleyheath", "addr:postcode": "DA6 7JN", "addr:country": "GB", "name": "Bexley Heath", "brand": "hsamuel"}, "geometry": {"type": "Point", "coordinates": [0.1462, 51.4562]}},
{"type": "Feature", "id": "qwdm3nw95Q83iNgyxRFSk0CRPEc=", "properties": {"ref": "3255", "@spider": "signet_jewelers", "addr:full": "122 INTU Watford The Harlequin Centre", "addr:city": "Watford", "addr:postcode": "WD17 2EJ", "addr:country": "GB", "name": "Watford", "brand": "ernestjones"}, "geometry": {"type": "Point", "coordinates": [-0.3933, 51.6547]}},
{"type": "Feature", "id": "ViXthOdVQWi64M8nagPY7-OaPO8=", "properties": {"ref": "3498", "@spider": "signet_jewelers", "addr:full": "Brent Cross Centre", "addr:city": "London", "addr:postcode": "NW4 3FQ", "addr:country": "GB", "name": "Brent Cross", "brand": "ernestjones"}, "geometry": {"type": "Point", "coordinates": [-0.2245, 51.5761]}},
{"type": "Feature", "id": "hy_--X86IlnrBh3rROp1sWnSsX8=", "properties": {"ref": "3011", "@spider": "signet_jewelers", "addr:full": "29 Palace Gardens", "addr:city": "Enfield", "addr:postcode": "EN2 6SN", "addr:country": "GB", "name": "Enfield", "brand": "ernestjones"}, "geometry": {"type": "Point", "coordinates": [-0.0835, 51.6512]}},
{"type": "Feature", "id": "A3bKxU1JStlNpS4eXOJd9k0b64o=", "properties": {"ref": "3294", "@spider": "signet_jewelers", "addr:full": "1 Howards Centre", "addr:city": "Welwyn Garden City", "addr:postcode": "AL8 6HA", "addr:country": "GB", "name": "Welwyn G'dn City", "brand": "ernestjones"}, "geometry": {"type": "Point", "coordinates": [-0.2046, 51.8012]}},
{"type": "Feature", "id": "ib_Tl4SFCATDHO842gXYq4DKotM=", "properties": {"ref": "3506", "@spider": "signet_jewelers", "addr:full": "Unit SU1106a", "addr:city": "London", "addr:postcode": "W12 7GD", "addr:country": "GB", "name": "Breitling Loft Westfield London", "brand": "ernestjones"}, "geometry": {"type": "Point", "coordinates": [-0.2232, 51.5071]}},
{"type": "Feature", "id": "8kcz62oQLlFGzRgExrp_RSy5bl8=", "properties": {"ref": "3507", "@spider": "signet_jewelers", "addr:full": "Unit SU1106", "addr:city": "London", "addr:postcode": "W12 7GD", "addr:country": "GB", "name": "Tag Boutique Westfield London", "brand": "ernestjones"}, "geometry": {"type": "Point", "coordinates": [-0.2232, 51.5071]}},
{"type": "Feature", "id": "HlcXddXuYQfrjyLfjXch_auzelM=", "properties": {"ref": "3442", "@spider": "signet_jewelers", "addr:full": "Unit 1117", "addr:city": "London", "addr:postcode": "W12 7GD", "addr:country": "GB", "name": "Westfield London", "brand": "ernestjones"}, "geometry": {"type": "Point", "coordinates": [-0.2232, 51.5071]}},
{"type": "Feature", "id": "hlzRR_YuFeLg8VUuqtlhBaYgrBY=", "properties": {"ref": "3235", "@spider": "signet_jewelers", "addr:full": "277 Oxford Street", "addr:city": "London", "addr:postcode": "W1C 2DL", "addr:country": "GB", "name": "Oxford St 277", "brand": "ernestjones"}, "geometry": {"type": "Point", "coordinates": [-0.1433, 51.5149]}},
{"type": "Feature", "id": "CaYB3gIhPU9ck9qpbLhCF20sRXs=", "properties": {"ref": "3368", "@spider": "signet_jewelers", "addr:full": "233 The Chimes", "addr:city": "Uxbridge", "addr:postcode": "UB8 1GB", "addr:country": "GB", "name": "Uxbridge", "brand": "ernestjones"}, "geometry": {"type": "Point", "coordinates": [-0.4774, 51.5456]}},
{"type": "Feature", "id": "HHPCrZP6-tlAhuijevVsmXuQNaY=", "properties": {"ref": "3494", "@spider": "signet_jewelers", "addr:full": "81 - 82 Cheapside", "addr:city": "London", "addr:postcode": "EC2V 6EB", "addr:country": "GB", "name": "Cheapside", "brand": "ernestjones"}, "geometry": {"type": "Point", "coordinates": [-0.0915, 51.5138]}},
{"type": "Feature", "id": "Bs31cnEwB4MtUwW9jfwGZD7CjtE=", "properties": {"ref": "3173", "@spider": "signet_jewelers", "addr:full": "37 Treaty Centre", "addr:city": "Hounslow", "addr:postcode": "TW3 1ES", "addr:country": "GB", "name": "Hounslow", "brand": "ernestjones"}, "geometry": {"type": "Point", "coordinates": [-0.3583, 51.4693]}},
{"type": "Feature", "id": "GbFujSaehjgYsxMCoHDBovazMdc=", "properties": {"ref": "3449", "@spider": "signet_jewelers", "addr:full": "158-159 THE ARCADE", "addr:city": "LONDON", "addr:postcode": "E20 1EL", "addr:country": "GB", "name": "Stratford City", "brand": "ernestjones"}, "geometry": {"type": "Point", "coordinates": [-0.0068, 51.5436]}},
{"type": "Feature", "id": "ae0Jfo9gTw_kR63HFQf-d8OeLQs=", "properties": {"ref": "3472", "@spider": "signet_jewelers", "addr:full": "Unit 19 Bentall Centre", "addr:city": "Kingston", "addr:postcode": "KT1 1TR", "addr:country": "GB", "name": "Ej Kingston Bentalls", "brand": "ernestjones"}, "geometry": {"type": "Point", "coordinates": [-0.3047, 51.4118]}},
{"type": "Feature", "id": "ItQHtRUChIejj9xpFlVJHEn6jEo=", "properties": {"ref": "3268", "@spider": "signet_jewelers", "addr:full": "Unit 13", "addr:city": "Stevenage", "addr:postcode": "SG1 1QR", "addr:country": "GB", "name": "Stevenage Westgate", "brand": "ernestjones"}, "geometry": {"type": "Point", "coordinates": [-0.2024, 51.9029]}},
{"type": "Feature", "id": "70cyYZY1DJ0QDlB1tdAOdyqAIdw=", "properties": {"ref": "3357", "@spider": "signet_jewelers", "addr:full": "Unit 39 Queensmere", "addr:city": "Slough", "addr:postcode": "SL1 1DD", "addr:country": "GB", "name": "Slough Queensmere", "brand": "ernestjones"}, "geometry": {"type": "Point", "coordinates": [-0.5917, 51.5091]}},
{"type": "Feature", "id": "tk-7s-fHDhs8XV82fX5YPhYVgQ4=", "properties": {"ref": "3331", "@spider": "signet_jewelers", "addr:full": "104, Peascod Street", "addr:city": "Windsor", "addr:postcode": "SL4 1TF", "addr:country": "GB", "name": "Windsor", "brand": "ernestjones"}, "geometry": {"type": "Point", "coordinates": [-0.6112, 51.4817]}},
{"type": "Feature", "id": "muXACCpQks_T2DKDqK3c40CwHSQ=", "properties": {"ref": "3445", "@spider": "signet_jewelers", "addr:full": "Unit 19", "addr:city": "High Wycombe", "addr:postcode": "HP11 2BZ", "addr:country": "GB", "name": "High Wycombe", "brand": "ernestjones"}, "geometry": {"type": "Point", "coordinates": [-0.7565, 51.6303]}},
{"type": "Feature", "id": "YU9ezRTNnZa5l7N6dxPxD_I7Vbg=", "properties": {"ref": "3249", "@spider": "signet_jewelers", "addr:full": "SU21", "addr:city": "Bromley", "addr:postcode": "BR1 1DD", "addr:country": "GB", "name": "Bromley Glades", "brand": "ernestjones"}, "geometry": {"type": "Point", "coordinates": [0.0166, 51.4038]}},
{"type": "Feature", "id": "pP5b1MttHI-Gxt2eLmsjgq_6TaQ=", "properties": {"ref": "3226", "@spider": "signet_jewelers", "addr:full": "10 Central Square", "addr:city": "Epsom", "addr:postcode": "KT18 5DA", "addr:country": "GB", "name": "Epsom", "brand": "ernestjones"}, "geometry": {"type": "Point", "coordinates": [-0.269, 51.3325]}}]}