{"type":"FeatureCollection","features":[{"type": "Feature", "id": "KtIKmFR-qH_xn_b0FP3i4hAnP3Y=", "properties": {"ref": "20924", "@spider": "simply_self_storage", "addr:street_address": "1035 Starwood Ave", "addr:city": "Valrico", "addr:state": "FL", "addr:postcode": "33596", "addr:country": "US", "name": "Simply Self Storage Valrico", "phone": "(813) 643-1949;(813) 655-5625", "website": "https://www.simplyss.com/florida/valrico-self-storage/", "opening_hours": "Mo-Fr 09:30-18:00; Sa 08:30-17:00", "image": "https://www.simplyss.com/files/img_location_images_0db42c1131f6a6651b3c8ce525026c5b.jpg", "brand": "Simply Self Storage"}, "geometry": {"type": "Point", "coordinates": [-82.267947, 27.890583]}},
{"type": "Feature", "id": "YmuPF__L-iFh30EtEmERfcDS7lw=", "properties": {"ref": "20154", "@spider": "simply_self_storage", "addr:street_address": "6123 Highland Road", "addr:city": "Waterford", "addr:state": "MI", "addr:postcode": "48327", "addr:country": "US", "name": "Simply Self Storage Waterford", "phone": "(248) 461-2089;(248) 886-1670", "website": "https://www.simplyss.com/michigan/waterford-self-storage/", "opening_hours": "Mo-Fr 09:30-18:00; Sa 08:30-17:00", "image": "https://www.simplyss.com/files/img_location_images_2911f72148d4d11c8322db494dd21d75.jpg", "brand": "Simply Self Storage"}, "geometry": {"type": "Point", "coordinates": [-83.407601, 42.659052]}},
{"type": "Feature", "id": "6bZMUDhS2DWRYEUqGqxNTu9dGHw=", "properties": {"ref": "20929", "@spider": "simply_self_storage", "addr:street_address": "7628 Narcoossee Road", "addr:city": "Orlando", "addr:state": "FL", "addr:postcode": "32822", "addr:country": "US", "name": "Simply Self Storage Orlando Lake Nona", "phone": "(407) 237-0496;(407) 207-3335", "website": "https://www.simplyss.com/florida/orlando-self-storage/", "opening_hours": "Mo-Fr 09:30-18:00; Sa 08:30-17:00", "image": "https://www.simplyss.com/files/img_location_images_88e99eda18a517251ed380e2924d550b.jpg", "brand": "Simply Self Storage"}, "geometry": {"type": "Point", "coordinates": [-81.273287, 28.456929]}},
{"type": "Feature", "id": "tjWvesgdJnZ46irVQX6gAJbSW_k=", "properties": {"ref": "20931", "@spider": "simply_self_storage", "addr:street_address": "9546 Navarre Parkway", "addr:city": "Navarre", "addr:state": "FL", "addr:postcode": "32566", "addr:country": "US", "name": "Simply Self Storage Navarre", "phone": "(850) 684-1162;(850) 936-8500", "website": "https://www.simplyss.com/florida/navarre-self-storage/", "opening_hours": "Mo-Tu 09:30-18:00; Th-Fr 09:30-18:00; Sa 08:30-17:00", "image": "https://www.simplyss.com/files/img_location_images_a4e9c92a44a6b1246a19c51f8fea62b7.jpg", "brand": "Simply Self Storage"}, "geometry": {"type": "Point", "coordinates": [-86.822368, 30.411626]}},
{"type": "Feature", "id": "IkE_buIzUcdgnxw5DQbW3Dz1N6Q=", "properties": {"ref": "20808", "@spider": "simply_self_storage", "addr:street_address": "4740 4th Army Drive", "addr:city": "Frisco", "addr:state": "TX", "addr:postcode": "75034", "addr:country": "US", "name": "Simply Self Storage Frisco 4th Army Dr.", "phone": "(214) 469-1718;(214) 872-8046", "website": "https://www.simplyss.com/texas/frisco-lebanon-rd-self-storage/", "opening_hours": "Mo-Fr 09:30-18:00; Sa 08:30-17:00", "image": "https://www.simplyss.com/files/img_location_images_903f014bbd01a5bc6ce733d83994e295.jpg", "brand": "Simply Self Storage"}, "geometry": {"type": "Point", "coordinates": [-96.860144, 33.117646]}},
{"type": "Feature", "id": "iRE4OIkuwFhX8m8R9iCHI9tPtgc=", "properties": {"ref": "22822", "@spider": "simply_self_storage", "addr:street_address": "3891 Thomas Street", "addr:city": "Memphis", "addr:state": "TN", "addr:postcode": "38127", "addr:country": "US", "name": "Simply Self Storage Frayser Thomas St.", "phone": "(901) 433-9906;(901) 353-9933", "website": "https://www.simplyss.com/tennessee/frayser-self-storage/", "opening_hours": "Mo-Tu 09:30-18:00; Th-Fr 09:30-18:00; Sa 08:30-17:00", "image": "https://www.simplyss.com/files/img_location_images_4fd178c0ce5ffc84d6514277e90d7a22.jpg", "brand": "Simply Self Storage"}, "geometry": {"type": "Point", "coordinates": [-90.01913, 35.232225]}},
{"type": "Feature", "id": "4iMgk3aM2rJRd54LiSVXzHwTQd8=", "properties": {"ref": "20928", "@spider": "simply_self_storage", "addr:street_address": "1835 E. Olive Road", "addr:city": "Pensacola", "addr:state": "FL", "addr:postcode": "32514", "addr:country": "US", "name": "Simply Self Storage Ensley / Pensacola", "phone": "(850) 607-8418;(850) 497-6555", "website": "https://www.simplyss.com/florida/pensacola-self-storage/", "opening_hours": "Mo-Fr 09:30-18:00; Sa 08:30-17:00", "image": "https://www.simplyss.com/files/img_location_images_1a365ef3e3887378a7995fba20941f22.jpg", "brand": "Simply Self Storage"}, "geometry": {"type": "Point", "coordinates": [-87.222795, 30.50988]}},
{"type": "Feature", "id": "FQhV3XQnuIcut8cZMDFTHId3Cpg=", "properties": {"ref": "23317", "@spider": "simply_self_storage", "addr:street_address": "3401 North Bryant Ave", "addr:city": "Oklahoma City", "addr:state": "OK", "addr:postcode": "73121", "addr:country": "US", "name": "Simply Self Storage Forest Park", "phone": "(405) 424-3737;(405) 424-6505", "website": "https://www.simplyss.com/oklahoma/northeast-forest-park-self-storage/", "opening_hours": "Mo-Tu 09:30-18:00; Th-Fr 09:30-18:00; Sa 08:30-17:00", "image": "https://www.simplyss.com/files/img_location_images_106e78eda7035056a361c7f503407d76.jpg", "brand": "Simply Self Storage"}, "geometry": {"type": "Point", "coordinates": [-97.459773, 35.504229]}},
{"type": "Feature", "id": "OX_1Tu6PyJwqBxlBl9WxYlGdSeg=", "properties": {"ref": "20934", "@spider": "simply_self_storage", "addr:street_address": "13151 Reams Rd", "addr:city": "Windermere", "addr:state": "FL", "addr:postcode": "34786", "addr:country": "US", "name": "Simply Self Storage Windermere", "phone": "(407) 395-2605;(407) 395-2350", "website": "https://www.simplyss.com/florida/windermere-self-storage/", "opening_hours": "Mo-Fr 09:30-18:00; Sa 08:30-17:00", "image": "https://www.simplyss.com/files/img_location_images_2f24c14e66554dff99e42ac8248026a4.jpg", "brand": "Simply Self Storage"}, "geometry": {"type": "Point", "coordinates": [-81.577335, 28.431308]}},
{"type": "Feature", "id": "FEUNYYzy3AztneOwvDBl9FzVUJY=", "properties": {"ref": "23314", "@spider": "simply_self_storage", "addr:street_address": "5801 West Britton Road", "addr:city": "Oklahoma City", "addr:state": "OK", "addr:postcode": "73132", "addr:country": "US", "name": "Simply Self Storage Lake Hefner", "phone": "(405) 720-3113;(405) 720-8313", "website": "https://www.simplyss.com/oklahoma/macarthur-lake-hefner-self-storage/", "opening_hours": "Mo-Tu 09:30-18:00; Th-Fr 09:30-18:00; Sa 08:30-17:00", "image": "https://www.simplyss.com/files/img_location_images_62933e290b1d950335e3aed8b5c26b8b.jpg", "brand": "Simply Self Storage"}, "geometry": {"type": "Point", "coordinates": [-97.620133, 35.566458]}},
{"type": "Feature", "id": "-1qggBJtgvgUzikniiDyKrB42q0=", "properties": {"ref": "20619", "@spider": "simply_self_storage", "addr:street_address": "230 45th Avenue", "addr:city": "Munster", "addr:state": "IN", "addr:postcode": "46321", "addr:country": "US", "name": "Simply Self Storage Munster", "phone": "(219) 513-8583;(219) 262-2006", "website": "https://www.simplyss.com/indiana/munster-self-storage/", "opening_hours": "Mo-Fr 09:30-18:00; Sa 08:30-17:00", "image": "https://www.simplyss.com/files/img_location_images_ae6bc1cadea6740a118a934fc8080cb9.jpg", "brand": "Simply Self Storage"}, "geometry": {"type": "Point", "coordinates": [-87.523692, 41.542151]}},
{"type": "Feature", "id": "A-yMEFnmzAFtwDnB00UsAupioQk=", "properties": {"ref": "20921", "@spider": "simply_self_storage", "addr:street_address": "888 Palm Bay Road NE", "addr:city": "Palm Bay", "addr:state": "FL", "addr:postcode": "32905", "addr:country": "US", "name": "Simply Self Storage Palm Bay Road", "phone": "(321) 586-5477;(321) 984-9798", "website": "https://www.simplyss.com/florida/palm-bay-road-self-storage/", "opening_hours": "Mo-We 09:30-18:00; Fr 09:30-18:00; Sa 08:30-17:00", "image": "https://www.simplyss.com/files/img_location_images_b6b92074c401b6c5f76d0d59bbff38c3.jpg", "brand": "Simply Self Storage"}, "geometry": {"type": "Point", "coordinates": [-80.646803, 28.032907]}},
{"type": "Feature", "id": "XSCS8qiaF2YNGIfrwJYdamkYS-Y=", "properties": {"ref": "20916", "@spider": "simply_self_storage", "addr:street_address": "12446 W. Colonial Drive", "addr:city": "Winter Garden", "addr:state": "FL", "addr:postcode": "34787", "addr:country": "US", "name": "Simply Self Storage Winter Garden", "phone": "(407) 614-2842;(407) 654-0132", "website": "https://www.simplyss.com/florida/winter-garden-self-storage/", "opening_hours": "Mo-We 09:30-18:00; Fr 09:30-18:00; Sa 08:30-17:00", "image": "https://www.simplyss.com/files/img_location_images_577a16ceb511bc259177e42f0740a4fd.jpg", "brand": "Simply Self Storage"}, "geometry": {"type": "Point", "coordinates": [-81.565648, 28.54995]}},
{"type": "Feature", "id": "S7atA4TllJ-NfW_jcfhO-wiBBQA=", "properties": {"ref": "20909", "@spider": "simply_self_storage", "addr:street_address": "14900 County Line Road", "addr:city": "Spring Hill", "addr:state": "FL", "addr:postcode": "34610", "addr:country": "US", "name": "Simply Self Storage Spring Hill", "phone": "(727) 233-9632;(727) 856-4311", "website": "https://www.simplyss.com/florida/spring-hill-self-storage/", "opening_hours": "Mo-We 09:30-18:00; Th 13:00-18:00; Fr 09:30-18:00; Sa 08:30-17:00", "image": "https://www.simplyss.com/files/img_location_images_bd24ad71353427686ffd2183c458c5d8.png", "brand": "Simply Self Storage"}, "geometry": {"type": "Point", "coordinates": [-82.569137, 28.433768]}},
{"type": "Feature", "id": "r9dz4h9HYUoe1MoLCHY-DsD_6xw=", "properties": {"ref": "23301", "@spider": "simply_self_storage", "addr:street_address": "8706 S. Shields Blvd", "addr:city": "Oklahoma City", "addr:state": "OK", "addr:postcode": "73149", "addr:country": "US", "name": "Simply Self Storage South Oklahoma City", "phone": "(405) 604-0304;(405) 634-6008", "website": "https://www.simplyss.com/oklahoma/oklahoma-city-shields-blvd-self-storage/", "opening_hours": "Mo-Fr 09:30-18:00; Sa 08:30-17:00", "image": "https://www.simplyss.com/files/img_location_images_7527b7b74f401ec251115fbea2e72aef.jpg", "brand": "Simply Self Storage"}, "geometry": {"type": "Point", "coordinates": [-97.503089, 35.379737]}},
{"type": "Feature", "id": "yODxhNX3-YNsPgTqtH-WazoZ1MA=", "properties": {"ref": "22820", "@spider": "simply_self_storage", "addr:street_address": "314 S Mount Pleasant Road", "addr:city": "Collierville", "addr:state": "TN", "addr:postcode": "38017", "addr:country": "US", "name": "Simply Self Storage Collierville Mt. Pleasant Rd.", "phone": "(901) 221-7630;(901) 861-1261", "website": "https://www.simplyss.com/Tennessee/collierville-self-storage/", "opening_hours": "Mo-Su 08:00-22:00", "image": "https://www.simplyss.com/files/img_location_images_15d7175c14647c8ad79959d8f083414f.jpg", "brand": "Simply Self Storage"}, "geometry": {"type": "Point", "coordinates": [-89.659508, 35.036986]}},
{"type": "Feature", "id": "Rh3grCFQNOpYsX6-ye8LsgVHTsE=", "properties": {"ref": "22903", "@spider": "simply_self_storage", "addr:street_address": "5365 Goodman Road", "addr:city": "Olive Branch", "addr:state": "MS", "addr:postcode": "38654", "addr:country": "US", "name": "Simply Self Storage Olive Branch Goodman Rd.", "phone": "(662) 890-8999;(662) 890-4096", "website": "https://www.simplyss.com/Mississippi/olive-branch-goodman-self-storage/", "opening_hours": "Mo-Fr 09:30-18:00; Sa 08:30-17:00", "image": "https://www.simplyss.com/files/img_location_images_502253bb903a08ec10e1fe0425741077.jpg", "brand": "Simply Self Storage"}, "geometry": {"type": "Point", "coordinates": [-89.895025, 34.960408]}},
{"type": "Feature", "id": "oOVvvJJ3LoOpuFx4YcpADCpVd0g=", "properties": {"ref": "20614", "@spider": "simply_self_storage", "addr:street_address": "2669 Old U.S. Highway 231", "addr:city": "Lafayette", "addr:state": "IN", "addr:postcode": "47909", "addr:country": "US", "name": "Simply Self Storage Lafayette Highway 231", "phone": "(765) 607-4621;(765) 474-3011", "website": "https://www.simplyss.com/indiana/Highway-231-self-storage/", "opening_hours": "Mo-Fr 09:30-18:00; Sa 08:30-17:00", "image": "https://www.simplyss.com/files/img_location_images_f307187ffe3c0f5928a9173e7c1b660c.jpg", "brand": "Simply Self Storage"}, "geometry": {"type": "Point", "coordinates": [-86.902688, 40.391154]}},
{"type": "Feature", "id": "iBE3lqjORhytzHbeql4nB7BAeP8=", "properties": {"ref": "22901", "@spider": "simply_self_storage", "addr:street_address": "9085 Ann Drive", "addr:city": "Southaven", "addr:state": "MS", "addr:postcode": "38671", "addr:country": "US", "name": "Simply Self Storage Southaven Ann Dr.", "phone": "(662) 342-0317;(662) 342-9535", "website": "https://www.simplyss.com/Mississippi/stateline-self-storage/", "opening_hours": "Mo-Tu 09:30-18:00; Th-Fr 09:30-18:00; Sa 08:30-17:00", "image": "https://www.simplyss.com/files/img_location_images_a3c635bed1c2dad57e70bab7619ff20c.jpg", "brand": "Simply Self Storage"}, "geometry": {"type": "Point", "coordinates": [-89.993512, 34.993154]}},
{"type": "Feature", "id": "DnUASZo8tmsqV3-dts0OzaNMIUk=", "properties": {"ref": "22821", "@spider": "simply_self_storage", "addr:street_address": "6504 E Raines Road", "addr:city": "Memphis", "addr:state": "TN", "addr:postcode": "38115", "addr:country": "US", "name": "Simply Self Storage Memphis Raines Rd.", "phone": "(901) 552-5284;(901) 794-3840", "website": "https://www.simplyss.com/Tennessee/kirby-raines-self-storage/", "opening_hours": "Mo-Fr 09:30-18:00; Sa 08:30-17:00", "image": "https://www.simplyss.com/files/img_location_images_0fcd80fd9851da1f9c55e174e23a1126.jpg", "brand": "Simply Self Storage"}, "geometry": {"type": "Point", "coordinates": [-89.846094, 35.035758]}},
{"type": "Feature", "id": "AOzD5jfPjxogAnDt0Bc61dTl6F0=", "properties": {"ref": "22823", "@spider": "simply_self_storage", "addr:street_address": "4720 Getwell Road", "addr:city": "Memphis", "addr:state": "TN", "addr:postcode": "38118", "addr:country": "US", "name": "Simply Self Storage Memphis Airport Area", "phone": "(901) 367-9845;(901) 367-2500", "website": "https://www.simplyss.com/Tennessee/getwell-self-storage/", "opening_hours": "Mo-Fr 09:30-18:00; Sa 08:30-17:00", "image": "https://www.simplyss.com/files/img_location_images_b646811daf115323641030ff8257d9b6.jpeg", "brand": "Simply Self Storage"}, "geometry": {"type": "Point", "coordinates": [-89.936812, 35.019553]}},
{"type": "Feature", "id": "WSRWKE6LdrykMVHPQaikbF9xFmE=", "properties": {"ref": "22900", "@spider": "simply_self_storage", "addr:street_address": "7230 Airways Blvd", "addr:city": "Southaven", "addr:state": "MS", "addr:postcode": "38671", "addr:country": "US", "name": "Simply Self Storage Southaven Airways Blvd.", "phone": "(662) 470-7147;(662) 349-0202", "website": "https://www.simplyss.com/Mississippi/airways-southaven-self-storage/", "opening_hours": "Mo-Fr 09:30-18:00; Sa 08:30-17:00", "image": "https://www.simplyss.com/files/img_location_images_55d97e407c9fb4105f15a99fc0a25cb7.jpg", "brand": "Simply Self Storage"}, "geometry": {"type": "Point", "coordinates": [-89.988044, 34.966122]}},
{"type": "Feature", "id": "I2ZdFmpIIgJ9RImDMfiiJGYJWlY=", "properties": {"ref": "23313", "@spider": "simply_self_storage", "addr:street_address": "120 West Almar Drive", "addr:city": "Chickasha", "addr:state": "OK", "addr:postcode": "73018", "addr:country": "US", "name": "Simply Self Storage Chickasha", "phone": "(405) 222-6411;(405) 222-3011", "website": "https://www.simplyss.com/oklahoma/chickasha-self-storage/", "opening_hours": "Mo-Tu 09:30-18:00; Th-Fr 09:30-18:00; Sa 08:30-17:00", "image": "https://www.simplyss.com/files/img_location_images_a5e2d576638ee6dbce2bf9b877a36758.jpg", "brand": "Simply Self Storage"}, "geometry": {"type": "Point", "coordinates": [-97.933381, 35.020718]}},
{"type": "Feature", "id": "gvXxmtQ38ghRU6rsDzgHhV44ltQ=", "properties": {"ref": "10621", "@spider": "simply_self_storage", "addr:street_address": "7828 West Washington Street", "addr:city": "Indianapolis", "addr:state": "IN", "addr:postcode": "46231", "addr:country": "US", "name": "Simply Self Storage West Indianapolis", "phone": "(317) 744-9779;(317) 641-8000", "website": "https://www.simplyss.com/indiana/washington-self-storage/", "opening_hours": "Mo-Fr 09:30-18:00; Sa 08:30-17:00", "image": "https://www.simplyss.com/files/img_location_images_6609d69e36f904720b5a4d2dd7c70a5a.jpg", "brand": "Simply Self Storage"}, "geometry": {"type": "Point", "coordinates": [-86.299498, 39.737802]}},
{"type": "Feature", "id": "u4OTj2dlcdj0TZjPh9scvyPTcMo=", "properties": {"ref": "22027", "@spider": "simply_self_storage", "addr:street_address": "841 Taylor Station Road", "addr:city": "Gahanna", "addr:state": "OH", "addr:postcode": "43230", "addr:country": "US", "name": "Simply Self Storage Gahanna", "phone": "(614) 416-0212;(614) 751-1100", "website": "https://www.simplyss.com/ohio/gahanna-self-storage/", "opening_hours": "Mo-Fr 09:30-18:00; Sa 08:30-17:00", "image": "https://www.simplyss.com/files/img_location_images_61b2200c4ce4351e50ac2623a19c3fd6.png", "brand": "Simply Self Storage"}, "geometry": {"type": "Point", "coordinates": [-82.836881, 39.998155]}},
{"type": "Feature", "id": "eCi3cr4-9ZFAom5PsBWWGazYZl0=", "properties": {"ref": "22212", "@spider": "simply_self_storage", "addr:street_address": "289 U.S. Highway 9", "addr:city": "Manalapan", "addr:state": "NJ", "addr:postcode": "07726", "addr:country": "US", "name": "Simply Self Storage Manalapan", "phone": "(848) 233-9200;(732) 866-9950", "website": "https://www.simplyss.com/new-jersey/manalapan-englishtown-self-storage/", "opening_hours": "Mo-Tu 09:30-18:00; Th-Fr 09:30-18:00; Sa 08:30-17:00", "image": "https://www.simplyss.com/files/img_location_images_f9a432636ae52104ad75398553b7d2cf.jpg", "brand": "Simply Self Storage"}, "geometry": {"type": "Point", "coordinates": [-74.303992, 40.3057]}},
{"type": "Feature", "id": "DiYWC2kRz5Mbb1AEPNn_eUH7XDs=", "properties": {"ref": "20620", "@spider": "simply_self_storage", "addr:street_address": "900 Locust Street", "addr:city": "Valparaiso", "addr:state": "IN", "addr:postcode": "46383", "addr:country": "US", "name": "Simply Self Storage Valparaiso", "phone": "(219) 464-4120;(219) 262-2026", "website": "https://www.simplyss.com/indiana/valparaiso-self-storage/", "opening_hours": "Mo-Fr 09:30-18:00; Sa 08:30-17:00", "image": "https://www.simplyss.com/files/img_location_images_ab8da3e3b30727688efe415bb254e0e0.jpg", "brand": "Simply Self Storage"}, "geometry": {"type": "Point", "coordinates": [-87.054492, 41.476491]}},
{"type": "Feature", "id": "j2GoOenjgKbM6JTG2hgn4v08nT0=", "properties": {"ref": "12829", "@spider": "simply_self_storage", "addr:street_address": "3545 Hickory Hill Road", "addr:city": "Memphis", "addr:state": "TN", "addr:postcode": "38115", "addr:country": "US", "name": "Simply Self Storage Hickory Hill", "phone": "(901) 362-5085;(901) 267-4017", "website": "https://www.simplyss.com/tennessee/hickory-hill-self-storage/", "opening_hours": "Mo-Fr 09:30-18:00; Sa 08:30-17:00", "image": "https://www.simplyss.com/files/img_location_images_48b91bac4bb4ca206f78d93a92fc4327.jpg", "brand": "Simply Self Storage"}, "geometry": {"type": "Point", "coordinates": [-89.866647, 35.051972]}},
{"type": "Feature", "id": "BF6Ex_TO8NwwnNz2a7HjzXlVeiU=", "properties": {"ref": "23303", "@spider": "simply_self_storage", "addr:street_address": "275 12th Avenue SE", "addr:city": "Norman", "addr:state": "OK", "addr:postcode": "73071", "addr:country": "US", "name": "Simply Self Storage Norman 12th Ave.", "phone": "(405) 310-3480;(405) 360-9200", "website": "https://www.simplyss.com/oklahoma/norman-self-storage/", "opening_hours": "Mo-Fr 09:30-18:00; Sa 08:30-17:00", "image": "https://www.simplyss.com/files/img_location_images_4b36c8706b5e0fe842ac2dc307e95aa0.png", "brand": "Simply Self Storage"}, "geometry": {"type": "Point", "coordinates": [-97.422622, 35.215654]}},
{"type": "Feature", "id": "2cH7bYHwWhHIfy-BjBXfI2yRPsM=", "properties": {"ref": "23501", "@spider": "simply_self_storage", "addr:street_address": "2811 NW Market Street", "addr:city": "Seattle", "addr:state": "WA", "addr:postcode": "98107", "addr:country": "US", "name": "Simply Self Storage Ballard", "phone": "(206) 789-8977;(206) 789-8080", "website": "https://www.simplyss.com/washington/market-street-self-storage/", "opening_hours": "Mo-Fr 09:30-18:00; Sa 08:30-17:00", "image": "11049", "brand": "Simply Self Storage"}, "geometry": {"type": "Point", "coordinates": [-122.393486, 47.668337]}},
{"type": "Feature", "id": "nfUwRxEkdoCE4BtcW1W22aV63GE=", "properties": {"ref": "20908", "@spider": "simply_self_storage", "addr:street_address": "610 S. Yonge Street", "addr:city": "Ormond Beach", "addr:state": "FL", "addr:postcode": "32174", "addr:country": "US", "name": "Simply Self Storage Ormond Beach", "phone": "(386) 366-8503;(386) 615-1266", "website": "https://www.simplyss.com/florida/ormond-beach-self-storage/", "opening_hours": "Mo-Fr 09:30-18:00; Sa 08:30-17:00", "image": "https://www.simplyss.com/files/img_location_images_bbaa9a045b708a6401755b04b8e58d90.jpg", "brand": "Simply Self Storage"}, "geometry": {"type": "Point", "coordinates": [-81.055317, 29.267116]}},
{"type": "Feature", "id": "1yA0z98K92kid8tR_WvP6a5CDKA=", "properties": {"ref": "20810", "@spider": "simply_self_storage", "addr:street_address": "3801 Hardin Boulevard", "addr:city": "McKinney", "addr:state": "TX", "addr:postcode": "75070", "addr:country": "US", "name": "Simply Self Storage McKinney / Stonebridge Ranch", "phone": "(214) 491-4930;(972) 886-8003", "website": "https://www.simplyss.com/texas/mckinney-self-storage/", "opening_hours": "Mo-Fr 09:30-18:00; Sa 08:30-17:00", "image": "https://www.simplyss.com/files/img_location_images_a6c977cd68876b58f96c5d8afaae2f7c.jpg", "brand": "Simply Self Storage"}, "geometry": {"type": "Point", "coordinates": [-96.662648, 33.16042]}},
{"type": "Feature", "id": "Vaa2BjJtzZvVsCFRqtIpeyfYVN8=", "properties": {"ref": "23316", "@spider": "simply_self_storage", "addr:street_address": "3015 North Service Road", "addr:city": "Moore", "addr:state": "OK", "addr:postcode": "73160", "addr:country": "US", "name": "Simply Self Storage Moore", "phone": "(405) 799-1718;(405) 799-1717", "website": "https://www.simplyss.com/oklahoma/moore-self-storage/", "opening_hours": "Mo-Tu 09:30-18:00; Th-Fr 09:30-18:00; Sa 08:30-17:00", "image": "https://www.simplyss.com/files/img_location_images_5c065b84f6854c0343d99160f827efb5.jpg", "brand": "Simply Self Storage"}, "geometry": {"type": "Point", "coordinates": [-97.49584, 35.365811]}},
{"type": "Feature", "id": "8pIbuV_WjBAoHq2lfgRj_PaCQeM=", "properties": {"ref": "20153", "@spider": "simply_self_storage", "addr:street_address": "2325 S Dort Highway", "addr:city": "Flint", "addr:state": "MI", "addr:postcode": "48507", "addr:country": "US", "name": "Simply Self Storage Flint", "phone": "(810) 471-9072;(810) 235-4131", "website": "https://www.simplyss.com/michigan/flint-self-storage/", "opening_hours": "Mo-Fr 09:30-18:00; Sa 08:30-17:00", "image": "https://www.simplyss.com/files/img_location_images_9218093112286484189cba2d03a0fd4b.jpg", "brand": "Simply Self Storage"}, "geometry": {"type": "Point", "coordinates": [-83.653512, 43.001165]}},
{"type": "Feature", "id": "5WBTd7z2CLIk5dfxX3bW-TIPJsY=", "properties": {"ref": "20807", "@spider": "simply_self_storage", "addr:street_address": "950 South Kimball Avenue", "addr:city": "Southlake", "addr:state": "TX", "addr:postcode": "76092", "addr:country": "US", "name": "Simply Self Storage Southlake / Grapevine", "phone": "(817) 329-1899;(817) 488-8810", "website": "https://www.simplyss.com/texas/dragon-stadium-self-storage/", "opening_hours": "Mo-Fr 09:30-18:00; Sa 08:30-17:00", "image": "https://www.simplyss.com/files/img_location_images_957160161b83555e9811013eeb7b6f03.jpg", "brand": "Simply Self Storage"}, "geometry": {"type": "Point", "coordinates": [-97.11342, 32.926544]}},
{"type": "Feature", "id": "kPOCEUqwcVi0xApgehmEKR34Ty0=", "properties": {"ref": "10413", "@spider": "simply_self_storage", "addr:street_address": "9624 E 350 Hwy.", "addr:city": "Raytown", "addr:state": "MO", "addr:postcode": "64133", "addr:country": "US", "name": "Simply Self Storage Raytown", "phone": "(816) 491-2620;(816) 356-8321", "website": "https://www.simplyss.com/missouri/raytown-self-storage/", "opening_hours": "Mo-Fr 09:30-18:00; Sa 08:30-17:00", "image": "https://www.simplyss.com/files/img_location_images_a707b08ccff1e0757641316ebe115290.jpg", "brand": "Simply Self Storage"}, "geometry": {"type": "Point", "coordinates": [-94.469757, 38.992206]}},
{"type": "Feature", "id": "tXXSeoMn85unZ3_WzdeHExP57t8=", "properties": {"ref": "10618", "@spider": "simply_self_storage", "addr:street_address": "749 Beachway Drive", "addr:city": "Indianapolis", "addr:state": "IN", "addr:postcode": "46224", "addr:country": "US", "name": "Simply Self Storage Indianapolis Westlake", "phone": "(317) 390-4373;(317) 241-2642", "website": "https://www.simplyss.com/indiana/beachway-self-storage/", "opening_hours": "Mo-Fr 09:30-18:00; Sa 08:30-17:00", "image": "https://www.simplyss.com/files/img_location_images_4b0beaa662e2930c9606c8af24419506.jpg", "brand": "Simply Self Storage"}, "geometry": {"type": "Point", "coordinates": [-86.267286, 39.776034]}},
{"type": "Feature", "id": "d6Ftl5TJIygpsVY8U0gGXZiD-oE=", "properties": {"ref": "23107", "@spider": "simply_self_storage", "addr:street_address": "9141 Valley View St", "addr:city": "Cypress", "addr:state": "CA", "addr:postcode": "90630", "addr:country": "US", "name": "Simply Self Storage Cypress", "phone": "(714) 816-3567;(714) 729-4070", "website": "https://www.simplyss.com/california/cypress-self-storage/", "opening_hours": "Mo-Fr 09:30-18:00; Sa 08:30-17:00", "image": "https://www.simplyss.com/files/img_location_images_95247d90b6539d20903c9c5e393e5bda.jpg", "brand": "Simply Self Storage"}, "geometry": {"type": "Point", "coordinates": [-118.028741, 33.829637]}},
{"type": "Feature", "id": "S30Fb-Pd1pNHNP55dxoLI9SblVc=", "properties": {"ref": "20715", "@spider": "simply_self_storage", "addr:street_address": "2134 Gordon Hwy", "addr:city": "Augusta", "addr:state": "GA", "addr:postcode": "30909", "addr:country": "US", "name": "Simply Self Storage Augusta", "phone": "(706) 731-8727;(706) 738-7867", "website": "https://www.simplyss.com/georgia/augusta-self-storage/", "opening_hours": "Mo-Fr 09:30-18:00; Sa 08:30-17:00", "image": "https://www.simplyss.com/files/img_location_images_8b0cb0df279e38d856d4d4598671218d.jpg", "brand": "Simply Self Storage"}, "geometry": {"type": "Point", "coordinates": [-82.069773, 33.449354]}},
{"type": "Feature", "id": "j7iOozKwU89I5M9Mf1vOi5UVTTs=", "properties": {"ref": "10803", "@spider": "simply_self_storage", "addr:street_address": "1800 W Sublett Road", "addr:city": "Arlington", "addr:state": "TX", "addr:postcode": "76017", "addr:country": "US", "name": "Simply Self Storage Arlington - Sublett Rd", "phone": "(817) 962-0131;(817) 466-2700", "website": "https://www.simplyss.com/texas/arlington-self-storage/", "opening_hours": "Mo-Fr 09:30-18:00; Sa 08:30-17:00", "image": "https://www.simplyss.com/files/img_location_images_7a8c8456a5267c31682a3a84cc7afa7d.jpg", "brand": "Simply Self Storage"}, "geometry": {"type": "Point", "coordinates": [-97.13513, 32.648626]}},
{"type": "Feature", "id": "DDa_7H6VJ8Xgv3hZGpbNI3CBj6M=", "properties": {"ref": "10415", "@spider": "simply_self_storage", "addr:street_address": "1201 N. 130th Street", "addr:city": "Kansas City", "addr:state": "KS", "addr:postcode": "66109", "addr:country": "US", "name": "Simply Self Storage Kansas City N. 130th St.", "phone": "(913) 721-5546;(913) 721-5277", "website": "https://www.simplyss.com/kansas/delaware-self-storage/", "opening_hours": "Mo-Fr 09:30-18:00; Sa 08:30-17:00", "image": "https://www.simplyss.com/files/img_location_images_9abc8bf0df648e441dde5cde9bf3c09f.jpg", "brand": "Simply Self Storage"}, "geometry": {"type": "Point", "coordinates": [-94.881279, 39.117825]}},
{"type": "Feature", "id": "SUpE4n0pOAI4n7OEY1clM9R2iVo=", "properties": {"ref": "20503", "@spider": "simply_self_storage", "addr:street_address": "2025 North Hicks Rd", "addr:city": "Palatine", "addr:state": "IL", "addr:postcode": "60074", "addr:country": "US", "name": "Simply Self Storage Palatine", "phone": "(847) 934-8770;(847) 934-0470", "website": "https://www.simplyss.com/illinois/palatine-self-storage/", "opening_hours": "Mo-Fr 09:30-18:00; Sa 08:30-17:00", "image": "https://www.simplyss.com/files/img_location_images_17f52c43fe29168735b7197dcda6d0a5.jpg", "brand": "Simply Self Storage"}, "geometry": {"type": "Point", "coordinates": [-88.03263, 42.146751]}},
{"type": "Feature", "id": "aBnOytGpL7mfzpUF0AWHaI5QXco=", "properties": {"ref": "22025", "@spider": "simply_self_storage", "addr:street_address": "7533 Woodcutter Drive", "addr:city": "Powell", "addr:state": "OH", "addr:postcode": "43065", "addr:country": "US", "name": "Simply Self Storage Powell", "phone": "(614) 987-8530;(614) 923-0388", "website": "https://www.simplyss.com/ohio/powell-self-storage/", "opening_hours": "Mo-Fr 09:30-18:00; Sa 08:30-17:00", "image": "https://www.simplyss.com/files/img_location_images_e629fbd4ba0ce03f2fba9d5930bf0b8e.jpg", "brand": "Simply Self Storage"}, "geometry": {"type": "Point", "coordinates": [-83.091455, 40.19337]}},
{"type": "Feature", "id": "H9Bzxn9ZNGLjIC-sqyeGSxkcyo8=", "properties": {"ref": "23302", "@spider": "simply_self_storage", "addr:street_address": "8200 N. Western Ave", "addr:city": "Oklahoma City", "addr:state": "OK", "addr:postcode": "73114", "addr:country": "US", "name": "Simply Self Storage Nichols Hills Western Ave.", "phone": "(405) 254-5557;(405) 848-7200", "website": "https://www.simplyss.com/oklahoma/oklahoma-city-western-self-storage/", "opening_hours": "Mo-Tu 09:30-18:00; Th-Fr 09:30-18:00; Sa 08:30-17:00", "image": "https://www.simplyss.com/files/img_location_images_0596457bde62aaf79cd05fbbe220c616.jpg", "brand": "Simply Self Storage"}, "geometry": {"type": "Point", "coordinates": [-97.53103, 35.553644]}},
{"type": "Feature", "id": "jxL-UpljlLnUgQ2hb50CHY1EeNQ=", "properties": {"ref": "23304", "@spider": "simply_self_storage", "addr:street_address": "3405 Bart Conner Drive", "addr:city": "Norman", "addr:state": "OK", "addr:postcode": "73072", "addr:country": "US", "name": "Simply Self Storage Norman Bart Conner Dr.", "phone": "(405) 360-8017;(405) 360-9186", "website": "https://www.simplyss.com/oklahoma/norman-ok-self-storage/", "opening_hours": "Mo-Fr 09:30-18:00; Sa 08:30-17:00", "image": "https://www.simplyss.com/files/img_location_images_082c7a6a50b25cf66888b66fcd5b1850.jpg", "brand": "Simply Self Storage"}, "geometry": {"type": "Point", "coordinates": [-97.492688, 35.250741]}},
{"type": "Feature", "id": "TdE6HFjYdOgsdV4NPBWrZbrQs14=", "properties": {"ref": "20309", "@spider": "simply_self_storage", "addr:street_address": "9913 214th Street W", "addr:city": "Lakeville", "addr:state": "MN", "addr:postcode": "55044", "addr:country": "US", "name": "Simply Self Storage Lakeville", "phone": "(952) 985-9658;(952) 985-1414", "website": "https://www.simplyss.com/minnesota/lakeville-self-storage/", "opening_hours": "Mo-Tu 09:30-18:00; Th-Fr 09:30-18:00; Sa 08:30-17:00", "image": "https://www.simplyss.com/files/img_location_images_d92b338567649f6284efe696e840a775.jpg", "brand": "Simply Self Storage"}, "geometry": {"type": "Point", "coordinates": [-93.264861, 44.638877]}},
{"type": "Feature", "id": "ztu_rKCHDIHVjmppHEgVfEfgFT0=", "properties": {"ref": "23108", "@spider": "simply_self_storage", "addr:street_address": "13461 Rosecrans Avenue", "addr:city": "Santa Fe Springs", "addr:state": "CA", "addr:postcode": "90670", "addr:country": "US", "name": "Simply Self Storage Santa Fe Springs", "phone": "(562) 404-0008;(562) 320-5045", "website": "https://www.simplyss.com/california/santa-fe-springs-self-storage/", "opening_hours": "Mo-Fr 09:30-18:00; Sa 08:30-17:00", "image": "https://www.simplyss.com/files/img_location_images_6d052355c309189838a1c40985b8a790.jpg", "brand": "Simply Self Storage"}, "geometry": {"type": "Point", "coordinates": [-118.044572, 33.902634]}},
{"type": "Feature", "id": "tFN7kYIRNS93fqeLoJdQuE-0CK8=", "properties": {"ref": "20716", "@spider": "simply_self_storage", "addr:street_address": "140 Emma Lane", "addr:city": "Woodstock", "addr:state": "GA", "addr:postcode": "30189", "addr:country": "US", "name": "Simply Self Storage Woodstock", "phone": "(678) 324-1097;(770) 672-0546", "website": "https://www.simplyss.com/georgia/woodstock-self-storage/", "opening_hours": "Mo-Fr 09:30-18:00; Sa 08:30-17:00", "image": "https://www.simplyss.com/files/img_location_images_3baeb9676e75603d29b756c0746a4844.jpg", "brand": "Simply Self Storage"}, "geometry": {"type": "Point", "coordinates": [-84.54871, 34.085899]}},
{"type": "Feature", "id": "2LpLXaewKSt8S90E34ONYmccp-E=", "properties": {"ref": "20714", "@spider": "simply_self_storage", "addr:street_address": "2804 H. F. Shepherd Drive", "addr:city": "Decatur", "addr:state": "GA", "addr:postcode": "30034", "addr:country": "US", "name": "Simply Self Storage Panthersville / Decatur", "phone": "(404) 241-3977;(470) 235-4720", "website": "https://www.simplyss.com/georgia/-decatur-self-storage/", "opening_hours": "Mo-Fr 09:30-18:00; Sa 08:30-17:00", "image": "https://www.simplyss.com/files/img_location_images_db5d7ec28a92e86ebcf4fab95a6f0f90.jpg", "brand": "Simply Self Storage"}, "geometry": {"type": "Point", "coordinates": [-84.275885, 33.712187]}},
{"type": "Feature", "id": "emg-DomtI5c5QBOoScHZZUmrnJ4=", "properties": {"ref": "23318", "@spider": "simply_self_storage", "addr:street_address": "3416 North Perkins Road", "addr:city": "Stillwater", "addr:state": "OK", "addr:postcode": "74075", "addr:country": "US", "name": "Simply Self Storage Stillwater", "phone": "(405) 377-5377;(405) 377-5372", "website": "https://www.simplyss.com/oklahoma/stillwater-self-storage/", "opening_hours": "Mo-Tu 09:30-18:00; Th-Fr 09:30-18:00; Sa 08:30-17:00", "image": "https://www.simplyss.com/files/img_location_images_28cdf72e03eedae23999b25ed3fbb243.jpg", "brand": "Simply Self Storage"}, "geometry": {"type": "Point", "coordinates": [-97.052101, 36.156721]}},
{"type": "Feature", "id": "ssHLOLprhuAhE4qIL2D7IDlp_O8=", "properties": {"ref": "23315", "@spider": "simply_self_storage", "addr:street_address": "13401 North Indiana Ave", "addr:city": "Oklahoma City", "addr:state": "OK", "addr:postcode": "73134", "addr:country": "US", "name": "Simply Self Storage Chisholm Creek", "phone": "(405) 749-6449;(405) 749-1991", "website": "https://www.simplyss.com/oklahoma/memorial-chisholm-creek-self-storage/", "opening_hours": "Mo-Tu 09:30-18:00; Th-Fr 09:30-18:00; Sa 08:30-17:00", "image": "https://www.simplyss.com/files/img_location_images_286c7d7dc2d1edebc276b2f35e7e0d49.jpg", "brand": "Simply Self Storage"}, "geometry": {"type": "Point", "coordinates": [-97.544675, 35.606943]}},
{"type": "Feature", "id": "-p2QDMyHK-9wha4e7PAeNeOAgpw=", "properties": {"ref": "20501", "@spider": "simply_self_storage", "addr:street_address": "211 North Elmhurst Rd", "addr:city": "Wheeling", "addr:state": "IL", "addr:postcode": "60090", "addr:country": "US", "name": "Simply Self Storage Wheeling", "phone": "(847) 459-4775;(847) 459-4827", "website": "https://www.simplyss.com/illinois/wheeling-buffalo-grove-self-storage/", "opening_hours": "Mo-Fr 09:30-18:00; Sa 08:30-17:00", "image": "https://www.simplyss.com/files/img_location_images_f8ab7ddcf33eb38bc2a9e94b1ab67bcd.jpg", "brand": "Simply Self Storage"}, "geometry": {"type": "Point", "coordinates": [-87.935965, 42.141583]}},
{"type": "Feature", "id": "BQnoYE56lgwSlaMWzg2YRZMSzzU=", "properties": {"ref": "20616", "@spider": "simply_self_storage", "addr:street_address": "3607 South 18th Street", "addr:city": "Lafayette", "addr:state": "IN", "addr:postcode": "47909", "addr:country": "US", "name": "Simply Self Storage Lafayette S. 18th St.", "phone": "(765) 607-1714;(765) 477-7867", "website": "https://www.simplyss.com/indiana/south-18th-street-self-storage/", "opening_hours": "Mo-Fr 09:30-18:00; Sa 08:30-17:00", "image": "https://www.simplyss.com/files/img_location_images_dd527ed6913b1a3e156a3d3ec28d80a7.jpg", "brand": "Simply Self Storage"}, "geometry": {"type": "Point", "coordinates": [-86.873722, 40.369444]}},
{"type": "Feature", "id": "bdxbl6Aw0xYmVpRmEoEC5msqJMc=", "properties": {"ref": "23319", "@spider": "simply_self_storage", "addr:street_address": "8040 Northwest 122nd Street", "addr:city": "Oklahoma City", "addr:state": "OK", "addr:postcode": "73142", "addr:country": "US", "name": "Simply Self Storage Northwest Oklahoma City", "phone": "(405) 721-1000;(405) 773-9876", "website": "https://www.simplyss.com/oklahoma/northwest-willow-creek-self-storage/", "opening_hours": "Mo-Tu 09:30-18:00; Th-Fr 09:30-18:00; Sa 08:30-17:00", "image": "https://www.simplyss.com/files/img_location_images_1aab9432c85191d44c6137cff06b9cf8.jpg", "brand": "Simply Self Storage"}, "geometry": {"type": "Point", "coordinates": [-97.657839, 35.593982]}},
{"type": "Feature", "id": "2cLy34WnXZlPDRRP5t1yjXaBzA4=", "properties": {"ref": "20907", "@spider": "simply_self_storage", "addr:street_address": "1361 Airport Road South", "addr:city": "Naples", "addr:state": "FL", "addr:postcode": "34104", "addr:country": "US", "name": "Simply Self Storage Naples", "phone": "(239) 430-0200;(239) 530-7870", "website": "https://www.simplyss.com/florida/naples-self-storage/", "opening_hours": "Mo-Tu 09:30-18:00; Th-Fr 09:30-18:00; Sa 08:30-17:00", "image": "https://www.simplyss.com/files/img_location_images_bc053e9d6814e99a7583666b919b740c.jpg", "brand": "Simply Self Storage"}, "geometry": {"type": "Point", "coordinates": [-81.766052, 26.139534]}},
{"type": "Feature", "id": "bVONQwORE-iyvx7U9pQmHP_aS-A=", "properties": {"ref": "10529", "@spider": "simply_self_storage", "addr:street_address": "3980 Turner Avenue", "addr:city": "Plano", "addr:state": "IL", "addr:postcode": "60545", "addr:country": "US", "name": "Simply Self Storage Plano", "phone": "(630) 552-7191;(331) 808-0314", "website": "https://www.simplyss.com/illinois/plano-turner-ave-self-storage/", "opening_hours": "Mo-Fr 09:30-18:00; Sa 08:30-17:00", "image": "https://www.simplyss.com/files/img_location_images_16ec56080e339ab00f62c86d91ecbfb9.jpg", "brand": "Simply Self Storage"}, "geometry": {"type": "Point", "coordinates": [-88.495941, 41.660313]}},
{"type": "Feature", "id": "s-Izr2rMSKXx3I_yG60kK58G3MY=", "properties": {"ref": "22521", "@spider": "simply_self_storage", "addr:street_address": "1070 Route 109", "addr:city": "Lindenhurst", "addr:state": "NY", "addr:postcode": "11757", "addr:country": "US", "name": "Simply Self Storage Lindenhurst", "phone": "(631) 675-9351;(631) 412-7014", "website": "https://www.simplyss.com/new-york/lindenhurst-self-storage/", "opening_hours": "Mo-Fr 09:30-18:00; Sa 08:30-17:00", "image": "https://www.simplyss.com/files/img_location_images_18eb882b7736305305cf6bf9ad51011b.jpg", "brand": "Simply Self Storage"}, "geometry": {"type": "Point", "coordinates": [-73.39594, 40.716129]}},
{"type": "Feature", "id": "M8sl1zvY3yQ9uEp-Ul1Odw2fwWM=", "properties": {"ref": "20936", "@spider": "simply_self_storage", "addr:street_address": "12704 S U.S. Highway 41", "addr:city": "Gibsonton", "addr:state": "FL", "addr:postcode": "33534", "addr:country": "US", "name": "Simply Self Storage Gibsonton", "phone": "(813) 341-7867;(813) 667-6002", "website": "https://www.simplyss.com/florida/gibsonton-self-storage/", "opening_hours": "Mo-Fr 09:30-18:00; Sa 08:30-17:00", "image": "https://www.simplyss.com/files/img_location_images_55f754f750bb7848271763fd59f68fe9.jpg", "brand": "Simply Self Storage"}, "geometry": {"type": "Point", "coordinates": [-82.383854, 27.810983]}},
{"type": "Feature", "id": "9oF6pfWlet37_ZK23tmef4wENkU=", "properties": {"ref": "20305", "@spider": "simply_self_storage", "addr:street_address": "251 5th St NW", "addr:city": "New Brighton", "addr:state": "MN", "addr:postcode": "55112", "addr:country": "US", "name": "Simply Self Storage New Brighton", "phone": "(651) 628-4007;(651) 628-9217", "website": "https://www.simplyss.com/minnesota/new-brighton-self-storage/", "opening_hours": "Mo-Fr 09:30-18:00; Sa 08:30-17:00", "image": "https://www.simplyss.com/files/img_location_images_fcd48d0faf0d0e91afd53d4488b9ad3f.jpg", "brand": "Simply Self Storage"}, "geometry": {"type": "Point", "coordinates": [-93.189613, 45.055244]}},
{"type": "Feature", "id": "p0CNHif3Ioh_ld9YI1spCkhzXYs=", "properties": {"ref": "20310", "@spider": "simply_self_storage", "addr:street_address": "593 Commerce Drive", "addr:city": "Woodbury", "addr:state": "MN", "addr:postcode": "55125", "addr:country": "US", "name": "Simply Self Storage Woodbury", "phone": "(651) 578-1385;(651) 621-3007", "website": "https://www.simplyss.com/minnesota/woodbury-self-storage/", "opening_hours": "Mo-Tu 09:30-18:00; Th-Fr 09:30-18:00; Sa 08:30-17:00", "image": "https://www.simplyss.com/files/img_location_images_ab1350643435a24d4e4ae34fc164eb63.jpg", "brand": "Simply Self Storage"}, "geometry": {"type": "Point", "coordinates": [-92.912523, 44.941353]}},
{"type": "Feature", "id": "iIzUKOIruh-OLrzwyGxiMbtXUio=", "properties": {"ref": "20805", "@spider": "simply_self_storage", "addr:street_address": "650 Bay Area Blvd", "addr:city": "Houston", "addr:state": "TX", "addr:postcode": "77058", "addr:country": "US", "name": "Simply Self Storage Clear Lake / Bay Area", "phone": "(832) 224-9911;(281) 972-0000", "website": "https://www.simplyss.com/texas/houston-access-self-storage/", "opening_hours": "Mo-Fr 09:30-18:00; Sa 08:30-17:00", "image": "https://www.simplyss.com/files/img_location_images_c62888e277368618a4b05dc256f98bcb.jpg", "brand": "Simply Self Storage"}, "geometry": {"type": "Point", "coordinates": [-95.127917, 29.549246]}},
{"type": "Feature", "id": "gmr8_55R9ogPjZ3_zyPemTGGWHA=", "properties": {"ref": "20111", "@spider": "simply_self_storage", "addr:street_address": "20355 East 9 Mile Rd", "addr:city": "St. Clair Shores", "addr:state": "MI", "addr:postcode": "48080", "addr:country": "US", "name": "Simply Self Storage St. Clair Shores", "phone": "(586) 773-1999;(586) 778-5777", "website": "https://www.simplyss.com/michigan/st-clair-shores-self-storage/", "opening_hours": "Mo-Tu 09:30-18:00; Th-Fr 09:30-18:00; Sa 08:30-17:00", "image": "https://www.simplyss.com/files/img_location_images_e71c62ca579e972b4afcce6c6cd14353.jpg", "brand": "Simply Self Storage"}, "geometry": {"type": "Point", "coordinates": [-82.911828, 42.466153]}},
{"type": "Feature", "id": "Z8lRJBjsxoBww_0R5zTzmm6xnDk=", "properties": {"ref": "20905", "@spider": "simply_self_storage", "addr:street_address": "4051 W. State Road 46", "addr:city": "Sanford", "addr:state": "FL", "addr:postcode": "32771", "addr:country": "US", "name": "Simply Self Storage Sanford", "phone": "(407) 915-6887;(407) 936-2184", "website": "https://www.simplyss.com/florida/sanford-self-storage/", "opening_hours": "Mo-Fr 09:30-18:00; Sa 08:30-17:00", "image": "https://www.simplyss.com/files/img_location_images_deb81bbf054292e106a69dffc1d1922a.jpg", "brand": "Simply Self Storage"}, "geometry": {"type": "Point", "coordinates": [-81.319456, 28.811438]}},
{"type": "Feature", "id": "amX-lrpyfv76EqLSHxKNxPSUiKA=", "properties": {"ref": "22828", "@spider": "simply_self_storage", "addr:street_address": "300 Wolverine Trail", "addr:city": "Smyrna", "addr:state": "TN", "addr:postcode": "37167", "addr:country": "US", "name": "Simply Self Storage Smyrna / La Vergne", "phone": "(615) 625-3757;(615) 732-8028", "website": "https://www.simplyss.com/tennessee/smyrna-self-storage/", "opening_hours": "Mo-Fr 09:30-18:00; Sa 08:30-17:00", "image": "https://www.simplyss.com/files/img_location_images_b8c20c2f15adfa2d534238006bc4e37d.jpg", "brand": "Simply Self Storage"}, "geometry": {"type": "Point", "coordinates": [-86.556219, 35.986889]}},
{"type": "Feature", "id": "qnEWW15tQA1OiWQYyM3kjIxSzBE=", "properties": {"ref": "2001", "@spider": "simply_self_storage", "addr:street_address": "810 E Cooke Rd", "addr:city": "Columbus", "addr:state": "OH", "addr:postcode": "43214", "addr:country": "US", "name": "Simply Self Storage Clintonville", "phone": "(614) 268-8033;(614) 268-4254", "website": "https://www.simplyss.com/ohio/cooke-road-self-storage/", "opening_hours": "Mo-Fr 09:30-18:00; Sa 08:30-17:00", "image": "https://www.simplyss.com/files/img_location_images_7aecbf0dd5f667980bc37e940987cd23.jpg", "brand": "Simply Self Storage"}, "geometry": {"type": "Point", "coordinates": [-82.9985899, 40.052307]}},
{"type": "Feature", "id": "gFHd0j0nn5U6aX01SWjW3LZOd1Y=", "properties": {"ref": "20923", "@spider": "simply_self_storage", "addr:street_address": "6350 Babcock St SE", "addr:city": "Palm Bay", "addr:state": "FL", "addr:postcode": "32909", "addr:country": "US", "name": "Simply Self Storage Palm Bay Babcock St.", "phone": "(321) 345-4558;(321) 724-9425", "website": "https://www.simplyss.com/florida/palm-bay-babcock-street-self-storage/", "opening_hours": "Mo-Fr 09:30-18:00; Sa 08:30-17:00", "image": "https://www.simplyss.com/files/img_location_images_ff800c13a25f61ff2c5b38ae6be6a614.jpg", "brand": "Simply Self Storage"}, "geometry": {"type": "Point", "coordinates": [-80.623085, 27.990073]}},
{"type": "Feature", "id": "Je6F7gpYzHqFPFWDAn4crtPCIy4=", "properties": {"ref": "23300", "@spider": "simply_self_storage", "addr:street_address": "2900 NW Grand Blvd", "addr:city": "Oklahoma City", "addr:state": "OK", "addr:postcode": "73116", "addr:country": "US", "name": "Simply Self Storage Nichols Hills Grand Blvd.", "phone": "(405) 286-9483;(405) 848-7011", "website": "https://www.simplyss.com/oklahoma/oklahoma-city-self-storage/", "opening_hours": "Mo-Tu 09:30-18:00; Th-Fr 09:30-18:00; Sa 08:30-17:00", "image": "https://www.simplyss.com/files/img_location_images_b2a85231fc7f75a2862eff5aec432127.jpg", "brand": "Simply Self Storage"}, "geometry": {"type": "Point", "coordinates": [-97.567137, 35.546419]}},
{"type": "Feature", "id": "NSQrDz0aVuvqnOCdAh2ruyZ4Rfo=", "properties": {"ref": "20604", "@spider": "simply_self_storage", "addr:street_address": "4628 Northwestern Dr", "addr:city": "Zionsville", "addr:state": "IN", "addr:postcode": "46077", "addr:country": "US", "name": "Simply Self Storage Zionsville", "phone": "(317) 390-4373;(317) 849-1387", "website": "https://www.simplyss.com/indiana/zionsville-self-storage/", "opening_hours": "Mo-Fr 09:30-18:00; Sa 08:30-17:00", "image": "https://www.simplyss.com/files/img_location_images_43415d7ee595a66d48d7efede5ab365b.jpg", "brand": "Simply Self Storage"}, "geometry": {"type": "Point", "coordinates": [-86.238491, 39.938131]}},
{"type": "Feature", "id": "PxSn7lhWlNTURL-Y9S186seXWj4=", "properties": {"ref": "22520", "@spider": "simply_self_storage", "addr:street_address": "745 Old Willets Path", "addr:city": "Hauppauge", "addr:state": "NY", "addr:postcode": "11788", "addr:country": "US", "name": "Simply Self Storage Hauppauge", "phone": "(631) 778-6270;(631) 352-0671", "website": "https://www.simplyss.com/new-york/hauppauge-self-storage/", "opening_hours": "Mo-Fr 09:30-18:00; Sa 08:30-17:00", "image": "https://www.simplyss.com/files/img_location_images_f1af3366c5fd5de4494c6be519afbda1.jpg", "brand": "Simply Self Storage"}, "geometry": {"type": "Point", "coordinates": [-73.234672, 40.808552]}},
{"type": "Feature", "id": "z4S2v8jvyqGmEqC3Kw_sdb_bplA=", "properties": {"ref": "23106", "@spider": "simply_self_storage", "addr:street_address": "1600 North Glassell Street", "addr:city": "Orange", "addr:state": "CA", "addr:postcode": "92867", "addr:country": "US", "name": "Simply Self Storage Orange / Villa Park", "phone": "(714) 202-5560;(714) 729-4071", "website": "https://www.simplyss.com/california/orange-glassell-self-storage/", "opening_hours": "Mo-Fr 09:30-18:00; Sa 08:30-17:00", "image": "https://www.simplyss.com/files/img_location_images_a1e1e25307921bc781392ee9a179d658.jpg", "brand": "Simply Self Storage"}, "geometry": {"type": "Point", "coordinates": [-117.85346, 33.813732]}},
{"type": "Feature", "id": "e0GF0TIRIcH2AtWWDUFwTk6mWbQ=", "properties": {"ref": "20156", "@spider": "simply_self_storage", "addr:street_address": "1400 E Michigan Avenue", "addr:city": "Saline", "addr:state": "MI", "addr:postcode": "48176", "addr:country": "US", "name": "Simply Self Storage Saline", "phone": "(734) 429-4189;(734) 944-3601", "website": "https://www.simplyss.com/michigan/saline-self-storage/", "opening_hours": "Mo-Fr 09:30-18:00; Sa 08:30-17:00", "image": "https://www.simplyss.com/files/img_location_images_1d59bb3bc324da5d1563b45c9bc754fe.jpg", "brand": "Simply Self Storage"}, "geometry": {"type": "Point", "coordinates": [-83.755824, 42.176804]}},
{"type": "Feature", "id": "bS5FtFJ6R27y57pr43nmGxH0NUw=", "properties": {"ref": "10617", "@spider": "simply_self_storage", "addr:street_address": "8525 Castleton Square Dr.", "addr:city": "Indianapolis", "addr:state": "IN", "addr:postcode": "46250", "addr:country": "US", "name": "Simply Self Storage Indianapolis Castleton", "phone": "(317) 578-1265;(317) 436-8436", "website": "https://www.simplyss.com/indiana/castleton-self-storage/", "opening_hours": "Mo-Fr 09:30-18:00; Sa 08:30-17:00", "image": "https://www.simplyss.com/files/img_location_images_4b029809eb8eb7e7fd8f574fa21c536d.jpg", "brand": "Simply Self Storage"}, "geometry": {"type": "Point", "coordinates": [-86.060803, 39.911006]}},
{"type": "Feature", "id": "_Pbpp_55--hLd_ydxs2PSDwNbPM=", "properties": {"ref": "20927", "@spider": "simply_self_storage", "addr:street_address": "2100 U.S. 301 North", "addr:city": "Palmetto", "addr:state": "FL", "addr:postcode": "34221", "addr:country": "US", "name": "Simply Self Storage Palmetto", "phone": "(941) 212-4690;(941) 479-6400", "website": "https://www.simplyss.com/florida/palmetto-self-storage/", "opening_hours": "Mo-Fr 09:30-18:00; Sa 08:30-17:00", "image": "https://www.simplyss.com/files/img_location_images_d5e22d302f73401f4a4d908ce0e01010.jpg", "brand": "Simply Self Storage"}, "geometry": {"type": "Point", "coordinates": [-82.544101, 27.522952]}},
{"type": "Feature", "id": "Up96rbsw7mrReJi908UFKBYAoyI=", "properties": {"ref": "10526", "@spider": "simply_self_storage", "addr:street_address": "575 Larry Power Road", "addr:city": "Bourbonnais", "addr:state": "IL", "addr:postcode": "60914", "addr:country": "US", "name": "Simply Self Storage Bourbonnais Larry Power", "phone": "(779) 701-5935;(815) 933-6200", "website": "https://www.simplyss.com/illinois/bourbonnais-self-storage/", "opening_hours": "Mo-Tu 09:30-18:00; Th-Fr 09:30-18:00; Sa 08:30-17:00", "image": "https://www.simplyss.com/files/img_location_images_eb7ee22f0626d06d5787c70526a5dd8a.jpg", "brand": "Simply Self Storage"}, "geometry": {"type": "Point", "coordinates": [-87.86265, 41.17723]}},
{"type": "Feature", "id": "w_vK5fpUzJbaHA-kV2RDV36kfLM=", "properties": {"ref": "20925", "@spider": "simply_self_storage", "addr:street_address": "22831 Preakness Blvd", "addr:city": "Land O Lakes", "addr:state": "FL", "addr:postcode": "34639", "addr:country": "US", "name": "Simply Self Storage Land O Lakes", "phone": "(813) 388-9376;(813) 242-7867", "website": "https://www.simplyss.com/florida/land-o-lakes-self-storage/", "opening_hours": "Mo-We 09:30-18:00; Th 13:00-18:00; Fr 09:30-18:00; Sa 08:30-17:00", "image": "https://www.simplyss.com/files/img_location_images_6d28ea8a16a2581133bb4e8a685eb0a9.jpg", "brand": "Simply Self Storage"}, "geometry": {"type": "Point", "coordinates": [-82.438132, 28.19013]}},
{"type": "Feature", "id": "K6028bK69kJ54vmHNLaioSNjRXI=", "properties": {"ref": "22827", "@spider": "simply_self_storage", "addr:street_address": "1734 Carothers Pkwy", "addr:city": "Brentwood", "addr:state": "TN", "addr:postcode": "37027", "addr:country": "US", "name": "Simply Self Storage Brentwood / Cool Springs / Franklin", "phone": "(615) 370-8895;(615) 732-8027", "website": "https://www.simplyss.com/tennessee/brentwood-self-storage/", "opening_hours": "Mo-Fr 09:30-18:00; Sa 08:30-17:00", "image": "https://www.simplyss.com/files/img_location_images_6c0fc359ae9d856018813854e92481c9.jpg", "brand": "Simply Self Storage"}, "geometry": {"type": "Point", "coordinates": [-86.801644, 35.962289]}},
{"type": "Feature", "id": "qbRbVig4Qc1eAuercQgqV-zaSnM=", "properties": {"ref": "22216", "@spider": "simply_self_storage", "addr:street_address": "101 Route 9 South", "addr:city": "Marmora", "addr:state": "NJ", "addr:postcode": "08223", "addr:country": "US", "name": "Simply Self Storage Marmora", "phone": "(609) 840-6853;(609) 390-3333", "website": "https://www.simplyss.com/new-jersey/marmora-self-storage/", "opening_hours": "Mo-Tu 09:30-18:00; Th-Fr 09:30-18:00; Sa 08:30-17:00", "image": "https://www.simplyss.com/files/img_location_images_ee630291492373b0f7d703210d31240f.jpg", "brand": "Simply Self Storage"}, "geometry": {"type": "Point", "coordinates": [-74.649956, 39.262422]}},
{"type": "Feature", "id": "lyzMVKqgccc-lk2qMXXeopBT7dQ=", "properties": {"ref": "22028", "@spider": "simply_self_storage", "addr:street_address": "7304 Tussing Road", "addr:city": "Reynoldsburg", "addr:state": "OH", "addr:postcode": "43068", "addr:country": "US", "name": "Simply Self Storage Reynoldsburg", "phone": "(614) 866-8066;(614) 866-6661", "website": "https://www.simplyss.com/ohio/reynoldsburg-self-storage/", "opening_hours": "Mo-Fr 09:30-18:00; Sa 08:30-17:00", "image": "https://www.simplyss.com/files/img_location_images_d9eb37762954e1c45523f41b1a0234c5.jpg", "brand": "Simply Self Storage"}, "geometry": {"type": "Point", "coordinates": [-82.803997, 39.929767]}},
{"type": "Feature", "id": "Uk8Hp0vRxVJloOsGYNn7gMIc_Yc=", "properties": {"ref": "20157", "@spider": "simply_self_storage", "addr:street_address": "4975 Clyde Park Avenue Southwest", "addr:city": "Wyoming", "addr:state": "MI", "addr:postcode": "49509", "addr:country": "US", "name": "Simply Self Storage Wyoming", "phone": "(616) 805-3433;(616) 532-3007", "website": "https://www.simplyss.com/michigan/wyoming-clyde-park-ave-michigan-self-storage/", "opening_hours": "Mo-Fr 09:30-18:00; Sa 08:30-17:00", "image": "https://www.simplyss.com/files/img_location_images_e8a4db4d37f718689f6e901eb840b751.jpg", "brand": "Simply Self Storage"}, "geometry": {"type": "Point", "coordinates": [-85.684536, 42.873576]}},
{"type": "Feature", "id": "EVgLzEvXkWpqW4PSRu-ICfPFck8=", "properties": {"ref": "20612", "@spider": "simply_self_storage", "addr:street_address": "4900 Tazer Drive", "addr:city": "Lafayette", "addr:state": "IN", "addr:postcode": "47905", "addr:country": "US", "name": "Simply Self Storage Lafayette Tazer Drive", "phone": "(765) 607-1959;(765) 449-7909", "website": "https://www.simplyss.com/indiana/tazer-drive-self-storage/", "opening_hours": "Mo-Fr 09:30-18:00; Sa 08:30-17:00", "image": "https://www.simplyss.com/files/img_location_images_a52ce875845c60d76269489b186a89b1.jpg", "brand": "Simply Self Storage"}, "geometry": {"type": "Point", "coordinates": [-86.812084, 40.413843]}},
{"type": "Feature", "id": "QxTPlOBmAimI0fwimXiJ63-Nrow=", "properties": {"ref": "20712", "@spider": "simply_self_storage", "addr:street_address": "6121 Spout Springs Road", "addr:city": "Flowery Branch", "addr:state": "GA", "addr:postcode": "30542", "addr:country": "US", "name": "Simply Self Storage Flowery Branch", "phone": "(770) 967-1240;(770) 967-1235", "website": "https://www.simplyss.com/georgia/flowery-branch-self-storage/", "opening_hours": "Mo-Fr 09:30-18:00; Sa 08:30-17:00", "image": "https://www.simplyss.com/files/img_location_images_6199e027fe0f400f167ca71418ef945d.jpg", "brand": "Simply Self Storage"}, "geometry": {"type": "Point", "coordinates": [-83.901389, 34.170988]}},
{"type": "Feature", "id": "fn3BDPe-lDaPDFnO4BlP637N8Zw=", "properties": {"ref": "20713", "@spider": "simply_self_storage", "addr:street_address": "732 Chance Road", "addr:city": "Marietta", "addr:state": "GA", "addr:postcode": "30066", "addr:country": "US", "name": "Simply Self Storage Noonday / Marietta", "phone": "(770) 426-4544;(770) 450-6769", "website": "https://www.simplyss.com/georgia/marietta-self-storage/", "opening_hours": "Mo-Tu 09:30-18:00; Th-Fr 09:30-18:00; Sa 08:30-17:00", "image": "https://www.simplyss.com/files/img_location_images_a6c283fb55483992b8198f49b3238ce8.jpg", "brand": "Simply Self Storage"}, "geometry": {"type": "Point", "coordinates": [-84.529823, 34.026113]}},
{"type": "Feature", "id": "ku0PnZV3VP7x0SsD7oLEb3dBE8Y=", "properties": {"ref": "20804", "@spider": "simply_self_storage", "addr:street_address": "15814 Mueschke Road", "addr:city": "Cypress", "addr:state": "TX", "addr:postcode": "77433", "addr:country": "US", "name": "Simply Self Storage Cypress", "phone": "(281) 373-4707;(281) 256-8864", "website": "https://www.simplyss.com/texas/cypress-self-storage/", "opening_hours": "Mo-Tu 09:30-18:00; Th-Fr 09:30-18:00; Sa 08:30-17:00", "image": "https://www.simplyss.com/files/img_location_images_5b2f52c7f57ca1dd2103161c6f498361.jpg", "brand": "Simply Self Storage"}, "geometry": {"type": "Point", "coordinates": [-95.724864, 30.003876]}},
{"type": "Feature", "id": "F2hWAn5f1m2VwrXDBHMLD_aJ-S0=", "properties": {"ref": "10414", "@spider": "simply_self_storage", "addr:street_address": "5500 State Avenue", "addr:city": "Kansas City", "addr:state": "KS", "addr:postcode": "66102", "addr:country": "US", "name": "Simply Self Storage Kansas City State Ave.", "phone": "(913) 596-7329;(913) 596-1424", "website": "https://www.simplyss.com/kansas/state-avenue-self-storage/", "opening_hours": "Mo-Fr 09:30-18:00; Sa 08:30-17:00", "image": "https://www.simplyss.com/files/img_location_images_41e628d13546ae421eca0270b3931516.jpg", "brand": "Simply Self Storage"}, "geometry": {"type": "Point", "coordinates": [-94.706214, 39.117668]}},
{"type": "Feature", "id": "BQG7u0qxi9OyR8Q953HH5fRGtxk=", "properties": {"ref": "23500", "@spider": "simply_self_storage", "addr:street_address": "1602 15th Avenue West", "addr:city": "Seattle", "addr:state": "WA", "addr:postcode": "98119", "addr:country": "US", "name": "Simply Self Storage Interbay / Queen Anne", "phone": "(206) 285-0077;(206) 497-6009", "website": "https://www.simplyss.com/washington/interbay-self-storage/", "opening_hours": "Mo-Fr 09:30-18:00; Sa-Su 08:30-17:00", "image": "https://www.simplyss.com/files/img_location_images_23259fc97686ac92b8b4e7b29ae811f8.jpg", "brand": "Simply Self Storage"}, "geometry": {"type": "Point", "coordinates": [-122.375862, 47.634513]}},
{"type": "Feature", "id": "9SSCwVXcMNC1FB7M-A8DfGNoPRo=", "properties": {"ref": "22026", "@spider": "simply_self_storage", "addr:street_address": "4600 Fisher Road", "addr:city": "Columbus", "addr:state": "OH", "addr:postcode": "43228", "addr:country": "US", "name": "Simply Self Storage West Columbus / Hilliard", "phone": "(614) 334-0190;(614) 851-1000", "website": "https://www.simplyss.com/ohio/fisher-self-storage/", "opening_hours": "Mo-Fr 09:30-18:00; Sa 08:30-17:00", "image": "https://www.simplyss.com/files/img_location_images_08a7fa0f4081882886cb767595018d36.jpg", "brand": "Simply Self Storage"}, "geometry": {"type": "Point", "coordinates": [-83.126874, 39.973238]}},
{"type": "Feature", "id": "nGux8CgLsvK8GxfIkpsEEkxrDFk=", "properties": {"ref": "20922", "@spider": "simply_self_storage", "addr:street_address": "2845 W. King Street", "addr:city": "Cocoa", "addr:state": "FL", "addr:postcode": "32926", "addr:country": "US", "name": "Simply Self Storage Cocoa", "phone": "(321) 735-4734;(321) 639-3450", "website": "https://www.simplyss.com/florida/cocoa-self-storage/", "opening_hours": "Mo-Fr 09:30-18:00; Sa 08:30-17:00", "image": "https://www.simplyss.com/files/img_location_images_4518e7547cb69234645c72886eac5c00.jpg", "brand": "Simply Self Storage"}, "geometry": {"type": "Point", "coordinates": [-80.77628, 28.354975]}},
{"type": "Feature", "id": "_e7Qf-IR_uHDIlDvq_TKYO1pgxo=", "properties": {"ref": "22522", "@spider": "simply_self_storage", "addr:street_address": "670 E Jericho Turnpike", "addr:city": "Huntington Station", "addr:state": "NY", "addr:postcode": "11746", "addr:country": "US", "name": "Simply Self Storage Huntington Station", "phone": "(631) 824-6527;(631) 629-1199", "website": "https://www.simplyss.com/new-york/huntington-station-self-storage/", "opening_hours": "Mo-Fr 09:30-18:00; Sa 08:30-17:00", "image": "https://www.simplyss.com/files/img_location_images_e64c13e34849d2569a68780bd5e1e598.png", "brand": "Simply Self Storage"}, "geometry": {"type": "Point", "coordinates": [-73.384881, 40.83407]}},
{"type": "Feature", "id": "QPWgh9FNmzqFcCx28glY2bjF1tw=", "properties": {"ref": "10527", "@spider": "simply_self_storage", "addr:street_address": "1847 Armour Road", "addr:city": "Bourbonnais", "addr:state": "IL", "addr:postcode": "60914", "addr:country": "US", "name": "Simply Self Storage Bourbonnais Armour Rd.", "phone": "(815) 401-7287;(815) 928-5000", "website": "https://www.simplyss.com/illinois/armour-road-self-storage/", "opening_hours": "Mo-Tu 09:30-18:00; Th-Fr 09:30-18:00; Sa 08:30-17:00", "image": "https://www.simplyss.com/files/img_location_images_9daa3972eaef011bb96342a7ac07d93c.jpg", "brand": "Simply Self Storage"}, "geometry": {"type": "Point", "coordinates": [-87.85479, 41.16344]}},
{"type": "Feature", "id": "I_xoD56nJDVlKdL0BDTDkqwAPhs=", "properties": {"ref": "22826", "@spider": "simply_self_storage", "addr:street_address": "3969 N. Watkins Street", "addr:city": "Memphis", "addr:state": "TN", "addr:postcode": "38127", "addr:country": "US", "name": "Simply Self Storage Frayser N. Watkins St.", "phone": "(901) 358-5798;(901) 358-5793", "website": "https://www.simplyss.com/tennessee/frayser-north-watkins-self-storage/", "opening_hours": "Mo-Fr 09:30-18:00; Sa 08:30-17:00", "image": "https://www.simplyss.com/files/img_location_images_0ff539fc1f35cfbc0fb27e6840bc2423.png", "brand": "Simply Self Storage"}, "geometry": {"type": "Point", "coordinates": [-90.010883, 35.233681]}},
{"type": "Feature", "id": "DVNAmCn6Wjj22G7EBCitVHcqPjg=", "properties": {"ref": "20516", "@spider": "simply_self_storage", "addr:street_address": "248 N. Randall Rd.", "addr:city": "St. Charles", "addr:state": "IL", "addr:postcode": "60174", "addr:country": "US", "name": "Simply Self Storage St. Charles", "phone": "(630) 940-2713;(630) 587-8608", "website": "https://www.simplyss.com/illinois/randall-road-self-storage/", "opening_hours": "Mo-Fr 09:30-18:00; Sa 08:30-17:00", "image": "https://www.simplyss.com/files/img_location_images_1c9b396e9ee9135c3826379e520cd264.jpg", "brand": "Simply Self Storage"}, "geometry": {"type": "Point", "coordinates": [-88.338567, 41.915756]}},
{"type": "Feature", "id": "6VK-5kzBty4Hc9sNcidA9y06zwA=", "properties": {"ref": "20906", "@spider": "simply_self_storage", "addr:street_address": "660 S. Tamiami Trail", "addr:city": "Osprey", "addr:state": "FL", "addr:postcode": "34229", "addr:country": "US", "name": "Simply Self Storage Osprey", "phone": "(941) 918-0932;(941) 918-8003", "website": "https://www.simplyss.com/florida/osprey-self-storage/", "opening_hours": "Mo-Fr 09:30-18:00; Sa 08:30-17:00", "image": "https://www.simplyss.com/files/img_location_images_042af617399c2234fb0176007dd4f893.jpg", "brand": "Simply Self Storage"}, "geometry": {"type": "Point", "coordinates": [-82.486584, 27.186514]}},
{"type": "Feature", "id": "SvqgvNSjkzHJi4oS1VmQzUI444I=", "properties": {"ref": "20926", "@spider": "simply_self_storage", "addr:street_address": "510 Douglas Avenue", "addr:city": "Altamonte Springs", "addr:state": "FL", "addr:postcode": "32714", "addr:country": "US", "name": "Simply Self Storage Altamonte Springs", "phone": "(407) 865-7560;(407) 865-7011", "website": "https://www.simplyss.com/florida/altamonte-springs-self-storage/", "opening_hours": "Mo-Fr 09:30-18:00; Sa 08:30-17:00", "image": "https://www.simplyss.com/files/img_location_images_187292c56e3a61eefee50dfb94fffcc3.jpg", "brand": "Simply Self Storage"}, "geometry": {"type": "Point", "coordinates": [-81.391428, 28.669475]}},
{"type": "Feature", "id": "XzCAPxzE_9woN0jFz2jjbWZhUI4=", "properties": {"ref": "20128", "@spider": "simply_self_storage", "addr:street_address": "15124 Linden Rd", "addr:city": "Linden", "addr:state": "MI", "addr:postcode": "48451", "addr:country": "US", "name": "Simply Self Storage Linden", "phone": "(810) 458-6325;(810) 735-4347", "website": "https://www.simplyss.com/michigan/linden-fenton-self-storage/", "opening_hours": "Mo-Fr 09:30-18:00; Sa 08:30-17:00", "image": "https://www.simplyss.com/files/img_location_images_c471776c32c0377783666b9511eb9bb6.jpg", "brand": "Simply Self Storage"}, "geometry": {"type": "Point", "coordinates": [-83.781049, 42.805009]}},
{"type": "Feature", "id": "dhOF_NzrFQ5KkMutCjQtYhx5Wi0=", "properties": {"ref": "20613", "@spider": "simply_self_storage", "addr:street_address": "1900 Sagamore Parkway West", "addr:city": "West Lafayette", "addr:state": "IN", "addr:postcode": "47906", "addr:country": "US", "name": "Simply Self Storage West Lafayette", "phone": "(765) 607-4353;(765) 463-7867", "website": "https://www.simplyss.com/indiana/west-lafayette-self-storage/", "opening_hours": "Mo-Fr 09:30-18:00; Sa 08:30-17:00", "image": "https://www.simplyss.com/files/img_location_images_b34f4518c9af6e2920311be3ec5ecb25.jpg", "brand": "Simply Self Storage"}, "geometry": {"type": "Point", "coordinates": [-86.949818, 40.467818]}},
{"type": "Feature", "id": "I2dhKyO7FetEww5Zs5qYVcVIhTQ=", "properties": {"ref": "10528", "@spider": "simply_self_storage", "addr:street_address": "30 Kettle River Drive", "addr:city": "Edwardsville", "addr:state": "IL", "addr:postcode": "62034", "addr:country": "US", "name": "Simply Self Storage Edwardsville / Glen Carbon", "phone": "(618) 650-9188;(618) 515-4790", "website": "https://www.simplyss.com/illinois/edwardsville-self-storage/", "opening_hours": "Mo-Fr 09:30-18:00; Sa 08:30-17:00", "image": "https://www.simplyss.com/files/img_location_images_0ae0c62709f8c522056019f06c77476b.jpg", "brand": "Simply Self Storage"}, "geometry": {"type": "Point", "coordinates": [-89.962647, 38.780171]}},
{"type": "Feature", "id": "7KDeTKpL_k8wM1RzubvfUnMEdrs=", "properties": {"ref": "601", "@spider": "simply_self_storage", "addr:street_address": "7937 W 10th St", "addr:city": "Indianapolis", "addr:state": "IN", "addr:postcode": "46214", "addr:country": "US", "name": "Simply Self Storage Indianapolis  W. 10th St.", "phone": "(317) 271-1425;(317) 271-1840", "website": "https://www.simplyss.com/indiana/west-10th-street-ben-davis-self-storage/", "opening_hours": "Mo-Fr 09:30-18:00; Sa 08:30-17:00", "image": "https://www.simplyss.com/files/img_location_images_c5eeffe87ac4fa4df6c08e86fc419b1c.jpg", "brand": "Simply Self Storage"}, "geometry": {"type": "Point", "coordinates": [-86.300841, 39.777504]}},
{"type": "Feature", "id": "ZSiitz0dXfxWsRc-1TUDwMcoZGA=", "properties": {"ref": "11001", "@spider": "simply_self_storage", "addr:street_address": "3913 Accomack Drive", "addr:city": "Louisville", "addr:state": "KY", "addr:postcode": "40241", "addr:country": "US", "name": "Simply Self Storage Louisville Fincastle", "phone": "(502) 290-6661;(502) 422-3007", "website": "https://www.simplyss.com/kentucky/accomack-self-storage/", "opening_hours": "Mo-Fr 09:30-18:00; Sa 08:30-17:00", "image": "https://www.simplyss.com/files/img_location_images_d66ed62272c71ee0905d54b61fcb0b0a.jpg", "brand": "Simply Self Storage"}, "geometry": {"type": "Point", "coordinates": [-85.539346, 38.301843]}},
{"type": "Feature", "id": "vd0bAITTCoFhofnDVsXZvbzy8sQ=", "properties": {"ref": "20155", "@spider": "simply_self_storage", "addr:street_address": "50586 Pontiac Trail", "addr:city": "Wixom", "addr:state": "MI", "addr:postcode": "48393", "addr:country": "US", "name": "Simply Self Storage Wixom", "phone": "(248) 438-6144;(248) 960-5286", "website": "https://www.simplyss.com/michigan/wixom-self-storage/", "opening_hours": "Mo-Fr 09:30-18:00; Sa 08:30-17:00", "image": "https://www.simplyss.com/files/img_location_images_736a0a57a9a6c34e5ea5ef1184b5fffa.jpg", "brand": "Simply Self Storage"}, "geometry": {"type": "Point", "coordinates": [-83.550265, 42.524735]}},
{"type": "Feature", "id": "6DYAuXfRTHd7CUA-pTQZ4GtdLJQ=", "properties": {"ref": "22109", "@spider": "simply_self_storage", "addr:street_address": "1925 PA-309", "addr:city": "Allentown", "addr:state": "PA", "addr:postcode": "18104", "addr:country": "US", "name": "Simply Self Storage Orefield / Allentown", "phone": "(610) 391-1094;(610) 398-3663", "website": "https://www.simplyss.com/pennsylvania/allentown-self-storage/", "opening_hours": "Mo-Tu 09:30-18:00; Th-Fr 09:30-18:00; Sa 08:30-17:00", "image": "https://www.simplyss.com/files/img_location_images_e64f80b569e3ac11d162eb72e50dbcc3.jpg", "brand": "Simply Self Storage"}, "geometry": {"type": "Point", "coordinates": [-75.573106, 40.614269]}},
{"type": "Feature", "id": "t-elc395UEii9E-K2f1aBJuqQ0A=", "properties": {"ref": "20811", "@spider": "simply_self_storage", "addr:street_address": "8388 FM 423", "addr:city": "Frisco", "addr:state": "TX", "addr:postcode": "75034", "addr:country": "US", "name": "Simply Self Storage Frisco FM423", "phone": "(972) 668-0196;(972) 668-0116", "website": "https://www.simplyss.com/texas/stonebridge-self-storage/", "opening_hours": "Mo-Fr 09:30-18:00; Sa 08:30-17:00", "image": "https://www.simplyss.com/files/img_location_images_bf182e67265c0dfe23e82fe895af1d5b.jpg", "brand": "Simply Self Storage"}, "geometry": {"type": "Point", "coordinates": [-96.890345, 33.148567]}},
{"type": "Feature", "id": "E9nnMI42bgIB-cCbUi0eL2Ek7XI=", "properties": {"ref": "22207", "@spider": "simply_self_storage", "addr:street_address": "220 South Main Street", "addr:city": "Barnegat", "addr:state": "NJ", "addr:postcode": "08005", "addr:country": "US", "name": "Simply Self Storage Barnegat Lighthouse", "phone": "(609) 488-2555;(609) 660-7608", "website": "https://www.simplyss.com/new-jersey/barnegat-lighthouse-self-storage/", "opening_hours": "Mo-Tu 09:30-18:00; Th-Fr 09:30-18:00; Sa 08:30-17:00", "image": "https://www.simplyss.com/files/img_location_images_0d9d613afe825d75b100b55e2eba91e2.jpg", "brand": "Simply Self Storage"}, "geometry": {"type": "Point", "coordinates": [-74.229921, 39.744926]}},
{"type": "Feature", "id": "bm1T0cErQU4CcW832_jIMVUtIa0=", "properties": {"ref": "22002", "@spider": "simply_self_storage", "addr:street_address": "3171 S. High St.", "addr:city": "Columbus", "addr:state": "OH", "addr:postcode": "43207", "addr:country": "US", "name": "Simply Self Storage South Columbus", "phone": "(614) 654-2494;(614) 491-5090", "website": "https://www.simplyss.com/ohio/south-high-self-storage/", "opening_hours": "Mo-Fr 09:30-18:00; Sa 08:30-17:00", "image": "https://www.simplyss.com/files/img_location_images_742bf967b5dd851562f94efb66b5c4c5.jpg", "brand": "Simply Self Storage"}, "geometry": {"type": "Point", "coordinates": [-82.996896, 39.896843]}},
{"type": "Feature", "id": "JEnHact8rXioovitEVWZaQcfR1M=", "properties": {"ref": "20152", "@spider": "simply_self_storage", "addr:street_address": "2345 29th Street SE", "addr:city": "Grand Rapids", "addr:state": "MI", "addr:postcode": "49508", "addr:country": "US", "name": "Simply Self Storage Grand Rapids", "phone": "(616) 284-2199;(616) 248-4674", "website": "https://www.simplyss.com/michigan/grand-rapids-kentwood-self-storage/", "opening_hours": "Mo-Fr 09:30-18:00; Sa 08:30-17:00", "image": "https://www.simplyss.com/files/img_location_images_15a3df011255984d6396a13b4fea6353.jpg", "brand": "Simply Self Storage"}, "geometry": {"type": "Point", "coordinates": [-85.608663, 42.909899]}},
{"type": "Feature", "id": "qG1NpnBzIkof4DAbMzA878AlSwU=", "properties": {"ref": "23200", "@spider": "simply_self_storage", "addr:street_address": "34570 LA Highway 16", "addr:city": "Denham Springs", "addr:state": "LA", "addr:postcode": "70706", "addr:country": "US", "name": "Simply Self Storage Watson / Denham Springs", "phone": "(225) 665-5770;(225) 665-3040", "website": "https://www.simplyss.com/louisiana/denham-springs-self-storage/", "opening_hours": "Mo-Fr 09:30-18:00; Sa 08:30-17:00", "image": "https://www.simplyss.com/files/img_location_images_f46a853542bbeede6f78b097eaa55c72.jpg", "brand": "Simply Self Storage"}, "geometry": {"type": "Point", "coordinates": [-90.953392, 30.575825]}},
{"type": "Feature", "id": "G-_IOi8deisiQ8_aaNi8aza6BDM=", "properties": {"ref": "512", "@spider": "simply_self_storage", "addr:street_address": "1810 East Voorhees Street", "addr:city": "Danville", "addr:state": "IL", "addr:postcode": "61834", "addr:country": "US", "name": "Simply Self Storage Danville", "phone": "(217) 446-4833;(217) 446-6968", "website": "https://www.simplyss.com/illinois/danville-self-storage/", "opening_hours": "Mo-Tu 09:30-18:00; Th-Fr 09:30-18:00; Sa 08:30-17:00", "image": "https://www.simplyss.com/files/img_location_images_9a84358b6f2e2c6c1ee07392b24ffaae.jpg", "brand": "Simply Self Storage"}, "geometry": {"type": "Point", "coordinates": [-87.591541, 40.146725]}},
{"type": "Feature", "id": "3t3en0DzcjEzVPWwCHDkidHoGDw=", "properties": {"ref": "600", "@spider": "simply_self_storage", "addr:street_address": "6901 Hawthorn Park", "addr:city": "Indianapolis", "addr:state": "IN", "addr:postcode": "46220", "addr:country": "US", "name": "Simply Self Storage Indianapolis Hawthorn Park", "phone": "(317) 288-4277;(317) 849-1387", "website": "https://www.simplyss.com/indiana/hawthorn-self-storage/", "opening_hours": "Mo-Fr 09:30-18:00; Sa 08:30-17:00", "image": "https://www.simplyss.com/files/img_location_images_0971c74c2052cd117166b05ab92206e4.jpg", "brand": "Simply Self Storage"}, "geometry": {"type": "Point", "coordinates": [-86.07332, 39.881067]}},
{"type": "Feature", "id": "yA3dKefIvunAT9Qvmuoyab8hOaw=", "properties": {"ref": "22902", "@spider": "simply_self_storage", "addr:street_address": "8650 Mid South Drive", "addr:city": "Olive Branch", "addr:state": "MS", "addr:postcode": "38654", "addr:country": "US", "name": "Simply Self Storage Olive Branch Mid South", "phone": "(662) 874-5289;(662) 895-5555", "website": "https://www.simplyss.com/mississippi/olive-branch-self-storage/", "opening_hours": "Mo-Fr 09:30-18:00; Sa 08:30-17:00", "image": "https://www.simplyss.com/files/img_location_images_b08a195d6d467ebc7ab0573f0f23180d.jpg", "brand": "Simply Self Storage"}, "geometry": {"type": "Point", "coordinates": [-89.83692, 34.951073]}},
{"type": "Feature", "id": "B9yGUahNMuKzyukI6FZXpJPPfw4=", "properties": {"ref": "20615", "@spider": "simply_self_storage", "addr:street_address": "1025 Sagamore Parkway South", "addr:city": "Lafayette", "addr:state": "IN", "addr:postcode": "47905", "addr:country": "US", "name": "Simply Self Storage Lafayette Sagamore Pkwy", "phone": "(765) 607-4322;(765) 447-4919", "website": "https://www.simplyss.com/indiana/sagamore-south-self-storage/", "opening_hours": "Mo-Fr 09:30-18:00; Sa 08:30-17:00", "image": "https://www.simplyss.com/files/img_location_images_4eaab72e8eaa4ae33f59cc728eaf5e92.jpg", "brand": "Simply Self Storage"}, "geometry": {"type": "Point", "coordinates": [-86.856096, 40.405442]}},
{"type": "Feature", "id": "ALUYhSRnu1GDrbTll6zYVjesvSY=", "properties": {"ref": "22217", "@spider": "simply_self_storage", "addr:street_address": "1515 Washington Avenue", "addr:city": "Neptune City", "addr:state": "NJ", "addr:postcode": "07753", "addr:country": "US", "name": "Simply Self Storage Neptune City", "phone": "(732) 776-7890;(732) 775-4747", "website": "https://www.simplyss.com/new-jersey/neptune-self-storage/", "opening_hours": "Mo-Tu 09:30-18:00; Th-Fr 09:30-18:00; Sa 08:30-17:00", "image": "https://www.simplyss.com/files/img_location_images_cdfe0be1f5189a2687b0a0577455e0b8.jpg", "brand": "Simply Self Storage"}, "geometry": {"type": "Point", "coordinates": [-74.031188, 40.210456]}},
{"type": "Feature", "id": "HnZgnUVkjnrMvamKfP3ARUc6WJo=", "properties": {"ref": "20809", "@spider": "simply_self_storage", "addr:street_address": "1379 Andrews Pkwy", "addr:city": "Allen", "addr:state": "TX", "addr:postcode": "75002", "addr:country": "US", "name": "Simply Self Storage Allen / Wetsel", "phone": "(214) 383-9070;(214) 785-4002", "website": "https://www.simplyss.com/texas/allen-self-storage/", "opening_hours": "Mo-Fr 09:30-18:00; Sa 08:30-17:00", "image": "https://www.simplyss.com/files/img_location_images_efd910a870b947f704e3690746c0b20f.jpg", "brand": "Simply Self Storage"}, "geometry": {"type": "Point", "coordinates": [-96.6635, 33.1202]}},
{"type": "Feature", "id": "yi4i63ipSs59WOLnP99wfP70rk8=", "properties": {"ref": "22824", "@spider": "simply_self_storage", "addr:street_address": "6714 Winchester Pointe Cove", "addr:city": "Memphis", "addr:state": "TN", "addr:postcode": "38115", "addr:country": "US", "name": "Simply Self Storage Memphis Winchester", "phone": "(901) 565-0552;(901) 565-0454", "website": "https://www.simplyss.com/tennessee/winchester-self-storage/", "opening_hours": "Mo-Tu 09:30-18:00; Th-Fr 09:30-18:00; Sa 08:30-17:00", "image": "https://www.simplyss.com/files/img_location_images_635fb64c865d9be0049b3ae081117919.png", "brand": "Simply Self Storage"}, "geometry": {"type": "Point", "coordinates": [-89.840645, 35.052091]}},
{"type": "Feature", "id": "cmNJxgEKPBB-9-w6isf7lMg7Kas=", "properties": {"ref": "20502", "@spider": "simply_self_storage", "addr:street_address": "300 Historic U.S. 66 Frontage", "addr:city": "Bolingbrook", "addr:state": "IL", "addr:postcode": "60440", "addr:country": "US", "name": "Simply Self Storage Bolingbrook", "phone": "(630) 972-3099;(630) 972-0039", "website": "https://www.simplyss.com/illinois/bolingbrook-self-storage/", "opening_hours": "Mo-Tu 09:30-18:00; Th-Fr 09:30-18:00; Sa 08:30-17:00", "image": "https://www.simplyss.com/files/img_location_images_43022843e9b5f0efd4d2dd3d141efdab.jpg", "brand": "Simply Self Storage"}, "geometry": {"type": "Point", "coordinates": [-88.059167, 41.690999]}},
{"type": "Feature", "id": "os4fkHYUKauHv1SSvqOFswaSouI=", "properties": {"ref": "22215", "@spider": "simply_self_storage", "addr:street_address": "555 N. Olden Avenue", "addr:city": "Trenton", "addr:state": "NJ", "addr:postcode": "08638", "addr:country": "US", "name": "Simply Self Storage Trenton", "phone": "(609) 278-9048;(609) 278-0443", "website": "https://www.simplyss.com/new-jersey/trenton-self-storage/", "opening_hours": "Mo-Fr 09:30-18:00; Sa 08:30-17:00; Su 10:00-14:00", "image": "https://www.simplyss.com/files/img_location_images_226d0606b42b3d53dce56b5f0c9bd57b.jpg", "brand": "Simply Self Storage"}, "geometry": {"type": "Point", "coordinates": [-74.746174, 40.232904]}},
{"type": "Feature", "id": "bb1m4rFJYMimSDSeNi83FGNFW0s=", "properties": {"ref": "22825", "@spider": "simply_self_storage", "addr:street_address": "651 S. Rowlett Street", "addr:city": "Collierville", "addr:state": "TN", "addr:postcode": "38017", "addr:country": "US", "name": "Simply Self Storage Collierville Rowlett St.", "phone": "(901) 316-5789;(901) 854-3561", "website": "https://www.simplyss.com/tennessee/collierville-south-rowlett-self-storage/", "opening_hours": "Mo-Fr 09:30-18:00; Sa 08:30-17:00", "image": "https://www.simplyss.com/files/img_location_images_4104d3e56dd6def3146f76bb34883f83.png", "brand": "Simply Self Storage"}, "geometry": {"type": "Point", "coordinates": [-89.683979, 35.042849]}}]}