{"type":"FeatureCollection","features":[{"type": "Feature", "id": "eUx1XZ-H94eoWT1grzv1Z2d9g_k=", "properties": {"ref": "229", "@spider": "skyline_chili", "amenity": "restaurant", "cuisine": "chili", "takeaway": "yes", "addr:full": "8675 US Highway 42", "addr:city": "Union", "addr:state": "KY", "addr:postcode": "41091", "name": "Skyline Chili", "phone": "+18596576929", "website": "https://locations.skylinechili.com/skyline-chili-032ac4fe6332", "opening_hours": "Mo-Sa 10:30-22:00; Su 11:00-21:00", "brand": "Skyline Chili", "brand:wikidata": "Q151224", "nsi_id": "skylinechili-96af40"}, "geometry": {"type": "Point", "coordinates": [-84.67159546447647, 38.96689328480727]}},
{"type": "Feature", "id": "pTdEjPXhN5UugYpwPh69RZpjQWg=", "properties": {"ref": "258", "@spider": "skyline_chili", "amenity": "restaurant", "cuisine": "chili", "takeaway": "yes", "addr:full": "714 Eads Parkway", "addr:city": "Lawrenceburg", "addr:state": "IN", "addr:postcode": "47025", "name": "Skyline Chili", "phone": "+18125374460", "website": "https://locations.skylinechili.com/skyline-chili-3294009bfd0b", "opening_hours": "Mo-Th 10:00-22:00; Fr-Sa 10:00-23:00; Su 10:00-22:00", "brand": "Skyline Chili", "brand:wikidata": "Q151224", "nsi_id": "skylinechili-96af40"}, "geometry": {"type": "Point", "coordinates": [-84.87422347068787, 39.08940234943776]}},
{"type": "Feature", "id": "HHfxcP64UP73It0WJHBgMI6wr54=", "properties": {"ref": "172", "@spider": "skyline_chili", "amenity": "restaurant", "cuisine": "chili", "takeaway": "yes", "addr:full": "27900 State Route #1", "addr:city": "West Harrison", "addr:state": "IN", "addr:postcode": "47060", "name": "Skyline Chili", "phone": "+18125763929", "website": "https://locations.skylinechili.com/skyline-chili-101f221cf330", "opening_hours": "Mo-Su 10:30-21:30", "brand": "Skyline Chili", "brand:wikidata": "Q151224", "nsi_id": "skylinechili-96af40"}, "geometry": {"type": "Point", "coordinates": [-84.9589614, 39.275608]}},
{"type": "Feature", "id": "ahUEefzGAQSdm3wXsXhnQyuHlo4=", "properties": {"ref": "255", "@spider": "skyline_chili", "amenity": "restaurant", "cuisine": "chili", "takeaway": "yes", "addr:full": "12000 Lebanon Road", "addr:city": "Cincinnati", "addr:state": "OH", "addr:postcode": "45241", "name": "Skyline Chili", "phone": "+15137330605", "website": "https://locations.skylinechili.com/skyline-chili-24740618b222", "opening_hours": "Mo-Su 10:30-21:00", "brand": "Skyline Chili", "brand:wikidata": "Q151224", "nsi_id": "skylinechili-96af40"}, "geometry": {"type": "Point", "coordinates": [-84.39255453182108, 39.29385569615403]}},
{"type": "Feature", "id": "FpbrdT56JljZv_-JKqY1smBc7cM=", "properties": {"ref": "254", "@spider": "skyline_chili", "amenity": "restaurant", "cuisine": "chili", "takeaway": "yes", "addr:full": "10640 Loveland-Madeira Road", "addr:city": "Loveland", "addr:state": "OH", "addr:postcode": "45140", "name": "Skyline Chili", "phone": "+15136834929", "website": "https://locations.skylinechili.com/skyline-chili-12a59cb8f465", "opening_hours": "Mo-Sa 10:30-20:00; Su 11:00-20:00", "brand": "Skyline Chili", "brand:wikidata": "Q151224", "nsi_id": "skylinechili-96af40"}, "geometry": {"type": "Point", "coordinates": [-84.29550066590303, 39.25333769895912]}},
{"type": "Feature", "id": "6gdqkmX3YkuaRioMyDEdqayMxH4=", "properties": {"ref": "212", "@spider": "skyline_chili", "amenity": "restaurant", "cuisine": "chili", "takeaway": "yes", "addr:full": "1530 Cross Creeks Boulevard", "addr:city": "Pickerington", "addr:state": "OH", "addr:postcode": "43147", "name": "Skyline Chili", "phone": "+16148569515", "website": "https://locations.skylinechili.com/skyline-chili-10e8dd903430", "opening_hours": "Mo-Sa 10:30-22:00; Su 11:00-21:00", "brand": "Skyline Chili", "brand:wikidata": "Q151224", "nsi_id": "skylinechili-96af40"}, "geometry": {"type": "Point", "coordinates": [-82.78285682201385, 39.91962443735209]}},
{"type": "Feature", "id": "1wTOPY81zSUt8GnNMP8x_ua5Ifk=", "properties": {"ref": "269", "@spider": "skyline_chili", "amenity": "restaurant", "cuisine": "chili", "takeaway": "yes", "addr:full": "254 East Fourth Street", "addr:city": "Cincinnati", "addr:state": "OH", "addr:postcode": "45202", "name": "Skyline Chili", "phone": "+15132414848", "website": "https://locations.skylinechili.com/skyline-chili-1f2a04cf5b14", "opening_hours": "Mo-Fr 10:30-17:00; Sa 11:00-14:00", "brand": "Skyline Chili", "brand:wikidata": "Q151224", "nsi_id": "skylinechili-96af40"}, "geometry": {"type": "Point", "coordinates": [-84.5080426, 39.100932]}},
{"type": "Feature", "id": "IrYbx3slg54LfnVNRr6_Ozo4XEA=", "properties": {"ref": "183", "@spider": "skyline_chili", "amenity": "restaurant", "cuisine": "chili", "takeaway": "yes", "addr:full": "8345 US Highway 31 South", "addr:city": "Indianapolis", "addr:state": "IN", "addr:postcode": "46227", "name": "Skyline Chili", "phone": "+13178598368", "website": "https://locations.skylinechili.com/skyline-chili-1887d0bf315f", "opening_hours": "Mo-Sa 10:30-21:00; Su 11:00-21:00", "brand": "Skyline Chili", "brand:wikidata": "Q151224", "nsi_id": "skylinechili-96af40"}, "geometry": {"type": "Point", "coordinates": [-86.1329026, 39.6448805]}},
{"type": "Feature", "id": "RFElTpwpKZDvvaepqghzfMudvRQ=", "properties": {"ref": "293", "@spider": "skyline_chili", "amenity": "restaurant", "cuisine": "chili", "takeaway": "yes", "addr:full": "5560 Bridgetown Road", "addr:city": "Cincinnati", "addr:state": "OH", "addr:postcode": "45248", "name": "Skyline Chili", "phone": "+15135744777", "website": "https://locations.skylinechili.com/skyline-chili-1f1bdeea7695", "opening_hours": "Mo-Th 10:30-22:00; Fr 10:30-23:00; Sa-Su 10:30-22:00", "brand": "Skyline Chili", "brand:wikidata": "Q151224", "nsi_id": "skylinechili-96af40"}, "geometry": {"type": "Point", "coordinates": [-84.6319844, 39.1584843]}},
{"type": "Feature", "id": "0bO_urktADHvC_IqFEbm0wwY3kk=", "properties": {"ref": "222", "@spider": "skyline_chili", "amenity": "restaurant", "cuisine": "chili", "takeaway": "yes", "addr:full": "1097 Ohio Pike", "addr:city": "Amelia", "addr:state": "OH", "addr:postcode": "45102", "name": "Skyline Chili", "phone": "+15137521233", "website": "https://locations.skylinechili.com/skyline-chili-05b113d73e22", "opening_hours": "Mo-Th 10:30-22:00; Fr-Sa 10:30-23:00; Su 11:00-22:00", "brand": "Skyline Chili", "brand:wikidata": "Q151224", "nsi_id": "skylinechili-96af40"}, "geometry": {"type": "Point", "coordinates": [-84.25581201910973, 39.053303526466294]}},
{"type": "Feature", "id": "ZgvdBzAlQ2MkGZi_rYN8QbEQg2A=", "properties": {"ref": "260", "@spider": "skyline_chili", "amenity": "restaurant", "cuisine": "chili", "takeaway": "yes", "addr:full": "2711 Waterpark Drive", "addr:city": "Mason", "addr:state": "OH", "addr:postcode": "45040", "name": "Skyline Chili", "phone": "+15133367009", "website": "https://locations.skylinechili.com/skyline-chili-0e7cda587f31", "opening_hours": "Mo-Su 11:00-23:00", "brand": "Skyline Chili", "brand:wikidata": "Q151224", "nsi_id": "skylinechili-96af40"}, "geometry": {"type": "Point", "coordinates": [-84.26542639732355, 39.35849741001409]}},
{"type": "Feature", "id": "3R19EB1j9rfV1shtZu2gXXYHWos=", "properties": {"ref": "167", "@spider": "skyline_chili", "amenity": "restaurant", "cuisine": "chili", "takeaway": "yes", "addr:full": "1321 Route 63", "addr:city": "Monroe", "addr:state": "OH", "addr:postcode": "45050", "name": "Skyline Chili", "phone": "+15133607683", "website": "https://locations.skylinechili.com/skyline-chili-0b2c75500018", "opening_hours": "Mo-Th 10:00-22:00; Fr 10:00-24:00; Sa 11:00-24:00; Su 10:00-22:00", "brand": "Skyline Chili", "brand:wikidata": "Q151224", "nsi_id": "skylinechili-96af40"}, "geometry": {"type": "Point", "coordinates": [-84.32820297313589, 39.43902731371173]}},
{"type": "Feature", "id": "dTnvtCmbHlGqX1Mt8jttrKnkul0=", "properties": {"ref": "284", "@spider": "skyline_chili", "amenity": "restaurant", "cuisine": "chili", "takeaway": "yes", "addr:full": "5137 Delhi Pike", "addr:city": "Cincinnati", "addr:state": "OH", "addr:postcode": "45238", "name": "Skyline Chili", "phone": "+15134517000", "website": "https://locations.skylinechili.com/skyline-chili-0cc8cfc5e460", "opening_hours": "Mo-Th 10:00-22:00; Fr-Sa 10:00-24:00; Su 11:00-22:00", "brand": "Skyline Chili", "brand:wikidata": "Q151224", "nsi_id": "skylinechili-96af40"}, "geometry": {"type": "Point", "coordinates": [-84.61433082818985, 39.09432987249847]}},
{"type": "Feature", "id": "NbFK5tfn2WkmkDzrjoH6dWCOSrM=", "properties": {"ref": "287", "@spider": "skyline_chili", "amenity": "restaurant", "cuisine": "chili", "takeaway": "yes", "addr:full": "290 Ludlow Avenue", "addr:city": "Cincinnati", "addr:state": "OH", "addr:postcode": "45220", "name": "Skyline Chili", "phone": "+15132212142", "website": "https://locations.skylinechili.com/skyline-chili-08634e0c5325", "opening_hours": "Mo-Th 10:00-01:00; Fr-Sa 10:00-02:00; Su 10:00-24:00", "brand": "Skyline Chili", "brand:wikidata": "Q151224", "nsi_id": "skylinechili-96af40"}, "geometry": {"type": "Point", "coordinates": [-84.51904132962233, 39.143619448345966]}},
{"type": "Feature", "id": "09DUwr0BJfOLS5Cddf8nWAgeSSc=", "properties": {"ref": "239", "@spider": "skyline_chili", "amenity": "restaurant", "cuisine": "chili", "takeaway": "yes", "addr:full": "9254 Plainfield Road", "addr:city": "Cincinnati", "addr:state": "OH", "addr:postcode": "45236", "name": "Skyline Chili", "phone": "+15137933350", "website": "https://locations.skylinechili.com/skyline-chili-0744ed7b4c22", "opening_hours": "Mo-Su 11:00-21:00", "brand": "Skyline Chili", "brand:wikidata": "Q151224", "nsi_id": "skylinechili-96af40"}, "geometry": {"type": "Point", "coordinates": [-84.39410671591759, 39.227790296799355]}},
{"type": "Feature", "id": "mK9DR919dHC8Bc-oYV_xodGSEog=", "properties": {"ref": "299", "@spider": "skyline_chili", "amenity": "restaurant", "cuisine": "chili", "takeaway": "yes", "addr:full": "354 E. Brannon Rd", "addr:city": "Nicholasville", "addr:state": "KY", "addr:postcode": "40356", "name": "Skyline Chili", "phone": "+18595234031", "website": "https://locations.skylinechili.com/skyline-chili-0047b6e81b82", "opening_hours": "Mo-Th 10:00-22:00; Fr-Sa 10:00-23:00; Su 10:00-22:00", "brand": "Skyline Chili", "brand:wikidata": "Q151224", "nsi_id": "skylinechili-96af40"}, "geometry": {"type": "Point", "coordinates": [-84.53315219999999, 37.9555902]}},
{"type": "Feature", "id": "gsqKmQlFZUTzOYs4GySYpI2Qd3A=", "properties": {"ref": "231", "@spider": "skyline_chili", "amenity": "restaurant", "cuisine": "chili", "takeaway": "yes", "addr:full": "5114 Taylor Mill Road", "addr:city": "Taylor Mill", "addr:state": "KY", "addr:postcode": "41015", "name": "Skyline Chili", "phone": "+18592615660", "website": "https://locations.skylinechili.com/skyline-chili-f5e5e3d3a6f4", "opening_hours": "Mo-Th 10:00-22:00; Fr-Sa 10:00-23:00; Su 10:00-22:00", "brand": "Skyline Chili", "brand:wikidata": "Q151224", "nsi_id": "skylinechili-96af40"}, "geometry": {"type": "Point", "coordinates": [-84.5065516, 39.0182672]}},
{"type": "Feature", "id": "6Ol1GhoFrgiUEiGK6n97WxMZfNY=", "properties": {"ref": "291", "@spider": "skyline_chili", "amenity": "restaurant", "cuisine": "chili", "takeaway": "yes", "addr:full": "6091 Limaburg Road", "addr:city": "Burlington", "addr:state": "KY", "addr:postcode": "41005", "name": "Skyline Chili", "phone": "+18592821100", "website": "https://locations.skylinechili.com/skyline-chili-f477b56e6e1f", "opening_hours": "Mo-Sa 10:30-21:00; Su 11:00-21:00", "brand": "Skyline Chili", "brand:wikidata": "Q151224", "nsi_id": "skylinechili-96af40"}, "geometry": {"type": "Point", "coordinates": [-84.688909649849, 39.01704140594147]}},
{"type": "Feature", "id": "ziuGfJkyaE12OTnaQi7X0wtlXRg=", "properties": {"ref": "165", "@spider": "skyline_chili", "amenity": "restaurant", "cuisine": "chili", "takeaway": "yes", "addr:full": "4112 Lakewood Ranch Blvd.", "addr:city": "Lakewood Ranch", "addr:state": "FL", "addr:postcode": "34211", "name": "Skyline Chili", "phone": "+19412422603", "website": "https://locations.skylinechili.com/skyline-chili-fe164c40e8d4", "opening_hours": "Mo-Su 11:00-20:30", "brand": "Skyline Chili", "brand:wikidata": "Q151224", "nsi_id": "skylinechili-96af40"}, "geometry": {"type": "Point", "coordinates": [-82.4326008, 27.4650259]}},
{"type": "Feature", "id": "eCQEuiNiMspYXa3huKOLAeI8o1I=", "properties": {"ref": "250", "@spider": "skyline_chili", "amenity": "restaurant", "cuisine": "chili", "takeaway": "yes", "addr:full": "730 Lila Avenue", "addr:city": "Milford", "addr:state": "OH", "addr:postcode": "45150", "name": "Skyline Chili", "phone": "+15138314611", "website": "https://locations.skylinechili.com/skyline-chili-fd381359f77d", "opening_hours": "Mo-Su 10:00-22:00", "brand": "Skyline Chili", "brand:wikidata": "Q151224", "nsi_id": "skylinechili-96af40"}, "geometry": {"type": "Point", "coordinates": [-84.28528279066086, 39.17613113562196]}},
{"type": "Feature", "id": "OiWKdnprm6qhH5Vn4oZvivnjvZM=", "properties": {"ref": "216", "@spider": "skyline_chili", "amenity": "restaurant", "cuisine": "chili", "takeaway": "yes", "addr:full": "6290 Prentiss School Drive", "addr:city": "Canal Winchester", "addr:state": "OH", "addr:postcode": "43110", "name": "Skyline Chili", "phone": "+16149200782", "website": "https://locations.skylinechili.com/skyline-chili-fc6884d9cabd", "opening_hours": "Mo-Sa 10:30-22:00; Su 11:00-21:00", "brand": "Skyline Chili", "brand:wikidata": "Q151224", "nsi_id": "skylinechili-96af40"}, "geometry": {"type": "Point", "coordinates": [-82.82896265387535, 39.85292111962877]}},
{"type": "Feature", "id": "S9ZoY0GKJbLwH4BSzwqJrmvs3YE=", "properties": {"ref": "204", "@spider": "skyline_chili", "amenity": "restaurant", "cuisine": "chili", "takeaway": "yes", "addr:full": "4407 State Route 725", "addr:city": "Bellbrook", "addr:state": "OH", "addr:postcode": "45305", "name": "Skyline Chili", "phone": "+19378487348", "website": "https://locations.skylinechili.com/skyline-chili-f84c7b45958b", "opening_hours": "Mo-Sa 10:30-21:30; Su 11:00-21:00", "brand": "Skyline Chili", "brand:wikidata": "Q151224", "nsi_id": "skylinechili-96af40"}, "geometry": {"type": "Point", "coordinates": [-84.10634592175484, 39.6374761673676]}},
{"type": "Feature", "id": "c1VLeeTNLOTcV5vNLZA_FGMz1SU=", "properties": {"ref": "162", "@spider": "skyline_chili", "amenity": "restaurant", "cuisine": "chili", "takeaway": "yes", "addr:full": "1005 East Cherry Street", "addr:city": "Blanchester", "addr:state": "OH", "addr:postcode": "45107", "name": "Skyline Chili", "phone": "+19376251010", "website": "https://locations.skylinechili.com/skyline-chili-f1f089c79bdc", "opening_hours": "Mo-Sa 10:30-22:00; Su 11:00-22:00", "brand": "Skyline Chili", "brand:wikidata": "Q151224", "nsi_id": "skylinechili-96af40"}, "geometry": {"type": "Point", "coordinates": [-83.9605545, 39.2997689]}},
{"type": "Feature", "id": "f9hRP_6OOPLYQN1M0m4ujvJwZCo=", "properties": {"ref": "208", "@spider": "skyline_chili", "amenity": "restaurant", "cuisine": "chili", "takeaway": "yes", "addr:full": "3720 South High Street", "addr:city": "Columbus", "addr:state": "OH", "addr:postcode": "43207", "name": "Skyline Chili", "phone": "+16144099275", "website": "https://locations.skylinechili.com/skyline-chili-eeb5499755f5", "opening_hours": "Mo-Fr 10:30-20:00; Sa 10:30-19:00; Su 11:00-19:00", "brand": "Skyline Chili", "brand:wikidata": "Q151224", "nsi_id": "skylinechili-96af40"}, "geometry": {"type": "Point", "coordinates": [-82.99875319004059, 39.885582159170475]}},
{"type": "Feature", "id": "NESM4l8m2x_7tTW9bSaYUf7BFoA=", "properties": {"ref": "245", "@spider": "skyline_chili", "amenity": "restaurant", "cuisine": "chili", "takeaway": "yes", "addr:full": "35 Carothers Road", "addr:city": "Newport", "addr:state": "KY", "addr:postcode": "41071", "name": "Skyline Chili", "phone": "+18594311001", "website": "https://locations.skylinechili.com/skyline-chili-f43ee900f1b6", "opening_hours": "Mo-Th 10:30-23:00; Fr-Sa 10:30-24:00; Su 11:00-23:00", "brand": "Skyline Chili", "brand:wikidata": "Q151224", "nsi_id": "skylinechili-96af40"}, "geometry": {"type": "Point", "coordinates": [-84.48129057884216, 39.08500642520096]}},
{"type": "Feature", "id": "AlVFMWz4pEu3wf2tNyLSsuqLloc=", "properties": {"ref": "175", "@spider": "skyline_chili", "amenity": "restaurant", "cuisine": "chili", "takeaway": "yes", "addr:full": "1345 Hansel Drive", "addr:city": "Florence", "addr:state": "KY", "addr:postcode": "41042", "name": "Skyline Chili", "phone": "+18595340390", "website": "https://locations.skylinechili.com/skyline-chili-ef6caf21571e", "opening_hours": "Mo-Sa 10:00-21:00; Su 11:00-21:00", "brand": "Skyline Chili", "brand:wikidata": "Q151224", "nsi_id": "skylinechili-96af40"}, "geometry": {"type": "Point", "coordinates": [-84.63617473840714, 39.017176863586236]}},
{"type": "Feature", "id": "wOOOvQkGNNDySG2tyUHlWEuLioY=", "properties": {"ref": "199", "@spider": "skyline_chili", "amenity": "restaurant", "cuisine": "chili", "takeaway": "yes", "addr:full": "1223 Dayton-Yellow Springs Road", "addr:city": "Fairborn", "addr:state": "OH", "addr:postcode": "45324", "name": "Skyline Chili", "phone": "+19378797125", "website": "https://locations.skylinechili.com/skyline-chili-ec22560d6dd6", "opening_hours": "Mo-Su 10:30-22:00", "brand": "Skyline Chili", "brand:wikidata": "Q151224", "nsi_id": "skylinechili-96af40"}, "geometry": {"type": "Point", "coordinates": [-83.9945675432682, 39.78436797108941]}},
{"type": "Feature", "id": "_DL0LhIPOnBGpvCN--wxB4sT52o=", "properties": {"ref": "210", "@spider": "skyline_chili", "amenity": "restaurant", "cuisine": "chili", "takeaway": "yes", "addr:full": "9135 Owenfield Drive", "addr:city": "Lewis Center", "addr:state": "OH", "addr:postcode": "43035", "name": "Skyline Chili", "phone": "+17405490298", "website": "https://locations.skylinechili.com/skyline-chili-e6567631667a", "opening_hours": "Mo 10:30-20:00; Tu 10:30-16:00; We 10:30-20:00; Th 10:30-16:00; Fr 10:30-20:00; Sa 10:30-16:00; Su 11:00-20:00", "brand": "Skyline Chili", "brand:wikidata": "Q151224", "nsi_id": "skylinechili-96af40"}, "geometry": {"type": "Point", "coordinates": [-83.02097260951996, 40.15755315961623]}},
{"type": "Feature", "id": "w-dL_4D3_NQZ-0EX8WBhwSBy6-4=", "properties": {"ref": "266", "@spider": "skyline_chili", "amenity": "restaurant", "cuisine": "chili", "takeaway": "yes", "addr:full": "8635 Colerain Avenue", "addr:city": "Cincinnati", "addr:state": "OH", "addr:postcode": "45251", "name": "Skyline Chili", "phone": "+15133851244", "website": "https://locations.skylinechili.com/skyline-chili-ee80812e0648", "opening_hours": "Mo-Th 10:30-22:00; Fr 10:30-24:00; Sa 10:30-22:00; Su 11:00-22:00", "brand": "Skyline Chili", "brand:wikidata": "Q151224", "nsi_id": "skylinechili-96af40"}, "geometry": {"type": "Point", "coordinates": [-84.5895761, 39.2281927]}},
{"type": "Feature", "id": "jV1rtB9IWsNI47EHbA0cqNh2iRU=", "properties": {"ref": "227", "@spider": "skyline_chili", "amenity": "restaurant", "cuisine": "chili", "takeaway": "yes", "addr:full": "1001 Vine Street", "addr:city": "Cincinnati", "addr:state": "OH", "addr:postcode": "45202", "name": "Skyline Chili", "phone": "+15137214715", "website": "https://locations.skylinechili.com/skyline-chili-e71aa0d500d4", "opening_hours": "Mo-Fr 11:00-17:00", "brand": "Skyline Chili", "brand:wikidata": "Q151224", "nsi_id": "skylinechili-96af40"}, "geometry": {"type": "Point", "coordinates": [-84.51453503897778, 39.10668930532803]}},
{"type": "Feature", "id": "GKVMUhpjL0uxAX7HH7bK_nlYzZE=", "properties": {"ref": "196", "@spider": "skyline_chili", "amenity": "restaurant", "cuisine": "chili", "takeaway": "yes", "addr:full": "6910 Miller Lane", "addr:city": "Dayton", "addr:state": "OH", "addr:postcode": "45414", "name": "Skyline Chili", "phone": "+19378989970", "website": "https://locations.skylinechili.com/skyline-chili-e89b2ecee63e", "opening_hours": "Mo-Sa 10:30-22:00; Su 11:00-22:00", "brand": "Skyline Chili", "brand:wikidata": "Q151224", "nsi_id": "skylinechili-96af40"}, "geometry": {"type": "Point", "coordinates": [-84.19143900275236, 39.84733967426426]}},
{"type": "Feature", "id": "ktNyzwxBdFeeranB21qFmoWtGso=", "properties": {"ref": "294", "@spider": "skyline_chili", "amenity": "restaurant", "cuisine": "chili", "takeaway": "yes", "addr:full": "5005 Cornell Road", "addr:city": "Cincinnati", "addr:state": "OH", "addr:postcode": "45242", "name": "Skyline Chili", "phone": "+15134898488", "website": "https://locations.skylinechili.com/skyline-chili-e8276bfc142f", "opening_hours": "Mo-Fr 10:30-20:00; Sa-Su 11:00-19:00", "brand": "Skyline Chili", "brand:wikidata": "Q151224", "nsi_id": "skylinechili-96af40"}, "geometry": {"type": "Point", "coordinates": [-84.3713884055615, 39.2690805089499]}},
{"type": "Feature", "id": "w8jqyfmY0ba0E-cAJoA_COSGbRg=", "properties": {"ref": "189", "@spider": "skyline_chili", "amenity": "restaurant", "cuisine": "chili", "takeaway": "yes", "addr:full": "710 Ninth Street North", "addr:city": "Naples", "addr:state": "FL", "addr:postcode": "34102", "name": "Skyline Chili", "phone": "+12396495665", "website": "https://locations.skylinechili.com/skyline-chili-de9a715ed03f", "opening_hours": "Mo-Sa 10:30-19:00", "brand": "Skyline Chili", "brand:wikidata": "Q151224", "nsi_id": "skylinechili-96af40"}, "geometry": {"type": "Point", "coordinates": [-81.7963819205761, 26.15695592213033]}},
{"type": "Feature", "id": "hjhWkqCgWwHz_ytpKTivLJIGksg=", "properties": {"ref": "218", "@spider": "skyline_chili", "amenity": "restaurant", "cuisine": "chili", "takeaway": "yes", "addr:full": "4127 Bridgewater Parkway", "addr:city": "Stow", "addr:state": "OH", "addr:postcode": "44224", "name": "Skyline Chili", "phone": "+13309403929", "website": "https://locations.skylinechili.com/skyline-chili-e5972024f3cd", "opening_hours": "Mo-Su 10:30-22:00", "brand": "Skyline Chili", "brand:wikidata": "Q151224", "nsi_id": "skylinechili-96af40"}, "geometry": {"type": "Point", "coordinates": [-81.48068189620972, 41.179886433329116]}},
{"type": "Feature", "id": "Dw9fHtSbk2SdSZYHPyaR5rGgq1Y=", "properties": {"ref": "297", "@spider": "skyline_chili", "amenity": "restaurant", "cuisine": "chili", "takeaway": "yes", "addr:full": "7100 Alexandria Pike", "addr:city": "Alexandria", "addr:state": "KY", "addr:postcode": "41001", "name": "Skyline Chili", "phone": "+18596354400", "website": "https://locations.skylinechili.com/skyline-chili-df8613a5baa8", "opening_hours": "Mo-Th 10:30-21:00; Fr-Sa 10:30-22:00; Su 10:30-21:00", "brand": "Skyline Chili", "brand:wikidata": "Q151224", "nsi_id": "skylinechili-96af40"}, "geometry": {"type": "Point", "coordinates": [-84.40152436494827, 38.98348993765291]}},
{"type": "Feature", "id": "ATIsmZZP_4c-YGKuNMppuWPBfd8=", "properties": {"ref": "206", "@spider": "skyline_chili", "amenity": "restaurant", "cuisine": "chili", "takeaway": "yes", "addr:full": "1320 North Lexington-Springmill Road", "addr:city": "Ontario", "addr:state": "OH", "addr:postcode": "44906", "name": "Skyline Chili", "phone": "+14197473929", "website": "https://locations.skylinechili.com/skyline-chili-ddb27cf5acf2", "opening_hours": "Mo-Th 10:00-20:00; Fr-Sa 10:30-21:00; Su 10:00-20:00", "brand": "Skyline Chili", "brand:wikidata": "Q151224", "nsi_id": "skylinechili-96af40"}, "geometry": {"type": "Point", "coordinates": [-82.58967474102974, 40.788631483637225]}},
{"type": "Feature", "id": "2ixR0_d672hDtfP-N4ikNw7Q1-k=", "properties": {"ref": "237", "@spider": "skyline_chili", "amenity": "restaurant", "cuisine": "chili", "takeaway": "yes", "addr:full": "8506 Reading Road", "addr:city": "Cincinnati", "addr:state": "OH", "addr:postcode": "45215", "name": "Skyline Chili", "phone": "+15138211800", "website": "https://locations.skylinechili.com/skyline-chili-e3c92313910d", "opening_hours": "Mo-Th 10:00-21:30; Fr-Sa 10:00-22:30; Su 10:00-21:30", "brand": "Skyline Chili", "brand:wikidata": "Q151224", "nsi_id": "skylinechili-96af40"}, "geometry": {"type": "Point", "coordinates": [-84.44600880146032, 39.21388883568347]}},
{"type": "Feature", "id": "FyO8ngSyGKa8iXwsoKYBE6lijm4=", "properties": {"ref": "188", "@spider": "skyline_chili", "amenity": "restaurant", "cuisine": "chili", "takeaway": "yes", "addr:full": "2834 N. University Drive", "addr:city": "Sunrise", "addr:state": "FL", "addr:postcode": "33322", "name": "Skyline Chili", "phone": "+19547413929", "website": "https://locations.skylinechili.com/skyline-chili-e03b1a5dc337", "opening_hours": "Mo-Sa 11:00-21:00; Su 11:00-20:00", "brand": "Skyline Chili", "brand:wikidata": "Q151224", "nsi_id": "skylinechili-96af40"}, "geometry": {"type": "Point", "coordinates": [-80.25681808590889, 26.160871693316604]}},
{"type": "Feature", "id": "cvIewKjCRzdl9sJXRGEJp0EwVF4=", "properties": {"ref": "277", "@spider": "skyline_chili", "amenity": "restaurant", "cuisine": "chili", "takeaway": "yes", "addr:full": "1190 Hicks Boulevard", "addr:city": "Fairfield", "addr:state": "OH", "addr:postcode": "45014", "name": "Skyline Chili", "phone": "+15138298777", "website": "https://locations.skylinechili.com/skyline-chili-db5f6a0bd316", "opening_hours": "Mo-Sa 11:00-21:00; Su 11:30-21:00", "brand": "Skyline Chili", "brand:wikidata": "Q151224", "nsi_id": "skylinechili-96af40"}, "geometry": {"type": "Point", "coordinates": [-84.53998669981956, 39.346783235030905]}},
{"type": "Feature", "id": "tFZPttdTlzLo7_tCxqSZh3AN7hM=", "properties": {"ref": "198", "@spider": "skyline_chili", "amenity": "restaurant", "cuisine": "chili", "takeaway": "yes", "addr:full": "7603 Old Troy Pike", "addr:city": "Huber Heights", "addr:state": "OH", "addr:postcode": "45424", "name": "Skyline Chili", "phone": "+19372336005", "website": "https://locations.skylinechili.com/skyline-chili-cdd295ac7090", "opening_hours": "Mo-Su 10:30-22:00", "brand": "Skyline Chili", "brand:wikidata": "Q151224", "nsi_id": "skylinechili-96af40"}, "geometry": {"type": "Point", "coordinates": [-84.13925662636763, 39.86477336455882]}},
{"type": "Feature", "id": "EZtKiPQLrfPgi-GA7QcPViMuoMQ=", "properties": {"ref": "230", "@spider": "skyline_chili", "amenity": "restaurant", "cuisine": "chili", "takeaway": "yes", "addr:full": "917 West State Street", "addr:city": "Trenton", "addr:state": "OH", "addr:postcode": "45067", "name": "Skyline Chili", "phone": "+15139880655", "website": "https://locations.skylinechili.com/skyline-chili-cf15364b7fa2", "opening_hours": "Mo-Su 10:30-22:00", "brand": "Skyline Chili", "brand:wikidata": "Q151224", "nsi_id": "skylinechili-96af40"}, "geometry": {"type": "Point", "coordinates": [-84.47367310523993, 39.48024522349818]}},
{"type": "Feature", "id": "TG1ZWMRQm5A7ico_qUrYTzQd0UI=", "properties": {"ref": "262", "@spider": "skyline_chili", "amenity": "restaurant", "cuisine": "chili", "takeaway": "yes", "addr:full": "1968 Declaration Drive", "addr:city": "Independence", "addr:state": "KY", "addr:postcode": "41051", "name": "Skyline Chili", "phone": "+18593594700", "website": "https://locations.skylinechili.com/skyline-chili-d9a7166a1796", "opening_hours": "Mo-Th 10:00-22:00; Fr-Sa 10:00-23:00; Su 10:00-22:00", "brand": "Skyline Chili", "brand:wikidata": "Q151224", "nsi_id": "skylinechili-96af40"}, "geometry": {"type": "Point", "coordinates": [-84.546729773283, 38.93189981403938]}},
{"type": "Feature", "id": "jSvskEpBMBKkMI4xdh2hksotHgg=", "properties": {"ref": "191", "@spider": "skyline_chili", "amenity": "restaurant", "cuisine": "chili", "takeaway": "yes", "addr:full": "2590 North Federal Highway (US 1)", "addr:city": "Ft. Lauderdale", "addr:state": "FL", "addr:postcode": "33305", "name": "Skyline Chili", "phone": "+19545661541", "website": "https://locations.skylinechili.com/skyline-chili-cb80d5d3ef18", "brand": "Skyline Chili", "brand:wikidata": "Q151224", "nsi_id": "skylinechili-96af40"}, "geometry": {"type": "Point", "coordinates": [-80.11638700962067, 26.159586111859543]}},
{"type": "Feature", "id": "JllsPL8xmjGeOT8tHYFnPNTnpLI=", "properties": {"ref": "246", "@spider": "skyline_chili", "amenity": "restaurant", "cuisine": "chili", "takeaway": "yes", "addr:full": "1055 Route 28", "addr:city": "Milford", "addr:state": "OH", "addr:postcode": "45150", "name": "Skyline Chili", "phone": "+15132489737", "website": "https://locations.skylinechili.com/skyline-chili-d2d72bebd54a", "opening_hours": "Mo-Sa 10:30-22:00; Su 11:00-21:00", "brand": "Skyline Chili", "brand:wikidata": "Q151224", "nsi_id": "skylinechili-96af40"}, "geometry": {"type": "Point", "coordinates": [-84.24074809325407, 39.19333507876031]}},
{"type": "Feature", "id": "HYQanXnbK7DuPswq2jEqImJYIsk=", "properties": {"ref": "84", "@spider": "skyline_chili", "amenity": "restaurant", "cuisine": "chili", "takeaway": "yes", "addr:full": "4752 Ridge Road", "addr:city": "Brooklyn", "addr:state": "OH", "addr:postcode": "44144", "name": "Skyline Chili", "phone": "+12163517632", "website": "https://locations.skylinechili.com/skyline-chili-closed-0cc140d9d029", "brand": "Skyline Chili", "brand:wikidata": "Q151224", "nsi_id": "skylinechili-96af40"}, "geometry": {"type": "Point", "coordinates": [-81.7352509, 41.4253903]}},
{"type": "Feature", "id": "z6xbm7ujpeJuCTU8dmjUKOk_L-c=", "properties": {"ref": "234", "@spider": "skyline_chili", "amenity": "restaurant", "cuisine": "chili", "takeaway": "yes", "addr:full": "4911 Vine Street", "addr:city": "St. Bernard", "addr:state": "OH", "addr:postcode": "45217", "name": "Skyline Chili", "phone": "+15132420300", "website": "https://locations.skylinechili.com/skyline-chili-ca788bfb4b65", "opening_hours": "Mo-Fr 10:30-21:00; Sa 11:00-21:00; Su 11:00-20:00", "brand": "Skyline Chili", "brand:wikidata": "Q151224", "nsi_id": "skylinechili-96af40"}, "geometry": {"type": "Point", "coordinates": [-84.49839230874744, 39.169372231776805]}},
{"type": "Feature", "id": "XXhXdDhgK8aHqriYYuoXUHRi_i0=", "properties": {"ref": "225", "@spider": "skyline_chili", "amenity": "restaurant", "cuisine": "chili", "takeaway": "yes", "addr:full": "1559 Main Street", "addr:city": "Hamilton", "addr:state": "OH", "addr:postcode": "45013", "name": "Skyline Chili", "phone": "+15138446000", "website": "https://locations.skylinechili.com/skyline-chili-d87d585a5d13", "opening_hours": "Mo-Su 11:00-21:00", "brand": "Skyline Chili", "brand:wikidata": "Q151224", "nsi_id": "skylinechili-96af40"}, "geometry": {"type": "Point", "coordinates": [-84.5997042162503, 39.42882974241089]}},
{"type": "Feature", "id": "CnTztwD9ifR5bXNAK64aOb54bYk=", "properties": {"ref": "274", "@spider": "skyline_chili", "amenity": "restaurant", "cuisine": "chili", "takeaway": "yes", "addr:full": "7340 Industrial Road", "addr:city": "Florence", "addr:state": "KY", "addr:postcode": "41042", "name": "Skyline Chili", "phone": "+18592824929", "website": "https://locations.skylinechili.com/skyline-chili-cb9e89b4ecc0", "opening_hours": "Mo-Su 10:00-22:00", "brand": "Skyline Chili", "brand:wikidata": "Q151224", "nsi_id": "skylinechili-96af40"}, "geometry": {"type": "Point", "coordinates": [-84.62084859609604, 38.98036452230166]}},
{"type": "Feature", "id": "Dd75q0xiq7GC5xQwXjaMqP4frkk=", "properties": {"ref": "173", "@spider": "skyline_chili", "amenity": "restaurant", "cuisine": "chili", "takeaway": "yes", "addr:full": "2799 Rombach Avenue", "addr:city": "Wilmington", "addr:state": "OH", "addr:postcode": "45177", "name": "Skyline Chili", "phone": "+19373827000", "website": "https://locations.skylinechili.com/skyline-chili-c0c1cddfc145", "opening_hours": "Mo-Sa 10:30-22:00; Su 11:00-21:00", "brand": "Skyline Chili", "brand:wikidata": "Q151224", "nsi_id": "skylinechili-96af40"}, "geometry": {"type": "Point", "coordinates": [-83.78165997100723, 39.4546631067083]}},
{"type": "Feature", "id": "YFj2e3xgQyYudCGWLwLxqT7Yk8w=", "properties": {"ref": "280", "@spider": "skyline_chili", "amenity": "restaurant", "cuisine": "chili", "takeaway": "yes", "addr:full": "3159 Dixie Highway", "addr:city": "Erlanger", "addr:state": "KY", "addr:postcode": "41018", "name": "Skyline Chili", "phone": "+18593440900", "website": "https://locations.skylinechili.com/skyline-chili-c2973c26df48", "opening_hours": "Mo-Th 09:30-22:00; Fr-Sa 09:30-23:00; Su 11:30-21:00", "brand": "Skyline Chili", "brand:wikidata": "Q151224", "nsi_id": "skylinechili-96af40"}, "geometry": {"type": "Point", "coordinates": [-84.59299117326736, 39.019724460954194]}},
{"type": "Feature", "id": "GJNc7CrdEYNWt1Ja0u0BoniP97I=", "properties": {"ref": "281", "@spider": "skyline_chili", "amenity": "restaurant", "cuisine": "chili", "takeaway": "yes", "addr:full": "7132 Cincinnati Dayton Road", "addr:city": "West Chester", "addr:state": "OH", "addr:postcode": "45069", "name": "Skyline Chili", "phone": "+15137777555", "website": "https://locations.skylinechili.com/skyline-chili-c487277630bb", "opening_hours": "Mo-Sa 10:30-22:00; Su 10:30-21:00", "brand": "Skyline Chili", "brand:wikidata": "Q151224", "nsi_id": "skylinechili-96af40"}, "geometry": {"type": "Point", "coordinates": [-84.3827416701402, 39.37146560713711]}},
{"type": "Feature", "id": "Yt_uR4KVsNyz5nRYx5fa2TngvYk=", "properties": {"ref": "178", "@spider": "skyline_chili", "amenity": "restaurant", "cuisine": "chili", "takeaway": "yes", "addr:full": "1153 Brown Street", "addr:city": "Dayton", "addr:state": "OH", "addr:postcode": "45409", "name": "Skyline Chili", "phone": "+19375287900", "website": "https://locations.skylinechili.com/skyline-chili-bfd4ce544b7f", "opening_hours": "Mo-Fr 10:30-20:00; Sa-Su 11:00-20:00", "brand": "Skyline Chili", "brand:wikidata": "Q151224", "nsi_id": "skylinechili-96af40"}, "geometry": {"type": "Point", "coordinates": [-84.18259307742113, 39.742105233674664]}},
{"type": "Feature", "id": "5CV2gr8KvFXcjshljfEu0AElhX0=", "properties": {"ref": "292", "@spider": "skyline_chili", "amenity": "restaurant", "cuisine": "chili", "takeaway": "yes", "addr:full": "1940 Jamison Road", "addr:city": "Bright", "addr:state": "IN", "addr:postcode": "47025", "name": "Skyline Chili", "phone": "+18126371111", "website": "https://locations.skylinechili.com/skyline-chili-bfc73b6bc58a", "opening_hours": "Mo-Su 10:30-21:00", "brand": "Skyline Chili", "brand:wikidata": "Q151224", "nsi_id": "skylinechili-96af40"}, "geometry": {"type": "Point", "coordinates": [-84.85681931779095, 39.22057868818415]}},
{"type": "Feature", "id": "eLzlFwArEYou17KvoZWEUQTqntQ=", "properties": {"ref": "228", "@spider": "skyline_chili", "amenity": "restaurant", "cuisine": "chili", "takeaway": "yes", "addr:full": "6098 West Chester Road", "addr:city": "West Chester", "addr:state": "OH", "addr:postcode": "45069", "name": "Skyline Chili", "phone": "+15138605300", "website": "https://locations.skylinechili.com/skyline-chili-be4fecb9beb7", "opening_hours": "Mo-Su 10:30-22:00", "brand": "Skyline Chili", "brand:wikidata": "Q151224", "nsi_id": "skylinechili-96af40"}, "geometry": {"type": "Point", "coordinates": [-84.42430704832083, 39.328415737156256]}},
{"type": "Feature", "id": "xxznHSHwwu-NLqjUmcti7vg80rM=", "properties": {"ref": "272", "@spider": "skyline_chili", "amenity": "restaurant", "cuisine": "chili", "takeaway": "yes", "addr:full": "1180 Kemper Meadow Drive", "addr:city": "Cincinnati", "addr:state": "OH", "addr:postcode": "45240", "name": "Skyline Chili", "phone": "+15138513929", "website": "https://locations.skylinechili.com/skyline-chili-b03491e4f897", "opening_hours": "Mo-Th 10:30-23:00; Fr-Sa 10:30-24:00; Su 11:00-21:00", "brand": "Skyline Chili", "brand:wikidata": "Q151224", "nsi_id": "skylinechili-96af40"}, "geometry": {"type": "Point", "coordinates": [-84.52351927757269, 39.293374667737645]}},
{"type": "Feature", "id": "uc1kRf679PzF_DTCTFvH8vHaS-0=", "properties": {"ref": "224", "@spider": "skyline_chili", "amenity": "restaurant", "cuisine": "chili", "takeaway": "yes", "addr:full": "553 West Plane Street", "addr:city": "Bethel", "addr:state": "OH", "addr:postcode": "45106", "name": "Skyline Chili", "phone": "+15137343334", "website": "https://locations.skylinechili.com/skyline-chili-bc99ac728a3a", "opening_hours": "Mo-Sa 10:30-22:00; Su 11:00-22:00", "brand": "Skyline Chili", "brand:wikidata": "Q151224", "nsi_id": "skylinechili-96af40"}, "geometry": {"type": "Point", "coordinates": [-84.0872192, 38.963562]}},
{"type": "Feature", "id": "v3gl44RMXT68Zzxj-lkLXga_OSA=", "properties": {"ref": "169", "@spider": "skyline_chili", "amenity": "restaurant", "cuisine": "chili", "takeaway": "yes", "addr:full": "2045 Gulf to Bay Boulevard", "addr:city": "Clearwater", "addr:state": "FL", "addr:postcode": "33765", "name": "Skyline Chili", "phone": "+17277541323", "website": "https://locations.skylinechili.com/skyline-chili-bddb53a1b8be", "opening_hours": "Mo-Su 11:00-20:00", "brand": "Skyline Chili", "brand:wikidata": "Q151224", "nsi_id": "skylinechili-96af40"}, "geometry": {"type": "Point", "coordinates": [-82.75268733501434, 27.960064009305835]}},
{"type": "Feature", "id": "QbHeLi2_cHLnyveTNzr6aWZ97k4=", "properties": {"ref": "184", "@spider": "skyline_chili", "amenity": "restaurant", "cuisine": "chili", "takeaway": "yes", "addr:full": "3524 West 86th Street", "addr:city": "Indianapolis", "addr:state": "IN", "addr:postcode": "46268", "name": "Skyline Chili", "phone": "+13178722266", "website": "https://locations.skylinechili.com/skyline-chili-a9101c8dab67", "brand": "Skyline Chili", "brand:wikidata": "Q151224", "nsi_id": "skylinechili-96af40"}, "geometry": {"type": "Point", "coordinates": [-86.2212156, 39.9122512]}},
{"type": "Feature", "id": "Wr-XAHqIddnFgshirgpBdsA0q54=", "properties": {"ref": "295", "@spider": "skyline_chili", "amenity": "restaurant", "cuisine": "chili", "takeaway": "yes", "addr:full": "8386 Princeton-Glendale Road", "addr:city": "West Chester", "addr:state": "OH", "addr:postcode": "45069", "name": "Skyline Chili", "phone": "+15138744211", "website": "https://locations.skylinechili.com/skyline-chili-bbc9650cb743", "opening_hours": "Mo-Th 10:00-22:00; Fr 10:00-24:00; Sa 11:00-24:00; Su 10:00-22:00", "brand": "Skyline Chili", "brand:wikidata": "Q151224", "nsi_id": "skylinechili-96af40"}, "geometry": {"type": "Point", "coordinates": [-84.46086823940283, 39.348644816707996]}},
{"type": "Feature", "id": "K8mSWMZrmIukIwrYgnh-QPre8Qo=", "properties": {"ref": "223", "@spider": "skyline_chili", "amenity": "restaurant", "cuisine": "chili", "takeaway": "yes", "addr:full": "6645 Western Row Road", "addr:city": "Mason", "addr:state": "OH", "addr:postcode": "45040", "name": "Skyline Chili", "phone": "+15135739003", "website": "https://locations.skylinechili.com/skyline-chili-a864e9692be8", "opening_hours": "Mo-Sa 10:30-22:00; Su 10:30-21:00", "brand": "Skyline Chili", "brand:wikidata": "Q151224", "nsi_id": "skylinechili-96af40"}, "geometry": {"type": "Point", "coordinates": [-84.3421858549118, 39.33618112658685]}},
{"type": "Feature", "id": "HbwaKKTN8EV-wECNdt-liXoUKaY=", "properties": {"ref": "166", "@spider": "skyline_chili", "amenity": "restaurant", "cuisine": "chili", "takeaway": "yes", "addr:full": "4021 Ice Way", "addr:city": "Fort Wayne", "addr:state": "IN", "addr:postcode": "46805", "name": "Skyline Chili", "phone": "+12602034948", "website": "https://locations.skylinechili.com/skyline-chili-b1220548d036", "opening_hours": "Mo-Su 11:00-21:00", "brand": "Skyline Chili", "brand:wikidata": "Q151224", "nsi_id": "skylinechili-96af40"}, "geometry": {"type": "Point", "coordinates": [-85.1476829, 41.115025]}},
{"type": "Feature", "id": "n_sNDLvm7l2H9uSnzV5ovWTvAJI=", "properties": {"ref": "176", "@spider": "skyline_chili", "amenity": "restaurant", "cuisine": "chili", "takeaway": "yes", "addr:full": "7716 Dudley Drive", "addr:city": "West Chester", "addr:state": "OH", "addr:postcode": "45069", "name": "Skyline Chili", "phone": "+15137591710", "website": "https://locations.skylinechili.com/skyline-chili-ad837995f315", "opening_hours": "Mo-Su 10:30-22:00", "brand": "Skyline Chili", "brand:wikidata": "Q151224", "nsi_id": "skylinechili-96af40"}, "geometry": {"type": "Point", "coordinates": [-84.36845809221262, 39.35540935586013]}},
{"type": "Feature", "id": "Sv-n8-7o3zBYzVn3tVIS1gDyyUk=", "properties": {"ref": "197", "@spider": "skyline_chili", "amenity": "restaurant", "cuisine": "chili", "takeaway": "yes", "addr:full": "2724 Wilmington Pike", "addr:city": "Kettering", "addr:state": "OH", "addr:postcode": "45419", "name": "Skyline Chili", "phone": "+19372999061", "website": "https://locations.skylinechili.com/skyline-chili-a8aaa45e8b95", "opening_hours": "Mo-Sa 10:30-22:00; Su 11:00-22:00", "brand": "Skyline Chili", "brand:wikidata": "Q151224", "nsi_id": "skylinechili-96af40"}, "geometry": {"type": "Point", "coordinates": [-84.14190396666527, 39.70650157955788]}},
{"type": "Feature", "id": "Pr4XwpeR3I-A79aInT0NkZ_DBnk=", "properties": {"ref": "285", "@spider": "skyline_chili", "amenity": "restaurant", "cuisine": "chili", "takeaway": "yes", "addr:full": "550 Buttermilk Pike", "addr:city": "Crescent Springs", "addr:state": "KY", "addr:postcode": "41017", "name": "Skyline Chili", "phone": "+18594265929", "website": "https://locations.skylinechili.com/skyline-chili-adca94e408c0", "opening_hours": "Mo-Sa 10:30-22:00; Su 11:00-21:00", "brand": "Skyline Chili", "brand:wikidata": "Q151224", "nsi_id": "skylinechili-96af40"}, "geometry": {"type": "Point", "coordinates": [-84.57718089222908, 39.04949068123022]}},
{"type": "Feature", "id": "LeEmQLCIrmwpbA6ti7onmw-C8jk=", "properties": {"ref": "161", "@spider": "skyline_chili", "amenity": "restaurant", "cuisine": "chili", "takeaway": "yes", "addr:full": "3787 Herman Rd.", "addr:city": "Hamilton", "addr:state": "OH", "addr:postcode": "45013", "name": "Skyline Chili", "phone": "+15137380626", "website": "https://locations.skylinechili.com/skyline-chili-a7a9ae31dc90", "opening_hours": "Mo-Th 10:00-22:00; Fr-Sa 10:00-23:00; Su 11:00-22:00", "brand": "Skyline Chili", "brand:wikidata": "Q151224", "nsi_id": "skylinechili-96af40"}, "geometry": {"type": "Point", "coordinates": [-84.63830316770947, 39.32327056111015]}},
{"type": "Feature", "id": "YVr08wkfScFjN_mwN3YX8E-XLgI=", "properties": {"ref": "168", "@spider": "skyline_chili", "amenity": "restaurant", "cuisine": "chili", "takeaway": "yes", "addr:full": "2995 Olentangy River Road", "addr:city": "Columbus", "addr:state": "OH", "addr:postcode": "43202", "name": "Skyline Chili", "phone": "+16149148434", "website": "https://locations.skylinechili.com/skyline-chili-a619d2c94b9f", "opening_hours": "Mo-Su 10:30-21:00", "brand": "Skyline Chili", "brand:wikidata": "Q151224", "nsi_id": "skylinechili-96af40"}, "geometry": {"type": "Point", "coordinates": [-83.0256495, 40.0215679]}},
{"type": "Feature", "id": "jKP-EcjJG7H3V-6x6H27tGOlPhQ=", "properties": {"ref": "181", "@spider": "skyline_chili", "amenity": "restaurant", "cuisine": "chili", "takeaway": "yes", "addr:full": "4024 Dutchman's Lane", "addr:city": "Louisville", "addr:state": "KY", "addr:postcode": "40207", "name": "Skyline Chili", "phone": "+15027210093", "website": "https://locations.skylinechili.com/skyline-chili-a28042a7cb11", "opening_hours": "Mo-Su 10:30-21:00", "brand": "Skyline Chili", "brand:wikidata": "Q151224", "nsi_id": "skylinechili-96af40"}, "geometry": {"type": "Point", "coordinates": [-85.63277095556259, 38.23370002752499]}},
{"type": "Feature", "id": "jvV9pIwqqyMYQzLV4LPIwOFt8DE=", "properties": {"ref": "282", "@spider": "skyline_chili", "amenity": "restaurant", "cuisine": "chili", "takeaway": "yes", "addr:full": "856 Eastgate South Drive", "addr:city": "Cincinnati", "addr:state": "OH", "addr:postcode": "45245", "name": "Skyline Chili", "phone": "+15137524040", "website": "https://locations.skylinechili.com/skyline-chili-a2d03ed1dad2", "opening_hours": "Mo-Sa 10:00-23:00; Su 11:00-23:00", "brand": "Skyline Chili", "brand:wikidata": "Q151224", "nsi_id": "skylinechili-96af40"}, "geometry": {"type": "Point", "coordinates": [-84.26414966583252, 39.094501611389575]}},
{"type": "Feature", "id": "B4ENekHpLu4mjQPjXK2YLJ-srdY=", "properties": {"ref": "244", "@spider": "skyline_chili", "amenity": "restaurant", "cuisine": "chili", "takeaway": "yes", "addr:full": "10197 Colerain Avenue", "addr:city": "Cincinnati", "addr:state": "OH", "addr:postcode": "45251", "name": "Skyline Chili", "phone": "+15133859400", "website": "https://locations.skylinechili.com/skyline-chili-926c0eada073", "opening_hours": "Mo-Th 10:00-23:15; Fr-Sa 10:00-00:15; Su 11:00-22:00", "brand": "Skyline Chili", "brand:wikidata": "Q151224", "nsi_id": "skylinechili-96af40"}, "geometry": {"type": "Point", "coordinates": [-84.60321441292763, 39.25991727575361]}},
{"type": "Feature", "id": "xY0HApS0I1zT1wEKAqhCJ_qXiPQ=", "properties": {"ref": "195", "@spider": "skyline_chili", "amenity": "restaurant", "cuisine": "chili", "takeaway": "yes", "addr:full": "5774 Springboro Pike", "addr:city": "Moraine", "addr:state": "OH", "addr:postcode": "45439", "name": "Skyline Chili", "phone": "+19372930496", "website": "https://locations.skylinechili.com/skyline-chili-a03b6d431625", "opening_hours": "Mo-Sa 10:30-22:00; Su 11:00-21:00", "brand": "Skyline Chili", "brand:wikidata": "Q151224", "nsi_id": "skylinechili-96af40"}, "geometry": {"type": "Point", "coordinates": [-84.2211189866066, 39.67537291464554]}},
{"type": "Feature", "id": "WMMin0K0fJODzTlRbCos-bENsY4=", "properties": {"ref": "205", "@spider": "skyline_chili", "amenity": "restaurant", "cuisine": "chili", "takeaway": "yes", "addr:full": "2805 Centre Drive", "addr:city": "Beavercreek", "addr:state": "OH", "addr:postcode": "45324", "name": "Skyline Chili", "phone": "+19374263824", "website": "https://locations.skylinechili.com/skyline-chili-95db99201fcb", "opening_hours": "Mo-Sa 10:30-22:00; Su 11:00-22:00", "brand": "Skyline Chili", "brand:wikidata": "Q151224", "nsi_id": "skylinechili-96af40"}, "geometry": {"type": "Point", "coordinates": [-84.04965824913802, 39.771078834619054]}},
{"type": "Feature", "id": "BedzaWZJpuAUA8wnYwk-6Xz4M0c=", "properties": {"ref": "253", "@spider": "skyline_chili", "amenity": "restaurant", "cuisine": "chili", "takeaway": "yes", "addr:full": "6016 South State Route 48", "addr:city": "Maineville", "addr:state": "OH", "addr:postcode": "45039", "name": "Skyline Chili", "phone": "+15132396145", "website": "https://locations.skylinechili.com/skyline-chili-9ca9cb23128b", "opening_hours": "Mo-Sa 10:30-22:00; Su 11:00-21:00", "brand": "Skyline Chili", "brand:wikidata": "Q151224", "nsi_id": "skylinechili-96af40"}, "geometry": {"type": "Point", "coordinates": [-84.21761870384216, 39.34776744232986]}},
{"type": "Feature", "id": "kSGZRrB8By57N1WtX2wvuK4IFRc=", "properties": {"ref": "286", "@spider": "skyline_chili", "amenity": "restaurant", "cuisine": "chili", "takeaway": "yes", "addr:full": "617 West Third Street", "addr:city": "Covington", "addr:state": "KY", "addr:postcode": "41011", "name": "Skyline Chili", "phone": "+18592618474", "website": "https://locations.skylinechili.com/skyline-chili-9379ee5b640c", "opening_hours": "Mo-We 10:30-17:00; Th-Fr 10:30-21:00", "brand": "Skyline Chili", "brand:wikidata": "Q151224", "nsi_id": "skylinechili-96af40"}, "geometry": {"type": "Point", "coordinates": [-84.52090896201975, 39.08737093694502]}},
{"type": "Feature", "id": "6Yco-a2RiV33lKxirYzmk6DGPr4=", "properties": {"ref": "278", "@spider": "skyline_chili", "amenity": "restaurant", "cuisine": "chili", "takeaway": "yes", "addr:full": "5816 Wooster Pike", "addr:city": "Cincinnati", "addr:state": "OH", "addr:postcode": "45227", "name": "Skyline Chili", "phone": "+15132710611", "website": "https://locations.skylinechili.com/skyline-chili-9c1fedea495a", "opening_hours": "Mo-Sa 10:30-22:00; Su 11:00-21:00", "brand": "Skyline Chili", "brand:wikidata": "Q151224", "nsi_id": "skylinechili-96af40"}, "geometry": {"type": "Point", "coordinates": [-84.39113751053816, 39.14235673726373]}},
{"type": "Feature", "id": "t4Iq123hcEC8T1UwzUcRgSYda2A=", "properties": {"ref": "202", "@spider": "skyline_chili", "amenity": "restaurant", "cuisine": "chili", "takeaway": "yes", "addr:full": "8906 Kingsridge Drive", "addr:city": "Centerville", "addr:state": "OH", "addr:postcode": "45458", "name": "Skyline Chili", "phone": "+19374343952", "website": "https://locations.skylinechili.com/skyline-chili-97a02c54d963", "opening_hours": "Mo-Sa 11:00-20:30; Su 12:00-20:00", "brand": "Skyline Chili", "brand:wikidata": "Q151224", "nsi_id": "skylinechili-96af40"}, "geometry": {"type": "Point", "coordinates": [-84.2199844121933, 39.62974848012615]}},
{"type": "Feature", "id": "4l3TFQoGF8lCd80uEeYioR0LnD0=", "properties": {"ref": "264", "@spider": "skyline_chili", "amenity": "restaurant", "cuisine": "chili", "takeaway": "yes", "addr:full": "10429 Harrison Avenue", "addr:city": "Harrison", "addr:state": "OH", "addr:postcode": "45030", "name": "Skyline Chili", "phone": "+15133670614", "website": "https://locations.skylinechili.com/skyline-chili-934f032328b3", "opening_hours": "Mo-Th 10:30-22:00; Fr-Sa 10:30-23:00; Su 10:30-22:00", "brand": "Skyline Chili", "brand:wikidata": "Q151224", "nsi_id": "skylinechili-96af40"}, "geometry": {"type": "Point", "coordinates": [-84.78891313076014, 39.24903821013046]}},
{"type": "Feature", "id": "lz_DgpYDGPfEHSEc_3dh1eNAOMA=", "properties": {"ref": "186", "@spider": "skyline_chili", "amenity": "restaurant", "cuisine": "chili", "takeaway": "yes", "addr:full": "6689 East 82nd Street", "addr:city": "Indianapolis", "addr:state": "IN", "addr:postcode": "46250", "name": "Skyline Chili", "phone": "+13178492110", "website": "https://locations.skylinechili.com/skyline-chili-91eeeed77f19", "opening_hours": "Mo-Sa 10:30-21:00; Su 11:00-21:00", "brand": "Skyline Chili", "brand:wikidata": "Q151224", "nsi_id": "skylinechili-96af40"}, "geometry": {"type": "Point", "coordinates": [-86.05213433504105, 39.904607960897586]}},
{"type": "Feature", "id": "As2NmrPHB3HCUvJHHiHTsUhE-pA=", "properties": {"ref": "163", "@spider": "skyline_chili", "amenity": "restaurant", "cuisine": "chili", "takeaway": "yes", "addr:full": "3505 Grant Line Road", "addr:city": "New Albany", "addr:state": "IN", "addr:postcode": "47150", "name": "Skyline Chili", "phone": "+18127257176", "website": "https://locations.skylinechili.com/skyline-chili-90e62df00cdf", "opening_hours": "Mo-Sa 10:30-19:00,10:30-21:00; Su 10:30-19:00,11:00-21:00", "brand": "Skyline Chili", "brand:wikidata": "Q151224", "nsi_id": "skylinechili-96af40"}, "geometry": {"type": "Point", "coordinates": [-85.819161, 38.3306676]}},
{"type": "Feature", "id": "uBHVW-HOmoA1VcOePXLOWTusWQY=", "properties": {"ref": "249", "@spider": "skyline_chili", "amenity": "restaurant", "cuisine": "chili", "takeaway": "yes", "addr:full": "5444 North Bend Road", "addr:city": "Cincinnati", "addr:state": "OH", "addr:postcode": "45247", "name": "Skyline Chili", "phone": "+15136626664", "website": "https://locations.skylinechili.com/skyline-chili-71cea4d240aa", "opening_hours": "Mo-Su 11:00-21:00", "brand": "Skyline Chili", "brand:wikidata": "Q151224", "nsi_id": "skylinechili-96af40"}, "geometry": {"type": "Point", "coordinates": [-84.60013389587402, 39.1891108145085]}},
{"type": "Feature", "id": "C1AkzEwXSz9xEZDHsjtcAs75b7s=", "properties": {"ref": "241", "@spider": "skyline_chili", "amenity": "restaurant", "cuisine": "chili", "takeaway": "yes", "addr:full": "3081 Madison Road", "addr:city": "Cincinnati", "addr:state": "OH", "addr:postcode": "45209", "name": "Skyline Chili", "phone": "+15138712930", "website": "https://locations.skylinechili.com/skyline-chili-91620f4b27ad", "opening_hours": "Mo-Th 10:30-21:00; Fr-Sa 10:30-23:00; Su 11:00-21:00", "brand": "Skyline Chili", "brand:wikidata": "Q151224", "nsi_id": "skylinechili-96af40"}, "geometry": {"type": "Point", "coordinates": [-84.4309284, 39.1522866]}},
{"type": "Feature", "id": "haE-gJ-2vpVHeMpS3e-LiFO--po=", "properties": {"ref": "207", "@spider": "skyline_chili", "amenity": "restaurant", "cuisine": "chili", "takeaway": "yes", "addr:full": "117 Westerville Plaza", "addr:city": "Westerville", "addr:state": "OH", "addr:postcode": "43081", "name": "Skyline Chili", "phone": "+16148908400", "website": "https://locations.skylinechili.com/skyline-chili-8df9cd0f2b99", "opening_hours": "Mo-Su 10:30-21:00", "brand": "Skyline Chili", "brand:wikidata": "Q151224", "nsi_id": "skylinechili-96af40"}, "geometry": {"type": "Point", "coordinates": [-82.92924240231514, 40.10901881165273]}},
{"type": "Feature", "id": "6xHcyr_iNk92ke4kOdtDpxysjH0=", "properties": {"ref": "4312483410195881224", "@spider": "skyline_chili", "amenity": "restaurant", "cuisine": "chili", "takeaway": "yes", "addr:full": "1540 University Dr.", "addr:city": "Lexington", "addr:state": "KY", "addr:postcode": "40502", "name": "Skyline Chili", "website": "https://locations.skylinechili.com/skyline-chili-8ae02d1c1e25", "brand": "Skyline Chili", "brand:wikidata": "Q151224", "nsi_id": "skylinechili-96af40"}, "geometry": {"type": "Point", "coordinates": [-84.5054695, 38.0224033]}},
{"type": "Feature", "id": "s1wdlDPGjZwUi77duYPyn73JVOc=", "properties": {"ref": "187", "@spider": "skyline_chili", "amenity": "restaurant", "cuisine": "chili", "takeaway": "yes", "addr:full": "2649 Enterprise Drive", "addr:city": "Anderson", "addr:state": "IN", "addr:postcode": "46013", "name": "Skyline Chili", "phone": "+17656404460", "website": "https://locations.skylinechili.com/skyline-chili-877da5ddd891", "opening_hours": "Mo-Sa 10:30-21:00; Su 11:00-21:00", "brand": "Skyline Chili", "brand:wikidata": "Q151224", "nsi_id": "skylinechili-96af40"}, "geometry": {"type": "Point", "coordinates": [-85.71901202201843, 40.04006585480739]}},
{"type": "Feature", "id": "pHjTM0ULoOCCuCmOxJn2pH0VC8U=", "properties": {"ref": "182", "@spider": "skyline_chili", "amenity": "restaurant", "cuisine": "chili", "takeaway": "yes", "addr:full": "1266 Bardstown Road", "addr:city": "Louisville", "addr:state": "KY", "addr:postcode": "40204", "name": "Skyline Chili", "phone": "+15024731234", "website": "https://locations.skylinechili.com/skyline-chili-856fa3cde7b5", "opening_hours": "Mo-Su 10:30-21:00", "brand": "Skyline Chili", "brand:wikidata": "Q151224", "nsi_id": "skylinechili-96af40"}, "geometry": {"type": "Point", "coordinates": [-85.71605622768396, 38.23525592438344]}},
{"type": "Feature", "id": "-yffySMBuswfZdW928lt6hLrkvs=", "properties": {"ref": "209", "@spider": "skyline_chili", "amenity": "restaurant", "cuisine": "chili", "takeaway": "yes", "addr:full": "1790 Hilliard-Rome Road", "addr:city": "Columbus", "addr:state": "OH", "addr:postcode": "43026", "name": "Skyline Chili", "phone": "+16145291548", "website": "https://locations.skylinechili.com/skyline-chili-878d36ecd7ee", "opening_hours": "Mo-Sa 10:30-22:00; Su 11:00-21:00", "brand": "Skyline Chili", "brand:wikidata": "Q151224", "nsi_id": "skylinechili-96af40"}, "geometry": {"type": "Point", "coordinates": [-83.15085455775261, 39.988949839471125]}},
{"type": "Feature", "id": "G1C4PxZKdE5SCThO3U5DHnI1E60=", "properties": {"ref": "283", "@spider": "skyline_chili", "amenity": "restaurant", "cuisine": "chili", "takeaway": "yes", "addr:full": "6485 Harrison Avenue", "addr:city": "Dent", "addr:state": "OH", "addr:postcode": "45247", "name": "Skyline Chili", "phone": "+15135989798", "website": "https://locations.skylinechili.com/skyline-chili-7c40d37dd85d", "opening_hours": "Mo-Th 10:00-23:15; Fr-Sa 10:00-00:15; Su 11:00-23:00", "brand": "Skyline Chili", "brand:wikidata": "Q151224", "nsi_id": "skylinechili-96af40"}, "geometry": {"type": "Point", "coordinates": [-84.6585151, 39.1918011]}},
{"type": "Feature", "id": "vwj8mWQDAjblG-BmyKUcbNIdkDg=", "properties": {"ref": "211", "@spider": "skyline_chili", "amenity": "restaurant", "cuisine": "chili", "takeaway": "yes", "addr:full": "8550 Orion Place", "addr:city": "Columbus", "addr:state": "OH", "addr:postcode": "43240", "name": "Skyline Chili", "phone": "+16147816370", "website": "https://locations.skylinechili.com/skyline-chili-83d2d7b869a0", "opening_hours": "Mo-Th 10:00-22:00; Fr-Sa 10:00-23:00; Su 10:00-22:00", "brand": "Skyline Chili", "brand:wikidata": "Q151224", "nsi_id": "skylinechili-96af40"}, "geometry": {"type": "Point", "coordinates": [-82.96501100063324, 40.14191849780657]}},
{"type": "Feature", "id": "LEFpE13_eDdUnexpnYwI5PtiLKc=", "properties": {"ref": "298", "@spider": "skyline_chili", "amenity": "restaurant", "cuisine": "chili", "takeaway": "yes", "addr:full": "11161 US 52", "addr:city": "Brookville", "addr:state": "IN", "addr:postcode": "47012", "name": "Skyline Chili", "phone": "+17655473929", "website": "https://locations.skylinechili.com/skyline-chili-84e38304a635", "opening_hours": "Mo-Th 10:30-21:00; Fr-Sa 10:30-22:00; Su 10:30-21:00", "brand": "Skyline Chili", "brand:wikidata": "Q151224", "nsi_id": "skylinechili-96af40"}, "geometry": {"type": "Point", "coordinates": [-85.01001298427582, 39.41018596204269]}},
{"type": "Feature", "id": "r1WJv2RLYUY1jfkO28Hz9bbitnQ=", "properties": {"ref": "200", "@spider": "skyline_chili", "amenity": "restaurant", "cuisine": "chili", "takeaway": "yes", "addr:full": "1321 South Main St.", "addr:city": "Englewood", "addr:state": "OH", "addr:postcode": "45322", "name": "Skyline Chili", "phone": "+19378323222", "website": "https://locations.skylinechili.com/skyline-chili-817d7a3e3c31", "opening_hours": "Mo-Fr 10:00-22:00; Sa-Su 11:00-22:00", "brand": "Skyline Chili", "brand:wikidata": "Q151224", "nsi_id": "skylinechili-96af40"}, "geometry": {"type": "Point", "coordinates": [-84.28126484155649, 39.858899485995025]}},
{"type": "Feature", "id": "eFvH-4xHGQWhFv403YFpVUPAH5o=", "properties": {"ref": "256", "@spider": "skyline_chili", "amenity": "restaurant", "cuisine": "chili", "takeaway": "yes", "addr:full": "5488 Liberty Square Drive", "addr:city": "Liberty Township", "addr:state": "OH", "addr:postcode": "45011", "name": "Skyline Chili", "phone": "+15138953929", "website": "https://locations.skylinechili.com/skyline-chili-7e0640d77d7e", "opening_hours": "Mo-Th 10:00-22:00; Fr 10:00-24:00; Sa 11:00-24:00; Su 11:00-22:00", "brand": "Skyline Chili", "brand:wikidata": "Q151224", "nsi_id": "skylinechili-96af40"}, "geometry": {"type": "Point", "coordinates": [-84.47076104117286, 39.41846802012781]}},
{"type": "Feature", "id": "kTs8p2HkxUVzgPyOnuUIT7fROfg=", "properties": {"ref": "203", "@spider": "skyline_chili", "amenity": "restaurant", "cuisine": "chili", "takeaway": "yes", "addr:full": "945 South Main Street", "addr:city": "Centerville", "addr:state": "OH", "addr:postcode": "45458", "name": "Skyline Chili", "phone": "+19374367430", "website": "https://locations.skylinechili.com/skyline-chili-7d9d72021251", "opening_hours": "Mo-Su 10:30-22:00", "brand": "Skyline Chili", "brand:wikidata": "Q151224", "nsi_id": "skylinechili-96af40"}, "geometry": {"type": "Point", "coordinates": [-84.16104957461357, 39.610820160301934]}},
{"type": "Feature", "id": "kBVD4nwnkj4KD7qfSoafZ3Fv2HU=", "properties": {"ref": "263", "@spider": "skyline_chili", "amenity": "restaurant", "cuisine": "chili", "takeaway": "yes", "addr:full": "199 Martha Layne Collins Boulevard", "addr:city": "Highland Heights", "addr:state": "KY", "addr:postcode": "41076", "name": "Skyline Chili", "phone": "+18595729500", "website": "https://locations.skylinechili.com/skyline-chili-78ec4f07d860", "opening_hours": "Mo-Th 10:30-21:00; Fr-Sa 10:30-22:00; Su 11:00-16:00", "brand": "Skyline Chili", "brand:wikidata": "Q151224", "nsi_id": "skylinechili-96af40"}, "geometry": {"type": "Point", "coordinates": [-84.45585519075388, 39.02613108028255]}},
{"type": "Feature", "id": "fqVl-FKd5q8Wr-VuqxclP9alMm4=", "properties": {"ref": "217", "@spider": "skyline_chili", "amenity": "restaurant", "cuisine": "chili", "takeaway": "yes", "addr:full": "6111 Busch Boulevard", "addr:city": "Columbus", "addr:state": "OH", "addr:postcode": "43229", "name": "Skyline Chili", "phone": "+16148483855", "website": "https://locations.skylinechili.com/skyline-chili-3bd3744561c8", "brand": "Skyline Chili", "brand:wikidata": "Q151224", "nsi_id": "skylinechili-96af40"}, "geometry": {"type": "Point", "coordinates": [-82.9932895302772, 40.09080603322744]}},
{"type": "Feature", "id": "B-Vi983CfwvGlXDgIw7PtQ1LoWo=", "properties": {"ref": "201", "@spider": "skyline_chili", "amenity": "restaurant", "cuisine": "chili", "takeaway": "yes", "addr:full": "1704 North Barron Street", "addr:city": "Eaton", "addr:state": "OH", "addr:postcode": "45320", "name": "Skyline Chili", "phone": "+19373365537", "website": "https://locations.skylinechili.com/skyline-chili-78231fcd7871", "opening_hours": "Mo-Th 10:30-21:00; Fr 10:30-22:00; Sa-Su 10:30-21:00", "brand": "Skyline Chili", "brand:wikidata": "Q151224", "nsi_id": "skylinechili-96af40"}, "geometry": {"type": "Point", "coordinates": [-84.63592879010088, 39.76771118849957]}},
{"type": "Feature", "id": "CWb4k3wIMB_NEA2BjkYdoPmBFPw=", "properties": {"ref": "257", "@spider": "skyline_chili", "amenity": "restaurant", "cuisine": "chili", "takeaway": "yes", "addr:full": "718 East Main Street", "addr:city": "Lebanon", "addr:state": "OH", "addr:postcode": "45036", "name": "Skyline Chili", "phone": "+15139324334", "website": "https://locations.skylinechili.com/skyline-chili-75046178070e", "opening_hours": "Mo-Sa 10:30-22:00; Su 11:00-21:00", "brand": "Skyline Chili", "brand:wikidata": "Q151224", "nsi_id": "skylinechili-96af40"}, "geometry": {"type": "Point", "coordinates": [-84.19344208670509, 39.43268935429658]}},
{"type": "Feature", "id": "emI_bXIgm919yno3nsiNiV5wStM=", "properties": {"ref": "213", "@spider": "skyline_chili", "amenity": "restaurant", "cuisine": "chili", "takeaway": "yes", "addr:full": "3693 Fishinger Boulevard", "addr:city": "Hilliard", "addr:state": "OH", "addr:postcode": "43026", "name": "Skyline Chili", "phone": "+16147778922", "website": "https://locations.skylinechili.com/skyline-chili-786560eadbb9", "opening_hours": "Mo-Sa 10:30-22:00; Su 11:00-21:00", "brand": "Skyline Chili", "brand:wikidata": "Q151224", "nsi_id": "skylinechili-96af40"}, "geometry": {"type": "Point", "coordinates": [-83.11754420399666, 40.02904698988133]}},
{"type": "Feature", "id": "DnQrzg484W9l8pjK1Uq6FZFU9vU=", "properties": {"ref": "179", "@spider": "skyline_chili", "amenity": "restaurant", "cuisine": "chili", "takeaway": "yes", "addr:full": "1960 Litton Lane", "addr:city": "Hebron", "addr:state": "KY", "addr:postcode": "41048", "name": "Skyline Chili", "phone": "+18595861404", "website": "https://locations.skylinechili.com/skyline-chili-6a445fd12c44", "opening_hours": "Mo-Fr 10:00-21:30; Sa-Su 10:00-21:00", "brand": "Skyline Chili", "brand:wikidata": "Q151224", "nsi_id": "skylinechili-96af40"}, "geometry": {"type": "Point", "coordinates": [-84.7074664, 39.0785429]}},
{"type": "Feature", "id": "BHm34b-qWBbqRlbpHtZmdtqQX-E=", "properties": {"ref": "259", "@spider": "skyline_chili", "amenity": "restaurant", "cuisine": "chili", "takeaway": "yes", "addr:full": "2922 West US 22", "addr:city": "Maineville", "addr:state": "OH", "addr:postcode": "45039", "name": "Skyline Chili", "phone": "+15136778008", "website": "https://locations.skylinechili.com/skyline-chili-73b94bf4b0ee", "opening_hours": "Mo-Th 10:30-21:30; Fr-Sa 10:30-22:30; Su 10:30-21:30", "brand": "Skyline Chili", "brand:wikidata": "Q151224", "nsi_id": "skylinechili-96af40"}, "geometry": {"type": "Point", "coordinates": [-84.2751755, 39.3095259]}},
{"type": "Feature", "id": "WFQf09V0WLSUSxL1q4vPheIWn4Q=", "properties": {"ref": "276", "@spider": "skyline_chili", "amenity": "restaurant", "cuisine": "chili", "takeaway": "yes", "addr:full": "41 North Dunham Street", "addr:city": "Fayetteville", "addr:state": "OH", "addr:postcode": "45118", "name": "Skyline Chili", "phone": "+15137343334", "website": "https://locations.skylinechili.com/skyline-chili-708c68b15d31", "opening_hours": "Mo-Sa 10:30-22:00; Su 11:00-22:00", "brand": "Skyline Chili", "brand:wikidata": "Q151224", "nsi_id": "skylinechili-96af40"}, "geometry": {"type": "Point", "coordinates": [-83.92735004425055, 39.18774601309722]}},
{"type": "Feature", "id": "iTEi85ZRkv100IN__p-56yoDlv0=", "properties": {"ref": "273", "@spider": "skyline_chili", "amenity": "restaurant", "cuisine": "chili", "takeaway": "yes", "addr:full": "7899 Mall Road", "addr:city": "Florence", "addr:state": "KY", "addr:postcode": "41042", "name": "Skyline Chili", "phone": "+18593712323", "website": "https://locations.skylinechili.com/skyline-chili-74faf418fd09", "opening_hours": "Mo 11:00-21:00; Tu 11:00-15:00; We-Sa 11:00-21:00; Su 11:00-16:00", "brand": "Skyline Chili", "brand:wikidata": "Q151224", "nsi_id": "skylinechili-96af40"}, "geometry": {"type": "Point", "coordinates": [-84.65302787257087, 38.99289502634218]}},
{"type": "Feature", "id": "v6l87_JZoxJgiq_YeYrQO6uHqqU=", "properties": {"ref": "193", "@spider": "skyline_chili", "amenity": "restaurant", "cuisine": "chili", "takeaway": "yes", "addr:full": "1775 West Main Street", "addr:city": "Troy", "addr:state": "OH", "addr:postcode": "45373", "name": "Skyline Chili", "phone": "+19373357005", "website": "https://locations.skylinechili.com/skyline-chili-6f4c532f07e0", "opening_hours": "Mo-Sa 10:30-22:00; Su 11:00-22:00", "brand": "Skyline Chili", "brand:wikidata": "Q151224", "nsi_id": "skylinechili-96af40"}, "geometry": {"type": "Point", "coordinates": [-84.23492968082428, 40.05497252740125]}},
{"type": "Feature", "id": "3WGXMqC5oi7z4o_waCW6wvg0w30=", "properties": {"ref": "296", "@spider": "skyline_chili", "amenity": "restaurant", "cuisine": "chili", "takeaway": "yes", "addr:full": "914 State Route 229 North", "addr:city": "Batesville", "addr:state": "IN", "addr:postcode": "47006", "name": "Skyline Chili", "phone": "+18129345554", "website": "https://locations.skylinechili.com/skyline-chili-6cbeaa02ba8e", "opening_hours": "Mo-Su 10:30-22:00", "brand": "Skyline Chili", "brand:wikidata": "Q151224", "nsi_id": "skylinechili-96af40"}, "geometry": {"type": "Point", "coordinates": [-85.2157968981146, 39.306730596350434]}},
{"type": "Feature", "id": "2gb_XFDfWhi-WG8JdxQQg1wifTk=", "properties": {"ref": "275", "@spider": "skyline_chili", "amenity": "restaurant", "cuisine": "chili", "takeaway": "yes", "addr:full": "9115 Winton Road", "addr:city": "Cincinnati", "addr:state": "OH", "addr:postcode": "45231", "name": "Skyline Chili", "phone": "+15139314008", "website": "https://locations.skylinechili.com/skyline-chili-6c7bf9e4d4b2", "opening_hours": "Mo-Th 10:30-22:00; Fr 10:00-24:00; Sa 10:30-22:00; Su 11:00-22:00", "brand": "Skyline Chili", "brand:wikidata": "Q151224", "nsi_id": "skylinechili-96af40"}, "geometry": {"type": "Point", "coordinates": [-84.510269165039, 39.232000711830935]}},
{"type": "Feature", "id": "A_sZr2Upo6UKgE0M26dLaCLDrIk=", "properties": {"ref": "226", "@spider": "skyline_chili", "amenity": "restaurant", "cuisine": "chili", "takeaway": "yes", "addr:full": "1216 East McMillan", "addr:city": "Cincinnati", "addr:state": "OH", "addr:postcode": "45206", "name": "Skyline Chili", "phone": "+15138617400", "website": "https://locations.skylinechili.com/skyline-chili-6991b22dc971", "opening_hours": "Mo-Sa 10:30-16:00; Su 11:00-15:00", "brand": "Skyline Chili", "brand:wikidata": "Q151224", "nsi_id": "skylinechili-96af40"}, "geometry": {"type": "Point", "coordinates": [-84.48370724916458, 39.12585516159195]}},
{"type": "Feature", "id": "YobawsUCHL-h8K_1nR98Tn22to8=", "properties": {"ref": "289", "@spider": "skyline_chili", "amenity": "restaurant", "cuisine": "chili", "takeaway": "yes", "addr:full": "440 Ohio Pike", "addr:city": "Cincinnati", "addr:state": "OH", "addr:postcode": "45255", "name": "Skyline Chili", "phone": "+15135286611", "website": "https://locations.skylinechili.com/skyline-chili-69a22dfaeca1", "opening_hours": "Mo-Sa 10:30-21:00; Su 11:00-20:00", "brand": "Skyline Chili", "brand:wikidata": "Q151224", "nsi_id": "skylinechili-96af40"}, "geometry": {"type": "Point", "coordinates": [-84.3118380010128, 39.07221057189676]}},
{"type": "Feature", "id": "RYnv7Frgtd-xrb8741FXD2HupAk=", "properties": {"ref": "265", "@spider": "skyline_chili", "amenity": "restaurant", "cuisine": "chili", "takeaway": "yes", "addr:full": "1496 South Erie Boulevard", "addr:city": "Hamilton", "addr:state": "OH", "addr:postcode": "45011", "name": "Skyline Chili", "phone": "+15137373330", "website": "https://locations.skylinechili.com/skyline-chili-6990b94fae79", "opening_hours": "Mo-Th 10:30-22:00; Fr 10:30-23:00; Sa 10:30-22:00; Su 10:30-21:00", "brand": "Skyline Chili", "brand:wikidata": "Q151224", "nsi_id": "skylinechili-96af40"}, "geometry": {"type": "Point", "coordinates": [-84.5479051, 39.3800646]}},
{"type": "Feature", "id": "YH92wM40wMx_VVUJqOj4yI-Z01w=", "properties": {"ref": "180", "@spider": "skyline_chili", "amenity": "restaurant", "cuisine": "chili", "takeaway": "yes", "addr:full": "340 Whittington Parkway", "addr:city": "Louisville", "addr:state": "KY", "addr:postcode": "40222", "name": "Skyline Chili", "phone": "+15024295773", "website": "https://locations.skylinechili.com/skyline-chili-68c6f7ef44be", "opening_hours": "Mo-Su 10:30-21:00", "brand": "Skyline Chili", "brand:wikidata": "Q151224", "nsi_id": "skylinechili-96af40"}, "geometry": {"type": "Point", "coordinates": [-85.5778766, 38.2413112]}},
{"type": "Feature", "id": "ENjvGpTyWvjYIUuo3z-ZBnF6g6w=", "properties": {"ref": "251", "@spider": "skyline_chili", "amenity": "restaurant", "cuisine": "chili", "takeaway": "yes", "addr:full": "11929 Hamilton Avenue", "addr:city": "Cincinnati", "addr:state": "OH", "addr:postcode": "45231", "name": "Skyline Chili", "phone": "+15138510630", "website": "https://locations.skylinechili.com/skyline-chili-671a46d4d4e5", "opening_hours": "Mo-Fr 10:30-22:00; Sa-Su 11:00-21:00", "brand": "Skyline Chili", "brand:wikidata": "Q151224", "nsi_id": "skylinechili-96af40"}, "geometry": {"type": "Point", "coordinates": [-84.563839584589, 39.30082742240151]}},
{"type": "Feature", "id": "uXy0Z8vSxSb9zuUJopcSPzdHfVY=", "properties": {"ref": "242", "@spider": "skyline_chili", "amenity": "restaurant", "cuisine": "chili", "takeaway": "yes", "addr:full": "4588 Montgomery Road", "addr:city": "Cincinnati", "addr:state": "OH", "addr:postcode": "45212", "name": "Skyline Chili", "phone": "+15135318381", "website": "https://locations.skylinechili.com/skyline-chili-68196696b9ae", "opening_hours": "Mo-Sa 10:30-20:00; Su 11:00-20:00", "brand": "Skyline Chili", "brand:wikidata": "Q151224", "nsi_id": "skylinechili-96af40"}, "geometry": {"type": "Point", "coordinates": [-84.4544433, 39.1592438]}},
{"type": "Feature", "id": "kLH5w1PxrcRpU-wXRNWSAGfyhgU=", "properties": {"ref": "194", "@spider": "skyline_chili", "amenity": "restaurant", "cuisine": "chili", "takeaway": "yes", "addr:full": "580 West Central Avenue", "addr:city": "Springboro", "addr:state": "OH", "addr:postcode": "45066", "name": "Skyline Chili", "phone": "+19377438810", "website": "https://locations.skylinechili.com/skyline-chili-60f474c03bc1", "opening_hours": "Mo-Su 10:30-22:00", "brand": "Skyline Chili", "brand:wikidata": "Q151224", "nsi_id": "skylinechili-96af40"}, "geometry": {"type": "Point", "coordinates": [-84.25490811467171, 39.5625612051355]}},
{"type": "Feature", "id": "okdrT-PEtrBGy1xedfI87U8Clek=", "properties": {"ref": "190", "@spider": "skyline_chili", "amenity": "restaurant", "cuisine": "chili", "takeaway": "yes", "addr:full": "5100-323 South Cleveland Avenue", "addr:city": "Ft. Myers", "addr:state": "FL", "addr:postcode": "33907", "name": "Skyline Chili", "phone": "+12392783929", "website": "https://locations.skylinechili.com/skyline-chili-66d428207397", "opening_hours": "Mo-Sa 11:00-20:00; Su 11:00-16:00", "brand": "Skyline Chili", "brand:wikidata": "Q151224", "nsi_id": "skylinechili-96af40"}, "geometry": {"type": "Point", "coordinates": [-81.87310919165611, 26.586785787497334]}},
{"type": "Feature", "id": "mYAX1qGJ-ylb1T4DW75fvAdeU5w=", "properties": {"ref": "267", "@spider": "skyline_chili", "amenity": "restaurant", "cuisine": "chili", "takeaway": "yes", "addr:full": "1877 State Route 28", "addr:city": "Goshen", "addr:state": "OH", "addr:postcode": "45122", "name": "Skyline Chili", "phone": "+15137220397", "website": "https://locations.skylinechili.com/skyline-chili-66358d1f76a5", "opening_hours": "Mo-Su 10:30-22:00", "brand": "Skyline Chili", "brand:wikidata": "Q151224", "nsi_id": "skylinechili-96af40"}, "geometry": {"type": "Point", "coordinates": [-84.15909022092819, 39.23199136255852]}},
{"type": "Feature", "id": "Ak0Ym9yu4HhJe-ghpODIOvVqlhI=", "properties": {"ref": "248", "@spider": "skyline_chili", "amenity": "restaurant", "cuisine": "chili", "takeaway": "yes", "addr:full": "10869 Montgomery Road", "addr:city": "Cincinnati", "addr:state": "OH", "addr:postcode": "45242", "name": "Skyline Chili", "phone": "+15134894404", "website": "https://locations.skylinechili.com/skyline-chili-65eb56796d68", "opening_hours": "Mo-Su 10:30-21:00", "brand": "Skyline Chili", "brand:wikidata": "Q151224", "nsi_id": "skylinechili-96af40"}, "geometry": {"type": "Point", "coordinates": [-84.3392498, 39.2608544]}},
{"type": "Feature", "id": "o7oY3VOt1gkoFKPrhrUseXBbV74=", "properties": {"ref": "215", "@spider": "skyline_chili", "amenity": "restaurant", "cuisine": "chili", "takeaway": "yes", "addr:full": "7026 East Broad Street", "addr:city": "Columbus", "addr:state": "OH", "addr:postcode": "43213", "name": "Skyline Chili", "phone": "+16147518312", "website": "https://locations.skylinechili.com/skyline-chili-608e2b0fc087", "opening_hours": "Mo-Sa 10:30-22:00; Su 11:00-21:00", "brand": "Skyline Chili", "brand:wikidata": "Q151224", "nsi_id": "skylinechili-96af40"}, "geometry": {"type": "Point", "coordinates": [-82.81537055969244, 39.983152371382]}},
{"type": "Feature", "id": "07vBCiVofZnU_izjNVVqNs_SAeY=", "properties": {"ref": "192", "@spider": "skyline_chili", "amenity": "restaurant", "cuisine": "chili", "takeaway": "yes", "addr:full": "1990 Harding Highway", "addr:city": "Lima", "addr:state": "OH", "addr:postcode": "45804", "name": "Skyline Chili", "phone": "+14199911990", "website": "https://locations.skylinechili.com/skyline-chili-5da8cb70d364", "opening_hours": "Mo-Su 10:30-21:00", "brand": "Skyline Chili", "brand:wikidata": "Q151224", "nsi_id": "skylinechili-96af40"}, "geometry": {"type": "Point", "coordinates": [-84.06925901770592, 40.73033713314295]}},
{"type": "Feature", "id": "tG6CvJgIs9UOGNB3brmzLItiZYA=", "properties": {"ref": "271", "@spider": "skyline_chili", "amenity": "restaurant", "cuisine": "chili", "takeaway": "yes", "addr:full": "7175 Beechmont Avenue", "addr:city": "Cincinnati", "addr:state": "OH", "addr:postcode": "45230", "name": "Skyline Chili", "phone": "+15132312064", "website": "https://locations.skylinechili.com/skyline-chili-6232ac6af38b", "opening_hours": "Mo-Th 10:30-22:00; Fr-Sa 10:30-01:00; Su 10:30-22:00", "brand": "Skyline Chili", "brand:wikidata": "Q151224", "nsi_id": "skylinechili-96af40"}, "geometry": {"type": "Point", "coordinates": [-84.3595136, 39.0725545]}},
{"type": "Feature", "id": "Guk3ckjK0ukgdibNb3JE45lZ4s4=", "properties": {"ref": "214", "@spider": "skyline_chili", "amenity": "restaurant", "cuisine": "chili", "takeaway": "yes", "addr:full": "1350 Stoneridge Dr", "addr:city": "Gahanna", "addr:state": "OH", "addr:postcode": "43230", "name": "Skyline Chili", "phone": "+16143379870", "website": "https://locations.skylinechili.com/skyline-chili-5986405eadc9", "opening_hours": "Mo-Sa 10:30-22:00; Su 11:00-21:00", "brand": "Skyline Chili", "brand:wikidata": "Q151224", "nsi_id": "skylinechili-96af40"}, "geometry": {"type": "Point", "coordinates": [-82.8652274608612, 40.05406713242991]}},
{"type": "Feature", "id": "elTSV-NGyI7f1VT4s9ygEbGkzdA=", "properties": {"ref": "252", "@spider": "skyline_chili", "amenity": "restaurant", "cuisine": "chili", "takeaway": "yes", "addr:full": "4341 Roosevelt Boulevard", "addr:city": "Middletown", "addr:state": "OH", "addr:postcode": "45044", "name": "Skyline Chili", "phone": "+15134230464", "website": "https://locations.skylinechili.com/skyline-chili-607a4e25857d", "opening_hours": "Mo-Sa 11:00-21:00", "brand": "Skyline Chili", "brand:wikidata": "Q151224", "nsi_id": "skylinechili-96af40"}, "geometry": {"type": "Point", "coordinates": [-84.3565258, 39.4998962]}},
{"type": "Feature", "id": "0qN0fm-mOVAF-d6xXcujh7V-qzc=", "properties": {"ref": "279", "@spider": "skyline_chili", "amenity": "restaurant", "cuisine": "chili", "takeaway": "yes", "addr:full": "5214 Bardes Road", "addr:city": "Mason", "addr:state": "OH", "addr:postcode": "45040", "name": "Skyline Chili", "phone": "+15133984986", "website": "https://locations.skylinechili.com/skyline-chili-5ae5c5bcf45d", "opening_hours": "Mo-Sa 10:30-22:00; Su 10:30-21:00", "brand": "Skyline Chili", "brand:wikidata": "Q151224", "nsi_id": "skylinechili-96af40"}, "geometry": {"type": "Point", "coordinates": [-84.31675851345068, 39.29589671642025]}},
{"type": "Feature", "id": "f3k6KvUta9bGKgjaETj4zj-iHSQ=", "properties": {"ref": "261", "@spider": "skyline_chili", "amenity": "restaurant", "cuisine": "chili", "takeaway": "yes", "addr:full": "7707 Montgomery Road", "addr:city": "Cincinnati", "addr:state": "OH", "addr:postcode": "45236", "name": "Skyline Chili", "phone": "+15137917902", "website": "https://locations.skylinechili.com/skyline-chili-5a0d9f77cac6", "opening_hours": "Mo-Th 11:00-23:00; Fr-Sa 11:00-01:00; Su 11:00-23:00", "brand": "Skyline Chili", "brand:wikidata": "Q151224", "nsi_id": "skylinechili-96af40"}, "geometry": {"type": "Point", "coordinates": [-84.38612312078476, 39.197268926059884]}},
{"type": "Feature", "id": "Aal82-6IX3CdmvgPff322FKaYmw=", "properties": {"ref": "240", "@spider": "skyline_chili", "amenity": "restaurant", "cuisine": "chili", "takeaway": "yes", "addr:full": "One East High Street", "addr:city": "Oxford", "addr:state": "OH", "addr:postcode": "45056", "name": "Skyline Chili", "phone": "+15135233330", "website": "https://locations.skylinechili.com/skyline-chili-5418d4903743", "opening_hours": "Mo-Th 10:30-21:00; Fr-Sa 10:30-22:00; Su 11:00-21:00", "brand": "Skyline Chili", "brand:wikidata": "Q151224", "nsi_id": "skylinechili-96af40"}, "geometry": {"type": "Point", "coordinates": [-84.7421769797802, 39.510273874745536]}},
{"type": "Feature", "id": "wK9V_ovDKiKDu1NPyPdSxCqbFQI=", "properties": {"ref": "220", "@spider": "skyline_chili", "amenity": "restaurant", "cuisine": "chili", "takeaway": "yes", "addr:full": "5706 Mayfield Road", "addr:city": "Lyndhurst", "addr:state": "OH", "addr:postcode": "44124", "name": "Skyline Chili", "phone": "+14406461011", "website": "https://locations.skylinechili.com/skyline-chili-5a842323962b", "opening_hours": "Mo-Sa 10:30-22:00; Su 10:30-21:00", "brand": "Skyline Chili", "brand:wikidata": "Q151224", "nsi_id": "skylinechili-96af40"}, "geometry": {"type": "Point", "coordinates": [-81.4738163, 41.519097]}},
{"type": "Feature", "id": "kXQuZeoILepoI2GiX1fui498POk=", "properties": {"ref": "185", "@spider": "skyline_chili", "amenity": "restaurant", "cuisine": "chili", "takeaway": "yes", "addr:full": "9715 East Washington Street", "addr:city": "Indianapolis", "addr:state": "IN", "addr:postcode": "46219", "name": "Skyline Chili", "phone": "+13173521275", "website": "https://locations.skylinechili.com/skyline-chili-52ef6b2e1986", "opening_hours": "Mo-Sa 10:30-21:00; Su 11:00-21:00", "brand": "Skyline Chili", "brand:wikidata": "Q151224", "nsi_id": "skylinechili-96af40"}, "geometry": {"type": "Point", "coordinates": [-85.9950972, 39.7729479]}},
{"type": "Feature", "id": "SnGx4DnUuTvo9AVLP21w3WVsq64=", "properties": {"ref": "270", "@spider": "skyline_chili", "amenity": "restaurant", "cuisine": "chili", "takeaway": "yes", "addr:full": "1730 Dixie Highway", "addr:city": "Ft. Wright", "addr:state": "KY", "addr:postcode": "41011", "name": "Skyline Chili", "phone": "+18593318352", "website": "https://locations.skylinechili.com/skyline-chili-4d7336070e74", "opening_hours": "Mo-Sa 10:30-22:00; Su 11:00-21:00", "brand": "Skyline Chili", "brand:wikidata": "Q151224", "nsi_id": "skylinechili-96af40"}, "geometry": {"type": "Point", "coordinates": [-84.54000145196909, 39.06239478506182]}},
{"type": "Feature", "id": "taHDA3zYkOc9oPQAELYMvL7kFwo=", "properties": {"ref": "233", "@spider": "skyline_chili", "amenity": "restaurant", "cuisine": "chili", "takeaway": "yes", "addr:full": "643 Vine Street", "addr:city": "Cincinnati", "addr:state": "OH", "addr:postcode": "45202", "name": "Skyline Chili", "phone": "+15132412020", "website": "https://locations.skylinechili.com/skyline-chili-4828bd593334", "opening_hours": "Mo-Fr 10:30-17:00; Sa 11:00-14:00", "brand": "Skyline Chili", "brand:wikidata": "Q151224", "nsi_id": "skylinechili-96af40"}, "geometry": {"type": "Point", "coordinates": [-84.51368136482586, 39.10344690621715]}},
{"type": "Feature", "id": "8Pu62yWB4lWSEaZbrhDiMenUwn4=", "properties": {"ref": "221", "@spider": "skyline_chili", "amenity": "restaurant", "cuisine": "chili", "takeaway": "yes", "addr:full": "9907 Springfield Pike", "addr:city": "Woodlawn", "addr:state": "OH", "addr:postcode": "45215", "name": "Skyline Chili", "phone": "+15137723060", "website": "https://locations.skylinechili.com/skyline-chili-5277c30b84a1", "opening_hours": "Mo-Th 10:00-21:30; Fr-Sa 10:00-22:30; Su 10:00-21:30", "brand": "Skyline Chili", "brand:wikidata": "Q151224", "nsi_id": "skylinechili-96af40"}, "geometry": {"type": "Point", "coordinates": [-84.4714629650116, 39.24504484973956]}},
{"type": "Feature", "id": "nnGY21tIfTcelHw2HNbrQhNe43E=", "properties": {"ref": "177", "@spider": "skyline_chili", "amenity": "restaurant", "cuisine": "chili", "takeaway": "yes", "addr:full": "96 Blackburn Lane", "addr:city": "Dry Ridge", "addr:state": "KY", "addr:postcode": "41035", "name": "Skyline Chili", "phone": "+18598243929", "website": "https://locations.skylinechili.com/skyline-chili-4e6a1110ad4f", "opening_hours": "Mo-Th 08:00-22:00; Fr-Sa 08:00-23:00; Su 08:00-22:00", "brand": "Skyline Chili", "brand:wikidata": "Q151224", "nsi_id": "skylinechili-96af40"}, "geometry": {"type": "Point", "coordinates": [-84.60036188364029, 38.685350638518614]}},
{"type": "Feature", "id": "I1_rn2pCZ9gJM8YE-RD7odAZR3E=", "properties": {"ref": "235", "@spider": "skyline_chili", "amenity": "restaurant", "cuisine": "chili", "takeaway": "yes", "addr:full": "7105 Dixie Highway", "addr:city": "Fairfield", "addr:state": "OH", "addr:postcode": "45014", "name": "Skyline Chili", "phone": "+15138746166", "website": "https://locations.skylinechili.com/skyline-chili-373c3defd96a", "opening_hours": "Mo-Sa 10:30-21:00; Su 11:00-21:00", "brand": "Skyline Chili", "brand:wikidata": "Q151224", "nsi_id": "skylinechili-96af40"}, "geometry": {"type": "Point", "coordinates": [-84.48831796646124, 39.31371452909934]}},
{"type": "Feature", "id": "gz9ZERQ34HgSzlyAvDeeUZyr4FA=", "properties": {"ref": "288", "@spider": "skyline_chili", "amenity": "restaurant", "cuisine": "chili", "takeaway": "yes", "addr:full": "101 Cooper Road", "addr:city": "Cleves", "addr:state": "OH", "addr:postcode": "45002", "name": "Skyline Chili", "phone": "+15134679333", "website": "https://locations.skylinechili.com/skyline-chili-4d2880f64b4b", "opening_hours": "Mo-Th 10:00-22:00; Fr-Sa 10:00-23:00; Su 10:00-22:00", "brand": "Skyline Chili", "brand:wikidata": "Q151224", "nsi_id": "skylinechili-96af40"}, "geometry": {"type": "Point", "coordinates": [-84.753225, 39.168707]}},
{"type": "Feature", "id": "W6A2JGTSWtrB4Bfw9GdUg88ePOU=", "properties": {"ref": "268", "@spider": "skyline_chili", "amenity": "restaurant", "cuisine": "chili", "takeaway": "yes", "addr:full": "5476 Glenway Avenue", "addr:city": "Cincinnati", "addr:state": "OH", "addr:postcode": "45238", "name": "Skyline Chili", "phone": "+15134513355", "website": "https://locations.skylinechili.com/skyline-chili-46e6891f6b66", "opening_hours": "Mo-We 10:00-23:00; Th 10:00-24:00; Fr 10:00-01:00; Sa 10:00-24:00; Su 11:00-23:00", "brand": "Skyline Chili", "brand:wikidata": "Q151224", "nsi_id": "skylinechili-96af40"}, "geometry": {"type": "Point", "coordinates": [-84.60745498538017, 39.13053878561212]}},
{"type": "Feature", "id": "W3C6LYtOPJzdRFPkvWidX5a6yGI=", "properties": {"ref": "301", "@spider": "skyline_chili", "amenity": "restaurant", "cuisine": "chili", "takeaway": "yes", "addr:full": "217 South Progress Drive", "addr:city": "Xenia", "addr:state": "OH", "addr:postcode": "45385", "name": "Skyline Chili", "phone": "+19377088460", "website": "https://locations.skylinechili.com/skyline-chili-44a86c806881", "opening_hours": "Mo-Sa 10:30-22:00; Su 11:00-22:00", "brand": "Skyline Chili", "brand:wikidata": "Q151224", "nsi_id": "skylinechili-96af40"}, "geometry": {"type": "Point", "coordinates": [-83.9642557, 39.685205]}},
{"type": "Feature", "id": "BN-P8pfvbUwWecF5b7Zqle7nneM=", "properties": {"ref": "174", "@spider": "skyline_chili", "amenity": "restaurant", "cuisine": "chili", "takeaway": "yes", "addr:full": "7668 Sawmill Road", "addr:city": "Dublin", "addr:state": "OH", "addr:postcode": "43016", "name": "Skyline Chili", "phone": "+16147667399", "website": "https://locations.skylinechili.com/skyline-chili-406d832aa069", "opening_hours": "Mo-Sa 10:30-22:00; Su 10:30-21:00", "brand": "Skyline Chili", "brand:wikidata": "Q151224", "nsi_id": "skylinechili-96af40"}, "geometry": {"type": "Point", "coordinates": [-83.0880265, 40.1224557]}},
{"type": "Feature", "id": "5CkcvIN8DSP3QsRpR-YGfObbEsQ=", "properties": {"ref": "238", "@spider": "skyline_chili", "amenity": "restaurant", "cuisine": "chili", "takeaway": "yes", "addr:full": "3714 Warsaw Avenue", "addr:city": "Cincinnati", "addr:state": "OH", "addr:postcode": "45205", "name": "Skyline Chili", "phone": "+15134712445", "website": "https://locations.skylinechili.com/skyline-chili-42eb0cdad531", "opening_hours": "Mo-Sa 10:00-22:00; Su 11:00-22:00", "brand": "Skyline Chili", "brand:wikidata": "Q151224", "nsi_id": "skylinechili-96af40"}, "geometry": {"type": "Point", "coordinates": [-84.57395687699318, 39.11233415784241]}},
{"type": "Feature", "id": "PLBdwSpT4c2Uo7kBYOCwTfkz888=", "properties": {"ref": "290", "@spider": "skyline_chili", "amenity": "restaurant", "cuisine": "chili", "takeaway": "yes", "addr:full": "85 East Kemper Road", "addr:city": "Cincinnati", "addr:state": "OH", "addr:postcode": "45246", "name": "Skyline Chili", "phone": "+15136714444", "website": "https://locations.skylinechili.com/skyline-chili-3e7ae9afc1c7", "opening_hours": "Mo-Th 10:30-21:00; Fr-Sa 10:30-22:00; Su 10:30-21:00", "brand": "Skyline Chili", "brand:wikidata": "Q151224", "nsi_id": "skylinechili-96af40"}, "geometry": {"type": "Point", "coordinates": [-84.46577615571869, 39.287406978215415]}},
{"type": "Feature", "id": "uSXww7uoWgmlLHpVVypHVNwu0aY=", "properties": {"ref": "243", "@spider": "skyline_chili", "amenity": "restaurant", "cuisine": "chili", "takeaway": "yes", "addr:full": "1705 West Galbraith Road", "addr:city": "North College Hill", "addr:state": "OH", "addr:postcode": "45239", "name": "Skyline Chili", "phone": "+15137292200", "website": "https://locations.skylinechili.com/skyline-chili-32def8104a90", "opening_hours": "Mo-Th 10:30-22:00; Fr 10:30-23:00; Sa 10:30-22:00; Su 11:00-21:00", "brand": "Skyline Chili", "brand:wikidata": "Q151224", "nsi_id": "skylinechili-96af40"}, "geometry": {"type": "Point", "coordinates": [-84.55202847719193, 39.21770214123039]}},
{"type": "Feature", "id": "n-CFGBroFbQqhnBHOJ_lSrif0F4=", "properties": {"ref": "247", "@spider": "skyline_chili", "amenity": "restaurant", "cuisine": "chili", "takeaway": "yes", "addr:full": "110 North Point Drive", "addr:city": "Mt. Orab", "addr:state": "OH", "addr:postcode": "45154", "name": "Skyline Chili", "phone": "+19374440203", "website": "https://locations.skylinechili.com/skyline-chili-322e8b98aed0", "opening_hours": "Mo-Sa 10:30-22:00; Su 11:00-22:00", "brand": "Skyline Chili", "brand:wikidata": "Q151224", "nsi_id": "skylinechili-96af40"}, "geometry": {"type": "Point", "coordinates": [-83.92225250601768, 39.04400798849742]}},
{"type": "Feature", "id": "UfOmMv9D3tg9OGSEs6zhIt12FFg=", "properties": {"ref": "236", "@spider": "skyline_chili", "amenity": "restaurant", "cuisine": "chili", "takeaway": "yes", "addr:full": "339 Richwood Road", "addr:city": "Walton", "addr:state": "KY", "addr:postcode": "41094", "name": "Skyline Chili", "phone": "+18594853929", "website": "https://locations.skylinechili.com/skyline-chili-3a90231556c0", "opening_hours": "Mo-Th 10:00-22:00; Fr-Sa 10:00-23:00; Su 10:00-22:00", "brand": "Skyline Chili", "brand:wikidata": "Q151224", "nsi_id": "skylinechili-96af40"}, "geometry": {"type": "Point", "coordinates": [-84.63352337479591, 38.91486589247776]}},
{"type": "Feature", "id": "X5am6hFqKOOGqb8PvKo17oYAtWY=", "properties": {"ref": "164", "@spider": "skyline_chili", "amenity": "restaurant", "cuisine": "chili", "takeaway": "yes", "addr:full": "2850 Richmond Road", "addr:city": "Lexington", "addr:state": "KY", "addr:postcode": "40509", "name": "Skyline Chili", "phone": "+18593093929", "website": "https://locations.skylinechili.com/skyline-chili-3c79bb22b285", "opening_hours": "Mo-Th 10:00-22:00; Fr-Sa 10:00-23:00; Su 10:00-22:00", "brand": "Skyline Chili", "brand:wikidata": "Q151224", "nsi_id": "skylinechili-96af40"}, "geometry": {"type": "Point", "coordinates": [-84.4531478, 38.0072326]}},
{"type": "Feature", "id": "FKXgeDYt8ELwnbZ_2gpw2EZpRpk=", "properties": {"ref": "232", "@spider": "skyline_chili", "amenity": "restaurant", "cuisine": "chili", "takeaway": "yes", "addr:full": "2511 East Sharon Road", "addr:city": "Cincinnati", "addr:state": "OH", "addr:postcode": "45241", "name": "Skyline Chili", "phone": "+15137716237", "website": "https://locations.skylinechili.com/skyline-chili-0393b6b12865", "opening_hours": "Mo-Sa 10:00-21:00; Su 11:00-21:00", "brand": "Skyline Chili", "brand:wikidata": "Q151224", "nsi_id": "skylinechili-96af40"}, "geometry": {"type": "Point", "coordinates": [-84.43408772349358, 39.26922378852256]}}]}