{"type":"FeatureCollection","features":[{"type": "Feature", "id": "U9PH0GHpdzpXpslo8K_hcOCvNys=", "properties": {"ref": "1026", "@spider": "smashburger", "amenity": "fast_food", "cuisine": "burger", "takeaway": "yes", "addr:street_address": "832 E. 120th Ave.,", "addr:city": "Northglenn", "addr:state": "CO", "addr:postcode": "80241", "name": "Your Neighborhood Smashburger", "phone": "13032435556", "website": "https://smashburger.com/locations/us/co/northglenn/832-east-120th-ave/", "opening_hours": "Mo-Th 10:30-21:30; Fr-Sa 10:30-22:00; Su 10:30-21:30", "image": "https://smashburger.com/wp-content/uploads/2021/03/SB_hori_logo_Lt_NoTag_TM_RGB_XL.png", "brand": "Smashburger", "brand:wikidata": "Q17061332", "nsi_id": "smashburger-d2abf0"}, "geometry": {"type": "Point", "coordinates": [-104.9763552, 39.9139484]}},
{"type": "Feature", "id": "BTtTUsJb3y0wYUQaDJWocli0d68=", "properties": {"ref": "1022", "@spider": "smashburger", "amenity": "fast_food", "cuisine": "burger", "takeaway": "yes", "addr:street_address": "1028 East 2100 South,Suite 2", "addr:city": "Salt Lake City", "addr:state": "UT", "addr:postcode": "84106", "name": "Your Neighborhood Smashburger", "phone": "18014780158", "website": "https://smashburger.com/locations/us/ut/salt-lake-city/1028-east-2100-south/", "opening_hours": "Mo-Th 10:00-22:00; Fr-Sa 10:00-23:00; Su 10:00-22:00", "image": "https://smashburger.com/wp-content/uploads/2021/03/SB_hori_logo_Lt_NoTag_TM_RGB_XL.png", "brand": "Smashburger", "brand:wikidata": "Q17061332", "nsi_id": "smashburger-d2abf0"}, "geometry": {"type": "Point", "coordinates": [-111.8616047, 40.7253876]}},
{"type": "Feature", "id": "JDzV_NgEodU_pVSxvVNp7CnM3J8=", "properties": {"ref": "1019", "@spider": "smashburger", "amenity": "fast_food", "cuisine": "burger", "takeaway": "yes", "addr:street_address": "7392 Olympia Ave.,", "addr:city": "Tulsa", "addr:state": "OK", "addr:postcode": "74132", "name": "Your Neighborhood Smashburger", "phone": "15397772082", "website": "https://smashburger.com/locations/us/ok/tulsa/7392-olympia-ave/", "opening_hours": "Mo-Su 10:00-21:30", "image": "https://smashburger.com/wp-content/uploads/2021/03/SB_hori_logo_Lt_NoTag_TM_RGB_XL.png", "brand": "Smashburger", "brand:wikidata": "Q17061332", "nsi_id": "smashburger-d2abf0"}, "geometry": {"type": "Point", "coordinates": [-96.003588, 36.0567361]}},
{"type": "Feature", "id": "1BTMX7Hr-VCOS1C13AdZXey0_wU=", "properties": {"ref": "1017", "@spider": "smashburger", "amenity": "fast_food", "cuisine": "burger", "takeaway": "yes", "addr:street_address": "265 Dillon Ridge,Suite  B", "addr:city": "Dillon", "addr:state": "CO", "addr:postcode": "80435", "name": "Your Neighborhood Smashburger", "phone": "19704687800", "website": "https://smashburger.com/locations/us/co/dillon/265-dillon-ridge/", "opening_hours": "Mo-Su 10:30-21:30", "image": "https://smashburger.com/wp-content/uploads/2021/03/SB_hori_logo_Lt_NoTag_TM_RGB_XL.png", "brand": "Smashburger", "brand:wikidata": "Q17061332", "nsi_id": "smashburger-d2abf0"}, "geometry": {"type": "Point", "coordinates": [-106.059692, 39.629882]}},
{"type": "Feature", "id": "DYsSWApomFnaEZo6rEmoy8MJ5gw=", "properties": {"ref": "1013", "@spider": "smashburger", "amenity": "fast_food", "cuisine": "burger", "takeaway": "yes", "addr:street_address": "1635 Eldridge Pkwy.,Suite 100", "addr:city": "Houston", "addr:state": "TX", "addr:postcode": "77077", "name": "Your Neighborhood Smashburger", "phone": "12818104071", "website": "https://smashburger.com/locations/us/tx/houston/1635-eldridge-parkway/", "opening_hours": "Mo-Th 10:30-21:30; Fr-Sa 10:30-22:00; Su 10:30-21:30", "image": "https://smashburger.com/wp-content/uploads/2021/03/SB_hori_logo_Lt_NoTag_TM_RGB_XL.png", "brand": "Smashburger", "brand:wikidata": "Q17061332", "nsi_id": "smashburger-d2abf0"}, "geometry": {"type": "Point", "coordinates": [-95.6251763, 29.7536406]}},
{"type": "Feature", "id": "mUhvoyM1wsn5OevAWx3IaX3b3hk=", "properties": {"ref": "1011", "@spider": "smashburger", "amenity": "fast_food", "cuisine": "burger", "takeaway": "yes", "addr:street_address": "5320 N. Nevada Ave.,Suite 100", "addr:city": "Colorado Springs", "addr:state": "CO", "addr:postcode": "80918", "name": "Your Neighborhood Smashburger", "phone": "17192190500", "website": "https://smashburger.com/locations/us/co/colorado-springs/5320-n-nevada-ave/", "opening_hours": "Mo-Th 10:30-21:30; Fr-Sa 10:30-22:00; Su 10:30-21:30", "image": "https://smashburger.com/wp-content/uploads/2021/03/SB_hori_logo_Lt_NoTag_TM_RGB_XL.png", "brand": "Smashburger", "brand:wikidata": "Q17061332", "nsi_id": "smashburger-d2abf0"}, "geometry": {"type": "Point", "coordinates": [-104.8168096, 38.9070561]}},
{"type": "Feature", "id": "2OjWIcdpHuwEMKSdaLrooBsS9Bc=", "properties": {"ref": "1009", "@spider": "smashburger", "amenity": "fast_food", "cuisine": "burger", "takeaway": "yes", "addr:street_address": "7305 E. 35th Ave.,Suite 165", "addr:city": "Denver", "addr:state": "CO", "addr:postcode": "80207", "name": "Your Neighborhood Smashburger", "phone": "13035868300", "website": "https://smashburger.com/locations/us/co/denver/7305-e-35th-avenue/", "opening_hours": "Mo-Su 10:00-22:00", "image": "https://smashburger.com/wp-content/uploads/2021/03/SB_hori_logo_Lt_NoTag_TM_RGB_XL.png", "brand": "Smashburger", "brand:wikidata": "Q17061332", "nsi_id": "smashburger-d2abf0"}, "geometry": {"type": "Point", "coordinates": [-104.902051, 39.7658527]}},
{"type": "Feature", "id": "o4g_WycCno16quuMY1qZspFrfxg=", "properties": {"ref": "1008", "@spider": "smashburger", "amenity": "fast_food", "cuisine": "burger", "takeaway": "yes", "addr:street_address": "7811 Main St.,", "addr:city": "Houston", "addr:state": "TX", "addr:postcode": "77030", "name": "Your Neighborhood Smashburger", "phone": "17134914526", "website": "https://smashburger.com/locations/us/tx/houston/7811-s-main-street/", "opening_hours": "Mo-Th 10:30-21:30; Fr-Sa 10:30-23:00; Su 10:30-21:30", "image": "https://smashburger.com/wp-content/uploads/2021/03/SB_hori_logo_Lt_NoTag_TM_RGB_XL.png", "brand": "Smashburger", "brand:wikidata": "Q17061332", "nsi_id": "smashburger-d2abf0"}, "geometry": {"type": "Point", "coordinates": [-95.4136014, 29.6946458]}},
{"type": "Feature", "id": "ohCb4TRP0LdO45aqDKcmWSY78Fs=", "properties": {"ref": "1006", "@spider": "smashburger", "amenity": "fast_food", "cuisine": "burger", "takeaway": "yes", "addr:street_address": "2550 E. Harmony Rd.,Suite 100", "addr:city": "Fort Collins", "addr:state": "CO", "addr:postcode": "80528", "name": "Your Neighborhood Smashburger", "phone": "19707443700", "website": "https://smashburger.com/locations/us/co/fort-collins/2550-e-harmony-rd/", "opening_hours": "Mo-Th 10:30-21:30; Fr-Sa 10:30-22:00; Su 10:30-21:30", "image": "https://smashburger.com/wp-content/uploads/2021/03/SB_hori_logo_Lt_NoTag_TM_RGB_XL.png", "brand": "Smashburger", "brand:wikidata": "Q17061332", "nsi_id": "smashburger-d2abf0"}, "geometry": {"type": "Point", "coordinates": [-105.0306873, 40.5237485]}},
{"type": "Feature", "id": "bmj7jkfDvsoFgVFZu6MokhBAqFM=", "properties": {"ref": "1003", "@spider": "smashburger", "amenity": "fast_food", "cuisine": "burger", "takeaway": "yes", "addr:street_address": "3356 Youngfield St.,", "addr:city": "Wheatridge", "addr:state": "CO", "addr:postcode": "80033", "name": "Your Neighborhood Smashburger", "phone": "13032332234", "website": "https://smashburger.com/locations/us/co/wheatridge/3356-youngfield-st/", "opening_hours": "Mo-Th 10:30-21:30; Fr-Sa 10:30-22:00; Su 10:30-21:30", "image": "https://smashburger.com/wp-content/uploads/2021/03/SB_hori_logo_Lt_NoTag_TM_RGB_XL.png", "brand": "Smashburger", "brand:wikidata": "Q17061332", "nsi_id": "smashburger-d2abf0"}, "geometry": {"type": "Point", "coordinates": [-105.1420197, 39.7639387]}},
{"type": "Feature", "id": "DREEiY9CYOLxpAwTBj2omS_HbBg=", "properties": {"ref": "1002", "@spider": "smashburger", "amenity": "fast_food", "cuisine": "burger", "takeaway": "yes", "addr:street_address": "1120 S. Colorado Blvd.,", "addr:city": "Glendale", "addr:state": "CO", "addr:postcode": "80246", "name": "Your Neighborhood Smashburger", "phone": "13037574301", "website": "https://smashburger.com/locations/us/co/glendale/1120-s-colorado-blvd/", "opening_hours": "Mo-Su 10:30-22:00", "image": "https://smashburger.com/wp-content/uploads/2021/03/SB_hori_logo_Lt_NoTag_TM_RGB_XL.png", "brand": "Smashburger", "brand:wikidata": "Q17061332", "nsi_id": "smashburger-d2abf0"}, "geometry": {"type": "Point", "coordinates": [-104.9396249, 39.6960375]}},
{"type": "Feature", "id": "u0UopvQohBjJGemHBxJzf8GYDDs=", "properties": {"ref": "1031", "@spider": "smashburger", "amenity": "fast_food", "cuisine": "burger", "takeaway": "yes", "addr:street_address": "1201 16th St.,Space 106", "addr:city": "Denver", "addr:state": "CO", "addr:postcode": "80202", "name": "Your Neighborhood Smashburger", "phone": "17202925121", "website": "https://smashburger.com/locations/us/co/denver/1201-16th-st/", "opening_hours": "Mo-Th 10:30-21:00; Fr-Sa 10:30-22:00; Su 10:30-21:00", "image": "https://smashburger.com/wp-content/uploads/2021/03/SB_hori_logo_Lt_NoTag_TM_RGB_XL.png", "brand": "Smashburger", "brand:wikidata": "Q17061332", "nsi_id": "smashburger-d2abf0"}, "geometry": {"type": "Point", "coordinates": [-104.9960917, 39.7484512]}},
{"type": "Feature", "id": "a_iYU44TFXZ5a-zrrky4Tb1Gk-s=", "properties": {"ref": "1030", "@spider": "smashburger", "amenity": "fast_food", "cuisine": "burger", "takeaway": "yes", "addr:street_address": "2100 North Snelling Ave.,Suite  65A", "addr:city": "Roseville", "addr:state": "MN", "addr:postcode": "55113", "name": "Your Neighborhood Smashburger", "phone": "16512510753", "website": "https://smashburger.com/locations/us/mn/roseville/2100-north-snelling-ave/", "opening_hours": "Mo-Th 10:30-21:30; Fr-Sa 10:30-22:00; Su 10:30-21:30", "image": "https://smashburger.com/wp-content/uploads/2021/03/SB_hori_logo_Lt_NoTag_TM_RGB_XL.png", "brand": "Smashburger", "brand:wikidata": "Q17061332", "nsi_id": "smashburger-d2abf0"}, "geometry": {"type": "Point", "coordinates": [-93.1663504, 45.0043861]}},
{"type": "Feature", "id": "BbuJKvmgn_u3SU0ECpsE2uTCgv0=", "properties": {"ref": "1058", "@spider": "smashburger", "amenity": "fast_food", "cuisine": "burger", "takeaway": "yes", "addr:street_address": "8247 W. Franklin Rd.,", "addr:city": "Boise", "addr:state": "ID", "addr:postcode": "83709", "name": "Your Neighborhood Smashburger", "phone": "12083190090", "website": "https://smashburger.com/locations/us/id/boise/8247-west-franklin-road/", "opening_hours": "Mo-Th 10:30-21:30; Fr-Sa 10:30-22:00; Su 11:00-21:00", "image": "https://smashburger.com/wp-content/uploads/2021/03/SB_hori_logo_Lt_NoTag_TM_RGB_XL.png", "brand": "Smashburger", "brand:wikidata": "Q17061332", "nsi_id": "smashburger-d2abf0"}, "geometry": {"type": "Point", "coordinates": [-116.2847466, 43.6046023]}},
{"type": "Feature", "id": "tGShyc--vKvDxskD3SlVcVAK8Sk=", "properties": {"ref": "1049", "@spider": "smashburger", "amenity": "fast_food", "cuisine": "burger", "takeaway": "yes", "addr:street_address": "2623 Town Center Blvd.,Building G", "addr:city": "Sugar Land", "addr:state": "TX", "addr:postcode": "77479", "name": "Your Neighborhood Smashburger", "phone": "12814910380", "website": "https://smashburger.com/locations/us/tx/sugar-land/2623-town-center-blvd/", "opening_hours": "Mo-Su 10:30-22:00", "image": "https://smashburger.com/wp-content/uploads/2021/03/SB_hori_logo_Lt_NoTag_TM_RGB_XL.png", "brand": "Smashburger", "brand:wikidata": "Q17061332", "nsi_id": "smashburger-d2abf0"}, "geometry": {"type": "Point", "coordinates": [-95.620589, 29.594663]}},
{"type": "Feature", "id": "Yj66lz4l09gCl_MR_aVXUahjLRU=", "properties": {"ref": "1046", "@spider": "smashburger", "amenity": "fast_food", "cuisine": "burger", "takeaway": "yes", "addr:street_address": "1821 22nd St.,Suite 106", "addr:city": "West Des Moines", "addr:state": "IA", "addr:postcode": "50266", "name": "Your Neighborhood Smashburger", "phone": "15156616666", "website": "https://smashburger.com/locations/us/ia/west-des-moines/1821-22nd-street/", "opening_hours": "Mo-Su 11:00-22:00", "image": "https://smashburger.com/wp-content/uploads/2021/03/SB_hori_logo_Lt_NoTag_TM_RGB_XL.png", "brand": "Smashburger", "brand:wikidata": "Q17061332", "nsi_id": "smashburger-d2abf0"}, "geometry": {"type": "Point", "coordinates": [-93.73534, 41.59985]}},
{"type": "Feature", "id": "CwMQ8f0i7Sbc2kA0oyYny6yZKHg=", "properties": {"ref": "1390", "@spider": "smashburger", "amenity": "fast_food", "cuisine": "burger", "takeaway": "yes", "addr:street_address": "3700 North Thanksgiving Way,Suite  #C", "addr:city": "Lehi", "addr:state": "UT", "addr:postcode": "84043", "name": "Your Neighborhood Smashburger", "phone": "13853453717", "website": "https://smashburger.com/locations/us/ut/lehi/3700-north-thanksgiving-way/", "opening_hours": "Mo-Th 10:00-21:30; Fr-Sa 10:00-22:00; Su 10:00-21:00", "image": "https://smashburger.com/wp-content/uploads/2021/03/SB_hori_logo_Lt_NoTag_TM_RGB_XL.png", "brand": "Smashburger", "brand:wikidata": "Q17061332", "nsi_id": "smashburger-d2abf0"}, "geometry": {"type": "Point", "coordinates": [-111.894616, 40.4336768]}},
{"type": "Feature", "id": "l_T97kb7sJ8atBjtcIBVanKdlSM=", "properties": {"ref": "1753", "@spider": "smashburger", "amenity": "fast_food", "cuisine": "burger", "takeaway": "yes", "addr:street_address": "5302 DTC Blvd.,#500", "addr:city": "Greenwood Village", "addr:state": "CO", "addr:postcode": "80111", "name": "Your Neighborhood Smashburger", "phone": "13038724133", "website": "https://smashburger.com/locations/us/co/greenwood-village/5302-dtc-blvd/", "opening_hours": "Mo-Su 10:00-21:00", "image": "https://smashburger.com/wp-content/uploads/2021/03/SB_hori_logo_Lt_NoTag_TM_RGB_XL.png", "brand": "Smashburger", "brand:wikidata": "Q17061332", "nsi_id": "smashburger-d2abf0"}, "geometry": {"type": "Point", "coordinates": [-104.8911167, 39.6195877]}},
{"type": "Feature", "id": "jp9mBsjYJtgQkKXLtJ3Xj--GC5s=", "properties": {"ref": "1001", "@spider": "smashburger", "amenity": "fast_food", "cuisine": "burger", "takeaway": "yes", "addr:street_address": "2755 Dagny Way,", "addr:city": "Lafayette", "addr:state": "CO", "addr:postcode": "80026", "name": "Your Neighborhood Smashburger", "phone": "13039269700", "website": "https://smashburger.com/locations/us/co/lafayette/2755-dagny-way/", "opening_hours": "Mo-Th 10:30-21:30; Fr-Sa 10:30-22:00; Su 10:30-21:30", "image": "https://smashburger.com/wp-content/uploads/2021/03/SB_hori_logo_Lt_NoTag_TM_RGB_XL.png", "brand": "Smashburger", "brand:wikidata": "Q17061332", "nsi_id": "smashburger-d2abf0"}, "geometry": {"type": "Point", "coordinates": [-105.131562, 40.013185]}},
{"type": "Feature", "id": "ZWRwQGw6g99RTGqVgsUYJSgbH4Y=", "properties": {"ref": "1016", "@spider": "smashburger", "amenity": "fast_food", "cuisine": "burger", "takeaway": "yes", "addr:street_address": "1650 28th St.,Space 1226", "addr:city": "Boulder", "addr:state": "CO", "addr:postcode": "80301", "name": "Your Neighborhood Smashburger", "phone": "13036564694", "website": "https://smashburger.com/locations/us/co/boulder/1650-28th-street/", "opening_hours": "Mo-Th 10:30-21:30; Fr-Sa 10:30-22:00; Su 10:30-21:30", "image": "https://smashburger.com/wp-content/uploads/2021/03/SB_hori_logo_Lt_NoTag_TM_RGB_XL.png", "brand": "Smashburger", "brand:wikidata": "Q17061332", "nsi_id": "smashburger-d2abf0"}, "geometry": {"type": "Point", "coordinates": [-105.25791, 40.01657]}},
{"type": "Feature", "id": "gaxMZsS4vFS4uYcrOMnkdk8AMuo=", "properties": {"ref": "1769", "@spider": "smashburger", "amenity": "fast_food", "cuisine": "burger", "takeaway": "yes", "addr:street_address": "1634 S. Nevada Ave.,", "addr:city": "Colorado Springs", "addr:state": "CO", "addr:postcode": "80905", "name": "Your Neighborhood Smashburger", "phone": "17194348320", "website": "https://smashburger.com/locations/us/co/colorado-springs/1634-s-nevada-ave/", "opening_hours": "Mo-Su 10:30-22:00", "image": "https://smashburger.com/wp-content/uploads/2021/03/SB_hori_logo_Lt_NoTag_TM_RGB_XL.png", "brand": "Smashburger", "brand:wikidata": "Q17061332", "nsi_id": "smashburger-d2abf0"}, "geometry": {"type": "Point", "coordinates": [-104.8232479, 38.8101163]}},
{"type": "Feature", "id": "n9NlejoZ4JnAZwruLUaQ_x0_rNI=", "properties": {"ref": "1768", "@spider": "smashburger", "amenity": "fast_food", "cuisine": "burger", "takeaway": "yes", "addr:street_address": "9290 Highland Ridge Heights,#100", "addr:city": "Colorado Springs", "addr:state": "CO", "addr:postcode": "80920", "name": "Your Neighborhood Smashburger", "phone": "17193085657", "website": "https://smashburger.com/locations/us/co/colorado-springs/9290-highland-ridge-heights/", "opening_hours": "Mo-Th 10:30-21:00; Fr-Sa 10:30-22:00; Su 10:30-21:00", "image": "https://smashburger.com/wp-content/uploads/2021/03/SB_hori_logo_Lt_NoTag_TM_RGB_XL.png", "brand": "Smashburger", "brand:wikidata": "Q17061332", "nsi_id": "smashburger-d2abf0"}, "geometry": {"type": "Point", "coordinates": [-104.7892309, 38.9651857]}},
{"type": "Feature", "id": "wUE3h_OeliqkDK8pgjXpAKp7h4o=", "properties": {"ref": "1767", "@spider": "smashburger", "amenity": "fast_food", "cuisine": "burger", "takeaway": "yes", "addr:street_address": "4035 S. Dale Mabry Hwy.,", "addr:city": "Tampa", "addr:state": "FL", "addr:postcode": "33611", "name": "Your Neighborhood Smashburger", "phone": "18133746755", "website": "https://smashburger.com/locations/us/fl/tampa/4035-s-dale-mabry-highway/", "opening_hours": "Mo-Th 11:00-21:00; Fr-Sa 11:00-22:00; Su 11:00-21:00", "image": "https://smashburger.com/wp-content/uploads/2021/03/SB_hori_logo_Lt_NoTag_TM_RGB_XL.png", "brand": "Smashburger", "brand:wikidata": "Q17061332", "nsi_id": "smashburger-d2abf0"}, "geometry": {"type": "Point", "coordinates": [-82.506249, 27.9048021]}},
{"type": "Feature", "id": "D7c7y8LAe7l3G4nTgEH48lJqiCU=", "properties": {"ref": "1755", "@spider": "smashburger", "amenity": "fast_food", "cuisine": "burger", "takeaway": "yes", "addr:street_address": "1600 Ethan Way,#80", "addr:city": "Sacramento", "addr:state": "CA", "addr:postcode": "95825", "name": "Your Neighborhood Smashburger", "phone": "19169991660", "website": "https://smashburger.com/locations/us/ca/sacramento/1600-ethan-way/", "opening_hours": "Mo-Th 09:30-21:30; Fr-Sa 09:30-22:00; Su 09:30-21:30", "image": "https://smashburger.com/wp-content/uploads/2021/03/SB_hori_logo_Lt_NoTag_TM_RGB_XL.png", "brand": "Smashburger", "brand:wikidata": "Q17061332", "nsi_id": "smashburger-d2abf0"}, "geometry": {"type": "Point", "coordinates": [-121.4185586, 38.5952021]}},
{"type": "Feature", "id": "oTY2STYtr_11r7RiUH3Z6X5-Nxs=", "properties": {"ref": "1754", "@spider": "smashburger", "amenity": "fast_food", "cuisine": "burger", "takeaway": "yes", "addr:street_address": "1541 Blue Oaks Blvd.,#120/130", "addr:city": "Roseville", "addr:state": "CA", "addr:postcode": "95747", "name": "Your Neighborhood Smashburger", "phone": "19169452888", "website": "https://smashburger.com/locations/us/ca/roseville/1541-blue-oaks-blvd/", "opening_hours": "Mo-Th 10:30-21:00; Fr-Sa 10:30-22:00; Su 10:30-21:00", "image": "https://smashburger.com/wp-content/uploads/2021/03/SB_hori_logo_Lt_NoTag_TM_RGB_XL.png", "brand": "Smashburger", "brand:wikidata": "Q17061332", "nsi_id": "smashburger-d2abf0"}, "geometry": {"type": "Point", "coordinates": [-121.3308885, 38.7952576]}},
{"type": "Feature", "id": "b5amsm9kKt1ElnYYqqlfxFE_Qio=", "properties": {"ref": "1750", "@spider": "smashburger", "amenity": "fast_food", "cuisine": "burger", "takeaway": "yes", "addr:street_address": "200 Quebec St.,Bldg 100 Unit 115", "addr:city": "Denver", "addr:state": "CO", "addr:postcode": "80230", "name": "Your Neighborhood Smashburger", "phone": "17208656700", "website": "https://smashburger.com/locations/us/co/denver/200-quebec-st/", "opening_hours": "Mo-Su 10:30-22:00", "image": "https://smashburger.com/wp-content/uploads/2021/03/SB_hori_logo_Lt_NoTag_TM_RGB_XL.png", "brand": "Smashburger", "brand:wikidata": "Q17061332", "nsi_id": "smashburger-d2abf0"}, "geometry": {"type": "Point", "coordinates": [-104.9033537, 39.7199789]}},
{"type": "Feature", "id": "urJl1gz45lgzXsHoTUgNcVQH5ts=", "properties": {"ref": "1749", "@spider": "smashburger", "amenity": "fast_food", "cuisine": "burger", "takeaway": "yes", "addr:street_address": "2736 Showplace Dr.,#100", "addr:city": "Naperville", "addr:state": "IL", "addr:postcode": "60564", "name": "Your Neighborhood Smashburger", "phone": "16308645119", "website": "https://smashburger.com/locations/us/il/naperville/2736-showplace-dr/", "opening_hours": "Mo-Th 10:30-21:00; Fr-Sa 10:30-22:00; Su 10:30-21:00", "image": "https://smashburger.com/wp-content/uploads/2021/03/SB_hori_logo_Lt_NoTag_TM_RGB_XL.png", "brand": "Smashburger", "brand:wikidata": "Q17061332", "nsi_id": "smashburger-d2abf0"}, "geometry": {"type": "Point", "coordinates": [-88.2092007, 41.7142907]}},
{"type": "Feature", "id": "exQtGoWZ6YGYUZh8stpeiQKQwdI=", "properties": {"ref": "1747", "@spider": "smashburger", "amenity": "fast_food", "cuisine": "burger", "takeaway": "yes", "addr:street_address": "804 Lexington Ave,", "addr:city": "New York", "addr:state": "NY", "addr:postcode": "10065", "name": "Your Neighborhood Smashburger", "phone": "16467221300", "website": "https://smashburger.com/locations/us/ny/new-york/804-lexington-ave/", "opening_hours": "Mo-Su 10:30-22:00", "image": "https://smashburger.com/wp-content/uploads/2021/03/SB_hori_logo_Lt_NoTag_TM_RGB_XL.png", "brand": "Smashburger", "brand:wikidata": "Q17061332", "nsi_id": "smashburger-d2abf0"}, "geometry": {"type": "Point", "coordinates": [-73.9669757, 40.7643136]}},
{"type": "Feature", "id": "yUGhvwVKJiejpTeTMtRfVYDfFGM=", "properties": {"ref": "1746", "@spider": "smashburger", "amenity": "fast_food", "cuisine": "burger", "takeaway": "yes", "addr:street_address": "15061 S. La Grange Rd.,", "addr:city": "Orland Park", "addr:state": "IL", "addr:postcode": "60462", "name": "Your Neighborhood Smashburger", "phone": "17089426850", "website": "https://smashburger.com/locations/us/il/orland-park/15061-s-la-grange-rd/", "opening_hours": "Mo-Su 10:30-22:00", "image": "https://smashburger.com/wp-content/uploads/2021/03/SB_hori_logo_Lt_NoTag_TM_RGB_XL.png", "brand": "Smashburger", "brand:wikidata": "Q17061332", "nsi_id": "smashburger-d2abf0"}, "geometry": {"type": "Point", "coordinates": [-87.8537653, 41.6166638]}},
{"type": "Feature", "id": "aqh91KeMPhAzTuNeeZxCjPa-zAQ=", "properties": {"ref": "1745", "@spider": "smashburger", "amenity": "fast_food", "cuisine": "burger", "takeaway": "yes", "addr:street_address": "4709-N West Foster Avenue,", "addr:city": "Chicago", "addr:state": "IL", "addr:postcode": "60630", "name": "Your Neighborhood Smashburger", "phone": "17736697933", "website": "https://smashburger.com/locations/us/il/chicago/4709-n-west-foster-ave/", "opening_hours": "Mo-Su 10:30-22:00", "image": "https://smashburger.com/wp-content/uploads/2021/03/SB_hori_logo_Lt_NoTag_TM_RGB_XL.png", "brand": "Smashburger", "brand:wikidata": "Q17061332", "nsi_id": "smashburger-d2abf0"}, "geometry": {"type": "Point", "coordinates": [-87.745926, 41.975025]}},
{"type": "Feature", "id": "Z9mrmHy9WT1hCqMXiIvpMRhCoHk=", "properties": {"ref": "1744", "@spider": "smashburger", "amenity": "fast_food", "cuisine": "burger", "takeaway": "yes", "addr:street_address": "2023 Welsh Rd.,", "addr:city": "Dresher", "addr:state": "PA", "addr:postcode": "19025", "name": "Your Neighborhood Smashburger", "phone": "12675183470", "website": "https://smashburger.com/locations/us/pa/dresher/2023-welsh-rd/", "opening_hours": "Mo-Su 10:30-21:00", "image": "https://smashburger.com/wp-content/uploads/2021/03/SB_hori_logo_Lt_NoTag_TM_RGB_XL.png", "brand": "Smashburger", "brand:wikidata": "Q17061332", "nsi_id": "smashburger-d2abf0"}, "geometry": {"type": "Point", "coordinates": [-75.1498804, 40.1588671]}},
{"type": "Feature", "id": "ajMQufjUU6HJrTGVsBENJfH-Dik=", "properties": {"ref": "1743", "@spider": "smashburger", "amenity": "fast_food", "cuisine": "burger", "takeaway": "yes", "addr:street_address": "40-35 82nd St,", "addr:city": "Queens", "addr:state": "NY", "addr:postcode": "11373", "name": "Your Neighborhood Smashburger", "phone": "19177455965", "website": "https://smashburger.com/locations/us/ny/queens/40-35-82nd-st/", "opening_hours": "Mo-Su 10:30-22:00", "image": "https://smashburger.com/wp-content/uploads/2021/03/SB_hori_logo_Lt_NoTag_TM_RGB_XL.png", "brand": "Smashburger", "brand:wikidata": "Q17061332", "nsi_id": "smashburger-d2abf0"}, "geometry": {"type": "Point", "coordinates": [-73.883586, 40.746633]}},
{"type": "Feature", "id": "drA9DMdGl4xnntqMp9H9iYAL6_I=", "properties": {"ref": "1741", "@spider": "smashburger", "amenity": "fast_food", "cuisine": "burger", "takeaway": "yes", "addr:street_address": "1721 E Golf Rd.,#1721", "addr:city": "Schaumburg", "addr:state": "IL", "addr:postcode": "60173", "name": "Your Neighborhood Smashburger", "phone": "18473805991", "website": "https://smashburger.com/locations/us/il/schaumburg/1721-e-golf-rd/", "opening_hours": "Mo-Su 10:30-22:00", "image": "https://smashburger.com/wp-content/uploads/2021/03/SB_hori_logo_Lt_NoTag_TM_RGB_XL.png", "brand": "Smashburger", "brand:wikidata": "Q17061332", "nsi_id": "smashburger-d2abf0"}, "geometry": {"type": "Point", "coordinates": [-88.039947, 42.050173]}},
{"type": "Feature", "id": "M1cLWCrD9hrU_Yjjves5bOg9PNo=", "properties": {"ref": "1740", "@spider": "smashburger", "amenity": "fast_food", "cuisine": "burger", "takeaway": "yes", "addr:street_address": "3026 Sepulveda Blvd,Suite-G100", "addr:city": "Manhattan Beach", "addr:state": "CA", "addr:postcode": "90266", "name": "Your Neighborhood Smashburger", "phone": "14242824050", "website": "https://smashburger.com/locations/us/ca/manhattan-beach/3026-sepulveda-blvd/", "opening_hours": "Mo-Su 10:30-22:00", "image": "https://smashburger.com/wp-content/uploads/2021/03/SB_hori_logo_Lt_NoTag_TM_RGB_XL.png", "brand": "Smashburger", "brand:wikidata": "Q17061332", "nsi_id": "smashburger-d2abf0"}, "geometry": {"type": "Point", "coordinates": [-118.394991, 33.897786]}},
{"type": "Feature", "id": "Y2dmfHbuFnMKHqjSr4Zq6g1TcaY=", "properties": {"ref": "1738", "@spider": "smashburger", "amenity": "fast_food", "cuisine": "burger", "takeaway": "yes", "addr:street_address": "804 7th Street NW,", "addr:city": "Washington", "addr:state": "DC", "addr:postcode": "20001", "name": "Your Neighborhood Smashburger", "phone": "12029647996", "website": "https://smashburger.com/locations/us/dc/washington/804-7th-street-nw/", "opening_hours": "Mo-Th 10:30-21:30; Fr-Sa 10:30-22:00; Su 10:30-21:30", "image": "https://smashburger.com/wp-content/uploads/2021/03/SB_hori_logo_Lt_NoTag_TM_RGB_XL.png", "brand": "Smashburger", "brand:wikidata": "Q17061332", "nsi_id": "smashburger-d2abf0"}, "geometry": {"type": "Point", "coordinates": [-77.0222, 38.900139]}},
{"type": "Feature", "id": "heSur2xX_dPBY_cUROLX5GROg3M=", "properties": {"ref": "1737", "@spider": "smashburger", "amenity": "fast_food", "cuisine": "burger", "takeaway": "yes", "addr:street_address": "250 Washington St.,", "addr:city": "Attleboro", "addr:state": "MA", "addr:postcode": "02703", "name": "Your Neighborhood Smashburger", "phone": "15086399046", "website": "https://smashburger.com/locations/us/ma/attleboro/250-washington-st/", "opening_hours": "Mo-Th 10:30-21:30; Fr-Sa 10:30-22:00; Su 10:30-21:30", "image": "https://smashburger.com/wp-content/uploads/2021/03/SB_hori_logo_Lt_NoTag_TM_RGB_XL.png", "brand": "Smashburger", "brand:wikidata": "Q17061332", "nsi_id": "smashburger-d2abf0"}, "geometry": {"type": "Point", "coordinates": [-71.3562431, 41.9236092]}},
{"type": "Feature", "id": "qtUZM3791NW0uE43Nshp8PwMTGI=", "properties": {"ref": "1736", "@spider": "smashburger", "amenity": "fast_food", "cuisine": "burger", "takeaway": "yes", "addr:street_address": "842 Queen St.,", "addr:city": "Southington", "addr:state": "CT", "addr:postcode": "06489", "name": "Your Neighborhood Smashburger", "phone": "18604269100", "website": "https://smashburger.com/locations/us/ct/southington/842-queen-st/", "opening_hours": "Mo-Th 10:30-21:30; Fr-Sa 10:30-22:00; Su 10:30-21:30", "image": "https://smashburger.com/wp-content/uploads/2021/03/SB_hori_logo_Lt_NoTag_TM_RGB_XL.png", "brand": "Smashburger", "brand:wikidata": "Q17061332", "nsi_id": "smashburger-d2abf0"}, "geometry": {"type": "Point", "coordinates": [-72.8746714, 41.6395649]}},
{"type": "Feature", "id": "sfizjZzT1AMOLzabAfK4MLmD70w=", "properties": {"ref": "1735", "@spider": "smashburger", "amenity": "fast_food", "cuisine": "burger", "takeaway": "yes", "addr:street_address": "1000 Bald Hill Rd.,", "addr:city": "Warwick", "addr:state": "RI", "addr:postcode": "02886", "name": "Your Neighborhood Smashburger", "phone": "14013812298", "website": "https://smashburger.com/locations/us/ri/warwick/1000-bald-hill-rd/", "opening_hours": "Mo-Th 10:30-21:30; Fr-Sa 10:30-22:00; Su 10:30-21:30", "image": "https://smashburger.com/wp-content/uploads/2021/03/SB_hori_logo_Lt_NoTag_TM_RGB_XL.png", "brand": "Smashburger", "brand:wikidata": "Q17061332", "nsi_id": "smashburger-d2abf0"}, "geometry": {"type": "Point", "coordinates": [-71.4880042, 41.7127332]}},
{"type": "Feature", "id": "OxouJLwGYreeYIj4xEMpLSLTRxY=", "properties": {"ref": "1734", "@spider": "smashburger", "amenity": "fast_food", "cuisine": "burger", "takeaway": "yes", "addr:street_address": "903 Hartford Trnpk.,", "addr:city": "Waterford", "addr:state": "CT", "addr:postcode": "06385", "name": "Your Neighborhood Smashburger", "phone": "18604379790", "website": "https://smashburger.com/locations/us/ct/waterford/903-hartford-turnpike/", "opening_hours": "Mo-Th 10:30-21:30; Fr-Sa 10:30-22:00; Su 10:30-21:30", "image": "https://smashburger.com/wp-content/uploads/2021/03/SB_hori_logo_Lt_NoTag_TM_RGB_XL.png", "brand": "Smashburger", "brand:wikidata": "Q17061332", "nsi_id": "smashburger-d2abf0"}, "geometry": {"type": "Point", "coordinates": [-72.1499029, 41.3805743]}},
{"type": "Feature", "id": "rEBAkMaD5AKcCNKwLpBEdkPBVPI=", "properties": {"ref": "1733", "@spider": "smashburger", "amenity": "fast_food", "cuisine": "burger", "takeaway": "yes", "addr:street_address": "360 North Michigan Avenue,", "addr:city": "Chicago", "addr:state": "IL", "addr:postcode": "60601", "name": "Your Neighborhood Smashburger", "phone": "13124440943", "website": "https://smashburger.com/locations/us/il/chicago/360-north-michigan-avenue/", "opening_hours": "Mo-Su 08:30-22:00", "image": "https://smashburger.com/wp-content/uploads/2021/03/SB_hori_logo_Lt_NoTag_TM_RGB_XL.png", "brand": "Smashburger", "brand:wikidata": "Q17061332", "nsi_id": "smashburger-d2abf0"}, "geometry": {"type": "Point", "coordinates": [-87.624855, 41.887918]}},
{"type": "Feature", "id": "_iO15Ewe8Ykp1n_PHEZOplOHJi8=", "properties": {"ref": "1732", "@spider": "smashburger", "amenity": "fast_food", "cuisine": "burger", "takeaway": "yes", "addr:street_address": "370 7th Ave.,Suite 101", "addr:city": "New York", "addr:state": "NY", "addr:postcode": "10001", "name": "Your Neighborhood Smashburger", "phone": "19292620993", "website": "https://smashburger.com/locations/us/ny/new-york/370-7th-ave/", "opening_hours": "Mo-Su 08:30-22:30", "image": "https://smashburger.com/wp-content/uploads/2021/03/SB_hori_logo_Lt_NoTag_TM_RGB_XL.png", "brand": "Smashburger", "brand:wikidata": "Q17061332", "nsi_id": "smashburger-d2abf0"}, "geometry": {"type": "Point", "coordinates": [-73.9946934, 40.7489154]}},
{"type": "Feature", "id": "CiPua9ypLN9KGi7DAvFvEwbS4Sw=", "properties": {"ref": "1731", "@spider": "smashburger", "amenity": "fast_food", "cuisine": "burger", "takeaway": "yes", "addr:street_address": "965 S. Hover St.,A-1", "addr:city": "Longmont", "addr:state": "CO", "addr:postcode": "80501", "name": "Your Neighborhood Smashburger", "phone": "13034857412", "website": "https://smashburger.com/locations/us/co/longmont/965-s-hover-st/", "opening_hours": "Mo-Th 10:30-21:00; Fr-Sa 10:30-22:00; Su 10:30-21:00", "image": "https://smashburger.com/wp-content/uploads/2021/03/SB_hori_logo_Lt_NoTag_TM_RGB_XL.png", "brand": "Smashburger", "brand:wikidata": "Q17061332", "nsi_id": "smashburger-d2abf0"}, "geometry": {"type": "Point", "coordinates": [-105.1314888, 40.1512264]}},
{"type": "Feature", "id": "hiDYulXrOLljoNTmF2TdudXw1e8=", "properties": {"ref": "1730", "@spider": "smashburger", "amenity": "fast_food", "cuisine": "burger", "takeaway": "yes", "addr:street_address": "59-11 Maurice Avenue,", "addr:city": "Maspeth", "addr:state": "NY", "addr:postcode": "11378", "name": "Your Neighborhood Smashburger", "phone": "13476907900", "website": "https://smashburger.com/locations/us/ny/maspeth/59-11-maurice-ave/", "opening_hours": "Mo-Su 07:30-22:00", "image": "https://smashburger.com/wp-content/uploads/2021/03/SB_hori_logo_Lt_NoTag_TM_RGB_XL.png", "brand": "Smashburger", "brand:wikidata": "Q17061332", "nsi_id": "smashburger-d2abf0"}, "geometry": {"type": "Point", "coordinates": [-73.9110282, 40.7264848]}},
{"type": "Feature", "id": "FBlU1lF3hN9NF8MvqKQczMoFW1A=", "properties": {"ref": "1728", "@spider": "smashburger", "amenity": "fast_food", "cuisine": "burger", "takeaway": "yes", "addr:street_address": "669 8th Ave.,", "addr:city": "New York", "addr:state": "NY", "addr:postcode": "10036", "name": "Your Neighborhood Smashburger", "phone": "19294746250", "website": "https://smashburger.com/locations/us/ny/new-york/669-8th-ave/", "opening_hours": "Mo-Th 10:00-23:00; Fr-Sa 10:00-24:00; Su 10:00-23:00", "image": "https://smashburger.com/wp-content/uploads/2021/03/SB_hori_logo_Lt_NoTag_TM_RGB_XL.png", "brand": "Smashburger", "brand:wikidata": "Q17061332", "nsi_id": "smashburger-d2abf0"}, "geometry": {"type": "Point", "coordinates": [-73.989931, 40.7577434]}},
{"type": "Feature", "id": "f76xV7hEimNSGuW1L4J2m5H98oo=", "properties": {"ref": "1727", "@spider": "smashburger", "amenity": "fast_food", "cuisine": "burger", "takeaway": "yes", "addr:street_address": "776 N. Terminal Dr FH-7,", "addr:city": "Salt Lake City", "addr:state": "UT", "addr:postcode": "84116", "name": "Your Neighborhood Smashburger", "phone": "1", "website": "https://smashburger.com/locations/us/ut/salt-lake-city/776-n-terminal-dr-fh-7/", "opening_hours": "Mo-Su 07:00-22:00", "image": "https://smashburger.com/wp-content/uploads/2021/03/SB_hori_logo_Lt_NoTag_TM_RGB_XL.png", "brand": "Smashburger", "brand:wikidata": "Q17061332", "nsi_id": "smashburger-d2abf0"}, "geometry": {"type": "Point", "coordinates": [-111.9903625, 40.7887163]}},
{"type": "Feature", "id": "D6uG6sGTUJzbnRsRNNkWmS7AG9Y=", "properties": {"ref": "1726", "@spider": "smashburger", "amenity": "fast_food", "cuisine": "burger", "takeaway": "yes", "addr:street_address": "6401 Blue Bonnet Blvd,", "addr:city": "Baton Rouge", "addr:state": "LA", "addr:postcode": "70810", "name": "Your Neighborhood Smashburger", "phone": "12259607081", "website": "https://smashburger.com/locations/us/la/baton-rouge/6401-blue-bonnet-blvd/", "opening_hours": "Mo-Th 11:00-19:00; Fr-Sa 11:00-20:00; Su 11:00-18:00", "image": "https://smashburger.com/wp-content/uploads/2021/03/SB_hori_logo_Lt_NoTag_TM_RGB_XL.png", "brand": "Smashburger", "brand:wikidata": "Q17061332", "nsi_id": "smashburger-d2abf0"}, "geometry": {"type": "Point", "coordinates": [-91.0865791, 30.3882809]}},
{"type": "Feature", "id": "qGrrB9yKizGHZWLH6ZHVtK3bfGY=", "properties": {"ref": "1725", "@spider": "smashburger", "amenity": "fast_food", "cuisine": "burger", "takeaway": "yes", "addr:street_address": "545 Boylston St.,", "addr:city": "Boston", "addr:state": "MA", "addr:postcode": "02116", "name": "Your Neighborhood Smashburger", "phone": "16176550351", "website": "https://smashburger.com/locations/us/ma/boston/545-boylston-st/", "opening_hours": "Mo-Su 08:30-22:00", "image": "https://smashburger.com/wp-content/uploads/2021/03/SB_hori_logo_Lt_NoTag_TM_RGB_XL.png", "brand": "Smashburger", "brand:wikidata": "Q17061332", "nsi_id": "smashburger-d2abf0"}, "geometry": {"type": "Point", "coordinates": [-71.07585, 42.3508]}},
{"type": "Feature", "id": "WD0UVxOZsrarR7LS3uunsNyGwgs=", "properties": {"ref": "1724", "@spider": "smashburger", "amenity": "fast_food", "cuisine": "burger", "takeaway": "yes", "addr:street_address": "5210 Kings Highway,", "addr:city": "Brooklyn", "addr:state": "NY", "addr:postcode": "11234", "name": "Your Neighborhood Smashburger", "phone": "17182606215", "website": "https://smashburger.com/locations/us/ny/brooklyn/5210-kings-highway/", "opening_hours": "Mo-Su 08:30-22:00", "image": "https://smashburger.com/wp-content/uploads/2021/03/SB_hori_logo_Lt_NoTag_TM_RGB_XL.png", "brand": "Smashburger", "brand:wikidata": "Q17061332", "nsi_id": "smashburger-d2abf0"}, "geometry": {"type": "Point", "coordinates": [-73.927158, 40.636212]}},
{"type": "Feature", "id": "_VgP0UE5g4pVqLrq52Tjm_ms2LE=", "properties": {"ref": "1720", "@spider": "smashburger", "amenity": "fast_food", "cuisine": "burger", "takeaway": "yes", "addr:street_address": "1060 Cedar Bridge Ave.,", "addr:city": "Brick Township", "addr:state": "NJ", "addr:postcode": "08723", "name": "Your Neighborhood Smashburger", "phone": "17324757892", "website": "https://smashburger.com/locations/us/nj/brick-township/1060-cedar-bridge-ave/", "opening_hours": "Mo-Th 10:30-21:30; Fr-Sa 10:30-22:00; Su 10:30-21:30", "image": "https://smashburger.com/wp-content/uploads/2021/03/SB_hori_logo_Lt_NoTag_TM_RGB_XL.png", "brand": "Smashburger", "brand:wikidata": "Q17061332", "nsi_id": "smashburger-d2abf0"}, "geometry": {"type": "Point", "coordinates": [-74.14365, 40.05776]}},
{"type": "Feature", "id": "pRmwK9c4r_StVKV8MC2yenRH8Ik=", "properties": {"ref": "1719", "@spider": "smashburger", "amenity": "fast_food", "cuisine": "burger", "takeaway": "yes", "addr:street_address": "1210 E Park St.,#101", "addr:city": "Hollister", "addr:state": "CA", "addr:postcode": "95023", "name": "Your Neighborhood Smashburger", "phone": "18312657085", "website": "https://smashburger.com/locations/us/ca/hollister/1210-e-park-st/", "opening_hours": "Mo-Th 07:00-21:00; Fr-Sa 07:00-22:00; Su 07:00-21:00", "image": "https://smashburger.com/wp-content/uploads/2021/03/SB_hori_logo_Lt_NoTag_TM_RGB_XL.png", "brand": "Smashburger", "brand:wikidata": "Q17061332", "nsi_id": "smashburger-d2abf0"}, "geometry": {"type": "Point", "coordinates": [-121.391328, 36.843116]}},
{"type": "Feature", "id": "6GpC4iN4af9BGA_MwpaWHvvvXok=", "properties": {"ref": "1718", "@spider": "smashburger", "amenity": "fast_food", "cuisine": "burger", "takeaway": "yes", "addr:street_address": "1800 Rockville Pike,Suite A", "addr:city": "Rockville", "addr:state": "MD", "addr:postcode": "20852", "name": "Your Neighborhood Smashburger", "phone": "12404065114", "website": "https://smashburger.com/locations/us/md/rockville/1800-rockville-pike/", "opening_hours": "Mo-Th 10:30-21:30; Fr-Sa 10:30-22:00; Su 10:30-21:30", "image": "https://smashburger.com/wp-content/uploads/2021/03/SB_hori_logo_Lt_NoTag_TM_RGB_XL.png", "brand": "Smashburger", "brand:wikidata": "Q17061332", "nsi_id": "smashburger-d2abf0"}, "geometry": {"type": "Point", "coordinates": [-77.1225864, 39.0602965]}},
{"type": "Feature", "id": "9q9hTXS4olm5dJzEDB_O4xaxiEc=", "properties": {"ref": "1717", "@spider": "smashburger", "amenity": "fast_food", "cuisine": "burger", "takeaway": "yes", "addr:street_address": "3 Brewster Rd.,", "addr:city": "Newark", "addr:state": "NJ", "addr:postcode": "07114", "name": "Your Neighborhood Smashburger", "phone": "19736221166", "website": "https://smashburger.com/locations/us/nj/newark/newark-terminal-c/", "opening_hours": "Mo-Su 11:00-18:00", "image": "https://smashburger.com/wp-content/uploads/2021/03/SB_hori_logo_Lt_NoTag_TM_RGB_XL.png", "brand": "Smashburger", "brand:wikidata": "Q17061332", "nsi_id": "smashburger-d2abf0"}, "geometry": {"type": "Point", "coordinates": [-74.178535, 40.695781]}},
{"type": "Feature", "id": "tnqy2EtzfkaWdGTuL918DBPd3F0=", "properties": {"ref": "1714", "@spider": "smashburger", "amenity": "fast_food", "cuisine": "burger", "takeaway": "yes", "addr:street_address": "1926 Turnball Ave.,", "addr:city": "Bronx", "addr:state": "NY", "addr:postcode": "10473", "name": "Your Neighborhood Smashburger", "phone": "13478018360", "website": "https://smashburger.com/locations/us/ny/bronx/1926-turnball-ave/", "opening_hours": "Mo-Su 08:30-22:00", "image": "https://smashburger.com/wp-content/uploads/2021/03/SB_hori_logo_Lt_NoTag_TM_RGB_XL.png", "brand": "Smashburger", "brand:wikidata": "Q17061332", "nsi_id": "smashburger-d2abf0"}, "geometry": {"type": "Point", "coordinates": [-73.85707, 40.82307]}},
{"type": "Feature", "id": "NW5TP_rnfbuRG1LpCZafH_vHSOE=", "properties": {"ref": "1713", "@spider": "smashburger", "amenity": "fast_food", "cuisine": "burger", "takeaway": "yes", "addr:street_address": "301 Washington Street,", "addr:city": "Plainville", "addr:state": "MA", "addr:postcode": "02762", "name": "Your Neighborhood Smashburger", "phone": "15085764457", "website": "https://smashburger.com/locations/us/ma/plainville/301-washington-street/", "opening_hours": "Mo-Su 11:00-20:30", "image": "https://smashburger.com/wp-content/uploads/2021/03/SB_hori_logo_Lt_NoTag_TM_RGB_XL.png", "brand": "Smashburger", "brand:wikidata": "Q17061332", "nsi_id": "smashburger-d2abf0"}, "geometry": {"type": "Point", "coordinates": [-71.303425, 42.033276]}},
{"type": "Feature", "id": "Jx67V3EBbcc4cqi05LTyZ8NA7To=", "properties": {"ref": "1712", "@spider": "smashburger", "amenity": "fast_food", "cuisine": "burger", "takeaway": "yes", "addr:street_address": "528 Gateway Dr.,", "addr:city": "Brooklyn", "addr:state": "NY", "addr:postcode": "11239", "name": "Your Neighborhood Smashburger", "phone": "17182356900", "website": "https://smashburger.com/locations/us/ny/brooklyn/528-gateway-dr/", "opening_hours": "Mo-Th 10:30-22:00; Fr-Sa 10:30-23:00; Su 10:30-22:00", "image": "https://smashburger.com/wp-content/uploads/2021/03/SB_hori_logo_Lt_NoTag_TM_RGB_XL.png", "brand": "Smashburger", "brand:wikidata": "Q17061332", "nsi_id": "smashburger-d2abf0"}, "geometry": {"type": "Point", "coordinates": [-73.8716132, 40.653583]}},
{"type": "Feature", "id": "igQPpj6EULTNgicQxVjLWtSbzU0=", "properties": {"ref": "1711", "@spider": "smashburger", "amenity": "fast_food", "cuisine": "burger", "takeaway": "yes", "addr:street_address": "211 W. Route 59,", "addr:city": "Nanuet", "addr:state": "NY", "addr:postcode": "10954", "name": "Your Neighborhood Smashburger", "phone": "18455070774", "website": "https://smashburger.com/locations/us/ny/nanuet/201-west-route-59/", "opening_hours": "Mo-Su 10:30-22:00", "image": "https://smashburger.com/wp-content/uploads/2021/03/SB_hori_logo_Lt_NoTag_TM_RGB_XL.png", "brand": "Smashburger", "brand:wikidata": "Q17061332", "nsi_id": "smashburger-d2abf0"}, "geometry": {"type": "Point", "coordinates": [-74.0208858, 41.0993547]}},
{"type": "Feature", "id": "3isYLmfSt3cOEQxOXgFtoZPwbhs=", "properties": {"ref": "1709", "@spider": "smashburger", "amenity": "fast_food", "cuisine": "burger", "takeaway": "yes", "addr:street_address": "203 University Ave.,", "addr:city": "Westwood", "addr:state": "MA", "addr:postcode": "02090", "name": "Your Neighborhood Smashburger", "phone": "17816133412", "website": "https://smashburger.com/locations/us/ma/westwood/203-university-ave/", "opening_hours": "Mo-Su 10:30-20:00", "image": "https://smashburger.com/wp-content/uploads/2021/03/SB_hori_logo_Lt_NoTag_TM_RGB_XL.png", "brand": "Smashburger", "brand:wikidata": "Q17061332", "nsi_id": "smashburger-d2abf0"}, "geometry": {"type": "Point", "coordinates": [-71.1533924, 42.2049381]}},
{"type": "Feature", "id": "9JnyOtG5zggfYJCUVX26tgCkDF4=", "properties": {"ref": "1708", "@spider": "smashburger", "amenity": "fast_food", "cuisine": "burger", "takeaway": "yes", "addr:street_address": "495 Riverside Ave.,", "addr:city": "Medford", "addr:state": "MA", "addr:postcode": "02155", "name": "Your Neighborhood Smashburger", "phone": "17812195110", "website": "https://smashburger.com/locations/us/ma/medford/495-riverside-ave/", "opening_hours": "Mo-Su 10:30-22:00", "image": "https://smashburger.com/wp-content/uploads/2021/03/SB_hori_logo_Lt_NoTag_TM_RGB_XL.png", "brand": "Smashburger", "brand:wikidata": "Q17061332", "nsi_id": "smashburger-d2abf0"}, "geometry": {"type": "Point", "coordinates": [-71.0863781, 42.4099455]}},
{"type": "Feature", "id": "rJ0M6Nxxw8Wns7IHekRR_KbjOT0=", "properties": {"ref": "1707", "@spider": "smashburger", "amenity": "fast_food", "cuisine": "burger", "takeaway": "yes", "addr:street_address": "1298 Worcester St.,", "addr:city": "Natick", "addr:state": "MA", "addr:postcode": "01760", "name": "Your Neighborhood Smashburger", "phone": "15087200744", "website": "https://smashburger.com/locations/us/ma/natick/1298-worcester-st/", "opening_hours": "Mo-Th 10:30-21:30; Fr-Sa 10:30-22:00; Su 10:30-21:30", "image": "https://smashburger.com/wp-content/uploads/2021/03/SB_hori_logo_Lt_NoTag_TM_RGB_XL.png", "brand": "Smashburger", "brand:wikidata": "Q17061332", "nsi_id": "smashburger-d2abf0"}, "geometry": {"type": "Point", "coordinates": [-71.383872, 42.2982121]}},
{"type": "Feature", "id": "mlOzlq0aeOXhS6lc5kesPfZLkzg=", "properties": {"ref": "1703", "@spider": "smashburger", "amenity": "fast_food", "cuisine": "burger", "takeaway": "yes", "addr:street_address": "25639 Hwy 59,", "addr:city": "Kingwood", "addr:state": "TX", "addr:postcode": "77339", "name": "Your Neighborhood Smashburger", "phone": "12818726163", "website": "https://smashburger.com/locations/us/tx/kingwood/25639-hwy-59/", "opening_hours": "Mo-Th 10:30-21:30; Fr-Sa 10:30-22:00; Su 10:30-21:30", "image": "https://smashburger.com/wp-content/uploads/2021/03/SB_hori_logo_Lt_NoTag_TM_RGB_XL.png", "brand": "Smashburger", "brand:wikidata": "Q17061332", "nsi_id": "smashburger-d2abf0"}, "geometry": {"type": "Point", "coordinates": [-95.2442805, 30.0721171]}},
{"type": "Feature", "id": "ZLBJa8YV25RWBKb5YzyhEgmD_SE=", "properties": {"ref": "1688", "@spider": "smashburger", "amenity": "fast_food", "cuisine": "burger", "takeaway": "yes", "addr:street_address": "4300 Glumack Dr.,", "addr:city": "St. Paul", "addr:state": "MN", "addr:postcode": "55111", "name": "Your Neighborhood Smashburger", "phone": "16123565838", "website": "https://smashburger.com/locations/us/mn/st-paul/4300-glumack-dr/", "opening_hours": "Mo-Su 08:00-20:00", "image": "https://smashburger.com/wp-content/uploads/2021/03/SB_hori_logo_Lt_NoTag_TM_RGB_XL.png", "brand": "Smashburger", "brand:wikidata": "Q17061332", "nsi_id": "smashburger-d2abf0"}, "geometry": {"type": "Point", "coordinates": [-93.20475, 44.8825557]}},
{"type": "Feature", "id": "yQEdi0c8bbhdW0tBMvaWn6yrDxM=", "properties": {"ref": "1686", "@spider": "smashburger", "amenity": "fast_food", "cuisine": "burger", "takeaway": "yes", "addr:street_address": "5501 Josh Birmingham Parkway,", "addr:city": "Charlotte", "addr:state": "NC", "addr:postcode": "28208", "name": "Your Neighborhood Smashburger", "phone": "17045957133", "website": "https://smashburger.com/locations/us/nc/charlotte/5501-josh-birmingham-pkwy/", "opening_hours": "Mo 06:00-18:00; Tu-We 09:00-17:00; Th-Fr 06:00-18:00; Sa 09:00-17:00; Su 06:00-18:00", "image": "https://smashburger.com/wp-content/uploads/2021/03/SB_hori_logo_Lt_NoTag_TM_RGB_XL.png", "brand": "Smashburger", "brand:wikidata": "Q17061332", "nsi_id": "smashburger-d2abf0"}, "geometry": {"type": "Point", "coordinates": [-80.944628, 35.222612]}},
{"type": "Feature", "id": "HvsMcLfAhz-MiXxivNj_Y7zoG-Q=", "properties": {"ref": "1685", "@spider": "smashburger", "amenity": "fast_food", "cuisine": "burger", "takeaway": "yes", "addr:street_address": "74 Dekalb Ave.,", "addr:city": "Brooklyn", "addr:state": "NY", "addr:postcode": "11201", "name": "Your Neighborhood Smashburger", "phone": "17183135100", "website": "https://smashburger.com/locations/us/ny/brooklyn/74-dekalb-ave/", "opening_hours": "Mo-Th 10:30-21:30; Fr-Sa 10:30-22:00; Su 10:30-21:30", "image": "https://smashburger.com/wp-content/uploads/2021/03/SB_hori_logo_Lt_NoTag_TM_RGB_XL.png", "brand": "Smashburger", "brand:wikidata": "Q17061332", "nsi_id": "smashburger-d2abf0"}, "geometry": {"type": "Point", "coordinates": [-73.97994, 40.68968]}},
{"type": "Feature", "id": "QMYlZ0-vDyB7OKd7kfsOZEuj0fk=", "properties": {"ref": "1684", "@spider": "smashburger", "amenity": "fast_food", "cuisine": "burger", "takeaway": "yes", "addr:street_address": "25 High St. SE,", "addr:city": "Calgary", "addr:state": "AB", "addr:postcode": "T2Z 3T7", "name": "Your Neighborhood Smashburger", "phone": "15873872740", "website": "https://smashburger.com/locations/ca/ab/calgary/25-high-st-se/", "opening_hours": "Mo-Tu 11:00-21:00; We-Sa 11:00-22:00; Su 11:00-21:00", "image": "https://smashburger.com/wp-content/uploads/2021/03/SB_hori_logo_Lt_NoTag_TM_RGB_XL.png", "brand": "Smashburger", "brand:wikidata": "Q17061332", "nsi_id": "smashburger-d2abf0"}, "geometry": {"type": "Point", "coordinates": [-113.96078, 50.91585]}},
{"type": "Feature", "id": "9gC6nZmb9zPR847afwFCJwNANN4=", "properties": {"ref": "1683", "@spider": "smashburger", "amenity": "fast_food", "cuisine": "burger", "takeaway": "yes", "addr:street_address": "971-64 Ave. NE,", "addr:city": "Calgary", "addr:state": "AB", "addr:postcode": "T2E 9B7", "name": "Your Neighborhood Smashburger", "phone": "15873150804", "website": "https://smashburger.com/locations/ca/ab/calgary/971-64-ave-ne/", "opening_hours": "Mo-Su 11:00-21:00", "image": "https://smashburger.com/wp-content/uploads/2021/03/SB_hori_logo_Lt_NoTag_TM_RGB_XL.png", "brand": "Smashburger", "brand:wikidata": "Q17061332", "nsi_id": "smashburger-d2abf0"}, "geometry": {"type": "Point", "coordinates": [-114.0408315, 51.1100172]}},
{"type": "Feature", "id": "gX007MNpZbeVlsZOC2b1eZ2SY84=", "properties": {"ref": "1682", "@spider": "smashburger", "amenity": "fast_food", "cuisine": "burger", "takeaway": "yes", "addr:street_address": "319-8888 Country Hills Blvd. NW,Royal Oak Centre", "addr:city": "Calgary", "addr:state": "AB", "addr:postcode": "T3G 5T4", "name": "Your Neighborhood Smashburger", "phone": "14032088041", "website": "https://smashburger.com/locations/ca/ab/calgary/319-8888-country-hills-blvd-nw/", "opening_hours": "Mo-Tu 11:00-21:00; We-Sa 11:00-22:00; Su 11:00-21:00", "image": "https://smashburger.com/wp-content/uploads/2021/03/SB_hori_logo_Lt_NoTag_TM_RGB_XL.png", "brand": "Smashburger", "brand:wikidata": "Q17061332", "nsi_id": "smashburger-d2abf0"}, "geometry": {"type": "Point", "coordinates": [-114.21555, 51.15232]}},
{"type": "Feature", "id": "_j7tfJidAEDTz6IUYAraN7PYp9M=", "properties": {"ref": "1681", "@spider": "smashburger", "amenity": "fast_food", "cuisine": "burger", "takeaway": "yes", "addr:street_address": "2770 32nd Ave. NE,#4", "addr:city": "Calgary", "addr:state": "AB", "addr:postcode": "T1Y 5S5", "name": "Your Neighborhood Smashburger", "phone": "14032503156", "website": "https://smashburger.com/locations/ca/ab/calgary/2790-32nd-ave-ne/", "opening_hours": "Mo-Tu 11:00-21:00; We-Sa 11:00-22:00; Su 11:00-21:00", "image": "https://smashburger.com/wp-content/uploads/2021/03/SB_hori_logo_Lt_NoTag_TM_RGB_XL.png", "brand": "Smashburger", "brand:wikidata": "Q17061332", "nsi_id": "smashburger-d2abf0"}, "geometry": {"type": "Point", "coordinates": [-113.9956239, 51.0824299]}},
{"type": "Feature", "id": "YTfJg61XLCGsIHSlXnnyKGQI7jc=", "properties": {"ref": "1673", "@spider": "smashburger", "amenity": "fast_food", "cuisine": "burger", "takeaway": "yes", "addr:street_address": "777 Harrah's Rincon Way,", "addr:city": "Funner", "addr:state": "CA", "addr:postcode": "92082", "name": "Your Neighborhood Smashburger", "phone": "13036331500", "website": "https://smashburger.com/locations/us/ca/funner/777-harrahs-rincon-way/", "opening_hours": "Mo-We 11:00-22:00; Th-Sa 11:00-24:00; Su 11:00-22:00", "image": "https://smashburger.com/wp-content/uploads/2021/03/SB_hori_logo_Lt_NoTag_TM_RGB_XL.png", "brand": "Smashburger", "brand:wikidata": "Q17061332", "nsi_id": "smashburger-d2abf0"}, "geometry": {"type": "Point", "coordinates": [-116.9554792, 33.2675915]}},
{"type": "Feature", "id": "zM9ecg0MCtooegWLmYC88x-r8GE=", "properties": {"ref": "1671", "@spider": "smashburger", "amenity": "fast_food", "cuisine": "burger", "takeaway": "yes", "addr:street_address": "156 Warren St.,", "addr:city": "Newark", "addr:state": "NJ", "addr:postcode": "07103", "name": "Your Neighborhood Smashburger", "phone": "13036331500", "website": "https://smashburger.com/locations/us/nj/newark/156-warren-st/", "opening_hours": "Mo-Fr 11:00-15:30; Sa-Su 00:00-24:00", "image": "https://smashburger.com/wp-content/uploads/2021/03/SB_hori_logo_Lt_NoTag_TM_RGB_XL.png", "brand": "Smashburger", "brand:wikidata": "Q17061332", "nsi_id": "smashburger-d2abf0"}, "geometry": {"type": "Point", "coordinates": [-74.1796543, 40.7412833]}},
{"type": "Feature", "id": "ATcdpVh73pRsuaGPyVGPpa-nO2g=", "properties": {"ref": "1670", "@spider": "smashburger", "amenity": "fast_food", "cuisine": "burger", "takeaway": "yes", "addr:street_address": "1451 E. Parks Hwy.,", "addr:city": "Wasilla", "addr:state": "AK", "addr:postcode": "99654", "name": "Your Neighborhood Smashburger", "phone": "19073576274", "website": "https://smashburger.com/locations/us/ak/wasilla/1451-e-parks-highway/", "opening_hours": "Mo-Tu 00:00-24:00; We-Th 10:30-21:00; Fr-Sa 10:30-22:00; Su 10:30-21:00", "image": "https://smashburger.com/wp-content/uploads/2021/03/SB_hori_logo_Lt_NoTag_TM_RGB_XL.png", "brand": "Smashburger", "brand:wikidata": "Q17061332", "nsi_id": "smashburger-d2abf0"}, "geometry": {"type": "Point", "coordinates": [-149.4138774, 61.5788753]}},
{"type": "Feature", "id": "Ukpm4tRUHeXgLJH0z54NsEsV-FY=", "properties": {"ref": "1663", "@spider": "smashburger", "amenity": "fast_food", "cuisine": "burger", "takeaway": "yes", "addr:street_address": "8000 Essington Ave.,Term F", "addr:city": "Philadelphia", "addr:state": "PA", "addr:postcode": "19153", "name": "Your Neighborhood Smashburger", "phone": "13036331502", "website": "https://smashburger.com/locations/us/pa/philadelphia/8000-essington-ave-term-f/", "opening_hours": "Mo-Su 10:00-20:00", "image": "https://smashburger.com/wp-content/uploads/2021/03/SB_hori_logo_Lt_NoTag_TM_RGB_XL.png", "brand": "Smashburger", "brand:wikidata": "Q17061332", "nsi_id": "smashburger-d2abf0"}, "geometry": {"type": "Point", "coordinates": [-75.2486415, 39.8746193]}},
{"type": "Feature", "id": "z7s31WIKk_sxJUZzongD6mSHUcw=", "properties": {"ref": "1661", "@spider": "smashburger", "amenity": "fast_food", "cuisine": "burger", "takeaway": "yes", "addr:street_address": "1412 Greenbrier Pkwy.,", "addr:city": "Chesapeake", "addr:state": "VA", "addr:postcode": "23320", "name": "Your Neighborhood Smashburger", "phone": "17573513792", "website": "https://smashburger.com/locations/us/va/chesapeake/1412-greenbrier-pkwy/", "opening_hours": "Mo-Su 11:00-20:00", "image": "https://smashburger.com/wp-content/uploads/2021/03/SB_hori_logo_Lt_NoTag_TM_RGB_XL.png", "brand": "Smashburger", "brand:wikidata": "Q17061332", "nsi_id": "smashburger-d2abf0"}, "geometry": {"type": "Point", "coordinates": [-76.231041, 36.7751581]}},
{"type": "Feature", "id": "O5Y-95kKrSFJc_ZMrZcMr5wzwnU=", "properties": {"ref": "1654", "@spider": "smashburger", "amenity": "fast_food", "cuisine": "burger", "takeaway": "yes", "addr:street_address": "1 Cowlitz Way,", "addr:city": "Ridgefield", "addr:state": "WA", "addr:postcode": "98642", "name": "Your Neighborhood Smashburger", "phone": "13036331500", "website": "https://smashburger.com/locations/us/wa/ridgefield/1-cowlitz-way/", "opening_hours": "Mo-Th 11:00-23:00; Fr-Sa 11:00-24:00; Su 11:00-23:00", "image": "https://smashburger.com/wp-content/uploads/2021/03/SB_hori_logo_Lt_NoTag_TM_RGB_XL.png", "brand": "Smashburger", "brand:wikidata": "Q17061332", "nsi_id": "smashburger-d2abf0"}, "geometry": {"type": "Point", "coordinates": [-122.7067139, 45.8537671]}},
{"type": "Feature", "id": "PjC3Tu_nEqZs5sPzdqwQfZLuZr8=", "properties": {"ref": "1653", "@spider": "smashburger", "amenity": "fast_food", "cuisine": "burger", "takeaway": "yes", "addr:street_address": "1133 Rte. 414,", "addr:city": "Waterlooo", "addr:state": "NY", "addr:postcode": "13165", "name": "Your Neighborhood Smashburger", "phone": "13159461793", "website": "https://smashburger.com/locations/us/ny/waterlooo/1133-rte-414/", "opening_hours": "Mo-Th 11:00-22:00; Fr-Sa 11:00-24:00; Su 11:00-22:00", "image": "https://smashburger.com/wp-content/uploads/2021/03/SB_hori_logo_Lt_NoTag_TM_RGB_XL.png", "brand": "Smashburger", "brand:wikidata": "Q17061332", "nsi_id": "smashburger-d2abf0"}, "geometry": {"type": "Point", "coordinates": [-76.8459898, 42.9694526]}},
{"type": "Feature", "id": "0D6ue2sMtD2zdoEh-wI2JMxF2Ow=", "properties": {"ref": "1651", "@spider": "smashburger", "amenity": "fast_food", "cuisine": "burger", "takeaway": "yes", "addr:street_address": "6415 W. 104th,Suite 100", "addr:city": "Westminster", "addr:state": "CO", "addr:postcode": "80020", "name": "Your Neighborhood Smashburger", "phone": "17203997165", "website": "https://smashburger.com/locations/us/co/westminster/6415-w-104th-ave/", "opening_hours": "Mo-Su 10:00-22:00", "image": "https://smashburger.com/wp-content/uploads/2021/03/SB_hori_logo_Lt_NoTag_TM_RGB_XL.png", "brand": "Smashburger", "brand:wikidata": "Q17061332", "nsi_id": "smashburger-d2abf0"}, "geometry": {"type": "Point", "coordinates": [-105.0682922, 39.8885412]}},
{"type": "Feature", "id": "8qrkBE-LLEKJMG2m6yJ10_LzPMI=", "properties": {"ref": "1648", "@spider": "smashburger", "amenity": "fast_food", "cuisine": "burger", "takeaway": "yes", "addr:street_address": "1111 S. Preston Rd.,#30", "addr:city": "Prosper", "addr:state": "TX", "addr:postcode": "75078", "name": "Your Neighborhood Smashburger", "phone": "14697156062", "website": "https://smashburger.com/locations/us/tx/prosper/1111-s-preston-road/", "opening_hours": "Mo-Th 11:00-20:00; Fr-Sa 11:00-21:00; Su 11:00-20:00", "image": "https://smashburger.com/wp-content/uploads/2021/03/SB_hori_logo_Lt_NoTag_TM_RGB_XL.png", "brand": "Smashburger", "brand:wikidata": "Q17061332", "nsi_id": "smashburger-d2abf0"}, "geometry": {"type": "Point", "coordinates": [-96.7973629, 33.2235288]}},
{"type": "Feature", "id": "KRatERB-XWHmt-vpoIX4hp70TEY=", "properties": {"ref": "1645", "@spider": "smashburger", "amenity": "fast_food", "cuisine": "burger", "takeaway": "yes", "addr:street_address": "1329 Broadcloth St.,Suite 101", "addr:city": "Fort Mill", "addr:state": "SC", "addr:postcode": "29715", "name": "Your Neighborhood Smashburger", "phone": "18037920525", "website": "https://smashburger.com/locations/us/sc/fort-mill/1329-broadcloth-st/", "opening_hours": "Mo-Su 11:00-21:00", "image": "https://smashburger.com/wp-content/uploads/2021/03/SB_hori_logo_Lt_NoTag_TM_RGB_XL.png", "brand": "Smashburger", "brand:wikidata": "Q17061332", "nsi_id": "smashburger-d2abf0"}, "geometry": {"type": "Point", "coordinates": [-80.9614609, 35.0254877]}},
{"type": "Feature", "id": "yYI8CQgwq_E1gF_30rrao3PgNOY=", "properties": {"ref": "1635", "@spider": "smashburger", "amenity": "fast_food", "cuisine": "burger", "takeaway": "yes", "addr:street_address": "12701 Narcoossee Rd,", "addr:city": "Orlando", "addr:state": "FL", "addr:postcode": "32832", "name": "Your Neighborhood Smashburger", "phone": "14076684315", "website": "https://smashburger.com/locations/us/fl/orlando/12701-narcoossee-rd/", "opening_hours": "Mo-Fr 11:00-21:00; Sa-Su 11:00-21:30", "image": "https://smashburger.com/wp-content/uploads/2021/03/SB_hori_logo_Lt_NoTag_TM_RGB_XL.png", "brand": "Smashburger", "brand:wikidata": "Q17061332", "nsi_id": "smashburger-d2abf0"}, "geometry": {"type": "Point", "coordinates": [-81.2438538, 28.3827176]}},
{"type": "Feature", "id": "66VHl3VLtbTLEXsFOM2pvKDzPfQ=", "properties": {"ref": "1627", "@spider": "smashburger", "amenity": "fast_food", "cuisine": "burger", "takeaway": "yes", "addr:street_address": "2027 Von Schilling Dr.,", "addr:city": "Hampton", "addr:state": "VA", "addr:postcode": "23666", "name": "Your Neighborhood Smashburger", "phone": "17578277128", "website": "https://smashburger.com/locations/us/va/hampton/2027-von-schilling-dr/", "opening_hours": "Mo-Su 11:00-20:00", "image": "https://smashburger.com/wp-content/uploads/2021/03/SB_hori_logo_Lt_NoTag_TM_RGB_XL.png", "brand": "Smashburger", "brand:wikidata": "Q17061332", "nsi_id": "smashburger-d2abf0"}, "geometry": {"type": "Point", "coordinates": [-76.3904131, 37.0437692]}},
{"type": "Feature", "id": "KDwEO1dKXaJwEZG_pPSBIcULe78=", "properties": {"ref": "1626", "@spider": "smashburger", "amenity": "fast_food", "cuisine": "burger", "takeaway": "yes", "addr:street_address": "10801 Starkey Rd.,#4", "addr:city": "Largo", "addr:state": "FL", "addr:postcode": "33777", "name": "Your Neighborhood Smashburger", "phone": "17279146725", "website": "https://smashburger.com/locations/us/fl/largo/10801-starkey-rd/", "opening_hours": "Mo-Th 10:00-20:00; Fr-Sa 10:00-21:00; Su 10:00-19:00", "image": "https://smashburger.com/wp-content/uploads/2021/03/SB_hori_logo_Lt_NoTag_TM_RGB_XL.png", "brand": "Smashburger", "brand:wikidata": "Q17061332", "nsi_id": "smashburger-d2abf0"}, "geometry": {"type": "Point", "coordinates": [-82.760562, 27.8718633]}},
{"type": "Feature", "id": "4MkT4ivCWHA4TrpQYGqp5pik-nI=", "properties": {"ref": "1621", "@spider": "smashburger", "amenity": "fast_food", "cuisine": "burger", "takeaway": "yes", "addr:street_address": "500 NJ 23,", "addr:city": "Pequannock Township", "addr:state": "NJ", "addr:postcode": "07444", "name": "Your Neighborhood Smashburger", "phone": "19735137085", "website": "https://smashburger.com/locations/us/nj/pequannock-township/500-nj-23/", "opening_hours": "Mo-Su 10:30-21:30", "image": "https://smashburger.com/wp-content/uploads/2021/03/SB_hori_logo_Lt_NoTag_TM_RGB_XL.png", "brand": "Smashburger", "brand:wikidata": "Q17061332", "nsi_id": "smashburger-d2abf0"}, "geometry": {"type": "Point", "coordinates": [-74.2826696, 40.9679005]}},
{"type": "Feature", "id": "GlIFZ0VaNONX_IJ6c1HGcs76CDA=", "properties": {"ref": "1616", "@spider": "smashburger", "amenity": "fast_food", "cuisine": "burger", "takeaway": "yes", "addr:street_address": "100 Marketplace Dr.,", "addr:city": "Rochester", "addr:state": "NY", "addr:postcode": "14623", "name": "Your Neighborhood Smashburger", "phone": "15852720777", "website": "https://smashburger.com/locations/us/ny/rochester/100-marketplace-dr/", "opening_hours": "Mo-Th 11:00-21:00; Fr-Sa 11:00-22:00; Su 11:00-21:00", "image": "https://smashburger.com/wp-content/uploads/2021/03/SB_hori_logo_Lt_NoTag_TM_RGB_XL.png", "brand": "Smashburger", "brand:wikidata": "Q17061332", "nsi_id": "smashburger-d2abf0"}, "geometry": {"type": "Point", "coordinates": [-77.6238181, 43.0855216]}},
{"type": "Feature", "id": "ucuj_QHy6w4H_Is5dqrI1fPTtL0=", "properties": {"ref": "1610", "@spider": "smashburger", "amenity": "fast_food", "cuisine": "burger", "takeaway": "yes", "addr:street_address": "2400 Aviation Dr. North,", "addr:city": "Dallas", "addr:state": "TX", "addr:postcode": "75261", "name": "Your Neighborhood Smashburger", "phone": "13036331502", "website": "https://smashburger.com/locations/us/tx/dallas/2400-aviation-drive-north/", "opening_hours": "Mo-Su 05:00-22:30", "image": "https://smashburger.com/wp-content/uploads/2021/03/SB_hori_logo_Lt_NoTag_TM_RGB_XL.png", "brand": "Smashburger", "brand:wikidata": "Q17061332", "nsi_id": "smashburger-d2abf0"}, "geometry": {"type": "Point", "coordinates": [-97.0381015, 32.8554903]}},
{"type": "Feature", "id": "ETaGrG0wa0qujvnr8bkzADw8WiU=", "properties": {"ref": "1606", "@spider": "smashburger", "amenity": "fast_food", "cuisine": "burger", "takeaway": "yes", "addr:street_address": "8500 Pena Blvd.,dia concourse c", "addr:city": "Denver", "addr:state": "CO", "addr:postcode": "80249", "name": "Your Neighborhood Smashburger", "phone": "13033426932", "website": "https://smashburger.com/locations/us/co/denver/dia-concourse-c/", "opening_hours": "Mo-Su 04:00-23:00", "image": "https://smashburger.com/wp-content/uploads/2021/03/SB_hori_logo_Lt_NoTag_TM_RGB_XL.png", "brand": "Smashburger", "brand:wikidata": "Q17061332", "nsi_id": "smashburger-d2abf0"}, "geometry": {"type": "Point", "coordinates": [-104.6712753, 39.8629194]}},
{"type": "Feature", "id": "8A7Rb6TYTUFrZ-FVvicDvsK-Soc=", "properties": {"ref": "1605", "@spider": "smashburger", "amenity": "fast_food", "cuisine": "burger", "takeaway": "yes", "addr:street_address": "University of Notre Dame, Smashburger Huddle,Building 43", "addr:city": "Notre Dame", "addr:state": "IN", "addr:postcode": "46556", "name": "Your Neighborhood Smashburger", "phone": "15746312320", "website": "https://smashburger.com/locations/us/in/notre-dame/university-of-notre-dame-smashburger-huddle-bldg-43/", "opening_hours": "Mo-Sa 11:00-15:00; Su 00:00-24:00", "image": "https://smashburger.com/wp-content/uploads/2021/03/SB_hori_logo_Lt_NoTag_TM_RGB_XL.png", "brand": "Smashburger", "brand:wikidata": "Q17061332", "nsi_id": "smashburger-d2abf0"}, "geometry": {"type": "Point", "coordinates": [-86.23776395, 41.7020506]}},
{"type": "Feature", "id": "4E9ovtjOd8pq6Q55p5yRrbLayUg=", "properties": {"ref": "1604", "@spider": "smashburger", "amenity": "fast_food", "cuisine": "burger", "takeaway": "yes", "addr:street_address": "8500 Pena Blvd.,dia concourse b", "addr:city": "Denver", "addr:state": "CO", "addr:postcode": "80249", "name": "Your Neighborhood Smashburger", "phone": "13036331502", "website": "https://smashburger.com/locations/us/co/denver/dia-concourse-b/", "opening_hours": "Mo-Su 04:00-23:00", "image": "https://smashburger.com/wp-content/uploads/2021/03/SB_hori_logo_Lt_NoTag_TM_RGB_XL.png", "brand": "Smashburger", "brand:wikidata": "Q17061332", "nsi_id": "smashburger-d2abf0"}, "geometry": {"type": "Point", "coordinates": [-104.672977, 39.849804]}},
{"type": "Feature", "id": "yLrLkv4FNGsXkkREifDQJY-vvls=", "properties": {"ref": "1595", "@spider": "smashburger", "amenity": "fast_food", "cuisine": "burger", "takeaway": "yes", "addr:street_address": "6301 Silver Dart Dr.,", "addr:city": "Mississauga", "addr:state": "ON", "addr:postcode": "L5P 1B2", "name": "Your Neighborhood Smashburger", "phone": "14167762345", "website": "https://smashburger.com/locations/ca/on/mississauga/6301-silver-dart-dr/", "opening_hours": "Mo-Su 05:30-20:00", "image": "https://smashburger.com/wp-content/uploads/2021/03/SB_hori_logo_Lt_NoTag_TM_RGB_XL.png", "brand": "Smashburger", "brand:wikidata": "Q17061332", "nsi_id": "smashburger-d2abf0"}, "geometry": {"type": "Point", "coordinates": [-79.6196792, 43.6847725]}},
{"type": "Feature", "id": "J-T94GLSTkBima0mo4yW69im-ww=", "properties": {"ref": "1594", "@spider": "smashburger", "amenity": "fast_food", "cuisine": "burger", "takeaway": "yes", "addr:street_address": "130 General Stillwell D.,Suite 108", "addr:city": "Marina", "addr:state": "CA", "addr:postcode": "93933", "name": "Your Neighborhood Smashburger", "phone": "18319201250", "website": "https://smashburger.com/locations/us/ca/marina/130-general-stillwell-dr/", "opening_hours": "Mo-Th 10:00-21:00; Fr-Sa 10:00-22:00; Su 10:00-21:00", "image": "https://smashburger.com/wp-content/uploads/2021/03/SB_hori_logo_Lt_NoTag_TM_RGB_XL.png", "brand": "Smashburger", "brand:wikidata": "Q17061332", "nsi_id": "smashburger-d2abf0"}, "geometry": {"type": "Point", "coordinates": [-121.8101929, 36.6654109]}},
{"type": "Feature", "id": "xkrEPvr9C_TPwuN3QGint5b7Kfo=", "properties": {"ref": "1591", "@spider": "smashburger", "amenity": "fast_food", "cuisine": "burger", "takeaway": "yes", "addr:street_address": "707 N. Krocks Rd.,Suite 108", "addr:city": "Allentown", "addr:state": "PA", "addr:postcode": "18106", "name": "Your Neighborhood Smashburger", "phone": "16103983000", "website": "https://smashburger.com/locations/us/pa/allentown/707-n-krocks-rd/", "opening_hours": "Mo-Th 11:00-21:00; Fr-Sa 11:00-22:00; Su 11:00-21:00", "image": "https://smashburger.com/wp-content/uploads/2021/03/SB_hori_logo_Lt_NoTag_TM_RGB_XL.png", "brand": "Smashburger", "brand:wikidata": "Q17061332", "nsi_id": "smashburger-d2abf0"}, "geometry": {"type": "Point", "coordinates": [-75.5610379, 40.5662888]}},
{"type": "Feature", "id": "JrphJxdCRJBIF08G-VMQE91n8x0=", "properties": {"ref": "1590", "@spider": "smashburger", "amenity": "fast_food", "cuisine": "burger", "takeaway": "yes", "addr:street_address": "317 W. 104th Ave.,", "addr:city": "Anchorage", "addr:state": "AK", "addr:postcode": "99515", "name": "Your Neighborhood Smashburger", "phone": "19073376274", "website": "https://smashburger.com/locations/us/ak/anchorage/317-w-104th-ave/", "opening_hours": "Mo-Th 10:30-21:00; Fr-Sa 10:30-22:00; Su 10:30-21:00", "image": "https://smashburger.com/wp-content/uploads/2021/03/SB_hori_logo_Lt_NoTag_TM_RGB_XL.png", "brand": "Smashburger", "brand:wikidata": "Q17061332", "nsi_id": "smashburger-d2abf0"}, "geometry": {"type": "Point", "coordinates": [-149.8763858, 61.1266839]}},
{"type": "Feature", "id": "RadFHfHjGxmgrQw5LZR8nBUbsYs=", "properties": {"ref": "1589", "@spider": "smashburger", "amenity": "fast_food", "cuisine": "burger", "takeaway": "yes", "addr:street_address": "8000 Essington Ave.,Term A", "addr:city": "Philadelphia", "addr:state": "PA", "addr:postcode": "19153", "name": "Your Neighborhood Smashburger", "phone": "13036331502", "website": "https://smashburger.com/locations/us/pa/philadelphia/8000-essington-ave-term-a/", "opening_hours": "Mo-Su 06:00-21:00", "image": "https://smashburger.com/wp-content/uploads/2021/03/SB_hori_logo_Lt_NoTag_TM_RGB_XL.png", "brand": "Smashburger", "brand:wikidata": "Q17061332", "nsi_id": "smashburger-d2abf0"}, "geometry": {"type": "Point", "coordinates": [-75.2486415, 39.8746193]}},
{"type": "Feature", "id": "kpC77NTPBrfN__BxXz0PaB5yYmg=", "properties": {"ref": "1588", "@spider": "smashburger", "amenity": "fast_food", "cuisine": "burger", "takeaway": "yes", "addr:street_address": "1467 Caldwell Blvd.,", "addr:city": "Nampa", "addr:state": "ID", "addr:postcode": "83651", "name": "Your Neighborhood Smashburger", "phone": "12086060388", "website": "https://smashburger.com/locations/us/id/nampa/1467-caldwell-blvd/", "opening_hours": "Mo-Th 10:00-22:00; Fr-Sa 10:00-23:00; Su 10:00-22:00", "image": "https://smashburger.com/wp-content/uploads/2021/03/SB_hori_logo_Lt_NoTag_TM_RGB_XL.png", "brand": "Smashburger", "brand:wikidata": "Q17061332", "nsi_id": "smashburger-d2abf0"}, "geometry": {"type": "Point", "coordinates": [-116.5990524, 43.602213]}},
{"type": "Feature", "id": "0oi2omXg--w-ZIyvzNx1orNAXtc=", "properties": {"ref": "1587", "@spider": "smashburger", "amenity": "fast_food", "cuisine": "burger", "takeaway": "yes", "addr:street_address": "718 Fashion Dr.,Suite  A", "addr:city": "Columbia", "addr:state": "SC", "addr:postcode": "29229", "name": "Your Neighborhood Smashburger", "phone": "18038320101", "website": "https://smashburger.com/locations/us/sc/columbia/718-fashion-dr/", "opening_hours": "Mo-Tu 11:00-21:00; We-Su 10:30-20:00", "image": "https://smashburger.com/wp-content/uploads/2021/03/SB_hori_logo_Lt_NoTag_TM_RGB_XL.png", "brand": "Smashburger", "brand:wikidata": "Q17061332", "nsi_id": "smashburger-d2abf0"}, "geometry": {"type": "Point", "coordinates": [-80.8752446, 34.1240171]}},
{"type": "Feature", "id": "7irEBPQXT2EIl5oYL5JUSezSfnY=", "properties": {"ref": "1584", "@spider": "smashburger", "amenity": "fast_food", "cuisine": "burger", "takeaway": "yes", "addr:street_address": "309 Clifton Park Center Rd. Store,Store #8", "addr:city": "Clifton Park", "addr:state": "NY", "addr:postcode": "12065", "name": "Your Neighborhood Smashburger", "phone": "15189526671", "website": "https://smashburger.com/locations/us/ny/clifton-park/309-clifton-park-center-rd/", "opening_hours": "Mo-Th 11:00-21:00; Fr-Sa 11:00-22:00; Su 11:00-21:00", "image": "https://smashburger.com/wp-content/uploads/2021/03/SB_hori_logo_Lt_NoTag_TM_RGB_XL.png", "brand": "Smashburger", "brand:wikidata": "Q17061332", "nsi_id": "smashburger-d2abf0"}, "geometry": {"type": "Point", "coordinates": [-73.7784052, 42.8611563]}},
{"type": "Feature", "id": "WmbbT9ZFZna89AQL9sf8eM9pUMc=", "properties": {"ref": "1582", "@spider": "smashburger", "amenity": "fast_food", "cuisine": "burger", "takeaway": "yes", "addr:street_address": "950 E. Bell Rd.,Suite 130", "addr:city": "Phoenix", "addr:state": "AZ", "addr:postcode": "85022", "name": "Your Neighborhood Smashburger", "phone": "14803789060", "website": "https://smashburger.com/locations/us/az/phoenix/950-e-bell-rd/", "opening_hours": "Mo-Th 10:00-22:00; Fr-Sa 10:00-23:00; Su 10:00-22:00", "image": "https://smashburger.com/wp-content/uploads/2021/03/SB_hori_logo_Lt_NoTag_TM_RGB_XL.png", "brand": "Smashburger", "brand:wikidata": "Q17061332", "nsi_id": "smashburger-d2abf0"}, "geometry": {"type": "Point", "coordinates": [-112.0602129, 33.6410183]}},
{"type": "Feature", "id": "O89urTHkbbUSM-sEM0_W-UoUf-E=", "properties": {"ref": "1581", "@spider": "smashburger", "amenity": "fast_food", "cuisine": "burger", "takeaway": "yes", "addr:street_address": "9409 Shelbyville Rd.,", "addr:city": "Louisville", "addr:state": "KY", "addr:postcode": "40222", "name": "Your Neighborhood Smashburger", "phone": "15023264141", "website": "https://smashburger.com/locations/us/ky/louisville/9409-shelbyville-rd/", "opening_hours": "Mo-Th 11:00-20:00; Fr-Sa 11:00-21:30; Su 11:00-20:00", "image": "https://smashburger.com/wp-content/uploads/2021/03/SB_hori_logo_Lt_NoTag_TM_RGB_XL.png", "brand": "Smashburger", "brand:wikidata": "Q17061332", "nsi_id": "smashburger-d2abf0"}, "geometry": {"type": "Point", "coordinates": [-85.5780438, 38.2470072]}},
{"type": "Feature", "id": "Amdw15rDc9ZFw3twwVl3aaVkwKY=", "properties": {"ref": "1580", "@spider": "smashburger", "amenity": "fast_food", "cuisine": "burger", "takeaway": "yes", "addr:street_address": "312 S. Fourth St.,", "addr:city": "Louisville", "addr:state": "KY", "addr:postcode": "40202", "name": "Your Neighborhood Smashburger", "phone": "15025831500", "website": "https://smashburger.com/locations/us/ky/louisville/312-s-fourth-st/", "opening_hours": "Mo-Th 11:00-20:00; Fr-Su 11:00-21:30", "image": "https://smashburger.com/wp-content/uploads/2021/03/SB_hori_logo_Lt_NoTag_TM_RGB_XL.png", "brand": "Smashburger", "brand:wikidata": "Q17061332", "nsi_id": "smashburger-d2abf0"}, "geometry": {"type": "Point", "coordinates": [-85.7572885, 38.2534185]}},
{"type": "Feature", "id": "Glf2jpEiPm_BWMgKQsD1G8Rz8j0=", "properties": {"ref": "1579", "@spider": "smashburger", "amenity": "fast_food", "cuisine": "burger", "takeaway": "yes", "addr:street_address": "2900 South Casino Dr.,", "addr:city": "Laughlin", "addr:state": "NV", "addr:postcode": "89029", "name": "Your Neighborhood Smashburger", "phone": "17022988552", "website": "https://smashburger.com/locations/us/nv/laughlin/2900-south-casino-dr/", "opening_hours": "Mo-Su 10:00-22:00", "image": "https://smashburger.com/wp-content/uploads/2021/03/SB_hori_logo_Lt_NoTag_TM_RGB_XL.png", "brand": "Smashburger", "brand:wikidata": "Q17061332", "nsi_id": "smashburger-d2abf0"}, "geometry": {"type": "Point", "coordinates": [-114.5763649, 35.1455237]}},
{"type": "Feature", "id": "9tHq1Ek3WoVKdaPoUxsA1GpqBds=", "properties": {"ref": "1578", "@spider": "smashburger", "amenity": "fast_food", "cuisine": "burger", "takeaway": "yes", "addr:street_address": "600 Terminal Dr.,#10", "addr:city": "Louisville", "addr:state": "KY", "addr:postcode": "40209", "name": "Your Neighborhood Smashburger", "phone": "15023632526", "website": "https://smashburger.com/locations/us/ky/louisville/600-terminal-dr/", "opening_hours": "Mo-Tu 00:00-24:00; We-Sa 11:00-19:00; Su 00:00-24:00", "image": "https://smashburger.com/wp-content/uploads/2021/03/SB_hori_logo_Lt_NoTag_TM_RGB_XL.png", "brand": "Smashburger", "brand:wikidata": "Q17061332", "nsi_id": "smashburger-d2abf0"}, "geometry": {"type": "Point", "coordinates": [-85.7411855, 38.1830968]}},
{"type": "Feature", "id": "AqbNd1lMQpuN9gK6XgupaAQI02s=", "properties": {"ref": "1577", "@spider": "smashburger", "amenity": "fast_food", "cuisine": "burger", "takeaway": "yes", "addr:street_address": "400 S. State Rd.,", "addr:city": "Springfield", "addr:state": "PA", "addr:postcode": "19064", "name": "Your Neighborhood Smashburger", "phone": "14844713249", "website": "https://smashburger.com/locations/us/pa/springfield/400-s-state-rd/", "opening_hours": "Mo-Th 11:00-21:00; Fr-Sa 11:00-22:00; Su 11:00-21:00", "image": "https://smashburger.com/wp-content/uploads/2021/03/SB_hori_logo_Lt_NoTag_TM_RGB_XL.png", "brand": "Smashburger", "brand:wikidata": "Q17061332", "nsi_id": "smashburger-d2abf0"}, "geometry": {"type": "Point", "coordinates": [-75.3556038, 39.9387376]}},
{"type": "Feature", "id": "1UP4q92gprwkVQBwUVn9KBRzXw4=", "properties": {"ref": "1572", "@spider": "smashburger", "amenity": "fast_food", "cuisine": "burger", "takeaway": "yes", "addr:street_address": "2565 Fair Oaks Blvd.,", "addr:city": "Sacramento", "addr:state": "CA", "addr:postcode": "95825", "name": "Your Neighborhood Smashburger", "phone": "19163186630", "website": "https://smashburger.com/locations/us/ca/sacramento/2565-fair-oaks-blvd/", "opening_hours": "Mo-Th 10:30-21:30; Fr-Sa 10:30-22:00; Su 10:30-21:30", "image": "https://smashburger.com/wp-content/uploads/2021/03/SB_hori_logo_Lt_NoTag_TM_RGB_XL.png", "brand": "Smashburger", "brand:wikidata": "Q17061332", "nsi_id": "smashburger-d2abf0"}, "geometry": {"type": "Point", "coordinates": [-121.4021229, 38.5744328]}},
{"type": "Feature", "id": "-JT70PFp_M4pa84ehEnDlQIxhCg=", "properties": {"ref": "1571", "@spider": "smashburger", "amenity": "fast_food", "cuisine": "burger", "takeaway": "yes", "addr:street_address": "7625 N. Oracle Rd.,", "addr:city": "Oro Valley", "addr:state": "AZ", "addr:postcode": "85704", "name": "Your Neighborhood Smashburger", "phone": "15207423332", "website": "https://smashburger.com/locations/us/az/oro-valley/7625-n-oracle-rd/", "opening_hours": "Mo-Th 10:00-21:00; Fr-Sa 10:00-21:30; Su 10:00-21:00", "image": "https://smashburger.com/wp-content/uploads/2021/03/SB_hori_logo_Lt_NoTag_TM_RGB_XL.png", "brand": "Smashburger", "brand:wikidata": "Q17061332", "nsi_id": "smashburger-d2abf0"}, "geometry": {"type": "Point", "coordinates": [-110.97667, 32.3462]}},
{"type": "Feature", "id": "KeiR2REMil0JDbcMhoBy7926hjE=", "properties": {"ref": "1567", "@spider": "smashburger", "amenity": "fast_food", "cuisine": "burger", "takeaway": "yes", "addr:street_address": "2401 S. Smith Blvd.,", "addr:city": "Arlington", "addr:state": "VA", "addr:postcode": "22202", "name": "Your Neighborhood Smashburger", "phone": "17034133220", "website": "https://smashburger.com/locations/us/va/arlington/2401-s-smith-blvd/", "opening_hours": "Mo-Su 11:00-20:00", "image": "https://smashburger.com/wp-content/uploads/2021/03/SB_hori_logo_Lt_NoTag_TM_RGB_XL.png", "brand": "Smashburger", "brand:wikidata": "Q17061332", "nsi_id": "smashburger-d2abf0"}, "geometry": {"type": "Point", "coordinates": [-77.042564, 38.852336]}},
{"type": "Feature", "id": "EgSGfHMRha2AxRfqKA51AZ369Us=", "properties": {"ref": "1565", "@spider": "smashburger", "amenity": "fast_food", "cuisine": "burger", "takeaway": "yes", "addr:street_address": "36 E. Sunrise Hwy.,", "addr:city": "Lindenhurst", "addr:state": "NY", "addr:postcode": "11757", "name": "Your Neighborhood Smashburger", "phone": "16314504324", "website": "https://smashburger.com/locations/us/ny/lindenhurst/36-e-sunrise-hwy/", "opening_hours": "Mo-Su 10:30-22:00", "image": "https://smashburger.com/wp-content/uploads/2021/03/SB_hori_logo_Lt_NoTag_TM_RGB_XL.png", "brand": "Smashburger", "brand:wikidata": "Q17061332", "nsi_id": "smashburger-d2abf0"}, "geometry": {"type": "Point", "coordinates": [-73.3809126, 40.7004255]}},
{"type": "Feature", "id": "IK605Zf9B40-25LNzdLi6jATQ1s=", "properties": {"ref": "1563", "@spider": "smashburger", "amenity": "fast_food", "cuisine": "burger", "takeaway": "yes", "addr:street_address": "1608 Marcus Ave.,", "addr:city": "New Hyde Park", "addr:state": "NY", "addr:postcode": "11040", "name": "Your Neighborhood Smashburger", "phone": "15162331844", "website": "https://smashburger.com/locations/us/ny/new-hyde-park/1608-marcus-ave/", "opening_hours": "Mo-Su 10:30-22:00", "image": "https://smashburger.com/wp-content/uploads/2021/03/SB_hori_logo_Lt_NoTag_TM_RGB_XL.png", "brand": "Smashburger", "brand:wikidata": "Q17061332", "nsi_id": "smashburger-d2abf0"}, "geometry": {"type": "Point", "coordinates": [-73.6865011, 40.7540551]}},
{"type": "Feature", "id": "GbG1eOBf6UOVu8SljbFDymAueU0=", "properties": {"ref": "1562", "@spider": "smashburger", "amenity": "fast_food", "cuisine": "burger", "takeaway": "yes", "addr:street_address": "1223 Wantagh Ave.,", "addr:city": "Wantagh", "addr:state": "NY", "addr:postcode": "11793", "name": "Your Neighborhood Smashburger", "phone": "15163084772", "website": "https://smashburger.com/locations/us/ny/wantagh/1223-wantagh-ave/", "opening_hours": "Mo-Su 10:30-22:00", "image": "https://smashburger.com/wp-content/uploads/2021/03/SB_hori_logo_Lt_NoTag_TM_RGB_XL.png", "brand": "Smashburger", "brand:wikidata": "Q17061332", "nsi_id": "smashburger-d2abf0"}, "geometry": {"type": "Point", "coordinates": [-73.5072912, 40.6925866]}},
{"type": "Feature", "id": "Cq5CPlGxuLt9xWW7ngX136snn2s=", "properties": {"ref": "1561", "@spider": "smashburger", "amenity": "fast_food", "cuisine": "burger", "takeaway": "yes", "addr:street_address": "983 Port Washington Blvd.,", "addr:city": "Port Washington", "addr:state": "NY", "addr:postcode": "11050", "name": "Your Neighborhood Smashburger", "phone": "15164394736", "website": "https://smashburger.com/locations/us/ny/port-washington/983-port-washington-blvd/", "opening_hours": "Mo-Su 10:30-22:00", "image": "https://smashburger.com/wp-content/uploads/2021/03/SB_hori_logo_Lt_NoTag_TM_RGB_XL.png", "brand": "Smashburger", "brand:wikidata": "Q17061332", "nsi_id": "smashburger-d2abf0"}, "geometry": {"type": "Point", "coordinates": [-73.6836828, 40.8298874]}},
{"type": "Feature", "id": "zADMwRU3uMuxeD236wQzvMmqbCw=", "properties": {"ref": "1560", "@spider": "smashburger", "amenity": "fast_food", "cuisine": "burger", "takeaway": "yes", "addr:street_address": "180 Old Country Rd.,", "addr:city": "Hicksville", "addr:state": "NY", "addr:postcode": "11801", "name": "Your Neighborhood Smashburger", "phone": "15166052235", "website": "https://smashburger.com/locations/us/ny/hicksville/180-old-country-rd/", "opening_hours": "Mo-Su 10:30-22:00", "image": "https://smashburger.com/wp-content/uploads/2021/03/SB_hori_logo_Lt_NoTag_TM_RGB_XL.png", "brand": "Smashburger", "brand:wikidata": "Q17061332", "nsi_id": "smashburger-d2abf0"}, "geometry": {"type": "Point", "coordinates": [-73.527098, 40.762337]}},
{"type": "Feature", "id": "gOKG5-j8b-XCjOpOKNljDaWXJy8=", "properties": {"ref": "1558", "@spider": "smashburger", "amenity": "fast_food", "cuisine": "burger", "takeaway": "yes", "addr:street_address": "552 S. State St.,", "addr:city": "Westerville", "addr:state": "OH", "addr:postcode": "43081", "name": "Your Neighborhood Smashburger", "phone": "16144234693", "website": "https://smashburger.com/locations/us/oh/westerville/552-south-state-street/", "opening_hours": "Mo-Su 08:30-21:30", "image": "https://smashburger.com/wp-content/uploads/2021/03/SB_hori_logo_Lt_NoTag_TM_RGB_XL.png", "brand": "Smashburger", "brand:wikidata": "Q17061332", "nsi_id": "smashburger-d2abf0"}, "geometry": {"type": "Point", "coordinates": [-82.9253717, 40.111416]}},
{"type": "Feature", "id": "nEeq_sN6flUBZEU8Wx3_cOeBM-Q=", "properties": {"ref": "1552", "@spider": "smashburger", "amenity": "fast_food", "cuisine": "burger", "takeaway": "yes", "addr:street_address": "3700 W. Flamingo Rd.,", "addr:city": "Las Vegas", "addr:state": "NV", "addr:postcode": "89103", "name": "Your Neighborhood Smashburger", "phone": "17027639468", "website": "https://smashburger.com/locations/us/nv/las-vegas/3700-w-flamingo-rd/", "opening_hours": "Mo-Th 10:00-22:00; Fr-Sa 10:00-23:00; Su 10:00-22:00", "image": "https://smashburger.com/wp-content/uploads/2021/03/SB_hori_logo_Lt_NoTag_TM_RGB_XL.png", "brand": "Smashburger", "brand:wikidata": "Q17061332", "nsi_id": "smashburger-d2abf0"}, "geometry": {"type": "Point", "coordinates": [-115.1858193, 36.116649]}},
{"type": "Feature", "id": "AuqzZj3vARBQ1HDKeFwRSguYFmI=", "properties": {"ref": "1540", "@spider": "smashburger", "amenity": "fast_food", "cuisine": "burger", "takeaway": "yes", "addr:street_address": "N. Terminal Rd.,Space  TBF-2", "addr:city": "Houston", "addr:state": "TX", "addr:postcode": "77032", "name": "Your Neighborhood Smashburger", "phone": "13036331502", "website": "https://smashburger.com/locations/us/tx/houston/2800-n-terminal-road/", "opening_hours": "24/7", "image": "https://smashburger.com/wp-content/uploads/2021/03/SB_hori_logo_Lt_NoTag_TM_RGB_XL.png", "brand": "Smashburger", "brand:wikidata": "Q17061332", "nsi_id": "smashburger-d2abf0"}, "geometry": {"type": "Point", "coordinates": [-95.3460108, 29.9865061]}},
{"type": "Feature", "id": "FRd24QJDaoE4nWKxqfFLDayhM8A=", "properties": {"ref": "1539", "@spider": "smashburger", "amenity": "fast_food", "cuisine": "burger", "takeaway": "yes", "addr:street_address": "1000 Morris Ave.,", "addr:city": "Union", "addr:state": "NJ", "addr:postcode": "07083", "name": "Your Neighborhood Smashburger", "phone": "19087375163", "website": "https://smashburger.com/locations/us/nj/union/1000-morris-ave/", "opening_hours": "Mo-Fr 11:00-16:00; Sa-Su 00:00-24:00", "image": "https://smashburger.com/wp-content/uploads/2021/03/SB_hori_logo_Lt_NoTag_TM_RGB_XL.png", "brand": "Smashburger", "brand:wikidata": "Q17061332", "nsi_id": "smashburger-d2abf0"}, "geometry": {"type": "Point", "coordinates": [-74.2343167, 40.6783816]}},
{"type": "Feature", "id": "LQNVFxbAUCPdSJcVb7W1EuJ8ygo=", "properties": {"ref": "1534", "@spider": "smashburger", "amenity": "fast_food", "cuisine": "burger", "takeaway": "yes", "addr:street_address": "1701 Airport Blvd.,Space  NC-10", "addr:city": "San Jose", "addr:state": "CA", "addr:postcode": "95110", "name": "Your Neighborhood Smashburger", "phone": "14084413902", "website": "https://smashburger.com/locations/us/ca/san-jose/1701-airport-blvd/", "opening_hours": "Mo-Fr 10:00-20:00; Sa 09:00-17:00; Su 05:00-21:00", "image": "https://smashburger.com/wp-content/uploads/2021/03/SB_hori_logo_Lt_NoTag_TM_RGB_XL.png", "brand": "Smashburger", "brand:wikidata": "Q17061332", "nsi_id": "smashburger-d2abf0"}, "geometry": {"type": "Point", "coordinates": [-121.9257136, 37.3660987]}},
{"type": "Feature", "id": "g0fT-1-MJRj-yLlZeWxqP4bpfCE=", "properties": {"ref": "1525", "@spider": "smashburger", "amenity": "fast_food", "cuisine": "burger", "takeaway": "yes", "addr:street_address": "994 W. Dillon Rd.,", "addr:city": "Louisville", "addr:state": "CO", "addr:postcode": "80027", "name": "Your Neighborhood Smashburger", "phone": "17203997177", "website": "https://smashburger.com/locations/us/co/louisville/994-w-dillon-rd/", "opening_hours": "Mo-Th 10:30-20:30; Fr-Sa 10:30-21:30; Su 10:30-20:30", "image": "https://smashburger.com/wp-content/uploads/2021/03/SB_hori_logo_Lt_NoTag_TM_RGB_XL.png", "brand": "Smashburger", "brand:wikidata": "Q17061332", "nsi_id": "smashburger-d2abf0"}, "geometry": {"type": "Point", "coordinates": [-105.1643822, 39.9605526]}},
{"type": "Feature", "id": "IGbxYDYfbDRUsCkUfAI3Atl1ENg=", "properties": {"ref": "1524", "@spider": "smashburger", "amenity": "fast_food", "cuisine": "burger", "takeaway": "yes", "addr:street_address": "23890 E. Smoky Hill Rd.,Unit 240", "addr:city": "Aurora", "addr:state": "CO", "addr:postcode": "80016", "name": "Your Neighborhood Smashburger", "phone": "17205054606", "website": "https://smashburger.com/locations/us/co/aurora/23890-e-smoky-hill-rd/", "opening_hours": "Mo-Th 10:30-21:30; Fr-Sa 10:30-22:00; Su 10:30-21:30", "image": "https://smashburger.com/wp-content/uploads/2021/03/SB_hori_logo_Lt_NoTag_TM_RGB_XL.png", "brand": "Smashburger", "brand:wikidata": "Q17061332", "nsi_id": "smashburger-d2abf0"}, "geometry": {"type": "Point", "coordinates": [-104.7097057, 39.5987713]}},
{"type": "Feature", "id": "FOuDmURiQfFqV3iarhwronq13Yw=", "properties": {"ref": "1522", "@spider": "smashburger", "amenity": "fast_food", "cuisine": "burger", "takeaway": "yes", "addr:street_address": "6807 E. Baseline Rd.,Suite 101", "addr:city": "Mesa", "addr:state": "AZ", "addr:postcode": "85209", "name": "Your Neighborhood Smashburger", "phone": "14803786600", "website": "https://smashburger.com/locations/us/az/mesa/6807-e-baseline-rd/", "opening_hours": "Mo-Th 10:00-22:00; Fr-Sa 10:00-23:00; Su 10:00-22:00", "image": "https://smashburger.com/wp-content/uploads/2021/03/SB_hori_logo_Lt_NoTag_TM_RGB_XL.png", "brand": "Smashburger", "brand:wikidata": "Q17061332", "nsi_id": "smashburger-d2abf0"}, "geometry": {"type": "Point", "coordinates": [-111.6873544, 33.3790183]}},
{"type": "Feature", "id": "Fn8lPIM8LucSmQQWATQwmF5DgK0=", "properties": {"ref": "1515", "@spider": "smashburger", "amenity": "fast_food", "cuisine": "burger", "takeaway": "yes", "addr:street_address": "14375 Orchard Pkwy.,", "addr:city": "Westminster", "addr:state": "CO", "addr:postcode": "80023", "name": "Your Neighborhood Smashburger", "phone": "17203997098", "website": "https://smashburger.com/locations/us/co/westminster/14375-orchard-pkwy/", "opening_hours": "Mo-Th 10:30-21:30; Fr-Sa 10:30-22:00; Su 10:30-21:30", "image": "https://smashburger.com/wp-content/uploads/2021/03/SB_hori_logo_Lt_NoTag_TM_RGB_XL.png", "brand": "Smashburger", "brand:wikidata": "Q17061332", "nsi_id": "smashburger-d2abf0"}, "geometry": {"type": "Point", "coordinates": [-104.9947595, 39.9570832]}},
{"type": "Feature", "id": "4MqqZKeGT-YynusaV3FsrOlrRvs=", "properties": {"ref": "1513", "@spider": "smashburger", "amenity": "fast_food", "cuisine": "burger", "takeaway": "yes", "addr:street_address": "2939 Terminal Dr.,CVG Concourse A", "addr:city": "Burlington", "addr:state": "KY", "addr:postcode": "41005", "name": "Your Neighborhood Smashburger", "phone": "18597671059", "website": "https://smashburger.com/locations/us/ky/burlington/2939-terminal-dr/", "opening_hours": "Mo 11:00-18:00; Tu-We 00:00-24:00; Th-Su 11:00-18:00", "image": "https://smashburger.com/wp-content/uploads/2021/03/SB_hori_logo_Lt_NoTag_TM_RGB_XL.png", "brand": "Smashburger", "brand:wikidata": "Q17061332", "nsi_id": "smashburger-d2abf0"}, "geometry": {"type": "Point", "coordinates": [-84.6534341, 39.0532292]}},
{"type": "Feature", "id": "zOeMaE5SNiS5DRqbSgYQJaEr5pw=", "properties": {"ref": "1512", "@spider": "smashburger", "amenity": "fast_food", "cuisine": "burger", "takeaway": "yes", "addr:street_address": "2317 US-22 (Center Island),", "addr:city": "Union", "addr:state": "NJ", "addr:postcode": "07083", "name": "Your Neighborhood Smashburger", "phone": "19083642132", "website": "https://smashburger.com/locations/us/nj/union/2317-us-22/", "opening_hours": "Mo-Th 10:30-21:30; Fr-Sa 10:30-22:00; Su 10:30-21:30", "image": "https://smashburger.com/wp-content/uploads/2021/03/SB_hori_logo_Lt_NoTag_TM_RGB_XL.png", "brand": "Smashburger", "brand:wikidata": "Q17061332", "nsi_id": "smashburger-d2abf0"}, "geometry": {"type": "Point", "coordinates": [-74.291911, 40.691366]}},
{"type": "Feature", "id": "a_ked3GZmfzIjfZ6Nq4On-nYnYA=", "properties": {"ref": "1506", "@spider": "smashburger", "amenity": "fast_food", "cuisine": "burger", "takeaway": "yes", "addr:street_address": "3201 Airport Way,", "addr:city": "Boise", "addr:state": "ID", "addr:postcode": "83705", "name": "Your Neighborhood Smashburger", "phone": "13036331501", "website": "https://smashburger.com/locations/us/id/boise/3201-airport-way/", "opening_hours": "Mo-Su 11:30-17:00", "image": "https://smashburger.com/wp-content/uploads/2021/03/SB_hori_logo_Lt_NoTag_TM_RGB_XL.png", "brand": "Smashburger", "brand:wikidata": "Q17061332", "nsi_id": "smashburger-d2abf0"}, "geometry": {"type": "Point", "coordinates": [-116.2219709, 43.5680504]}},
{"type": "Feature", "id": "ClE0O-ee17cOa7-FZK3qVC7bbNg=", "properties": {"ref": "1501", "@spider": "smashburger", "amenity": "fast_food", "cuisine": "burger", "takeaway": "yes", "addr:street_address": "1425 E. Renner Rd.,", "addr:city": "Richardson", "addr:state": "TX", "addr:postcode": "75082", "name": "Your Neighborhood Smashburger", "phone": "12146461297", "website": "https://smashburger.com/locations/us/tx/richardson/1425-e-renner-rd/", "opening_hours": "Mo-Th 10:30-21:30; Fr-Sa 10:30-22:00; Su 10:30-21:30", "image": "https://smashburger.com/wp-content/uploads/2021/03/SB_hori_logo_Lt_NoTag_TM_RGB_XL.png", "brand": "Smashburger", "brand:wikidata": "Q17061332", "nsi_id": "smashburger-d2abf0"}, "geometry": {"type": "Point", "coordinates": [-96.6974294, 32.9977574]}},
{"type": "Feature", "id": "ApIcTr5wGpWienWVaMqcId9r1d8=", "properties": {"ref": "1500", "@spider": "smashburger", "amenity": "fast_food", "cuisine": "burger", "takeaway": "yes", "addr:street_address": "4283 Legendary Dr.,", "addr:city": "Destin", "addr:state": "FL", "addr:postcode": "32541", "name": "Your Neighborhood Smashburger", "phone": "18504247600", "website": "https://smashburger.com/locations/us/fl/destin/4283-legendary-dr/", "opening_hours": "Mo-Sa 11:00-20:00; Su 11:00-19:00", "image": "https://smashburger.com/wp-content/uploads/2021/03/SB_hori_logo_Lt_NoTag_TM_RGB_XL.png", "brand": "Smashburger", "brand:wikidata": "Q17061332", "nsi_id": "smashburger-d2abf0"}, "geometry": {"type": "Point", "coordinates": [-86.4261749, 30.3912257]}},
{"type": "Feature", "id": "QmGcQ8DIOsLsY6dRbT1lw7IpqZE=", "properties": {"ref": "1498", "@spider": "smashburger", "amenity": "fast_food", "cuisine": "burger", "takeaway": "yes", "addr:street_address": "500 SE Walton Blvd.,Suite  #2", "addr:city": "Bentonville", "addr:state": "AR", "addr:postcode": "72712", "name": "Your Neighborhood Smashburger", "phone": "14798026250", "website": "https://smashburger.com/locations/us/ar/bentonville/500-se-walton-blvd/", "opening_hours": "Mo-Th 11:00-20:00; Fr-Sa 11:00-21:00; Su 11:00-20:00", "image": "https://smashburger.com/wp-content/uploads/2021/03/SB_hori_logo_Lt_NoTag_TM_RGB_XL.png", "brand": "Smashburger", "brand:wikidata": "Q17061332", "nsi_id": "smashburger-d2abf0"}, "geometry": {"type": "Point", "coordinates": [-94.2049347, 36.3354317]}},
{"type": "Feature", "id": "bsj2kiM1iMujKvaGmCXj6FxYTPQ=", "properties": {"ref": "1496", "@spider": "smashburger", "amenity": "fast_food", "cuisine": "burger", "takeaway": "yes", "addr:street_address": "13111 Riverdale Dr. NW,", "addr:city": "Coon Rapids", "addr:state": "MN", "addr:postcode": "55448", "name": "Your Neighborhood Smashburger", "phone": "16519644700", "website": "https://smashburger.com/locations/us/mn/coon-rapids/13111-riverdale-dr-nw/", "opening_hours": "Mo-Th 10:30-21:30; Fr-Sa 10:30-22:00; Su 10:30-21:30", "image": "https://smashburger.com/wp-content/uploads/2021/03/SB_hori_logo_Lt_NoTag_TM_RGB_XL.png", "brand": "Smashburger", "brand:wikidata": "Q17061332", "nsi_id": "smashburger-d2abf0"}, "geometry": {"type": "Point", "coordinates": [-93.35844, 45.20858]}},
{"type": "Feature", "id": "O8qEWv8OpSe5auhwVkKjB6lHle8=", "properties": {"ref": "1495", "@spider": "smashburger", "amenity": "fast_food", "cuisine": "burger", "takeaway": "yes", "addr:street_address": "220 Union Blvd.,", "addr:city": "Lakewood", "addr:state": "CO", "addr:postcode": "80228", "name": "Your Neighborhood Smashburger", "phone": "17203997171", "website": "https://smashburger.com/locations/us/co/lakewood/220-union-blvd/", "opening_hours": "Mo-Th 10:30-21:30; Fr-Sa 10:30-22:00; Su 10:30-21:30", "image": "https://smashburger.com/wp-content/uploads/2021/03/SB_hori_logo_Lt_NoTag_TM_RGB_XL.png", "brand": "Smashburger", "brand:wikidata": "Q17061332", "nsi_id": "smashburger-d2abf0"}, "geometry": {"type": "Point", "coordinates": [-105.1319369, 39.7186771]}},
{"type": "Feature", "id": "4laC6095l8zjlRPmlnJp_ZC3hOg=", "properties": {"ref": "1491", "@spider": "smashburger", "amenity": "fast_food", "cuisine": "burger", "takeaway": "yes", "addr:street_address": "6061 El Cajon Blvd.,Suite  C", "addr:city": "San Diego", "addr:state": "CA", "addr:postcode": "92115", "name": "Your Neighborhood Smashburger", "phone": "16193598444", "website": "https://smashburger.com/locations/us/ca/san-diego/6061-el-cajon-blvd/", "opening_hours": "Mo-Su 10:30-22:00", "image": "https://smashburger.com/wp-content/uploads/2021/03/SB_hori_logo_Lt_NoTag_TM_RGB_XL.png", "brand": "Smashburger", "brand:wikidata": "Q17061332", "nsi_id": "smashburger-d2abf0"}, "geometry": {"type": "Point", "coordinates": [-117.0677231, 32.7609596]}},
{"type": "Feature", "id": "3V4OFha32-aH1ZkXcfZCIKeNSgQ=", "properties": {"ref": "1485", "@spider": "smashburger", "amenity": "fast_food", "cuisine": "burger", "takeaway": "yes", "addr:street_address": "193 W. 237th St.,", "addr:city": "Bronx", "addr:state": "NY", "addr:postcode": "10463", "name": "Your Neighborhood Smashburger", "phone": "17186184229", "website": "https://smashburger.com/locations/us/ny/bronx/193-w-237th-st/", "opening_hours": "Mo-We 10:30-22:00; Th-Sa 10:30-23:00; Su 10:30-22:00", "image": "https://smashburger.com/wp-content/uploads/2021/03/SB_hori_logo_Lt_NoTag_TM_RGB_XL.png", "brand": "Smashburger", "brand:wikidata": "Q17061332", "nsi_id": "smashburger-d2abf0"}, "geometry": {"type": "Point", "coordinates": [-73.8999146, 40.8844445]}},
{"type": "Feature", "id": "Ib2UbtIDAYhRQmoszx-uj7g3T7Q=", "properties": {"ref": "1481", "@spider": "smashburger", "amenity": "fast_food", "cuisine": "burger", "takeaway": "yes", "addr:street_address": "448 Mamaroneck Ave.,", "addr:city": "Mamaroneck", "addr:state": "NY", "addr:postcode": "10543", "name": "Your Neighborhood Smashburger", "phone": "19147773370", "website": "https://smashburger.com/locations/us/ny/mamaroneck/448-mamaroneck-ave/", "opening_hours": "Mo-Su 10:30-22:00", "image": "https://smashburger.com/wp-content/uploads/2021/03/SB_hori_logo_Lt_NoTag_TM_RGB_XL.png", "brand": "Smashburger", "brand:wikidata": "Q17061332", "nsi_id": "smashburger-d2abf0"}, "geometry": {"type": "Point", "coordinates": [-73.7369845, 40.9522987]}},
{"type": "Feature", "id": "6S4LCsP12qyILKc9SKJbDkVKeFo=", "properties": {"ref": "1480", "@spider": "smashburger", "amenity": "fast_food", "cuisine": "burger", "takeaway": "yes", "addr:street_address": "4325 Boston Rd.,", "addr:city": "Bronx", "addr:state": "NY", "addr:postcode": "10466", "name": "Your Neighborhood Smashburger", "phone": "13479134169", "website": "https://smashburger.com/locations/us/ny/bronx/4325-boston-rd/", "opening_hours": "Mo-Su 10:30-22:00", "image": "https://smashburger.com/wp-content/uploads/2021/03/SB_hori_logo_Lt_NoTag_TM_RGB_XL.png", "brand": "Smashburger", "brand:wikidata": "Q17061332", "nsi_id": "smashburger-d2abf0"}, "geometry": {"type": "Point", "coordinates": [-73.82053, 40.89004]}},
{"type": "Feature", "id": "E79p31U7wB2xCuW4VGysmBc5FBE=", "properties": {"ref": "1479", "@spider": "smashburger", "amenity": "fast_food", "cuisine": "burger", "takeaway": "yes", "addr:street_address": "49 Tarrytown Rd.,", "addr:city": "White Plains", "addr:state": "NY", "addr:postcode": "10607", "name": "Your Neighborhood Smashburger", "phone": "19143283880", "website": "https://smashburger.com/locations/us/ny/white-plains/49-tarrytown-rd/", "opening_hours": "Mo-Th 10:30-22:00; Fr-Sa 10:30-23:00; Su 10:30-22:00", "image": "https://smashburger.com/wp-content/uploads/2021/03/SB_hori_logo_Lt_NoTag_TM_RGB_XL.png", "brand": "Smashburger", "brand:wikidata": "Q17061332", "nsi_id": "smashburger-d2abf0"}, "geometry": {"type": "Point", "coordinates": [-73.783129, 41.038598]}},
{"type": "Feature", "id": "N2t1RV_DcKwNutZMO6GGNckSe9Q=", "properties": {"ref": "1477", "@spider": "smashburger", "amenity": "fast_food", "cuisine": "burger", "takeaway": "yes", "addr:street_address": "2925 S. Alma School Rd.,Suite 8", "addr:city": "Chandler", "addr:state": "AZ", "addr:postcode": "85286", "name": "Your Neighborhood Smashburger", "phone": "16028920658", "website": "https://smashburger.com/locations/us/az/chandler/2925-s-alma-school-rd/", "opening_hours": "Mo-Th 10:00-22:00; Fr-Sa 10:00-23:00; Su 10:00-22:00", "image": "https://smashburger.com/wp-content/uploads/2021/03/SB_hori_logo_Lt_NoTag_TM_RGB_XL.png", "brand": "Smashburger", "brand:wikidata": "Q17061332", "nsi_id": "smashburger-d2abf0"}, "geometry": {"type": "Point", "coordinates": [-111.8574962, 33.2635415]}},
{"type": "Feature", "id": "48XQPK8D2nhbEFTS7pTzcVF7VBM=", "properties": {"ref": "1472", "@spider": "smashburger", "amenity": "fast_food", "cuisine": "burger", "takeaway": "yes", "addr:street_address": "20420 S. Avalon Blvd.,Suite  B", "addr:city": "Carson", "addr:state": "CA", "addr:postcode": "90746", "name": "Your Neighborhood Smashburger", "phone": "13107422298", "website": "https://smashburger.com/locations/us/ca/carson/20420-avalon-blvd/", "opening_hours": "Mo-Th 10:00-21:30; Fr-Sa 10:00-22:00; Su 10:00-21:30", "image": "https://smashburger.com/wp-content/uploads/2021/03/SB_hori_logo_Lt_NoTag_TM_RGB_XL.png", "brand": "Smashburger", "brand:wikidata": "Q17061332", "nsi_id": "smashburger-d2abf0"}, "geometry": {"type": "Point", "coordinates": [-118.2645075, 33.846507]}},
{"type": "Feature", "id": "S5fOYxmUNte5jMohLGh3XlHeVF8=", "properties": {"ref": "1471", "@spider": "smashburger", "amenity": "fast_food", "cuisine": "burger", "takeaway": "yes", "addr:street_address": "170 Essex St.,Suite 1", "addr:city": "Lodi", "addr:state": "NJ", "addr:postcode": "07644", "name": "Your Neighborhood Smashburger", "phone": "12013514899", "website": "https://smashburger.com/locations/us/nj/lodi/170-essex-st/", "opening_hours": "Mo-Su 10:30-22:00", "image": "https://smashburger.com/wp-content/uploads/2021/03/SB_hori_logo_Lt_NoTag_TM_RGB_XL.png", "brand": "Smashburger", "brand:wikidata": "Q17061332", "nsi_id": "smashburger-d2abf0"}, "geometry": {"type": "Point", "coordinates": [-74.0719272, 40.8910073]}},
{"type": "Feature", "id": "yABK9jRXb3Y-8N8V62D5Ax-tbYU=", "properties": {"ref": "1470", "@spider": "smashburger", "amenity": "fast_food", "cuisine": "burger", "takeaway": "yes", "addr:street_address": "3301 Veterans Blvd.,Suite  79A", "addr:city": "Metairie", "addr:state": "LA", "addr:postcode": "70002", "name": "Your Neighborhood Smashburger", "phone": "15048337906", "website": "https://smashburger.com/locations/us/la/metairie/3301-veterans-blvd/", "opening_hours": "Mo-Sa 10:00-19:00; Su 11:00-18:00", "image": "https://smashburger.com/wp-content/uploads/2021/03/SB_hori_logo_Lt_NoTag_TM_RGB_XL.png", "brand": "Smashburger", "brand:wikidata": "Q17061332", "nsi_id": "smashburger-d2abf0"}, "geometry": {"type": "Point", "coordinates": [-90.1565742, 30.0040258]}},
{"type": "Feature", "id": "p4wPWdxzhhOHhRoOBnw0GZ79RsY=", "properties": {"ref": "1462", "@spider": "smashburger", "amenity": "fast_food", "cuisine": "burger", "takeaway": "yes", "addr:street_address": "6679 Falls of Neuse Rd.,Suite 105", "addr:city": "Raleigh", "addr:state": "NC", "addr:postcode": "27615", "name": "Your Neighborhood Smashburger", "phone": "19198709230", "website": "https://smashburger.com/locations/us/nc/raleigh/6679-105-falls-of-neuse-road/", "opening_hours": "Mo-Su 11:00-20:00", "image": "https://smashburger.com/wp-content/uploads/2021/03/SB_hori_logo_Lt_NoTag_TM_RGB_XL.png", "brand": "Smashburger", "brand:wikidata": "Q17061332", "nsi_id": "smashburger-d2abf0"}, "geometry": {"type": "Point", "coordinates": [-78.6232967, 35.8745704]}},
{"type": "Feature", "id": "68fbrdQZxXA_PWdlQkTZFIux6b4=", "properties": {"ref": "1459", "@spider": "smashburger", "amenity": "fast_food", "cuisine": "burger", "takeaway": "yes", "addr:street_address": "46 Marion Ave.,", "addr:city": "Saratoga Springs", "addr:state": "NY", "addr:postcode": "12866", "name": "Your Neighborhood Smashburger", "phone": "15188711801", "website": "https://smashburger.com/locations/us/ny/saratoga-springs/46-marion-ave/", "opening_hours": "Mo-Th 11:00-21:00; Fr-Sa 11:00-22:00; Su 11:00-21:00", "image": "https://smashburger.com/wp-content/uploads/2021/03/SB_hori_logo_Lt_NoTag_TM_RGB_XL.png", "brand": "Smashburger", "brand:wikidata": "Q17061332", "nsi_id": "smashburger-d2abf0"}, "geometry": {"type": "Point", "coordinates": [-73.7712588, 43.0915808]}},
{"type": "Feature", "id": "LH_oX51-iUaHXvVggteJli7SSKU=", "properties": {"ref": "1454", "@spider": "smashburger", "amenity": "fast_food", "cuisine": "burger", "takeaway": "yes", "addr:street_address": "5215 W Baseline Rd.,", "addr:city": "Laveen", "addr:state": "AZ", "addr:postcode": "85339", "name": "Your Neighborhood Smashburger", "phone": "14803782211", "website": "https://smashburger.com/locations/us/az/laveen/5215-w-baseline-rd/", "opening_hours": "Mo-Th 10:00-22:00; Fr-Sa 10:00-23:00; Su 10:00-22:00", "image": "https://smashburger.com/wp-content/uploads/2021/03/SB_hori_logo_Lt_NoTag_TM_RGB_XL.png", "brand": "Smashburger", "brand:wikidata": "Q17061332", "nsi_id": "smashburger-d2abf0"}, "geometry": {"type": "Point", "coordinates": [-112.171715, 33.37675]}},
{"type": "Feature", "id": "LhUsblJ1mvoFRGWbtN6wLa2n78Q=", "properties": {"ref": "1450", "@spider": "smashburger", "amenity": "fast_food", "cuisine": "burger", "takeaway": "yes", "addr:street_address": "14059 Aldrich Ave. S.,", "addr:city": "Burnsville", "addr:state": "MN", "addr:postcode": "55337", "name": "Your Neighborhood Smashburger", "phone": "19529554488", "website": "https://smashburger.com/locations/us/mn/burnsville/14059-aldrich-ave-s/", "opening_hours": "Mo-Su 10:30-21:30", "image": "https://smashburger.com/wp-content/uploads/2021/03/SB_hori_logo_Lt_NoTag_TM_RGB_XL.png", "brand": "Smashburger", "brand:wikidata": "Q17061332", "nsi_id": "smashburger-d2abf0"}, "geometry": {"type": "Point", "coordinates": [-93.2872995, 44.7484893]}},
{"type": "Feature", "id": "ko42Xjn6ST2z_Ybd572F6klZPE0=", "properties": {"ref": "1449", "@spider": "smashburger", "amenity": "fast_food", "cuisine": "burger", "takeaway": "yes", "addr:street_address": "1335 S. Alma School Rd.,Suite 103", "addr:city": "Mesa", "addr:state": "AZ", "addr:postcode": "85210", "name": "Your Neighborhood Smashburger", "phone": "16238886635", "website": "https://smashburger.com/locations/us/az/mesa/1335-s-alma-school-rd/", "opening_hours": "Mo-Th 10:00-22:00; Fr-Sa 10:00-23:00; Su 10:00-22:00", "image": "https://smashburger.com/wp-content/uploads/2021/03/SB_hori_logo_Lt_NoTag_TM_RGB_XL.png", "brand": "Smashburger", "brand:wikidata": "Q17061332", "nsi_id": "smashburger-d2abf0"}, "geometry": {"type": "Point", "coordinates": [-111.8571807, 33.3897011]}},
{"type": "Feature", "id": "5Wj_IcS9csn4Bug9XP6L5Mpm_f8=", "properties": {"ref": "1435", "@spider": "smashburger", "amenity": "fast_food", "cuisine": "burger", "takeaway": "yes", "addr:street_address": "225 Route 46 West,Site B", "addr:city": "Totowa", "addr:state": "NJ", "addr:postcode": "07512", "name": "Your Neighborhood Smashburger", "phone": "19733393032", "website": "https://smashburger.com/locations/us/nj/totowa/225-rt-46-west/", "opening_hours": "Mo-Su 10:30-22:00", "image": "https://smashburger.com/wp-content/uploads/2021/03/SB_hori_logo_Lt_NoTag_TM_RGB_XL.png", "brand": "Smashburger", "brand:wikidata": "Q17061332", "nsi_id": "smashburger-d2abf0"}, "geometry": {"type": "Point", "coordinates": [-74.22798, 40.8945347]}},
{"type": "Feature", "id": "R1oyE3pI5fvoBCcoQyH12F6NZ8U=", "properties": {"ref": "1430", "@spider": "smashburger", "amenity": "fast_food", "cuisine": "burger", "takeaway": "yes", "addr:street_address": "81 Wolf Rd.,", "addr:city": "Colonie", "addr:state": "NY", "addr:postcode": "12205", "name": "Your Neighborhood Smashburger", "phone": "15184874099", "website": "https://smashburger.com/locations/us/ny/colonie/81-wolf-rd/", "opening_hours": "Mo-Th 11:00-21:00; Fr-Sa 11:00-22:00; Su 11:00-21:00", "image": "https://smashburger.com/wp-content/uploads/2021/03/SB_hori_logo_Lt_NoTag_TM_RGB_XL.png", "brand": "Smashburger", "brand:wikidata": "Q17061332", "nsi_id": "smashburger-d2abf0"}, "geometry": {"type": "Point", "coordinates": [-73.811833, 42.714572]}},
{"type": "Feature", "id": "41Xti2TCcvspGWW-33HyvzqtEgc=", "properties": {"ref": "1429", "@spider": "smashburger", "amenity": "fast_food", "cuisine": "burger", "takeaway": "yes", "addr:street_address": "334 N. Alafaya Trail,", "addr:city": "Orlando", "addr:state": "FL", "addr:postcode": "32828", "name": "Your Neighborhood Smashburger", "phone": "14072036081", "website": "https://smashburger.com/locations/us/fl/orlando/334-n-alafaya-trail/", "opening_hours": "Mo-Th 10:30-20:30; Fr-Sa 10:30-21:00; Su 10:30-20:30", "image": "https://smashburger.com/wp-content/uploads/2021/03/SB_hori_logo_Lt_NoTag_TM_RGB_XL.png", "brand": "Smashburger", "brand:wikidata": "Q17061332", "nsi_id": "smashburger-d2abf0"}, "geometry": {"type": "Point", "coordinates": [-81.2058764, 28.5524793]}},
{"type": "Feature", "id": "eaEtDzbo61oDnBqjhQoQ1th2M5U=", "properties": {"ref": "1423", "@spider": "smashburger", "amenity": "fast_food", "cuisine": "burger", "takeaway": "yes", "addr:street_address": "2010 E Elliot Rd,", "addr:city": "Tempe", "addr:state": "AZ", "addr:postcode": "85283", "name": "Your Neighborhood Smashburger", "phone": "14804203635", "website": "https://smashburger.com/locations/us/az/tempe/2010-e-elliot-rd/", "opening_hours": "Mo-Th 10:00-22:00; Fr-Sa 10:00-23:00; Su 10:00-22:00", "image": "https://smashburger.com/wp-content/uploads/2021/03/SB_hori_logo_Lt_NoTag_TM_RGB_XL.png", "brand": "Smashburger", "brand:wikidata": "Q17061332", "nsi_id": "smashburger-d2abf0"}, "geometry": {"type": "Point", "coordinates": [-111.9020865, 33.34974396]}},
{"type": "Feature", "id": "A1HDUsqmUpu46c6yRZ_h__gDq5g=", "properties": {"ref": "1418", "@spider": "smashburger", "amenity": "fast_food", "cuisine": "burger", "takeaway": "yes", "addr:street_address": "1 Saarinen Cir.,", "addr:city": "Sterling", "addr:state": "VA", "addr:postcode": "20166", "name": "Your Neighborhood Smashburger", "phone": "17036611468", "website": "https://smashburger.com/locations/us/va/sterling/1-saarinen-cir/", "opening_hours": "Mo-Su 09:00-18:00", "image": "https://smashburger.com/wp-content/uploads/2021/03/SB_hori_logo_Lt_NoTag_TM_RGB_XL.png", "brand": "Smashburger", "brand:wikidata": "Q17061332", "nsi_id": "smashburger-d2abf0"}, "geometry": {"type": "Point", "coordinates": [-77.4478238, 38.9526659]}},
{"type": "Feature", "id": "k9Hbelg96xyUKLd9jTQNFhtk8tE=", "properties": {"ref": "1417", "@spider": "smashburger", "amenity": "fast_food", "cuisine": "burger", "takeaway": "yes", "addr:street_address": "3735 Choctaw Rd.,", "addr:city": "Durant", "addr:state": "OK", "addr:postcode": "74701", "name": "Your Neighborhood Smashburger", "phone": "18886524628", "website": "https://smashburger.com/locations/us/ok/durant/3735-choctaw-rd/", "opening_hours": "Mo-Th 11:00-23:00; Fr-Sa 11:00-15:00; Su 11:00-23:00", "image": "https://smashburger.com/wp-content/uploads/2021/03/SB_hori_logo_Lt_NoTag_TM_RGB_XL.png", "brand": "Smashburger", "brand:wikidata": "Q17061332", "nsi_id": "smashburger-d2abf0"}, "geometry": {"type": "Point", "coordinates": [-96.4141564, 33.9511675]}},
{"type": "Feature", "id": "o4TxJiZibGsfgnpr0CR2AQfazrc=", "properties": {"ref": "1416", "@spider": "smashburger", "amenity": "fast_food", "cuisine": "burger", "takeaway": "yes", "addr:street_address": "3162 E. Colonial Drive,", "addr:city": "Orlando", "addr:state": "FL", "addr:postcode": "32803", "name": "Your Neighborhood Smashburger", "phone": "14072863390", "website": "https://smashburger.com/locations/us/fl/orlando/3162-east-colonial-drive/", "opening_hours": "Mo-Su 09:00-22:00", "image": "https://smashburger.com/wp-content/uploads/2021/03/SB_hori_logo_Lt_NoTag_TM_RGB_XL.png", "brand": "Smashburger", "brand:wikidata": "Q17061332", "nsi_id": "smashburger-d2abf0"}, "geometry": {"type": "Point", "coordinates": [-81.3432326, 28.5530809]}},
{"type": "Feature", "id": "PF6TUaV6qSvSmtRNVQLlpRJvEDI=", "properties": {"ref": "1415", "@spider": "smashburger", "amenity": "fast_food", "cuisine": "burger", "takeaway": "yes", "addr:street_address": "2904 S. Santan Village Pkwy.,Suite 104", "addr:city": "Gilbert", "addr:state": "AZ", "addr:postcode": "85295", "name": "Your Neighborhood Smashburger", "phone": "14804203480", "website": "https://smashburger.com/locations/us/az/gilbert/2904-s-santan-village-pkwy/", "opening_hours": "Mo-Th 10:00-22:00; Fr-Sa 10:00-23:00; Su 10:00-22:00", "image": "https://smashburger.com/wp-content/uploads/2021/03/SB_hori_logo_Lt_NoTag_TM_RGB_XL.png", "brand": "Smashburger", "brand:wikidata": "Q17061332", "nsi_id": "smashburger-d2abf0"}, "geometry": {"type": "Point", "coordinates": [-111.743951, 33.2971056]}},
{"type": "Feature", "id": "nUz_knEKyyizHCbso19Hfe_67rg=", "properties": {"ref": "1404", "@spider": "smashburger", "amenity": "fast_food", "cuisine": "burger", "takeaway": "yes", "addr:street_address": "2805 N. Scottsdale Rd.,", "addr:city": "Scottsdale", "addr:state": "AZ", "addr:postcode": "85257", "name": "Your Neighborhood Smashburger", "phone": "14806598080", "website": "https://smashburger.com/locations/us/az/scottsdale/2805-n-scottsdale-rd/", "opening_hours": "Mo-Th 10:00-22:00; Fr-Sa 10:00-23:00; Su 10:00-22:00", "image": "https://smashburger.com/wp-content/uploads/2021/03/SB_hori_logo_Lt_NoTag_TM_RGB_XL.png", "brand": "Smashburger", "brand:wikidata": "Q17061332", "nsi_id": "smashburger-d2abf0"}, "geometry": {"type": "Point", "coordinates": [-111.9257845, 33.4791995]}},
{"type": "Feature", "id": "oXMyH0RjJq3cvl3FNYyF5vpBTuA=", "properties": {"ref": "1403", "@spider": "smashburger", "amenity": "fast_food", "cuisine": "burger", "takeaway": "yes", "addr:street_address": "21202 S. Ellsworth Loop Rd.,Suite 112", "addr:city": "Queen Creek", "addr:state": "AZ", "addr:postcode": "85142", "name": "Your Neighborhood Smashburger", "phone": "14808889800", "website": "https://smashburger.com/locations/us/az/queen-creek/21202-s-ellsworth-loop-rd/", "opening_hours": "Mo-Th 10:00-22:00; Fr-Sa 10:00-23:00; Su 10:00-22:00", "image": "https://smashburger.com/wp-content/uploads/2021/03/SB_hori_logo_Lt_NoTag_TM_RGB_XL.png", "brand": "Smashburger", "brand:wikidata": "Q17061332", "nsi_id": "smashburger-d2abf0"}, "geometry": {"type": "Point", "coordinates": [-111.6386528, 33.2556866]}},
{"type": "Feature", "id": "JGj9JkMK-73bsEecbhrOHWaKUpU=", "properties": {"ref": "1401", "@spider": "smashburger", "amenity": "fast_food", "cuisine": "burger", "takeaway": "yes", "addr:street_address": "2837 N. Power Rd.,Suite 102", "addr:city": "Mesa", "addr:state": "AZ", "addr:postcode": "85215", "name": "Your Neighborhood Smashburger", "phone": "14802689930", "website": "https://smashburger.com/locations/us/az/mesa/2837-n-power-road/", "opening_hours": "Mo-Th 10:00-22:00; Fr-Sa 10:00-23:00; Su 10:00-22:00", "image": "https://smashburger.com/wp-content/uploads/2021/03/SB_hori_logo_Lt_NoTag_TM_RGB_XL.png", "brand": "Smashburger", "brand:wikidata": "Q17061332", "nsi_id": "smashburger-d2abf0"}, "geometry": {"type": "Point", "coordinates": [-111.6828483, 33.4674897]}},
{"type": "Feature", "id": "RkKaqnN0oNarB8MJsza5zQfxHAA=", "properties": {"ref": "1400", "@spider": "smashburger", "amenity": "fast_food", "cuisine": "burger", "takeaway": "yes", "addr:street_address": "2415 E. Baseline Rd.,", "addr:city": "Phoenix", "addr:state": "AZ", "addr:postcode": "85042", "name": "Your Neighborhood Smashburger", "phone": "16022687733", "website": "https://smashburger.com/locations/us/az/phoenix/2415-e-baseline-rd/", "opening_hours": "Mo-Th 10:00-22:00; Fr-Sa 10:00-23:00; Su 10:00-22:00", "image": "https://smashburger.com/wp-content/uploads/2021/03/SB_hori_logo_Lt_NoTag_TM_RGB_XL.png", "brand": "Smashburger", "brand:wikidata": "Q17061332", "nsi_id": "smashburger-d2abf0"}, "geometry": {"type": "Point", "coordinates": [-112.02976, 33.37739]}},
{"type": "Feature", "id": "E7ceTKm-iqG3c3VeaxkeBF3tpgo=", "properties": {"ref": "1398", "@spider": "smashburger", "amenity": "fast_food", "cuisine": "burger", "takeaway": "yes", "addr:street_address": "9918 W. Happy Valley Rd.,Suite 225", "addr:city": "Peoria", "addr:state": "AZ", "addr:postcode": "85383", "name": "Your Neighborhood Smashburger", "phone": "16235663636", "website": "https://smashburger.com/locations/us/az/peoria/9918-w-happy-valley-rd/", "opening_hours": "Mo-Th 10:00-22:00; Fr-Sa 10:00-23:00; Su 10:00-22:00", "image": "https://smashburger.com/wp-content/uploads/2021/03/SB_hori_logo_Lt_NoTag_TM_RGB_XL.png", "brand": "Smashburger", "brand:wikidata": "Q17061332", "nsi_id": "smashburger-d2abf0"}, "geometry": {"type": "Point", "coordinates": [-112.2727222, 33.7118319]}},
{"type": "Feature", "id": "NGcklPI14Ljty-azshfcandjMQU=", "properties": {"ref": "1396", "@spider": "smashburger", "amenity": "fast_food", "cuisine": "burger", "takeaway": "yes", "addr:street_address": "2000 E. Rio Salado Pkwy.,Suite 1155", "addr:city": "Tempe", "addr:state": "AZ", "addr:postcode": "85281", "name": "Your Neighborhood Smashburger", "phone": "14808943469", "website": "https://smashburger.com/locations/us/az/tempe/2000-e-rio-salado-pkwy/", "opening_hours": "Mo-Th 10:00-22:00; Fr-Sa 10:00-23:00; Su 10:00-22:00", "image": "https://smashburger.com/wp-content/uploads/2021/03/SB_hori_logo_Lt_NoTag_TM_RGB_XL.png", "brand": "Smashburger", "brand:wikidata": "Q17061332", "nsi_id": "smashburger-d2abf0"}, "geometry": {"type": "Point", "coordinates": [-111.9020186, 33.4341011]}},
{"type": "Feature", "id": "0nfRSNKiByXsjJL6Wloh2D-GJ6E=", "properties": {"ref": "1393", "@spider": "smashburger", "amenity": "fast_food", "cuisine": "burger", "takeaway": "yes", "addr:street_address": "9915 W. McDowell Rd.,Suite 101", "addr:city": "Avondale", "addr:state": "AZ", "addr:postcode": "85392", "name": "Your Neighborhood Smashburger", "phone": "16239363020", "website": "https://smashburger.com/locations/us/az/avondale/9915-w-mcdowell-rd/", "opening_hours": "Mo-Th 10:00-22:00; Fr-Sa 10:00-23:00; Su 10:00-22:00", "image": "https://smashburger.com/wp-content/uploads/2021/03/SB_hori_logo_Lt_NoTag_TM_RGB_XL.png", "brand": "Smashburger", "brand:wikidata": "Q17061332", "nsi_id": "smashburger-d2abf0"}, "geometry": {"type": "Point", "coordinates": [-112.2729298, 33.4646577]}},
{"type": "Feature", "id": "zz4M2QftRpGvVVOHktmUw1EdVmg=", "properties": {"ref": "1386", "@spider": "smashburger", "amenity": "fast_food", "cuisine": "burger", "takeaway": "yes", "addr:street_address": "1255 Raritan Rd.,", "addr:city": "Clark", "addr:state": "NJ", "addr:postcode": "07066", "name": "Your Neighborhood Smashburger", "phone": "17325875182", "website": "https://smashburger.com/locations/us/nj/clark/1255-raritan-rd/", "opening_hours": "Mo-Su 10:30-22:00", "image": "https://smashburger.com/wp-content/uploads/2021/03/SB_hori_logo_Lt_NoTag_TM_RGB_XL.png", "brand": "Smashburger", "brand:wikidata": "Q17061332", "nsi_id": "smashburger-d2abf0"}, "geometry": {"type": "Point", "coordinates": [-74.3050858, 40.6317675]}},
{"type": "Feature", "id": "BtS7Fp8DbGNBlzmUg5Qk-uUmwRc=", "properties": {"ref": "1383", "@spider": "smashburger", "amenity": "fast_food", "cuisine": "burger", "takeaway": "yes", "addr:street_address": "55 Parsonage Rd.,Space  FS16B", "addr:city": "Edison", "addr:state": "NJ", "addr:postcode": "08837", "name": "Your Neighborhood Smashburger", "phone": "17326031589", "website": "https://smashburger.com/locations/us/nj/edison/55-parsonage-rd/", "opening_hours": "Mo-Sa 10:30-21:00; Su 11:00-19:00", "image": "https://smashburger.com/wp-content/uploads/2021/03/SB_hori_logo_Lt_NoTag_TM_RGB_XL.png", "brand": "Smashburger", "brand:wikidata": "Q17061332", "nsi_id": "smashburger-d2abf0"}, "geometry": {"type": "Point", "coordinates": [-74.3343192, 40.5480869]}},
{"type": "Feature", "id": "GHkfW2znY5Vg-vMOxja76v-tQJo=", "properties": {"ref": "1378", "@spider": "smashburger", "amenity": "fast_food", "cuisine": "burger", "takeaway": "yes", "addr:street_address": "1390 Village Square Blvd.,", "addr:city": "Tallahassee", "addr:state": "FL", "addr:postcode": "32312", "name": "Your Neighborhood Smashburger", "phone": "18507658118", "website": "https://smashburger.com/locations/us/fl/tallahassee/1390-village-square-blvd/", "opening_hours": "Mo-Su 10:30-21:00", "image": "https://smashburger.com/wp-content/uploads/2021/03/SB_hori_logo_Lt_NoTag_TM_RGB_XL.png", "brand": "Smashburger", "brand:wikidata": "Q17061332", "nsi_id": "smashburger-d2abf0"}, "geometry": {"type": "Point", "coordinates": [-84.2500589, 30.5117307]}},
{"type": "Feature", "id": "h7bc4iz5v7Gbv6iH_4Iney6N0Uc=", "properties": {"ref": "1373", "@spider": "smashburger", "amenity": "fast_food", "cuisine": "burger", "takeaway": "yes", "addr:street_address": "2222 McKinney Ave.,", "addr:city": "Dallas", "addr:state": "TX", "addr:postcode": "75201", "name": "Your Neighborhood Smashburger", "phone": "14693413394", "website": "https://smashburger.com/locations/us/tx/dallas/2222-mckinney-avenue/", "opening_hours": "Mo-Su 10:30-24:00", "image": "https://smashburger.com/wp-content/uploads/2021/03/SB_hori_logo_Lt_NoTag_TM_RGB_XL.png", "brand": "Smashburger", "brand:wikidata": "Q17061332", "nsi_id": "smashburger-d2abf0"}, "geometry": {"type": "Point", "coordinates": [-96.80221, 32.79319]}},
{"type": "Feature", "id": "J-ZX2FWpJukaNM6Lh7hpDc0yjoI=", "properties": {"ref": "1369", "@spider": "smashburger", "amenity": "fast_food", "cuisine": "burger", "takeaway": "yes", "addr:street_address": "490 S. Lenola Rd.,", "addr:city": "Maple Shade", "addr:state": "NJ", "addr:postcode": "08052", "name": "Your Neighborhood Smashburger", "phone": "18562423858", "website": "https://smashburger.com/locations/us/nj/maple-shade/490-s-lenola-rd/", "opening_hours": "Mo-Th 11:00-20:00; Fr-Sa 11:00-21:00; Su 11:00-20:00", "image": "https://smashburger.com/wp-content/uploads/2021/03/SB_hori_logo_Lt_NoTag_TM_RGB_XL.png", "brand": "Smashburger", "brand:wikidata": "Q17061332", "nsi_id": "smashburger-d2abf0"}, "geometry": {"type": "Point", "coordinates": [-74.9684102, 39.9415202]}},
{"type": "Feature", "id": "XDMcrDL8iPtMHufEq4D97_1AP14=", "properties": {"ref": "1368", "@spider": "smashburger", "amenity": "fast_food", "cuisine": "burger", "takeaway": "yes", "addr:street_address": "525 St. Albert Trail,", "addr:city": "St. Albert", "addr:state": "AB", "addr:postcode": "T8N 5E2", "name": "Your Neighborhood Smashburger", "phone": "17804196868", "website": "https://smashburger.com/locations/ca/ab/st-albert/525-st-albert-trail/", "opening_hours": "Mo-Su 11:00-21:00", "image": "https://smashburger.com/wp-content/uploads/2021/03/SB_hori_logo_Lt_NoTag_TM_RGB_XL.png", "brand": "Smashburger", "brand:wikidata": "Q17061332", "nsi_id": "smashburger-d2abf0"}, "geometry": {"type": "Point", "coordinates": [-113.6273107, 53.6512274]}},
{"type": "Feature", "id": "9taiSX2hEDjxuGoVqxM2cXbcB0s=", "properties": {"ref": "1364", "@spider": "smashburger", "amenity": "fast_food", "cuisine": "burger", "takeaway": "yes", "addr:street_address": "2608 Erwin Rd.,", "addr:city": "Durham", "addr:state": "NC", "addr:postcode": "27705", "name": "Your Neighborhood Smashburger", "phone": "19192371070", "website": "https://smashburger.com/locations/us/nc/durham/2608-erwin-road/", "opening_hours": "Mo-Th 10:30-21:00; Fr-Sa 10:30-21:30; Su 10:30-21:00", "image": "https://smashburger.com/wp-content/uploads/2021/03/SB_hori_logo_Lt_NoTag_TM_RGB_XL.png", "brand": "Smashburger", "brand:wikidata": "Q17061332", "nsi_id": "smashburger-d2abf0"}, "geometry": {"type": "Point", "coordinates": [-78.9448625, 36.0093049]}},
{"type": "Feature", "id": "Cs3gl1kcfSuwm3n1Zxh9a8tUJng=", "properties": {"ref": "1362", "@spider": "smashburger", "amenity": "fast_food", "cuisine": "burger", "takeaway": "yes", "addr:street_address": "4991 Factory Shops Blvd.,", "addr:city": "Castle Rock", "addr:state": "CO", "addr:postcode": "80108", "name": "Your Neighborhood Smashburger", "phone": "17205889230", "website": "https://smashburger.com/locations/us/co/castle-rock/4991-factory-shops-blvd/", "opening_hours": "Mo-Th 10:30-21:30; Fr-Sa 10:30-22:00; Su 10:30-21:30", "image": "https://smashburger.com/wp-content/uploads/2021/03/SB_hori_logo_Lt_NoTag_TM_RGB_XL.png", "brand": "Smashburger", "brand:wikidata": "Q17061332", "nsi_id": "smashburger-d2abf0"}, "geometry": {"type": "Point", "coordinates": [-104.873403, 39.411235]}},
{"type": "Feature", "id": "x2wFcKXYiwVlpenVp0ezxcJlsJg=", "properties": {"ref": "1361", "@spider": "smashburger", "amenity": "fast_food", "cuisine": "burger", "takeaway": "yes", "addr:street_address": "7740 W. Alameda Ave.,Suite  B", "addr:city": "Lakewood", "addr:state": "CO", "addr:postcode": "80226", "name": "Your Neighborhood Smashburger", "phone": "13032178441", "website": "https://smashburger.com/locations/us/co/lakewood/7740-w-alameda-ave/", "opening_hours": "Mo-Su 10:30-22:00", "image": "https://smashburger.com/wp-content/uploads/2021/03/SB_hori_logo_Lt_NoTag_TM_RGB_XL.png", "brand": "Smashburger", "brand:wikidata": "Q17061332", "nsi_id": "smashburger-d2abf0"}, "geometry": {"type": "Point", "coordinates": [-105.0826741, 39.7105765]}},
{"type": "Feature", "id": "h3pOq__fcuO-tk0oHbOIfnVBm8E=", "properties": {"ref": "1357", "@spider": "smashburger", "amenity": "fast_food", "cuisine": "burger", "takeaway": "yes", "addr:street_address": "3121 W Peoria Ave.,Suite 108", "addr:city": "Phoenix", "addr:state": "AZ", "addr:postcode": "85029", "name": "Your Neighborhood Smashburger", "phone": "16028880567", "website": "https://smashburger.com/locations/us/az/phoenix/3121-w-peoria-ave/", "opening_hours": "Mo-Th 10:00-22:00; Fr-Sa 10:00-23:00; Su 10:00-22:00", "image": "https://smashburger.com/wp-content/uploads/2021/03/SB_hori_logo_Lt_NoTag_TM_RGB_XL.png", "brand": "Smashburger", "brand:wikidata": "Q17061332", "nsi_id": "smashburger-d2abf0"}, "geometry": {"type": "Point", "coordinates": [-112.1263247, 33.5814492]}},
{"type": "Feature", "id": "zglDoYK8Tjm2_nsiUjtPfCewIGg=", "properties": {"ref": "1349", "@spider": "smashburger", "amenity": "fast_food", "cuisine": "burger", "takeaway": "yes", "addr:street_address": "4400 Randolph Rd.,", "addr:city": "Charlotte", "addr:state": "NC", "addr:postcode": "28211", "name": "Your Neighborhood Smashburger", "phone": "17046261110", "website": "https://smashburger.com/locations/us/nc/charlotte/4400-randolph-rd/", "opening_hours": "Mo-Su 11:00-21:00", "image": "https://smashburger.com/wp-content/uploads/2021/03/SB_hori_logo_Lt_NoTag_TM_RGB_XL.png", "brand": "Smashburger", "brand:wikidata": "Q17061332", "nsi_id": "smashburger-d2abf0"}, "geometry": {"type": "Point", "coordinates": [-80.80134, 35.17799]}},
{"type": "Feature", "id": "G-g6YVQklffiEthtzRv6GVzqVl8=", "properties": {"ref": "1347", "@spider": "smashburger", "amenity": "fast_food", "cuisine": "burger", "takeaway": "yes", "addr:street_address": "975 Rte. 1 South,", "addr:city": "North Brunswick", "addr:state": "NJ", "addr:postcode": "08902", "name": "Your Neighborhood Smashburger", "phone": "17322758177", "website": "https://smashburger.com/locations/us/nj/north-brunswick/975-route-1-south/", "opening_hours": "Mo-Su 10:30-22:00", "image": "https://smashburger.com/wp-content/uploads/2021/03/SB_hori_logo_Lt_NoTag_TM_RGB_XL.png", "brand": "Smashburger", "brand:wikidata": "Q17061332", "nsi_id": "smashburger-d2abf0"}, "geometry": {"type": "Point", "coordinates": [-74.468037, 40.45929]}},
{"type": "Feature", "id": "ix5Qz0h1hqGc9uaiw77Ib6uD4bc=", "properties": {"ref": "1346", "@spider": "smashburger", "amenity": "fast_food", "cuisine": "burger", "takeaway": "yes", "addr:street_address": "591 Rte. 18 South,", "addr:city": "East Brunswick", "addr:state": "NJ", "addr:postcode": "08816", "name": "Your Neighborhood Smashburger", "phone": "17323872620", "website": "https://smashburger.com/locations/us/nj/east-brunswick/581-623-route-18-south/", "opening_hours": "Mo-Th 10:30-21:30; Fr-Sa 10:30-22:00; Su 10:30-21:30", "image": "https://smashburger.com/wp-content/uploads/2021/03/SB_hori_logo_Lt_NoTag_TM_RGB_XL.png", "brand": "Smashburger", "brand:wikidata": "Q17061332", "nsi_id": "smashburger-d2abf0"}, "geometry": {"type": "Point", "coordinates": [-74.391575, 40.4349377]}},
{"type": "Feature", "id": "mB8k3ud6wedSO52gL3u9MG7_39A=", "properties": {"ref": "1345", "@spider": "smashburger", "amenity": "fast_food", "cuisine": "burger", "takeaway": "yes", "addr:street_address": "1103 Rte. 46 East,", "addr:city": "Parsippany", "addr:state": "NJ", "addr:postcode": "07054", "name": "Your Neighborhood Smashburger", "phone": "19739173366", "website": "https://smashburger.com/locations/us/nj/parsippany/1103-route-46-east/", "opening_hours": "Mo-Th 10:30-21:30; Fr-Sa 10:30-22:00; Su 10:30-21:30", "image": "https://smashburger.com/wp-content/uploads/2021/03/SB_hori_logo_Lt_NoTag_TM_RGB_XL.png", "brand": "Smashburger", "brand:wikidata": "Q17061332", "nsi_id": "smashburger-d2abf0"}, "geometry": {"type": "Point", "coordinates": [-74.3865927, 40.8617708]}},
{"type": "Feature", "id": "uAOwLNRKWoD00XNtHGMDY-gNeDg=", "properties": {"ref": "1342", "@spider": "smashburger", "amenity": "fast_food", "cuisine": "burger", "takeaway": "yes", "addr:street_address": "556 Rte. 17 North,", "addr:city": "Paramus", "addr:state": "NJ", "addr:postcode": "07652", "name": "Your Neighborhood Smashburger", "phone": "12016701120", "website": "https://smashburger.com/locations/us/nj/paramus/556-rte-17-north/", "opening_hours": "Mo-Su 10:30-22:00", "image": "https://smashburger.com/wp-content/uploads/2021/03/SB_hori_logo_Lt_NoTag_TM_RGB_XL.png", "brand": "Smashburger", "brand:wikidata": "Q17061332", "nsi_id": "smashburger-d2abf0"}, "geometry": {"type": "Point", "coordinates": [-74.0735, 40.958347]}},
{"type": "Feature", "id": "nqR5QPp81eXQMzSgjwFsg92Fq5Q=", "properties": {"ref": "1341", "@spider": "smashburger", "amenity": "fast_food", "cuisine": "burger", "takeaway": "yes", "addr:street_address": "1260 Springfield Ave.,", "addr:city": "New Providence", "addr:state": "NJ", "addr:postcode": "07974", "name": "Your Neighborhood Smashburger", "phone": "19082860100", "website": "https://smashburger.com/locations/us/nj/new-providence/1260-springfield-ave/", "opening_hours": "Mo-Th 10:30-21:30; Fr-Sa 10:30-22:00; Su 10:30-21:30", "image": "https://smashburger.com/wp-content/uploads/2021/03/SB_hori_logo_Lt_NoTag_TM_RGB_XL.png", "brand": "Smashburger", "brand:wikidata": "Q17061332", "nsi_id": "smashburger-d2abf0"}, "geometry": {"type": "Point", "coordinates": [-74.40478, 40.70532]}},
{"type": "Feature", "id": "Dalp9b3wOhsL6tHN1vSA3EnT8ZY=", "properties": {"ref": "1339", "@spider": "smashburger", "amenity": "fast_food", "cuisine": "burger", "takeaway": "yes", "addr:street_address": "700 Route 3 West,", "addr:city": "Clifton", "addr:state": "NJ", "addr:postcode": "07013", "name": "Your Neighborhood Smashburger", "phone": "19737773600", "website": "https://smashburger.com/locations/us/nj/clifton/700-route-3-west/", "opening_hours": "Mo-Th 10:30-22:00; Fr-Sa 10:30-23:00; Su 10:30-22:00", "image": "https://smashburger.com/wp-content/uploads/2021/03/SB_hori_logo_Lt_NoTag_TM_RGB_XL.png", "brand": "Smashburger", "brand:wikidata": "Q17061332", "nsi_id": "smashburger-d2abf0"}, "geometry": {"type": "Point", "coordinates": [-74.15058427, 40.83616215]}},
{"type": "Feature", "id": "gfJ46o-OdprMuaRKyZrhpCncmLQ=", "properties": {"ref": "1336", "@spider": "smashburger", "amenity": "fast_food", "cuisine": "burger", "takeaway": "yes", "addr:street_address": "989 Bloomfield Ave.,Tenant 1C", "addr:city": "Glen Ridge", "addr:state": "NJ", "addr:postcode": "07028", "name": "Your Neighborhood Smashburger", "phone": "19734337343", "website": "https://smashburger.com/locations/us/nj/glen-ridge/989-bloomfield-ave/", "opening_hours": "Mo-Th 10:30-22:00; Fr-Sa 10:30-23:00; Su 10:30-22:00", "image": "https://smashburger.com/wp-content/uploads/2021/03/SB_hori_logo_Lt_NoTag_TM_RGB_XL.png", "brand": "Smashburger", "brand:wikidata": "Q17061332", "nsi_id": "smashburger-d2abf0"}, "geometry": {"type": "Point", "coordinates": [-74.20763, 40.80534]}},
{"type": "Feature", "id": "iNVwriNVP3CYRg7JwfUMoGcvchU=", "properties": {"ref": "1330", "@spider": "smashburger", "amenity": "fast_food", "cuisine": "burger", "takeaway": "yes", "addr:street_address": "14082 Promenade Commons St.,", "addr:city": "Gainesville", "addr:state": "VA", "addr:postcode": "20155", "name": "Your Neighborhood Smashburger", "phone": "17037437060", "website": "https://smashburger.com/locations/us/va/gainesville/14082-promenade-commons-street/", "opening_hours": "Mo-Th 10:30-21:30; Fr-Sa 10:30-22:00; Su 10:30-21:30", "image": "https://smashburger.com/wp-content/uploads/2021/03/SB_hori_logo_Lt_NoTag_TM_RGB_XL.png", "brand": "Smashburger", "brand:wikidata": "Q17061332", "nsi_id": "smashburger-d2abf0"}, "geometry": {"type": "Point", "coordinates": [-77.6065416, 38.7875176]}},
{"type": "Feature", "id": "026L8vV69tO0UeCYp8yjG84mWTQ=", "properties": {"ref": "1329", "@spider": "smashburger", "amenity": "fast_food", "cuisine": "burger", "takeaway": "yes", "addr:street_address": "210 Azalea Square Blvd.,Suite  A", "addr:city": "Summerville", "addr:state": "SC", "addr:postcode": "29483", "name": "Your Neighborhood Smashburger", "phone": "18438217700", "website": "https://smashburger.com/locations/us/sc/summerville/210-azalea-square-blvd/", "opening_hours": "Mo-Th 10:30-21:00; Fr-Sa 10:30-22:00; Su 10:30-21:00", "image": "https://smashburger.com/wp-content/uploads/2021/03/SB_hori_logo_Lt_NoTag_TM_RGB_XL.png", "brand": "Smashburger", "brand:wikidata": "Q17061332", "nsi_id": "smashburger-d2abf0"}, "geometry": {"type": "Point", "coordinates": [-80.1584013, 33.038122]}},
{"type": "Feature", "id": "BGdc9llScOtJhGw8ezMPQagBFeY=", "properties": {"ref": "1328", "@spider": "smashburger", "amenity": "fast_food", "cuisine": "burger", "takeaway": "yes", "addr:street_address": "1011 S. Figueroa St.,Suite  B 101", "addr:city": "Los Angeles", "addr:state": "CA", "addr:postcode": "90015", "name": "Your Neighborhood Smashburger", "phone": "12136313355", "website": "https://smashburger.com/locations/us/ca/los-angeles/1011-s-figueroa-st/", "opening_hours": "Mo-Th 11:00-20:00; Fr-Su 11:00-21:00", "image": "https://smashburger.com/wp-content/uploads/2021/03/SB_hori_logo_Lt_NoTag_TM_RGB_XL.png", "brand": "Smashburger", "brand:wikidata": "Q17061332", "nsi_id": "smashburger-d2abf0"}, "geometry": {"type": "Point", "coordinates": [-118.2649805, 34.0439442]}},
{"type": "Feature", "id": "46F6YnSwfCRrj6nPe2X24vkWtfA=", "properties": {"ref": "1317", "@spider": "smashburger", "amenity": "fast_food", "cuisine": "burger", "takeaway": "yes", "addr:street_address": "7394 153rd Stree West,Suite 100", "addr:city": "Apple Valley", "addr:state": "MN", "addr:postcode": "55124", "name": "Your Neighborhood Smashburger", "phone": "19529554940", "website": "https://smashburger.com/locations/us/mn/apple-valley/7394-153rd-st-west/", "opening_hours": "Mo-Su 10:30-20:00", "image": "https://smashburger.com/wp-content/uploads/2021/03/SB_hori_logo_Lt_NoTag_TM_RGB_XL.png", "brand": "Smashburger", "brand:wikidata": "Q17061332", "nsi_id": "smashburger-d2abf0"}, "geometry": {"type": "Point", "coordinates": [-93.2154268, 44.7275615]}},
{"type": "Feature", "id": "4gG1qr-JTo6PAY78MwvhXbjSxBA=", "properties": {"ref": "1316", "@spider": "smashburger", "amenity": "fast_food", "cuisine": "burger", "takeaway": "yes", "addr:street_address": "13700 E Colfax Ave.,Suite  K", "addr:city": "Aurora", "addr:state": "CO", "addr:postcode": "80011", "name": "Your Neighborhood Smashburger", "phone": "17205054605", "website": "https://smashburger.com/locations/us/co/aurora/13700-e-colfax-ave/", "opening_hours": "Mo-Th 10:30-21:30; Fr-Sa 10:30-22:00; Su 10:30-21:30", "image": "https://smashburger.com/wp-content/uploads/2021/03/SB_hori_logo_Lt_NoTag_TM_RGB_XL.png", "brand": "Smashburger", "brand:wikidata": "Q17061332", "nsi_id": "smashburger-d2abf0"}, "geometry": {"type": "Point", "coordinates": [-104.8277845, 39.7398994]}},
{"type": "Feature", "id": "GKy1ZvRDDcxivB_a3gxaXkt-SRU=", "properties": {"ref": "1310", "@spider": "smashburger", "amenity": "fast_food", "cuisine": "burger", "takeaway": "yes", "addr:street_address": "3837 E. Broadway Blvd.,", "addr:city": "Tucson", "addr:state": "AZ", "addr:postcode": "85716", "name": "Your Neighborhood Smashburger", "phone": "15203259553", "website": "https://smashburger.com/locations/us/az/tucson/3837-e-broadway-blvd/", "opening_hours": "Mo-Th 10:00-21:30; Fr-Sa 10:00-22:00; Su 10:00-21:30", "image": "https://smashburger.com/wp-content/uploads/2021/03/SB_hori_logo_Lt_NoTag_TM_RGB_XL.png", "brand": "Smashburger", "brand:wikidata": "Q17061332", "nsi_id": "smashburger-d2abf0"}, "geometry": {"type": "Point", "coordinates": [-110.910409, 32.22191]}},
{"type": "Feature", "id": "h0eFuq7gE6hOSsj6xLLekEuEIRg=", "properties": {"ref": "1309", "@spider": "smashburger", "amenity": "fast_food", "cuisine": "burger", "takeaway": "yes", "addr:street_address": "937 Lake Murray Blvd.,", "addr:city": "Irmo", "addr:state": "SC", "addr:postcode": "29063", "name": "Your Neighborhood Smashburger", "phone": "18037243630", "website": "https://smashburger.com/locations/us/sc/irmo/937-lake-murray-blvd/", "opening_hours": "Mo-Su 11:00-21:00", "image": "https://smashburger.com/wp-content/uploads/2021/03/SB_hori_logo_Lt_NoTag_TM_RGB_XL.png", "brand": "Smashburger", "brand:wikidata": "Q17061332", "nsi_id": "smashburger-d2abf0"}, "geometry": {"type": "Point", "coordinates": [-81.171931, 34.0900131]}},
{"type": "Feature", "id": "BVFxhZrbAKVX6a6mLPXM1pIUEzI=", "properties": {"ref": "1302", "@spider": "smashburger", "amenity": "fast_food", "cuisine": "burger", "takeaway": "yes", "addr:street_address": "5000 Emerald Dr.,#530,", "addr:city": "Sherwood Park", "addr:state": "AB", "addr:postcode": "T8H 0P5", "name": "Your Neighborhood Smashburger", "phone": "17804100999", "website": "https://smashburger.com/locations/ca/ab/sherwood-park/5000-emerald-drive/", "opening_hours": "Mo-Su 11:00-21:00", "image": "https://smashburger.com/wp-content/uploads/2021/03/SB_hori_logo_Lt_NoTag_TM_RGB_XL.png", "brand": "Smashburger", "brand:wikidata": "Q17061332", "nsi_id": "smashburger-d2abf0"}, "geometry": {"type": "Point", "coordinates": [-113.2836298, 53.5676045]}},
{"type": "Feature", "id": "3vGSiMZ5oamMbgW2AKR866BIagk=", "properties": {"ref": "1300", "@spider": "smashburger", "amenity": "fast_food", "cuisine": "burger", "takeaway": "yes", "addr:street_address": "806 Avenida Pico,Suite  E", "addr:city": "San Clemente", "addr:state": "CA", "addr:postcode": "92673", "name": "Your Neighborhood Smashburger", "phone": "19492184900", "website": "https://smashburger.com/locations/us/ca/san-clemente/806-avenida-pico/", "opening_hours": "Mo-Th 10:30-21:30; Fr-Sa 10:00-22:00; Su 10:30-21:30", "image": "https://smashburger.com/wp-content/uploads/2021/03/SB_hori_logo_Lt_NoTag_TM_RGB_XL.png", "brand": "Smashburger", "brand:wikidata": "Q17061332", "nsi_id": "smashburger-d2abf0"}, "geometry": {"type": "Point", "coordinates": [-117.6137912, 33.4429592]}},
{"type": "Feature", "id": "Uv9oYxLhmJYTlC_QC874_HTuFCk=", "properties": {"ref": "1295", "@spider": "smashburger", "amenity": "fast_food", "cuisine": "burger", "takeaway": "yes", "addr:street_address": "8500 Essington Ave.,FH-7", "addr:city": "Philadelphia", "addr:state": "PA", "addr:postcode": "19153", "name": "Your Neighborhood Smashburger", "phone": "12159374410", "website": "https://smashburger.com/locations/us/pa/philadelphia/8500-essington-ave/", "opening_hours": "Mo-Su 10:00-20:00", "image": "https://smashburger.com/wp-content/uploads/2021/03/SB_hori_logo_Lt_NoTag_TM_RGB_XL.png", "brand": "Smashburger", "brand:wikidata": "Q17061332", "nsi_id": "smashburger-d2abf0"}, "geometry": {"type": "Point", "coordinates": [-75.2375775, 39.8805147]}},
{"type": "Feature", "id": "pC6CnXMk9Y3dRVO8l5UH4Tx5Siw=", "properties": {"ref": "1292", "@spider": "smashburger", "amenity": "fast_food", "cuisine": "burger", "takeaway": "yes", "addr:street_address": "550 E. Lancaster Ave.,", "addr:city": "Radnor", "addr:state": "PA", "addr:postcode": "19087", "name": "Your Neighborhood Smashburger", "phone": "14845844926", "website": "https://smashburger.com/locations/us/pa/radnor/550-e-lancaster-ave/", "opening_hours": "Mo-Th 11:00-21:00; Fr-Sa 11:00-22:00; Su 11:00-21:00", "image": "https://smashburger.com/wp-content/uploads/2021/03/SB_hori_logo_Lt_NoTag_TM_RGB_XL.png", "brand": "Smashburger", "brand:wikidata": "Q17061332", "nsi_id": "smashburger-d2abf0"}, "geometry": {"type": "Point", "coordinates": [-75.3695328, 40.0402485]}},
{"type": "Feature", "id": "DWnRHkdr7vprFJ-XEFtF-QL5Ee0=", "properties": {"ref": "1288", "@spider": "smashburger", "amenity": "fast_food", "cuisine": "burger", "takeaway": "yes", "addr:street_address": "9460 S. Eastern Ave.,Suite  #120", "addr:city": "Las Vegas", "addr:state": "NV", "addr:postcode": "89123", "name": "Your Neighborhood Smashburger", "phone": "17026057574", "website": "https://smashburger.com/locations/us/nv/las-vegas/9460-s-eastern-ave/", "opening_hours": "Mo-Th 10:00-22:00; Fr-Sa 10:00-23:00; Su 10:00-22:00", "image": "https://smashburger.com/wp-content/uploads/2021/03/SB_hori_logo_Lt_NoTag_TM_RGB_XL.png", "brand": "Smashburger", "brand:wikidata": "Q17061332", "nsi_id": "smashburger-d2abf0"}, "geometry": {"type": "Point", "coordinates": [-115.1182837, 36.0175141]}},
{"type": "Feature", "id": "HYOaaS74xbfaVwSgXq2fZPKCoCM=", "properties": {"ref": "1282", "@spider": "smashburger", "amenity": "fast_food", "cuisine": "burger", "takeaway": "yes", "addr:street_address": "409 N. Pacific Coast Hwy.,Suite 110", "addr:city": "Redondo Beach", "addr:state": "CA", "addr:postcode": "90277", "name": "Your Neighborhood Smashburger", "phone": "13103474656", "website": "https://smashburger.com/locations/us/ca/redondo-beach/409-n-pacific-coast-hwy/", "opening_hours": "Mo-Th 10:30-22:00; Fr-Sa 10:30-23:00; Su 10:30-22:00", "image": "https://smashburger.com/wp-content/uploads/2021/03/SB_hori_logo_Lt_NoTag_TM_RGB_XL.png", "brand": "Smashburger", "brand:wikidata": "Q17061332", "nsi_id": "smashburger-d2abf0"}, "geometry": {"type": "Point", "coordinates": [-118.3895225, 33.8479488]}},
{"type": "Feature", "id": "VwdUNgZrOqeOgrTrY5WzI0OaHTs=", "properties": {"ref": "1281", "@spider": "smashburger", "amenity": "fast_food", "cuisine": "burger", "takeaway": "yes", "addr:street_address": "9168 South Yale,Suite 100", "addr:city": "Tulsa", "addr:state": "OK", "addr:postcode": "74137", "name": "Your Neighborhood Smashburger", "phone": "15397771755", "website": "https://smashburger.com/locations/us/ok/tulsa/9168-south-yale/", "opening_hours": "Mo-Th 10:30-21:30; Fr-Sa 10:30-22:00; Su 10:30-21:30", "image": "https://smashburger.com/wp-content/uploads/2021/03/SB_hori_logo_Lt_NoTag_TM_RGB_XL.png", "brand": "Smashburger", "brand:wikidata": "Q17061332", "nsi_id": "smashburger-d2abf0"}, "geometry": {"type": "Point", "coordinates": [-95.9221828, 36.029662]}},
{"type": "Feature", "id": "R2SE3LLR6FzshaaqhJkRRE7NLsU=", "properties": {"ref": "1278", "@spider": "smashburger", "amenity": "fast_food", "cuisine": "burger", "takeaway": "yes", "addr:street_address": "5655 Centennial Center Blvd.,Suite 170", "addr:city": "Las Vegas", "addr:state": "NV", "addr:postcode": "89149", "name": "Your Neighborhood Smashburger", "phone": "17024625503", "website": "https://smashburger.com/locations/us/nv/las-vegas/5655-centennial-center-blvd/", "opening_hours": "Mo-Th 10:00-22:00; Fr-Sa 10:00-23:00; Su 10:00-22:00", "image": "https://smashburger.com/wp-content/uploads/2021/03/SB_hori_logo_Lt_NoTag_TM_RGB_XL.png", "brand": "Smashburger", "brand:wikidata": "Q17061332", "nsi_id": "smashburger-d2abf0"}, "geometry": {"type": "Point", "coordinates": [-115.257332, 36.2644504]}},
{"type": "Feature", "id": "MMIAzLZ2XRd5_moPlh7kUvditRA=", "properties": {"ref": "1275", "@spider": "smashburger", "amenity": "fast_food", "cuisine": "burger", "takeaway": "yes", "addr:street_address": "7541 W. Lake Mead Blvd.,Suite 2", "addr:city": "Las Vegas", "addr:state": "NV", "addr:postcode": "89128", "name": "Your Neighborhood Smashburger", "phone": "17029820009", "website": "https://smashburger.com/locations/us/nv/las-vegas/7541-w-lake-mead-blvd/", "opening_hours": "Mo-Th 10:00-22:00; Fr-Sa 10:00-23:00; Su 10:00-22:00", "image": "https://smashburger.com/wp-content/uploads/2021/03/SB_hori_logo_Lt_NoTag_TM_RGB_XL.png", "brand": "Smashburger", "brand:wikidata": "Q17061332", "nsi_id": "smashburger-d2abf0"}, "geometry": {"type": "Point", "coordinates": [-115.2584467, 36.1960417]}},
{"type": "Feature", "id": "CCnzMWUZ-q7AomtXneOEN6_-0xE=", "properties": {"ref": "1274", "@spider": "smashburger", "amenity": "fast_food", "cuisine": "burger", "takeaway": "yes", "addr:street_address": "698 N. Delsea Dr.,", "addr:city": "Glassboro", "addr:state": "NJ", "addr:postcode": "08028", "name": "Your Neighborhood Smashburger", "phone": "18563884210", "website": "https://smashburger.com/locations/us/nj/glassboro/698-n-delsea-dr/", "opening_hours": "Mo-Th 11:00-21:00; Fr-Sa 11:00-22:00; Su 11:00-21:00", "image": "https://smashburger.com/wp-content/uploads/2021/03/SB_hori_logo_Lt_NoTag_TM_RGB_XL.png", "brand": "Smashburger", "brand:wikidata": "Q17061332", "nsi_id": "smashburger-d2abf0"}, "geometry": {"type": "Point", "coordinates": [-75.11357, 39.71957]}},
{"type": "Feature", "id": "6qd62hFDPYzJu3u-W6u7ZKqLYMI=", "properties": {"ref": "1273", "@spider": "smashburger", "amenity": "fast_food", "cuisine": "burger", "takeaway": "yes", "addr:street_address": "579 Coleman Ave.,Suite 50", "addr:city": "San Jose", "addr:state": "CA", "addr:postcode": "95110", "name": "Your Neighborhood Smashburger", "phone": "14087913400", "website": "https://smashburger.com/locations/us/ca/san-jose/579-coleman-avenue/", "opening_hours": "Mo-Th 10:30-21:30; Fr-Sa 10:30-22:00; Su 10:30-21:30", "image": "https://smashburger.com/wp-content/uploads/2021/03/SB_hori_logo_Lt_NoTag_TM_RGB_XL.png", "brand": "Smashburger", "brand:wikidata": "Q17061332", "nsi_id": "smashburger-d2abf0"}, "geometry": {"type": "Point", "coordinates": [-121.9066282, 37.3407154]}},
{"type": "Feature", "id": "01-duB7mYvJxpnK6vnfoaJRJGvQ=", "properties": {"ref": "1271", "@spider": "smashburger", "amenity": "fast_food", "cuisine": "burger", "takeaway": "yes", "addr:street_address": "2300 16th St.,Suite 293", "addr:city": "San Francisco", "addr:state": "CA", "addr:postcode": "94103", "name": "Your Neighborhood Smashburger", "phone": "14155707114", "website": "https://smashburger.com/locations/us/ca/san-francisco/2300-16th-street/", "opening_hours": "Mo-Su 08:00-23:30", "image": "https://smashburger.com/wp-content/uploads/2021/03/SB_hori_logo_Lt_NoTag_TM_RGB_XL.png", "brand": "Smashburger", "brand:wikidata": "Q17061332", "nsi_id": "smashburger-d2abf0"}, "geometry": {"type": "Point", "coordinates": [-122.407965, 37.7659054]}},
{"type": "Feature", "id": "LE44MgaVQwy4B_8UQd6l4HVa3cI=", "properties": {"ref": "1261", "@spider": "smashburger", "amenity": "fast_food", "cuisine": "burger", "takeaway": "yes", "addr:street_address": "8100 W. Crestline Ave.,Suite  A2", "addr:city": "Littleton", "addr:state": "CO", "addr:postcode": "80123", "name": "Your Neighborhood Smashburger", "phone": "13032178433", "website": "https://smashburger.com/locations/us/co/littleton/8100-w-crestline-ave/", "opening_hours": "Mo-Th 10:30-21:30; Fr-Sa 10:30-22:00; Su 10:30-21:30", "image": "https://smashburger.com/wp-content/uploads/2021/03/SB_hori_logo_Lt_NoTag_TM_RGB_XL.png", "brand": "Smashburger", "brand:wikidata": "Q17061332", "nsi_id": "smashburger-d2abf0"}, "geometry": {"type": "Point", "coordinates": [-105.0891935, 39.6171606]}},
{"type": "Feature", "id": "eOsvfhTA2hAyUo1qX1aJEtkYahQ=", "properties": {"ref": "1247", "@spider": "smashburger", "amenity": "fast_food", "cuisine": "burger", "takeaway": "yes", "addr:street_address": "26541 Aliso Creek Rd,Suite  C", "addr:city": "Aliso Viejo", "addr:state": "CA", "addr:postcode": "92656", "name": "Your Neighborhood Smashburger", "phone": "19497163855", "website": "https://smashburger.com/locations/us/ca/aliso-viejo/26541-aliso-creek-road/", "opening_hours": "24/7", "image": "https://smashburger.com/wp-content/uploads/2021/03/SB_hori_logo_Lt_NoTag_TM_RGB_XL.png", "brand": "Smashburger", "brand:wikidata": "Q17061332", "nsi_id": "smashburger-d2abf0"}, "geometry": {"type": "Point", "coordinates": [-117.7246755, 33.577453]}},
{"type": "Feature", "id": "PxFoXZSCcHawYT2BKQVSmAJ0P3g=", "properties": {"ref": "1246", "@spider": "smashburger", "amenity": "fast_food", "cuisine": "burger", "takeaway": "yes", "addr:street_address": "1003 The Shops at Mission Viejo,", "addr:city": "Mission Viejo", "addr:state": "CA", "addr:postcode": "92691", "name": "Your Neighborhood Smashburger", "phone": "19493641246", "website": "https://smashburger.com/locations/us/ca/mission-viejo/1003-shops-at-mission-viejo/", "opening_hours": "Mo-We 11:00-20:00; Th-Fr 10:00-21:00; Sa 10:00-20:00; Su 11:00-18:00", "image": "https://smashburger.com/wp-content/uploads/2021/03/SB_hori_logo_Lt_NoTag_TM_RGB_XL.png", "brand": "Smashburger", "brand:wikidata": "Q17061332", "nsi_id": "smashburger-d2abf0"}, "geometry": {"type": "Point", "coordinates": [-117.6684079, 33.558077]}},
{"type": "Feature", "id": "SsmzL8yyFbEIzm34vpXEhvuohd4=", "properties": {"ref": "1242", "@spider": "smashburger", "amenity": "fast_food", "cuisine": "burger", "takeaway": "yes", "addr:street_address": "4821 E. Grant Rd.,", "addr:city": "Tucson", "addr:state": "AZ", "addr:postcode": "85712", "name": "Your Neighborhood Smashburger", "phone": "15206240122", "website": "https://smashburger.com/locations/us/az/tucson/4821-e-grant-rd/", "opening_hours": "Mo-Th 10:00-21:00; Fr-Sa 10:00-21:30; Su 10:00-21:00", "image": "https://smashburger.com/wp-content/uploads/2021/03/SB_hori_logo_Lt_NoTag_TM_RGB_XL.png", "brand": "Smashburger", "brand:wikidata": "Q17061332", "nsi_id": "smashburger-d2abf0"}, "geometry": {"type": "Point", "coordinates": [-110.8903926, 32.2509967]}},
{"type": "Feature", "id": "0qGaaBfNQTj0INTIOEx2QgwfzMU=", "properties": {"ref": "1235", "@spider": "smashburger", "amenity": "fast_food", "cuisine": "burger", "takeaway": "yes", "addr:street_address": "4601 Devine St.,", "addr:city": "Columbia", "addr:state": "SC", "addr:postcode": "29205", "name": "Your Neighborhood Smashburger", "phone": "18038327491", "website": "https://smashburger.com/locations/us/sc/columbia/4601-devine-st/", "opening_hours": "Mo-Su 11:00-21:00", "image": "https://smashburger.com/wp-content/uploads/2021/03/SB_hori_logo_Lt_NoTag_TM_RGB_XL.png", "brand": "Smashburger", "brand:wikidata": "Q17061332", "nsi_id": "smashburger-d2abf0"}, "geometry": {"type": "Point", "coordinates": [-80.97473, 33.9906]}},
{"type": "Feature", "id": "hGqn4fJ5ajQAAsk2x58pV3i-nMI=", "properties": {"ref": "1233", "@spider": "smashburger", "amenity": "fast_food", "cuisine": "burger", "takeaway": "yes", "addr:street_address": "1735 E. Big Beaver Rd.,", "addr:city": "Troy", "addr:state": "MI", "addr:postcode": "48083", "name": "Your Neighborhood Smashburger", "phone": "12485240420", "website": "https://smashburger.com/locations/us/mi/troy/1735-e-big-beaver-rd/", "opening_hours": "Mo 00:00-24:00; Tu-Sa 11:00-19:00; Su 00:00-24:00", "image": "https://smashburger.com/wp-content/uploads/2021/03/SB_hori_logo_Lt_NoTag_TM_RGB_XL.png", "brand": "Smashburger", "brand:wikidata": "Q17061332", "nsi_id": "smashburger-d2abf0"}, "geometry": {"type": "Point", "coordinates": [-83.112581, 42.5640193]}},
{"type": "Feature", "id": "8RADs81acZwKxHixgRAgN_Tdhiw=", "properties": {"ref": "1229", "@spider": "smashburger", "amenity": "fast_food", "cuisine": "burger", "takeaway": "yes", "addr:street_address": "143 S. Denton Tap Rd.,", "addr:city": "Coppell", "addr:state": "TX", "addr:postcode": "75019", "name": "Your Neighborhood Smashburger", "phone": "14692939192", "website": "https://smashburger.com/locations/us/tx/coppell/143-s-denton-tap-rd/", "opening_hours": "Mo-Su 10:30-21:30", "image": "https://smashburger.com/wp-content/uploads/2021/03/SB_hori_logo_Lt_NoTag_TM_RGB_XL.png", "brand": "Smashburger", "brand:wikidata": "Q17061332", "nsi_id": "smashburger-d2abf0"}, "geometry": {"type": "Point", "coordinates": [-96.99407, 32.96689]}},
{"type": "Feature", "id": "Sj04BKLhaZFXBA-lnAH4pUWO8lk=", "properties": {"ref": "1227", "@spider": "smashburger", "amenity": "fast_food", "cuisine": "burger", "takeaway": "yes", "addr:street_address": "225 Cypresswood Dr.,Suite  C", "addr:city": "Spring", "addr:state": "TX", "addr:postcode": "77373", "name": "Your Neighborhood Smashburger", "phone": "12814664704", "website": "https://smashburger.com/locations/us/tx/spring/225-cypresswood-drive/", "opening_hours": "Mo-Th 10:30-21:30; Fr-Sa 10:30-22:00; Su 10:30-21:30", "image": "https://smashburger.com/wp-content/uploads/2021/03/SB_hori_logo_Lt_NoTag_TM_RGB_XL.png", "brand": "Smashburger", "brand:wikidata": "Q17061332", "nsi_id": "smashburger-d2abf0"}, "geometry": {"type": "Point", "coordinates": [-95.43442132, 30.05212448]}},
{"type": "Feature", "id": "tR2eeL90IoLXLEcXorINoyBFxxo=", "properties": {"ref": "1225", "@spider": "smashburger", "amenity": "fast_food", "cuisine": "burger", "takeaway": "yes", "addr:street_address": "6645 South Fry Rd.,Suite 600", "addr:city": "Katy", "addr:state": "TX", "addr:postcode": "77494", "name": "Your Neighborhood Smashburger", "phone": "12816440105", "website": "https://smashburger.com/locations/us/tx/katy/6645-south-fry-rd/", "opening_hours": "Mo-Th 10:30-21:30; Fr-Sa 10:30-22:00; Su 10:30-21:30", "image": "https://smashburger.com/wp-content/uploads/2021/03/SB_hori_logo_Lt_NoTag_TM_RGB_XL.png", "brand": "Smashburger", "brand:wikidata": "Q17061332", "nsi_id": "smashburger-d2abf0"}, "geometry": {"type": "Point", "coordinates": [-95.7719358, 29.7123888]}},
{"type": "Feature", "id": "JZpEBcN6wyWbxCc4_0yCpVH6zNY=", "properties": {"ref": "1199", "@spider": "smashburger", "amenity": "fast_food", "cuisine": "burger", "takeaway": "yes", "addr:street_address": "174 Yale St.,", "addr:city": "Houston", "addr:state": "TX", "addr:postcode": "77007", "name": "Your Neighborhood Smashburger", "phone": "17135684619", "website": "https://smashburger.com/locations/us/tx/houston/174-yale-st/", "opening_hours": "Mo-Th 10:30-21:30; Fr-Sa 10:30-22:00; Su 10:30-21:30", "image": "https://smashburger.com/wp-content/uploads/2021/03/SB_hori_logo_Lt_NoTag_TM_RGB_XL.png", "brand": "Smashburger", "brand:wikidata": "Q17061332", "nsi_id": "smashburger-d2abf0"}, "geometry": {"type": "Point", "coordinates": [-95.39827, 29.77351]}},
{"type": "Feature", "id": "kimrj-Bcq5IOy6B3Io5qXD2y1yw=", "properties": {"ref": "1182", "@spider": "smashburger", "amenity": "fast_food", "cuisine": "burger", "takeaway": "yes", "addr:street_address": "10228 FM 518,Suite 140", "addr:city": "Pearland", "addr:state": "TX", "addr:postcode": "77581", "name": "Your Neighborhood Smashburger", "phone": "17134365919", "website": "https://smashburger.com/locations/us/tx/pearland/10228-fm-518/", "opening_hours": "Mo-Th 10:30-21:30; Fr-Sa 10:30-22:00; Su 10:30-21:30", "image": "https://smashburger.com/wp-content/uploads/2021/03/SB_hori_logo_Lt_NoTag_TM_RGB_XL.png", "brand": "Smashburger", "brand:wikidata": "Q17061332", "nsi_id": "smashburger-d2abf0"}, "geometry": {"type": "Point", "coordinates": [-95.37824718, 29.55460509]}},
{"type": "Feature", "id": "_7Dde7fUCLOznsZQG-uI5dXdYpw=", "properties": {"ref": "1181", "@spider": "smashburger", "amenity": "fast_food", "cuisine": "burger", "takeaway": "yes", "addr:street_address": "6919 Orchard Lake Rd.,", "addr:city": "W Bloomfield", "addr:state": "MI", "addr:postcode": "48322", "name": "Your Neighborhood Smashburger", "phone": "12487372960", "website": "https://smashburger.com/locations/us/mi/w-bloomfield/6919-orchard-lake-rd/", "opening_hours": "Mo 00:00-24:00; Tu-Su 11:00-19:00", "image": "https://smashburger.com/wp-content/uploads/2021/03/SB_hori_logo_Lt_NoTag_TM_RGB_XL.png", "brand": "Smashburger", "brand:wikidata": "Q17061332", "nsi_id": "smashburger-d2abf0"}, "geometry": {"type": "Point", "coordinates": [-83.3594762, 42.5371369]}},
{"type": "Feature", "id": "4sVCah4Hw1FvlGbWFSydLrqVMJQ=", "properties": {"ref": "1169", "@spider": "smashburger", "amenity": "fast_food", "cuisine": "burger", "takeaway": "yes", "addr:street_address": "1671 Clarkson Rd.,", "addr:city": "Chesterfield", "addr:state": "MO", "addr:postcode": "63017", "name": "Your Neighborhood Smashburger", "phone": "16365363066", "website": "https://smashburger.com/locations/us/mo/chesterfield/1671-clarkson-rd/", "opening_hours": "Mo-Th 11:00-21:00; Fr-Sa 11:00-22:00; Su 11:00-21:00", "image": "https://smashburger.com/wp-content/uploads/2021/03/SB_hori_logo_Lt_NoTag_TM_RGB_XL.png", "brand": "Smashburger", "brand:wikidata": "Q17061332", "nsi_id": "smashburger-d2abf0"}, "geometry": {"type": "Point", "coordinates": [-90.5662367, 38.6450538]}},
{"type": "Feature", "id": "OcKbgW1I2xhsAqSexJ0jnGqPyJk=", "properties": {"ref": "1158", "@spider": "smashburger", "amenity": "fast_food", "cuisine": "burger", "takeaway": "yes", "addr:street_address": "7701 Laguna Blvd.,Unit B-4", "addr:city": "Elk Grove", "addr:state": "CA", "addr:postcode": "95758", "name": "Your Neighborhood Smashburger", "phone": "19165123759", "website": "https://smashburger.com/locations/us/ca/elk-grove/7701-laguna-blvd/", "opening_hours": "Mo-Su 10:00-21:30", "image": "https://smashburger.com/wp-content/uploads/2021/03/SB_hori_logo_Lt_NoTag_TM_RGB_XL.png", "brand": "Smashburger", "brand:wikidata": "Q17061332", "nsi_id": "smashburger-d2abf0"}, "geometry": {"type": "Point", "coordinates": [-121.4135284, 38.423958]}},
{"type": "Feature", "id": "FXOiYVTdBpWsH2rYQMADsXNso7w=", "properties": {"ref": "1148", "@spider": "smashburger", "amenity": "fast_food", "cuisine": "burger", "takeaway": "yes", "addr:street_address": "7804 Rea Rd.,Suites B & C, Building E3", "addr:city": "Charlotte", "addr:state": "NC", "addr:postcode": "28277", "name": "Your Neighborhood Smashburger", "phone": "17045445355", "website": "https://smashburger.com/locations/us/nc/charlotte/7804-rea-rd/", "opening_hours": "Mo 00:00-24:00; Tu-Th 11:00-21:00; Fr-Sa 11:00-21:30; Su 12:00-21:00", "image": "https://smashburger.com/wp-content/uploads/2021/03/SB_hori_logo_Lt_NoTag_TM_RGB_XL.png", "brand": "Smashburger", "brand:wikidata": "Q17061332", "nsi_id": "smashburger-d2abf0"}, "geometry": {"type": "Point", "coordinates": [-80.814262, 35.060835]}},
{"type": "Feature", "id": "iH-LNlSGtFyyz_IzM_rHETVCWQg=", "properties": {"ref": "1146", "@spider": "smashburger", "amenity": "fast_food", "cuisine": "burger", "takeaway": "yes", "addr:street_address": "1981 Zumbehl Rd.,", "addr:city": "St. Charles", "addr:state": "MO", "addr:postcode": "63303", "name": "Your Neighborhood Smashburger", "phone": "16367246777", "website": "https://smashburger.com/locations/us/mo/st-charles/1981-zumbehl-rd/", "opening_hours": "Mo-Th 11:00-21:00; Fr-Sa 11:00-22:00; Su 11:00-21:00", "image": "https://smashburger.com/wp-content/uploads/2021/03/SB_hori_logo_Lt_NoTag_TM_RGB_XL.png", "brand": "Smashburger", "brand:wikidata": "Q17061332", "nsi_id": "smashburger-d2abf0"}, "geometry": {"type": "Point", "coordinates": [-90.534357, 38.78335]}},
{"type": "Feature", "id": "i520DuxnRbBIUduFJhkS9ga9Hgg=", "properties": {"ref": "1138", "@spider": "smashburger", "amenity": "fast_food", "cuisine": "burger", "takeaway": "yes", "addr:street_address": "6731 Miller Lane,", "addr:city": "Dayton", "addr:state": "OH", "addr:postcode": "45414", "name": "Your Neighborhood Smashburger", "phone": "19373876564", "website": "https://smashburger.com/locations/us/oh/dayton/6731-miller-lane/", "opening_hours": "Mo-Su 10:00-22:00", "image": "https://smashburger.com/wp-content/uploads/2021/03/SB_hori_logo_Lt_NoTag_TM_RGB_XL.png", "brand": "Smashburger", "brand:wikidata": "Q17061332", "nsi_id": "smashburger-d2abf0"}, "geometry": {"type": "Point", "coordinates": [-84.1930779, 39.8450561]}},
{"type": "Feature", "id": "KpOV2iCPw802m2v7Dcf-zs1H47o=", "properties": {"ref": "1132", "@spider": "smashburger", "amenity": "fast_food", "cuisine": "burger", "takeaway": "yes", "addr:street_address": "1419 N. Denver Ave.,", "addr:city": "Loveland", "addr:state": "CO", "addr:postcode": "80538", "name": "Your Neighborhood Smashburger", "phone": "19704610188", "website": "https://smashburger.com/locations/us/co/loveland/1419-n-denver-ave/", "opening_hours": "Mo-Th 10:30-21:00; Fr-Sa 10:30-22:00; Su 10:30-21:00", "image": "https://smashburger.com/wp-content/uploads/2021/03/SB_hori_logo_Lt_NoTag_TM_RGB_XL.png", "brand": "Smashburger", "brand:wikidata": "Q17061332", "nsi_id": "smashburger-d2abf0"}, "geometry": {"type": "Point", "coordinates": [-105.0448044, 40.4074761]}},
{"type": "Feature", "id": "e4rIVy-hPGE5VRKz7LPi3a24f_E=", "properties": {"ref": "1128", "@spider": "smashburger", "amenity": "fast_food", "cuisine": "burger", "takeaway": "yes", "addr:street_address": "5139 W. 95th St.,", "addr:city": "Oak Lawn", "addr:state": "IL", "addr:postcode": "60453", "name": "Your Neighborhood Smashburger", "phone": "17084222952", "website": "https://smashburger.com/locations/us/il/oak-lawn/5139-w-95th-st/", "opening_hours": "Mo-Th 10:30-21:30; Fr-Sa 10:30-22:00; Su 10:30-21:30", "image": "https://smashburger.com/wp-content/uploads/2021/03/SB_hori_logo_Lt_NoTag_TM_RGB_XL.png", "brand": "Smashburger", "brand:wikidata": "Q17061332", "nsi_id": "smashburger-d2abf0"}, "geometry": {"type": "Point", "coordinates": [-87.7498397, 41.7193244]}},
{"type": "Feature", "id": "3jqHP8y0gSH1iOd8yEyB4QVG4SU=", "properties": {"ref": "1127", "@spider": "smashburger", "amenity": "fast_food", "cuisine": "burger", "takeaway": "yes", "addr:street_address": "7598 Cox Lane,", "addr:city": "West Chester", "addr:state": "OH", "addr:postcode": "45069", "name": "Your Neighborhood Smashburger", "phone": "15138474840", "website": "https://smashburger.com/locations/us/oh/west-chester/7598-cox-lane/", "opening_hours": "Mo-Sa 10:30-21:30; Su 11:00-20:00", "image": "https://smashburger.com/wp-content/uploads/2021/03/SB_hori_logo_Lt_NoTag_TM_RGB_XL.png", "brand": "Smashburger", "brand:wikidata": "Q17061332", "nsi_id": "smashburger-d2abf0"}, "geometry": {"type": "Point", "coordinates": [-84.364941, 39.35842]}},
{"type": "Feature", "id": "NRNv5UBI26W5ZsLCcppXCyBdM9g=", "properties": {"ref": "1126", "@spider": "smashburger", "amenity": "fast_food", "cuisine": "burger", "takeaway": "yes", "addr:street_address": "1801 45th St. SW.,", "addr:city": "Fargo", "addr:state": "ND", "addr:postcode": "58103", "name": "Your Neighborhood Smashburger", "phone": "17014782111", "website": "https://smashburger.com/locations/us/nd/fargo/1801-45th-st-sw/", "opening_hours": "Mo 00:00-24:00; Tu 10:00-21:00; We-Sa 10:00-22:00; Su 11:00-21:00", "image": "https://smashburger.com/wp-content/uploads/2021/03/SB_hori_logo_Lt_NoTag_TM_RGB_XL.png", "brand": "Smashburger", "brand:wikidata": "Q17061332", "nsi_id": "smashburger-d2abf0"}, "geometry": {"type": "Point", "coordinates": [-96.86369, 46.8528]}},
{"type": "Feature", "id": "s_dLnVmemF-pjOmrw7BVQJG9_iQ=", "properties": {"ref": "1118", "@spider": "smashburger", "amenity": "fast_food", "cuisine": "burger", "takeaway": "yes", "addr:street_address": "1611 Haan Rd.,Space  K-123", "addr:city": "El Paso", "addr:state": "TX", "addr:postcode": "79906", "name": "Your Neighborhood Smashburger", "phone": "19155659464", "website": "https://smashburger.com/locations/us/tx/el-paso/1611-haan-rd/", "opening_hours": "Mo-Su 11:00-20:00", "image": "https://smashburger.com/wp-content/uploads/2021/03/SB_hori_logo_Lt_NoTag_TM_RGB_XL.png", "brand": "Smashburger", "brand:wikidata": "Q17061332", "nsi_id": "smashburger-d2abf0"}, "geometry": {"type": "Point", "coordinates": [-106.4275799, 31.81751]}},
{"type": "Feature", "id": "vuWV37XA8KMCIDcOLIz4U571WQE=", "properties": {"ref": "1103", "@spider": "smashburger", "amenity": "fast_food", "cuisine": "burger", "takeaway": "yes", "addr:street_address": "8045 Flying Cloud Dr.,", "addr:city": "Eden Prairie", "addr:state": "MN", "addr:postcode": "55344", "name": "Your Neighborhood Smashburger", "phone": "19529439010", "website": "https://smashburger.com/locations/us/mn/eden-prairie/8045-flying-cloud-dr/", "opening_hours": "Mo-Su 11:00-20:00", "image": "https://smashburger.com/wp-content/uploads/2021/03/SB_hori_logo_Lt_NoTag_TM_RGB_XL.png", "brand": "Smashburger", "brand:wikidata": "Q17061332", "nsi_id": "smashburger-d2abf0"}, "geometry": {"type": "Point", "coordinates": [-93.425006, 44.858557]}},
{"type": "Feature", "id": "LGYazN_rkfHEsW9VSXcRPpjNnMU=", "properties": {"ref": "1096", "@spider": "smashburger", "amenity": "fast_food", "cuisine": "burger", "takeaway": "yes", "addr:street_address": "14201 Cypress Rosehill Rd.,", "addr:city": "Cypress", "addr:state": "TX", "addr:postcode": "77429", "name": "Your Neighborhood Smashburger", "phone": "18322204055", "website": "https://smashburger.com/locations/us/tx/cypress/14201-cypress-rosehill-rd/", "opening_hours": "Mo-Th 10:30-21:30; Fr-Sa 10:00-22:00; Su 10:30-21:30", "image": "https://smashburger.com/wp-content/uploads/2021/03/SB_hori_logo_Lt_NoTag_TM_RGB_XL.png", "brand": "Smashburger", "brand:wikidata": "Q17061332", "nsi_id": "smashburger-d2abf0"}, "geometry": {"type": "Point", "coordinates": [-95.6999869, 29.9747185]}},
{"type": "Feature", "id": "eR_I7sEeqTtP711PfjGcgUOp8pY=", "properties": {"ref": "1083", "@spider": "smashburger", "amenity": "fast_food", "cuisine": "burger", "takeaway": "yes", "addr:street_address": "15241 W. 119th St.,", "addr:city": "Olathe", "addr:state": "KS", "addr:postcode": "66062", "name": "Your Neighborhood Smashburger", "phone": "19137474552", "website": "https://smashburger.com/locations/us/ks/olathe/15241-w-119th-st/", "opening_hours": "Mo-Su 11:00-20:00", "image": "https://smashburger.com/wp-content/uploads/2021/03/SB_hori_logo_Lt_NoTag_TM_RGB_XL.png", "brand": "Smashburger", "brand:wikidata": "Q17061332", "nsi_id": "smashburger-d2abf0"}, "geometry": {"type": "Point", "coordinates": [-94.7645933, 38.9122478]}},
{"type": "Feature", "id": "SfM8pDU0BRBaKHHywC_1rBh-EHk=", "properties": {"ref": "1082", "@spider": "smashburger", "amenity": "fast_food", "cuisine": "burger", "takeaway": "yes", "addr:street_address": "1200 Brown St.,Suite 190", "addr:city": "Dayton", "addr:state": "OH", "addr:postcode": "45409", "name": "Your Neighborhood Smashburger", "phone": "19379859262", "website": "https://smashburger.com/locations/us/oh/dayton/1200-brown-st/", "opening_hours": "Mo-Su 10:00-22:00", "image": "https://smashburger.com/wp-content/uploads/2021/03/SB_hori_logo_Lt_NoTag_TM_RGB_XL.png", "brand": "Smashburger", "brand:wikidata": "Q17061332", "nsi_id": "smashburger-d2abf0"}, "geometry": {"type": "Point", "coordinates": [-84.1822626, 39.7416193]}},
{"type": "Feature", "id": "9h3VG6UtMFOeRxM0VeFNutdQG9I=", "properties": {"ref": "1071", "@spider": "smashburger", "amenity": "fast_food", "cuisine": "burger", "takeaway": "yes", "addr:street_address": "5500 Sunrise Blvd.,Suite 100", "addr:city": "Citrus Heights", "addr:state": "CA", "addr:postcode": "95610", "name": "Your Neighborhood Smashburger", "phone": "19169661562", "website": "https://smashburger.com/locations/us/ca/citrus-heights/5500-sunrise-blvd/", "opening_hours": "Mo-Th 10:30-21:30; Fr-Sa 10:30-22:00; Su 10:30-21:30", "image": "https://smashburger.com/wp-content/uploads/2021/03/SB_hori_logo_Lt_NoTag_TM_RGB_XL.png", "brand": "Smashburger", "brand:wikidata": "Q17061332", "nsi_id": "smashburger-d2abf0"}, "geometry": {"type": "Point", "coordinates": [-121.2713662, 38.6675433]}},
{"type": "Feature", "id": "ENatkGTIHCmOTPiXdx_jUemO7pk=", "properties": {"ref": "1060", "@spider": "smashburger", "amenity": "fast_food", "cuisine": "burger", "takeaway": "yes", "addr:street_address": "278 East 12300 South,#106", "addr:city": "Draper", "addr:state": "UT", "addr:postcode": "84020", "name": "Your Neighborhood Smashburger", "phone": "18013070079", "website": "https://smashburger.com/locations/us/ut/draper/278-e-12300-south/", "opening_hours": "Mo-Th 10:00-22:00; Fr-Sa 10:00-23:00; Su 10:00-22:00", "image": "https://smashburger.com/wp-content/uploads/2021/03/SB_hori_logo_Lt_NoTag_TM_RGB_XL.png", "brand": "Smashburger", "brand:wikidata": "Q17061332", "nsi_id": "smashburger-d2abf0"}, "geometry": {"type": "Point", "coordinates": [-111.8820546, 40.5263535]}},
{"type": "Feature", "id": "cluekq4k_75cQSl0tnlOSG_GPmU=", "properties": {"ref": "1045", "@spider": "smashburger", "amenity": "fast_food", "cuisine": "burger", "takeaway": "yes", "addr:street_address": "2315 Miamisburg Centerville Rd.,", "addr:city": "Dayton", "addr:state": "OH", "addr:postcode": "45459", "name": "Your Neighborhood Smashburger", "phone": "19379389888", "website": "https://smashburger.com/locations/us/oh/dayton/2315-miamisburg-centerville-rd/", "opening_hours": "Mo-Su 10:00-22:00", "image": "https://smashburger.com/wp-content/uploads/2021/03/SB_hori_logo_Lt_NoTag_TM_RGB_XL.png", "brand": "Smashburger", "brand:wikidata": "Q17061332", "nsi_id": "smashburger-d2abf0"}, "geometry": {"type": "Point", "coordinates": [-84.2138178, 39.6350964]}},
{"type": "Feature", "id": "zbZV5LoW9A1NEWAin_oCSQ-hpoY=", "properties": {"ref": "1039", "@spider": "smashburger", "amenity": "fast_food", "cuisine": "burger", "takeaway": "yes", "addr:street_address": "10830 E. 71st St.,", "addr:city": "Tulsa", "addr:state": "OK", "addr:postcode": "74133", "name": "Your Neighborhood Smashburger", "phone": "19183070380", "website": "https://smashburger.com/locations/us/ok/tulsa/10830-east-71st-street/", "opening_hours": "Mo-Th 10:30-21:30; Fr-Sa 10:30-22:00; Su 10:30-21:30", "image": "https://smashburger.com/wp-content/uploads/2021/03/SB_hori_logo_Lt_NoTag_TM_RGB_XL.png", "brand": "Smashburger", "brand:wikidata": "Q17061332", "nsi_id": "smashburger-d2abf0"}, "geometry": {"type": "Point", "coordinates": [-95.8555775, 36.0604162]}},
{"type": "Feature", "id": "ulIoBb6CY4Z8kmDF7aMruRcFc0M=", "properties": {"ref": "1035", "@spider": "smashburger", "amenity": "fast_food", "cuisine": "burger", "takeaway": "yes", "addr:street_address": "3225 Vicksburger Lane North Bldg. B,Suite  G", "addr:city": "Plymouth", "addr:state": "MN", "addr:postcode": "55447", "name": "Your Neighborhood Smashburger", "phone": "17632521496", "website": "https://smashburger.com/locations/us/mn/plymouth/3225-vicksburger-lane-north/", "opening_hours": "Mo-Su 11:00-20:00", "image": "https://smashburger.com/wp-content/uploads/2021/03/SB_hori_logo_Lt_NoTag_TM_RGB_XL.png", "brand": "Smashburger", "brand:wikidata": "Q17061332", "nsi_id": "smashburger-d2abf0"}, "geometry": {"type": "Point", "coordinates": [-93.4819055, 45.0169446]}},
{"type": "Feature", "id": "7LrJbRwwnfP0O2HyPTcJUfnO-AY=", "properties": {"ref": "1032", "@spider": "smashburger", "amenity": "fast_food", "cuisine": "burger", "takeaway": "yes", "addr:street_address": "2630 S. Parker Rd.,", "addr:city": "Aurora", "addr:state": "CO", "addr:postcode": "80014", "name": "Your Neighborhood Smashburger", "phone": "17202130012", "website": "https://smashburger.com/locations/us/co/aurora/2630-s-parker-road/", "opening_hours": "Mo-Th 10:30-21:30; Fr-Sa 10:30-22:00; Su 10:30-21:30", "image": "https://smashburger.com/wp-content/uploads/2021/03/SB_hori_logo_Lt_NoTag_TM_RGB_XL.png", "brand": "Smashburger", "brand:wikidata": "Q17061332", "nsi_id": "smashburger-d2abf0"}, "geometry": {"type": "Point", "coordinates": [-104.8626026, 39.6687589]}}]}