{"type":"FeatureCollection","features":[{"type": "Feature", "id": "nm9Guq2LfQtDbmNaS_UMoonNsJQ=", "properties": {"ref": "Broomfield - Nickel", "@spider": "snarfs", "addr:street_address": "300 Nickel St, Suite 14", "addr:city": "Broomfield", "addr:state": "CO", "addr:postcode": "80020", "name": "Broomfield - Nickel", "phone": "303-460-1000", "website": "http://www.eatsnarfs.com/broomfield", "brand": "Snarf's Sandwiches", "brand:wikidata": "Q113900887"}, "geometry": {"type": "Point", "coordinates": [-105.087043762207, 39.920886993408]}},
{"type": "Feature", "id": "S-TlDVGUzyUAfQemcPI3hzbsBHo=", "properties": {"ref": "Boulder - Pearl St.", "@spider": "snarfs", "addr:street_address": "2660 Pearl Street", "addr:city": "Boulder", "addr:state": "CO", "addr:postcode": "80302", "name": "Boulder - Pearl St.", "phone": "303-444-7766", "website": "http://www.eatsnarfs.com/pearl-boulder", "brand": "Snarf's Sandwiches", "brand:wikidata": "Q113900887"}, "geometry": {"type": "Point", "coordinates": [-105.259788513184, 40.021827697754]}},
{"type": "Feature", "id": "LSv730nP6x822NXgflTFEdiR2V4=", "properties": {"ref": "Boulder - Gunbarrel", "@spider": "snarfs", "addr:street_address": "6562 Lookout Rd", "addr:city": "Boulder", "addr:state": "CO", "addr:postcode": "80301", "name": "Boulder - Gunbarrel", "phone": "720-622-0107", "website": "http://www.eatsnarfs.com/boulder-gunbarrel", "brand": "Snarf's Sandwiches", "brand:wikidata": "Q113900887"}, "geometry": {"type": "Point", "coordinates": [-105.200965881348, 40.072105407715]}},
{"type": "Feature", "id": "p9qsGUQv_NLG2KqZT7HPgCxTxaM=", "properties": {"ref": "Boulder - Table Mesa Shopping Center", "@spider": "snarfs", "addr:street_address": "637 S Broadway Street, Suite A", "addr:city": "Boulder", "addr:state": "CO", "addr:postcode": "80305", "name": "Boulder - Table Mesa Shopping Center", "phone": "303-444-7714", "website": "http://www.eatsnarfs.com/boulder-table-mesa", "brand": "Snarf's Sandwiches", "brand:wikidata": "Q113900887"}, "geometry": {"type": "Point", "coordinates": [-105.249961853027, 39.983203887939]}},
{"type": "Feature", "id": "WtJff92Q54b-8p2Vt_Imh4AnX4Q=", "properties": {"ref": "Boulder- Arapahoe", "@spider": "snarfs", "addr:street_address": "5340 Arapahoe Ave", "addr:city": "Boulder", "addr:state": "CO", "addr:postcode": "80303", "name": "Boulder- Arapahoe", "phone": "303-444-3404", "website": "http://www.eatsnarfs.com/east-boulder", "brand": "Snarf's Sandwiches", "brand:wikidata": "Q113900887"}, "geometry": {"type": "Point", "coordinates": [-105.228378295898, 40.01416015625]}},
{"type": "Feature", "id": "LOhvvg4eZYNT9V_rdQj-dSxIZLc=", "properties": {"ref": "Denver - Mayfair", "@spider": "snarfs", "addr:street_address": "6245 E. 14th St.", "addr:city": "Denver", "addr:state": "CO", "addr:postcode": "80220", "name": "Denver - Mayfair", "website": "http://www.eatsnarfs.com/denver-mayfair", "brand": "Snarf's Sandwiches", "brand:wikidata": "Q113900887"}, "geometry": {"type": "Point", "coordinates": [-104.915313720703, 39.738780975342]}},
{"type": "Feature", "id": "uDwVZQRClW6U7sQYsLCn4jgq9pc=", "properties": {"ref": "Denver- Highlands", "@spider": "snarfs", "addr:street_address": "5001 W 38th Ave", "addr:city": "Denver", "addr:state": "CO", "addr:postcode": "80212", "name": "Denver- Highlands", "phone": "303-455-5555", "website": "http://www.eatsnarfs.com/denver-highlands", "brand": "Snarf's Sandwiches", "brand:wikidata": "Q113900887"}, "geometry": {"type": "Point", "coordinates": [-105.051277160645, 39.769687652588]}},
{"type": "Feature", "id": "Niq45iDZ-SW_zKNIbQK9NCTQLBA=", "properties": {"ref": "Denver- Federal Boulevard", "@spider": "snarfs", "addr:street_address": "2527 Federal Blvd", "addr:city": "Denver", "addr:state": "CO", "addr:postcode": "80211", "name": "Denver- Federal Boulevard", "phone": "303-702-4444", "website": "http://www.eatsnarfs.com/federal-blvd", "brand": "Snarf's Sandwiches", "brand:wikidata": "Q113900887"}, "geometry": {"type": "Point", "coordinates": [-105.025611877441, 39.754119873047]}},
{"type": "Feature", "id": "zJO8jJ41Qb_wVfZFi3gzjWE40iw=", "properties": {"ref": "Denver - Capitol Hill", "@spider": "snarfs", "addr:street_address": "1003 E 11th Ave", "addr:city": "Denver", "addr:state": "CO", "addr:postcode": "80218", "name": "Denver - Capitol Hill", "phone": "303-832-9999", "website": "http://www.eatsnarfs.com/denver-capitol-hill", "brand": "Snarf's Sandwiches", "brand:wikidata": "Q113900887"}, "geometry": {"type": "Point", "coordinates": [-104.974967956543, 39.733978271484]}},
{"type": "Feature", "id": "guBs5tcC4tU253WgYFt1D_M8tXA=", "properties": {"ref": "Denver- Ballpark Neighborhood", "@spider": "snarfs", "addr:street_address": "2425 Broadway Avenue", "addr:city": "Denver", "addr:state": "CO", "addr:postcode": "80205", "name": "Denver- Ballpark Neighborhood", "phone": "303-524-3466", "website": "http://www.eatsnarfs.com/denver-ballpark-neighborhood", "brand": "Snarf's Sandwiches", "brand:wikidata": "Q113900887"}, "geometry": {"type": "Point", "coordinates": [-104.987739562988, 39.757144927979]}},
{"type": "Feature", "id": "b3v55qbS_v3d0j_v7YW2SzV8gaU=", "properties": {"ref": "Denver - South Broadway & Florida", "@spider": "snarfs", "addr:street_address": "1490 S Broadway", "addr:city": "Denver", "addr:state": "CO", "addr:postcode": "80210", "name": "Denver - South Broadway & Florida", "phone": "720-787-7878", "website": "http://www.eatsnarfs.com/denver-southbroadway", "brand": "Snarf's Sandwiches", "brand:wikidata": "Q113900887"}, "geometry": {"type": "Point", "coordinates": [-104.986991882324, 39.689674377441]}},
{"type": "Feature", "id": "bm8PMnwGg1PfA5G9k2PsH9GjFsM=", "properties": {"ref": "Denver - 17th & Welton", "@spider": "snarfs", "addr:street_address": "555 17th St, #180", "addr:city": "Denver", "addr:state": "CO", "addr:postcode": "80202", "name": "Denver - 17th & Welton", "phone": "303-296-2100", "website": "http://www.eatsnarfs.com/denver-17th-st", "brand": "Snarf's Sandwiches", "brand:wikidata": "Q113900887"}, "geometry": {"type": "Point", "coordinates": [-104.989356994629, 39.74535369873]}},
{"type": "Feature", "id": "2hmdnSiGr9BrfBpweB1q6mg5r0w=", "properties": {"ref": "Denver - University of Denver", "@spider": "snarfs", "addr:street_address": "1729 E Evans Ave", "addr:city": "Denver", "addr:state": "CO", "addr:postcode": "80210", "name": "Denver - University of Denver", "phone": "303-777-1664", "website": "http://www.eatsnarfs.com/denver-universityofdenver", "brand": "Snarf's Sandwiches", "brand:wikidata": "Q113900887"}, "geometry": {"type": "Point", "coordinates": [-104.966857910156, 39.678718566895]}},
{"type": "Feature", "id": "No9887fFkTXnSZeGgC6MFosGlV4=", "properties": {"ref": "Denver International Airport", "@spider": "snarfs", "addr:street_address": "Denver International Airport, Terminal A (Across from Gate A73) , 8500 Pena Blvd", "addr:city": "Denver", "addr:state": "CO", "addr:postcode": "80249", "name": "Denver International Airport", "phone": "720-912-1491", "website": "http://www.eatsnarfs.com/dia", "brand": "Snarf's Sandwiches", "brand:wikidata": "Q113900887"}, "geometry": {"type": "Point", "coordinates": [-104.673721313477, 39.849510192871]}},
{"type": "Feature", "id": "mPm3ogbyyV4kBIZlFJnmkuHHZJs=", "properties": {"ref": "Denver at the Spire", "@spider": "snarfs", "addr:street_address": "891 14th St, #160", "addr:city": "Denver", "addr:state": "CO", "addr:postcode": "80202", "name": "Denver at the Spire", "phone": "303-573-3939", "website": "http://www.eatsnarfs.com/denver-spire", "brand": "Snarf's Sandwiches", "brand:wikidata": "Q113900887"}, "geometry": {"type": "Point", "coordinates": [-104.995536804199, 39.745105743408]}},
{"type": "Feature", "id": "8CTIPE5jGWcxEIspuHIZoYEua1M=", "properties": {"ref": "Denver - Cherry Creek", "@spider": "snarfs", "addr:street_address": "125 Adams St", "addr:city": "Denver", "addr:state": "CO", "addr:postcode": "80206", "name": "Denver - Cherry Creek", "phone": "720-716-4032", "website": "http://www.eatsnarfs.com/cherry-creek", "brand": "Snarf's Sandwiches", "brand:wikidata": "Q113900887"}, "geometry": {"type": "Point", "coordinates": [-104.948875427246, 39.718280792236]}},
{"type": "Feature", "id": "nY6spUUdoy55dM9AxtP2pajCmdA=", "properties": {"ref": "Austin - UT", "@spider": "snarfs", "addr:street_address": "2901 Medical Arts St, #2", "addr:city": "Austin", "addr:state": "TX", "addr:postcode": "78705", "name": "Austin - UT", "phone": "512-687-2600", "website": "http://www.eatsnarfs.com/austin", "brand": "Snarf's Sandwiches", "brand:wikidata": "Q113900887"}, "geometry": {"type": "Point", "coordinates": [-97.728637695312, 30.288373947144]}},
{"type": "Feature", "id": "hXG6e6LJR_AHbOZGh7cDXs8ZJ24=", "properties": {"ref": "Austin - South 1st Street", "@spider": "snarfs", "addr:street_address": "1404 S 1st St", "addr:city": "Austin", "addr:state": "TX", "addr:postcode": "78704", "name": "Austin - South 1st Street", "phone": "512-614-4109", "website": "http://www.eatsnarfs.com/austin-1st-street", "brand": "Snarf's Sandwiches", "brand:wikidata": "Q113900887"}, "geometry": {"type": "Point", "coordinates": [-97.755195617676, 30.250524520874]}},
{"type": "Feature", "id": "9GhxPn043FvPtin04tmrJP1rUr8=", "properties": {"ref": "St Louis -  Downtown at the MX", "@spider": "snarfs", "addr:street_address": "614 Washington Ave", "addr:city": "Saint Louis", "addr:state": "MO", "addr:postcode": "63101", "name": "St Louis -  Downtown at the MX", "phone": "314-241-0100", "website": "http://www.eatsnarfs.com/stlouis-downtownatthemx", "brand": "Snarf's Sandwiches", "brand:wikidata": "Q113900887"}, "geometry": {"type": "Point", "coordinates": [-90.19002532959, 38.630199432373]}},
{"type": "Feature", "id": "PtrZj0yugRbzNk2nuaL2I5p-GMY=", "properties": {"ref": "St Louis - SLU", "@spider": "snarfs", "addr:street_address": "374 S Grand Blvd", "addr:city": "Saint Louis", "addr:state": "MO", "addr:postcode": "63103", "name": "St Louis - SLU", "phone": "314-833-4828", "website": "http://www.eatsnarfs.com/stlouis-slu", "brand": "Snarf's Sandwiches", "brand:wikidata": "Q113900887"}, "geometry": {"type": "Point", "coordinates": [-90.234046936035, 38.632183074951]}},
{"type": "Feature", "id": "v_EXQD_Z5lwX1c1Y6K790zB5yCk=", "properties": {"ref": "St Louis - Skinker", "@spider": "snarfs", "addr:street_address": "360 N Skinker Blvd", "addr:city": "Saint Louis", "addr:state": "MO", "addr:postcode": "63130", "name": "St Louis - Skinker", "phone": "314-449-1771", "website": "http://www.eatsnarfs.com/stlouis-skinker", "brand": "Snarf's Sandwiches", "brand:wikidata": "Q113900887"}, "geometry": {"type": "Point", "coordinates": [-90.300064086914, 38.651584625244]}},
{"type": "Feature", "id": "hX80POYUaUWe5e98XcLsDYHD_dw=", "properties": {"ref": "St Louis - Maryland Heights", "@spider": "snarfs", "addr:street_address": "11512 Page Service Dr", "addr:city": "Maryland Heights", "addr:state": "MO", "addr:postcode": "63146", "name": "St Louis - Maryland Heights", "phone": "314-551-2424", "website": "http://www.eatsnarfs.com/snarfs-page", "brand": "Snarf's Sandwiches", "brand:wikidata": "Q113900887"}, "geometry": {"type": "Point", "coordinates": [-90.421119689941, 38.699630737305]}},
{"type": "Feature", "id": "6vSXTG2Lt5Wvu2RA7zoavZ1cplU=", "properties": {"ref": "St. Louis - Fenton", "@spider": "snarfs", "addr:street_address": "870 S. Highway Dr.", "addr:city": "Fenton", "addr:state": "MO", "addr:postcode": "63026", "name": "St. Louis - Fenton", "website": "http://www.eatsnarfs.com/st-louis-fenton", "brand": "Snarf's Sandwiches", "brand:wikidata": "Q113900887"}, "geometry": {"type": "Point", "coordinates": [-90.458549499512, 38.542446136475]}},
{"type": "Feature", "id": "05CiA8gwpsJVB3EfgUXGwTublSU=", "properties": {"ref": "Westminster - 120th & Tejon", "@spider": "snarfs", "addr:street_address": "1975 W 120th Ave", "addr:city": "Westminster", "addr:state": "CO", "addr:postcode": "80234", "name": "Westminster - 120th & Tejon", "phone": "303-255-4599", "website": "http://www.eatsnarfs.com/westminster", "brand": "Snarf's Sandwiches", "brand:wikidata": "Q113900887"}, "geometry": {"type": "Point", "coordinates": [-105.010429382324, 39.915279388428]}},
{"type": "Feature", "id": "i6uApi0byxD8efseEfRXd8RfDEc=", "properties": {"ref": "Louisville", "@spider": "snarfs", "addr:street_address": "1110 E. South Boulder Rd.", "addr:city": "Louisville", "addr:state": "CO", "addr:postcode": "80027", "name": "Louisville", "website": "http://www.eatsnarfs.com/louisville", "brand": "Snarf's Sandwiches", "brand:wikidata": "Q113900887"}, "geometry": {"type": "Point", "coordinates": [-105.129203796387, 39.986431121826]}},
{"type": "Feature", "id": "H5EAXn3B23rotFotLcbv7Ln242E=", "properties": {"ref": "Longmont - Mountain View", "@spider": "snarfs", "addr:street_address": "2130 Mountain View Ave", "addr:city": "Longmont", "addr:state": "CO", "addr:postcode": "80501", "name": "Longmont - Mountain View", "phone": "303-702-1111", "website": "http://www.eatsnarfs.com/longmont-mountain-view", "brand": "Snarf's Sandwiches", "brand:wikidata": "Q113900887"}, "geometry": {"type": "Point", "coordinates": [-105.129096984863, 40.181713104248]}},
{"type": "Feature", "id": "bq5fn_On2XRB_QpzWyEoDLmWugE=", "properties": {"ref": "Longmont - Ken Pratt", "@spider": "snarfs", "addr:street_address": "645 Ken Pratt Blvd", "addr:city": "Longmont", "addr:state": "CO", "addr:postcode": "80501", "name": "Longmont - Ken Pratt", "phone": "303-774-1441", "website": "http://www.eatsnarfs.com/longmont-ken-pratt", "brand": "Snarf's Sandwiches", "brand:wikidata": "Q113900887"}, "geometry": {"type": "Point", "coordinates": [-105.104736328125, 40.152034759521]}},
{"type": "Feature", "id": "ZYvO4bl1CFypFeq5VlgScHChZwM=", "properties": {"ref": "Denver Tech Center - Orchard", "@spider": "snarfs", "addr:street_address": "8775 E. Orchard Rd, #801", "addr:city": "Greenwood Village", "addr:state": "CO", "addr:postcode": "80111", "name": "Denver Tech Center - Orchard", "phone": "720-693-9350", "website": "http://www.eatsnarfs.com/tech-center", "brand": "Snarf's Sandwiches", "brand:wikidata": "Q113900887"}, "geometry": {"type": "Point", "coordinates": [-104.88680267334, 39.610164642334]}},
{"type": "Feature", "id": "GljT4JQXDMBKUKqmuXY4ObEFC3A=", "properties": {"ref": "Golden- Downtown", "@spider": "snarfs", "addr:street_address": "1301 Washington Ave, #110", "addr:city": "Golden", "addr:state": "CO", "addr:postcode": "80401", "name": "Golden- Downtown", "phone": "303-273-0006", "website": "http://www.eatsnarfs.com/golden", "brand": "Snarf's Sandwiches", "brand:wikidata": "Q113900887"}, "geometry": {"type": "Point", "coordinates": [-105.220291137695, 39.754508972168]}},
{"type": "Feature", "id": "4ABOxolRF5i-NBMNYbExhDhzfZo=", "properties": {"ref": "Dillon", "@spider": "snarfs", "addr:street_address": "765 W. Anemone Trail, Unit A", "addr:city": "Dillon", "addr:state": "CO", "addr:postcode": "80435", "name": "Dillon", "phone": "970-485-6763", "website": "http://www.eatsnarfs.com/dillon", "brand": "Snarf's Sandwiches", "brand:wikidata": "Q113900887"}, "geometry": {"type": "Point", "coordinates": [-106.061309814453, 39.627872467041]}},
{"type": "Feature", "id": "WRoBm7VeXa6PskKhh8QjHK-rMYQ=", "properties": {"ref": "Colorado Springs - Academy", "@spider": "snarfs", "addr:street_address": "7495 N. Academy Blvd.", "addr:city": "Colorado Springs", "addr:state": "CO", "addr:postcode": "80920", "name": "Colorado Springs - Academy", "phone": "719-358-7001", "website": "http://www.eatsnarfs.com/colorado-springs-academy", "brand": "Snarf's Sandwiches", "brand:wikidata": "Q113900887"}, "geometry": {"type": "Point", "coordinates": [-104.797668457031, 38.939437866211]}},
{"type": "Feature", "id": "LdZXUSSS5QNvl-MtY3-vsCjRrMw=", "properties": {"ref": "Castle Rock", "@spider": "snarfs", "addr:street_address": "619 Wilcox St.", "addr:city": "Castle Rock", "addr:state": "CO", "addr:postcode": "80104", "name": "Castle Rock", "website": "http://www.eatsnarfs.com/castle-rock", "brand": "Snarf's Sandwiches", "brand:wikidata": "Q113900887"}, "geometry": {"type": "Point", "coordinates": [-104.8603515625, 39.376087188721]}}]}