{"type":"FeatureCollection","features":[{"type": "Feature", "id": "u6AJ3T87INg6FJB1Ay44wXd_qZI=", "properties": {"ref": "14TH ", "@spider": "soulcycle", "leisure": "fitness_centre", "sport": "cycling", "addr:full": "1935 14 Street NW", "addr:city": "Washington", "addr:state": "DC", "addr:postcode": " 20009", "name": "14TH ", "phone": "202.332.7685 ", "website": "https://www.soul-cycle.com/studios/washingtondc-14thst/", "brand": "Soulcycle", "brand:wikidata": "Q17084730", "nsi_id": "soulcycle-9a38b2"}, "geometry": {"type": "Point", "coordinates": [-77.03158, 38.916726]}},
{"type": "Feature", "id": "x36ViiC-f1SpEhOART34FtPP7b0=", "properties": {"ref": "East Hampton ", "@spider": "soulcycle", "leisure": "fitness_centre", "sport": "cycling", "addr:full": "68 Newtown Lane", "addr:city": "East Hampton", "addr:state": "NY", "addr:postcode": " 11937", "name": "East Hampton ", "phone": "631.324.6600 ", "website": "https://www.soul-cycle.com/studios/ny-easthampton/", "brand": "Soulcycle", "brand:wikidata": "Q17084730", "nsi_id": "soulcycle-9a38b2"}, "geometry": {"type": "Point", "coordinates": [-72.18774, 40.96511]}},
{"type": "Feature", "id": "pf-CRI7ImMthvoQBabBidg7w1Q0=", "properties": {"ref": "Bridgehampton", "@spider": "soulcycle", "leisure": "fitness_centre", "sport": "cycling", "addr:full": " 264 Butter Lane ", "addr:city": "Bridgehampton", "addr:state": "NY", "addr:postcode": " 11932", "name": "Bridgehampton", "phone": "631.537.3630 ", "website": "https://www.soul-cycle.com/studios/ny-bridgehampton/", "brand": "Soulcycle", "brand:wikidata": "Q17084730", "nsi_id": "soulcycle-9a38b2"}, "geometry": {"type": "Point", "coordinates": [-72.31281, 40.94096]}},
{"type": "Feature", "id": "_1CHgntV3ssE5WBwjV4GT_w0SlE=", "properties": {"ref": "South Beach", "@spider": "soulcycle", "leisure": "fitness_centre", "sport": "cycling", "addr:full": "2325 Collins Avenue", "addr:city": "Miami Beach", "addr:state": "FL", "addr:postcode": " 33139", "name": "South Beach", "phone": "305.740.3601 ", "website": "https://www.soul-cycle.com/studios/fl-south-beach/", "brand": "Soulcycle", "brand:wikidata": "Q17084730", "nsi_id": "soulcycle-9a38b2"}, "geometry": {"type": "Point", "coordinates": [-80.12704, 25.79914]}},
{"type": "Feature", "id": "jdPMbqSIHGk7iYlSYedEBxIIv-A=", "properties": {"ref": "Coral Gables", "@spider": "soulcycle", "leisure": "fitness_centre", "sport": "cycling", "addr:full": "Shops at Merrick Park", "addr:city": "Coral Gables", "addr:state": "FL", "addr:postcode": " 33146", "name": "Coral Gables", "phone": "305.740.3600 ", "website": "https://www.soul-cycle.com/studios/fl-coralgables/", "brand": "Soulcycle", "brand:wikidata": "Q17084730", "nsi_id": "soulcycle-9a38b2"}, "geometry": {"type": "Point", "coordinates": [-80.26024, 25.732326]}},
{"type": "Feature", "id": "DwXA_4-6cELLNfZwJBrKZc-p-Hc=", "properties": {"ref": "Brickell ", "@spider": "soulcycle", "leisure": "fitness_centre", "sport": "cycling", "addr:full": "25 SW 9th Street", "addr:city": "Miami", "addr:state": "FL", "addr:postcode": " 33131", "name": "Brickell ", "phone": "305.407.8801 ", "website": "https://www.soul-cycle.com/studios/fl-miami-brickell/", "brand": "Soulcycle", "brand:wikidata": "Q17084730", "nsi_id": "soulcycle-9a38b2"}, "geometry": {"type": "Point", "coordinates": [-80.193727, 25.765435]}},
{"type": "Feature", "id": "ZNgNMhIBUBb33PrrjXD1V4LOsBc=", "properties": {"ref": "West Hollywood", "@spider": "soulcycle", "leisure": "fitness_centre", "sport": "cycling", "addr:full": "8570 Sunset Boulevard", "addr:city": "West Hollywood", "addr:state": "CA", "addr:postcode": " 90069", "name": "West Hollywood", "phone": "310.657.7685 ", "website": "https://www.soul-cycle.com/studios/ca-westholloywood/", "brand": "Soulcycle", "brand:wikidata": "Q17084730", "nsi_id": "soulcycle-9a38b2"}, "geometry": {"type": "Point", "coordinates": [-118.3782233, 34.0926798]}},
{"type": "Feature", "id": "ShHQVMjM8K2ksI2M9ejRZo3yTr8=", "properties": {"ref": "Santa Monica", "@spider": "soulcycle", "leisure": "fitness_centre", "sport": "cycling", "addr:full": "120 Wilshire Blvd", "addr:city": "Santa Monica", "addr:state": "CA", "addr:postcode": " 90401", "name": "Santa Monica", "phone": "310.622.7685 ", "website": "https://www.soul-cycle.com/studios/ca-santamonica/", "brand": "Soulcycle", "brand:wikidata": "Q17084730", "nsi_id": "soulcycle-9a38b2"}, "geometry": {"type": "Point", "coordinates": [-118.5006, 34.0168]}},
{"type": "Feature", "id": "BbyZaygQh3VA2AKkionpn6QPW8o=", "properties": {"ref": "Pasadena ", "@spider": "soulcycle", "leisure": "fitness_centre", "sport": "cycling", "addr:full": "140 South Lake Avenue", "addr:city": "Pasadena ", "addr:state": "CA", "addr:postcode": " 91101", "name": "Pasadena ", "phone": "626.408.3000 ", "website": "https://www.soul-cycle.com/studios/ca-pasadena/", "brand": "Soulcycle", "brand:wikidata": "Q17084730", "nsi_id": "soulcycle-9a38b2"}, "geometry": {"type": "Point", "coordinates": [-118.131823, 34.143566]}},
{"type": "Feature", "id": "oh-U3v2a5JtTbBzse-5hr76i8mU=", "properties": {"ref": "Manhattan Beach", "@spider": "soulcycle", "leisure": "fitness_centre", "sport": "cycling", "addr:full": "820 Pacific Coast Hwy, Suite 106", "addr:city": "El Segundo", "addr:state": "CA", "addr:postcode": " 90245", "name": "Manhattan Beach", "phone": "310.640.7685 ", "website": "https://www.soul-cycle.com/studios/ca-manhattanbeach/", "brand": "Soulcycle", "brand:wikidata": "Q17084730", "nsi_id": "soulcycle-9a38b2"}, "geometry": {"type": "Point", "coordinates": [-118.401019, 33.9204]}},
{"type": "Feature", "id": "efRk2s6gDlPggPdlfkAEZAb_2fw=", "properties": {"ref": "Brentwood", "@spider": "soulcycle", "leisure": "fitness_centre", "sport": "cycling", "addr:full": "11640 San Vicente Boulevard", "addr:city": "Los Angeles", "addr:state": "CA", "addr:postcode": " 90049", "name": "Brentwood", "phone": "310.559.7685 ", "website": "https://www.soul-cycle.com/studios/ca-losangeles-brentwood/", "brand": "Soulcycle", "brand:wikidata": "Q17084730", "nsi_id": "soulcycle-9a38b2"}, "geometry": {"type": "Point", "coordinates": [-118.46315, 34.05352]}},
{"type": "Feature", "id": "s_C9Ygrb5JI-MEhODrAmPVOgZ2E=", "properties": {"ref": "Bethesda", "@spider": "soulcycle", "leisure": "fitness_centre", "sport": "cycling", "addr:full": "4931 Elm st", "addr:city": "Bethesda", "addr:state": "MD", "addr:postcode": " 20814", "name": "Bethesda", "phone": "301.803.7685 ", "website": "https://www.soul-cycle.com/studios/md-bethesda/", "brand": "Soulcycle", "brand:wikidata": "Q17084730", "nsi_id": "soulcycle-9a38b2"}, "geometry": {"type": "Point", "coordinates": [-77.097366, 38.982232]}},
{"type": "Feature", "id": "wY920gjhSVqcBVRnn7sBf6kTqh0=", "properties": {"ref": "South Lake Union", "@spider": "soulcycle", "leisure": "fitness_centre", "sport": "cycling", "addr:full": "Vaccine Required - 2105 9th Avenue", "addr:city": "Seattle", "addr:state": "WA", "addr:postcode": " 98121", "name": "South Lake Union", "phone": "206-880-7880 ", "website": "https://www.soul-cycle.com/studios/wa-south-lake-union/", "brand": "Soulcycle", "brand:wikidata": "Q17084730", "nsi_id": "soulcycle-9a38b2"}, "geometry": {"type": "Point", "coordinates": [-122.33761, 47.61731]}},
{"type": "Feature", "id": "sWd1rkz_p8KB1bZX2UIq5DMomZw=", "properties": {"ref": "Bellevue", "@spider": "soulcycle", "leisure": "fitness_centre", "sport": "cycling", "addr:full": "10470 NE 4th St", "addr:city": "Bellevue", "addr:state": "WA", "addr:postcode": " 98004", "name": "Bellevue", "phone": "425.786.0004 ", "website": "https://www.soul-cycle.com/studios/wa-bellevue/", "brand": "Soulcycle", "brand:wikidata": "Q17084730", "nsi_id": "soulcycle-9a38b2"}, "geometry": {"type": "Point", "coordinates": [-122.20054, 47.61389]}},
{"type": "Feature", "id": "t7tDC50be856Sz11mj4AXYa2JqU=", "properties": {"ref": "Seaport", "@spider": "soulcycle", "leisure": "fitness_centre", "sport": "cycling", "addr:full": "101 Seaport Boulevard", "addr:city": "Boston", "addr:state": "MA", "addr:postcode": " 02210", "name": "Seaport", "phone": "617.996.7685 ", "website": "https://www.soul-cycle.com/studios/ma-boston-seaport/", "brand": "Soulcycle", "brand:wikidata": "Q17084730", "nsi_id": "soulcycle-9a38b2"}, "geometry": {"type": "Point", "coordinates": [-71.045437, 42.351477]}},
{"type": "Feature", "id": "kqpvo4wE8q4NwgeP8AcFTKWH5Zc=", "properties": {"ref": "Chestnut Hill ", "@spider": "soulcycle", "leisure": "fitness_centre", "sport": "cycling", "addr:full": "200-230 Boylston Street", "addr:city": "Chestnut Hill", "addr:state": "MA", "addr:postcode": " 02467", "name": "Chestnut Hill ", "phone": "617-658-9010 ", "website": "https://www.soul-cycle.com/studios/ma-chestnuthill/", "brand": "Soulcycle", "brand:wikidata": "Q17084730", "nsi_id": "soulcycle-9a38b2"}, "geometry": {"type": "Point", "coordinates": [-71.176901, 42.319751]}},
{"type": "Feature", "id": "VnnsMCHkkWAt34bys1rpY4hGX10=", "properties": {"ref": "Studio Stream at West Village", "@spider": "soulcycle", "leisure": "fitness_centre", "sport": "cycling", "addr:full": "126 Leroy Street", "addr:city": "New York", "addr:state": "NY", "addr:postcode": " 10014", "name": "Studio Stream at West Village", "phone": " ", "website": "https://www.soul-cycle.com/studios/ny-echo/", "brand": "Soulcycle", "brand:wikidata": "Q17084730", "nsi_id": "soulcycle-9a38b2"}, "geometry": {"type": "Point", "coordinates": [-74.00813, 40.73031]}},
{"type": "Feature", "id": "k4Zd1ef7jWKBT4bQ3IV1tFRxB9I=", "properties": {"ref": "Roslyn", "@spider": "soulcycle", "leisure": "fitness_centre", "sport": "cycling", "addr:full": "250 S Service Road", "addr:city": "Roslyn Heights", "addr:state": "NY", "addr:postcode": " 11577", "name": "Roslyn", "phone": "516.833.1300 ", "website": "https://www.soul-cycle.com/studios/ny-roslynheights/", "brand": "Soulcycle", "brand:wikidata": "Q17084730", "nsi_id": "soulcycle-9a38b2"}, "geometry": {"type": "Point", "coordinates": [-73.65379, 40.78292]}},
{"type": "Feature", "id": "mz7x0vYho2lWUgMLFQSrIfy4x4g=", "properties": {"ref": "Walnut Creek ", "@spider": "soulcycle", "leisure": "fitness_centre", "sport": "cycling", "addr:full": "Broadway Plaza, 116 Broadway Lane (Macy's Parking Garage Entrance off of South Broadway)", "addr:city": "Walnut Creek", "addr:state": "CA", "addr:postcode": " 94596", "name": "Walnut Creek ", "phone": "925.239.7685 ", "website": "https://www.soul-cycle.com/studios/ca-walnutcreek/", "brand": "Soulcycle", "brand:wikidata": "Q17084730", "nsi_id": "soulcycle-9a38b2"}, "geometry": {"type": "Point", "coordinates": [-122.058605, 37.895115]}},
{"type": "Feature", "id": "dtTheYjcYXfMVSYEPmZSQwFJ6Pk=", "properties": {"ref": "Palo Alto ", "@spider": "soulcycle", "leisure": "fitness_centre", "sport": "cycling", "addr:full": "669 Stanford Shopping Center, C12", "addr:city": "Palo Alto ", "addr:state": "CA", "addr:postcode": " 94304", "name": "Palo Alto ", "phone": "650.784.7510 ", "website": "https://www.soul-cycle.com/studios/ca-paloalto/", "brand": "Soulcycle", "brand:wikidata": "Q17084730", "nsi_id": "soulcycle-9a38b2"}, "geometry": {"type": "Point", "coordinates": [-122.171404, 37.44167]}},
{"type": "Feature", "id": "kHWD0RshLUk47_bBPFFD7ZmuNSU=", "properties": {"ref": "Palm Beach - Outside", "@spider": "soulcycle", "leisure": "fitness_centre", "sport": "cycling", "addr:full": "The Square, 700 S Rosemary Ave #132", "addr:city": "West Palm Beach", "addr:state": "FL", "addr:postcode": " 33401", "name": "Palm Beach - Outside", "phone": "561.465.8937 ", "website": "https://www.soul-cycle.com/studios/fl-palm-beach/", "brand": "Soulcycle", "brand:wikidata": "Q17084730", "nsi_id": "soulcycle-9a38b2"}, "geometry": {"type": "Point", "coordinates": [-80.056084, 26.70751]}},
{"type": "Feature", "id": "ELw4KP2ibiPYZfXz-Cr-KFeXYgg=", "properties": {"ref": "The Loop", "@spider": "soulcycle", "leisure": "fitness_centre", "sport": "cycling", "addr:full": "Vaccine Required - 111 West Wacker", "addr:city": "Chicago", "addr:state": "IL", "addr:postcode": " 60601", "name": "The Loop", "phone": "312.337.7685 ", "website": "https://www.soul-cycle.com/studios/il-chicago-theloop/", "brand": "Soulcycle", "brand:wikidata": "Q17084730", "nsi_id": "soulcycle-9a38b2"}, "geometry": {"type": "Point", "coordinates": [-87.631516, 41.886648]}},
{"type": "Feature", "id": "hLGIOKzt5oKUJg1UzbryQp0yyus=", "properties": {"ref": "Old Town ", "@spider": "soulcycle", "leisure": "fitness_centre", "sport": "cycling", "addr:full": "Vaccine Required - 1225 North Wells Street", "addr:city": "Chicago", "addr:state": "IL", "addr:postcode": " 60610", "name": "Old Town ", "phone": "312.951.7685 ", "website": "https://www.soul-cycle.com/studios/il-chicago-oldtown/", "brand": "Soulcycle", "brand:wikidata": "Q17084730", "nsi_id": "soulcycle-9a38b2"}, "geometry": {"type": "Point", "coordinates": [-87.634119, 41.904739]}},
{"type": "Feature", "id": "QFxJF7qSktOMH6INihKqplRzD8A=", "properties": {"ref": "Soho London", "@spider": "soulcycle", "leisure": "fitness_centre", "sport": "cycling", "addr:full": "3-4 Great Marlborough Street", "addr:city": "London", "addr:state": "LND", "addr:postcode": " W1F 7HH", "name": "Soho London", "phone": "+44 203 745 6245 ", "website": "https://www.soul-cycle.com/studios/uk-london/", "brand": "Soulcycle", "brand:wikidata": "Q17084730", "nsi_id": "soulcycle-9a38b2"}, "geometry": {"type": "Point", "coordinates": [-0.13959, 51.51419]}},
{"type": "Feature", "id": "QpQF_keX5uWCEupsp17BtQOrDBo=", "properties": {"ref": "Notting Hill", "@spider": "soulcycle", "leisure": "fitness_centre", "sport": "cycling", "addr:full": "115A Portobello Road", "addr:city": "London", "addr:state": "LND", "addr:postcode": " W11 2DY", "name": "Notting Hill", "phone": "+44 2031 371880 ", "website": "https://www.soul-cycle.com/studios/uk-london-notting-hill/", "brand": "Soulcycle", "brand:wikidata": "Q17084730", "nsi_id": "soulcycle-9a38b2"}, "geometry": {"type": "Point", "coordinates": [-0.203273, 51.513863]}},
{"type": "Feature", "id": "07x2NtHaPj4rdS2FOIouNh207kg=", "properties": {"ref": "Las Vegas", "@spider": "soulcycle", "leisure": "fitness_centre", "sport": "cycling", "addr:full": "Vaccine Required - Wynn Plaza: 3131 S Las Vegas Blvd Suite: 207", "addr:city": "Las Vegas", "addr:state": "NV", "addr:postcode": " 89109", "name": "Las Vegas", "phone": "(702) 637-3230 ", "website": "https://www.soul-cycle.com/studios/nv-las-vegas/", "brand": "Soulcycle", "brand:wikidata": "Q17084730", "nsi_id": "soulcycle-9a38b2"}, "geometry": {"type": "Point", "coordinates": [-115.165739, 36.12649]}},
{"type": "Feature", "id": "AD1nkzbRtqTLDX8idoHZdpKs1cs=", "properties": {"ref": "La Jolla", "@spider": "soulcycle", "leisure": "fitness_centre", "sport": "cycling", "addr:full": "4303 La Jolla Village Drive", "addr:city": "San Diego", "addr:state": "CA", "addr:postcode": " 92122", "name": "La Jolla", "phone": "858-333-6190 ", "website": "https://www.soul-cycle.com/studios/ca-la-jolla/", "brand": "Soulcycle", "brand:wikidata": "Q17084730", "nsi_id": "soulcycle-9a38b2"}, "geometry": {"type": "Point", "coordinates": [-117.21292, 32.86934]}},
{"type": "Feature", "id": "39uP0ZY17P-cPf60cvr1X0cFqIE=", "properties": {"ref": "Short Hills ", "@spider": "soulcycle", "leisure": "fitness_centre", "sport": "cycling", "addr:full": " 800 Morris Turnpike, Suite 107 ", "addr:city": "Short Hills", "addr:state": "NJ", "addr:postcode": " 07078", "name": "Short Hills ", "phone": "908.206.1300 ", "website": "https://www.soul-cycle.com/studios/nj-shorthills/", "brand": "Soulcycle", "brand:wikidata": "Q17084730", "nsi_id": "soulcycle-9a38b2"}, "geometry": {"type": "Point", "coordinates": [-74.332319, 40.720423]}},
{"type": "Feature", "id": "vqOKru9UBhKQZlIbbdrBcaCaEW4=", "properties": {"ref": "Hoboken", "@spider": "soulcycle", "leisure": "fitness_centre", "sport": "cycling", "addr:full": "1400 Washington Street", "addr:city": "Hoboken", "addr:state": "NJ", "addr:postcode": " 07030", "name": "Hoboken", "phone": "201.935.6408 ", "website": "https://www.soul-cycle.com/studios/ny-hoboken/", "brand": "Soulcycle", "brand:wikidata": "Q17084730", "nsi_id": "soulcycle-9a38b2"}, "geometry": {"type": "Point", "coordinates": [-74.0261823791783, 40.7536952325652]}},
{"type": "Feature", "id": "ta-k3P4pehWy4FHCqywioBjF2rM=", "properties": {"ref": "Westport ", "@spider": "soulcycle", "leisure": "fitness_centre", "sport": "cycling", "addr:full": "372 Post Road E", "addr:city": "Westport", "addr:state": "CT", "addr:postcode": " 06880", "name": "Westport ", "phone": "203.683.7685 ", "website": "https://www.soul-cycle.com/studios/ct-westport/", "brand": "Soulcycle", "brand:wikidata": "Q17084730", "nsi_id": "soulcycle-9a38b2"}, "geometry": {"type": "Point", "coordinates": [-73.352804, 41.140145]}},
{"type": "Feature", "id": "zlF0o_C_UEYf2-4ppqSftAqeVTA=", "properties": {"ref": "Greenwich", "@spider": "soulcycle", "leisure": "fitness_centre", "sport": "cycling", "addr:full": "266 Mason Street", "addr:city": "Greenwich", "addr:state": "CT", "addr:postcode": " 06830", "name": "Greenwich", "phone": "203.653.7685 ", "website": "https://www.soul-cycle.com/studios/ct-greenwich/", "brand": "Soulcycle", "brand:wikidata": "Q17084730", "nsi_id": "soulcycle-9a38b2"}, "geometry": {"type": "Point", "coordinates": [-73.62385, 41.02319]}},
{"type": "Feature", "id": "qD-aZG9KJA20Gj-b8LpjZ990PvE=", "properties": {"ref": "Uptown ", "@spider": "soulcycle", "leisure": "fitness_centre", "sport": "cycling", "addr:full": "3699 McKinney Ave #309", "addr:city": "Dallas", "addr:state": "TX", "addr:postcode": " 75204", "name": "Uptown ", "phone": "214.360.7685 ", "website": "https://www.soul-cycle.com/studios/tx-uptown/", "brand": "Soulcycle", "brand:wikidata": "Q17084730", "nsi_id": "soulcycle-9a38b2"}, "geometry": {"type": "Point", "coordinates": [-96.797012, 32.808012]}},
{"type": "Feature", "id": "TB5F3gpgw272dwbaWdZdS6q0HDc=", "properties": {"ref": "River Oaks", "@spider": "soulcycle", "leisure": "fitness_centre", "sport": "cycling", "addr:full": "2549 Kirby Drive", "addr:city": "Houston", "addr:state": "TX", "addr:postcode": " 77019", "name": "River Oaks", "phone": "832.968.7685 ", "website": "https://www.soul-cycle.com/studios/tx-houston-riveroaks/", "brand": "Soulcycle", "brand:wikidata": "Q17084730", "nsi_id": "soulcycle-9a38b2"}, "geometry": {"type": "Point", "coordinates": [-95.418769, 29.743289]}},
{"type": "Feature", "id": "-NtRkbfTo5PfRm1jaxCJQO3q4PE=", "properties": {"ref": "Preston Hollow", "@spider": "soulcycle", "leisure": "fitness_centre", "sport": "cycling", "addr:full": "5944 W Northwest Hwy", "addr:city": "Dallas", "addr:state": "TX", "addr:postcode": " 75225", "name": "Preston Hollow", "phone": "972.737.7685 ", "website": "https://www.soul-cycle.com/studios/tx-dallas-prestonhollow/", "brand": "Soulcycle", "brand:wikidata": "Q17084730", "nsi_id": "soulcycle-9a38b2"}, "geometry": {"type": "Point", "coordinates": [-96.806218, 32.865268]}},
{"type": "Feature", "id": "VDaEf_INNuIO0lzniZ-31GHY5iU=", "properties": {"ref": "Downtown Austin", "@spider": "soulcycle", "leisure": "fitness_centre", "sport": "cycling", "addr:full": "401 Congress Avenue", "addr:city": "Austin", "addr:state": "TX", "addr:postcode": " 78701", "name": "Downtown Austin", "phone": "512.265.7500 ", "website": "https://www.soul-cycle.com/studios/tx-austin-downtown/", "brand": "Soulcycle", "brand:wikidata": "Q17084730", "nsi_id": "soulcycle-9a38b2"}, "geometry": {"type": "Point", "coordinates": [-97.742692, 30.266466]}},
{"type": "Feature", "id": "RX1L22jTVegCATIuc8QWAf6MYUc=", "properties": {"ref": "Denver", "@spider": "soulcycle", "leisure": "fitness_centre", "sport": "cycling", "addr:full": "Vaccine Required - 265 St. Paul Street", "addr:city": "Denver", "addr:state": "CO", "addr:postcode": " 80206", "name": "Denver", "phone": "(720) 400-8500 ", "website": "https://www.soul-cycle.com/studios/co-denver/", "brand": "Soulcycle", "brand:wikidata": "Q17084730", "nsi_id": "soulcycle-9a38b2"}, "geometry": {"type": "Point", "coordinates": [-104.951057, 39.720421]}},
{"type": "Feature", "id": "GDCms05li0JldM4A6net4tLP1V0=", "properties": {"ref": "Clarendon", "@spider": "soulcycle", "leisure": "fitness_centre", "sport": "cycling", "addr:full": "2700 Clarendon Blvd, Suite 300", "addr:city": "Arlington", "addr:state": "VA", "addr:postcode": " 22201", "name": "Clarendon", "phone": "571-482-9910 ", "website": "https://www.soul-cycle.com/studios/va-clarendon/", "brand": "Soulcycle", "brand:wikidata": "Q17084730", "nsi_id": "soulcycle-9a38b2"}, "geometry": {"type": "Point", "coordinates": [-77.09202, 38.88745]}},
{"type": "Feature", "id": "iticuSe2rwd0N7YH1yUTO9M7hTo=", "properties": {"ref": "Union Street", "@spider": "soulcycle", "leisure": "fitness_centre", "sport": "cycling", "addr:full": "Vaccine Required - 2095 Union St", "addr:city": "San Francisco ", "addr:state": "CA", "addr:postcode": " 94123", "name": "Union Street", "phone": "415.695.7685 ", "website": "https://www.soul-cycle.com/studios/ca-sanfrancisco-unionstreet/", "brand": "Soulcycle", "brand:wikidata": "Q17084730", "nsi_id": "soulcycle-9a38b2"}, "geometry": {"type": "Point", "coordinates": [-122.43377, 37.79727]}},
{"type": "Feature", "id": "hBXoAi0sVu1SsuSxayaUM3FVjCc=", "properties": {"ref": "Marin", "@spider": "soulcycle", "leisure": "fitness_centre", "sport": "cycling", "addr:full": "Vaccine Required - Marin Country Mart", "addr:city": "Larkspur", "addr:state": "CA", "addr:postcode": " 94939", "name": "Marin", "phone": "415.285.7685 ", "website": "https://www.soul-cycle.com/studios/ca-larkspur-marin/", "brand": "Soulcycle", "brand:wikidata": "Q17084730", "nsi_id": "soulcycle-9a38b2"}, "geometry": {"type": "Point", "coordinates": [-122.50865, 37.94798]}},
{"type": "Feature", "id": "UhrRbcMu_jS3z6-4knoYcgAoNUg=", "properties": {"ref": "Castro ", "@spider": "soulcycle", "leisure": "fitness_centre", "sport": "cycling", "addr:full": "400 Castro Street", "addr:city": "San Francisco", "addr:state": "CA", "addr:postcode": " 94114", "name": "Castro ", "phone": "415.431.7685 ", "website": "https://www.soul-cycle.com/studios/ca-sanfrancisco-castro/", "brand": "Soulcycle", "brand:wikidata": "Q17084730", "nsi_id": "soulcycle-9a38b2"}, "geometry": {"type": "Point", "coordinates": [-122.435426, 37.762297]}},
{"type": "Feature", "id": "Kg2KspPzhojg9PxUcGUdDPcPEBc=", "properties": {"ref": "Buckhead", "@spider": "soulcycle", "leisure": "fitness_centre", "sport": "cycling", "addr:full": "3400 Around Lenox Dr", "addr:city": "Atlanta", "addr:state": "GA", "addr:postcode": " 30326", "name": "Buckhead", "phone": "(470) 381-4770 ", "website": "https://www.soul-cycle.com/studios/ga-buckhead/", "brand": "Soulcycle", "brand:wikidata": "Q17084730", "nsi_id": "soulcycle-9a38b2"}, "geometry": {"type": "Point", "coordinates": [-84.36514, 33.84751]}},
{"type": "Feature", "id": "RoPnfL9eaub_XeZQnrVZWIR8trg=", "properties": {"ref": "Rye Brook", "@spider": "soulcycle", "leisure": "fitness_centre", "sport": "cycling", "addr:full": "21 Rye Ridge Plaza", "addr:city": "Rye Brook ", "addr:state": "NY", "addr:postcode": " 10573", "name": "Rye Brook", "phone": "914.713.1201 ", "website": "https://www.soul-cycle.com/studios/ny-rye-brook/", "brand": "Soulcycle", "brand:wikidata": "Q17084730", "nsi_id": "soulcycle-9a38b2"}, "geometry": {"type": "Point", "coordinates": [-73.6834703, 41.0026962]}},
{"type": "Feature", "id": "NVcgVzkmsV00Xx7q66Ao1b5QE3A=", "properties": {"ref": "Bronxville", "@spider": "soulcycle", "leisure": "fitness_centre", "sport": "cycling", "addr:full": "94 Kraft Avenue", "addr:city": "Bronxville", "addr:state": "NY", "addr:postcode": " 10708", "name": "Bronxville", "phone": "914.713.1202 ", "website": "https://www.soul-cycle.com/studios/ny-bronxville/", "brand": "Soulcycle", "brand:wikidata": "Q17084730", "nsi_id": "soulcycle-9a38b2"}, "geometry": {"type": "Point", "coordinates": [-73.834505, 40.940437]}},
{"type": "Feature", "id": "NxnCN5SfjwXnCzWiXQGf-wUaVKA=", "properties": {"ref": "Montauk", "@spider": "soulcycle", "leisure": "fitness_centre", "sport": "cycling", "addr:full": "15 S. Edgemere Street", "addr:city": "Montauk", "addr:state": "NY", "addr:postcode": " 11954", "name": "Montauk", "phone": "631.842.1044 ", "website": "https://www.soul-cycle.com/studios/ny-montauk/", "brand": "Soulcycle", "brand:wikidata": "Q17084730", "nsi_id": "soulcycle-9a38b2"}, "geometry": {"type": "Point", "coordinates": [-71.945031, 41.036112]}},
{"type": "Feature", "id": "KzQ34uxpC1b9VA6q5TlF4QNVxho=", "properties": {"ref": "Back Bay", "@spider": "soulcycle", "leisure": "fitness_centre", "sport": "cycling", "addr:full": "500 Boylston Street (on the corner of Clarendon Street and St. James Avenue)", "addr:city": "Boston", "addr:state": "MA", "addr:postcode": " 02116", "name": "Back Bay", "phone": "617.336.9999 ", "website": "https://www.soul-cycle.com/studios/ma-boston-backbay/", "brand": "Soulcycle", "brand:wikidata": "Q17084730", "nsi_id": "soulcycle-9a38b2"}, "geometry": {"type": "Point", "coordinates": [-71.07428, 42.35033]}},
{"type": "Feature", "id": "VY24ZGeVK5UOHB9mYpU13DcSTAE=", "properties": {"ref": "Rittenhouse Square ", "@spider": "soulcycle", "leisure": "fitness_centre", "sport": "cycling", "addr:full": "Vaccine Required - 113 S 16th Street 19102", "addr:city": "Philadelphia", "addr:state": "PA", "addr:postcode": " 19102", "name": "Rittenhouse Square ", "phone": "215.398.7685 ", "website": "https://www.soul-cycle.com/studios/pa-philadelphia-rittenhousesquare/", "brand": "Soulcycle", "brand:wikidata": "Q17084730", "nsi_id": "soulcycle-9a38b2"}, "geometry": {"type": "Point", "coordinates": [-75.16712, 39.95073]}},
{"type": "Feature", "id": "IMcVAE4uQjGj89LxQX4GgOGN7JA=", "properties": {"ref": "Ardmore  ", "@spider": "soulcycle", "leisure": "fitness_centre", "sport": "cycling", "addr:full": "2 Coulter Avenue", "addr:city": "Ardmore", "addr:state": "PA", "addr:postcode": " 19003", "name": "Ardmore  ", "phone": "484.434.2200 ", "website": "https://www.soul-cycle.com/studios/pa-ardmore/", "brand": "Soulcycle", "brand:wikidata": "Q17084730", "nsi_id": "soulcycle-9a38b2"}, "geometry": {"type": "Point", "coordinates": [-75.290402, 40.008722]}},
{"type": "Feature", "id": "wESTw6FdFZd_BK1w4DkpbaW0h2Q=", "properties": {"ref": "Ann Arbor ", "@spider": "soulcycle", "leisure": "fitness_centre", "sport": "cycling", "addr:full": "1107 S University Ave, Suite D", "addr:city": "Ann Arbor", "addr:state": "MI", "addr:postcode": " 48104", "name": "Ann Arbor ", "phone": "734-412-7900 ", "website": "https://www.soul-cycle.com/studios/mi-ann-arbor/", "brand": "Soulcycle", "brand:wikidata": "Q17084730", "nsi_id": "soulcycle-9a38b2"}, "geometry": {"type": "Point", "coordinates": [-83.735551, 42.275073]}},
{"type": "Feature", "id": "kObXCn9kIIFJAufoGHhFJGlBkNU=", "properties": {"ref": "Williamsburg", "@spider": "soulcycle", "leisure": "fitness_centre", "sport": "cycling", "addr:full": "196 Kent Avenue", "addr:city": "Brooklyn", "addr:state": "NY", "addr:postcode": " 11249", "name": "Williamsburg", "phone": "718.208.1300 ", "website": "https://www.soul-cycle.com/studios/ny-brooklyn-williamsburg/", "brand": "Soulcycle", "brand:wikidata": "Q17084730", "nsi_id": "soulcycle-9a38b2"}, "geometry": {"type": "Point", "coordinates": [-73.96421, 40.71796]}},
{"type": "Feature", "id": "k3EAsVm6F2QuvhBLF4E1DaaMmYY=", "properties": {"ref": "West Village ", "@spider": "soulcycle", "leisure": "fitness_centre", "sport": "cycling", "addr:full": "126 Leroy Street", "addr:city": "New York", "addr:state": "NY", "addr:postcode": " 10014", "name": "West Village ", "phone": "212.996.7685 ", "website": "https://www.soul-cycle.com/studios/ny-newyork-westvillage/", "brand": "Soulcycle", "brand:wikidata": "Q17084730", "nsi_id": "soulcycle-9a38b2"}, "geometry": {"type": "Point", "coordinates": [-74.00813, 40.73031]}},
{"type": "Feature", "id": "EmsQihccpNWWGdd_7dr5m-FNRAc=", "properties": {"ref": "West 77th Street", "@spider": "soulcycle", "leisure": "fitness_centre", "sport": "cycling", "addr:full": "350 Amsterdam Avenue", "addr:city": "New York", "addr:state": "NY", "addr:postcode": " 10023", "name": "West 77th Street", "phone": "212.787.1300 ", "website": "https://www.soul-cycle.com/studios/ny-newyork-west77th/", "brand": "Soulcycle", "brand:wikidata": "Q17084730", "nsi_id": "soulcycle-9a38b2"}, "geometry": {"type": "Point", "coordinates": [-73.97966, 40.7816]}},
{"type": "Feature", "id": "_XwNBB3kaHmZFQkzgzuwYkYBD4w=", "properties": {"ref": "TriBeCa ", "@spider": "soulcycle", "leisure": "fitness_centre", "sport": "cycling", "addr:full": "103 Warren St", "addr:city": "New York", "addr:state": "NY", "addr:postcode": " 10007", "name": "TriBeCa ", "phone": "212.406.1300 ", "website": "https://www.soul-cycle.com/studios/ny-newyork-tribeca/", "brand": "Soulcycle", "brand:wikidata": "Q17084730", "nsi_id": "soulcycle-9a38b2"}, "geometry": {"type": "Point", "coordinates": [-74.0127187, 40.7160859]}},
{"type": "Feature", "id": "zqAcGUiX3pO4CqHjwdceOZ5zlcw=", "properties": {"ref": "NoMad", "@spider": "soulcycle", "leisure": "fitness_centre", "sport": "cycling", "addr:full": "12 West 27th Street", "addr:city": "New York", "addr:state": "NY", "addr:postcode": " 10001", "name": "NoMad", "phone": "212.580.7685 ", "website": "https://www.soul-cycle.com/studios/ny-newyork-nomad/", "brand": "Soulcycle", "brand:wikidata": "Q17084730", "nsi_id": "soulcycle-9a38b2"}, "geometry": {"type": "Point", "coordinates": [-73.98931, 40.74452]}},
{"type": "Feature", "id": "tFJ4wiHu75uBQMOB-Ff-AvfZ2-s=", "properties": {"ref": "NoHo", "@spider": "soulcycle", "leisure": "fitness_centre", "sport": "cycling", "addr:full": "384 Lafayette Street", "addr:city": "New York", "addr:state": "NY", "addr:postcode": " 10003", "name": "NoHo", "phone": "212.860.1300 ", "website": "https://www.soul-cycle.com/studios/ny-newyork-noho/", "brand": "Soulcycle", "brand:wikidata": "Q17084730", "nsi_id": "soulcycle-9a38b2"}, "geometry": {"type": "Point", "coordinates": [-73.99337, 40.72761]}},
{"type": "Feature", "id": "wz9jDDRm4-SgRM0R2ghBzP2I30s=", "properties": {"ref": "Hudson Yards", "@spider": "soulcycle", "leisure": "fitness_centre", "sport": "cycling", "addr:full": "556 West 33rd St.", "addr:city": "New York", "addr:state": "NY", "addr:postcode": " 10001", "name": "Hudson Yards", "phone": "212-583-1378 ", "website": "https://www.soul-cycle.com/studios/ny-hudson-yards/", "brand": "Soulcycle", "brand:wikidata": "Q17084730", "nsi_id": "soulcycle-9a38b2"}, "geometry": {"type": "Point", "coordinates": [-74.002274, 40.754574]}},
{"type": "Feature", "id": "T5YfXXgWYeFjrpvYp8KFEtMP9Tc=", "properties": {"ref": "Financial District", "@spider": "soulcycle", "leisure": "fitness_centre", "sport": "cycling", "addr:full": "101 Maiden Lane", "addr:city": "New York", "addr:state": "NY", "addr:postcode": " 10038", "name": "Financial District", "phone": "212.501.7685 ", "website": "https://www.soul-cycle.com/studios/ny-newyork-financialdistrict/", "brand": "Soulcycle", "brand:wikidata": "Q17084730", "nsi_id": "soulcycle-9a38b2"}, "geometry": {"type": "Point", "coordinates": [-74.006812, 40.706964]}},
{"type": "Feature", "id": "PxjIxitUpFqAVShByatmqwVAzNg=", "properties": {"ref": "East 83rd Street", "@spider": "soulcycle", "leisure": "fitness_centre", "sport": "cycling", "addr:full": "1470 Third Avenue", "addr:city": "New York", "addr:state": "NY", "addr:postcode": " 10028", "name": "East 83rd Street", "phone": "212.639.1300 ", "website": "https://www.soul-cycle.com/studios/ny-newyork-east83rd/", "brand": "Soulcycle", "brand:wikidata": "Q17084730", "nsi_id": "soulcycle-9a38b2"}, "geometry": {"type": "Point", "coordinates": [-73.95562, 40.77713]}},
{"type": "Feature", "id": "gLtYtOHjdhBRxwMTR2D6lZWuoVA=", "properties": {"ref": "East 63rd Street ", "@spider": "soulcycle", "leisure": "fitness_centre", "sport": "cycling", "addr:full": "140 E 63rd Street", "addr:city": "New York", "addr:state": "NY", "addr:postcode": " 10065", "name": "East 63rd Street ", "phone": "212.996.1300 ", "website": "https://www.soul-cycle.com/studios/ny-newyork-east63rd/", "brand": "Soulcycle", "brand:wikidata": "Q17084730", "nsi_id": "soulcycle-9a38b2"}, "geometry": {"type": "Point", "coordinates": [-73.96607, 40.76454]}},
{"type": "Feature", "id": "tR9lkETB7daSJfWusuKx-KGM-Mk=", "properties": {"ref": "East 54th Street", "@spider": "soulcycle", "leisure": "fitness_centre", "sport": "cycling", "addr:full": "240 East 54th Street", "addr:city": "New York", "addr:state": "NY", "addr:postcode": " 10022", "name": "East 54th Street", "phone": "212.724.1300 ", "website": "https://www.soul-cycle.com/studios/ny-newyork-east54th/", "brand": "Soulcycle", "brand:wikidata": "Q17084730", "nsi_id": "soulcycle-9a38b2"}, "geometry": {"type": "Point", "coordinates": [-73.967459, 40.75746]}},
{"type": "Feature", "id": "hFnpdADqXVE_v6TazOk4-4DMSow=", "properties": {"ref": "Bryant Park ", "@spider": "soulcycle", "leisure": "fitness_centre", "sport": "cycling", "addr:full": "110 W 41st St", "addr:city": "New York", "addr:state": "NY", "addr:postcode": " 10018", "name": "Bryant Park ", "phone": "212.873.7685 ", "website": "https://www.soul-cycle.com/studios/ny-newyork-bryantpark/", "brand": "Soulcycle", "brand:wikidata": "Q17084730", "nsi_id": "soulcycle-9a38b2"}, "geometry": {"type": "Point", "coordinates": [-73.985734, 40.75398]}},
{"type": "Feature", "id": "gzJhNlz4MtOxaq3Wt7yXY_lW1_E=", "properties": {"ref": "Brooklyn Heights ", "@spider": "soulcycle", "leisure": "fitness_centre", "sport": "cycling", "addr:full": "55 Court St", "addr:city": "Brooklyn", "addr:state": "NY", "addr:postcode": " 11201", "name": "Brooklyn Heights ", "phone": "718.858.7685 ", "website": "https://www.soul-cycle.com/studios/ny-brooklyn-heights/", "brand": "Soulcycle", "brand:wikidata": "Q17084730", "nsi_id": "soulcycle-9a38b2"}, "geometry": {"type": "Point", "coordinates": [-73.99113, 40.69212]}},
{"type": "Feature", "id": "DL0_sP2rV6IJsl4veYfOsz4AGKI=", "properties": {"ref": "19th Street", "@spider": "soulcycle", "leisure": "fitness_centre", "sport": "cycling", "addr:full": "8 West 19th Street", "addr:city": "New York ", "addr:state": "NY", "addr:postcode": " 10011", "name": "19th Street", "phone": "212.319.5085 ", "website": "https://www.soul-cycle.com/studios/ny-newyork-19thst/", "brand": "Soulcycle", "brand:wikidata": "Q17084730", "nsi_id": "soulcycle-9a38b2"}, "geometry": {"type": "Point", "coordinates": [-73.991865, 40.739319]}},
{"type": "Feature", "id": "UxqY_YTqWkpar6Ud-r1k2lbGqJ0=", "properties": {"ref": "Georgetown", "@spider": "soulcycle", "leisure": "fitness_centre", "sport": "cycling", "addr:full": "1042 Wisconsin Avenue NW", "addr:city": "Washington", "addr:state": "DC", "addr:postcode": " 20007", "name": "Georgetown", "phone": "202.328.7685 ", "website": "https://www.soul-cycle.com/studios/washingtondc-georgetown/", "brand": "Soulcycle", "brand:wikidata": "Q17084730", "nsi_id": "soulcycle-9a38b2"}, "geometry": {"type": "Point", "coordinates": [-77.06307, 38.903669]}}]}