{"type":"FeatureCollection","features":[{"type": "Feature", "id": "a57JeLCpLfsKWJOQOnDkSrkFGFo=", "properties": {"ref": "https://stores.thesouthernco-operative.co.uk/dorset/poole/25-ringwood-road.html", "@spider": "southern_coop", "addr:street_address": "25 Ringwood Road", "addr:city": "Poole", "addr:postcode": "BH14 0RF", "addr:country": "GB", "name": "The Co-operative Food Poole Ringwood Road", "phone": "01202 681787", "website": "https://stores.thesouthernco-operative.co.uk/dorset/poole/25-ringwood-road.html", "opening_hours": "Mo-Su 06:30-22:00", "image": "https://dynl.mktgcdn.com/p/GpRlyVYuf2hHwuWtMzojdaoLMUasWhJ3LBrIQ5SMZbY/600x600.png", "brand": "Southern Co-op", "brand:wikidata": "Q7569773"}, "geometry": {"type": "Point", "coordinates": [-1.9629451632499695, 50.72955073738565]}},
{"type": "Feature", "id": "8Nk5atQQ60772mUbTCxPrZT3BmY=", "properties": {"ref": "https://stores.thesouthernco-operative.co.uk/dorset/poole/147-wimborne-road.html", "@spider": "southern_coop", "addr:street_address": "147 Wimborne Road", "addr:city": "Poole", "addr:postcode": "BH15 2BS", "addr:country": "GB", "name": "The Co-operative Food Poole Tatnam Road", "phone": "01202 667279", "website": "https://stores.thesouthernco-operative.co.uk/dorset/poole/147-wimborne-road.html", "opening_hours": "Mo-Su 07:00-22:00", "image": "https://dynl.mktgcdn.com/p/GpRlyVYuf2hHwuWtMzojdaoLMUasWhJ3LBrIQ5SMZbY/600x600.png", "brand": "Southern Co-op", "brand:wikidata": "Q7569773"}, "geometry": {"type": "Point", "coordinates": [-1.9777858257293701, 50.72494525794585]}},
{"type": "Feature", "id": "sKXZJECtl9fdUgx5hCCyzU7kaf4=", "properties": {"ref": "https://stores.thesouthernco-operative.co.uk/dorset/poole/1-1a---2-bank-chambers.html", "@spider": "southern_coop", "addr:street_address": "1/1A & 2 Bank Chambers Penn Hill Avenue", "addr:city": "Poole", "addr:postcode": "BH14 9NB", "addr:country": "GB", "name": "The Co-operative Food Parkstone Penn Hill Avenue", "phone": "01202 731970", "website": "https://stores.thesouthernco-operative.co.uk/dorset/poole/1-1a---2-bank-chambers.html", "opening_hours": "Mo-Su 07:00-22:00", "image": "https://dynl.mktgcdn.com/p/GpRlyVYuf2hHwuWtMzojdaoLMUasWhJ3LBrIQ5SMZbY/600x600.png", "brand": "Southern Co-op", "brand:wikidata": "Q7569773"}, "geometry": {"type": "Point", "coordinates": [-1.9255928, 50.7233893]}},
{"type": "Feature", "id": "2ELCvMZHncAz7oqlV44cJw8xhbU=", "properties": {"ref": "https://stores.thesouthernco-operative.co.uk/dorset/dorset/ringwood-road.html", "@spider": "southern_coop", "addr:street_address": "Ringwood Road Verwood", "addr:city": "Dorset", "addr:postcode": "BH31 7AL", "addr:country": "GB", "name": "The Co-operative Food Verwood Ringwood Road", "phone": "01202 823901", "website": "https://stores.thesouthernco-operative.co.uk/dorset/dorset/ringwood-road.html", "opening_hours": "Mo-Su 07:00-22:00", "image": "https://dynl.mktgcdn.com/p/GpRlyVYuf2hHwuWtMzojdaoLMUasWhJ3LBrIQ5SMZbY/600x600.png", "brand": "Southern Co-op", "brand:wikidata": "Q7569773"}, "geometry": {"type": "Point", "coordinates": [-1.8652713177909845, 50.87870292286651]}},
{"type": "Feature", "id": "QBWzQjgTqkfOZX-gzqQx-_KH0b0=", "properties": {"ref": "https://stores.thesouthernco-operative.co.uk/dorset/bournemouth/madeira-road.html", "@spider": "southern_coop", "addr:street_address": "Madeira Road", "addr:city": "Bournemouth", "addr:postcode": "BH1 1QQ", "addr:country": "GB", "name": "The Co-operative Food Bournemouth Madeira Road", "phone": "01202 555129", "website": "https://stores.thesouthernco-operative.co.uk/dorset/bournemouth/madeira-road.html", "opening_hours": "Mo-Su 07:00-22:00", "image": "https://dynl.mktgcdn.com/p/GpRlyVYuf2hHwuWtMzojdaoLMUasWhJ3LBrIQ5SMZbY/600x600.png", "brand": "Southern Co-op", "brand:wikidata": "Q7569773"}, "geometry": {"type": "Point", "coordinates": [-1.8674665689468384, 50.72377959661339]}},
{"type": "Feature", "id": "fstGM0-WWRP1Oick3BjNWKCtV1Y=", "properties": {"ref": "https://stores.thesouthernco-operative.co.uk/dorset/bournemouth/270-kinson-rd.html", "@spider": "southern_coop", "addr:street_address": "270 Kinson Rd", "addr:city": "Bournemouth", "addr:postcode": "BH10 5JL", "addr:country": "GB", "name": "The Co-operative Food Bournemouth East Howe Lane", "phone": "01202 579949", "website": "https://stores.thesouthernco-operative.co.uk/dorset/bournemouth/270-kinson-rd.html", "opening_hours": "Mo-Su 07:00-22:00", "image": "https://dynl.mktgcdn.com/p/GpRlyVYuf2hHwuWtMzojdaoLMUasWhJ3LBrIQ5SMZbY/600x600.png", "brand": "Southern Co-op", "brand:wikidata": "Q7569773"}, "geometry": {"type": "Point", "coordinates": [-1.900265584781664, 50.758926815270236]}},
{"type": "Feature", "id": "KqAHYbGBkSGWwEXQY5BYbtMnDFQ=", "properties": {"ref": "https://stores.thesouthernco-operative.co.uk/dorset/bournemouth/235-castle-lane.html", "@spider": "southern_coop", "addr:street_address": "235 Castle Lane", "addr:city": "Bournemouth", "addr:postcode": "BH9 3LD", "addr:country": "GB", "name": "The Co-operative Food Bournemouth Castle Lane", "phone": "01202 533538", "website": "https://stores.thesouthernco-operative.co.uk/dorset/bournemouth/235-castle-lane.html", "opening_hours": "Mo-Su 06:30-22:00", "image": "https://dynl.mktgcdn.com/p/GpRlyVYuf2hHwuWtMzojdaoLMUasWhJ3LBrIQ5SMZbY/600x600.png", "brand": "Southern Co-op", "brand:wikidata": "Q7569773"}, "geometry": {"type": "Point", "coordinates": [-1.8575979676097631, 50.75478488672804]}},
{"type": "Feature", "id": "gualD2QM-9vJ-wNTNBhT9Zib_Hk=", "properties": {"ref": "https://stores.thesouthernco-operative.co.uk/dorset/bournemouth/143-belle-vue-road.html", "@spider": "southern_coop", "addr:street_address": "143 Belle Vue Road", "addr:city": "Bournemouth", "addr:postcode": "BH6 3EN", "addr:country": "GB", "name": "The Co-operative Food Bournemouth Belle Vue Road", "phone": "01202 430338", "website": "https://stores.thesouthernco-operative.co.uk/dorset/bournemouth/143-belle-vue-road.html", "opening_hours": "Mo-Su 06:30-22:00", "image": "https://dynl.mktgcdn.com/p/GpRlyVYuf2hHwuWtMzojdaoLMUasWhJ3LBrIQ5SMZbY/600x600.png", "brand": "Southern Co-op", "brand:wikidata": "Q7569773"}, "geometry": {"type": "Point", "coordinates": [-1.7971477657556534, 50.72165705066737]}},
{"type": "Feature", "id": "4cWs8d8ENIyJDHFKHcy4VtYOdXs=", "properties": {"ref": "https://stores.thesouthernco-operative.co.uk/dorset/blandford-forum/unit-2--salisbury-road.html", "@spider": "southern_coop", "addr:street_address": "Unit 2, Salisbury Road", "addr:city": "Blandford Forum", "addr:postcode": "DT11 7QG", "addr:country": "GB", "name": "The Co-operative Food Blandford Salisbury Road", "phone": "01258 451384", "website": "https://stores.thesouthernco-operative.co.uk/dorset/blandford-forum/unit-2--salisbury-road.html", "opening_hours": "Mo-Su 07:00-22:00", "image": "https://dynl.mktgcdn.com/p/GpRlyVYuf2hHwuWtMzojdaoLMUasWhJ3LBrIQ5SMZbY/600x600.png", "brand": "Southern Co-op", "brand:wikidata": "Q7569773"}, "geometry": {"type": "Point", "coordinates": [-2.162152072578465, 50.86004897159607]}},
{"type": "Feature", "id": "2sEITkkfw9k5imfc5K-iywswz9E=", "properties": {"ref": "https://stores.thesouthernco-operative.co.uk/devon/exmouth/brixington-parade.html", "@spider": "southern_coop", "addr:street_address": "Brixington Parade", "addr:city": "Exmouth", "addr:postcode": "EX8 4JS", "addr:country": "GB", "name": "The Co-operative Food Exmouth Brixington Parade", "phone": "01395 274224", "website": "https://stores.thesouthernco-operative.co.uk/devon/exmouth/brixington-parade.html", "opening_hours": "Mo-Su 07:00-22:00", "image": "https://dynl.mktgcdn.com/p/GpRlyVYuf2hHwuWtMzojdaoLMUasWhJ3LBrIQ5SMZbY/600x600.png", "brand": "Southern Co-op", "brand:wikidata": "Q7569773"}, "geometry": {"type": "Point", "coordinates": [-3.391328752040863, 50.63666955293342]}},
{"type": "Feature", "id": "XFLCkdHT9QNcj6Vsv86s65Swcp8=", "properties": {"ref": "https://stores.thesouthernco-operative.co.uk/devon/exmouth/190b-exeter-road.html", "@spider": "southern_coop", "addr:street_address": "190b Exeter Road", "addr:city": "Exmouth", "addr:postcode": "EX8 3EA", "addr:country": "GB", "name": "The Co-operative Food Exmouth Exeter Road", "phone": "01395 275570", "website": "https://stores.thesouthernco-operative.co.uk/devon/exmouth/190b-exeter-road.html", "opening_hours": "Mo-Su 06:30-22:00", "image": "https://dynl.mktgcdn.com/p/GpRlyVYuf2hHwuWtMzojdaoLMUasWhJ3LBrIQ5SMZbY/600x600.png", "brand": "Southern Co-op", "brand:wikidata": "Q7569773"}, "geometry": {"type": "Point", "coordinates": [-3.4099037, 50.6320377]}},
{"type": "Feature", "id": "cZplIf8f5JhbJx0TES9atL5Kmr0=", "properties": {"ref": "https://stores.thesouthernco-operative.co.uk/devon/exeter/gallops-court.html", "@spider": "southern_coop", "addr:street_address": "Gallops Court 147 Younghayes Road", "addr:city": "Exeter", "addr:postcode": "EX5 7EA", "addr:country": "GB", "name": "The Co-operative Food Cranbrook Younghayes Road", "phone": "01404 514783", "website": "https://stores.thesouthernco-operative.co.uk/devon/exeter/gallops-court.html", "opening_hours": "Mo-Su 06:30-22:30", "image": "https://dynl.mktgcdn.com/p/GpRlyVYuf2hHwuWtMzojdaoLMUasWhJ3LBrIQ5SMZbY/600x600.png", "brand": "Southern Co-op", "brand:wikidata": "Q7569773"}, "geometry": {"type": "Point", "coordinates": [-3.4154927730560303, 50.74749123451545]}},
{"type": "Feature", "id": "Bpn-lD69wXD76v0KBY75TzA3qgI=", "properties": {"ref": "https://stores.thesouthernco-operative.co.uk/devon/exeter/107-alphington-road.html", "@spider": "southern_coop", "addr:street_address": "107 Alphington Road", "addr:city": "Exeter", "addr:postcode": "EX2 8JD", "addr:country": "GB", "name": "The Co-operative Food Exeter Alphington Road", "phone": "01392 459634", "website": "https://stores.thesouthernco-operative.co.uk/devon/exeter/107-alphington-road.html", "opening_hours": "Mo-Su 06:30-22:00", "image": "https://dynl.mktgcdn.com/p/GpRlyVYuf2hHwuWtMzojdaoLMUasWhJ3LBrIQ5SMZbY/600x600.png", "brand": "Southern Co-op", "brand:wikidata": "Q7569773"}, "geometry": {"type": "Point", "coordinates": [-3.537484626285732, 50.710391473564336]}},
{"type": "Feature", "id": "vPXVrDxOrUa73YiWFgs7yPr9hmk=", "properties": {"ref": "https://stores.thesouthernco-operative.co.uk/devon/exeter/103-buddle-lane.html", "@spider": "southern_coop", "addr:street_address": "103 Buddle Lane", "addr:city": "Exeter", "addr:postcode": "EX4 1QT", "addr:country": "GB", "name": "The Co-operative Food Exeter Buddle Lane", "phone": "01392 413339", "website": "https://stores.thesouthernco-operative.co.uk/devon/exeter/103-buddle-lane.html", "opening_hours": "Mo-Su 06:30-22:00", "image": "https://dynl.mktgcdn.com/p/GpRlyVYuf2hHwuWtMzojdaoLMUasWhJ3LBrIQ5SMZbY/600x600.png", "brand": "Southern Co-op", "brand:wikidata": "Q7569773"}, "geometry": {"type": "Point", "coordinates": [-3.5497531, 50.7205384]}},
{"type": "Feature", "id": "St7yPCjwyqMj1JiDQTEl5pLzmCg=", "properties": {"ref": "https://stores.thesouthernco-operative.co.uk/devon/crediton/burston-road.html", "@spider": "southern_coop", "addr:street_address": "Burston Road Bow", "addr:city": "Crediton", "addr:postcode": "EX17 6LA", "addr:country": "GB", "name": "The Co-operative Food Bow Burston Cross Road", "phone": "01363 82986", "website": "https://stores.thesouthernco-operative.co.uk/devon/crediton/burston-road.html", "opening_hours": "Mo-Su 07:00-22:00", "image": "https://dynl.mktgcdn.com/p/GpRlyVYuf2hHwuWtMzojdaoLMUasWhJ3LBrIQ5SMZbY/600x600.png", "brand": "Southern Co-op", "brand:wikidata": "Q7569773"}, "geometry": {"type": "Point", "coordinates": [-3.8261818885803223, 50.80107824383713]}},
{"type": "Feature", "id": "ldZ8w3zjDI-v2aGe2w4VvsaNpsE=", "properties": {"ref": "https://stores.thesouthernco-operative.co.uk/bristol/portishead/319-newfoundland-way.html", "@spider": "southern_coop", "addr:street_address": "319 Newfoundland Way", "addr:city": "Portishead", "addr:postcode": "BS20 7QH", "addr:country": "GB", "name": "The Co-operative Food Portishead Port Marine - please note changes to opening hours", "phone": "01275 848953", "website": "https://stores.thesouthernco-operative.co.uk/bristol/portishead/319-newfoundland-way.html", "opening_hours": "Mo-Sa 07:00-22:00; Su 08:00-22:00", "image": "https://dynl.mktgcdn.com/p/GpRlyVYuf2hHwuWtMzojdaoLMUasWhJ3LBrIQ5SMZbY/600x600.png", "brand": "Southern Co-op", "brand:wikidata": "Q7569773"}, "geometry": {"type": "Point", "coordinates": [-2.7569828134917316, 51.49100325904771]}},
{"type": "Feature", "id": "B2EHgAeJrTakSkrjBaSo0taGdKE=", "properties": {"ref": "https://stores.thesouthernco-operative.co.uk/wiltshire/salisbury/high-street.html", "@spider": "southern_coop", "addr:street_address": "High Street Shrewton", "addr:city": "Salisbury", "addr:postcode": "SP3 4BU", "addr:country": "GB", "name": "The Co-operative Food Shrewton Please note changes to opening hours", "phone": "01980 621813", "website": "https://stores.thesouthernco-operative.co.uk/wiltshire/salisbury/high-street.html", "opening_hours": "Mo-Su 07:00-22:00", "image": "https://dynl.mktgcdn.com/p/GpRlyVYuf2hHwuWtMzojdaoLMUasWhJ3LBrIQ5SMZbY/600x600.png", "brand": "Southern Co-op", "brand:wikidata": "Q7569773"}, "geometry": {"type": "Point", "coordinates": [-1.9030503730164128, 51.194394851534604]}},
{"type": "Feature", "id": "k61c3qXuet802MK9huooUSvmvek=", "properties": {"ref": "https://stores.thesouthernco-operative.co.uk/wiltshire/salisbury/10-kelsey-road.html", "@spider": "southern_coop", "addr:street_address": "10 Kelsey Road", "addr:city": "Salisbury", "addr:postcode": "SP1 1JP", "addr:country": "GB", "name": "The Co-operative Food Salisbury Kelsey Road", "phone": "01722 331367", "website": "https://stores.thesouthernco-operative.co.uk/wiltshire/salisbury/10-kelsey-road.html", "opening_hours": "Mo-Su 06:30-22:00", "image": "https://dynl.mktgcdn.com/p/GpRlyVYuf2hHwuWtMzojdaoLMUasWhJ3LBrIQ5SMZbY/600x600.png", "brand": "Southern Co-op", "brand:wikidata": "Q7569773"}, "geometry": {"type": "Point", "coordinates": [-1.7862408561632037, 51.07095148251151]}},
{"type": "Feature", "id": "F2r9t_eu2LDGFyxbP1K-b0-fl9c=", "properties": {"ref": "https://stores.thesouthernco-operative.co.uk/wiltshire/salisbury/1-crosier-close.html", "@spider": "southern_coop", "addr:street_address": "1 Crosier Close Old Sarum", "addr:city": "Salisbury", "addr:postcode": "SP4 6GX", "addr:country": "GB", "name": "The Co-operative Food Old Sarum Crosier Close", "phone": "01722 335316", "website": "https://stores.thesouthernco-operative.co.uk/wiltshire/salisbury/1-crosier-close.html", "opening_hours": "Mo-Su 06:30-22:00", "image": "https://dynl.mktgcdn.com/p/GpRlyVYuf2hHwuWtMzojdaoLMUasWhJ3LBrIQ5SMZbY/600x600.png", "brand": "Southern Co-op", "brand:wikidata": "Q7569773"}, "geometry": {"type": "Point", "coordinates": [-1.786765, 51.10101]}},
{"type": "Feature", "id": "e4K2b6YPyq8zEeiCKZ-PW0t38ec=", "properties": {"ref": "https://stores.thesouthernco-operative.co.uk/wiltshire/mere/queen-victoria-memorial-hall.html", "@spider": "southern_coop", "addr:street_address": "Queen Victoria Memorial Hall The Square", "addr:city": "Mere", "addr:postcode": "BA12 6DJ", "addr:country": "GB", "name": "The Co-operative Food Mere The Square", "phone": "01747 861203", "website": "https://stores.thesouthernco-operative.co.uk/wiltshire/mere/queen-victoria-memorial-hall.html", "opening_hours": "Mo-Su 07:00-22:00", "image": "https://dynl.mktgcdn.com/p/GpRlyVYuf2hHwuWtMzojdaoLMUasWhJ3LBrIQ5SMZbY/600x600.png", "brand": "Southern Co-op", "brand:wikidata": "Q7569773"}, "geometry": {"type": "Point", "coordinates": [-2.268899381160736, 51.09006743850738]}},
{"type": "Feature", "id": "TQmInmyMviX8uqxaRxz8yhFeKxY=", "properties": {"ref": "https://stores.thesouthernco-operative.co.uk/wiltshire/corsham/macie-drive.html", "@spider": "southern_coop", "addr:street_address": "Macie Drive Katherine Park", "addr:city": "Corsham", "addr:postcode": "SN13 9EJ", "addr:country": "GB", "name": "The Co-operative Food Corsham Macey Drive", "phone": "01225 819945", "website": "https://stores.thesouthernco-operative.co.uk/wiltshire/corsham/macie-drive.html", "opening_hours": "Mo-Su 07:00-22:00", "image": "https://dynl.mktgcdn.com/p/GpRlyVYuf2hHwuWtMzojdaoLMUasWhJ3LBrIQ5SMZbY/600x600.png", "brand": "Southern Co-op", "brand:wikidata": "Q7569773"}, "geometry": {"type": "Point", "coordinates": [-2.2003555297851562, 51.42855778639975]}},
{"type": "Feature", "id": "VyKnqsnBHMYzONep5NtZcPv0WZY=", "properties": {"ref": "https://stores.thesouthernco-operative.co.uk/wiltshire/bradford-on-avon/223-winsley-road.html", "@spider": "southern_coop", "addr:street_address": "223 Winsley Road", "addr:city": "Bradford-on-Avon", "addr:postcode": "BA15 1QT", "addr:country": "GB", "name": "The Co-operative Food Bradford On Avon Please note changes to opening hours", "phone": "01225 867182", "website": "https://stores.thesouthernco-operative.co.uk/wiltshire/bradford-on-avon/223-winsley-road.html", "opening_hours": "Mo-Su 06:00-22:00", "image": "https://dynl.mktgcdn.com/p/GpRlyVYuf2hHwuWtMzojdaoLMUasWhJ3LBrIQ5SMZbY/600x600.png", "brand": "Southern Co-op", "brand:wikidata": "Q7569773"}, "geometry": {"type": "Point", "coordinates": [-2.25532, 51.35051]}},
{"type": "Feature", "id": "I4F66c30TryNIBQqH3zIHbsuoh8=", "properties": {"ref": "https://stores.thesouthernco-operative.co.uk/west-sussex/rustington/station-parade.html", "@spider": "southern_coop", "addr:street_address": "Station Parade East Preston", "addr:city": "Rustington", "addr:postcode": "BN16 3AE", "addr:country": "GB", "name": "The Co-operative Food East Preston Rustington", "phone": "01903 772051", "website": "https://stores.thesouthernco-operative.co.uk/west-sussex/rustington/station-parade.html", "opening_hours": "Mo-Su 06:30-22:00", "image": "https://dynl.mktgcdn.com/p/GpRlyVYuf2hHwuWtMzojdaoLMUasWhJ3LBrIQ5SMZbY/600x600.png", "brand": "Southern Co-op", "brand:wikidata": "Q7569773"}, "geometry": {"type": "Point", "coordinates": [-0.4901444, 50.8158722]}},
{"type": "Feature", "id": "vBbrXo9Utt-VeLsam262-poWCzY=", "properties": {"ref": "https://stores.thesouthernco-operative.co.uk/west-sussex/horsham/unit-5--wickhurst-square-sargent-way.html", "@spider": "southern_coop", "addr:street_address": "Unit 5, Wickhurst Square Sargent Way", "addr:city": "Horsham", "addr:postcode": "RH12 3XS", "addr:country": "GB", "name": "The Co-operative Food Broadbridge Heath Wickhurst Square", "phone": "01403 243335", "website": "https://stores.thesouthernco-operative.co.uk/west-sussex/horsham/unit-5--wickhurst-square-sargent-way.html", "opening_hours": "Mo-Su 07:00-22:00", "image": "https://dynl.mktgcdn.com/p/GpRlyVYuf2hHwuWtMzojdaoLMUasWhJ3LBrIQ5SMZbY/600x600.png", "brand": "Southern Co-op", "brand:wikidata": "Q7569773"}, "geometry": {"type": "Point", "coordinates": [-0.36368655087949264, 51.06657156120051]}},
{"type": "Feature", "id": "xKYcs1lgwmv4XV0vCRZ02NJmiZM=", "properties": {"ref": "https://stores.thesouthernco-operative.co.uk/west-sussex/horsham/unit-1-tanfeld-centre.html", "@spider": "southern_coop", "addr:street_address": "Unit 1 Tanfeld Centre Guildford Road", "addr:city": "Horsham", "addr:postcode": "RH12 1TR", "addr:country": "GB", "name": "The Co-operative Food Horsham Guildford Road", "phone": "01403 262751", "website": "https://stores.thesouthernco-operative.co.uk/west-sussex/horsham/unit-1-tanfeld-centre.html", "opening_hours": "Mo-Su 07:00-22:00", "image": "https://dynl.mktgcdn.com/p/GpRlyVYuf2hHwuWtMzojdaoLMUasWhJ3LBrIQ5SMZbY/600x600.png", "brand": "Southern Co-op", "brand:wikidata": "Q7569773"}, "geometry": {"type": "Point", "coordinates": [-0.33773571252822876, 51.06472528786555]}},
{"type": "Feature", "id": "g7A8852FbCPVvP_tMl1KT5s1tJ0=", "properties": {"ref": "https://stores.thesouthernco-operative.co.uk/west-sussex/haywards-heath/104-franklynn-road.html", "@spider": "southern_coop", "addr:street_address": "104 Franklynn Road", "addr:city": "Haywards Heath", "addr:postcode": "RH16 4DN", "addr:country": "GB", "name": "The Co-operative Food Haywards Heath Franklynn Road", "phone": "01444 413502", "website": "https://stores.thesouthernco-operative.co.uk/west-sussex/haywards-heath/104-franklynn-road.html", "opening_hours": "Mo-Su 06:00-22:30", "image": "https://dynl.mktgcdn.com/p/GpRlyVYuf2hHwuWtMzojdaoLMUasWhJ3LBrIQ5SMZbY/600x600.png", "brand": "Southern Co-op", "brand:wikidata": "Q7569773"}, "geometry": {"type": "Point", "coordinates": [-0.09597212076187134, 50.99340691997241]}},
{"type": "Feature", "id": "gAyi2Sb6E0km_3OpSBCS6OpDlrg=", "properties": {"ref": "https://stores.thesouthernco-operative.co.uk/west-sussex/ferring/74---78-ferring-street.html", "@spider": "southern_coop", "addr:street_address": "74 - 78 Ferring Street", "addr:city": "Ferring", "addr:postcode": "BN12 5JP", "addr:country": "GB", "name": "The Co-operative Food Ferring Ferring Street", "phone": "01903 245100", "website": "https://stores.thesouthernco-operative.co.uk/west-sussex/ferring/74---78-ferring-street.html", "opening_hours": "Mo-Su 07:00-22:00", "image": "https://dynl.mktgcdn.com/p/GpRlyVYuf2hHwuWtMzojdaoLMUasWhJ3LBrIQ5SMZbY/600x600.png", "brand": "Southern Co-op", "brand:wikidata": "Q7569773"}, "geometry": {"type": "Point", "coordinates": [-0.4468560218811035, 50.815347915965695]}},
{"type": "Feature", "id": "n5wj7DKC2Ti8wa0mRMfu1UgA3F8=", "properties": {"ref": "https://stores.thesouthernco-operative.co.uk/west-sussex/east-wittering/the-parade.html", "@spider": "southern_coop", "addr:street_address": "The Parade Cakeham Road", "addr:city": "East Wittering", "addr:postcode": "PO20 8BL", "addr:country": "GB", "name": "The Co-operative Food East Wittering Cakeham Road", "phone": "01243 673423", "website": "https://stores.thesouthernco-operative.co.uk/west-sussex/east-wittering/the-parade.html", "opening_hours": "Mo-Sa 07:00-22:00; Su 10:00-16:00", "image": "https://dynl.mktgcdn.com/p/GpRlyVYuf2hHwuWtMzojdaoLMUasWhJ3LBrIQ5SMZbY/600x600.png", "brand": "Southern Co-op", "brand:wikidata": "Q7569773"}, "geometry": {"type": "Point", "coordinates": [-0.8730080723762512, 50.76936224393406]}},
{"type": "Feature", "id": "2-oEqZgvvG10zsrJv0SH66OVVfk=", "properties": {"ref": "https://stores.thesouthernco-operative.co.uk/west-sussex/chichester/unit-51-54-bognor-road.html", "@spider": "southern_coop", "addr:street_address": "Unit 51/54 Bognor Road", "addr:city": "Chichester", "addr:postcode": "PO19 7TG", "addr:country": "GB", "name": "The Co-operative Food Chichester Bognor Road", "phone": "01243 527097", "website": "https://stores.thesouthernco-operative.co.uk/west-sussex/chichester/unit-51-54-bognor-road.html", "opening_hours": "Mo-Su 06:00-22:00", "image": "https://dynl.mktgcdn.com/p/GpRlyVYuf2hHwuWtMzojdaoLMUasWhJ3LBrIQ5SMZbY/600x600.png", "brand": "Southern Co-op", "brand:wikidata": "Q7569773"}, "geometry": {"type": "Point", "coordinates": [-0.7614894910602743, 50.833656126506256]}},
{"type": "Feature", "id": "S0Ye9GsjbxJ84ZjZussjkcl36Lo=", "properties": {"ref": "https://stores.thesouthernco-operative.co.uk/west-sussex/chichester/unit-2--summersdale-retail-park.html", "@spider": "southern_coop", "addr:street_address": "Unit 2, Summersdale Retail Park Lavant Road", "addr:city": "Chichester", "addr:postcode": "PO19 5RD", "addr:country": "GB", "name": "The Co-operative Food Chichester Lavant Road High Street", "phone": "01243 539914", "website": "https://stores.thesouthernco-operative.co.uk/west-sussex/chichester/unit-2--summersdale-retail-park.html", "opening_hours": "Mo-Su 06:00-22:00", "image": "https://dynl.mktgcdn.com/p/Ouz8Zai18BuoK3QtrHdRKeWmc4zJD1lUyBX8jTMCy70/500x500.png", "brand": "Southern Co-op", "brand:wikidata": "Q7569773"}, "geometry": {"type": "Point", "coordinates": [-0.7841449570694294, 50.85922309108994]}},
{"type": "Feature", "id": "3pVarBoD3MNzZRfeb-9vmtMuUXg=", "properties": {"ref": "https://stores.thesouthernco-operative.co.uk/west-sussex/chichester/stockbridge-road.html", "@spider": "southern_coop", "addr:street_address": "Stockbridge Road", "addr:city": "Chichester", "addr:postcode": "PO19 8QR", "addr:country": "GB", "name": "The Co-operative Food Chichester Stockbridge Road", "phone": "01243 776401", "website": "https://stores.thesouthernco-operative.co.uk/west-sussex/chichester/stockbridge-road.html", "opening_hours": "Mo-Su 06:30-22:00", "image": "https://dynl.mktgcdn.com/p/GpRlyVYuf2hHwuWtMzojdaoLMUasWhJ3LBrIQ5SMZbY/600x600.png", "brand": "Southern Co-op", "brand:wikidata": "Q7569773"}, "geometry": {"type": "Point", "coordinates": [-0.7876145839691162, 50.82419837961409]}},
{"type": "Feature", "id": "ZIpM7zTwGp8zsYSoogdLOitWawc=", "properties": {"ref": "https://stores.thesouthernco-operative.co.uk/west-sussex/chichester/spitalifield-lane.html", "@spider": "southern_coop", "addr:street_address": "Spitalifield Lane", "addr:city": "Chichester", "addr:postcode": "PO19 6SB", "addr:country": "GB", "name": "The Co-operative Food Chichester Spitalfield Lane", "phone": "01243 790431", "website": "https://stores.thesouthernco-operative.co.uk/west-sussex/chichester/spitalifield-lane.html", "opening_hours": "Mo-Su 06:00-22:00", "image": "https://dynl.mktgcdn.com/p/GpRlyVYuf2hHwuWtMzojdaoLMUasWhJ3LBrIQ5SMZbY/600x600.png", "brand": "Southern Co-op", "brand:wikidata": "Q7569773"}, "geometry": {"type": "Point", "coordinates": [-0.7741065, 50.8410111]}},
{"type": "Feature", "id": "se_vB9CarCAx_Ge46vCid-jqJjk=", "properties": {"ref": "https://stores.thesouthernco-operative.co.uk/west-sussex/chichester/oliver-whitby-road.html", "@spider": "southern_coop", "addr:street_address": "Oliver Whitby Road", "addr:city": "Chichester", "addr:postcode": "PO19 3LB", "addr:country": "GB", "name": "The Co-operative Food Chichester Oliver Whitby Road", "phone": "01243 784922", "website": "https://stores.thesouthernco-operative.co.uk/west-sussex/chichester/oliver-whitby-road.html", "opening_hours": "Mo-Su 07:00-22:00", "image": "https://dynl.mktgcdn.com/p/GpRlyVYuf2hHwuWtMzojdaoLMUasWhJ3LBrIQ5SMZbY/600x600.png", "brand": "Southern Co-op", "brand:wikidata": "Q7569773"}, "geometry": {"type": "Point", "coordinates": [-0.790615975856781, 50.84205009630229]}},
{"type": "Feature", "id": "UxZpYK7TjVuJn5ZsTrd2TKWF8fc=", "properties": {"ref": "https://stores.thesouthernco-operative.co.uk/west-sussex/chichester/delling-lane.html", "@spider": "southern_coop", "addr:street_address": "Delling Lane Bosham", "addr:city": "Chichester", "addr:postcode": "PO18 8NN", "addr:country": "GB", "name": "The Co-operative Food Bosham Delling Lane", "phone": "01243 572253", "website": "https://stores.thesouthernco-operative.co.uk/west-sussex/chichester/delling-lane.html", "opening_hours": "Mo-Su 07:00-22:00", "image": "https://dynl.mktgcdn.com/p/GpRlyVYuf2hHwuWtMzojdaoLMUasWhJ3LBrIQ5SMZbY/600x600.png", "brand": "Southern Co-op", "brand:wikidata": "Q7569773"}, "geometry": {"type": "Point", "coordinates": [-0.8510377, 50.8396279]}},
{"type": "Feature", "id": "UUo6aeGaSDSiule_VbVdaGofWOo=", "properties": {"ref": "https://stores.thesouthernco-operative.co.uk/west-sussex/chichester/123---125-high-street.html", "@spider": "southern_coop", "addr:street_address": "123 - 125 High Street Selsey", "addr:city": "Chichester", "addr:postcode": "PO20 0QB", "addr:country": "GB", "name": "The Co-operative Food Selsey High Street", "phone": "01243 602110", "website": "https://stores.thesouthernco-operative.co.uk/west-sussex/chichester/123---125-high-street.html", "opening_hours": "Mo-Su 07:00-22:00", "image": "https://dynl.mktgcdn.com/p/GpRlyVYuf2hHwuWtMzojdaoLMUasWhJ3LBrIQ5SMZbY/600x600.png", "brand": "Southern Co-op", "brand:wikidata": "Q7569773"}, "geometry": {"type": "Point", "coordinates": [-0.7915809005498886, 50.73189617438474]}},
{"type": "Feature", "id": "5i4HZsudR--IbMzs6gBdJLEWtjo=", "properties": {"ref": "https://stores.thesouthernco-operative.co.uk/west-sussex/burgess-hill/86-junction-road.html", "@spider": "southern_coop", "addr:street_address": "86 Junction Road", "addr:city": "Burgess Hill", "addr:postcode": "RH15 0JP", "addr:country": "GB", "name": "The Co-operative Food Burgess Hill Junction Road", "phone": "01444 242158", "website": "https://stores.thesouthernco-operative.co.uk/west-sussex/burgess-hill/86-junction-road.html", "opening_hours": "Mo-Su 07:00-22:00", "image": "https://dynl.mktgcdn.com/p/GpRlyVYuf2hHwuWtMzojdaoLMUasWhJ3LBrIQ5SMZbY/600x600.png", "brand": "Southern Co-op", "brand:wikidata": "Q7569773"}, "geometry": {"type": "Point", "coordinates": [-0.12319042363742483, 50.95849759939415]}},
{"type": "Feature", "id": "1CCOna0IDt6CBxKBbX-7iWgjCHM=", "properties": {"ref": "https://stores.thesouthernco-operative.co.uk/west-sussex/burgess-hill/200-london-road.html", "@spider": "southern_coop", "addr:street_address": "200 London Road", "addr:city": "Burgess Hill", "addr:postcode": "RH15 9RD", "addr:country": "GB", "name": "The Co-operative Food Burgess Hill London Road", "phone": "01444 870915", "website": "https://stores.thesouthernco-operative.co.uk/west-sussex/burgess-hill/200-london-road.html", "opening_hours": "Mo-Su 06:30-22:00", "image": "https://dynl.mktgcdn.com/p/GpRlyVYuf2hHwuWtMzojdaoLMUasWhJ3LBrIQ5SMZbY/600x600.png", "brand": "Southern Co-op", "brand:wikidata": "Q7569773"}, "geometry": {"type": "Point", "coordinates": [-0.1382216, 50.9562173]}},
{"type": "Feature", "id": "5dgs0TW1l9qsdW3sAHJc_Hg5O8M=", "properties": {"ref": "https://stores.thesouthernco-operative.co.uk/west-sussex/bosham/4-station-road.html", "@spider": "southern_coop", "addr:street_address": "4 Station Road", "addr:city": "Bosham", "addr:postcode": "PO18 8NG", "addr:country": "GB", "name": "The Co-operative Food Bosham Station Road", "phone": "01243 572155", "website": "https://stores.thesouthernco-operative.co.uk/west-sussex/bosham/4-station-road.html", "opening_hours": "Mo-Su 07:00-22:00", "image": "https://dynl.mktgcdn.com/p/GpRlyVYuf2hHwuWtMzojdaoLMUasWhJ3LBrIQ5SMZbY/600x600.png", "brand": "Southern Co-op", "brand:wikidata": "Q7569773"}, "geometry": {"type": "Point", "coordinates": [-0.8477684855461121, 50.84180958903951]}},
{"type": "Feature", "id": "NpjaKTDd1nwh1PU4ryEIxiQzCeI=", "properties": {"ref": "https://stores.thesouthernco-operative.co.uk/west-sussex/bognor-regis/68-rose-green-road.html", "@spider": "southern_coop", "addr:street_address": "68 Rose Green Road", "addr:city": "Bognor Regis", "addr:postcode": "PO21 3EQ", "addr:country": "GB", "name": "The Co-operative Food Bognor Regis Rose Green Road", "phone": "01243 265947", "website": "https://stores.thesouthernco-operative.co.uk/west-sussex/bognor-regis/68-rose-green-road.html", "opening_hours": "Mo-Su 07:00-22:00", "image": "https://dynl.mktgcdn.com/p/GpRlyVYuf2hHwuWtMzojdaoLMUasWhJ3LBrIQ5SMZbY/600x600.png", "brand": "Southern Co-op", "brand:wikidata": "Q7569773"}, "geometry": {"type": "Point", "coordinates": [-0.7193443179130554, 50.78659394376682]}},
{"type": "Feature", "id": "IOpTRZshZ1gqxu2yebVYkuFMxIg=", "properties": {"ref": "https://stores.thesouthernco-operative.co.uk/west-sussex/bognor-regis/152---156-hawthorn-rd.html", "@spider": "southern_coop", "addr:street_address": "152 - 156 Hawthorn Rd", "addr:city": "Bognor Regis", "addr:postcode": "PO21 2UR", "addr:country": "GB", "name": "The Co-operative Food Bognor Regis Hawthorn Rd", "phone": "01243 838374", "website": "https://stores.thesouthernco-operative.co.uk/west-sussex/bognor-regis/152---156-hawthorn-rd.html", "opening_hours": "Mo-Su 06:30-22:00", "image": "https://dynl.mktgcdn.com/p/GpRlyVYuf2hHwuWtMzojdaoLMUasWhJ3LBrIQ5SMZbY/600x600.png", "brand": "Southern Co-op", "brand:wikidata": "Q7569773"}, "geometry": {"type": "Point", "coordinates": [-0.686134546995163, 50.7897665300836]}},
{"type": "Feature", "id": "rw8X568V_YNQJkYdUQSMpv9t2hA=", "properties": {"ref": "https://stores.thesouthernco-operative.co.uk/west-sussex/arundel/main-road.html", "@spider": "southern_coop", "addr:street_address": "Main Road", "addr:city": "Arundel", "addr:postcode": "BN18 0EY", "addr:country": "GB", "name": "The Co-operative Food Yapton Main Road", "phone": "01243 554286", "website": "https://stores.thesouthernco-operative.co.uk/west-sussex/arundel/main-road.html", "opening_hours": "Mo-Su 07:00-22:00", "image": "https://dynl.mktgcdn.com/p/GpRlyVYuf2hHwuWtMzojdaoLMUasWhJ3LBrIQ5SMZbY/600x600.png", "brand": "Southern Co-op", "brand:wikidata": "Q7569773"}, "geometry": {"type": "Point", "coordinates": [-0.6101864576339722, 50.81936412975958]}},
{"type": "Feature", "id": "BJxn3DeQMMluuEb1tW_LjVzCzjA=", "properties": {"ref": "https://stores.thesouthernco-operative.co.uk/west-sussex/angmering/the-square.html", "@spider": "southern_coop", "addr:street_address": "The Square", "addr:city": "Angmering", "addr:postcode": "BN16 4EA", "addr:country": "GB", "name": "The Co-operative Food Angmering The Square", "phone": "01903 783665", "website": "https://stores.thesouthernco-operative.co.uk/west-sussex/angmering/the-square.html", "opening_hours": "Mo-Su 07:00-22:00", "image": "https://dynl.mktgcdn.com/p/GpRlyVYuf2hHwuWtMzojdaoLMUasWhJ3LBrIQ5SMZbY/600x600.png", "brand": "Southern Co-op", "brand:wikidata": "Q7569773"}, "geometry": {"type": "Point", "coordinates": [-0.4839228093624115, 50.828802566850555]}},
{"type": "Feature", "id": "BiFdKiqpv15-Dh0iy4RZu5Ytrvw=", "properties": {"ref": "https://stores.thesouthernco-operative.co.uk/surrey/west-ewell/138-ruxley-lane.html", "@spider": "southern_coop", "addr:street_address": "138 Ruxley Lane", "addr:city": "West Ewell", "addr:postcode": "KT19 9JS", "addr:country": "GB", "name": "The Co-operative Food West Ewell Ruxley Lane", "phone": "020 8397 4528", "website": "https://stores.thesouthernco-operative.co.uk/surrey/west-ewell/138-ruxley-lane.html", "opening_hours": "Mo-Su 07:00-22:00", "image": "https://dynl.mktgcdn.com/p/GpRlyVYuf2hHwuWtMzojdaoLMUasWhJ3LBrIQ5SMZbY/600x600.png", "brand": "Southern Co-op", "brand:wikidata": "Q7569773"}, "geometry": {"type": "Point", "coordinates": [-0.27459047734737396, 51.36391082068254]}},
{"type": "Feature", "id": "EcP_DheehTUcW3Eh-ht-QB1PJ8I=", "properties": {"ref": "https://stores.thesouthernco-operative.co.uk/surrey/staines/194a-laleham-road.html", "@spider": "southern_coop", "addr:street_address": "194a Laleham Road", "addr:city": "Staines", "addr:postcode": "TW18 2PA", "addr:country": "GB", "name": "The Co-operative Food Staines Laleham Road", "phone": "01784 455305", "website": "https://stores.thesouthernco-operative.co.uk/surrey/staines/194a-laleham-road.html", "opening_hours": "Mo-Su 07:00-22:00", "image": "https://dynl.mktgcdn.com/p/GpRlyVYuf2hHwuWtMzojdaoLMUasWhJ3LBrIQ5SMZbY/600x600.png", "brand": "Southern Co-op", "brand:wikidata": "Q7569773"}, "geometry": {"type": "Point", "coordinates": [-0.49965698710070683, 51.420739657512584]}},
{"type": "Feature", "id": "aFcisCCsGrD1JFdN5zNVFoC0t-Q=", "properties": {"ref": "https://stores.thesouthernco-operative.co.uk/surrey/reigate/trinity-house.html", "@spider": "southern_coop", "addr:street_address": "Trinity House 51 London Road", "addr:city": "Reigate", "addr:postcode": "RH2 9PR", "addr:country": "GB", "name": "The Co-operative Food Reigate London Road", "phone": "01737 226720", "website": "https://stores.thesouthernco-operative.co.uk/surrey/reigate/trinity-house.html", "opening_hours": "Mo-Su 07:00-22:00", "image": "https://dynl.mktgcdn.com/p/GpRlyVYuf2hHwuWtMzojdaoLMUasWhJ3LBrIQ5SMZbY/600x600.png", "brand": "Southern Co-op", "brand:wikidata": "Q7569773"}, "geometry": {"type": "Point", "coordinates": [-0.20532502809146536, 51.242387214017434]}},
{"type": "Feature", "id": "IkjGcl0B6YzNZryLR-Lfm5O83XM=", "properties": {"ref": "https://stores.thesouthernco-operative.co.uk/surrey/oxted/21---23-station-road.html", "@spider": "southern_coop", "addr:street_address": "21 - 23 Station Road", "addr:city": "Oxted", "addr:postcode": "RH8 0BD", "addr:country": "GB", "name": "The Co-operative Food Oxted Station Road", "phone": "01883 722974", "website": "https://stores.thesouthernco-operative.co.uk/surrey/oxted/21---23-station-road.html", "opening_hours": "Mo-Su 07:00-22:00", "image": "https://dynl.mktgcdn.com/p/GpRlyVYuf2hHwuWtMzojdaoLMUasWhJ3LBrIQ5SMZbY/600x600.png", "brand": "Southern Co-op", "brand:wikidata": "Q7569773"}, "geometry": {"type": "Point", "coordinates": [-0.0013055595245532459, 51.257016070783656]}},
{"type": "Feature", "id": "6D9Jz0mqhLtAQCfhx_t-TBclcXo=", "properties": {"ref": "https://stores.thesouthernco-operative.co.uk/surrey/farnham/unit-1-grovebell-estate.html", "@spider": "southern_coop", "addr:street_address": "Unit 1 Grovebell Estate Wrecclesham", "addr:city": "Farnham", "addr:postcode": "GU10 4PL", "addr:country": "GB", "name": "The Co-operative Food Wrecclesham Wrecclesham Road", "phone": "01252 714192", "website": "https://stores.thesouthernco-operative.co.uk/surrey/farnham/unit-1-grovebell-estate.html", "opening_hours": "Mo-Su 06:00-22:30", "image": "https://dynl.mktgcdn.com/p/GpRlyVYuf2hHwuWtMzojdaoLMUasWhJ3LBrIQ5SMZbY/600x600.png", "brand": "Southern Co-op", "brand:wikidata": "Q7569773"}, "geometry": {"type": "Point", "coordinates": [-0.8175366371870041, 51.20136032643143]}},
{"type": "Feature", "id": "echbTiiRUY9eE3I3061w1X41IG0=", "properties": {"ref": "https://stores.thesouthernco-operative.co.uk/surrey/farnham/47---51-farnborough-road.html", "@spider": "southern_coop", "addr:street_address": "47 - 51 Farnborough Road", "addr:city": "Farnham", "addr:postcode": "GU9 9AJ", "addr:country": "GB", "name": "The Co-operative Food Farnham Farnborough Road", "phone": "01252 712394", "website": "https://stores.thesouthernco-operative.co.uk/surrey/farnham/47---51-farnborough-road.html", "opening_hours": "Mo-Su 07:00-22:00", "image": "https://dynl.mktgcdn.com/p/GpRlyVYuf2hHwuWtMzojdaoLMUasWhJ3LBrIQ5SMZbY/600x600.png", "brand": "Southern Co-op", "brand:wikidata": "Q7569773"}, "geometry": {"type": "Point", "coordinates": [-0.7853404, 51.2346183]}},
{"type": "Feature", "id": "yJFjZip8dyauuT_orK8QkXIRJ7M=", "properties": {"ref": "https://stores.thesouthernco-operative.co.uk/surrey/farnham/4-the-square.html", "@spider": "southern_coop", "addr:street_address": "4 The Square Rowledge", "addr:city": "Farnham", "addr:postcode": "GU10 4AA", "addr:country": "GB", "name": "The Co-operative Food Rowledge The Square", "phone": "01252 794536", "website": "https://stores.thesouthernco-operative.co.uk/surrey/farnham/4-the-square.html", "opening_hours": "Mo-Sa 07:00-22:00; Su 08:00-21:00", "image": "https://dynl.mktgcdn.com/p/GpRlyVYuf2hHwuWtMzojdaoLMUasWhJ3LBrIQ5SMZbY/600x600.png", "brand": "Southern Co-op", "brand:wikidata": "Q7569773"}, "geometry": {"type": "Point", "coordinates": [-0.823406, 51.183135]}},
{"type": "Feature", "id": "DhMZHhtPgzZB_fH996E2Y7ulhes=", "properties": {"ref": "https://stores.thesouthernco-operative.co.uk/surrey/chobham/2-bagshot-road.html", "@spider": "southern_coop", "addr:street_address": "2 Bagshot Road", "addr:city": "Chobham", "addr:postcode": "GU24 8BZ", "addr:country": "GB", "name": "The Co-operative Food Chobham Bagshot Road", "phone": "01276 855298", "website": "https://stores.thesouthernco-operative.co.uk/surrey/chobham/2-bagshot-road.html", "opening_hours": "Mo-Su 07:00-22:00", "image": "https://dynl.mktgcdn.com/p/GpRlyVYuf2hHwuWtMzojdaoLMUasWhJ3LBrIQ5SMZbY/600x600.png", "brand": "Southern Co-op", "brand:wikidata": "Q7569773"}, "geometry": {"type": "Point", "coordinates": [-0.6043419241905212, 51.34797918430005]}},
{"type": "Feature", "id": "L3s02gl6n93oxZmFQC23dIj7h8s=", "properties": {"ref": "https://stores.thesouthernco-operative.co.uk/surrey/chertsey/1-fordwater-road.html", "@spider": "southern_coop", "addr:street_address": "1 Fordwater Road", "addr:city": "Chertsey", "addr:postcode": "KT16 8HW", "addr:country": "GB", "name": "The Co-operative Food Chertsey Fordwater Road", "phone": "01932 567961", "website": "https://stores.thesouthernco-operative.co.uk/surrey/chertsey/1-fordwater-road.html", "opening_hours": "Mo-Su 07:00-22:00", "image": "https://dynl.mktgcdn.com/p/GpRlyVYuf2hHwuWtMzojdaoLMUasWhJ3LBrIQ5SMZbY/600x600.png", "brand": "Southern Co-op", "brand:wikidata": "Q7569773"}, "geometry": {"type": "Point", "coordinates": [-0.49472272396087646, 51.387964014111084]}},
{"type": "Feature", "id": "rDPYIwIskSK2x3038aqxdv4P7VY=", "properties": {"ref": "https://stores.thesouthernco-operative.co.uk/surrey/camberley/19-frimley-road.html", "@spider": "southern_coop", "addr:street_address": "19 Frimley Road", "addr:city": "Camberley", "addr:postcode": "GU15 3EN", "addr:country": "GB", "name": "The Co-operative Food Camberley Frimley Road", "phone": "01276 469785", "website": "https://stores.thesouthernco-operative.co.uk/surrey/camberley/19-frimley-road.html", "opening_hours": "Mo-Su 06:30-22:00", "image": "https://dynl.mktgcdn.com/p/GpRlyVYuf2hHwuWtMzojdaoLMUasWhJ3LBrIQ5SMZbY/600x600.png", "brand": "Southern Co-op", "brand:wikidata": "Q7569773"}, "geometry": {"type": "Point", "coordinates": [-0.7599135, 51.3350757]}},
{"type": "Feature", "id": "y7X5uUCCW9NV3PyX7fNdtmc36LM=", "properties": {"ref": "https://stores.thesouthernco-operative.co.uk/surrey/banstead/1-nork-way.html", "@spider": "southern_coop", "addr:street_address": "1 Nork Way", "addr:city": "Banstead", "addr:postcode": "SM7 1PB", "addr:country": "GB", "name": "The Co-operative Food Banstead Nork Way", "phone": "01737 354631", "website": "https://stores.thesouthernco-operative.co.uk/surrey/banstead/1-nork-way.html", "opening_hours": "Mo-Su 06:30-22:00", "image": "https://dynl.mktgcdn.com/p/GpRlyVYuf2hHwuWtMzojdaoLMUasWhJ3LBrIQ5SMZbY/600x600.png", "brand": "Southern Co-op", "brand:wikidata": "Q7569773"}, "geometry": {"type": "Point", "coordinates": [-0.2152767777442932, 51.32823848366926]}},
{"type": "Feature", "id": "mQGwTHP35wSby8bkgKjF1mCQcK0=", "properties": {"ref": "https://stores.thesouthernco-operative.co.uk/surrey/addlestone/unit-1--210-new-haw-road.html", "@spider": "southern_coop", "addr:street_address": "Unit 1, 210 New Haw Road", "addr:city": "Addlestone", "addr:postcode": "KT15 2DS", "addr:country": "GB", "name": "The Co-operative Food Addlestone New Haw Road", "phone": "01932 847239", "website": "https://stores.thesouthernco-operative.co.uk/surrey/addlestone/unit-1--210-new-haw-road.html", "opening_hours": "Mo-Su 07:00-22:00", "image": "https://dynl.mktgcdn.com/p/GpRlyVYuf2hHwuWtMzojdaoLMUasWhJ3LBrIQ5SMZbY/600x600.png", "brand": "Southern Co-op", "brand:wikidata": "Q7569773"}, "geometry": {"type": "Point", "coordinates": [-0.4869511, 51.3578869]}},
{"type": "Feature", "id": "b9vuKCOQM1BjxwKO3D-gDEN3HUM=", "properties": {"ref": "https://stores.thesouthernco-operative.co.uk/surrey/addlestone/100---106-church-road.html", "@spider": "southern_coop", "addr:street_address": "100 - 106 Church Road", "addr:city": "Addlestone", "addr:postcode": "KT15 1SG", "addr:country": "GB", "name": "The Co-operative Food Addlestone Church Road", "phone": "01932 850804", "website": "https://stores.thesouthernco-operative.co.uk/surrey/addlestone/100---106-church-road.html", "opening_hours": "Mo-Su 07:00-22:00", "image": "https://dynl.mktgcdn.com/p/GpRlyVYuf2hHwuWtMzojdaoLMUasWhJ3LBrIQ5SMZbY/600x600.png", "brand": "Southern Co-op", "brand:wikidata": "Q7569773"}, "geometry": {"type": "Point", "coordinates": [-0.49927376210689545, 51.36935493211198]}},
{"type": "Feature", "id": "mxbsfe7AVMdZxI5JQ5XcurxNaCg=", "properties": {"ref": "https://stores.thesouthernco-operative.co.uk/south-gloucestershire/bristol/unit-4-long-down-avenue.html", "@spider": "southern_coop", "addr:street_address": "Unit 4 Long Down Avenue Cheswick Village", "addr:city": "Bristol", "addr:postcode": "BS16 1GU", "addr:country": "GB", "name": "The Co-operative Food Bristol Long Down Avenue", "phone": "0117 969 1959", "website": "https://stores.thesouthernco-operative.co.uk/south-gloucestershire/bristol/unit-4-long-down-avenue.html", "opening_hours": "Mo-Su 07:00-22:00", "image": "https://dynl.mktgcdn.com/p/GpRlyVYuf2hHwuWtMzojdaoLMUasWhJ3LBrIQ5SMZbY/600x600.png", "brand": "Southern Co-op", "brand:wikidata": "Q7569773"}, "geometry": {"type": "Point", "coordinates": [-2.5596771, 51.4972293]}},
{"type": "Feature", "id": "xIV9Ixiv5wAwm9lsB4hG1cIVxeQ=", "properties": {"ref": "https://stores.thesouthernco-operative.co.uk/south-gloucestershire/bristol/183-memorial-road.html", "@spider": "southern_coop", "addr:street_address": "183 Memorial Road", "addr:city": "Bristol", "addr:postcode": "BS15 3LH", "addr:country": "GB", "name": "The Co-operative Food Hanham Memorial Road", "phone": "0117 967 2906", "website": "https://stores.thesouthernco-operative.co.uk/south-gloucestershire/bristol/183-memorial-road.html", "opening_hours": "Mo-Su 06:30-22:00", "image": "https://dynl.mktgcdn.com/p/GpRlyVYuf2hHwuWtMzojdaoLMUasWhJ3LBrIQ5SMZbY/600x600.png", "brand": "Southern Co-op", "brand:wikidata": "Q7569773"}, "geometry": {"type": "Point", "coordinates": [-2.5195618718862534, 51.44008370625871]}},
{"type": "Feature", "id": "jTFgJfe0T7IKJOpI7l-a8SYf734=", "properties": {"ref": "https://stores.thesouthernco-operative.co.uk/south-gloucestershire/bristol/1-2-baltic-place.html", "@spider": "southern_coop", "addr:street_address": "1-2 Baltic Place Pill", "addr:city": "Bristol", "addr:postcode": "BS20 0EJ", "addr:country": "GB", "name": "The Co-operative Food Pill Baltic Place", "phone": "01275 374846", "website": "https://stores.thesouthernco-operative.co.uk/south-gloucestershire/bristol/1-2-baltic-place.html", "opening_hours": "Mo-Su 06:00-22:00", "image": "https://dynl.mktgcdn.com/p/GpRlyVYuf2hHwuWtMzojdaoLMUasWhJ3LBrIQ5SMZbY/600x600.png", "brand": "Southern Co-op", "brand:wikidata": "Q7569773"}, "geometry": {"type": "Point", "coordinates": [-2.684626, 51.478891]}},
{"type": "Feature", "id": "XVNZrW7FsCHgd0j6dfERoITOHL4=", "properties": {"ref": "https://stores.thesouthernco-operative.co.uk/somerset/yeovil/mudford-road.html", "@spider": "southern_coop", "addr:street_address": "Mudford Road", "addr:city": "Yeovil", "addr:postcode": "BA21 4NP", "addr:country": "GB", "name": "The Co-operative Food Yeovil Mudford Road", "phone": "01935 422144", "website": "https://stores.thesouthernco-operative.co.uk/somerset/yeovil/mudford-road.html", "opening_hours": "Mo-Su 06:00-22:00", "image": "https://dynl.mktgcdn.com/p/GpRlyVYuf2hHwuWtMzojdaoLMUasWhJ3LBrIQ5SMZbY/600x600.png", "brand": "Southern Co-op", "brand:wikidata": "Q7569773"}, "geometry": {"type": "Point", "coordinates": [-2.6297701104431326, 50.95735300481953]}},
{"type": "Feature", "id": "jwZZpgXB47noa-yWtrpZd2PMvaI=", "properties": {"ref": "https://stores.thesouthernco-operative.co.uk/somerset/taunton/unit-1.html", "@spider": "southern_coop", "addr:street_address": "Unit 1 Belvedere Retail Park", "addr:city": "Taunton", "addr:postcode": "TA1 1NQ", "addr:country": "GB", "name": "Welcome Taunton Station Road", "phone": "01823 322240", "website": "https://stores.thesouthernco-operative.co.uk/somerset/taunton/unit-1.html", "opening_hours": "Mo-Su 06:00-22:00", "image": "https://dynl.mktgcdn.com/p/dycHJwoFWU2j8D4FQnUyeGVJpm3Z3nO_PwYrgGVtAc4/203x203.jpg", "brand": "Southern Co-op", "brand:wikidata": "Q7569773"}, "geometry": {"type": "Point", "coordinates": [-3.1063558, 51.01983269999999]}},
{"type": "Feature", "id": "ArEkuzMwEZ1ExMsgFNJHp7JLsBw=", "properties": {"ref": "https://stores.thesouthernco-operative.co.uk/somerset/taunton/morse-road.html", "@spider": "southern_coop", "addr:street_address": "Morse Road Norton Fitzwarren", "addr:city": "Taunton", "addr:postcode": "TA2 6DG", "addr:country": "GB", "name": "The Co-operative Food Norton Fitzwarren Morse Road", "phone": "01823 330774", "website": "https://stores.thesouthernco-operative.co.uk/somerset/taunton/morse-road.html", "opening_hours": "Mo-Su 07:00-22:00", "image": "https://dynl.mktgcdn.com/p/GpRlyVYuf2hHwuWtMzojdaoLMUasWhJ3LBrIQ5SMZbY/600x600.png", "brand": "Southern Co-op", "brand:wikidata": "Q7569773"}, "geometry": {"type": "Point", "coordinates": [-3.1489241123199463, 51.026284104308225]}},
{"type": "Feature", "id": "QiF6FwHsBqE-Lgoff_puhPjx0iQ=", "properties": {"ref": "https://stores.thesouthernco-operative.co.uk/somerset/taunton/33-wellington-new-road.html", "@spider": "southern_coop", "addr:street_address": "33 Wellington New Road", "addr:city": "Taunton", "addr:postcode": "TA1 5LU", "addr:country": "GB", "name": "The Co-operative Food Taunton Wellington New Road", "phone": "01823 289871", "website": "https://stores.thesouthernco-operative.co.uk/somerset/taunton/33-wellington-new-road.html", "opening_hours": "Mo-Su 07:00-22:00", "image": "https://dynl.mktgcdn.com/p/GpRlyVYuf2hHwuWtMzojdaoLMUasWhJ3LBrIQ5SMZbY/600x600.png", "brand": "Southern Co-op", "brand:wikidata": "Q7569773"}, "geometry": {"type": "Point", "coordinates": [-3.128756582736969, 51.01207053317412]}},
{"type": "Feature", "id": "waP6JN8h5OOj_MdNlXcEE4C95XQ=", "properties": {"ref": "https://stores.thesouthernco-operative.co.uk/somerset/keynsham/61-queens-road--bath.html", "@spider": "southern_coop", "addr:street_address": "61 Queens Road, Bath", "addr:city": "Keynsham", "addr:postcode": "BS31 2NW", "addr:country": "GB", "name": "The Co-operative Food Keynsham Queens Road", "phone": "0117 986 0079", "website": "https://stores.thesouthernco-operative.co.uk/somerset/keynsham/61-queens-road--bath.html", "opening_hours": "Mo-Su 06:30-22:30", "image": "https://dynl.mktgcdn.com/p/GpRlyVYuf2hHwuWtMzojdaoLMUasWhJ3LBrIQ5SMZbY/600x600.png", "brand": "Southern Co-op", "brand:wikidata": "Q7569773"}, "geometry": {"type": "Point", "coordinates": [-2.5071921944618225, 51.40892542760329]}},
{"type": "Feature", "id": "AnCipVzL2faXWdZJMhR7d5iss7k=", "properties": {"ref": "https://stores.thesouthernco-operative.co.uk/somerset/frome/1a-nunney-road.html", "@spider": "southern_coop", "addr:street_address": "1a Nunney Road", "addr:city": "Frome", "addr:postcode": "BA11 4LA", "addr:country": "GB", "name": "The Co-operative Food Frome Nunney Road", "phone": "01373 467678", "website": "https://stores.thesouthernco-operative.co.uk/somerset/frome/1a-nunney-road.html", "opening_hours": "Mo-Su 06:30-22:00", "image": "https://dynl.mktgcdn.com/p/GpRlyVYuf2hHwuWtMzojdaoLMUasWhJ3LBrIQ5SMZbY/600x600.png", "brand": "Southern Co-op", "brand:wikidata": "Q7569773"}, "geometry": {"type": "Point", "coordinates": [-2.3278095, 51.2305734]}},
{"type": "Feature", "id": "INkFwXGBemD94_ShbdsCCm4yFvU=", "properties": {"ref": "https://stores.thesouthernco-operative.co.uk/somerset/cotford-st-luke/82-graham-way.html", "@spider": "southern_coop", "addr:street_address": "82 Graham Way", "addr:city": "Cotford St Luke", "addr:postcode": "TA4 1HX", "addr:country": "GB", "name": "The Co-operative Food Cotford St Luke Graham Way", "phone": "01823 432720", "website": "https://stores.thesouthernco-operative.co.uk/somerset/cotford-st-luke/82-graham-way.html", "opening_hours": "Mo-Su 07:00-22:00", "image": "https://dynl.mktgcdn.com/p/GpRlyVYuf2hHwuWtMzojdaoLMUasWhJ3LBrIQ5SMZbY/600x600.png", "brand": "Southern Co-op", "brand:wikidata": "Q7569773"}, "geometry": {"type": "Point", "coordinates": [-3.1872837245464325, 51.0393633528501]}},
{"type": "Feature", "id": "6CLYPZjLd7ZwC-BmgwCIz-y7veQ=", "properties": {"ref": "https://stores.thesouthernco-operative.co.uk/somerset/burnham-on-sea/229--berrow-road.html", "@spider": "southern_coop", "addr:street_address": "229, Berrow Road Berrow", "addr:city": "Burnham on Sea", "addr:postcode": "TA8 2JQ", "addr:country": "GB", "name": "The Co-operative Food Burnham on Sea Berrow Road", "phone": "01278 786969", "website": "https://stores.thesouthernco-operative.co.uk/somerset/burnham-on-sea/229--berrow-road.html", "opening_hours": "Mo-Su 07:00-22:00", "image": "https://dynl.mktgcdn.com/p/GpRlyVYuf2hHwuWtMzojdaoLMUasWhJ3LBrIQ5SMZbY/600x600.png", "brand": "Southern Co-op", "brand:wikidata": "Q7569773"}, "geometry": {"type": "Point", "coordinates": [-3.005368, 51.258503]}},
{"type": "Feature", "id": "hMlrRrQN1IoV117WCuTgMyrmjKc=", "properties": {"ref": "https://stores.thesouthernco-operative.co.uk/somerset/bristol/174-178-wells-road.html", "@spider": "southern_coop", "addr:street_address": "174-178 Wells Road Totterdown", "addr:city": "Bristol", "addr:postcode": "BS4 2AL", "addr:country": "GB", "name": "The Co-operative Food Bristol Wells Road", "phone": "0117 971 1591", "website": "https://stores.thesouthernco-operative.co.uk/somerset/bristol/174-178-wells-road.html", "opening_hours": "Mo-Su 07:00-22:00", "image": "https://dynl.mktgcdn.com/p/GpRlyVYuf2hHwuWtMzojdaoLMUasWhJ3LBrIQ5SMZbY/600x600.png", "brand": "Southern Co-op", "brand:wikidata": "Q7569773"}, "geometry": {"type": "Point", "coordinates": [-2.573403798776667, 51.44004404719282]}},
{"type": "Feature", "id": "OPt5jsLYt1h2aSqRRfhqMLIJBaM=", "properties": {"ref": "https://stores.thesouthernco-operative.co.uk/somerset/bridgwater/unit-1-stockmoor-shopping-centre.html", "@spider": "southern_coop", "addr:street_address": "Unit 1 Stockmoor Shopping Centre Stockmoor Drive", "addr:city": "Bridgwater", "addr:postcode": "TA6 6WU", "addr:country": "GB", "name": "The Co-operative Food Bridgwater Stockmoor Park", "phone": "01278 429234", "website": "https://stores.thesouthernco-operative.co.uk/somerset/bridgwater/unit-1-stockmoor-shopping-centre.html", "opening_hours": "Mo-Su 07:00-22:00", "image": "https://dynl.mktgcdn.com/p/GpRlyVYuf2hHwuWtMzojdaoLMUasWhJ3LBrIQ5SMZbY/600x600.png", "brand": "Southern Co-op", "brand:wikidata": "Q7569773"}, "geometry": {"type": "Point", "coordinates": [-2.9996028542518616, 51.10885717963953]}},
{"type": "Feature", "id": "0JwsySbhLoOhGC2CxQlaiWj6zho=", "properties": {"ref": "https://stores.thesouthernco-operative.co.uk/somerset/bath/widcombe-hill.html", "@spider": "southern_coop", "addr:street_address": "Widcombe Hill", "addr:city": "Bath", "addr:postcode": "BA2 6AA", "addr:country": "GB", "name": "The Co-operative Food Bath Widcombe Hill", "phone": "01225 469320", "website": "https://stores.thesouthernco-operative.co.uk/somerset/bath/widcombe-hill.html", "opening_hours": "Mo-Su 07:00-22:30", "image": "https://dynl.mktgcdn.com/p/GpRlyVYuf2hHwuWtMzojdaoLMUasWhJ3LBrIQ5SMZbY/600x600.png", "brand": "Southern Co-op", "brand:wikidata": "Q7569773"}, "geometry": {"type": "Point", "coordinates": [-2.352982610464096, 51.37654549226314]}},
{"type": "Feature", "id": "V8_k4VDH5A6JCpgea_74jpnZF9g=", "properties": {"ref": "https://stores.thesouthernco-operative.co.uk/north-somerset/bristol/6-hannah-more-road.html", "@spider": "southern_coop", "addr:street_address": "6 Hannah More Road", "addr:city": "Bristol", "addr:postcode": "BS48 4RZ", "addr:country": "GB", "name": "The Co-operative Food Nailsea Hannah More Road", "phone": "01275 855620", "website": "https://stores.thesouthernco-operative.co.uk/north-somerset/bristol/6-hannah-more-road.html", "opening_hours": "Mo-Su 07:00-22:00", "image": "https://dynl.mktgcdn.com/p/GpRlyVYuf2hHwuWtMzojdaoLMUasWhJ3LBrIQ5SMZbY/600x600.png", "brand": "Southern Co-op", "brand:wikidata": "Q7569773"}, "geometry": {"type": "Point", "coordinates": [-2.7767354249954224, 51.428952454685344]}},
{"type": "Feature", "id": "pPCZLk2WizqO02F4aU2hILosfb4=", "properties": {"ref": "https://stores.thesouthernco-operative.co.uk/north-somerset/banwell/44-knightcott-road.html", "@spider": "southern_coop", "addr:street_address": "44 Knightcott Road", "addr:city": "Banwell", "addr:postcode": "BS29 6HF", "addr:country": "GB", "name": "The Co-operative Food Banwell Knightcott Road", "phone": "01934 707384", "website": "https://stores.thesouthernco-operative.co.uk/north-somerset/banwell/44-knightcott-road.html", "opening_hours": "Mo-Su 07:00-22:00", "image": "https://dynl.mktgcdn.com/p/GpRlyVYuf2hHwuWtMzojdaoLMUasWhJ3LBrIQ5SMZbY/600x600.png", "brand": "Southern Co-op", "brand:wikidata": "Q7569773"}, "geometry": {"type": "Point", "coordinates": [-2.8760844469070435, 51.329974786386636]}},
{"type": "Feature", "id": "l9biZbRFSd6SPXhuKrE2Gcd6Rg0=", "properties": {"ref": "https://stores.thesouthernco-operative.co.uk/london/bromley/1-homesdale-road.html", "@spider": "southern_coop", "addr:street_address": "1 Homesdale Road", "addr:city": "Bromley", "addr:postcode": "BR2 9JQ", "addr:country": "GB", "name": "The Co-operative Food Bromley Homesdale Road", "phone": "020 8290 6337", "website": "https://stores.thesouthernco-operative.co.uk/london/bromley/1-homesdale-road.html", "opening_hours": "Mo-Su 06:30-22:00", "image": "https://dynl.mktgcdn.com/p/GpRlyVYuf2hHwuWtMzojdaoLMUasWhJ3LBrIQ5SMZbY/600x600.png", "brand": "Southern Co-op", "brand:wikidata": "Q7569773"}, "geometry": {"type": "Point", "coordinates": [0.0261373, 51.39573290000001]}},
{"type": "Feature", "id": "gRGoBzWiw1J-rqnfm0_pDfarQRY=", "properties": {"ref": "https://stores.thesouthernco-operative.co.uk/kent/whitstable/134-cromwell-road.html", "@spider": "southern_coop", "addr:street_address": "134 Cromwell Road", "addr:city": "Whitstable", "addr:postcode": "CT5 2AA", "addr:country": "GB", "name": "The Co-operative Food Whitstable Cromwell Road", "phone": "01227 277122", "website": "https://stores.thesouthernco-operative.co.uk/kent/whitstable/134-cromwell-road.html", "opening_hours": "Mo-Su 07:00-22:00", "image": "https://dynl.mktgcdn.com/p/Ouz8Zai18BuoK3QtrHdRKeWmc4zJD1lUyBX8jTMCy70/500x500.png", "brand": "Southern Co-op", "brand:wikidata": "Q7569773"}, "geometry": {"type": "Point", "coordinates": [1.0305382, 51.3589353]}},
{"type": "Feature", "id": "8a-lLkfWZ5pAdnLj7jsnKItH4OA=", "properties": {"ref": "https://stores.thesouthernco-operative.co.uk/kent/sidcup/51-the-oval.html", "@spider": "southern_coop", "addr:street_address": "51 The Oval", "addr:city": "Sidcup", "addr:postcode": "DA15 9ER", "addr:country": "GB", "name": "The Co-operative Food Sidcup The Oval", "phone": "020 8300 8839", "website": "https://stores.thesouthernco-operative.co.uk/kent/sidcup/51-the-oval.html", "opening_hours": "Mo-Su 07:00-22:00", "image": "https://dynl.mktgcdn.com/p/GpRlyVYuf2hHwuWtMzojdaoLMUasWhJ3LBrIQ5SMZbY/600x600.png", "brand": "Southern Co-op", "brand:wikidata": "Q7569773"}, "geometry": {"type": "Point", "coordinates": [0.10316546816056871, 51.44553258010943]}},
{"type": "Feature", "id": "ROKPFNqgmT7FE3-YpktidaHroZw=", "properties": {"ref": "https://stores.thesouthernco-operative.co.uk/kent/ramsgate/11-monkton-road.html", "@spider": "southern_coop", "addr:street_address": "11 Monkton Road Minster", "addr:city": "Ramsgate", "addr:postcode": "CT12 4EA", "addr:country": "GB", "name": "The Co-operative Food Minster Monkton Road", "phone": "01843 823677", "website": "https://stores.thesouthernco-operative.co.uk/kent/ramsgate/11-monkton-road.html", "opening_hours": "Mo-Sa 07:00-21:00; Su 08:00-21:00", "image": "https://dynl.mktgcdn.com/p/GpRlyVYuf2hHwuWtMzojdaoLMUasWhJ3LBrIQ5SMZbY/600x600.png", "brand": "Southern Co-op", "brand:wikidata": "Q7569773"}, "geometry": {"type": "Point", "coordinates": [1.3128849864006042, 51.33481798603948]}},
{"type": "Feature", "id": "pHL6j8ZsVFxsB5hRFtyTGVUWMII=", "properties": {"ref": "https://stores.thesouthernco-operative.co.uk/kent/kent/faversham-road.html", "@spider": "southern_coop", "addr:street_address": "Faversham Road Seasalter", "addr:city": "Kent", "addr:postcode": "CT5 4AX", "addr:country": "GB", "name": "The Co-operative Food Seasalter Faversham Road", "phone": "01227 274483", "website": "https://stores.thesouthernco-operative.co.uk/kent/kent/faversham-road.html", "opening_hours": "Mo-Su 06:30-22:00", "image": "https://dynl.mktgcdn.com/p/GpRlyVYuf2hHwuWtMzojdaoLMUasWhJ3LBrIQ5SMZbY/600x600.png", "brand": "Southern Co-op", "brand:wikidata": "Q7569773"}, "geometry": {"type": "Point", "coordinates": [1.000773682209001, 51.3440444868673]}},
{"type": "Feature", "id": "Xu878wyWiXiXmFzwDEgwsmccw8o=", "properties": {"ref": "https://stores.thesouthernco-operative.co.uk/kent/kent/8-faversham-road.html", "@spider": "southern_coop", "addr:street_address": "8 Faversham Road Lenham", "addr:city": "Kent", "addr:postcode": "ME17 2PN", "addr:country": "GB", "name": "The Co-operative Food Lenham Faversham Road", "phone": "01622 850242", "website": "https://stores.thesouthernco-operative.co.uk/kent/kent/8-faversham-road.html", "opening_hours": "Mo-Su 07:00-22:00", "image": "https://dynl.mktgcdn.com/p/GpRlyVYuf2hHwuWtMzojdaoLMUasWhJ3LBrIQ5SMZbY/600x600.png", "brand": "Southern Co-op", "brand:wikidata": "Q7569773"}, "geometry": {"type": "Point", "coordinates": [0.7190159153442437, 51.23774251027672]}},
{"type": "Feature", "id": "xdkFdrY1KGfU4mapypI1AWvjZuI=", "properties": {"ref": "https://stores.thesouthernco-operative.co.uk/kent/ashford/loudon-way.html", "@spider": "southern_coop", "addr:street_address": "Loudon Way", "addr:city": "Ashford", "addr:postcode": "TN23 3JJ", "addr:country": "GB", "name": "The Co-operative Food Ashford Loudon Way", "phone": "01233 641485", "website": "https://stores.thesouthernco-operative.co.uk/kent/ashford/loudon-way.html", "opening_hours": "Mo-Su 07:00-22:00", "image": "https://dynl.mktgcdn.com/p/GpRlyVYuf2hHwuWtMzojdaoLMUasWhJ3LBrIQ5SMZbY/600x600.png", "brand": "Southern Co-op", "brand:wikidata": "Q7569773"}, "geometry": {"type": "Point", "coordinates": [0.8463611, 51.1540035]}},
{"type": "Feature", "id": "hoWTOSWwrYIKjOwUHUP7MBGHBDw=", "properties": {"ref": "https://stores.thesouthernco-operative.co.uk/isle-of-wight/shanklin/42-regent-street.html", "@spider": "southern_coop", "addr:street_address": "42 Regent Street", "addr:city": "Shanklin", "addr:postcode": "PO37 7AA", "addr:country": "GB", "name": "The Co-operative Food Shanklin Regent Street", "phone": "01983 861318", "website": "https://stores.thesouthernco-operative.co.uk/isle-of-wight/shanklin/42-regent-street.html", "opening_hours": "Mo-Su 07:00-22:00", "image": "https://dynl.mktgcdn.com/p/GpRlyVYuf2hHwuWtMzojdaoLMUasWhJ3LBrIQ5SMZbY/600x600.png", "brand": "Southern Co-op", "brand:wikidata": "Q7569773"}, "geometry": {"type": "Point", "coordinates": [-1.1784192, 50.6307882]}},
{"type": "Feature", "id": "Fottb0JuOg-Ll6SNCNszIjbPVbM=", "properties": {"ref": "https://stores.thesouthernco-operative.co.uk/isle-of-wight/sandown/132-avenue-road.html", "@spider": "southern_coop", "addr:street_address": "132 Avenue Road", "addr:city": "Sandown", "addr:postcode": "PO36 9AN", "addr:country": "GB", "name": "The Co-operative Food Sandown Avenue Road", "phone": "01983 408800", "website": "https://stores.thesouthernco-operative.co.uk/isle-of-wight/sandown/132-avenue-road.html", "opening_hours": "Mo-Su 07:00-22:00", "image": "https://dynl.mktgcdn.com/p/GpRlyVYuf2hHwuWtMzojdaoLMUasWhJ3LBrIQ5SMZbY/600x600.png", "brand": "Southern Co-op", "brand:wikidata": "Q7569773"}, "geometry": {"type": "Point", "coordinates": [-1.1518585681915283, 50.66200139816308]}},
{"type": "Feature", "id": "sIICrSNZYKbBbfu_eH8Wnk_DpA4=", "properties": {"ref": "https://stores.thesouthernco-operative.co.uk/isle-of-wight/ryde/61---62-west-street.html", "@spider": "southern_coop", "addr:street_address": "61 - 62 West Street", "addr:city": "Ryde", "addr:postcode": "PO33 2UH", "addr:country": "GB", "name": "The Co-operative Food Ryde West Street", "phone": "01983 562469", "website": "https://stores.thesouthernco-operative.co.uk/isle-of-wight/ryde/61---62-west-street.html", "opening_hours": "Mo-Su 07:00-22:00", "image": "https://dynl.mktgcdn.com/p/GpRlyVYuf2hHwuWtMzojdaoLMUasWhJ3LBrIQ5SMZbY/600x600.png", "brand": "Southern Co-op", "brand:wikidata": "Q7569773"}, "geometry": {"type": "Point", "coordinates": [-1.1670177429914474, 50.72418456745758]}},
{"type": "Feature", "id": "53qHfutrb-oR2LW__fZri3fmyls=", "properties": {"ref": "https://stores.thesouthernco-operative.co.uk/isle-of-wight/rookley/main-road.html", "@spider": "southern_coop", "addr:street_address": "Main Road", "addr:city": "Rookley", "addr:postcode": "PO38 3NY", "addr:country": "GB", "name": "The Co-operative Food Rookley Main Road", "phone": "01983 721326", "website": "https://stores.thesouthernco-operative.co.uk/isle-of-wight/rookley/main-road.html", "opening_hours": "Mo-Su 07:00-22:00", "image": "https://dynl.mktgcdn.com/p/GpRlyVYuf2hHwuWtMzojdaoLMUasWhJ3LBrIQ5SMZbY/600x600.png", "brand": "Southern Co-op", "brand:wikidata": "Q7569773"}, "geometry": {"type": "Point", "coordinates": [-1.279207170009613, 50.65290595483439]}},
{"type": "Feature", "id": "7KYGK5f5DYyFaYZA8qC4lqz_lM8=", "properties": {"ref": "https://stores.thesouthernco-operative.co.uk/isle-of-wight/newport/52-high-street.html", "@spider": "southern_coop", "addr:street_address": "52 High Street Carisbrooke", "addr:city": "Newport", "addr:postcode": "PO30 1NR", "addr:country": "GB", "name": "The Co-operative Food Carisbrooke High Street", "phone": "01983 521131", "website": "https://stores.thesouthernco-operative.co.uk/isle-of-wight/newport/52-high-street.html", "opening_hours": "Mo-Su 07:00-22:00", "image": "https://dynl.mktgcdn.com/p/GpRlyVYuf2hHwuWtMzojdaoLMUasWhJ3LBrIQ5SMZbY/600x600.png", "brand": "Southern Co-op", "brand:wikidata": "Q7569773"}, "geometry": {"type": "Point", "coordinates": [-1.3124531507492065, 50.69163820674263]}},
{"type": "Feature", "id": "x6l7ZCYfQKIMF3WqjIWotk4Km_M=", "properties": {"ref": "https://stores.thesouthernco-operative.co.uk/isle-of-wight/freshwater/avenue-road.html", "@spider": "southern_coop", "addr:street_address": "Avenue Road", "addr:city": "Freshwater", "addr:postcode": "PO40 9UU", "addr:country": "GB", "name": "The Co-operative Food Freshwater Avenue Road", "phone": "01983 754443", "website": "https://stores.thesouthernco-operative.co.uk/isle-of-wight/freshwater/avenue-road.html", "opening_hours": "Mo-Su 07:00-22:00", "image": "https://dynl.mktgcdn.com/p/GpRlyVYuf2hHwuWtMzojdaoLMUasWhJ3LBrIQ5SMZbY/600x600.png", "brand": "Southern Co-op", "brand:wikidata": "Q7569773"}, "geometry": {"type": "Point", "coordinates": [-1.5295498073101044, 50.684038085616855]}},
{"type": "Feature", "id": "FnF2rjzH1BqYKoIbjYA3NM8gMpE=", "properties": {"ref": "https://stores.thesouthernco-operative.co.uk/isle-of-wight/cowes/155-mill-hill-road.html", "@spider": "southern_coop", "addr:street_address": "155 Mill Hill Road", "addr:city": "Cowes", "addr:postcode": "PO31 7EL", "addr:country": "GB", "name": "The Co-operative Food Cowes Mill Hill Road", "phone": "01983 289868", "website": "https://stores.thesouthernco-operative.co.uk/isle-of-wight/cowes/155-mill-hill-road.html", "opening_hours": "Mo-Su 06:00-22:00", "image": "https://dynl.mktgcdn.com/p/GpRlyVYuf2hHwuWtMzojdaoLMUasWhJ3LBrIQ5SMZbY/600x600.png", "brand": "Southern Co-op", "brand:wikidata": "Q7569773"}, "geometry": {"type": "Point", "coordinates": [-1.3021507859230042, 50.75438789888561]}},
{"type": "Feature", "id": "fPRxcdfpi1dxE1mbe1JHH6KdcF8=", "properties": {"ref": "https://stores.thesouthernco-operative.co.uk/isle-of-wight/bembridge/sherbourne-street.html", "@spider": "southern_coop", "addr:street_address": "Sherbourne Street", "addr:city": "Bembridge", "addr:postcode": "PO35 5SB", "addr:country": "GB", "name": "The Co-operative Food Bembridge Sherbourne Street", "phone": "01983 872571", "website": "https://stores.thesouthernco-operative.co.uk/isle-of-wight/bembridge/sherbourne-street.html", "opening_hours": "Mo-Su 07:00-22:00", "image": "https://dynl.mktgcdn.com/p/GpRlyVYuf2hHwuWtMzojdaoLMUasWhJ3LBrIQ5SMZbY/600x600.png", "brand": "Southern Co-op", "brand:wikidata": "Q7569773"}, "geometry": {"type": "Point", "coordinates": [-1.088695228099823, 50.69112675595676]}},
{"type": "Feature", "id": "bmYdn00F9nSBAy07LwvniGnv7wE=", "properties": {"ref": "https://stores.thesouthernco-operative.co.uk/hampshire/winchester/st-vigor-way.html", "@spider": "southern_coop", "addr:street_address": "St Vigor Way Colden Common", "addr:city": "Winchester", "addr:postcode": "SO21 1UU", "addr:country": "GB", "name": "The Co-operative Food Colden Common St Vigor Way", "phone": "01962 711400", "website": "https://stores.thesouthernco-operative.co.uk/hampshire/winchester/st-vigor-way.html", "opening_hours": "Mo-Su 07:00-22:00", "image": "https://dynl.mktgcdn.com/p/GpRlyVYuf2hHwuWtMzojdaoLMUasWhJ3LBrIQ5SMZbY/600x600.png", "brand": "Southern Co-op", "brand:wikidata": "Q7569773"}, "geometry": {"type": "Point", "coordinates": [-1.3217193, 50.9964239]}},
{"type": "Feature", "id": "Acqea73iMNpP4Y42yce4mlZxl2s=", "properties": {"ref": "https://stores.thesouthernco-operative.co.uk/hampshire/winchester/16-city-road.html", "@spider": "southern_coop", "addr:street_address": "16 City Road", "addr:city": "Winchester", "addr:postcode": "SO23 8SD", "addr:country": "GB", "name": "The Co-operative Food Winchester City Road", "phone": "01962 863017", "website": "https://stores.thesouthernco-operative.co.uk/hampshire/winchester/16-city-road.html", "opening_hours": "Mo-Su 07:00-22:00", "image": "https://dynl.mktgcdn.com/p/GpRlyVYuf2hHwuWtMzojdaoLMUasWhJ3LBrIQ5SMZbY/600x600.png", "brand": "Southern Co-op", "brand:wikidata": "Q7569773"}, "geometry": {"type": "Point", "coordinates": [-1.3174393773078918, 51.06670415521669]}},
{"type": "Feature", "id": "hnM1wHrv_c8QVINF8LVeWo_cqOE=", "properties": {"ref": "https://stores.thesouthernco-operative.co.uk/hampshire/waterlooville/hambledon-road.html", "@spider": "southern_coop", "addr:street_address": "Hambledon Road Denmead", "addr:city": "Waterlooville", "addr:postcode": "PO7 6NU", "addr:country": "GB", "name": "The Co-operative Food Denmead Hambledon Road", "phone": "023 9225 1507", "website": "https://stores.thesouthernco-operative.co.uk/hampshire/waterlooville/hambledon-road.html", "opening_hours": "Mo-Sa 06:00-22:00; Su 07:00-22:00", "image": "https://dynl.mktgcdn.com/p/GpRlyVYuf2hHwuWtMzojdaoLMUasWhJ3LBrIQ5SMZbY/600x600.png", "brand": "Southern Co-op", "brand:wikidata": "Q7569773"}, "geometry": {"type": "Point", "coordinates": [-1.0654995, 50.904022]}},
{"type": "Feature", "id": "2_yU9qP_9-O4FFH_JJ2Nji0DH_U=", "properties": {"ref": "https://stores.thesouthernco-operative.co.uk/hampshire/waterlooville/83-london-road.html", "@spider": "southern_coop", "addr:street_address": "83 London Road", "addr:city": "Waterlooville", "addr:postcode": "PO8 8XB", "addr:country": "GB", "name": "The Co-operative Food Cowplain London Road", "phone": "023 9226 3507", "website": "https://stores.thesouthernco-operative.co.uk/hampshire/waterlooville/83-london-road.html", "opening_hours": "Mo-Su 07:00-22:00", "image": "https://dynl.mktgcdn.com/p/GpRlyVYuf2hHwuWtMzojdaoLMUasWhJ3LBrIQ5SMZbY/600x600.png", "brand": "Southern Co-op", "brand:wikidata": "Q7569773"}, "geometry": {"type": "Point", "coordinates": [-1.017894297838211, 50.89525046192965]}},
{"type": "Feature", "id": "e1JOAA1Aw2rAAkTSE4zbkvtUsmg=", "properties": {"ref": "https://stores.thesouthernco-operative.co.uk/hampshire/waterlooville/8-purbrook-chase-precinct.html", "@spider": "southern_coop", "addr:street_address": "8 Purbrook Chase Precinct Crookhorn Lane", "addr:city": "Waterlooville", "addr:postcode": "PO7 5QH", "addr:country": "GB", "name": "The Co-operative Food Crookhorn The Precinct", "phone": "023 9226 4790", "website": "https://stores.thesouthernco-operative.co.uk/hampshire/waterlooville/8-purbrook-chase-precinct.html", "opening_hours": "Mo-Sa 06:00-22:00; Su 07:00-22:00", "image": "https://dynl.mktgcdn.com/p/GpRlyVYuf2hHwuWtMzojdaoLMUasWhJ3LBrIQ5SMZbY/600x600.png", "brand": "Southern Co-op", "brand:wikidata": "Q7569773"}, "geometry": {"type": "Point", "coordinates": [-1.0294615, 50.8603344]}},
{"type": "Feature", "id": "ASap7HtxWoO69-ro3wQlNqpdgzQ=", "properties": {"ref": "https://stores.thesouthernco-operative.co.uk/hampshire/waterlooville/31-london-road.html", "@spider": "southern_coop", "addr:street_address": "31 London Road Purbrook", "addr:city": "Waterlooville", "addr:postcode": "PO7 5LG", "addr:country": "GB", "name": "The Co-operative Food Purbrook London Road", "phone": "023 9226 7596", "website": "https://stores.thesouthernco-operative.co.uk/hampshire/waterlooville/31-london-road.html", "opening_hours": "Mo-Su 06:00-22:30", "image": "https://dynl.mktgcdn.com/p/GpRlyVYuf2hHwuWtMzojdaoLMUasWhJ3LBrIQ5SMZbY/600x600.png", "brand": "Southern Co-op", "brand:wikidata": "Q7569773"}, "geometry": {"type": "Point", "coordinates": [-1.0444390791496971, 50.86859624689222]}},
{"type": "Feature", "id": "FfAlDMwYuHWJmElF9Wr2bBGxSik=", "properties": {"ref": "https://stores.thesouthernco-operative.co.uk/hampshire/waterlooville/143-145-milton-rd.html", "@spider": "southern_coop", "addr:street_address": "143-145 Milton Rd Cowplain", "addr:city": "Waterlooville", "addr:postcode": "PO8 8RE", "addr:country": "GB", "name": "The Co-operative Food Waterlooville Milton Road", "phone": "023 9226 1144", "website": "https://stores.thesouthernco-operative.co.uk/hampshire/waterlooville/143-145-milton-rd.html", "opening_hours": "Mo-Su 07:00-22:00", "image": "https://dynl.mktgcdn.com/p/GpRlyVYuf2hHwuWtMzojdaoLMUasWhJ3LBrIQ5SMZbY/600x600.png", "brand": "Southern Co-op", "brand:wikidata": "Q7569773"}, "geometry": {"type": "Point", "coordinates": [-1.0326263308525085, 50.89275079451146]}},
{"type": "Feature", "id": "zHG30Kw6fh6lDEaGhqNoeCZ-MOQ=", "properties": {"ref": "https://stores.thesouthernco-operative.co.uk/hampshire/waterlooville/14-white-dirt-lane.html", "@spider": "southern_coop", "addr:street_address": "14 White Dirt Lane", "addr:city": "Waterlooville", "addr:postcode": "PO8 0QL", "addr:country": "GB", "name": "The Co-operative Food Clanfield White Dirt Lane", "phone": "023 9259 9793", "website": "https://stores.thesouthernco-operative.co.uk/hampshire/waterlooville/14-white-dirt-lane.html", "opening_hours": "Mo-Su 06:30-22:00", "image": "https://dynl.mktgcdn.com/p/GpRlyVYuf2hHwuWtMzojdaoLMUasWhJ3LBrIQ5SMZbY/600x600.png", "brand": "Southern Co-op", "brand:wikidata": "Q7569773"}, "geometry": {"type": "Point", "coordinates": [-1.0007402300834656, 50.93540522524651]}},
{"type": "Feature", "id": "Uhc6gUYEbSo2i6n7cfipq5vKROc=", "properties": {"ref": "https://stores.thesouthernco-operative.co.uk/hampshire/stockbridge/high-street.html", "@spider": "southern_coop", "addr:street_address": "High Street", "addr:city": "Stockbridge", "addr:postcode": "SO20 6EU", "addr:country": "GB", "name": "The Co-operative Food Stockbridge High Street", "phone": "01264 810519", "website": "https://stores.thesouthernco-operative.co.uk/hampshire/stockbridge/high-street.html", "opening_hours": "Mo-Su 07:00-22:00", "image": "https://dynl.mktgcdn.com/p/GpRlyVYuf2hHwuWtMzojdaoLMUasWhJ3LBrIQ5SMZbY/600x600.png", "brand": "Southern Co-op", "brand:wikidata": "Q7569773"}, "geometry": {"type": "Point", "coordinates": [-1.4905625581741333, 51.11405457024845]}},
{"type": "Feature", "id": "dt07OYrWE64-5E6rh4dL85qfN-M=", "properties": {"ref": "https://stores.thesouthernco-operative.co.uk/hampshire/southsea/devonshire-house.html", "@spider": "southern_coop", "addr:street_address": "Devonshire House Devonshire Sq", "addr:city": "Southsea", "addr:postcode": "PO4 0JJ", "addr:country": "GB", "name": "The Co-operative Food Portsmouth Devonshire Square", "phone": "023 9282 8549", "website": "https://stores.thesouthernco-operative.co.uk/hampshire/southsea/devonshire-house.html", "opening_hours": "Mo-Su 06:30-22:00", "image": "https://dynl.mktgcdn.com/p/GpRlyVYuf2hHwuWtMzojdaoLMUasWhJ3LBrIQ5SMZbY/600x600.png", "brand": "Southern Co-op", "brand:wikidata": "Q7569773"}, "geometry": {"type": "Point", "coordinates": [-1.0702764987945557, 50.79207419277004]}},
{"type": "Feature", "id": "-hE_y3myBl4I4yLjkKrvSDDul20=", "properties": {"ref": "https://stores.thesouthernco-operative.co.uk/hampshire/southsea/84-highland-road.html", "@spider": "southern_coop", "addr:street_address": "84 Highland Road", "addr:city": "Southsea", "addr:postcode": "PO4 9EZ", "addr:country": "GB", "name": "The Co-operative Food Southsea Highland Road", "phone": "023 9281 4242", "website": "https://stores.thesouthernco-operative.co.uk/hampshire/southsea/84-highland-road.html", "opening_hours": "Mo-Su 06:30-22:00", "image": "https://dynl.mktgcdn.com/p/GpRlyVYuf2hHwuWtMzojdaoLMUasWhJ3LBrIQ5SMZbY/600x600.png", "brand": "Southern Co-op", "brand:wikidata": "Q7569773"}, "geometry": {"type": "Point", "coordinates": [-1.0619375109672546, 50.78658376943979]}},
{"type": "Feature", "id": "t1VTQI1T4wp1Ck5gqLJhbaRrwu4=", "properties": {"ref": "https://stores.thesouthernco-operative.co.uk/hampshire/southsea/56-great-southsea-st.html", "@spider": "southern_coop", "addr:street_address": "56 Great Southsea St", "addr:city": "Southsea", "addr:postcode": "PO5 3BY", "addr:country": "GB", "name": "The Co-operative Food Portsmouth Great Southsea Street", "phone": "023 9282 0943", "website": "https://stores.thesouthernco-operative.co.uk/hampshire/southsea/56-great-southsea-st.html", "opening_hours": "Mo-Su 07:00-22:00", "image": "https://dynl.mktgcdn.com/p/GpRlyVYuf2hHwuWtMzojdaoLMUasWhJ3LBrIQ5SMZbY/600x600.png", "brand": "Southern Co-op", "brand:wikidata": "Q7569773"}, "geometry": {"type": "Point", "coordinates": [-1.0935224501190532, 50.789479889400205]}},
{"type": "Feature", "id": "vbGXIDLqofI30pXktEIpGlJvRlw=", "properties": {"ref": "https://stores.thesouthernco-operative.co.uk/hampshire/southsea/161---167-eastney-road.html", "@spider": "southern_coop", "addr:street_address": "161 - 167 Eastney Road Eastney", "addr:city": "Southsea", "addr:postcode": "PO4 8EA", "addr:country": "GB", "name": "The Co-operative Food Portsmouth Eastney Road", "phone": "023 9273 4217", "website": "https://stores.thesouthernco-operative.co.uk/hampshire/southsea/161---167-eastney-road.html", "opening_hours": "Mo-Sa 06:30-22:00; Su 10:00-16:00", "image": "https://dynl.mktgcdn.com/p/GpRlyVYuf2hHwuWtMzojdaoLMUasWhJ3LBrIQ5SMZbY/600x600.png", "brand": "Southern Co-op", "brand:wikidata": "Q7569773"}, "geometry": {"type": "Point", "coordinates": [-1.0553017258644104, 50.79073131989224]}},
{"type": "Feature", "id": "LBea6clHBhXM9x4yq9IPjAxXN4g=", "properties": {"ref": "https://stores.thesouthernco-operative.co.uk/hampshire/southsea/155---159-fawcett-road.html", "@spider": "southern_coop", "addr:street_address": "155 - 159 Fawcett Road", "addr:city": "Southsea", "addr:postcode": "PO4 0DH", "addr:country": "GB", "name": "The Co-operative Food Portsmouth Fawcett Road", "phone": "023 9283 9440", "website": "https://stores.thesouthernco-operative.co.uk/hampshire/southsea/155---159-fawcett-road.html", "opening_hours": "Mo-Sa 06:30-22:00; Su 07:00-22:00", "image": "https://dynl.mktgcdn.com/p/GpRlyVYuf2hHwuWtMzojdaoLMUasWhJ3LBrIQ5SMZbY/600x600.png", "brand": "Southern Co-op", "brand:wikidata": "Q7569773"}, "geometry": {"type": "Point", "coordinates": [-1.0760589642450213, 50.79139763329943]}},
{"type": "Feature", "id": "gZuKYv6N9MMFAXIcxi26Z6G96uI=", "properties": {"ref": "https://stores.thesouthernco-operative.co.uk/hampshire/southsea/111---113-winter-road.html", "@spider": "southern_coop", "addr:street_address": "111 - 113 Winter Road", "addr:city": "Southsea", "addr:postcode": "PO4 8DS", "addr:country": "GB", "name": "The Co-operative Food Portsmouth Winter Road", "phone": "023 9282 8499", "website": "https://stores.thesouthernco-operative.co.uk/hampshire/southsea/111---113-winter-road.html", "opening_hours": "Mo-Su 06:30-22:00", "image": "https://dynl.mktgcdn.com/p/GpRlyVYuf2hHwuWtMzojdaoLMUasWhJ3LBrIQ5SMZbY/600x600.png", "brand": "Southern Co-op", "brand:wikidata": "Q7569773"}, "geometry": {"type": "Point", "coordinates": [-1.0634621, 50.7918876]}},
{"type": "Feature", "id": "f02fv2-hVJwzNy1ubxsQ34YZm-I=", "properties": {"ref": "https://stores.thesouthernco-operative.co.uk/hampshire/southsea/100---102-elm-grove.html", "@spider": "southern_coop", "addr:street_address": "100 - 102 Elm Grove", "addr:city": "Southsea", "addr:postcode": "PO5 1LP", "addr:country": "GB", "name": "The Co-operative Food Portsmouth Elm Grove", "phone": "023 9275 0018", "website": "https://stores.thesouthernco-operative.co.uk/hampshire/southsea/100---102-elm-grove.html", "opening_hours": "Mo-Sa 06:30-22:00; Su 10:00-16:00", "image": "https://dynl.mktgcdn.com/p/GpRlyVYuf2hHwuWtMzojdaoLMUasWhJ3LBrIQ5SMZbY/600x600.png", "brand": "Southern Co-op", "brand:wikidata": "Q7569773"}, "geometry": {"type": "Point", "coordinates": [-1.0854296386241913, 50.78955712228421]}},
{"type": "Feature", "id": "l0kgpSIIr_nJA0eWDrBmaJzmen0=", "properties": {"ref": "https://stores.thesouthernco-operative.co.uk/hampshire/southampton/unit-1--city-gateway.html", "@spider": "southern_coop", "addr:street_address": "Unit 1, City Gateway", "addr:city": "Southampton", "addr:postcode": "SO16 2JA", "addr:country": "GB", "name": "The Co-operative Food Southampton City Gateway", "phone": "023 8058 6247", "website": "https://stores.thesouthernco-operative.co.uk/hampshire/southampton/unit-1--city-gateway.html", "opening_hours": "Mo-Su 07:00-22:00", "image": "https://dynl.mktgcdn.com/p/GpRlyVYuf2hHwuWtMzojdaoLMUasWhJ3LBrIQ5SMZbY/600x600.png", "brand": "Southern Co-op", "brand:wikidata": "Q7569773"}, "geometry": {"type": "Point", "coordinates": [-1.3790057, 50.9399109]}},
{"type": "Feature", "id": "t1A4szhihA3N3pKgL0yImsfDPcw=", "properties": {"ref": "https://stores.thesouthernco-operative.co.uk/hampshire/southampton/mayflower-halls.html", "@spider": "southern_coop", "addr:street_address": "Mayflower Halls Commercial Road", "addr:city": "Southampton", "addr:postcode": "SO15 1DP", "addr:country": "GB", "name": "The Co-operative Food Southampton Commercial Road", "phone": "023 8023 2549", "website": "https://stores.thesouthernco-operative.co.uk/hampshire/southampton/mayflower-halls.html", "opening_hours": "Mo-Su 07:00-22:00", "image": "https://dynl.mktgcdn.com/p/GpRlyVYuf2hHwuWtMzojdaoLMUasWhJ3LBrIQ5SMZbY/600x600.png", "brand": "Southern Co-op", "brand:wikidata": "Q7569773"}, "geometry": {"type": "Point", "coordinates": [-1.408859035163914, 50.90877670869978]}},
{"type": "Feature", "id": "IRYZxOlcXwuJt2dxcWdQLlWvHs8=", "properties": {"ref": "https://stores.thesouthernco-operative.co.uk/hampshire/southampton/63-long-lane.html", "@spider": "southern_coop", "addr:street_address": "63 Long Lane Holbury", "addr:city": "Southampton", "addr:postcode": "SO45 2LG", "addr:country": "GB", "name": "The Co-operative Food Holbury Long Lane", "phone": "023 8089 3471", "website": "https://stores.thesouthernco-operative.co.uk/hampshire/southampton/63-long-lane.html", "opening_hours": "Mo-Su 06:00-22:00", "image": "https://dynl.mktgcdn.com/p/GpRlyVYuf2hHwuWtMzojdaoLMUasWhJ3LBrIQ5SMZbY/600x600.png", "brand": "Southern Co-op", "brand:wikidata": "Q7569773"}, "geometry": {"type": "Point", "coordinates": [-1.3805276155471802, 50.83163347180703]}},
{"type": "Feature", "id": "ZQRb05jzyL9Mza33sXGM2QUYinA=", "properties": {"ref": "https://stores.thesouthernco-operative.co.uk/hampshire/southampton/32--archers-road.html", "@spider": "southern_coop", "addr:street_address": "32, Archers Road", "addr:city": "Southampton", "addr:postcode": "SO15 2LT", "addr:country": "GB", "name": "The Co-operative Food Southampton Archers Road", "phone": "023 8023 4694", "website": "https://stores.thesouthernco-operative.co.uk/hampshire/southampton/32--archers-road.html", "opening_hours": "Mo-Su 07:00-22:00", "image": "https://dynl.mktgcdn.com/p/GpRlyVYuf2hHwuWtMzojdaoLMUasWhJ3LBrIQ5SMZbY/600x600.png", "brand": "Southern Co-op", "brand:wikidata": "Q7569773"}, "geometry": {"type": "Point", "coordinates": [-1.4089536666870117, 50.91610962699841]}},
{"type": "Feature", "id": "4qYmQd3NFzVjNB0WnTD7JX4J38A=", "properties": {"ref": "https://stores.thesouthernco-operative.co.uk/hampshire/southampton/3--high-street.html", "@spider": "southern_coop", "addr:street_address": "3, High Street West End", "addr:city": "Southampton", "addr:postcode": "SO30 3AA", "addr:country": "GB", "name": "The Co-operative Food West End High Street", "phone": "023 8046 2854", "website": "https://stores.thesouthernco-operative.co.uk/hampshire/southampton/3--high-street.html", "opening_hours": "Mo-Su 07:00-22:00", "image": "https://dynl.mktgcdn.com/p/GpRlyVYuf2hHwuWtMzojdaoLMUasWhJ3LBrIQ5SMZbY/600x600.png", "brand": "Southern Co-op", "brand:wikidata": "Q7569773"}, "geometry": {"type": "Point", "coordinates": [-1.3434104, 50.9293065]}},
{"type": "Feature", "id": "QYuyQWRiFuoQ4Xv2iYBSE86nI00=", "properties": {"ref": "https://stores.thesouthernco-operative.co.uk/hampshire/southampton/117-high-street.html", "@spider": "southern_coop", "addr:street_address": "117 High Street", "addr:city": "Southampton", "addr:postcode": "SO14 2EA", "addr:country": "GB", "name": "The Co-operative Food Southampton High Street", "phone": "023 8022 5539", "website": "https://stores.thesouthernco-operative.co.uk/hampshire/southampton/117-high-street.html", "opening_hours": "Mo-Su 07:00-22:00", "image": "https://dynl.mktgcdn.com/p/GpRlyVYuf2hHwuWtMzojdaoLMUasWhJ3LBrIQ5SMZbY/600x600.png", "brand": "Southern Co-op", "brand:wikidata": "Q7569773"}, "geometry": {"type": "Point", "coordinates": [-1.4041726291179657, 50.89822197321012]}},
{"type": "Feature", "id": "6rJiIXqFy_e2a4WFtw8IZKgAgqE=", "properties": {"ref": "https://stores.thesouthernco-operative.co.uk/hampshire/southampton/1---5-seymour-parade.html", "@spider": "southern_coop", "addr:street_address": "1 - 5 Seymour Parade North Baddesley", "addr:city": "Southampton", "addr:postcode": "SO52 9FN", "addr:country": "GB", "name": "The Co-operative Food North Baddesley Seymour Parade", "phone": "023 8073 2652", "website": "https://stores.thesouthernco-operative.co.uk/hampshire/southampton/1---5-seymour-parade.html", "opening_hours": "Mo-Su 07:00-22:00", "image": "https://dynl.mktgcdn.com/p/GpRlyVYuf2hHwuWtMzojdaoLMUasWhJ3LBrIQ5SMZbY/600x600.png", "brand": "Southern Co-op", "brand:wikidata": "Q7569773"}, "geometry": {"type": "Point", "coordinates": [-1.4489507675170898, 50.97613924249323]}},
{"type": "Feature", "id": "buX822MVOPX_PZD_7xq5sXPo1QQ=", "properties": {"ref": "https://stores.thesouthernco-operative.co.uk/hampshire/romsey/winchester-hill.html", "@spider": "southern_coop", "addr:street_address": "Winchester Hill", "addr:city": "Romsey", "addr:postcode": "SO51 7YY", "addr:country": "GB", "name": "The Co-operative Food Romsey Winchester Hill", "phone": "01794 517900", "website": "https://stores.thesouthernco-operative.co.uk/hampshire/romsey/winchester-hill.html", "opening_hours": "Mo-Su 07:00-22:00", "image": "https://dynl.mktgcdn.com/p/GpRlyVYuf2hHwuWtMzojdaoLMUasWhJ3LBrIQ5SMZbY/600x600.png", "brand": "Southern Co-op", "brand:wikidata": "Q7569773"}, "geometry": {"type": "Point", "coordinates": [-1.4810112118721008, 50.9934499692737]}},
{"type": "Feature", "id": "5gSFp6E2h-x8im7v_GB57Wjau4E=", "properties": {"ref": "https://stores.thesouthernco-operative.co.uk/hampshire/romsey/botley-road.html", "@spider": "southern_coop", "addr:street_address": "Botley Road", "addr:city": "Romsey", "addr:postcode": "SO51 5AB", "addr:country": "GB", "name": "The Co-operative Food Romsey Botley Road", "phone": "01794 513465", "website": "https://stores.thesouthernco-operative.co.uk/hampshire/romsey/botley-road.html", "opening_hours": "Mo-Su 07:00-22:00", "image": "https://dynl.mktgcdn.com/p/GpRlyVYuf2hHwuWtMzojdaoLMUasWhJ3LBrIQ5SMZbY/600x600.png", "brand": "Southern Co-op", "brand:wikidata": "Q7569773"}, "geometry": {"type": "Point", "coordinates": [-1.4847244, 50.988369]}},
{"type": "Feature", "id": "Cdnsfnt4zpEm7PZW730bhIjhAWA=", "properties": {"ref": "https://stores.thesouthernco-operative.co.uk/hampshire/romsey/22-24-the-hundred.html", "@spider": "southern_coop", "addr:street_address": "22-24 The Hundred", "addr:city": "Romsey", "addr:postcode": "SO51 8BW", "addr:country": "GB", "name": "The Co-operative Food Romsey The Hundred", "phone": "01794 516064", "website": "https://stores.thesouthernco-operative.co.uk/hampshire/romsey/22-24-the-hundred.html", "opening_hours": "Mo-Su 07:00-22:00", "image": "https://dynl.mktgcdn.com/p/GpRlyVYuf2hHwuWtMzojdaoLMUasWhJ3LBrIQ5SMZbY/600x600.png", "brand": "Southern Co-op", "brand:wikidata": "Q7569773"}, "geometry": {"type": "Point", "coordinates": [-1.4980754256248474, 50.9890063954403]}},
{"type": "Feature", "id": "Qnj1kK7QVfXHQlhdDRGyEqbQFpk=", "properties": {"ref": "https://stores.thesouthernco-operative.co.uk/hampshire/romsey/19---20-warren-gardens.html", "@spider": "southern_coop", "addr:street_address": "19 - 20 Warren Gardens", "addr:city": "Romsey", "addr:postcode": "SO51 7TR", "addr:country": "GB", "name": "The Co-operative Food Romsey Warren Gardens", "phone": "01794 513715", "website": "https://stores.thesouthernco-operative.co.uk/hampshire/romsey/19---20-warren-gardens.html", "opening_hours": "Mo-Su 07:00-22:00", "image": "https://dynl.mktgcdn.com/p/GpRlyVYuf2hHwuWtMzojdaoLMUasWhJ3LBrIQ5SMZbY/600x600.png", "brand": "Southern Co-op", "brand:wikidata": "Q7569773"}, "geometry": {"type": "Point", "coordinates": [-1.4762328641245404, 50.99962514467201]}},
{"type": "Feature", "id": "Vtyu6IDTUL0rijKWeNeQhmgORX0=", "properties": {"ref": "https://stores.thesouthernco-operative.co.uk/hampshire/romsey/16-abbotswood-common-road.html", "@spider": "southern_coop", "addr:street_address": "16 Abbotswood Common Road,", "addr:city": "Romsey", "addr:postcode": "SO51 0BX", "addr:country": "GB", "name": "The Co-operative Food Romsey Abbottswood Common Road", "phone": "01794 515514", "website": "https://stores.thesouthernco-operative.co.uk/hampshire/romsey/16-abbotswood-common-road.html", "opening_hours": "Mo-Su 07:00-22:00", "image": "https://dynl.mktgcdn.com/p/GpRlyVYuf2hHwuWtMzojdaoLMUasWhJ3LBrIQ5SMZbY/600x600.png", "brand": "Southern Co-op", "brand:wikidata": "Q7569773"}, "geometry": {"type": "Point", "coordinates": [-1.4736415, 51.003709]}},
{"type": "Feature", "id": "cUFxaWj8kz08I4coJW4fZR8jVSE=", "properties": {"ref": "https://stores.thesouthernco-operative.co.uk/hampshire/portsmouth/central-square.html", "@spider": "southern_coop", "addr:street_address": "Central Square Western Road", "addr:city": "Portsmouth", "addr:postcode": "PO6 3FE", "addr:country": "GB", "name": "The Co-operative Food Portsmouth Western Road", "phone": "023 9232 4346", "website": "https://stores.thesouthernco-operative.co.uk/hampshire/portsmouth/central-square.html", "opening_hours": "Mo-Fr 07:30-17:30", "image": "https://dynl.mktgcdn.com/p/GpRlyVYuf2hHwuWtMzojdaoLMUasWhJ3LBrIQ5SMZbY/600x600.png", "brand": "Southern Co-op", "brand:wikidata": "Q7569773"}, "geometry": {"type": "Point", "coordinates": [-1.0822069, 50.841127]}},
{"type": "Feature", "id": "LyFFzNPkKKxEvQ-id7evDKfsqAw=", "properties": {"ref": "https://stores.thesouthernco-operative.co.uk/hampshire/portsmouth/48-tregaron-avenue.html", "@spider": "southern_coop", "addr:street_address": "48 Tregaron Avenue East Cosham", "addr:city": "Portsmouth", "addr:postcode": "PO6 2NE", "addr:country": "GB", "name": "The Co-operative Food Portsmouth Tregaron Avenue", "phone": "023 9237 5393", "website": "https://stores.thesouthernco-operative.co.uk/hampshire/portsmouth/48-tregaron-avenue.html", "opening_hours": "Mo-Su 07:00-22:00", "image": "https://dynl.mktgcdn.com/p/GpRlyVYuf2hHwuWtMzojdaoLMUasWhJ3LBrIQ5SMZbY/600x600.png", "brand": "Southern Co-op", "brand:wikidata": "Q7569773"}, "geometry": {"type": "Point", "coordinates": [-1.0541252001075918, 50.842813064701026]}},
{"type": "Feature", "id": "Fx2XFaTPv5amUgmM8uurThLwVqw=", "properties": {"ref": "https://stores.thesouthernco-operative.co.uk/hampshire/portsmouth/331---333-copnor-road.html", "@spider": "southern_coop", "addr:street_address": "331 - 333 Copnor Road Copnor", "addr:city": "Portsmouth", "addr:postcode": "PO3 5EQ", "addr:country": "GB", "name": "The Co-operative Food Portsmouth Copnor Road 331", "phone": "023 9266 9793", "website": "https://stores.thesouthernco-operative.co.uk/hampshire/portsmouth/331---333-copnor-road.html", "opening_hours": "Mo-Su 06:30-22:00", "image": "https://dynl.mktgcdn.com/p/GpRlyVYuf2hHwuWtMzojdaoLMUasWhJ3LBrIQ5SMZbY/600x600.png", "brand": "Southern Co-op", "brand:wikidata": "Q7569773"}, "geometry": {"type": "Point", "coordinates": [-1.0654452, 50.8219844]}},
{"type": "Feature", "id": "RZtsjL27cpNw15Gmpueo9UVzwSU=", "properties": {"ref": "https://stores.thesouthernco-operative.co.uk/hampshire/portsmouth/28---30-tangier-road.html", "@spider": "southern_coop", "addr:street_address": "28 - 30 Tangier Road", "addr:city": "Portsmouth", "addr:postcode": "PO3 6JN", "addr:country": "GB", "name": "The Co-operative Food Portsmouth Tangier Road", "phone": "023 9266 9795", "website": "https://stores.thesouthernco-operative.co.uk/hampshire/portsmouth/28---30-tangier-road.html", "opening_hours": "Mo-Su 06:30-22:00", "image": "https://dynl.mktgcdn.com/p/GpRlyVYuf2hHwuWtMzojdaoLMUasWhJ3LBrIQ5SMZbY/600x600.png", "brand": "Southern Co-op", "brand:wikidata": "Q7569773"}, "geometry": {"type": "Point", "coordinates": [-1.060790866613388, 50.80858142456691]}},
{"type": "Feature", "id": "2e8FPDX2oNtV5FoFpFhOHQYX7Fc=", "properties": {"ref": "https://stores.thesouthernco-operative.co.uk/hampshire/portsmouth/236-238-twyford-ave.html", "@spider": "southern_coop", "addr:street_address": "236-238 Twyford Ave Tipner", "addr:city": "Portsmouth", "addr:postcode": "PO2 8NR", "addr:country": "GB", "name": "The Co-operative Food Portsmouth Twyford Avenue", "phone": "023 9266 9324", "website": "https://stores.thesouthernco-operative.co.uk/hampshire/portsmouth/236-238-twyford-ave.html", "opening_hours": "Mo-Su 07:00-22:00", "image": "https://dynl.mktgcdn.com/p/GpRlyVYuf2hHwuWtMzojdaoLMUasWhJ3LBrIQ5SMZbY/600x600.png", "brand": "Southern Co-op", "brand:wikidata": "Q7569773"}, "geometry": {"type": "Point", "coordinates": [-1.0842948895492555, 50.81936512382261]}},
{"type": "Feature", "id": "5JIf8YDtKgAULDGdKHxRwMUswz4=", "properties": {"ref": "https://stores.thesouthernco-operative.co.uk/hampshire/portsmouth/22-the-hard.html", "@spider": "southern_coop", "addr:street_address": "22 The Hard", "addr:city": "Portsmouth", "addr:postcode": "PO1 3DT", "addr:country": "GB", "name": "The Co-operative Food Portsmouth The Hard", "phone": "023 9286 1756", "website": "https://stores.thesouthernco-operative.co.uk/hampshire/portsmouth/22-the-hard.html", "opening_hours": "Mo-Su 06:00-22:00", "image": "https://dynl.mktgcdn.com/p/GpRlyVYuf2hHwuWtMzojdaoLMUasWhJ3LBrIQ5SMZbY/600x600.png", "brand": "Southern Co-op", "brand:wikidata": "Q7569773"}, "geometry": {"type": "Point", "coordinates": [-1.1060598492622375, 50.797842851077256]}},
{"type": "Feature", "id": "EiyZRvoR3ZuZlBg8Z_xPTSqmDK0=", "properties": {"ref": "https://stores.thesouthernco-operative.co.uk/hampshire/portsmouth/192-havant-rd.html", "@spider": "southern_coop", "addr:street_address": "192 Havant Rd Drayton", "addr:city": "Portsmouth", "addr:postcode": "PO6 2EH", "addr:country": "GB", "name": "The Co-operative Food Drayton Havant Road", "phone": "023 9232 6032", "website": "https://stores.thesouthernco-operative.co.uk/hampshire/portsmouth/192-havant-rd.html", "opening_hours": "Mo-Su 07:00-22:00", "image": "https://dynl.mktgcdn.com/p/GpRlyVYuf2hHwuWtMzojdaoLMUasWhJ3LBrIQ5SMZbY/600x600.png", "brand": "Southern Co-op", "brand:wikidata": "Q7569773"}, "geometry": {"type": "Point", "coordinates": [-1.0502108931541443, 50.84631296648687]}},
{"type": "Feature", "id": "Ursb32H642aZeHFsNc86_XCYUr8=", "properties": {"ref": "https://stores.thesouthernco-operative.co.uk/hampshire/portsmouth/190-northern-parade.html", "@spider": "southern_coop", "addr:street_address": "190 Northern Parade", "addr:city": "Portsmouth", "addr:postcode": "PO2 9LU", "addr:country": "GB", "name": "The Co-operative Food Portsmouth Northern Parade", "phone": "023 9263 9862", "website": "https://stores.thesouthernco-operative.co.uk/hampshire/portsmouth/190-northern-parade.html", "opening_hours": "Mo-Su 06:00-22:00", "image": "https://dynl.mktgcdn.com/p/GpRlyVYuf2hHwuWtMzojdaoLMUasWhJ3LBrIQ5SMZbY/600x600.png", "brand": "Southern Co-op", "brand:wikidata": "Q7569773"}, "geometry": {"type": "Point", "coordinates": [-1.07416570186615, 50.83042811345512]}},
{"type": "Feature", "id": "kgOJsgp6iYdWoIyDNbOXYMsU7Mg=", "properties": {"ref": "https://stores.thesouthernco-operative.co.uk/hampshire/portsmouth/154---158-new-road.html", "@spider": "southern_coop", "addr:street_address": "154 - 158 New Road", "addr:city": "Portsmouth", "addr:postcode": "PO2 7RJ", "addr:country": "GB", "name": "The Co-operative Food Portsmouth New Road", "phone": "023 9275 2339", "website": "https://stores.thesouthernco-operative.co.uk/hampshire/portsmouth/154---158-new-road.html", "opening_hours": "Mo-Su 06:30-22:00", "image": "https://dynl.mktgcdn.com/p/GpRlyVYuf2hHwuWtMzojdaoLMUasWhJ3LBrIQ5SMZbY/600x600.png", "brand": "Southern Co-op", "brand:wikidata": "Q7569773"}, "geometry": {"type": "Point", "coordinates": [-1.0712581872940063, 50.809068712491225]}},
{"type": "Feature", "id": "rreSypt8L_egStPC36dXDAekfkk=", "properties": {"ref": "https://stores.thesouthernco-operative.co.uk/hampshire/portsmouth/1000-lakeside.html", "@spider": "southern_coop", "addr:street_address": "1000 Lakeside Western Road", "addr:city": "Portsmouth", "addr:postcode": "PO6 3FE", "addr:country": "GB", "name": "The Co-operative Food High Street", "phone": "023 9222 2500", "website": "https://stores.thesouthernco-operative.co.uk/hampshire/portsmouth/1000-lakeside.html", "opening_hours": "Mo-Fr 09:00-17:00", "image": "https://dynl.mktgcdn.com/p/GpRlyVYuf2hHwuWtMzojdaoLMUasWhJ3LBrIQ5SMZbY/600x600.png", "brand": "Southern Co-op", "brand:wikidata": "Q7569773"}, "geometry": {"type": "Point", "coordinates": [-1.08257747962341, 50.840540148678755]}},
{"type": "Feature", "id": "ZjEZI-0PLK3I5P1nf37cXeVmUUU=", "properties": {"ref": "https://stores.thesouthernco-operative.co.uk/hampshire/petersfield/11-the-crundles.html", "@spider": "southern_coop", "addr:street_address": "11 The Crundles Moggs Mead", "addr:city": "Petersfield", "addr:postcode": "GU31 4PJ", "addr:country": "GB", "name": "The Co-operative Food Moggs Mead The Crundles", "phone": "01730 269739", "website": "https://stores.thesouthernco-operative.co.uk/hampshire/petersfield/11-the-crundles.html", "opening_hours": "Mo-Su 07:00-22:00", "image": "https://dynl.mktgcdn.com/p/GpRlyVYuf2hHwuWtMzojdaoLMUasWhJ3LBrIQ5SMZbY/600x600.png", "brand": "Southern Co-op", "brand:wikidata": "Q7569773"}, "geometry": {"type": "Point", "coordinates": [-0.9255605936050415, 51.00553933358851]}},
{"type": "Feature", "id": "p9fiAsuymscaiB_5KlHF94gVQ-c=", "properties": {"ref": "https://stores.thesouthernco-operative.co.uk/hampshire/lyndhurst/32--highstreet.html", "@spider": "southern_coop", "addr:street_address": "32, HighStreet,", "addr:city": "Lyndhurst", "addr:postcode": "SO43 7BG", "addr:country": "GB", "name": "The Co-operative Food Lyndhurst, High Street Lyndhurst", "phone": "023 8028 2159", "website": "https://stores.thesouthernco-operative.co.uk/hampshire/lyndhurst/32--highstreet.html", "opening_hours": "Mo-Su 07:00-22:00", "image": "https://dynl.mktgcdn.com/p/Ouz8Zai18BuoK3QtrHdRKeWmc4zJD1lUyBX8jTMCy70/500x500.png", "brand": "Southern Co-op", "brand:wikidata": "Q7569773"}, "geometry": {"type": "Point", "coordinates": [-1.575663153442406, 50.872497785880014]}},
{"type": "Feature", "id": "gIF6s5DRhpze04jsl7t8JMOERiY=", "properties": {"ref": "https://stores.thesouthernco-operative.co.uk/hampshire/lymington/45-high-street.html", "@spider": "southern_coop", "addr:street_address": "45 High Street Milford On Sea", "addr:city": "Lymington", "addr:postcode": "SO41 0QG", "addr:country": "GB", "name": "The Co-operative Food Milford on Sea High Street", "phone": "01590 643218", "website": "https://stores.thesouthernco-operative.co.uk/hampshire/lymington/45-high-street.html", "opening_hours": "Mo-Su 07:00-22:00", "image": "https://dynl.mktgcdn.com/p/GpRlyVYuf2hHwuWtMzojdaoLMUasWhJ3LBrIQ5SMZbY/600x600.png", "brand": "Southern Co-op", "brand:wikidata": "Q7569773"}, "geometry": {"type": "Point", "coordinates": [-1.5885141491889954, 50.72551831461054]}},
{"type": "Feature", "id": "b7MeC2pM9Yh0F23sjY5nHojoUJo=", "properties": {"ref": "https://stores.thesouthernco-operative.co.uk/hampshire/liphook/64-headley-road.html", "@spider": "southern_coop", "addr:street_address": "64 Headley Road", "addr:city": "Liphook", "addr:postcode": "GU30 7NP", "addr:country": "GB", "name": "The Co-operative Food Liphook Headley Road", "phone": "01428 722905", "website": "https://stores.thesouthernco-operative.co.uk/hampshire/liphook/64-headley-road.html", "opening_hours": "Mo-Su 07:00-22:00", "image": "https://dynl.mktgcdn.com/p/GpRlyVYuf2hHwuWtMzojdaoLMUasWhJ3LBrIQ5SMZbY/600x600.png", "brand": "Southern Co-op", "brand:wikidata": "Q7569773"}, "geometry": {"type": "Point", "coordinates": [-0.8045125007629395, 51.08035165319084]}},
{"type": "Feature", "id": "Klt7HcIHJo0OvTry5OH8CK0uHMs=", "properties": {"ref": "https://stores.thesouthernco-operative.co.uk/hampshire/lee-on-solent/unit-a-twyford-drive.html", "@spider": "southern_coop", "addr:street_address": "Unit A Twyford Drive Cherque Farm", "addr:city": "Lee On Solent", "addr:postcode": "PO13 8AT", "addr:country": "GB", "name": "The Co-operative Food Lee on Solent Twyford Drive", "phone": "023 9255 4713", "website": "https://stores.thesouthernco-operative.co.uk/hampshire/lee-on-solent/unit-a-twyford-drive.html", "opening_hours": "Mo-Su 07:00-22:00", "image": "https://dynl.mktgcdn.com/p/GpRlyVYuf2hHwuWtMzojdaoLMUasWhJ3LBrIQ5SMZbY/600x600.png", "brand": "Southern Co-op", "brand:wikidata": "Q7569773"}, "geometry": {"type": "Point", "coordinates": [-1.1923116445541382, 50.80505161332287]}},
{"type": "Feature", "id": "G7ho_QqTofwDswXg6GiRIeSa-aw=", "properties": {"ref": "https://stores.thesouthernco-operative.co.uk/hampshire/lee-on-solent/119---121-high-street.html", "@spider": "southern_coop", "addr:street_address": "119 - 121 High Street", "addr:city": "Lee On Solent", "addr:postcode": "PO13 9BU", "addr:country": "GB", "name": "The Co-operative Food Lee on Solent High Street", "phone": "023 9255 0157", "website": "https://stores.thesouthernco-operative.co.uk/hampshire/lee-on-solent/119---121-high-street.html", "opening_hours": "Mo-Sa 07:00-22:00; Su 10:00-16:00", "image": "https://dynl.mktgcdn.com/p/GpRlyVYuf2hHwuWtMzojdaoLMUasWhJ3LBrIQ5SMZbY/600x600.png", "brand": "Southern Co-op", "brand:wikidata": "Q7569773"}, "geometry": {"type": "Point", "coordinates": [-1.201903223991394, 50.80149949803911]}},
{"type": "Feature", "id": "mw6gc0LtYjf36vlBwmD1qYk6tR0=", "properties": {"ref": "https://stores.thesouthernco-operative.co.uk/hampshire/hayling-island/140-elm-grove.html", "@spider": "southern_coop", "addr:street_address": "140 Elm Grove", "addr:city": "Hayling Island", "addr:postcode": "PO11 9EH", "addr:country": "GB", "name": "The Co-operative Food Hayling Island Elm Grove", "phone": "023 9246 3730", "website": "https://stores.thesouthernco-operative.co.uk/hampshire/hayling-island/140-elm-grove.html", "opening_hours": "Mo-Sa 07:00-22:00; Su 10:00-16:00", "image": "https://dynl.mktgcdn.com/p/GpRlyVYuf2hHwuWtMzojdaoLMUasWhJ3LBrIQ5SMZbY/600x600.png", "brand": "Southern Co-op", "brand:wikidata": "Q7569773"}, "geometry": {"type": "Point", "coordinates": [-0.9763415157794952, 50.793678976990684]}},
{"type": "Feature", "id": "Rj2jLT9qwW5FdcUlsJ0UU7t6Qbk=", "properties": {"ref": "https://stores.thesouthernco-operative.co.uk/hampshire/havant/55-st-albans-road.html", "@spider": "southern_coop", "addr:street_address": "55 St Albans Road West Leigh", "addr:city": "Havant", "addr:postcode": "PO9 2JR", "addr:country": "GB", "name": "The Co-operative Food Havant St Albans Road", "phone": "023 9245 0897", "website": "https://stores.thesouthernco-operative.co.uk/hampshire/havant/55-st-albans-road.html", "opening_hours": "Mo-Su 07:00-22:00", "image": "https://dynl.mktgcdn.com/p/GpRlyVYuf2hHwuWtMzojdaoLMUasWhJ3LBrIQ5SMZbY/600x600.png", "brand": "Southern Co-op", "brand:wikidata": "Q7569773"}, "geometry": {"type": "Point", "coordinates": [-0.974261462688446, 50.86266644393419]}},
{"type": "Feature", "id": "ARQRNYaAkKVAjqO8PrZlcInV6gw=", "properties": {"ref": "https://stores.thesouthernco-operative.co.uk/hampshire/havant/13-middle-park-way.html", "@spider": "southern_coop", "addr:street_address": "13 Middle Park Way Leigh Park", "addr:city": "Havant", "addr:postcode": "PO9 4AB", "addr:country": "GB", "name": "The Co-operative Food Havant Middle Park Way", "phone": "023 9248 3738", "website": "https://stores.thesouthernco-operative.co.uk/hampshire/havant/13-middle-park-way.html", "opening_hours": "Mo-Sa 06:00-22:00; Su 07:00-22:00", "image": "https://dynl.mktgcdn.com/p/GpRlyVYuf2hHwuWtMzojdaoLMUasWhJ3LBrIQ5SMZbY/600x600.png", "brand": "Southern Co-op", "brand:wikidata": "Q7569773"}, "geometry": {"type": "Point", "coordinates": [-0.9999194741249084, 50.86511270736346]}},
{"type": "Feature", "id": "Su59DQFDs0fg2PlUfJt2lSneBIE=", "properties": {"ref": "https://stores.thesouthernco-operative.co.uk/hampshire/gosport/84-gregson-avenue.html", "@spider": "southern_coop", "addr:street_address": "84 Gregson Avenue Bridgemary", "addr:city": "Gosport", "addr:postcode": "PO13 0UP", "addr:country": "GB", "name": "The Co-operative Food Bridgemary Gregson Avenue", "phone": "01329 232145", "website": "https://stores.thesouthernco-operative.co.uk/hampshire/gosport/84-gregson-avenue.html", "opening_hours": "Mo-Sa 06:00-22:00; Su 07:00-22:00", "image": "https://dynl.mktgcdn.com/p/GpRlyVYuf2hHwuWtMzojdaoLMUasWhJ3LBrIQ5SMZbY/600x600.png", "brand": "Southern Co-op", "brand:wikidata": "Q7569773"}, "geometry": {"type": "Point", "coordinates": [-1.170019805431366, 50.82851540083243]}},
{"type": "Feature", "id": "MLAQaQLBBPnmu2FZidfm8-vGXts=", "properties": {"ref": "https://stores.thesouthernco-operative.co.uk/hampshire/gosport/66-palmyra-road.html", "@spider": "southern_coop", "addr:street_address": "66 Palmyra Road Elson", "addr:city": "Gosport", "addr:postcode": "PO12 4EH", "addr:country": "GB", "name": "The Co-operative Food Gosport Palmyra Road", "phone": "023 9258 2806", "website": "https://stores.thesouthernco-operative.co.uk/hampshire/gosport/66-palmyra-road.html", "opening_hours": "Mo-Sa 06:00-22:00; Su 07:00-22:00", "image": "https://dynl.mktgcdn.com/p/GpRlyVYuf2hHwuWtMzojdaoLMUasWhJ3LBrIQ5SMZbY/600x600.png", "brand": "Southern Co-op", "brand:wikidata": "Q7569773"}, "geometry": {"type": "Point", "coordinates": [-1.145147681236267, 50.80863311970075]}},
{"type": "Feature", "id": "ynWneuNt4Bsj7khVPkRuLE-f0n0=", "properties": {"ref": "https://stores.thesouthernco-operative.co.uk/hampshire/gosport/268-forton-road.html", "@spider": "southern_coop", "addr:street_address": "268 Forton Road", "addr:city": "Gosport", "addr:postcode": "PO12 3HW", "addr:country": "GB", "name": "The Co-operative Food Gosport Forton Road 268", "phone": "023 9258 1033", "website": "https://stores.thesouthernco-operative.co.uk/hampshire/gosport/268-forton-road.html", "opening_hours": "Mo-Su 06:00-22:00", "image": "https://dynl.mktgcdn.com/p/GpRlyVYuf2hHwuWtMzojdaoLMUasWhJ3LBrIQ5SMZbY/600x600.png", "brand": "Southern Co-op", "brand:wikidata": "Q7569773"}, "geometry": {"type": "Point", "coordinates": [-1.1486372351646423, 50.80353621277306]}},
{"type": "Feature", "id": "fRIIoh8bzfwVKVtid6CvJBF7nqI=", "properties": {"ref": "https://stores.thesouthernco-operative.co.uk/hampshire/gosport/1-dartmouth-court.html", "@spider": "southern_coop", "addr:street_address": "1 Dartmouth Court Priddy's Hard", "addr:city": "Gosport", "addr:postcode": "PO12 4BQ", "addr:country": "GB", "name": "The Co-operative Food Gosport Dartmouth Court", "phone": "023 9252 9988", "website": "https://stores.thesouthernco-operative.co.uk/hampshire/gosport/1-dartmouth-court.html", "opening_hours": "Mo-Su 07:00-22:00", "image": "https://dynl.mktgcdn.com/p/GpRlyVYuf2hHwuWtMzojdaoLMUasWhJ3LBrIQ5SMZbY/600x600.png", "brand": "Southern Co-op", "brand:wikidata": "Q7569773"}, "geometry": {"type": "Point", "coordinates": [-1.132892668247223, 50.80888227249441]}},
{"type": "Feature", "id": "1JSHz6P4Rlf2o6AoXMoF8QLKxsU=", "properties": {"ref": "https://stores.thesouthernco-operative.co.uk/hampshire/fordingbridge/1-ringwood-road.html", "@spider": "southern_coop", "addr:street_address": "1 Ringwood Road", "addr:city": "Fordingbridge", "addr:postcode": "SP6 3DF", "addr:country": "GB", "name": "The Co-operative Food Alderholt Ringwood Road", "phone": "01425 655989", "website": "https://stores.thesouthernco-operative.co.uk/hampshire/fordingbridge/1-ringwood-road.html", "opening_hours": "Mo-Su 07:00-22:00", "image": "https://dynl.mktgcdn.com/p/GpRlyVYuf2hHwuWtMzojdaoLMUasWhJ3LBrIQ5SMZbY/600x600.png", "brand": "Southern Co-op", "brand:wikidata": "Q7569773"}, "geometry": {"type": "Point", "coordinates": [-1.837136149406433, 50.911469239477064]}},
{"type": "Feature", "id": "NzcSXPVCKrPHAELPrmfFwNrMKfE=", "properties": {"ref": "https://stores.thesouthernco-operative.co.uk/hampshire/fleet/100-aldershot-road.html", "@spider": "southern_coop", "addr:street_address": "100 Aldershot Road", "addr:city": "Fleet", "addr:postcode": "GU52 8JX", "addr:country": "GB", "name": "The Co-operative Food Church Crookham Aldershot Road", "phone": "01252 810943", "website": "https://stores.thesouthernco-operative.co.uk/hampshire/fleet/100-aldershot-road.html", "opening_hours": "Mo-Su 07:00-22:00", "image": "https://dynl.mktgcdn.com/p/GpRlyVYuf2hHwuWtMzojdaoLMUasWhJ3LBrIQ5SMZbY/600x600.png", "brand": "Southern Co-op", "brand:wikidata": "Q7569773"}, "geometry": {"type": "Point", "coordinates": [-0.8371222, 51.2603099]}},
{"type": "Feature", "id": "_XpmITyPyv9UZcadBn9YLfVpKkE=", "properties": {"ref": "https://stores.thesouthernco-operative.co.uk/hampshire/fareham/unit-1--yew-tree-drive.html", "@spider": "southern_coop", "addr:street_address": "Unit 1, Yew Tree Drive Whiteley", "addr:city": "Fareham", "addr:postcode": "PO15 7LB", "addr:country": "GB", "name": "The Co-operative Food Whiteley Yew Tree Drive", "phone": "01489 564197", "website": "https://stores.thesouthernco-operative.co.uk/hampshire/fareham/unit-1--yew-tree-drive.html", "opening_hours": "Mo-Su 07:00-22:00", "image": "https://dynl.mktgcdn.com/p/GpRlyVYuf2hHwuWtMzojdaoLMUasWhJ3LBrIQ5SMZbY/600x600.png", "brand": "Southern Co-op", "brand:wikidata": "Q7569773"}, "geometry": {"type": "Point", "coordinates": [-1.2578192353248596, 50.88132082611526]}},
{"type": "Feature", "id": "MEv7Ydg51tlnAXe-ZIevrW5INoA=", "properties": {"ref": "https://stores.thesouthernco-operative.co.uk/hampshire/fareham/44-the-square.html", "@spider": "southern_coop", "addr:street_address": "44 The Square Titchfield", "addr:city": "Fareham", "addr:postcode": "PO14 4AF", "addr:country": "GB", "name": "The Co-operative Food Titchfield The Square", "phone": "01329 842708", "website": "https://stores.thesouthernco-operative.co.uk/hampshire/fareham/44-the-square.html", "opening_hours": "Mo-Su 07:00-22:00", "image": "https://dynl.mktgcdn.com/p/GpRlyVYuf2hHwuWtMzojdaoLMUasWhJ3LBrIQ5SMZbY/600x600.png", "brand": "Southern Co-op", "brand:wikidata": "Q7569773"}, "geometry": {"type": "Point", "coordinates": [-1.2341627, 50.8491895]}},
{"type": "Feature", "id": "H6icYt7W-U0NliAY_FwIzSr_TMk=", "properties": {"ref": "https://stores.thesouthernco-operative.co.uk/hampshire/fareham/4-the-square.html", "@spider": "southern_coop", "addr:street_address": "4 The Square Wickham", "addr:city": "Fareham", "addr:postcode": "PO17 5JN", "addr:country": "GB", "name": "The Co-operative Food Wickham The Square", "phone": "01329 832151", "website": "https://stores.thesouthernco-operative.co.uk/hampshire/fareham/4-the-square.html", "opening_hours": "Mo-Sa 07:00-22:00; Su 11:00-17:00", "image": "https://dynl.mktgcdn.com/p/GpRlyVYuf2hHwuWtMzojdaoLMUasWhJ3LBrIQ5SMZbY/600x600.png", "brand": "Southern Co-op", "brand:wikidata": "Q7569773"}, "geometry": {"type": "Point", "coordinates": [-1.1881662905216217, 50.899834951598315]}},
{"type": "Feature", "id": "huGms2Fsrca_TKDY8GJd8N4jJr0=", "properties": {"ref": "https://stores.thesouthernco-operative.co.uk/hampshire/fareham/242-white-hart-lane.html", "@spider": "southern_coop", "addr:street_address": "242 White Hart Lane Portchester", "addr:city": "Fareham", "addr:postcode": "PO16 9AR", "addr:country": "GB", "name": "The Co-operative Food Portchester White Hart Lane", "phone": "023 9238 3565", "website": "https://stores.thesouthernco-operative.co.uk/hampshire/fareham/242-white-hart-lane.html", "opening_hours": "Mo-Sa 06:30-22:00; Su 07:00-22:00", "image": "https://dynl.mktgcdn.com/p/GpRlyVYuf2hHwuWtMzojdaoLMUasWhJ3LBrIQ5SMZbY/600x600.png", "brand": "Southern Co-op", "brand:wikidata": "Q7569773"}, "geometry": {"type": "Point", "coordinates": [-1.1367470026016235, 50.84342028656467]}},
{"type": "Feature", "id": "1IczxFR_P1f5zyG1VszTpu6LaYo=", "properties": {"ref": "https://stores.thesouthernco-operative.co.uk/hampshire/fareham/219-gudge-heath-lane.html", "@spider": "southern_coop", "addr:street_address": "219 Gudge Heath Lane Hill Park", "addr:city": "Fareham", "addr:postcode": "PO15 6PZ", "addr:country": "GB", "name": "The Co-operative Food Fareham Gudge Heath Lane", "phone": "01329 280959", "website": "https://stores.thesouthernco-operative.co.uk/hampshire/fareham/219-gudge-heath-lane.html", "opening_hours": "Mo-Su 06:30-22:00", "image": "https://dynl.mktgcdn.com/p/GpRlyVYuf2hHwuWtMzojdaoLMUasWhJ3LBrIQ5SMZbY/600x600.png", "brand": "Southern Co-op", "brand:wikidata": "Q7569773"}, "geometry": {"type": "Point", "coordinates": [-1.2079086899757385, 50.8605163348034]}},
{"type": "Feature", "id": "lowkfh--RVx66HCOO9FvBRBCrNA=", "properties": {"ref": "https://stores.thesouthernco-operative.co.uk/hampshire/emsworth/the-square.html", "@spider": "southern_coop", "addr:street_address": "The Square Westbourne", "addr:city": "Emsworth", "addr:postcode": "PO10 8UE", "addr:country": "GB", "name": "The Co-operative Food Westbourne The Square", "phone": "01243 372477", "website": "https://stores.thesouthernco-operative.co.uk/hampshire/emsworth/the-square.html", "opening_hours": "Mo-Su 07:00-22:00", "image": "https://dynl.mktgcdn.com/p/GpRlyVYuf2hHwuWtMzojdaoLMUasWhJ3LBrIQ5SMZbY/600x600.png", "brand": "Southern Co-op", "brand:wikidata": "Q7569773"}, "geometry": {"type": "Point", "coordinates": [-0.9263008832931519, 50.86172684151087]}},
{"type": "Feature", "id": "OlnSBX4UkVtpoKi99kCZlw1Snh4=", "properties": {"ref": "https://stores.thesouthernco-operative.co.uk/hampshire/emsworth/261-main-road.html", "@spider": "southern_coop", "addr:street_address": "261 Main Road Southbourne", "addr:city": "Emsworth", "addr:postcode": "PO10 8JD", "addr:country": "GB", "name": "The Co-operative Food Southbourne Main Road", "phone": "01243 375501", "website": "https://stores.thesouthernco-operative.co.uk/hampshire/emsworth/261-main-road.html", "opening_hours": "Mo-Su 06:30-22:00", "image": "https://dynl.mktgcdn.com/p/GpRlyVYuf2hHwuWtMzojdaoLMUasWhJ3LBrIQ5SMZbY/600x600.png", "brand": "Southern Co-op", "brand:wikidata": "Q7569773"}, "geometry": {"type": "Point", "coordinates": [-0.9102362, 50.8453791]}},
{"type": "Feature", "id": "BKFPhGtP-bIVCo8W8d79zQnk4hY=", "properties": {"ref": "https://stores.thesouthernco-operative.co.uk/hampshire/emsworth/2-high-street.html", "@spider": "southern_coop", "addr:street_address": "2 High Street", "addr:city": "Emsworth", "addr:postcode": "PO10 7AW", "addr:country": "GB", "name": "The Co-operative Food Emsworth High Street", "phone": "01243 372663", "website": "https://stores.thesouthernco-operative.co.uk/hampshire/emsworth/2-high-street.html", "opening_hours": "Mo-Su 07:00-22:00", "image": "https://dynl.mktgcdn.com/p/GpRlyVYuf2hHwuWtMzojdaoLMUasWhJ3LBrIQ5SMZbY/600x600.png", "brand": "Southern Co-op", "brand:wikidata": "Q7569773"}, "geometry": {"type": "Point", "coordinates": [-0.9368875622749329, 50.84725965357217]}},
{"type": "Feature", "id": "8oF3pUWTqOimbjWnTwnc5N8-je4=", "properties": {"ref": "https://stores.thesouthernco-operative.co.uk/hampshire/eastleigh/leigh-road.html", "@spider": "southern_coop", "addr:street_address": "Leigh Road", "addr:city": "Eastleigh", "addr:postcode": "SO50 5LN", "addr:country": "GB", "name": "The Co-operative Food Eastleigh Leigh Road", "phone": "023 8061 1179", "website": "https://stores.thesouthernco-operative.co.uk/hampshire/eastleigh/leigh-road.html", "opening_hours": "Mo-Su 06:30-22:00", "image": "https://dynl.mktgcdn.com/p/GpRlyVYuf2hHwuWtMzojdaoLMUasWhJ3LBrIQ5SMZbY/600x600.png", "brand": "Southern Co-op", "brand:wikidata": "Q7569773"}, "geometry": {"type": "Point", "coordinates": [-1.359855830669403, 50.96972797564535]}},
{"type": "Feature", "id": "jHliSskpvZJwg9Nzhu7Zk0uEYkU=", "properties": {"ref": "https://stores.thesouthernco-operative.co.uk/hampshire/eastleigh/6---8-the-parade.html", "@spider": "southern_coop", "addr:street_address": "6 - 8 The Parade Shakespeare Road", "addr:city": "Eastleigh", "addr:postcode": "SO50 4QP", "addr:country": "GB", "name": "The Co-operative Food Boyatt Wood The Parade", "phone": "023 8065 2083", "website": "https://stores.thesouthernco-operative.co.uk/hampshire/eastleigh/6---8-the-parade.html", "opening_hours": "Mo-Su 07:00-22:00", "image": "https://dynl.mktgcdn.com/p/GpRlyVYuf2hHwuWtMzojdaoLMUasWhJ3LBrIQ5SMZbY/600x600.png", "brand": "Southern Co-op", "brand:wikidata": "Q7569773"}, "geometry": {"type": "Point", "coordinates": [-1.359732449054718, 50.97770983411312]}},
{"type": "Feature", "id": "AaVwAnpTLDg2vSBfz8ueMEwPqUI=", "properties": {"ref": "https://stores.thesouthernco-operative.co.uk/hampshire/eastleigh/50-sandy-lane.html", "@spider": "southern_coop", "addr:street_address": "50 Sandy Lane Fair Oak", "addr:city": "Eastleigh", "addr:postcode": "SO50 8GB", "addr:country": "GB", "name": "The Co-operative Food Fairoak Sandy Lane", "phone": "023 8069 2854", "website": "https://stores.thesouthernco-operative.co.uk/hampshire/eastleigh/50-sandy-lane.html", "opening_hours": "Mo-Su 07:00-22:00", "image": "https://dynl.mktgcdn.com/p/GpRlyVYuf2hHwuWtMzojdaoLMUasWhJ3LBrIQ5SMZbY/600x600.png", "brand": "Southern Co-op", "brand:wikidata": "Q7569773"}, "geometry": {"type": "Point", "coordinates": [-1.3042872, 50.967783]}},
{"type": "Feature", "id": "XhChvEuoXIkJMIBVUfnjeWi41j8=", "properties": {"ref": "https://stores.thesouthernco-operative.co.uk/hampshire/eastleigh/5-falkland-court.html", "@spider": "southern_coop", "addr:street_address": "5 Falkland Court", "addr:city": "Eastleigh", "addr:postcode": "SO53 3GA", "addr:country": "GB", "name": "The Co-operative Food Chandlers Ford Falkland Court", "phone": "023 8026 9680", "website": "https://stores.thesouthernco-operative.co.uk/hampshire/eastleigh/5-falkland-court.html", "opening_hours": "Mo-Sa 06:00-22:00; Su 07:00-22:00", "image": "https://dynl.mktgcdn.com/p/GpRlyVYuf2hHwuWtMzojdaoLMUasWhJ3LBrIQ5SMZbY/600x600.png", "brand": "Southern Co-op", "brand:wikidata": "Q7569773"}, "geometry": {"type": "Point", "coordinates": [-1.382727026939392, 50.972006475067424]}},
{"type": "Feature", "id": "N68H8kEFcMozMVeGMSaF9eiBKcs=", "properties": {"ref": "https://stores.thesouthernco-operative.co.uk/hampshire/chandlers-ford/14-hursley-road.html", "@spider": "southern_coop", "addr:street_address": "14 Hursley Road", "addr:city": "Chandlers Ford", "addr:postcode": "SO53 2FU", "addr:country": "GB", "name": "The Co-operative Food Southampton Hursley Road", "phone": "023 8026 6468", "website": "https://stores.thesouthernco-operative.co.uk/hampshire/chandlers-ford/14-hursley-road.html", "opening_hours": "Mo-Su 07:00-22:00", "image": "https://dynl.mktgcdn.com/p/GpRlyVYuf2hHwuWtMzojdaoLMUasWhJ3LBrIQ5SMZbY/600x600.png", "brand": "Southern Co-op", "brand:wikidata": "Q7569773"}, "geometry": {"type": "Point", "coordinates": [-1.3854441046714783, 50.984508363157]}},
{"type": "Feature", "id": "aLGAgUa6vepr1E2eC8jwJCF8VKY=", "properties": {"ref": "https://stores.thesouthernco-operative.co.uk/hampshire/bishop-s-waltham/high-street.html", "@spider": "southern_coop", "addr:street_address": "High Street", "addr:city": "Bishop's Waltham", "addr:postcode": "SO32 1AB", "addr:country": "GB", "name": "The Co-operative Food Bishops Waltham High Street", "phone": "01489 895262", "website": "https://stores.thesouthernco-operative.co.uk/hampshire/bishop-s-waltham/high-street.html", "opening_hours": "Mo-Su 06:00-22:00", "image": "https://dynl.mktgcdn.com/p/GpRlyVYuf2hHwuWtMzojdaoLMUasWhJ3LBrIQ5SMZbY/600x600.png", "brand": "Southern Co-op", "brand:wikidata": "Q7569773"}, "geometry": {"type": "Point", "coordinates": [-1.2125784158706665, 50.95458130583411]}},
{"type": "Feature", "id": "vuogINXAMqlCx7BIomvQluFLDws=", "properties": {"ref": "https://stores.thesouthernco-operative.co.uk/hampshire/basingstoke/unit-3--limes-park.html", "@spider": "southern_coop", "addr:street_address": "Unit 3, Limes Park", "addr:city": "Basingstoke", "addr:postcode": "RG24 9RD", "addr:country": "GB", "name": "The Co-operative Food Rooksdown Limes Park", "phone": "01256 323721", "website": "https://stores.thesouthernco-operative.co.uk/hampshire/basingstoke/unit-3--limes-park.html", "opening_hours": "Mo-Su 06:30-22:00", "image": "https://dynl.mktgcdn.com/p/GpRlyVYuf2hHwuWtMzojdaoLMUasWhJ3LBrIQ5SMZbY/600x600.png", "brand": "Southern Co-op", "brand:wikidata": "Q7569773"}, "geometry": {"type": "Point", "coordinates": [-1.119922542327913, 51.281533611470465]}},
{"type": "Feature", "id": "09SsRS1H8PgtWAhRD4_88GwwNb0=", "properties": {"ref": "https://stores.thesouthernco-operative.co.uk/hampshire/basingstoke/98-franklin-avenue.html", "@spider": "southern_coop", "addr:street_address": "98 Franklin Avenue Tadley", "addr:city": "Basingstoke", "addr:postcode": "RG26 4EU", "addr:country": "GB", "name": "The Co-operative Food Tadley Franklin Avenue", "phone": "0118 981 7843", "website": "https://stores.thesouthernco-operative.co.uk/hampshire/basingstoke/98-franklin-avenue.html", "opening_hours": "Mo-Su 06:30-22:00", "image": "https://dynl.mktgcdn.com/p/GpRlyVYuf2hHwuWtMzojdaoLMUasWhJ3LBrIQ5SMZbY/600x600.png", "brand": "Southern Co-op", "brand:wikidata": "Q7569773"}, "geometry": {"type": "Point", "coordinates": [-1.1520684, 51.3570766]}},
{"type": "Feature", "id": "CpHgLbAH_rB2c27lpdpgZn7s9_g=", "properties": {"ref": "https://stores.thesouthernco-operative.co.uk/hampshire/basingstoke/57---58-broadmere-road.html", "@spider": "southern_coop", "addr:street_address": "57 - 58 Broadmere Road Beggarwood", "addr:city": "Basingstoke", "addr:postcode": "RG22 4AQ", "addr:country": "GB", "name": "The Co-operative Food Beggarwood Broadmere Road", "phone": "01256 398076", "website": "https://stores.thesouthernco-operative.co.uk/hampshire/basingstoke/57---58-broadmere-road.html", "opening_hours": "Mo-Su 07:00-22:00", "image": "https://dynl.mktgcdn.com/p/GpRlyVYuf2hHwuWtMzojdaoLMUasWhJ3LBrIQ5SMZbY/600x600.png", "brand": "Southern Co-op", "brand:wikidata": "Q7569773"}, "geometry": {"type": "Point", "coordinates": [-1.1422113329172134, 51.229572867654376]}},
{"type": "Feature", "id": "RoR3qentmVmuQyIAt5icFfHbzqo=", "properties": {"ref": "https://stores.thesouthernco-operative.co.uk/hampshire/basingstoke/56-high-street.html", "@spider": "southern_coop", "addr:street_address": "56 High Street Odiham", "addr:city": "Basingstoke", "addr:postcode": "RG29 1LN", "addr:country": "GB", "name": "The Co-operative Food Odiham High Street", "phone": "01256 704061", "website": "https://stores.thesouthernco-operative.co.uk/hampshire/basingstoke/56-high-street.html", "opening_hours": "Mo-Su 07:00-22:00", "image": "https://dynl.mktgcdn.com/p/GpRlyVYuf2hHwuWtMzojdaoLMUasWhJ3LBrIQ5SMZbY/600x600.png", "brand": "Southern Co-op", "brand:wikidata": "Q7569773"}, "geometry": {"type": "Point", "coordinates": [-0.9384982287883759, 51.25440917396466]}},
{"type": "Feature", "id": "nMg4Eiivwu9DXqManVuO1VDXPKY=", "properties": {"ref": "https://stores.thesouthernco-operative.co.uk/hampshire/basingstoke/37---39-kings-road.html", "@spider": "southern_coop", "addr:street_address": "37 - 39 Kings Road South Ham", "addr:city": "Basingstoke", "addr:postcode": "RG22 6DJ", "addr:country": "GB", "name": "The Co-operative Food Basingstoke Kings Road", "phone": "01256 322707", "website": "https://stores.thesouthernco-operative.co.uk/hampshire/basingstoke/37---39-kings-road.html", "opening_hours": "Mo-Su 06:30-22:00", "image": "https://dynl.mktgcdn.com/p/GpRlyVYuf2hHwuWtMzojdaoLMUasWhJ3LBrIQ5SMZbY/600x600.png", "brand": "Southern Co-op", "brand:wikidata": "Q7569773"}, "geometry": {"type": "Point", "coordinates": [-1.1104422016887838, 51.257097487180836]}},
{"type": "Feature", "id": "hR0fmxHUy0OCwutCNl597H3aNbA=", "properties": {"ref": "https://stores.thesouthernco-operative.co.uk/hampshire/basingstoke/2-wallingford-road.html", "@spider": "southern_coop", "addr:street_address": "2 Wallingford Road", "addr:city": "Basingstoke", "addr:postcode": "RG24 9QD", "addr:country": "GB", "name": "The Co-operative Food Basingstoke Wallingford Road", "phone": "01256 588400", "website": "https://stores.thesouthernco-operative.co.uk/hampshire/basingstoke/2-wallingford-road.html", "opening_hours": "Mo-Su 07:00-22:00", "image": "https://dynl.mktgcdn.com/p/GpRlyVYuf2hHwuWtMzojdaoLMUasWhJ3LBrIQ5SMZbY/600x600.png", "brand": "Southern Co-op", "brand:wikidata": "Q7569773"}, "geometry": {"type": "Point", "coordinates": [-1.0974603, 51.2840565]}},
{"type": "Feature", "id": "5d1BzmT_XMlKrdRWAX1hSR5JKfc=", "properties": {"ref": "https://stores.thesouthernco-operative.co.uk/hampshire/basingstoke/15---17-winchester-st.html", "@spider": "southern_coop", "addr:street_address": "15 - 17 Winchester St Overton", "addr:city": "Basingstoke", "addr:postcode": "RG25 3HR", "addr:country": "GB", "name": "The Co-operative Food Overton Winchester Street", "phone": "01256 770218", "website": "https://stores.thesouthernco-operative.co.uk/hampshire/basingstoke/15---17-winchester-st.html", "opening_hours": "Mo-Su 06:30-22:00", "image": "https://dynl.mktgcdn.com/p/GpRlyVYuf2hHwuWtMzojdaoLMUasWhJ3LBrIQ5SMZbY/600x600.png", "brand": "Southern Co-op", "brand:wikidata": "Q7569773"}, "geometry": {"type": "Point", "coordinates": [-1.2628050847797567, 51.24336869903529]}},
{"type": "Feature", "id": "LgczD_aZW2fp7ssn8fehliKvHUA=", "properties": {"ref": "https://stores.thesouthernco-operative.co.uk/hampshire/andover/unit-1-eclipse-house.html", "@spider": "southern_coop", "addr:street_address": "Unit 1 Eclipse House Picket Twenty Way", "addr:city": "Andover", "addr:postcode": "SP11 6TY", "addr:country": "GB", "name": "The Co-operative Food Andover Picket Twenty", "phone": "01264 318598", "website": "https://stores.thesouthernco-operative.co.uk/hampshire/andover/unit-1-eclipse-house.html", "opening_hours": "Mo-Su 07:00-22:00", "image": "https://dynl.mktgcdn.com/p/GpRlyVYuf2hHwuWtMzojdaoLMUasWhJ3LBrIQ5SMZbY/600x600.png", "brand": "Southern Co-op", "brand:wikidata": "Q7569773"}, "geometry": {"type": "Point", "coordinates": [-1.4428806, 51.2052447]}},
{"type": "Feature", "id": "NDyHuaNnC6z0VU-hTvIZrNVqJXA=", "properties": {"ref": "https://stores.thesouthernco-operative.co.uk/hampshire/andover/unit-1--east-anton-farm-road.html", "@spider": "southern_coop", "addr:street_address": "Unit 1, East Anton Farm Road", "addr:city": "Andover", "addr:postcode": "SP11 6RD", "addr:country": "GB", "name": "The Co-operative Food Andover East Anton Farm Road", "phone": "01264 316465", "website": "https://stores.thesouthernco-operative.co.uk/hampshire/andover/unit-1--east-anton-farm-road.html", "opening_hours": "Mo-Su 07:00-22:00", "image": "https://dynl.mktgcdn.com/p/Ouz8Zai18BuoK3QtrHdRKeWmc4zJD1lUyBX8jTMCy70/500x500.png", "brand": "Southern Co-op", "brand:wikidata": "Q7569773"}, "geometry": {"type": "Point", "coordinates": [-1.4664814, 51.2280448]}},
{"type": "Feature", "id": "9ZQgxL7ahviHf7Rrr8TDuP_416Y=", "properties": {"ref": "https://stores.thesouthernco-operative.co.uk/hampshire/alton/34e-high-street.html", "@spider": "southern_coop", "addr:street_address": "34E High Street", "addr:city": "Alton", "addr:postcode": "GU34 1BD", "addr:country": "GB", "name": "The Co-operative Food Alton High Street", "phone": "01420 541260", "website": "https://stores.thesouthernco-operative.co.uk/hampshire/alton/34e-high-street.html", "opening_hours": "Mo-Su 06:30-22:00", "image": "https://dynl.mktgcdn.com/p/GpRlyVYuf2hHwuWtMzojdaoLMUasWhJ3LBrIQ5SMZbY/600x600.png", "brand": "Southern Co-op", "brand:wikidata": "Q7569773"}, "geometry": {"type": "Point", "coordinates": [-0.9753594, 51.1491574]}},
{"type": "Feature", "id": "Rq7OkXXxE0nfGpXOGAuvkpfxVCU=", "properties": {"ref": "https://stores.thesouthernco-operative.co.uk/hampshire/alton/30-winchester-road.html", "@spider": "southern_coop", "addr:street_address": "30 Winchester Road Four Marks", "addr:city": "Alton", "addr:postcode": "GU34 5HG", "addr:country": "GB", "name": "The Co-operative Food Four Marks Winchester Road", "phone": "01420 561380", "website": "https://stores.thesouthernco-operative.co.uk/hampshire/alton/30-winchester-road.html", "opening_hours": "Mo-Su 06:30-22:00", "image": "https://dynl.mktgcdn.com/p/GpRlyVYuf2hHwuWtMzojdaoLMUasWhJ3LBrIQ5SMZbY/600x600.png", "brand": "Southern Co-op", "brand:wikidata": "Q7569773"}, "geometry": {"type": "Point", "coordinates": [-1.0424739, 51.1130282]}},
{"type": "Feature", "id": "By0IeFwJQOs-RAin2ZMve2B2R6I=", "properties": {"ref": "https://stores.thesouthernco-operative.co.uk/hampshire/alresford/47-west-street.html", "@spider": "southern_coop", "addr:street_address": "47 West Street", "addr:city": "Alresford", "addr:postcode": "SO24 9BT", "addr:country": "GB", "name": "The Co-operative Food Alresford West Street", "phone": "01962 733078", "website": "https://stores.thesouthernco-operative.co.uk/hampshire/alresford/47-west-street.html", "opening_hours": "Mo-Sa 07:00-22:00; Su 10:00-16:00", "image": "https://dynl.mktgcdn.com/p/GpRlyVYuf2hHwuWtMzojdaoLMUasWhJ3LBrIQ5SMZbY/600x600.png", "brand": "Southern Co-op", "brand:wikidata": "Q7569773"}, "geometry": {"type": "Point", "coordinates": [-1.1639097332954407, 51.089812207266014]}},
{"type": "Feature", "id": "w-9MWTo4su0-u9LT4HCsIALJdSc=", "properties": {"ref": "https://stores.thesouthernco-operative.co.uk/hampshire/aldershot/222-lower-farnham-road.html", "@spider": "southern_coop", "addr:street_address": "222 Lower Farnham Road", "addr:city": "Aldershot", "addr:postcode": "GU12 4EN", "addr:country": "GB", "name": "The Co-operative Food Aldershot Lower Farnham Road", "phone": "01252 316748", "website": "https://stores.thesouthernco-operative.co.uk/hampshire/aldershot/222-lower-farnham-road.html", "opening_hours": "Mo-Su 06:30-22:00", "image": "https://dynl.mktgcdn.com/p/GpRlyVYuf2hHwuWtMzojdaoLMUasWhJ3LBrIQ5SMZbY/600x600.png", "brand": "Southern Co-op", "brand:wikidata": "Q7569773"}, "geometry": {"type": "Point", "coordinates": [-0.7520051999836141, 51.23721774572166]}},
{"type": "Feature", "id": "wv5l-qv5jLY4JYFiFnTd3rS21v8=", "properties": {"ref": "https://stores.thesouthernco-operative.co.uk/greater-london/london/83-the-ridgway.html", "@spider": "southern_coop", "addr:street_address": "83 The Ridgway", "addr:city": "London", "addr:postcode": "SW19 4ST", "addr:country": "GB", "name": "The Co-operative Food Wimbledon Ridgway", "phone": "020 8947 7420", "website": "https://stores.thesouthernco-operative.co.uk/greater-london/london/83-the-ridgway.html", "opening_hours": "Mo-Su 07:00-22:00", "image": "https://dynl.mktgcdn.com/p/Ouz8Zai18BuoK3QtrHdRKeWmc4zJD1lUyBX8jTMCy70/500x500.png", "brand": "Southern Co-op", "brand:wikidata": "Q7569773"}, "geometry": {"type": "Point", "coordinates": [-0.22016602331348167, 51.42101616369677]}},
{"type": "Feature", "id": "stplqU_GLp-IWehQD359DSAsU4c=", "properties": {"ref": "https://stores.thesouthernco-operative.co.uk/greater-london/croydon/ground-floor--118-122-orchard-way.html", "@spider": "southern_coop", "addr:street_address": "Ground Floor, 118-122 Orchard Way Shirley", "addr:city": "Croydon", "addr:postcode": "CR0 7NN", "addr:country": "GB", "name": "The Co-operative Food Shirley Orchard Way", "phone": "020 8776 2898", "website": "https://stores.thesouthernco-operative.co.uk/greater-london/croydon/ground-floor--118-122-orchard-way.html", "opening_hours": "Mo-Su 07:00-22:00", "image": "https://dynl.mktgcdn.com/p/GpRlyVYuf2hHwuWtMzojdaoLMUasWhJ3LBrIQ5SMZbY/600x600.png", "brand": "Southern Co-op", "brand:wikidata": "Q7569773"}, "geometry": {"type": "Point", "coordinates": [-0.0400815, 51.3860094]}},
{"type": "Feature", "id": "Hbeyvg1ex3J8XXfK8y3xPxLl-ok=", "properties": {"ref": "https://stores.thesouthernco-operative.co.uk/greater-london/chislehurst/1-3-white-horse-hill.html", "@spider": "southern_coop", "addr:street_address": "1-3 White Horse Hill", "addr:city": "Chislehurst", "addr:postcode": "BR7 6DG", "addr:country": "GB", "name": "The Co-operative Food Chislehurst White Horse Hill", "phone": "020 8467 0331", "website": "https://stores.thesouthernco-operative.co.uk/greater-london/chislehurst/1-3-white-horse-hill.html", "opening_hours": "Mo-Su 06:30-22:00", "image": "https://dynl.mktgcdn.com/p/Ouz8Zai18BuoK3QtrHdRKeWmc4zJD1lUyBX8jTMCy70/500x500.png", "brand": "Southern Co-op", "brand:wikidata": "Q7569773"}, "geometry": {"type": "Point", "coordinates": [0.06171092391014099, 51.42194909469453]}},
{"type": "Feature", "id": "gGzdQ5HCQNVtbwbMKxa8RukrQus=", "properties": {"ref": "https://stores.thesouthernco-operative.co.uk/east-sussex/st--leonards-on-sea/290-battle-road.html", "@spider": "southern_coop", "addr:street_address": "290 Battle Road", "addr:city": "St. Leonards-on-Sea", "addr:postcode": "TN37 7BA", "addr:country": "GB", "name": "The Co-operative Food St Leonards Battle Road 290", "phone": "01424 854527", "website": "https://stores.thesouthernco-operative.co.uk/east-sussex/st--leonards-on-sea/290-battle-road.html", "opening_hours": "Mo-Su 07:00-22:00", "image": "https://dynl.mktgcdn.com/p/GpRlyVYuf2hHwuWtMzojdaoLMUasWhJ3LBrIQ5SMZbY/600x600.png", "brand": "Southern Co-op", "brand:wikidata": "Q7569773"}, "geometry": {"type": "Point", "coordinates": [0.5479618906974792, 50.88113298234043]}},
{"type": "Feature", "id": "K4qE6b3LY1VjQdQug3Oh1oU0QN0=", "properties": {"ref": "https://stores.thesouthernco-operative.co.uk/east-sussex/st--leonards-on-sea/100-battle-road.html", "@spider": "southern_coop", "addr:street_address": "100 Battle Road", "addr:city": "St. Leonards-on-Sea", "addr:postcode": "TN37 7AG", "addr:country": "GB", "name": "The Co-operative Food St Leonards Battle Road 100", "phone": "01424 722982", "website": "https://stores.thesouthernco-operative.co.uk/east-sussex/st--leonards-on-sea/100-battle-road.html", "opening_hours": "Mo-Su 07:00-22:00", "image": "https://dynl.mktgcdn.com/p/GpRlyVYuf2hHwuWtMzojdaoLMUasWhJ3LBrIQ5SMZbY/600x600.png", "brand": "Southern Co-op", "brand:wikidata": "Q7569773"}, "geometry": {"type": "Point", "coordinates": [0.5531978601188712, 50.8742936940372]}},
{"type": "Feature", "id": "vKWiUSPZ073l9moFrcW0_w5xXVU=", "properties": {"ref": "https://stores.thesouthernco-operative.co.uk/east-sussex/hove/old-shoreham-road.html", "@spider": "southern_coop", "addr:street_address": "Old Shoreham Road", "addr:city": "Hove", "addr:postcode": "BN3 7EB", "addr:country": "GB", "name": "The Co-operative Food Hove Old Shoreham Road", "phone": "01273 728751", "website": "https://stores.thesouthernco-operative.co.uk/east-sussex/hove/old-shoreham-road.html", "opening_hours": "Mo-Su 06:30-22:00", "image": "https://dynl.mktgcdn.com/p/GpRlyVYuf2hHwuWtMzojdaoLMUasWhJ3LBrIQ5SMZbY/600x600.png", "brand": "Southern Co-op", "brand:wikidata": "Q7569773"}, "geometry": {"type": "Point", "coordinates": [-0.18758637348889806, 50.83893659646905]}},
{"type": "Feature", "id": "B2etjJ5OuliV6atlZ5WssuNmEcM=", "properties": {"ref": "https://stores.thesouthernco-operative.co.uk/east-sussex/hove/268-272-portland-road.html", "@spider": "southern_coop", "addr:street_address": "268/272 Portland Road", "addr:city": "Hove", "addr:postcode": "BN3 5QU", "addr:country": "GB", "name": "The Co-operative Food Hove Portland Road", "phone": "01273 220092", "website": "https://stores.thesouthernco-operative.co.uk/east-sussex/hove/268-272-portland-road.html", "opening_hours": "Mo-Su 06:30-22:00", "image": "https://dynl.mktgcdn.com/p/GpRlyVYuf2hHwuWtMzojdaoLMUasWhJ3LBrIQ5SMZbY/600x600.png", "brand": "Southern Co-op", "brand:wikidata": "Q7569773"}, "geometry": {"type": "Point", "coordinates": [-0.19168943166732788, 50.833919586015156]}},
{"type": "Feature", "id": "wEWhN2UUcsFaVcl-oY3TRjU6ZUw=", "properties": {"ref": "https://stores.thesouthernco-operative.co.uk/east-sussex/hove/130-western-road.html", "@spider": "southern_coop", "addr:street_address": "130 Western Road", "addr:city": "Hove", "addr:postcode": "BN3 1DA", "addr:country": "GB", "name": "The Co-operative Food Hove Western Road", "phone": "01273 732149", "website": "https://stores.thesouthernco-operative.co.uk/east-sussex/hove/130-western-road.html", "opening_hours": "Mo-Su 06:30-22:30", "image": "https://dynl.mktgcdn.com/p/GpRlyVYuf2hHwuWtMzojdaoLMUasWhJ3LBrIQ5SMZbY/600x600.png", "brand": "Southern Co-op", "brand:wikidata": "Q7569773"}, "geometry": {"type": "Point", "coordinates": [-0.1559899002313614, 50.82544625663143]}},
{"type": "Feature", "id": "4uv1ZaR4D8y9BBigZbxGeygtc7U=", "properties": {"ref": "https://stores.thesouthernco-operative.co.uk/east-sussex/eastbourne/lindfield-road.html", "@spider": "southern_coop", "addr:street_address": "Lindfield Road", "addr:city": "Eastbourne", "addr:postcode": "BN22 0AU", "addr:country": "GB", "name": "The Co-operative Food Eastbourne Lindfield Road", "phone": "01323 505270", "website": "https://stores.thesouthernco-operative.co.uk/east-sussex/eastbourne/lindfield-road.html", "opening_hours": "Mo-Su 06:30-22:00", "image": "https://dynl.mktgcdn.com/p/GpRlyVYuf2hHwuWtMzojdaoLMUasWhJ3LBrIQ5SMZbY/600x600.png", "brand": "Southern Co-op", "brand:wikidata": "Q7569773"}, "geometry": {"type": "Point", "coordinates": [0.2661663293838501, 50.79973732489656]}},
{"type": "Feature", "id": "RKuEwXVTB1BryPPBQFs71O3-DLE=", "properties": {"ref": "https://stores.thesouthernco-operative.co.uk/east-sussex/eastbourne/346-seaside.html", "@spider": "southern_coop", "addr:street_address": "346 Seaside", "addr:city": "Eastbourne", "addr:postcode": "BN22 7RJ", "addr:country": "GB", "name": "The Co-operative Food Eastbourne Seaside", "phone": "01323 410969", "website": "https://stores.thesouthernco-operative.co.uk/east-sussex/eastbourne/346-seaside.html", "opening_hours": "Mo-Su 07:00-22:00", "image": "https://dynl.mktgcdn.com/p/GpRlyVYuf2hHwuWtMzojdaoLMUasWhJ3LBrIQ5SMZbY/600x600.png", "brand": "Southern Co-op", "brand:wikidata": "Q7569773"}, "geometry": {"type": "Point", "coordinates": [0.3012712, 50.7809881]}},
{"type": "Feature", "id": "Q_j_vyQkrBzCtW2n8L_ViQQCv-8=", "properties": {"ref": "https://stores.thesouthernco-operative.co.uk/east-sussex/east-sussex/sparrows-green-road.html", "@spider": "southern_coop", "addr:street_address": "Sparrows Green Road Wadhurst", "addr:city": "East Sussex", "addr:postcode": "TN5 6SJ", "addr:country": "GB", "name": "The Co-operative Food Wadhurst Please note changes to opening hours", "phone": "01892 785971", "website": "https://stores.thesouthernco-operative.co.uk/east-sussex/east-sussex/sparrows-green-road.html", "opening_hours": "Mo-Su 07:00-22:00", "image": "https://dynl.mktgcdn.com/p/GpRlyVYuf2hHwuWtMzojdaoLMUasWhJ3LBrIQ5SMZbY/600x600.png", "brand": "Southern Co-op", "brand:wikidata": "Q7569773"}, "geometry": {"type": "Point", "coordinates": [0.3330063877315297, 51.066334528331645]}},
{"type": "Feature", "id": "WRA6QPSKX0Qs2pbG4pEn5rkg0U8=", "properties": {"ref": "https://stores.thesouthernco-operative.co.uk/east-sussex/east-sussex/46-beatty-road.html", "@spider": "southern_coop", "addr:street_address": "46 Beatty Road Eastbourne", "addr:city": "East Sussex", "addr:postcode": "BN23 6DG", "addr:country": "GB", "name": "The Co-operative Food Eastbourne Beatty Road", "phone": "01323 724995", "website": "https://stores.thesouthernco-operative.co.uk/east-sussex/east-sussex/46-beatty-road.html", "opening_hours": "Mo-Su 07:00-22:00", "image": "https://dynl.mktgcdn.com/p/GpRlyVYuf2hHwuWtMzojdaoLMUasWhJ3LBrIQ5SMZbY/600x600.png", "brand": "Southern Co-op", "brand:wikidata": "Q7569773"}, "geometry": {"type": "Point", "coordinates": [0.31838969327509403, 50.78545262719986]}},
{"type": "Feature", "id": "hS3PCw44DU-04ToehOUumDw1Wuc=", "properties": {"ref": "https://stores.thesouthernco-operative.co.uk/east-sussex/east-sussex/103-abinger-road.html", "@spider": "southern_coop", "addr:street_address": "103 Abinger Road Portslade", "addr:city": "East Sussex", "addr:postcode": "BN41 1SD", "addr:country": "GB", "name": "The Co-operative Food Portslade Abinger Road", "phone": "01273 423457", "website": "https://stores.thesouthernco-operative.co.uk/east-sussex/east-sussex/103-abinger-road.html", "opening_hours": "Mo-Su 07:00-22:00", "image": "https://dynl.mktgcdn.com/p/GpRlyVYuf2hHwuWtMzojdaoLMUasWhJ3LBrIQ5SMZbY/600x600.png", "brand": "Southern Co-op", "brand:wikidata": "Q7569773"}, "geometry": {"type": "Point", "coordinates": [-0.2178829, 50.8357572]}},
{"type": "Feature", "id": "YCaFxiGLxtdaIYGE2qtmfVClz6w=", "properties": {"ref": "https://stores.thesouthernco-operative.co.uk/east-sussex/brighton/bramber-house.html", "@spider": "southern_coop", "addr:street_address": "Bramber House Refectory Road", "addr:city": "Brighton", "addr:postcode": "BN1 9QU", "addr:country": "GB", "name": "The Co-operative Food Falmer Bramber House", "phone": "01273 624764", "website": "https://stores.thesouthernco-operative.co.uk/east-sussex/brighton/bramber-house.html", "opening_hours": "Mo-Su 07:00-23:00", "image": "https://dynl.mktgcdn.com/p/GpRlyVYuf2hHwuWtMzojdaoLMUasWhJ3LBrIQ5SMZbY/600x600.png", "brand": "Southern Co-op", "brand:wikidata": "Q7569773"}, "geometry": {"type": "Point", "coordinates": [-0.0879499, 50.8677113]}},
{"type": "Feature", "id": "XOmulbAhRaKHM0lVU581NG8l064=", "properties": {"ref": "https://stores.thesouthernco-operative.co.uk/dorset/wimborne/wimborne-road.html", "@spider": "southern_coop", "addr:street_address": "Wimborne Road", "addr:city": "Wimborne", "addr:postcode": "BH21 1NW", "addr:country": "GB", "name": "The Co-operative Food Wimborne Wimborne Rd", "phone": "01202 880459", "website": "https://stores.thesouthernco-operative.co.uk/dorset/wimborne/wimborne-road.html", "opening_hours": "Mo-Su 07:00-22:00", "image": "https://dynl.mktgcdn.com/p/GpRlyVYuf2hHwuWtMzojdaoLMUasWhJ3LBrIQ5SMZbY/600x600.png", "brand": "Southern Co-op", "brand:wikidata": "Q7569773"}, "geometry": {"type": "Point", "coordinates": [-1.9877153635025024, 50.80496516562017]}},
{"type": "Feature", "id": "QEVCN6rzrc4kwL69WorqaNbEs4c=", "properties": {"ref": "https://stores.thesouthernco-operative.co.uk/dorset/weymouth/chickerell-road.html", "@spider": "southern_coop", "addr:street_address": "Chickerell Road", "addr:city": "Weymouth", "addr:postcode": "DT4 0RA", "addr:country": "GB", "name": "The Co-operative Food - Weymouth Chickerell Road", "phone": "01305 773034", "website": "https://stores.thesouthernco-operative.co.uk/dorset/weymouth/chickerell-road.html", "opening_hours": "Mo-Su 06:30-22:00", "image": "https://dynl.mktgcdn.com/p/2T0U2PxFXCMHGZ9ha_i71TPEaqzuDQGiPEcyUO4sjn8/361x361.jpg", "brand": "Southern Co-op", "brand:wikidata": "Q7569773"}, "geometry": {"type": "Point", "coordinates": [-2.4800898, 50.6090132]}},
{"type": "Feature", "id": "p37kSfLfFB86OKM_PcTxn5nbdhI=", "properties": {"ref": "https://stores.thesouthernco-operative.co.uk/dorset/weymouth/11b-weston-road.html", "@spider": "southern_coop", "addr:street_address": "11B Weston Road Portland", "addr:city": "Weymouth", "addr:postcode": "DT5 2BY", "addr:country": "GB", "name": "The Co-operative Food Portland Weston Road", "phone": "01305 824759", "website": "https://stores.thesouthernco-operative.co.uk/dorset/weymouth/11b-weston-road.html", "opening_hours": "Mo-Su 06:30-22:00", "image": "https://dynl.mktgcdn.com/p/GpRlyVYuf2hHwuWtMzojdaoLMUasWhJ3LBrIQ5SMZbY/600x600.png", "brand": "Southern Co-op", "brand:wikidata": "Q7569773"}, "geometry": {"type": "Point", "coordinates": [-2.4445170164108276, 50.54090783478162]}},
{"type": "Feature", "id": "ne10oFl8zxiwcbBnncuKv4YzN34=", "properties": {"ref": "https://stores.thesouthernco-operative.co.uk/dorset/sturminster-newton/lower-market-way.html", "@spider": "southern_coop", "addr:street_address": "Lower Market Way Station Road", "addr:city": "Sturminster Newton", "addr:postcode": "DT10 1BB", "addr:country": "GB", "name": "The Co-operative Food Sturminster Station Road", "phone": "01258 473130", "website": "https://stores.thesouthernco-operative.co.uk/dorset/sturminster-newton/lower-market-way.html", "opening_hours": "Mo-Sa 07:00-22:00; Su 10:00-16:00", "image": "https://dynl.mktgcdn.com/p/GpRlyVYuf2hHwuWtMzojdaoLMUasWhJ3LBrIQ5SMZbY/600x600.png", "brand": "Southern Co-op", "brand:wikidata": "Q7569773"}, "geometry": {"type": "Point", "coordinates": [-2.3039951, 50.9276023]}},
{"type": "Feature", "id": "SzMlO6Krqhg7GyAbaG6uRtlLRsw=", "properties": {"ref": "https://stores.thesouthernco-operative.co.uk/dorset/shaftesbury/beaufoy-close.html", "@spider": "southern_coop", "addr:street_address": "Beaufoy Close The Sycamores", "addr:city": "Shaftesbury", "addr:postcode": "SP7 8PT", "addr:country": "GB", "name": "The Co-operative Food Shaftesbury Beaufoy Close", "phone": "01747 858393", "website": "https://stores.thesouthernco-operative.co.uk/dorset/shaftesbury/beaufoy-close.html", "opening_hours": "Mo-Su 07:00-22:00", "image": "https://dynl.mktgcdn.com/p/GpRlyVYuf2hHwuWtMzojdaoLMUasWhJ3LBrIQ5SMZbY/600x600.png", "brand": "Southern Co-op", "brand:wikidata": "Q7569773"}, "geometry": {"type": "Point", "coordinates": [-2.1856865286827087, 51.008133359384644]}},
{"type": "Feature", "id": "ZgycmVDaUd50lTx1RCw-iS3i-_U=", "properties": {"ref": "https://stores.thesouthernco-operative.co.uk/dorset/poole/northmead-drive.html", "@spider": "southern_coop", "addr:street_address": "Northmead Drive Creekmoor", "addr:city": "Poole", "addr:postcode": "BH17 7XZ", "addr:country": "GB", "name": "The Co-operative Food Creekmoor Northmead Drive", "phone": "01202 657141", "website": "https://stores.thesouthernco-operative.co.uk/dorset/poole/northmead-drive.html", "opening_hours": "Mo-Su 06:30-22:00", "image": "https://dynl.mktgcdn.com/p/GpRlyVYuf2hHwuWtMzojdaoLMUasWhJ3LBrIQ5SMZbY/600x600.png", "brand": "Southern Co-op", "brand:wikidata": "Q7569773"}, "geometry": {"type": "Point", "coordinates": [-2.0032331, 50.7414036]}},
{"type": "Feature", "id": "iQS_HOpzxSq43ZTSaGmaomW5XEA=", "properties": {"ref": "https://stores.thesouthernco-operative.co.uk/dorset/poole/king-john-avenue.html", "@spider": "southern_coop", "addr:street_address": "King John Avenue Bearwood", "addr:city": "Poole", "addr:postcode": "BH11 9TN", "addr:country": "GB", "name": "The Co-operative Food Bearwood King John Avenue", "phone": "01202 590328", "website": "https://stores.thesouthernco-operative.co.uk/dorset/poole/king-john-avenue.html", "opening_hours": "Mo-Su 07:00-22:00", "image": "https://dynl.mktgcdn.com/p/GpRlyVYuf2hHwuWtMzojdaoLMUasWhJ3LBrIQ5SMZbY/600x600.png", "brand": "Southern Co-op", "brand:wikidata": "Q7569773"}, "geometry": {"type": "Point", "coordinates": [-1.9303431, 50.7676412]}},
{"type": "Feature", "id": "nBcQLhmhaHCA1OhW1zSUwA4kiqM=", "properties": {"ref": "https://stores.thesouthernco-operative.co.uk/bristol/bristol/the-square.html", "@spider": "southern_coop", "addr:street_address": "The Square Redcliffe Street", "addr:city": "Bristol", "addr:postcode": "BS1 6LT", "addr:country": "GB", "name": "The Co-operative Food Bristol Redcliffe Street", "phone": "0117 945 0018", "website": "https://stores.thesouthernco-operative.co.uk/bristol/bristol/the-square.html", "opening_hours": "Mo-Su 07:00-22:00", "image": "https://dynl.mktgcdn.com/p/GpRlyVYuf2hHwuWtMzojdaoLMUasWhJ3LBrIQ5SMZbY/600x600.png", "brand": "Southern Co-op", "brand:wikidata": "Q7569773"}, "geometry": {"type": "Point", "coordinates": [-2.590357635581995, 51.45063507284155]}},
{"type": "Feature", "id": "nlUtX1sVY2jd_6bySSW7UmtdSuo=", "properties": {"ref": "https://stores.thesouthernco-operative.co.uk/bristol/bristol/school-road.html", "@spider": "southern_coop", "addr:street_address": "School Road Cadbury Heath", "addr:city": "Bristol", "addr:postcode": "BS30 8EP", "addr:country": "GB", "name": "The Co-operative Food Bristol School Road", "phone": "0117 967 2703", "website": "https://stores.thesouthernco-operative.co.uk/bristol/bristol/school-road.html", "opening_hours": "Mo-Su 07:00-22:00", "image": "https://dynl.mktgcdn.com/p/GpRlyVYuf2hHwuWtMzojdaoLMUasWhJ3LBrIQ5SMZbY/600x600.png", "brand": "Southern Co-op", "brand:wikidata": "Q7569773"}, "geometry": {"type": "Point", "coordinates": [-2.4839284, 51.4461266]}},
{"type": "Feature", "id": "pl0QlluJZh3Z5paomM7u61m2kv8=", "properties": {"ref": "https://stores.thesouthernco-operative.co.uk/bristol/bristol/ashley-down-road.html", "@spider": "southern_coop", "addr:street_address": "Ashley Down Road Ashley Heights", "addr:city": "Bristol", "addr:postcode": "BS7 9BU", "addr:country": "GB", "name": "The Co-operative Food Bristol Please note changes to opening hours", "phone": "0117 942 8761", "website": "https://stores.thesouthernco-operative.co.uk/bristol/bristol/ashley-down-road.html", "opening_hours": "Mo-Su 07:00-22:30", "image": "https://dynl.mktgcdn.com/p/GpRlyVYuf2hHwuWtMzojdaoLMUasWhJ3LBrIQ5SMZbY/600x600.png", "brand": "Southern Co-op", "brand:wikidata": "Q7569773"}, "geometry": {"type": "Point", "coordinates": [-2.5801386, 51.4773651]}},
{"type": "Feature", "id": "GLbJW0e2YssAgnaiD8VAwQTqvJc=", "properties": {"ref": "https://stores.thesouthernco-operative.co.uk/bristol/bristol/93-95--whiteladies-road.html", "@spider": "southern_coop", "addr:street_address": "93-95, Whiteladies Road Clifton", "addr:city": "Bristol", "addr:postcode": "BS8 2NT", "addr:country": "GB", "name": "The Co-operative Food Bristol Whiteladies Road - please note changes to opening hours", "phone": "0117 317 9562", "website": "https://stores.thesouthernco-operative.co.uk/bristol/bristol/93-95--whiteladies-road.html", "opening_hours": "Mo-Su 07:00-22:00", "image": "https://dynl.mktgcdn.com/p/GpRlyVYuf2hHwuWtMzojdaoLMUasWhJ3LBrIQ5SMZbY/600x600.png", "brand": "Southern Co-op", "brand:wikidata": "Q7569773"}, "geometry": {"type": "Point", "coordinates": [-2.6091242, 51.4636234]}},
{"type": "Feature", "id": "3ronVyys5eJHqI55nawTVa8wxs4=", "properties": {"ref": "https://stores.thesouthernco-operative.co.uk/bristol/bristol/47-two-mile-hill-road.html", "@spider": "southern_coop", "addr:street_address": "47 Two Mile Hill Road Kingswood", "addr:city": "Bristol", "addr:postcode": "BS15 1BS", "addr:country": "GB", "name": "The Co-operative Food Bristol Two Mile Hill Road", "phone": "0117 967 8771", "website": "https://stores.thesouthernco-operative.co.uk/bristol/bristol/47-two-mile-hill-road.html", "opening_hours": "Mo-Su 06:30-22:00", "image": "https://dynl.mktgcdn.com/p/GpRlyVYuf2hHwuWtMzojdaoLMUasWhJ3LBrIQ5SMZbY/600x600.png", "brand": "Southern Co-op", "brand:wikidata": "Q7569773"}, "geometry": {"type": "Point", "coordinates": [-2.526901066303253, 51.46189021769556]}},
{"type": "Feature", "id": "eCT0EdNdsGiJPlH9k50rXF5O1R8=", "properties": {"ref": "https://stores.thesouthernco-operative.co.uk/bristol/bristol/345-347-church-road.html", "@spider": "southern_coop", "addr:street_address": "345-347 Church Road St Georges", "addr:city": "Bristol", "addr:postcode": "BS5 8AA", "addr:country": "GB", "name": "The Co-operative Food Bristol Church Road", "phone": "0117 955 8959", "website": "https://stores.thesouthernco-operative.co.uk/bristol/bristol/345-347-church-road.html", "opening_hours": "Mo-Su 07:00-22:30", "image": "https://dynl.mktgcdn.com/p/GpRlyVYuf2hHwuWtMzojdaoLMUasWhJ3LBrIQ5SMZbY/600x600.png", "brand": "Southern Co-op", "brand:wikidata": "Q7569773"}, "geometry": {"type": "Point", "coordinates": [-2.548074424266815, 51.45960993084737]}},
{"type": "Feature", "id": "eTGSeEQ7yBtDlidbVDBNfVVDyIo=", "properties": {"ref": "https://stores.thesouthernco-operative.co.uk/bristol/bristol/206-208-north-street.html", "@spider": "southern_coop", "addr:street_address": "206-208 North Street Bedminster", "addr:city": "Bristol", "addr:postcode": "BS3 1EN", "addr:country": "GB", "name": "The Co-operative Food Bedminster North Street", "phone": "0117 963 9517", "website": "https://stores.thesouthernco-operative.co.uk/bristol/bristol/206-208-north-street.html", "opening_hours": "Mo-Su 07:00-22:00", "image": "https://dynl.mktgcdn.com/p/GpRlyVYuf2hHwuWtMzojdaoLMUasWhJ3LBrIQ5SMZbY/600x600.png", "brand": "Southern Co-op", "brand:wikidata": "Q7569773"}, "geometry": {"type": "Point", "coordinates": [-2.6105551, 51.4405297]}},
{"type": "Feature", "id": "4WNKbcjh-Ih4LwjD6BeivinJuvw=", "properties": {"ref": "https://stores.thesouthernco-operative.co.uk/berkshire/wokingham/9-10-market-place.html", "@spider": "southern_coop", "addr:street_address": "9/10 Market Place", "addr:city": "Wokingham", "addr:postcode": "RG40 1AL", "addr:country": "GB", "name": "The Co-operative Food Wokingham Market Place", "phone": "0118 979 9070", "website": "https://stores.thesouthernco-operative.co.uk/berkshire/wokingham/9-10-market-place.html", "opening_hours": "Mo-Su 07:00-22:00", "image": "https://dynl.mktgcdn.com/p/GpRlyVYuf2hHwuWtMzojdaoLMUasWhJ3LBrIQ5SMZbY/600x600.png", "brand": "Southern Co-op", "brand:wikidata": "Q7569773"}, "geometry": {"type": "Point", "coordinates": [-0.8343139, 51.4101118]}},
{"type": "Feature", "id": "CX5s0d5SW8390k353173VDfq3GU=", "properties": {"ref": "https://stores.thesouthernco-operative.co.uk/berkshire/windsor/72-74-arthur-road.html", "@spider": "southern_coop", "addr:street_address": "72-74 Arthur Road", "addr:city": "Windsor", "addr:postcode": "SL4 1RX", "addr:country": "GB", "name": "The Co-operative Food Windsor Arthur Road", "phone": "01753 865167", "website": "https://stores.thesouthernco-operative.co.uk/berkshire/windsor/72-74-arthur-road.html", "opening_hours": "Mo-Su 06:30-22:00", "image": "https://dynl.mktgcdn.com/p/GpRlyVYuf2hHwuWtMzojdaoLMUasWhJ3LBrIQ5SMZbY/600x600.png", "brand": "Southern Co-op", "brand:wikidata": "Q7569773"}, "geometry": {"type": "Point", "coordinates": [-0.6153862, 51.4826026]}},
{"type": "Feature", "id": "kxzIHUBR2XyJqlgzROz7tiBex_o=", "properties": {"ref": "https://stores.thesouthernco-operative.co.uk/berkshire/newbury/75-brummell-road.html", "@spider": "southern_coop", "addr:street_address": "75 Brummell Road", "addr:city": "Newbury", "addr:postcode": "RG14 1SG", "addr:country": "GB", "name": "The Co-operative Food Newbury Brummell Road", "phone": "01635 569367", "website": "https://stores.thesouthernco-operative.co.uk/berkshire/newbury/75-brummell-road.html", "opening_hours": "Mo-Su 07:00-22:00", "image": "https://dynl.mktgcdn.com/p/GpRlyVYuf2hHwuWtMzojdaoLMUasWhJ3LBrIQ5SMZbY/600x600.png", "brand": "Southern Co-op", "brand:wikidata": "Q7569773"}, "geometry": {"type": "Point", "coordinates": [-1.3374882, 51.4083231]}},
{"type": "Feature", "id": "sXfjC4lB0EyN_TNtbbmhGWlPt3c=", "properties": {"ref": "https://stores.thesouthernco-operative.co.uk/berkshire/newbury/35-pound-street.html", "@spider": "southern_coop", "addr:street_address": "35 Pound Street", "addr:city": "Newbury", "addr:postcode": "RG14 6AE", "addr:country": "GB", "name": "The Co-operative Food Newbury Pound Street", "phone": "01635 43627", "website": "https://stores.thesouthernco-operative.co.uk/berkshire/newbury/35-pound-street.html", "opening_hours": "Mo-Su 07:00-22:00", "image": "https://dynl.mktgcdn.com/p/GpRlyVYuf2hHwuWtMzojdaoLMUasWhJ3LBrIQ5SMZbY/600x600.png", "brand": "Southern Co-op", "brand:wikidata": "Q7569773"}, "geometry": {"type": "Point", "coordinates": [-1.3289836049079895, 51.3965214339148]}},
{"type": "Feature", "id": "O-Gcyb4-Y6CqadFNi5EptYOZQ8w=", "properties": {"ref": "https://stores.thesouthernco-operative.co.uk/berkshire/hungerford/4-high-street.html", "@spider": "southern_coop", "addr:street_address": "4 High Street", "addr:city": "Hungerford", "addr:postcode": "RG17 8XL", "addr:country": "GB", "name": "The Co-operative Food Lambourn High Street", "phone": "01488 73597", "website": "https://stores.thesouthernco-operative.co.uk/berkshire/hungerford/4-high-street.html", "opening_hours": "Mo-Su 06:30-22:00", "image": "https://dynl.mktgcdn.com/p/GpRlyVYuf2hHwuWtMzojdaoLMUasWhJ3LBrIQ5SMZbY/600x600.png", "brand": "Southern Co-op", "brand:wikidata": "Q7569773"}, "geometry": {"type": "Point", "coordinates": [-1.5312366, 51.5077973]}},
{"type": "Feature", "id": "SPJvY0ffsFvv8Q_gjW3Ne0psYJM=", "properties": {"ref": "https://stores.thesouthernco-operative.co.uk/berkshire/binfield/forest-road.html", "@spider": "southern_coop", "addr:street_address": "Forest Road", "addr:city": "Binfield", "addr:postcode": "RG42 4HP", "addr:country": "GB", "name": "The Co-operative Food Binfield Forest Road", "phone": "01344 360952", "website": "https://stores.thesouthernco-operative.co.uk/berkshire/binfield/forest-road.html", "opening_hours": "Mo-Su 07:00-22:00", "image": "https://dynl.mktgcdn.com/p/Ouz8Zai18BuoK3QtrHdRKeWmc4zJD1lUyBX8jTMCy70/500x500.png", "brand": "Southern Co-op", "brand:wikidata": "Q7569773"}, "geometry": {"type": "Point", "coordinates": [-0.7898077927529812, 51.431399154755]}}]}