{"type":"FeatureCollection","features":[{"type": "Feature", "id": "G_u-toHG2MJmQgSEVIVZcILTSeA=", "properties": {"ref": "#9014", "@spider": "speedee_oil", "addr:full": "740 Brockton Ave.", "addr:city": "Abington", "addr:state": "MA", "addr:postcode": "02351", "addr:country": "US", "name": "Abington, MA - #9014", "phone": "(781) 857-2446", "website": "https://www.speedeeoil.com/abington-ma-9014/", "brand": "SpeeDee Oil Change and Auto Service"}, "geometry": {"type": "Point", "coordinates": [-70.9678247, 42.094045]}},
{"type": "Feature", "id": "zOZfzhpP7tf0rJUF3S6zjFP2GSk=", "properties": {"ref": "#1081", "@spider": "speedee_oil", "addr:full": "1830 Mars Hill Rd NW", "addr:city": "Acworth", "addr:state": "GA", "addr:postcode": "30101", "addr:country": "US", "name": "Acworth, GA - #1081", "phone": "(770) 218-3497", "website": "https://www.speedeeoil.com/acworth-ga-1081/", "brand": "SpeeDee Oil Change and Auto Service"}, "geometry": {"type": "Point", "coordinates": [-84.684341, 34.055992]}},
{"type": "Feature", "id": "abr5zdexsfUFx9-K4sulAG5CaCI=", "properties": {"ref": "#5885", "@spider": "speedee_oil", "addr:full": "4500 S Bell St", "addr:city": "Amarillo", "addr:state": "TX", "addr:postcode": "79109", "addr:country": "US", "name": "Amarillo, TX - #5885", "phone": "(806) 359-5411", "website": "https://www.speedeeoil.com/amarillo-tx-5885/", "brand": "SpeeDee Oil Change and Auto Service"}, "geometry": {"type": "Point", "coordinates": [-101.902756, 35.161171]}},
{"type": "Feature", "id": "ga0BL3OX75CYAQDBjtwmJA6ZZVM=", "properties": {"ref": "#2079", "@spider": "speedee_oil", "addr:full": "5335 S Cooper St", "addr:city": "Arlington", "addr:state": "TX", "addr:postcode": "76017", "addr:country": "US", "name": "Arlington, TX - #2079", "phone": "(817) 466-8963", "website": "https://www.speedeeoil.com/arlington-tx-2079/", "brand": "SpeeDee Oil Change and Auto Service"}, "geometry": {"type": "Point", "coordinates": [-97.133896, 32.66053]}},
{"type": "Feature", "id": "_T9pI0oG9JEgnV-qrv4m01ZahvQ=", "properties": {"ref": "#3030", "@spider": "speedee_oil", "addr:full": "1883 Hendersonville Rd", "addr:city": "Asheville", "addr:state": "NC", "addr:postcode": "28803", "addr:country": "US", "name": "Asheville, NC - #3030", "phone": "(828) 654-7835", "website": "https://www.speedeeoil.com/asheville-nc-3030/", "brand": "SpeeDee Oil Change and Auto Service"}, "geometry": {"type": "Point", "coordinates": [-82.521751, 35.498722]}},
{"type": "Feature", "id": "DQOJ04Tcj3ts4chWrKWmo2neO48=", "properties": {"ref": "#7075", "@spider": "speedee_oil", "addr:full": "1587 S Main St", "addr:city": "Athol", "addr:state": "MA", "addr:postcode": "01331", "addr:country": "US", "name": "Athol, MA - #7075", "phone": "(978) 575-0000", "website": "https://www.speedeeoil.com/athol-ma-7075/", "brand": "SpeeDee Oil Change and Auto Service"}, "geometry": {"type": "Point", "coordinates": [-72.261246, 42.582344]}},
{"type": "Feature", "id": "qRiF5-I0bRA8jTH6DZsogzXJuFQ=", "properties": {"ref": "#7070", "@spider": "speedee_oil", "addr:full": "30 N Main St", "addr:city": "Attleboro", "addr:state": "MA", "addr:postcode": "02703", "addr:country": "US", "name": "Attleboro, MA - #7070", "phone": "(508) 226-1465", "website": "https://www.speedeeoil.com/attleboro-ma-7070/", "brand": "SpeeDee Oil Change and Auto Service"}, "geometry": {"type": "Point", "coordinates": [-71.285309, 41.944984]}},
{"type": "Feature", "id": "HQ-PrXkm5sDIDKsPZVpPynl0g0E=", "properties": {"ref": "#7013", "@spider": "speedee_oil", "addr:full": "12021 Summer Ridge Dr", "addr:city": "Auburn", "addr:state": "CA", "addr:postcode": "95603", "addr:country": "US", "name": "Auburn, CA - #7013", "phone": "(530) 823-0102", "website": "https://www.speedeeoil.com/auburn-ca-7013/", "brand": "SpeeDee Oil Change and Auto Service"}, "geometry": {"type": "Point", "coordinates": [-121.082703, 38.922905]}},
{"type": "Feature", "id": "6CdxttTnPbgPVy77oZjQRBaJ6N4=", "properties": {"ref": "#2155", "@spider": "speedee_oil", "addr:full": "110 W NW Hwy", "addr:city": "Barrington", "addr:state": "IL", "addr:postcode": "60010", "addr:country": "US", "name": "Barrington, IL - #2155", "phone": "(847) 381-3377", "website": "https://www.speedeeoil.com/barrington-il-2155/", "brand": "SpeeDee Oil Change and Auto Service"}, "geometry": {"type": "Point", "coordinates": [-88.136955, 42.161835]}},
{"type": "Feature", "id": "3lOw2sKv74do_vFlKS2S5Ixy2uE=", "properties": {"ref": "#2085", "@spider": "speedee_oil", "addr:full": "2249 Central Dr", "addr:city": "Bedford", "addr:state": "TX", "addr:postcode": "76021", "addr:country": "US", "name": "Bedford, TX - #2085", "phone": "(817) 864-9000", "website": "https://www.speedeeoil.com/bedford-tx-2085/", "brand": "SpeeDee Oil Change and Auto Service"}, "geometry": {"type": "Point", "coordinates": [-97.13398, 32.843651]}},
{"type": "Feature", "id": "T6zLLiThr3XkjXDGCNjJufiFhe4=", "properties": {"ref": "#1080", "@spider": "speedee_oil", "addr:full": "4810 Peachtree Industrial Blvd", "addr:city": "Berkeley Lake", "addr:state": "GA", "addr:postcode": "30071", "addr:country": "US", "name": "Berkeley Lake, GA - #1080", "phone": "(770) 326-9883", "website": "https://www.speedeeoil.com/berkeley-lake-ga-1080/", "brand": "SpeeDee Oil Change and Auto Service"}, "geometry": {"type": "Point", "coordinates": [-84.192177, 33.968998]}},
{"type": "Feature", "id": "o_oWZhjPxOy3j2FblySKTdhnfIo=", "properties": {"ref": "#3428", "@spider": "speedee_oil", "addr:full": "6712 Manatee Ave W", "addr:city": "Bradenton", "addr:state": "FL", "addr:postcode": "34209", "addr:country": "US", "name": "Bradenton, FL - #3428", "phone": "(941) 794-9080", "website": "https://www.speedeeoil.com/bradenton-fl-3428/", "brand": "SpeeDee Oil Change and Auto Service"}, "geometry": {"type": "Point", "coordinates": [-82.629692, 27.496424]}},
{"type": "Feature", "id": "kZD7Ufz1JwZDWR_6s_E67og1Gu4=", "properties": {"ref": "#3631", "@spider": "speedee_oil", "addr:full": "1415 Cortez Rd W", "addr:city": "Bradenton", "addr:state": "FL", "addr:postcode": "34207", "addr:country": "US", "name": "Bradenton, FL - #3631", "phone": "(941) 756-8421", "website": "https://www.speedeeoil.com/bradenton-fl-3631/", "brand": "SpeeDee Oil Change and Auto Service"}, "geometry": {"type": "Point", "coordinates": [-82.576332, 27.462046]}},
{"type": "Feature", "id": "2OU4o_CxB45NGA1OQug1D5Ef0KY=", "properties": {"ref": "#3746", "@spider": "speedee_oil", "addr:full": "609 Robertson St W", "addr:city": "Brandon", "addr:state": "FL", "addr:postcode": "33511", "addr:country": "US", "name": "Brandon, FL - #3746", "phone": "(813) 681-3755", "website": "https://www.speedeeoil.com/brandon-fl-3746/", "brand": "SpeeDee Oil Change and Auto Service"}, "geometry": {"type": "Point", "coordinates": [-82.292931, 27.935549]}},
{"type": "Feature", "id": "KcBtSVHzmyVVoveq9UqBFKnRlfI=", "properties": {"ref": "#7055", "@spider": "speedee_oil", "addr:full": "7377 Brentwood Blvd", "addr:city": "Brentwood", "addr:state": "CA", "addr:postcode": "94513", "addr:country": "US", "name": "Brentwood, CA - #7055", "phone": "(925) 516-0623", "website": "https://www.speedeeoil.com/brentwood-ca-7055/", "brand": "SpeeDee Oil Change and Auto Service"}, "geometry": {"type": "Point", "coordinates": [-121.696457, 37.94783]}},
{"type": "Feature", "id": "xafHvXAicETsuiCm0q2LZuTlvbo=", "properties": {"ref": "#1083", "@spider": "speedee_oil", "addr:full": "3610 Marietta Hwy", "addr:city": "Canton", "addr:state": "GA", "addr:postcode": "30114", "addr:country": "US", "name": "Canton, GA - #1083", "phone": "(678) 880-3134", "website": "https://www.speedeeoil.com/canton-ga-1083/", "brand": "SpeeDee Oil Change and Auto Service"}, "geometry": {"type": "Point", "coordinates": [-84.509331, 34.197582]}},
{"type": "Feature", "id": "lLKd_UtdDd_2dK42Whsmv9H3SHo=", "properties": {"ref": "#2289", "@spider": "speedee_oil", "addr:full": "20 S Western Ave", "addr:city": "Carpentersville", "addr:state": "IL", "addr:postcode": "60110", "addr:country": "US", "name": "Carpentersville, IL - #2289", "phone": "(847) 426-3330", "website": "https://www.speedeeoil.com/carpentersville-il-2289/", "brand": "SpeeDee Oil Change and Auto Service"}, "geometry": {"type": "Point", "coordinates": [-88.29245, 42.107281]}},
{"type": "Feature", "id": "-Eu82x2yrvh9LjGluu4xPAC_OUQ=", "properties": {"ref": "#4100", "@spider": "speedee_oil", "addr:full": "3107 Old Denton Rd", "addr:city": "Carrollton", "addr:state": "TX", "addr:postcode": "75007", "addr:country": "US", "name": "Carrollton, TX - #4100", "phone": "(972) 394-9586", "website": "https://www.speedeeoil.com/carrollton-tx-4100/", "brand": "SpeeDee Oil Change and Auto Service"}, "geometry": {"type": "Point", "coordinates": [-96.910294, 32.999928]}},
{"type": "Feature", "id": "--ljR_eUnf_gCKUQzw6Ar36NalE=", "properties": {"ref": "#2074", "@spider": "speedee_oil", "addr:full": "321 E FM 1382", "addr:city": "Cedar Hill", "addr:state": "TX", "addr:postcode": "75104", "addr:country": "US", "name": "Cedar Hill, TX - #2074", "phone": "(972) 291-5413", "website": "https://www.speedeeoil.com/cedar-hill-tx-2074/", "brand": "SpeeDee Oil Change and Auto Service"}, "geometry": {"type": "Point", "coordinates": [-96.938713, 32.594238]}},
{"type": "Feature", "id": "uxPrkFusDWEHllLA_-NBfoNTC6M=", "properties": {"ref": "#1590", "@spider": "speedee_oil", "addr:full": "16768 East Smoky Hill Rd", "addr:city": "Centennial", "addr:state": "CO", "addr:postcode": "80015", "addr:country": "US", "name": "Centennial, CO - #1590", "phone": "(303) 690-6855", "website": "https://www.speedeeoil.com/centennial-co-1590/", "brand": "SpeeDee Oil Change and Auto Service"}, "geometry": {"type": "Point", "coordinates": [-104.791885, 39.625031]}},
{"type": "Feature", "id": "jrPochHTm5mhSxV5kQ_IONTsP_s=", "properties": {"ref": "#3019", "@spider": "speedee_oil", "addr:full": "924 Savannah Hwy", "addr:city": "Charleston", "addr:state": "SC", "addr:postcode": "29407", "addr:country": "US", "name": "Charleston, SC - #3019", "phone": "(843) 769-6800", "website": "https://www.speedeeoil.com/locations/us/sc/charleston/924-savannah-hwy", "brand": "SpeeDee Oil Change and Auto Service"}, "geometry": {"type": "Point", "coordinates": [-79.991341, 32.783234]}},
{"type": "Feature", "id": "ep_qjk3FniecehltwLeh-JR-9PY=", "properties": {"ref": "#3025", "@spider": "speedee_oil", "addr:full": "683 Folly Rd", "addr:city": "Charleston", "addr:state": "SC", "addr:postcode": "29412", "addr:country": "US", "name": "Charleston, SC - #3025", "phone": "(843) 795-4600", "website": "https://www.speedeeoil.com/charleston-sc-3025/", "brand": "SpeeDee Oil Change and Auto Service"}, "geometry": {"type": "Point", "coordinates": [-79.970558, 32.74593]}},
{"type": "Feature", "id": "ldlS0MsV7jmvnNsK5RhDDd6YlgA=", "properties": {"ref": "#3003", "@spider": "speedee_oil", "addr:full": "4752 South Blvd", "addr:city": "Charlotte", "addr:state": "NC", "addr:postcode": "28217", "addr:country": "US", "name": "Charlotte, NC - #3003", "phone": "(704) 527-0953", "website": "https://www.speedeeoil.com/charlotte-nc-3003/", "brand": "SpeeDee Oil Change and Auto Service"}, "geometry": {"type": "Point", "coordinates": [-80.876305, 35.174809]}},
{"type": "Feature", "id": "zp97NQRYVnnrMf7VMXoI4bht_TY=", "properties": {"ref": "#3015", "@spider": "speedee_oil", "addr:full": "8226 Pineville Matthews Rd", "addr:city": "Charlotte", "addr:state": "NC", "addr:postcode": "28226", "addr:country": "US", "name": "Charlotte, NC - #3015", "phone": "(704) 544-4665", "website": "https://www.speedeeoil.com/charlotte-nc-3015/", "brand": "SpeeDee Oil Change and Auto Service"}, "geometry": {"type": "Point", "coordinates": [-80.858749, 35.087906]}},
{"type": "Feature", "id": "oyhsr42pR6aOmto0rOzi3ulFI_w=", "properties": {"ref": "#2116", "@spider": "speedee_oil", "addr:full": "6301 N Lincoln Ave", "addr:city": "Chicago", "addr:state": "IL", "addr:postcode": "60659", "addr:country": "US", "name": "Chicago, IL - #2116", "phone": "(773) 539-8454", "website": "https://www.speedeeoil.com/chicago-il-2116/", "brand": "SpeeDee Oil Change and Auto Service"}, "geometry": {"type": "Point", "coordinates": [-87.716148, 41.996105]}},
{"type": "Feature", "id": "HCCDd24NRvgU_Hhvq1f9L695N2k=", "properties": {"ref": "#7014", "@spider": "speedee_oil", "addr:full": "736 Clovis Ave", "addr:city": "Clovis", "addr:state": "CA", "addr:postcode": "93612", "addr:country": "US", "name": "Clovis, CA - #7014", "phone": "(559) 323-8398", "website": "https://www.speedeeoil.com/clovis-ca-7014/", "brand": "SpeeDee Oil Change and Auto Service"}, "geometry": {"type": "Point", "coordinates": [-119.701019, 36.821381]}},
{"type": "Feature", "id": "I1DLU4ONm8J1jkY5s66Gveb0728=", "properties": {"ref": "#8092", "@spider": "speedee_oil", "addr:full": "1411 Harvey Rd.", "addr:city": "College Station", "addr:state": "TX", "addr:postcode": "77840", "addr:country": "US", "name": "College Station, TX - #8092", "phone": "(979) 696-5823", "website": "https://www.speedeeoil.com/college-station-tx-8092/", "brand": "SpeeDee Oil Change and Auto Service"}, "geometry": {"type": "Point", "coordinates": [-96.3053157, 30.6276026]}},
{"type": "Feature", "id": "6A3EDuY1W4joeKT9Mcgnq5-_TJI=", "properties": {"ref": "#3229", "@spider": "speedee_oil", "addr:full": "121 Harbison Blvd", "addr:city": "Columbia", "addr:state": "SC", "addr:postcode": "29212", "addr:country": "US", "name": "Columbia, SC - #3229", "phone": "(803) 407-1911", "website": "https://www.speedeeoil.com/columbia-sc-3229/", "brand": "SpeeDee Oil Change and Auto Service"}, "geometry": {"type": "Point", "coordinates": [-81.166771, 34.068001]}},
{"type": "Feature", "id": "fXkChhbFrpnUV8FQzTlBKxro2p8=", "properties": {"ref": "#3305", "@spider": "speedee_oil", "addr:full": "1101 Broad River Rd", "addr:city": "Columbia", "addr:state": "SC", "addr:postcode": "29210", "addr:country": "US", "name": "Columbia, SC - #3305", "phone": "(803) 731-5330", "website": "https://www.speedeeoil.com/columbia-sc-3305/", "brand": "SpeeDee Oil Change and Auto Service"}, "geometry": {"type": "Point", "coordinates": [-81.082428, 34.026093]}},
{"type": "Feature", "id": "Wnq9oC5fUvjbn-EpjP57lcsGIEI=", "properties": {"ref": "#3306", "@spider": "speedee_oil", "addr:full": "5126 Bush River Rd", "addr:city": "Columbia", "addr:state": "SC", "addr:postcode": "29212", "addr:country": "US", "name": "Columbia, SC - #3306", "phone": "(803) 731-9638", "website": "https://www.speedeeoil.com/columbia-sc-3306/", "brand": "SpeeDee Oil Change and Auto Service"}, "geometry": {"type": "Point", "coordinates": [-81.16301, 34.055542]}},
{"type": "Feature", "id": "eELedZILoVESUbiQn3yru1HCb6Y=", "properties": {"ref": "#3307", "@spider": "speedee_oil", "addr:full": "119 Rabon Rd", "addr:city": "Columbia", "addr:state": "SC", "addr:postcode": "29223", "addr:country": "US", "name": "Columbia, SC - #3307", "phone": "(803) 788-8899", "website": "https://www.speedeeoil.com/columbia-sc-3307/", "brand": "SpeeDee Oil Change and Auto Service"}, "geometry": {"type": "Point", "coordinates": [-80.928696, 34.091141]}},
{"type": "Feature", "id": "TWATqvfNamR4sIoh_zKvOZeiDPw=", "properties": {"ref": "#1628", "@spider": "speedee_oil", "addr:full": "2525 Monument Blvd", "addr:city": "Concord", "addr:state": "CA", "addr:postcode": "94520", "addr:country": "US", "name": "Concord, CA - #1628", "phone": "(925) 687-6062", "website": "https://www.speedeeoil.com/concord-ca-1628/", "brand": "SpeeDee Oil Change and Auto Service"}, "geometry": {"type": "Point", "coordinates": [-122.033272, 37.960976]}},
{"type": "Feature", "id": "cWvH0iLlQbjtJaHCtMDTtce3fHo=", "properties": {"ref": "#3033", "@spider": "speedee_oil", "addr:full": "1001 Concord Pkwy N", "addr:city": "Concord", "addr:state": "NC", "addr:postcode": "28027", "addr:country": "US", "name": "Concord, NC - #3033", "phone": "(704) 795-6335", "website": "https://www.speedeeoil.com/concord-nc-3033/", "brand": "SpeeDee Oil Change and Auto Service"}, "geometry": {"type": "Point", "coordinates": [-80.612808, 35.428089]}},
{"type": "Feature", "id": "yTD1vy8xsCD36k4KOVFDOIaApCo=", "properties": {"ref": "#5266", "@spider": "speedee_oil", "addr:full": "3209 S Padre Island Dr", "addr:city": "Corpus Christi", "addr:state": "TX", "addr:postcode": "78415", "addr:country": "US", "name": "Corpus Christi, TX - #5266", "phone": "(361) 854-1545", "website": "https://www.speedeeoil.com/corpus-christi-tx-5266/", "brand": "SpeeDee Oil Change and Auto Service"}, "geometry": {"type": "Point", "coordinates": [-97.412544, 27.727615]}},
{"type": "Feature", "id": "_bxw6Vzk108AAm5uPeW7aneIwgg=", "properties": {"ref": "#7054", "@spider": "speedee_oil", "addr:full": "1704 Mendon Rd", "addr:city": "Cumberland", "addr:state": "RI", "addr:postcode": "02864", "addr:country": "US", "name": "Cumberland, RI - #7054", "phone": "(401) 333-6660", "website": "https://www.speedeeoil.com/cumberland-ri-7054/", "brand": "SpeeDee Oil Change and Auto Service"}, "geometry": {"type": "Point", "coordinates": [-71.435081, 41.942226]}},
{"type": "Feature", "id": "qAxRU7UPq14AvsJo1VngoLJRGlM=", "properties": {"ref": "#2070", "@spider": "speedee_oil", "addr:full": "7038 Snider Plz", "addr:city": "Dallas", "addr:state": "TX", "addr:postcode": "75205", "addr:country": "US", "name": "Dallas, TX - #2070", "phone": "(214) 696-5836", "website": "https://www.speedeeoil.com/dallas-tx-2070/", "brand": "SpeeDee Oil Change and Auto Service"}, "geometry": {"type": "Point", "coordinates": [-96.787682, 32.850883]}},
{"type": "Feature", "id": "nLLhHmajre-He1IX0DHzbQAak3c=", "properties": {"ref": "#4003", "@spider": "speedee_oil", "addr:full": "14014 Montfort Dr", "addr:city": "Dallas", "addr:state": "TX", "addr:postcode": "75240", "addr:country": "US", "name": "Dallas, TX - #4003", "phone": "(972) 701-9151", "website": "https://www.speedeeoil.com/dallas-tx-4003/", "brand": "SpeeDee Oil Change and Auto Service"}, "geometry": {"type": "Point", "coordinates": [-96.813515, 32.938656]}},
{"type": "Feature", "id": "peqRjvpTmwREnlbXL2NYx_wNA0o=", "properties": {"ref": "#7034", "@spider": "speedee_oil", "addr:full": "1600 Sullivan Ave", "addr:city": "Daly City", "addr:state": "CA", "addr:postcode": "94015", "addr:country": "US", "name": "Daly City, CA - #7034", "phone": "(650) 755-8777", "website": "https://www.speedeeoil.com/daly-city-ca-7034/", "brand": "SpeeDee Oil Change and Auto Service"}, "geometry": {"type": "Point", "coordinates": [-122.472572, 37.687653]}},
{"type": "Feature", "id": "Q8FrFVDdANdxxm8r2HqXZEh4eT8=", "properties": {"ref": "#7050", "@spider": "speedee_oil", "addr:full": "2000 F St", "addr:city": "Davis", "addr:state": "CA", "addr:postcode": "95616", "addr:country": "US", "name": "Davis, CA - #7050", "phone": "(530) 753-1633", "website": "https://www.speedeeoil.com/davis-ca-7050/", "brand": "SpeeDee Oil Change and Auto Service"}, "geometry": {"type": "Point", "coordinates": [-121.744522, 38.561207]}},
{"type": "Feature", "id": "0OsJIPY7f-ryHkYQqKZD-Z5jTiA=", "properties": {"ref": "#1302", "@spider": "speedee_oil", "addr:full": "7005 E Colfax Ave", "addr:city": "Denver", "addr:state": "CO", "addr:postcode": "80220", "addr:country": "US", "name": "Denver, CO - #1302", "phone": "(303) 993-3408", "website": "https://www.speedeeoil.com/denver-co-1302/", "brand": "SpeeDee Oil Change and Auto Service"}, "geometry": {"type": "Point", "coordinates": [-104.906715, 39.740353]}},
{"type": "Feature", "id": "13KCDADmA9Qt7y4vjJILTsqFo1A=", "properties": {"ref": "#7200", "@spider": "speedee_oil", "addr:full": "485 Merrimack Ave. ", "addr:city": "Dracut", "addr:state": "MA", "addr:postcode": "01826", "addr:country": "US", "name": "Dracut, MA - #7200", "phone": "(978) 970-2800", "website": "https://www.speedeeoil.com/dracut-ma-7200/", "brand": "SpeeDee Oil Change and Auto Service"}, "geometry": {"type": "Point", "coordinates": [-71.2689762, 42.6580083]}},
{"type": "Feature", "id": "GxCtArcgNPKcG6d1s-ErSOiRUq8=", "properties": {"ref": "#1865", "@spider": "speedee_oil", "addr:full": "6955 Village Pkwy", "addr:city": "Dublin", "addr:state": "CA", "addr:postcode": "94568", "addr:country": "US", "name": "Dublin, CA - #1865", "phone": "(925) 905-8988", "website": "https://www.speedeeoil.com/dublin-ca-1865/", "brand": "SpeeDee Oil Change and Auto Service"}, "geometry": {"type": "Point", "coordinates": [-121.92469, 37.708115]}},
{"type": "Feature", "id": "iHYpS_KKWToerUKlnubSkQdOJ0Y=", "properties": {"ref": "#8050", "@spider": "speedee_oil", "addr:full": "1201 N. Santa Fe Ave.", "addr:city": "Edmond", "addr:state": "OK", "addr:postcode": "73003", "addr:country": "US", "name": "Edmond, OK - #8050", "phone": "(405) 844-1201", "website": "https://www.speedeeoil.com/edmond-ok-8050", "brand": "SpeeDee Oil Change and Auto Service"}, "geometry": {"type": "Point", "coordinates": [-97.5146138, 35.6666074]}},
{"type": "Feature", "id": "vMgq22bIWu2re_f7OC1az5EneiY=", "properties": {"ref": "#7098", "@spider": "speedee_oil", "addr:full": "8573 Elk Grove Blvd", "addr:city": "Elk Grove", "addr:state": "CA", "addr:postcode": "95624", "addr:country": "US", "name": "Elk Grove, CA - #7098", "phone": "(916) 686-1616", "website": "https://www.speedeeoil.com/elk-grove-ca-7098/", "brand": "SpeeDee Oil Change and Auto Service"}, "geometry": {"type": "Point", "coordinates": [-121.386169, 38.409512]}},
{"type": "Feature", "id": "JLeYMvctm8_46_ctnT9_JscLCQU=", "properties": {"ref": "#7041", "@spider": "speedee_oil", "addr:full": "5490 Dewey Dr", "addr:city": "Fair Oaks", "addr:state": "CA", "addr:postcode": "95628", "addr:country": "US", "name": "Fair Oaks, CA - #7041", "phone": "(916) 965-8017", "website": "https://www.speedeeoil.com/fair-oaks-ca-7041/", "brand": "SpeeDee Oil Change and Auto Service"}, "geometry": {"type": "Point", "coordinates": [-121.308289, 38.666313]}},
{"type": "Feature", "id": "pXI5nL7RGlf6ih4sVThWMIJHju8=", "properties": {"ref": "#9013", "@spider": "speedee_oil", "addr:full": "370 John Fitch Hwy", "addr:city": "Fitchburg", "addr:state": "MA", "addr:postcode": "01420", "addr:country": "US", "name": "Fitchburg, MA - #9013", "phone": "(978) 343-0223", "website": "https://www.speedeeoil.com/fitchburg-ma-9013/", "brand": "SpeeDee Oil Change and Auto Service"}, "geometry": {"type": "Point", "coordinates": [-71.774063, 42.580605]}},
{"type": "Feature", "id": "S4SsclGyHYFGZatCRaAcS6J9X5o=", "properties": {"ref": "#7067", "@spider": "speedee_oil", "addr:full": "6604 Folsom Auburn Rd", "addr:city": "Folsom", "addr:state": "CA", "addr:postcode": "95630", "addr:country": "US", "name": "Folsom, CA - #7067", "phone": "(916) 988-0531", "website": "https://www.speedeeoil.com/folsom-ca-7067/", "brand": "SpeeDee Oil Change and Auto Service"}, "geometry": {"type": "Point", "coordinates": [-121.179207, 38.685017]}},
{"type": "Feature", "id": "8TUIGEM83LtwLYuNQylYGnh_sqs=", "properties": {"ref": "#9310", "@spider": "speedee_oil", "addr:full": "3215 Highway 21, Fort Mill, SC ", "addr:city": "Fort Mill", "addr:state": "SC", "addr:postcode": "29715", "addr:country": "US", "name": "Fort Mill, SC - #9310", "phone": "(803) 548-5265", "website": "https://www.speedeeoil.com/fort-mill-sc-9310/", "brand": "SpeeDee Oil Change and Auto Service"}, "geometry": {"type": "Point", "coordinates": [-80.934731, 35.080845]}},
{"type": "Feature", "id": "KFBzg_PpFcjvnitLD4sD4ufUnH0=", "properties": {"ref": "#2113", "@spider": "speedee_oil", "addr:full": "1541 E Wabash St", "addr:city": "Frankfort", "addr:state": "IN", "addr:postcode": "46041", "addr:country": "US", "name": "Frankfort, IN - #2113", "phone": "(765) 659-4651", "website": "https://www.speedeeoil.com/frankfort-in-2113/", "brand": "SpeeDee Oil Change and Auto Service"}, "geometry": {"type": "Point", "coordinates": [-86.493927, 40.277966]}},
{"type": "Feature", "id": "aqWKi8mWE9DN1JTfjvylGbM2cD0=", "properties": {"ref": "#1783", "@spider": "speedee_oil", "addr:full": "4045 Thornton Ave", "addr:city": "Fremont", "addr:state": "CA", "addr:postcode": "94536", "addr:country": "US", "name": "Fremont, CA - #1783", "phone": "(510) 796-4111", "website": "https://www.speedeeoil.com/fremont-ca-1783/", "brand": "SpeeDee Oil Change and Auto Service"}, "geometry": {"type": "Point", "coordinates": [-122.012596, 37.560272]}},
{"type": "Feature", "id": "kcnr-zjOJlSoH5uEYxY4uCFBhm4=", "properties": {"ref": "#1868", "@spider": "speedee_oil", "addr:full": "3741 Washington Blvd", "addr:city": "Fremont", "addr:state": "CA", "addr:postcode": "94538", "addr:country": "US", "name": "Fremont, CA - #1868", "phone": "(510) 659-0111", "website": "https://www.speedeeoil.com/fremont-ca-1868/", "brand": "SpeeDee Oil Change and Auto Service"}, "geometry": {"type": "Point", "coordinates": [-121.955856, 37.5331]}},
{"type": "Feature", "id": "glESm51hvDpfJDqeFODMjCloXTI=", "properties": {"ref": "#8076", "@spider": "speedee_oil", "addr:full": "3480 Main St.", "addr:city": "Frisco", "addr:state": "TX", "addr:postcode": "75034", "addr:country": "US", "name": "Frisco, TX - #8076", "phone": "214-705-2530", "website": "https://www.speedeeoil.com/frisco-tx-8076/", "brand": "SpeeDee Oil Change and Auto Service"}, "geometry": {"type": "Point", "coordinates": [-96.8598519, 33.1536028]}},
{"type": "Feature", "id": "brIWkEc6JpIkDpH6VyWsi8wOv_w=", "properties": {"ref": "#7046", "@spider": "speedee_oil", "addr:full": "15 Donlan St", "addr:city": "Gardner", "addr:state": "MA", "addr:postcode": "01440", "addr:country": "US", "name": "Gardner, MA - #7046", "phone": "(978) 630-1511", "website": "https://www.speedeeoil.com/gardner-ma-7046/", "brand": "SpeeDee Oil Change and Auto Service"}, "geometry": {"type": "Point", "coordinates": [-71.9924702, 42.5681109]}},
{"type": "Feature", "id": "q_NvMhZNB4FDbABaXE2ySbJSFK4=", "properties": {"ref": "#3027", "@spider": "speedee_oil", "addr:full": "2040 E Fire Tower Rd", "addr:city": "Greenville", "addr:state": "NC", "addr:postcode": "27858", "addr:country": "US", "name": "Greenville, NC - #3027", "phone": "(252) 756-6214", "website": "https://www.speedeeoil.com/greenville-nc-3027/", "brand": "SpeeDee Oil Change and Auto Service"}, "geometry": {"type": "Point", "coordinates": [-77.352119, 35.565983]}},
{"type": "Feature", "id": "e61zarR0FqCSGJl8qR-JtSKRyZE=", "properties": {"ref": "#9311", "@spider": "speedee_oil", "addr:full": "126 Greenville Blvd. SE", "addr:city": "Greenville", "addr:state": "NC", "addr:postcode": "27858", "addr:country": "US", "name": "Greenville, NC - #9311", "phone": "(252) 751-6463", "website": "https://www.speedeeoil.com/greenville-nc-9311/", "brand": "SpeeDee Oil Change and Auto Service"}, "geometry": {"type": "Point", "coordinates": [-77.3797, 35.578465]}},
{"type": "Feature", "id": "9ijokyLq5nZ5lbYHcoXIBLQtOgs=", "properties": {"ref": "#2031", "@spider": "speedee_oil", "addr:full": "616 Terry Pkwy", "addr:city": "Gretna", "addr:state": "LA", "addr:postcode": "70056", "addr:country": "US", "name": "Gretna, LA - #2031", "phone": "(504) 267-4553", "website": "https://www.speedeeoil.com/gretna-la-2031/", "brand": "SpeeDee Oil Change and Auto Service"}, "geometry": {"type": "Point", "coordinates": [-90.030571, 29.903038]}},
{"type": "Feature", "id": "Fry1_3qe0ZazceeU_sKoC9kALRQ=", "properties": {"ref": "#2030", "@spider": "speedee_oil", "addr:full": "1301 N Morrison Blvd", "addr:city": "Hammond", "addr:state": "LA", "addr:postcode": "70401", "addr:country": "US", "name": "Hammond, LA - #2030", "phone": "(985) 662-3338", "website": "https://www.speedeeoil.com/hammond-la-2030/", "brand": "SpeeDee Oil Change and Auto Service"}, "geometry": {"type": "Point", "coordinates": [-90.483162, 30.513121]}},
{"type": "Feature", "id": "PKWteiuSuTnxsz0ftyqbjPV1FjI=", "properties": {"ref": "#1246", "@spider": "speedee_oil", "addr:full": "1078 La Playa Dr", "addr:city": "Hayward", "addr:state": "CA", "addr:postcode": "94545", "addr:country": "US", "name": "Hayward, CA - #1246", "phone": "(510) 783-0434", "website": "https://www.speedeeoil.com/hayward-ca-1246/", "brand": "SpeeDee Oil Change and Auto Service"}, "geometry": {"type": "Point", "coordinates": [-122.105148, 37.64772]}},
{"type": "Feature", "id": "Bb8j9bxwYEv7WPsKRJNMlIjUlYs=", "properties": {"ref": "#7047", "@spider": "speedee_oil", "addr:full": "1699 Airline Hwy", "addr:city": "Hollister", "addr:state": "CA", "addr:postcode": "95023", "addr:country": "US", "name": "Hollister, CA - #7047", "phone": "(831) 638-9999", "website": "https://www.speedeeoil.com/hollister-ca-7047/", "brand": "SpeeDee Oil Change and Auto Service"}, "geometry": {"type": "Point", "coordinates": [-121.389786, 36.838943]}},
{"type": "Feature", "id": "IyZ1bKbXxtN3CanuSUyXUSdjBdY=", "properties": {"ref": "#1292", "@spider": "speedee_oil", "addr:full": "18070 Halsted St", "addr:city": "Homewood", "addr:state": "IL", "addr:postcode": "60430", "addr:country": "US", "name": "Homewood, IL - #1292", "phone": "(708) 957-9295", "website": "https://www.speedeeoil.com/homewood-il-1292/", "brand": "SpeeDee Oil Change and Auto Service"}, "geometry": {"type": "Point", "coordinates": [-87.636879, 41.560722]}},
{"type": "Feature", "id": "udqWMIm1IrD_-_Bdoh7B99-Vzrs=", "properties": {"ref": "#5336", "@spider": "speedee_oil", "addr:full": "19009 Highway 59", "addr:city": "Humble", "addr:state": "TX", "addr:postcode": "77338", "addr:country": "US", "name": "Humble, TX - #5336", "phone": "(281) 446-6402", "website": "https://www.speedeeoil.com/humble-tx-5336/", "brand": "SpeeDee Oil Change and Auto Service"}, "geometry": {"type": "Point", "coordinates": [-95.272949, 29.995188]}},
{"type": "Feature", "id": "2EIIVmfj3W4B1w-rKGL7IFtI4p4=", "properties": {"ref": "#2084", "@spider": "speedee_oil", "addr:full": "359 Grapevine Hwy", "addr:city": "Hurst", "addr:state": "TX", "addr:postcode": "76054", "addr:country": "US", "name": "Hurst, TX - #2084", "phone": "(817) 514-0325", "website": "https://www.speedeeoil.com/hurst-tx-2084/", "brand": "SpeeDee Oil Change and Auto Service"}, "geometry": {"type": "Point", "coordinates": [-97.173698, 32.865486]}},
{"type": "Feature", "id": "kk5gyAbP1Y_pEt0gkCYeM6uqqrc=", "properties": {"ref": "#7107", "@spider": "speedee_oil", "addr:full": "12470 Jackson Gate Rd", "addr:city": "Jackson", "addr:state": "CA", "addr:postcode": "95642", "addr:country": "US", "name": "Jackson, CA - #7107", "phone": "(209) 223-1455", "website": "https://www.speedeeoil.com/jackson-ca-7107/", "brand": "SpeeDee Oil Change and Auto Service"}, "geometry": {"type": "Point", "coordinates": [-120.794907, 38.367447]}},
{"type": "Feature", "id": "CE6V5Hpp-rzSQSrTd7HBnhKgHDw=", "properties": {"ref": "#4263", "@spider": "speedee_oil", "addr:full": "202 Elm St", "addr:city": "Kalkaska", "addr:state": "MI", "addr:postcode": "49646", "addr:country": "US", "name": "Kalkaska, MI - #4263", "phone": "(231) 258-2889", "website": "https://www.speedeeoil.com/kalkaska-mi-4263/", "brand": "SpeeDee Oil Change and Auto Service"}, "geometry": {"type": "Point", "coordinates": [-85.177544, 44.729401]}},
{"type": "Feature", "id": "SNstXOjj4tDFwER2yk7h5Xzdaw8=", "properties": {"ref": "#2241", "@spider": "speedee_oil", "addr:full": "102 W 25th St", "addr:city": "Kearney", "addr:state": "NE", "addr:postcode": "68847", "addr:country": "US", "name": "Kearney, NE - #2241", "phone": "(308) 236-5377", "website": "https://www.speedeeoil.com/kearney-ne-2241/", "brand": "SpeeDee Oil Change and Auto Service"}, "geometry": {"type": "Point", "coordinates": [-99.083328, 40.700005]}},
{"type": "Feature", "id": "A6enDiu-3Ll4E-V-g_gwsuAt-CU=", "properties": {"ref": "#2007", "@spider": "speedee_oil", "addr:full": "3211 Williams Blvd", "addr:city": "Kenner", "addr:state": "LA", "addr:postcode": "70065", "addr:country": "US", "name": "Kenner, LA - #2007", "phone": "(504) 712-0590", "website": "https://www.speedeeoil.com/kenner-la-2007/", "brand": "SpeeDee Oil Change and Auto Service"}, "geometry": {"type": "Point", "coordinates": [-90.240112, 30.014706]}},
{"type": "Feature", "id": "CQJ6MIoA47lL9jvMBUo1WdDQZr4=", "properties": {"ref": "#1281", "@spider": "speedee_oil", "addr:full": "7207 University Ave", "addr:city": "La Mesa", "addr:state": "CA", "addr:postcode": "91941", "addr:country": "US", "name": "La Mesa, CA - #1281", "phone": "(619) 466-1156", "website": "https://www.speedeeoil.com/la-mesa-ca-1281/", "brand": "SpeeDee Oil Change and Auto Service"}, "geometry": {"type": "Point", "coordinates": [-117.042511, 32.754913]}},
{"type": "Feature", "id": "Tt1WJkvEXy3nP8Zg3BuRuoV1dr8=", "properties": {"ref": "#2507", "@spider": "speedee_oil", "addr:full": "888 S Rand Rd", "addr:city": "Lake Zurich", "addr:state": "IL", "addr:postcode": "60047", "addr:country": "US", "name": "Lake Zurich, IL - #2507", "phone": "(847) 438-1660", "website": "https://www.speedeeoil.com/lake-zurich-il-2507/", "brand": "SpeeDee Oil Change and Auto Service"}, "geometry": {"type": "Point", "coordinates": [-88.085381, 42.18351]}},
{"type": "Feature", "id": "rqeYjp9408BUkV91OrFVQd8DHL4=", "properties": {"ref": "#3173", "@spider": "speedee_oil", "addr:full": "3250 S Florida Ave", "addr:city": "Lakeland", "addr:state": "FL", "addr:postcode": "33803", "addr:country": "US", "name": "Lakeland, FL - #3173", "phone": "(863) 646-1461", "website": "https://www.speedeeoil.com/lakeland-fl-3173/", "brand": "SpeeDee Oil Change and Auto Service"}, "geometry": {"type": "Point", "coordinates": [-81.956604, 28.003801]}},
{"type": "Feature", "id": "Pq8GJdEE-1-Fdz5Lk_IGvsp6vLg=", "properties": {"ref": "#3286", "@spider": "speedee_oil", "addr:full": "7316 N US 98", "addr:city": "Lakeland", "addr:state": "FL", "addr:postcode": "33810", "addr:country": "US", "name": "Lakeland, FL - #3286", "phone": "(863) 859-4433", "website": "https://www.speedeeoil.com/lakeland-fl-3286/", "brand": "SpeeDee Oil Change and Auto Service"}, "geometry": {"type": "Point", "coordinates": [-81.974167, 28.135904]}},
{"type": "Feature", "id": "PQep7m15MIIuuguuj82HsLBz_zE=", "properties": {"ref": "#2400", "@spider": "speedee_oil", "addr:full": "5610 W Charleston Blvd", "addr:city": "Las Vegas", "addr:state": "NV", "addr:postcode": "89146", "addr:country": "US", "name": "Las Vegas, NV - #2400", "phone": "(702) 819-0625", "website": "https://www.speedeeoil.com/las-vegas-nv-2400/", "brand": "SpeeDee Oil Change and Auto Service"}, "geometry": {"type": "Point", "coordinates": [-115.2177932, 36.1596348]}},
{"type": "Feature", "id": "0uhmnNti1BdbbgIVGDNQ5YkE0I4=", "properties": {"ref": "#1079", "@spider": "speedee_oil", "addr:full": "999 Duluth Hwy", "addr:city": "Lawrenceville", "addr:state": "GA", "addr:postcode": "30043", "addr:country": "US", "name": "Lawrenceville, GA - #1079", "phone": "(770) 237-3441", "website": "https://www.speedeeoil.com/lawrenceville-ga-1079/", "brand": "SpeeDee Oil Change and Auto Service"}, "geometry": {"type": "Point", "coordinates": [-84.028099, 33.969315]}},
{"type": "Feature", "id": "wzuvbosEKmFvYnzMSAgJxq9ON44=", "properties": {"ref": "#5128", "@spider": "speedee_oil", "addr:full": "6805 Bandera Rd", "addr:city": "Leon Valley", "addr:state": "TX", "addr:postcode": "78238", "addr:country": "US", "name": "Leon Valley, TX - #5128", "phone": "(210) 681-7251", "website": "https://www.speedeeoil.com/leon-valley-tx-5128/", "brand": "SpeeDee Oil Change and Auto Service"}, "geometry": {"type": "Point", "coordinates": [-98.6203, 29.497261]}},
{"type": "Feature", "id": "fexPmLItxa5DlOgbDU5OjrXuKIc=", "properties": {"ref": "#3276", "@spider": "speedee_oil", "addr:full": "931 North Lake Drive", "addr:city": "Lexington", "addr:state": "SC", "addr:postcode": "29072", "addr:country": "US", "name": "Lexington, SC - #3276", "phone": "(803) 520-0134", "website": "https://www.speedeeoil.com/lexington-sc-3276/", "brand": "SpeeDee Oil Change and Auto Service"}, "geometry": {"type": "Point", "coordinates": [-81.230247, 33.996063]}},
{"type": "Feature", "id": "3msEf5xrfekKooaWmrFPX1CSfX8=", "properties": {"ref": "#3308", "@spider": "speedee_oil", "addr:full": "5537 Sunset Blvd", "addr:city": "Lexington", "addr:state": "SC", "addr:postcode": "29072", "addr:country": "US", "name": "Lexington, SC - #3308", "phone": "(803) 356-1327", "website": "https://www.speedeeoil.com/lexington-sc-3308/", "brand": "SpeeDee Oil Change and Auto Service"}, "geometry": {"type": "Point", "coordinates": [-81.221863, 33.996529]}},
{"type": "Feature", "id": "DVSZMB9_A4Q-Yd92geex8pjZms4=", "properties": {"ref": "#8048", "@spider": "speedee_oil", "addr:full": "3730 Cornhusker Highway", "addr:city": "Lincoln", "addr:state": "NE", "addr:postcode": "68504", "addr:country": "US", "name": "Lincoln, NE - #8048", "phone": "(402) 467-1233", "website": "https://www.speedeeoil.com/lincoln-ne-8048/", "brand": "SpeeDee Oil Change and Auto Service"}, "geometry": {"type": "Point", "coordinates": [-96.6673252, 40.8449009]}},
{"type": "Feature", "id": "RwcYXyO4TCdf8Rs-LUXBNamAx8s=", "properties": {"ref": "#8047", "@spider": "speedee_oil", "addr:full": "461 Stanley K Tanger Dr.", "addr:city": "Locust Grove", "addr:state": "GA", "addr:postcode": "30248", "addr:country": "US", "name": "Locust Grove, GA - #8047", "phone": "(770) 288-2990", "website": "https://www.speedeeoil.com/locust-grove-ga-8047/", "brand": "SpeeDee Oil Change and Auto Service"}, "geometry": {"type": "Point", "coordinates": [-84.1209134, 33.3478334]}},
{"type": "Feature", "id": "43bRefASjepSgQvH-A3Jyv82nxc=", "properties": {"ref": "#2154", "@spider": "speedee_oil", "addr:full": "832 E Roosevelt Rd", "addr:city": "Lombard", "addr:state": "IL", "addr:postcode": "60148", "addr:country": "US", "name": "Lombard, IL - #2154", "phone": "(620) 627-6710", "website": "https://www.speedeeoil.com/lombard-il-2154/", "brand": "SpeeDee Oil Change and Auto Service"}, "geometry": {"type": "Point", "coordinates": [-87.99881, 41.861053]}},
{"type": "Feature", "id": "J0XCqq1B8TIkJseaolYOsQkDxgU=", "properties": {"ref": "#7043", "@spider": "speedee_oil", "addr:full": "15643 Los Gatos Blvd", "addr:city": "Los Gatos", "addr:state": "CA", "addr:postcode": "95032", "addr:country": "US", "name": "Los Gatos, CA - #7043", "phone": "(408) 356-9301", "website": "https://www.speedeeoil.com/los-gatos-ca-7043/", "brand": "SpeeDee Oil Change and Auto Service"}, "geometry": {"type": "Point", "coordinates": [-121.960777, 37.241383]}},
{"type": "Feature", "id": "1Z5tvleQ36kBX0joa4cnQNOO0hQ=", "properties": {"ref": "#7085", "@spider": "speedee_oil", "addr:full": "245 W Louise Ave", "addr:city": "Manteca", "addr:state": "CA", "addr:postcode": "95336", "addr:country": "US", "name": "Manteca, CA - #7085", "phone": "(209) 825-5823", "website": "https://www.speedeeoil.com/manteca-ca-7085/", "brand": "SpeeDee Oil Change and Auto Service"}, "geometry": {"type": "Point", "coordinates": [-121.219215, 37.812164]}},
{"type": "Feature", "id": "AalZW22S-kFUnzzzHKWUJ4MN6Go=", "properties": {"ref": "#8093", "@spider": "speedee_oil", "addr:full": "3015 US-281", "addr:city": "Marble Falls", "addr:state": "TX", "addr:postcode": "78654", "addr:country": "US", "name": "Marble Falls, TX - #8093", "phone": "(830) 220-5252", "website": "https://www.speedeeoil.com/marble-falls-tx-8093", "brand": "SpeeDee Oil Change and Auto Service"}, "geometry": {"type": "Point", "coordinates": [-98.2674305, 30.601886]}},
{"type": "Feature", "id": "qL-o7UDdpxcC0kwGhhVbFeUrhOs=", "properties": {"ref": "#1660", "@spider": "speedee_oil", "addr:full": "1420 V St", "addr:city": "Merced", "addr:state": "CA", "addr:postcode": "95340", "addr:country": "US", "name": "Merced, CA - #1660", "phone": "(209) 722-5705", "website": "https://www.speedeeoil.com/merced-ca-1660/", "brand": "SpeeDee Oil Change and Auto Service"}, "geometry": {"type": "Point", "coordinates": [-120.499657, 37.304195]}},
{"type": "Feature", "id": "AZYFeo0_BRxPBSppN2OrNcIAQiM=", "properties": {"ref": "#2082", "@spider": "speedee_oil", "addr:full": "2412 N Galloway Ave", "addr:city": "Mesquite", "addr:state": "TX", "addr:postcode": "75150", "addr:country": "US", "name": "Mesquite, TX - #2082", "phone": "(972) 707-8970", "website": "https://www.speedeeoil.com/mesquite-tx-2082/", "brand": "SpeeDee Oil Change and Auto Service"}, "geometry": {"type": "Point", "coordinates": [-96.611336, 32.798466]}},
{"type": "Feature", "id": "swc3tVqV2CKdcW7i8dgwKpYRhLg=", "properties": {"ref": "#2009", "@spider": "speedee_oil", "addr:full": "4001 Veterans Memorial Blvd", "addr:city": "Metairie", "addr:state": "LA", "addr:postcode": "70002", "addr:country": "US", "name": "Metairie, LA - #2009", "phone": "(504) 510-2735", "website": "https://www.speedeeoil.com/metairie-la-2009/", "brand": "SpeeDee Oil Change and Auto Service"}, "geometry": {"type": "Point", "coordinates": [-90.17485, 30.005054]}},
{"type": "Feature", "id": "eVioexfUHllvffCxCJfaUwKNpf0=", "properties": {"ref": "#2044", "@spider": "speedee_oil", "addr:full": "8835 Veterans Memorial Blvd", "addr:city": "Metairie", "addr:state": "LA", "addr:postcode": "70003", "addr:country": "US", "name": "Metairie, LA - #2044", "phone": "(504) 464-4116", "website": "https://www.speedeeoil.com/metairie-la-2044/", "brand": "SpeeDee Oil Change and Auto Service"}, "geometry": {"type": "Point", "coordinates": [-90.225838, 30.005554]}},
{"type": "Feature", "id": "IRtlmqChBLl_NHVrgZ0TE2GYGYE=", "properties": {"ref": "#2301", "@spider": "speedee_oil", "addr:full": "1714 Veterans Blvd", "addr:city": "Metairie", "addr:state": "LA", "addr:postcode": "70005", "addr:country": "US", "name": "Metairie, LA - #2301", "phone": "(504) 828-1714", "website": "https://www.speedeeoil.com/metairie-la-2301/", "brand": "SpeeDee Oil Change and Auto Service"}, "geometry": {"type": "Point", "coordinates": [-90.142059, 30.001659]}},
{"type": "Feature", "id": "F_LXNm3IyuaG72RGMtkU4KjbVG4=", "properties": {"ref": "#3311", "@spider": "speedee_oil", "addr:full": "2390 NW 107th Ave", "addr:city": "Miami", "addr:state": "FL", "addr:postcode": "33172", "addr:country": "US", "name": "Miami, FL - #3311", "phone": "(305) 597-5670", "website": "https://www.speedeeoil.com/miami-fl-3311/", "brand": "SpeeDee Oil Change and Auto Service"}, "geometry": {"type": "Point", "coordinates": [-80.369408, 25.795816]}},
{"type": "Feature", "id": "iEQjTGZDiSqvIHK-F1U_O2uXGpM=", "properties": {"ref": "#7021", "@spider": "speedee_oil", "addr:full": "390 El Camino Real", "addr:city": "Millbrae", "addr:state": "CA", "addr:postcode": "94030", "addr:country": "US", "name": "Millbrae, CA - #7021", "phone": "(650) 692-6740", "website": "https://www.speedeeoil.com/millbrae-ca-7021/", "brand": "SpeeDee Oil Change and Auto Service"}, "geometry": {"type": "Point", "coordinates": [-122.391304, 37.602364]}},
{"type": "Feature", "id": "NQL_hRuO7nW8zlzAGralwkiSviM=", "properties": {"ref": "#7087", "@spider": "speedee_oil", "addr:full": "635 Trade Zone Blvd", "addr:city": "Milpitas", "addr:state": "CA", "addr:postcode": "95035", "addr:country": "US", "name": "Milpitas, CA - #7087", "phone": "(408) 262-8081", "website": "https://www.speedeeoil.com/milpitas-ca-7087/", "brand": "SpeeDee Oil Change and Auto Service"}, "geometry": {"type": "Point", "coordinates": [-121.892082, 37.403805]}},
{"type": "Feature", "id": "JpRt_NMLMkpdXIiUm-gTygCW6z4=", "properties": {"ref": "#7065", "@spider": "speedee_oil", "addr:full": "1343 Coffee Rd", "addr:city": "Modesto", "addr:state": "CA", "addr:postcode": "95355", "addr:country": "US", "name": "Modesto, CA - #7065", "phone": "(209) 521-1929", "website": "https://www.speedeeoil.com/modesto-ca-7065/", "brand": "SpeeDee Oil Change and Auto Service"}, "geometry": {"type": "Point", "coordinates": [-120.976021, 37.663322]}},
{"type": "Feature", "id": "HPAQdA0-ETCf2IgxIoWNhYfjHcg=", "properties": {"ref": "#7101", "@spider": "speedee_oil", "addr:full": "1760 E Hatch Rd", "addr:city": "Modesto", "addr:state": "CA", "addr:postcode": "95351", "addr:country": "US", "name": "Modesto, CA - #7101", "phone": "(209) 538-3999", "website": "https://www.speedeeoil.com/modesto-ca-7101/", "brand": "SpeeDee Oil Change and Auto Service"}, "geometry": {"type": "Point", "coordinates": [-120.964447, 37.608925]}},
{"type": "Feature", "id": "Jprzuv-QJ9QwDkjxoC8WnmN62jA=", "properties": {"ref": "#3026", "@spider": "speedee_oil", "addr:full": "1498 N Highway 17", "addr:city": "Mount Pleasant", "addr:state": "SC", "addr:postcode": "29464", "addr:country": "US", "name": "Mount Pleasant, SC - #3026", "phone": "(843) 849-2221", "website": "https://www.speedeeoil.com/mount-pleasant-sc-3026/", "brand": "SpeeDee Oil Change and Auto Service"}, "geometry": {"type": "Point", "coordinates": [-79.845451, 32.817822]}},
{"type": "Feature", "id": "Z8fzcuy3cHUIKW1o4E2rf7sZ4Fc=", "properties": {"ref": "#1446", "@spider": "speedee_oil", "addr:full": "1797 Soscol Ave", "addr:city": "Napa", "addr:state": "CA", "addr:postcode": "94559", "addr:country": "US", "name": "Napa, CA - #1446", "phone": "(707) 257-0925", "website": "https://www.speedeeoil.com/napa-ca-1446/", "brand": "SpeeDee Oil Change and Auto Service"}, "geometry": {"type": "Point", "coordinates": [-122.285561, 38.307011]}},
{"type": "Feature", "id": "3UIAwc-1LYnxuuKwDYCgRg9zkzY=", "properties": {"ref": "#7003", "@spider": "speedee_oil", "addr:full": "500 Kings Hwy", "addr:city": "New Bedford", "addr:state": "MA", "addr:postcode": "2745", "addr:country": "US", "name": "New Bedford, MA - #7003", "phone": "(508) 998-7530", "website": "https://www.speedeeoil.com/new-bedford-ma-7003/", "brand": "SpeeDee Oil Change and Auto Service"}, "geometry": {"type": "Point", "coordinates": [-70.94101, 41.673077]}},
{"type": "Feature", "id": "MCbDgelPadzf0mVdkJTnJMSJpRE=", "properties": {"ref": "#2008", "@spider": "speedee_oil", "addr:full": "3333 S Carrollton Ave", "addr:city": "New Orleans", "addr:state": "LA", "addr:postcode": "70118", "addr:country": "US", "name": "New Orleans, LA - #2008", "phone": "(504) 482-7002", "website": "https://www.speedeeoil.com/new-orleans-la-2008/", "brand": "SpeeDee Oil Change and Auto Service"}, "geometry": {"type": "Point", "coordinates": [-90.112694, 29.962757]}},
{"type": "Feature", "id": "eUJMcDXW_-Nh58lUBh_BCUxmv2w=", "properties": {"ref": "#2048", "@spider": "speedee_oil", "addr:full": "2601 Esplanade Ave", "addr:city": "New Orleans", "addr:state": "LA", "addr:postcode": "70119", "addr:country": "US", "name": "New Orleans, LA - #2048", "phone": "(504) 948-1971", "website": "https://www.speedeeoil.com/new-orleans-la-2048/", "brand": "SpeeDee Oil Change and Auto Service"}, "geometry": {"type": "Point", "coordinates": [-90.078239, 29.976492]}},
{"type": "Feature", "id": "O10C1uJKf15HmDx4EHQ4WhGKOAI=", "properties": {"ref": "#7025", "@spider": "speedee_oil", "addr:full": "547 Kelley Blvd", "addr:city": "North Attleboro", "addr:state": "MA", "addr:postcode": "02760", "addr:country": "US", "name": "North Attleboro, MA - #7025", "phone": "(508) 699-8983", "website": "https://www.speedeeoil.com/locations/us/ma/north-attleboro/547-kelley-blvd", "brand": "SpeeDee Oil Change and Auto Service"}, "geometry": {"type": "Point", "coordinates": [-71.3004593, 42.0064831]}},
{"type": "Feature", "id": "HIZsU7elRfsSm0A2yHPmcVNgJL4=", "properties": {"ref": "#3029", "@spider": "speedee_oil", "addr:full": "7395 Northwoods Blvd", "addr:city": "North Charleston", "addr:state": "SC", "addr:postcode": "29406", "addr:country": "US", "name": "North Charleston, SC - #3029", "phone": "(843) 764-2764", "website": "https://www.speedeeoil.com/north-charleston-sc-3029/", "brand": "SpeeDee Oil Change and Auto Service"}, "geometry": {"type": "Point", "coordinates": [-80.04583, 32.936462]}},
{"type": "Feature", "id": "RFX9Zhl51JUaSEaL67NNWFiETZc=", "properties": {"ref": "#7073", "@spider": "speedee_oil", "addr:full": "197 State Rd", "addr:city": "North Dartmouth", "addr:state": "MA", "addr:postcode": "02747", "addr:country": "US", "name": "North Dartmouth, MA - #7073", "phone": "(508) 996-2300", "website": "https://www.speedeeoil.com/north-dartmouth-ma-7073/", "brand": "SpeeDee Oil Change and Auto Service"}, "geometry": {"type": "Point", "coordinates": [-70.977318, 41.638767]}},
{"type": "Feature", "id": "J51FajcF2WJbnHwX146Ir639YCQ=", "properties": {"ref": "#4101", "@spider": "speedee_oil", "addr:full": "6708 Mid Cities Blvd", "addr:city": "North Richland Hills", "addr:state": "TX", "addr:postcode": "76180", "addr:country": "US", "name": "North Richland Hills, TX - #4101", "phone": "(817) 788-8832", "website": "https://www.speedeeoil.com/north-richland-hills-tx-4101/", "brand": "SpeeDee Oil Change and Auto Service"}, "geometry": {"type": "Point", "coordinates": [-97.237114, 32.859989]}},
{"type": "Feature", "id": "_VFl6K13rHRrCGXFV8soXignULs=", "properties": {"ref": "#8051", "@spider": "speedee_oil", "addr:full": "8613 N. Council Rd.", "addr:city": "Oklahoma City", "addr:state": "OK", "addr:postcode": "73132", "addr:country": "US", "name": "Oklahoma City, OK - #8051", "phone": "(405) 384-5823", "website": "https://www.speedeeoil.com/oklahoma-city-ok-8051/", "brand": "SpeeDee Oil Change and Auto Service"}, "geometry": {"type": "Point", "coordinates": [-97.6567813, 35.5588336]}},
{"type": "Feature", "id": "mQVQU5QMx27KdpXxFeN-fo13nIw=", "properties": {"ref": "#2588", "@spider": "speedee_oil", "addr:full": "847 E Dundee Rd", "addr:city": "Palatine", "addr:state": "IL", "addr:postcode": "60067", "addr:country": "US", "name": "Palatine, IL - #2588", "phone": "(847) 359-8990", "website": "https://www.speedeeoil.com/palatine-il-2588/", "brand": "SpeeDee Oil Change and Auto Service"}, "geometry": {"type": "Point", "coordinates": [-88.022896, 42.138638]}},
{"type": "Feature", "id": "l9U07BByHqToIb0n2K6zNc5tLaM=", "properties": {"ref": "#7019", "@spider": "speedee_oil", "addr:full": "44 Mission Dr", "addr:city": "Pleasanton", "addr:state": "CA", "addr:postcode": "94566", "addr:country": "US", "name": "Pleasanton, CA - #7019", "phone": "(925) 426-9669", "website": "https://www.speedeeoil.com/pleasanton-ca-7019/", "brand": "SpeeDee Oil Change and Auto Service"}, "geometry": {"type": "Point", "coordinates": [-121.879318, 37.652931]}},
{"type": "Feature", "id": "q92U0-HyNAzROKmVI44vA3upNlY=", "properties": {"ref": "#1297", "@spider": "speedee_oil", "addr:full": "12672 Poway Rd", "addr:city": "Poway", "addr:state": "CA", "addr:postcode": "92064", "addr:country": "US", "name": "Poway, CA - #1297", "phone": "(858) 486-7558", "website": "https://www.speedeeoil.com/poway-ca-1297/", "brand": "SpeeDee Oil Change and Auto Service"}, "geometry": {"type": "Point", "coordinates": [-117.056404, 32.955086]}},
{"type": "Feature", "id": "AA2decFqPnKAOeZWaC23MIsPXw4=", "properties": {"ref": "#6137", "@spider": "speedee_oil", "addr:full": "9595 Galloway Dr", "addr:city": "Powell", "addr:state": "OH", "addr:postcode": "43065", "addr:country": "US", "name": "Powell, OH - #6137", "phone": "(614) 588-0220", "website": "https://www.speedeeoil.com/powell-oh-6137/", "brand": "SpeeDee Oil Change and Auto Service"}, "geometry": {"type": "Point", "coordinates": [-83.090111, 40.15984]}},
{"type": "Feature", "id": "VA7_SPag9LwLJ9ckOQALGTxWnM0=", "properties": {"ref": "#9051", "@spider": "speedee_oil", "addr:full": "985 N Main St", "addr:city": "Providence", "addr:state": "RI", "addr:postcode": "02904", "addr:country": "US", "name": "Providence, RI - #9051", "phone": "(401) 453-4707", "website": "https://www.speedeeoil.com/providence-ri-9051/", "brand": "SpeeDee Oil Change and Auto Service"}, "geometry": {"type": "Point", "coordinates": [-71.404007, 41.847736]}},
{"type": "Feature", "id": "YsISRHE68Dp1R_PBi04tCHsXc0Y=", "properties": {"ref": "#7071", "@spider": "speedee_oil", "addr:full": "1470 New State Hwy", "addr:city": "Raynham", "addr:state": "MA", "addr:postcode": "2767", "addr:country": "US", "name": "Raynham, MA - #7071", "phone": "(508) 880-0477", "website": "https://www.speedeeoil.com/raynham-ma-7071/", "brand": "SpeeDee Oil Change and Auto Service"}, "geometry": {"type": "Point", "coordinates": [-71.010765, 41.90493]}},
{"type": "Feature", "id": "tzN4mTMSK0c1pE77R_BK5-xciek=", "properties": {"ref": "#7001", "@spider": "speedee_oil", "addr:full": "550 Veterans Blvd", "addr:city": "Redwood City", "addr:state": "CA", "addr:postcode": "94063", "addr:country": "US", "name": "Redwood City, CA - #7001", "phone": "(650) 365-6090", "website": "https://www.speedeeoil.com/redwood-city-ca-7001/", "brand": "SpeeDee Oil Change and Auto Service"}, "geometry": {"type": "Point", "coordinates": [-122.233345, 37.493111]}},
{"type": "Feature", "id": "EDdB1WYjmzIZa3J1ikTdD88jA7s=", "properties": {"ref": "#3036", "@spider": "speedee_oil", "addr:full": "3820 Electric Rd", "addr:city": "Roanoke", "addr:state": "VA", "addr:postcode": "24018", "addr:country": "US", "name": "Roanoke, VA - #3036", "phone": "(540) 772-4850", "website": "https://www.speedeeoil.com/roanoke-va-3036/", "brand": "SpeeDee Oil Change and Auto Service"}, "geometry": {"type": "Point", "coordinates": [-79.989479, 37.224678]}},
{"type": "Feature", "id": "fVqdv-vohSN3J8u2MF1W6wnplKY=", "properties": {"ref": "#3255", "@spider": "speedee_oil", "addr:full": "2374 Cherry Road", "addr:city": "Rock Hill", "addr:state": "SC", "addr:postcode": "3255", "addr:country": "US", "name": "Rock Hill, SC - #3255", "phone": "(803) 980-4534", "website": "https://www.speedeeoil.com/rock-hill-sc-3255/", "brand": "SpeeDee Oil Change and Auto Service"}, "geometry": {"type": "Point", "coordinates": [-80.993851, 34.968025]}},
{"type": "Feature", "id": "N0YQWcRKpsxGNQkvSQ9i65JExxk=", "properties": {"ref": "#7048", "@spider": "speedee_oil", "addr:full": "5490 Pacific St", "addr:city": "Rocklin", "addr:state": "CA", "addr:postcode": "95677", "addr:country": "US", "name": "Rocklin, CA - #7048", "phone": "(916) 632-8495", "website": "https://www.speedeeoil.com/rocklin-ca-7048/", "brand": "SpeeDee Oil Change and Auto Service"}, "geometry": {"type": "Point", "coordinates": [-121.239861, 38.786221]}},
{"type": "Feature", "id": "dY6DU7afr-P_dXwharpjW2I6QZ0=", "properties": {"ref": "#1151", "@spider": "speedee_oil", "addr:full": "9077 Foothills Blvd", "addr:city": "Roseville", "addr:state": "CA", "addr:postcode": "95747", "addr:country": "US", "name": "Roseville, CA - #1151", "phone": "(916) 797-9434", "website": "https://www.speedeeoil.com/roseville-ca-1151/", "brand": "SpeeDee Oil Change and Auto Service"}, "geometry": {"type": "Point", "coordinates": [-121.312469, 38.791359]}},
{"type": "Feature", "id": "-x7EqoNJMGGg9gXHLjDb_hEZqCQ=", "properties": {"ref": "#7011", "@spider": "speedee_oil", "addr:full": "660 Sunrise Ave", "addr:city": "Roseville", "addr:state": "CA", "addr:postcode": "95661", "addr:country": "US", "name": "Roseville, CA - #7011", "phone": "(916) 781-6665", "website": "https://www.speedeeoil.com/roseville-ca-7011/", "brand": "SpeeDee Oil Change and Auto Service"}, "geometry": {"type": "Point", "coordinates": [-121.272423, 38.736538]}},
{"type": "Feature", "id": "0IGVVC7QveN181hlvWYg8_PFwNM=", "properties": {"ref": "#2083", "@spider": "speedee_oil", "addr:full": "315 N Service Rd E", "addr:city": "Ruston", "addr:state": "LA", "addr:postcode": "71270", "addr:country": "US", "name": "Ruston, LA - #2083", "phone": "(318) 242-0034", "website": "https://www.speedeeoil.com/ruston-la-2083/", "brand": "SpeeDee Oil Change and Auto Service"}, "geometry": {"type": "Point", "coordinates": [-92.634026, 32.540977]}},
{"type": "Feature", "id": "SPExfVwgpDEX45dD4J_wME1C-cQ=", "properties": {"ref": "#7035", "@spider": "speedee_oil", "addr:full": "185 Washington St", "addr:city": "S Attleboro", "addr:state": "MA", "addr:postcode": "02703", "addr:country": "US", "name": "S Attleboro, MA - #7035", "phone": "(508) 761-7200", "website": "https://www.speedeeoil.com/s-attleboro-ma-7035/", "brand": "SpeeDee Oil Change and Auto Service"}, "geometry": {"type": "Point", "coordinates": [-71.355858, 41.927246]}},
{"type": "Feature", "id": "o6DvD5o6NSPkeRigIvG2Iq7Ms2w=", "properties": {"ref": "#3040", "@spider": "speedee_oil", "addr:full": "1019 W Main St", "addr:city": "Salem", "addr:state": "VA", "addr:postcode": "24153", "addr:country": "US", "name": "Salem, VA - #3040", "phone": "(540) 387-4120", "website": "https://www.speedeeoil.com/salem-va-3040/", "brand": "SpeeDee Oil Change and Auto Service"}, "geometry": {"type": "Point", "coordinates": [-80.074577, 37.290562]}},
{"type": "Feature", "id": "D-Mbpdxof-qSgEbWNjrVf6938f4=", "properties": {"ref": "#1217", "@spider": "speedee_oil", "addr:full": "11000 W I-10", "addr:city": "San Antonio", "addr:state": "TX", "addr:postcode": "78230", "addr:country": "US", "name": "San Antonio, TX - #1217", "phone": "(210) 641-9773", "website": "https://www.speedeeoil.com/san-antonio-tx-1217/", "brand": "SpeeDee Oil Change and Auto Service"}, "geometry": {"type": "Point", "coordinates": [-98.549042, 29.50835]}},
{"type": "Feature", "id": "0M0y7SBwvLh0Ls7WEIHVodVXrZU=", "properties": {"ref": "#5538", "@spider": "speedee_oil", "addr:full": "6659 San Pedro Avenue", "addr:city": "San Antonio", "addr:state": "TX", "addr:postcode": "78216", "addr:country": "US", "name": "San Antonio, TX - #5538", "phone": "(210) 349-5376", "website": "https://www.speedeeoil.com/san-antonio-tx-5538/", "brand": "SpeeDee Oil Change and Auto Service"}, "geometry": {"type": "Point", "coordinates": [-98.499809, 29.500616]}},
{"type": "Feature", "id": "53mxpMQuN3j0aFWmucSKHq3Y6a8=", "properties": {"ref": "#5819", "@spider": "speedee_oil", "addr:full": "11227 Culebra Rd", "addr:city": "San Antonio", "addr:state": "TX", "addr:postcode": "78253", "addr:country": "US", "name": "San Antonio, TX - #5819", "phone": "(210) 688-9542", "website": "https://www.speedeeoil.com/san-antonio-tx-5819/", "brand": "SpeeDee Oil Change and Auto Service"}, "geometry": {"type": "Point", "coordinates": [-98.712807, 29.497797]}},
{"type": "Feature", "id": "d3nB7rvE4NPk7-WlRFn9jYPEFuc=", "properties": {"ref": "#5821", "@spider": "speedee_oil", "addr:full": "26959 US Hwy 281 N", "addr:city": "San Antonio", "addr:state": "TX", "addr:postcode": "78260", "addr:country": "US", "name": "San Antonio, TX - #5821", "phone": "(803) 438-7787", "website": "https://www.speedeeoil.com/san-antonio-tx-5821/", "brand": "SpeeDee Oil Change and Auto Service"}, "geometry": {"type": "Point", "coordinates": [-98.534317, 29.467566]}},
{"type": "Feature", "id": "7Ak4H-IMe_DPN4Fc4j76SiuPyIE=", "properties": {"ref": "#5953", "@spider": "speedee_oil", "addr:full": "9412 Perrin-Beitel Rd", "addr:city": "San Antonio", "addr:state": "TX", "addr:postcode": "78217", "addr:country": "US", "name": "San Antonio, TX - #5953", "phone": "(210) 656-3232", "website": "https://www.speedeeoil.com/san-antonio-tx-5953/", "brand": "SpeeDee Oil Change and Auto Service"}, "geometry": {"type": "Point", "coordinates": [-98.410583, 29.525644]}},
{"type": "Feature", "id": "mjXyFZv8CXUWFmwfobig_9TyXJ4=", "properties": {"ref": "#7020", "@spider": "speedee_oil", "addr:full": "801 El Camino Real", "addr:city": "San Bruno", "addr:state": "CA", "addr:postcode": "94066", "addr:country": "US", "name": "San Bruno, CA - #7020", "phone": "(650) 952-5178", "website": "https://www.speedeeoil.com/san-bruno-ca-7020/", "brand": "SpeeDee Oil Change and Auto Service"}, "geometry": {"type": "Point", "coordinates": [-122.41713, 37.628933]}},
{"type": "Feature", "id": "Ei4XmbEFMH0mgGxTZTnyT19SXPc=", "properties": {"ref": "#1282", "@spider": "speedee_oil", "addr:full": "1805 Garnet Ave", "addr:city": "San Diego", "addr:state": "CA", "addr:postcode": "92109", "addr:country": "US", "name": "San Diego, CA - #1282", "phone": "(858) 274-2930", "website": "https://www.speedeeoil.com/san-diego-ca-1282/", "brand": "SpeeDee Oil Change and Auto Service"}, "geometry": {"type": "Point", "coordinates": [-117.236816, 32.800404]}},
{"type": "Feature", "id": "1Mo7VCNMLoz-UDvVteQSwdYkJuA=", "properties": {"ref": "#1432", "@spider": "speedee_oil", "addr:full": "10445 Friars Rd", "addr:city": "San Diego", "addr:state": "CA", "addr:postcode": "92120", "addr:country": "US", "name": "San Diego, CA - #1432", "phone": "(619) 285-1101", "website": "https://www.speedeeoil.com/san-diego-ca-1432/", "brand": "SpeeDee Oil Change and Auto Service"}, "geometry": {"type": "Point", "coordinates": [-117.09848, 32.790611]}},
{"type": "Feature", "id": "1WmP799LP2tvBXomaBihfeStAk8=", "properties": {"ref": "#1912", "@spider": "speedee_oil", "addr:full": "3855 Convoy St", "addr:city": "San Diego", "addr:state": "CA", "addr:postcode": "92111", "addr:country": "US", "name": "San Diego, CA - #1912", "phone": "(858) 565-0853", "website": "https://www.speedeeoil.com/san-diego-ca-1912/", "brand": "SpeeDee Oil Change and Auto Service"}, "geometry": {"type": "Point", "coordinates": [-117.152489, 32.814186]}},
{"type": "Feature", "id": "f32UicaO0JmehJNT_HJ-Lg7rzHQ=", "properties": {"ref": "#1242", "@spider": "speedee_oil", "addr:full": "1800 Alemany Blvd", "addr:city": "San Francisco", "addr:state": "CA", "addr:postcode": "94112", "addr:country": "US", "name": "San Francisco, CA - #1242", "phone": "(415) 584-1161", "website": "https://www.speedeeoil.com/san-francisco-ca-1242/", "brand": "SpeeDee Oil Change and Auto Service"}, "geometry": {"type": "Point", "coordinates": [-122.437935, 37.723373]}},
{"type": "Feature", "id": "evMtHXEXTSkrGpIWbhtOTLucDyg=", "properties": {"ref": "#1267", "@spider": "speedee_oil", "addr:full": "4224 Monterey Hwy", "addr:city": "San Jose", "addr:state": "CA", "addr:postcode": "95111", "addr:country": "US", "name": "San Jose, CA - #1267", "phone": "(408) 281-1558", "website": "https://www.speedeeoil.com/san-jose-ca-1267", "brand": "SpeeDee Oil Change and Auto Service"}, "geometry": {"type": "Point", "coordinates": [-121.833, 37.276394]}},
{"type": "Feature", "id": "Ys0rBbXxe7LfLyam3RCFcyuX7Ng=", "properties": {"ref": "#7051", "@spider": "speedee_oil", "addr:full": "5564 Monterey Rd", "addr:city": "San Jose", "addr:state": "CA", "addr:postcode": "95138", "addr:country": "US", "name": "San Jose, CA - #7051", "phone": "(408) 224-5500", "website": "https://www.speedeeoil.com/san-jose-ca-7051/", "brand": "SpeeDee Oil Change and Auto Service"}, "geometry": {"type": "Point", "coordinates": [-121.797226, 37.252983]}},
{"type": "Feature", "id": "jAH5jGS3Uv8IyJkFmRz62_GkkJ4=", "properties": {"ref": "#7091", "@spider": "speedee_oil", "addr:full": "1825 E Capitol Expy", "addr:city": "San Jose", "addr:state": "CA", "addr:postcode": "95121", "addr:country": "US", "name": "San Jose, CA - #7091", "phone": "(408) 531-0701", "website": "https://www.speedeeoil.com/san-jose-ca-7091/", "brand": "SpeeDee Oil Change and Auto Service"}, "geometry": {"type": "Point", "coordinates": [-121.808998, 37.310604]}},
{"type": "Feature", "id": "eAqqqcDGN6aYDr7rqUf6b2FMcQ0=", "properties": {"ref": "#1686", "@spider": "speedee_oil", "addr:full": "13745 E 14th St", "addr:city": "San Leandro", "addr:state": "CA", "addr:postcode": "94578", "addr:country": "US", "name": "San Leandro, CA - #1686", "phone": "(510) 351-0622", "website": "https://www.speedeeoil.com/san-leandro-ca-1686/", "brand": "SpeeDee Oil Change and Auto Service"}, "geometry": {"type": "Point", "coordinates": [-122.143669, 37.7155]}},
{"type": "Feature", "id": "22ki-yGfs899AeSwudB0rosDWHk=", "properties": {"ref": "#3131", "@spider": "speedee_oil", "addr:full": "4565 Clark Rd", "addr:city": "Sarasota", "addr:state": "FL", "addr:postcode": "34233", "addr:country": "US", "name": "Sarasota, FL - #3131", "phone": "(941) 924-8202", "website": "https://www.speedeeoil.com/sarasota-fl-3131/", "brand": "SpeeDee Oil Change and Auto Service"}, "geometry": {"type": "Point", "coordinates": [-82.478279, 27.26977]}},
{"type": "Feature", "id": "MmC3UxMq6h--Si3NI_W5yW-nCBw=", "properties": {"ref": "#2546", "@spider": "speedee_oil", "addr:full": "506 W Golf Rd", "addr:city": "Schaumburg", "addr:state": "IL", "addr:postcode": "60195", "addr:country": "US", "name": "Schaumburg, IL - #2546", "phone": "(847) 882-4500", "website": "https://www.speedeeoil.com/schaumburg-il-2546/", "brand": "SpeeDee Oil Change and Auto Service"}, "geometry": {"type": "Point", "coordinates": [-88.092171, 42.049217]}},
{"type": "Feature", "id": "sgfMcTOy9ij9iNg8VNEVWkbcwkU=", "properties": {"ref": "#1394", "@spider": "speedee_oil", "addr:full": "9550 N 90th St #A-2", "addr:city": "Scottsdale", "addr:state": "AZ", "addr:postcode": "85258", "addr:country": "US", "name": "Scottsdale, AZ - #1394", "phone": "(480) 391-0796", "website": "https://www.speedeeoil.com/scottsdale-az-1394/", "brand": "SpeeDee Oil Change and Auto Service"}, "geometry": {"type": "Point", "coordinates": [-111.886879, 33.572544]}},
{"type": "Feature", "id": "e7fIm_HqsM5wMncaOjR2SKOdr9A=", "properties": {"ref": "#3041", "@spider": "speedee_oil", "addr:full": "1484 Wo Ezell Blvd", "addr:city": "Spartanburg", "addr:state": "SC", "addr:postcode": "29301", "addr:country": "US", "name": "Spartanburg, SC - #3041", "phone": "(864) 574-0899", "website": "https://www.speedeeoil.com/spartanburg-sc-3041/", "brand": "SpeeDee Oil Change and Auto Service"}, "geometry": {"type": "Point", "coordinates": [-81.982819, 34.937653]}},
{"type": "Feature", "id": "xBTWtkz8heeKROYU3Tl9scA6V0Y=", "properties": {"ref": "#7084", "@spider": "speedee_oil", "addr:full": "471 San Carlos Way", "addr:city": "Stockton", "addr:state": "CA", "addr:postcode": "95207", "addr:country": "US", "name": "Stockton, CA - #7084", "phone": "(209) 472-9272", "website": "https://www.speedeeoil.com/stockton-ca-7084/", "brand": "SpeeDee Oil Change and Auto Service"}, "geometry": {"type": "Point", "coordinates": [-121.318718, 38.020634]}},
{"type": "Feature", "id": "EkGz57FDbgSu9AaLK3jJZeaBeeY=", "properties": {"ref": "#7109", "@spider": "speedee_oil", "addr:full": "7730 Holman Rd.", "addr:city": "Stockton", "addr:state": "CA", "addr:postcode": "95212", "addr:country": "US", "name": "Stockton, CA- #7109", "phone": "209-762-3819", "website": "https://speedeeoil.com/stockton-ca-7109/", "brand": "SpeeDee Oil Change and Auto Service"}, "geometry": {"type": "Point", "coordinates": [-121.2708657, 38.0203578]}},
{"type": "Feature", "id": "_ItRtKO4SQpHAUz7eRzrJkYSWko=", "properties": {"ref": "#1072", "@spider": "speedee_oil", "addr:full": "5279 US Highway 78", "addr:city": "Stone Mountain", "addr:state": "GA", "addr:postcode": "30087", "addr:country": "US", "name": "Stone Mountain, GA - #1072", "phone": "(470) 321-3995", "website": "https://www.speedeeoil.com/stone-mountain-ga-1072/", "brand": "SpeeDee Oil Change and Auto Service"}, "geometry": {"type": "Point", "coordinates": [-84.1133924, 33.8235199]}},
{"type": "Feature", "id": "uYxIZbUDoJLoODSi7UCRD_iHYf0=", "properties": {"ref": "#3009", "@spider": "speedee_oil", "addr:full": "825 N Main St", "addr:city": "Summerville", "addr:state": "SC", "addr:postcode": "29483", "addr:country": "US", "name": "Summerville, SC - #3009", "phone": "(843) 821-1162", "website": "https://www.speedeeoil.com/summerville-sc-3009/", "brand": "SpeeDee Oil Change and Auto Service"}, "geometry": {"type": "Point", "coordinates": [-80.167473, 33.029663]}},
{"type": "Feature", "id": "2bfHG4aamRyA8dxJnltd_QVDG9A=", "properties": {"ref": "#6152", "@spider": "speedee_oil", "addr:full": "6338 Thompson Rd", "addr:city": "Syracuse", "addr:state": "NY", "addr:postcode": "13206", "addr:country": "US", "name": "Syracuse, NY - #6152", "phone": "(315) 437-4391", "website": "https://www.speedeeoil.com/syracuse-ny-6152/", "brand": "SpeeDee Oil Change and Auto Service"}, "geometry": {"type": "Point", "coordinates": [-76.088631, 43.077316]}},
{"type": "Feature", "id": "pgwARJSPEelet9bwevLP9PSUt9o=", "properties": {"ref": "#3177", "@spider": "speedee_oil", "addr:full": "315 N Dale Mabry Hwy", "addr:city": "Tampa", "addr:state": "FL", "addr:postcode": "33609", "addr:country": "US", "name": "Tampa, FL - #3177", "phone": "(813) 872-8458", "website": "https://www.speedeeoil.com/tampa-fl-3177/", "brand": "SpeeDee Oil Change and Auto Service"}, "geometry": {"type": "Point", "coordinates": [-82.505119, 27.947906]}},
{"type": "Feature", "id": "eACdehdbmxTudwG_hrBLww2rjzY=", "properties": {"ref": "#7066", "@spider": "speedee_oil", "addr:full": "612 County St", "addr:city": "Taunton", "addr:state": "MA", "addr:postcode": "2780", "addr:country": "US", "name": "Taunton, MA - #7066", "phone": "(508) 828-9200", "website": "https://www.speedeeoil.com/taunton-ma-7066/", "brand": "SpeeDee Oil Change and Auto Service"}, "geometry": {"type": "Point", "coordinates": [-71.067093, 41.885895]}},
{"type": "Feature", "id": "S8yUQRPG9jeecTcE9RizYXNEffo=", "properties": {"ref": "#3144", "@spider": "speedee_oil", "addr:full": "5959 E Fowler Ave", "addr:city": "Temple Terrace", "addr:state": "FL", "addr:postcode": "33617", "addr:country": "US", "name": "Temple Terrace, FL - #3144", "phone": "(813) 989-2515", "website": "https://www.speedeeoil.com/temple-terrace-fl-3144/", "brand": "SpeeDee Oil Change and Auto Service"}, "geometry": {"type": "Point", "coordinates": [-82.389641, 28.053947]}},
{"type": "Feature", "id": "d9mlW1lB8OIFGQpayq53Zj3KtQo=", "properties": {"ref": "#5772", "@spider": "speedee_oil", "addr:full": "4177 Main St Ste 100", "addr:city": "The Colony", "addr:state": "TX", "addr:postcode": "75056", "addr:country": "US", "name": "The Colony, TX - #5772", "phone": "(214) 469-1702", "website": "https://www.speedeeoil.com/the-colony-tx-5772/", "brand": "SpeeDee Oil Change and Auto Service"}, "geometry": {"type": "Point", "coordinates": [-95.38179, 29.735197]}},
{"type": "Feature", "id": "5zkTnNEha5J_bgoj3z9mKTZDPJw=", "properties": {"ref": "#7064", "@spider": "speedee_oil", "addr:full": "711 W Grant Line Rd", "addr:city": "Tracy", "addr:state": "CA", "addr:postcode": "95376", "addr:country": "US", "name": "Tracy, CA - #7064", "phone": "(209) 836-1557", "website": "https://www.speedeeoil.com/tracy-ca-7064/", "brand": "SpeeDee Oil Change and Auto Service"}, "geometry": {"type": "Point", "coordinates": [-121.436646, 37.754459]}},
{"type": "Feature", "id": "WIiMyhMA4y0MTk6z5Eox_ce9P3k=", "properties": {"ref": "#7093", "@spider": "speedee_oil", "addr:full": "2707 W Monte Vista Ave", "addr:city": "Turlock", "addr:state": "CA", "addr:postcode": "95380", "addr:country": "US", "name": "Turlock, CA - #7093", "phone": "(209) 664-1996", "website": "https://www.speedeeoil.com/turlock-ca-7093/", "brand": "SpeeDee Oil Change and Auto Service"}, "geometry": {"type": "Point", "coordinates": [-120.879547, 37.522434]}},
{"type": "Feature", "id": "8ZnREpRPJK2trgPgm2Su7F3CFKo=", "properties": {"ref": "#5127", "@spider": "speedee_oil", "addr:full": "2013 Pat Booker Blvd", "addr:city": "Universal City", "addr:state": "TX", "addr:postcode": "78148", "addr:country": "US", "name": "Universal City, TX - #5127", "phone": "(210) 659-1941", "website": "https://www.speedeeoil.com/universal-city-tx-5127/", "brand": "SpeeDee Oil Change and Auto Service"}, "geometry": {"type": "Point", "coordinates": [-98.311389, 29.553662]}},
{"type": "Feature", "id": "vYodF7ioAgnDDbiNbt4vDvOnb74=", "properties": {"ref": "#7099", "@spider": "speedee_oil", "addr:full": "221 Peabody Rd", "addr:city": "Vacaville", "addr:state": "CA", "addr:postcode": "95687", "addr:country": "US", "name": "Vacaville, CA - #7099", "phone": "(707) 455-8518", "website": "https://www.speedeeoil.com/vacaville-ca-7099/", "brand": "SpeeDee Oil Change and Auto Service"}, "geometry": {"type": "Point", "coordinates": [-121.975754, 38.349667]}},
{"type": "Feature", "id": "y6bQaa_astJmRDgxHphJoqmCYNI=", "properties": {"ref": "#7040", "@spider": "speedee_oil", "addr:full": "1675 Tuolumne St", "addr:city": "Vallejo", "addr:state": "CA", "addr:postcode": "94590", "addr:country": "US", "name": "Vallejo, CA - #7040", "phone": "(707) 642-9242", "website": "https://www.speedeeoil.com/vallejo-ca-7040/", "brand": "SpeeDee Oil Change and Auto Service"}, "geometry": {"type": "Point", "coordinates": [-122.238182, 38.122154]}},
{"type": "Feature", "id": "xQITXo3beI3C1cltOJT00SlS6wI=", "properties": {"ref": "#3037", "@spider": "speedee_oil", "addr:full": "910 Hardy Rd", "addr:city": "Vinton", "addr:state": "VA", "addr:postcode": "24179", "addr:country": "US", "name": "Vinton, VA - #3037", "phone": "(540) 857-0002", "website": "https://www.speedeeoil.com/vinton-va-3037/", "brand": "SpeeDee Oil Change and Auto Service"}, "geometry": {"type": "Point", "coordinates": [-79.887825, 37.27343]}},
{"type": "Feature", "id": "OMfEg2a4DozURlOnKY9H1_BKpW0=", "properties": {"ref": "#1296", "@spider": "speedee_oil", "addr:full": "1150 S Santa Fe St", "addr:city": "Vista", "addr:state": "CA", "addr:postcode": "92084", "addr:country": "US", "name": "Vista, CA - #1296", "phone": "(760) 940-8800", "website": "https://www.speedeeoil.com/vista-ca-1296/", "brand": "SpeeDee Oil Change and Auto Service"}, "geometry": {"type": "Point", "coordinates": [-117.225861, 33.188786]}},
{"type": "Feature", "id": "v_BFWvSyCMPo6STvy33gEespF4c=", "properties": {"ref": "#1968", "@spider": "speedee_oil", "addr:full": "25 N Kamehameha Hwy", "addr:city": "Wahiawa", "addr:state": "HI", "addr:postcode": "96786", "addr:country": "US", "name": "Wahiawa, HI - #1968", "phone": "(808) 599-9130", "website": "https://www.speedeeoil.com/wahiawa-hi-1968/", "brand": "SpeeDee Oil Change and Auto Service"}, "geometry": {"type": "Point", "coordinates": [-158.030167, 21.496302]}},
{"type": "Feature", "id": "6cCNirvTNuzOxTTbRrrqK6mIlMU=", "properties": {"ref": "#1356", "@spider": "speedee_oil", "addr:full": "94-709 Farrington Hwy", "addr:city": "Waipahu", "addr:state": "HI", "addr:postcode": "96797", "addr:country": "US", "name": "Waipahu, HI - #1356", "phone": "(808) 628-6300", "website": "https://www.speedeeoil.com/waipahu-hi-1356/", "brand": "SpeeDee Oil Change and Auto Service"}, "geometry": {"type": "Point", "coordinates": [-158.006958, 21.383101]}},
{"type": "Feature", "id": "aJkIrAnsv9qjizfkXej0gxeTP34=", "properties": {"ref": "#1823", "@spider": "speedee_oil", "addr:full": "2710 N Main St", "addr:city": "Walnut Creek", "addr:state": "CA", "addr:postcode": "94597", "addr:country": "US", "name": "Walnut Creek, CA - #1823", "phone": "(925) 935-9180", "website": "https://www.speedeeoil.com/walnut-creek-ca-1823/", "brand": "SpeeDee Oil Change and Auto Service"}, "geometry": {"type": "Point", "coordinates": [-122.063637, 37.922337]}},
{"type": "Feature", "id": "WmVrC_BqhM1mpmHzKZN8YGNVZD0=", "properties": {"ref": "#7096", "@spider": "speedee_oil", "addr:full": "1496 Freedom Blvd", "addr:city": "Watsonville", "addr:state": "CA", "addr:postcode": "95076", "addr:country": "US", "name": "Watsonville, CA - #7096", "phone": "(831) 722-9950", "website": "https://www.speedeeoil.com/watsonville-ca-7096/", "brand": "SpeeDee Oil Change and Auto Service"}, "geometry": {"type": "Point", "coordinates": [-121.768173, 36.930679]}},
{"type": "Feature", "id": "9_kWsxjBASgLVwtbRTlY228nIlg=", "properties": {"ref": "#3042", "@spider": "speedee_oil", "addr:full": "112 University Center Dr.", "addr:city": "Winston-Salem", "addr:state": "NC", "addr:postcode": "27105", "addr:country": "US", "name": "Winston-Salem, NC - #3042", "phone": "743-219-3444", "website": "https://speedeeoil.com/winston-salem-nc-3042/", "brand": "SpeeDee Oil Change and Auto Service"}, "geometry": {"type": "Point", "coordinates": [-80.2761047, 36.1863933]}},
{"type": "Feature", "id": "mqKekllZv2K4YyRqgdOKca78KbA=", "properties": {"ref": "#7006", "@spider": "speedee_oil", "addr:full": "216 W Main St", "addr:city": "Woodland", "addr:state": "CA", "addr:postcode": "95695", "addr:country": "US", "name": "Woodland, CA - #7006", "phone": "(530) 662-5605", "website": "https://www.speedeeoil.com/woodland-ca-7006/", "brand": "SpeeDee Oil Change and Auto Service"}, "geometry": {"type": "Point", "coordinates": [-121.794128, 38.677876]}},
{"type": "Feature", "id": "6bTjTb3U88cj9e-2C09-1UmMlKs=", "properties": {"ref": "#1082", "@spider": "speedee_oil", "addr:full": "3058 Eagle Dr", "addr:city": "Woodstock", "addr:state": "GA", "addr:postcode": "30189", "addr:country": "US", "name": "Woodstock, GA - #1082", "phone": "(770) 591-1999", "website": "https://www.speedeeoil.com/locations/us/ga/woodstock/3058-eagle-dr", "brand": "SpeeDee Oil Change and Auto Service"}, "geometry": {"type": "Point", "coordinates": [-84.557068, 34.111462]}},
{"type": "Feature", "id": "2zKW0TIfXl6KNznfxH8eslO6-SE=", "properties": {"ref": "#2689", "@spider": "speedee_oil", "addr:full": "6534 Gall Blvd", "addr:city": "Zephyrhills", "addr:state": "FL", "addr:postcode": "33541", "addr:country": "US", "name": "Zephyrhills, FL - #2689", "phone": "(813) 715-1516", "website": "https://www.speedeeoil.com/zephyrhills-fl-2689/", "brand": "SpeeDee Oil Change and Auto Service"}, "geometry": {"type": "Point", "coordinates": [-82.187653, 28.252872]}}]}