{"type":"FeatureCollection","features":[{"type": "Feature", "id": "gNcCeX5ebMzlJvYHG5wbXEM3wFQ=", "properties": {"ref": "/locations/armagh", "fax": "+18144466016", "@spider": "stbank", "addr:full": "25 E Philadelphia St.", "addr:city": "Armagh", "addr:state": "PA", "addr:postcode": "15920", "addr:country": "US", "name": "Armagh", "phone": "+18144465622", "website": "https://www.stbank.com/locations/armagh", "opening_hours": "Mo-Th 09:00-16:00; Fr 09:00-18:00; Sa 09:00-12:00", "brand": "S&T Bank"}, "geometry": {"type": "Point", "coordinates": [-79.03118959999999, 40.454099]}},
{"type": "Feature", "id": "sK5yX8q6M_QfOQMW9SYMGczRkC0=", "properties": {"ref": "/locations/caln", "fax": "+16103807263", "@spider": "stbank", "addr:full": "1835 Lincoln Hwy E", "addr:city": "Coatesville", "addr:state": "PA", "addr:postcode": "19320", "addr:country": "US", "name": "Caln", "phone": "+16103837562", "website": "https://www.stbank.com/locations/caln", "opening_hours": "Mo-Th 09:00-16:00; Fr 09:00-17:00; Sa 09:00-12:00", "brand": "S&T Bank"}, "geometry": {"type": "Point", "coordinates": [-75.789235, 39.989226]}},
{"type": "Feature", "id": "V97Pii7XS-5ytllvJs-W4uL62ZU=", "properties": {"ref": "/locations/akron", "fax": "+13306641577", "@spider": "stbank", "addr:full": "491 North Cleveland-Massillon Road", "addr:city": "Akron", "addr:state": "OH", "addr:postcode": "44333", "addr:country": "US", "name": "Akron", "phone": "+13306642911", "website": "https://www.stbank.com/locations/akron", "brand": "S&T Bank"}, "geometry": {"type": "Point", "coordinates": [-81.6370385, 41.149685]}},
{"type": "Feature", "id": "PzXqPM5oV1rbxi_XmVf_KiQ2Vyg=", "properties": {"ref": "/locations/brockway", "fax": "+18142651507", "@spider": "stbank", "addr:full": "456 Main St.", "addr:city": "Brockway", "addr:state": "PA", "addr:postcode": "15824", "addr:country": "US", "name": "Brockway", "phone": "+18142681044", "website": "https://www.stbank.com/locations/brockway", "brand": "S&T Bank"}, "geometry": {"type": "Point", "coordinates": [-78.7984895, 41.24885683]}},
{"type": "Feature", "id": "sWeipf0cXjeOp1b21sGTk2tSxaE=", "properties": {"ref": "/locations/altoona-regional-banking-center", "fax": "+18149411089", "@spider": "stbank", "addr:full": "1100 Logan Boulevard", "addr:city": "Altoona", "addr:state": "PA", "addr:postcode": "16602", "addr:country": "US", "name": "Altoona Regional Banking Center", "phone": "+18149411080", "website": "https://www.stbank.com/locations/altoona-regional-banking-center", "opening_hours": "Mo-Th 09:00-16:00; Fr 09:00-17:00; Sa 09:00-12:00", "brand": "S&T Bank"}, "geometry": {"type": "Point", "coordinates": [-78.401899, 40.47393]}},
{"type": "Feature", "id": "F2O4pCCeXK5IPK2mZzFMGXLNovc=", "properties": {"ref": "/locations/centerville-road", "fax": "+17173813301", "@spider": "stbank", "addr:full": "310 Centerville Road", "addr:city": "Lancaster", "addr:state": "PA", "addr:postcode": "17601", "addr:country": "US", "name": "Centerville Road", "phone": "+17173813300", "website": "https://www.stbank.com/locations/centerville-road", "opening_hours": "Mo-Th 09:00-16:00; Fr 09:00-17:00; Sa 09:00-12:00", "brand": "S&T Bank"}, "geometry": {"type": "Point", "coordinates": [-76.3952805, 40.04989317]}},
{"type": "Feature", "id": "B1AK0Kq8U3BOfGgIO8czjf9EH5Q=", "properties": {"ref": "/locations/camp-hill", "fax": "+17179204904", "@spider": "stbank", "addr:full": "3345 Market Street", "addr:city": "Camp Hill", "addr:state": "PA", "addr:postcode": "17011", "addr:country": "US", "name": "Camp Hill", "phone": "+17179206028", "website": "https://www.stbank.com/locations/camp-hill", "opening_hours": "Mo-Th 09:00-16:00; Fr 09:00-18:00; Sa 09:00-12:00", "brand": "S&T Bank"}, "geometry": {"type": "Point", "coordinates": [-76.93745, 40.23926833]}},
{"type": "Feature", "id": "rSMggqY99ilVxZEQMlEECU1rEqk=", "properties": {"ref": "/locations/chadds-ford", "fax": "+16103619428", "@spider": "stbank", "addr:full": "300 Oakland Rd", "addr:city": "West Chester", "addr:state": "PA", "addr:postcode": "19382", "addr:country": "US", "name": "Chadds Ford", "phone": "+14843593228", "website": "https://www.stbank.com/locations/chadds-ford", "brand": "S&T Bank"}, "geometry": {"type": "Point", "coordinates": [-75.55194, 39.886435]}},
{"type": "Feature", "id": "OZY4m88W8EE9bR-cQbELYWv60qM=", "properties": {"ref": "/locations/clarion", "fax": "+18142264775", "@spider": "stbank", "addr:full": "410 Main St.", "addr:city": "Clarion", "addr:state": "PA", "addr:postcode": "16214", "addr:country": "US", "name": "Clarion", "phone": "+18142264177", "website": "https://www.stbank.com/locations/clarion", "opening_hours": "Mo-Th 09:00-16:00; Fr 09:00-17:00; Sa 09:00-12:00", "brand": "S&T Bank"}, "geometry": {"type": "Point", "coordinates": [-79.386896, 41.21492]}},
{"type": "Feature", "id": "sAFlvaFQUhaW9A5ff4noFuKdymY=", "properties": {"ref": "/locations/delmont", "fax": "+17244653257", "@spider": "stbank", "addr:full": "85 Greensburg St.", "addr:city": "Delmont", "addr:state": "PA", "addr:postcode": "15626", "addr:country": "US", "name": "Delmont", "phone": "+17244684026", "website": "https://www.stbank.com/locations/delmont", "brand": "S&T Bank"}, "geometry": {"type": "Point", "coordinates": [-79.572098, 40.410023]}},
{"type": "Feature", "id": "1sgyng5JfiJUl5EQDL5pEIj8q3A=", "properties": {"ref": "/locations/downingtown", "fax": "+14843593176", "@spider": "stbank", "addr:full": "4 Brandywine Ave", "addr:city": "Downingtown", "addr:state": "PA", "addr:postcode": "19335", "addr:country": "US", "name": "Downingtown", "phone": "+14843593100", "website": "https://www.stbank.com/locations/downingtown", "brand": "S&T Bank"}, "geometry": {"type": "Point", "coordinates": [-75.703516, 40.00642]}},
{"type": "Feature", "id": "_arNo778Mp-fEv-sFEeeaT6P5v8=", "properties": {"ref": "/locations/dubois-mall", "fax": "+18143753826", "@spider": "stbank", "addr:full": "5522 Shaffer Rd", "addr:city": "DuBois", "addr:state": "PA", "addr:postcode": "15801", "addr:country": "US", "name": "DuBois Mall", "phone": "+18143753806", "website": "https://www.stbank.com/locations/dubois-mall", "brand": "S&T Bank"}, "geometry": {"type": "Point", "coordinates": [-78.726451, 41.120281]}},
{"type": "Feature", "id": "jwTsxifgmiuOGN8Qm39MvRcE-nU=", "properties": {"ref": "/locations/east-oakmont", "fax": "+14128284785", "@spider": "stbank", "addr:full": "2190 Hulton Road", "addr:city": "Verona", "addr:state": "PA", "addr:postcode": "15147", "addr:country": "US", "name": "East Oakmont", "phone": "+14128281341", "website": "https://www.stbank.com/locations/east-oakmont", "opening_hours": "Mo-Th 09:00-16:00; Fr 09:00-17:00; Sa 09:00-12:00", "brand": "S&T Bank"}, "geometry": {"type": "Point", "coordinates": [-79.8159528, 40.5269154]}},
{"type": "Feature", "id": "Ii5c-ZU9aN4jXj9GWnyaLX5G9MA=", "properties": {"ref": "/locations/ebensburg", "fax": "+18144724944", "@spider": "stbank", "addr:full": "3135 New Germany Rd", "addr:city": "Ebensburg", "addr:state": "PA", "addr:postcode": "15931", "addr:country": "US", "name": "Ebensburg", "phone": "+18144724711", "website": "https://www.stbank.com/locations/ebensburg", "opening_hours": "Mo-Th 09:00-16:00; Fr 09:00-17:00; Sa 09:00-12:00", "brand": "S&T Bank"}, "geometry": {"type": "Point", "coordinates": [-78.7512517, 40.4633051]}},
{"type": "Feature", "id": "36o_DCpQ3i4XdU7mn_7_Y3OHgME=", "properties": {"ref": "/locations/exton", "fax": "+16105942162", "@spider": "stbank", "addr:full": "410 Exton Square Pkwy", "addr:city": "Exton", "addr:state": "PA", "addr:postcode": "19341", "addr:country": "US", "name": "Exton", "phone": "+16105182540", "website": "https://www.stbank.com/locations/exton", "opening_hours": "Mo-Th 09:00-16:00; Fr 09:00-17:00", "brand": "S&T Bank"}, "geometry": {"type": "Point", "coordinates": [-75.6261667, 40.0289383]}},
{"type": "Feature", "id": "cUPL-iZTHUQ8jIpqTEgnnPB9eeM=", "properties": {"ref": "/locations/ford-city", "fax": "+17247638794", "@spider": "stbank", "addr:full": "920 Fifth Ave.", "addr:city": "Ford City", "addr:state": "PA", "addr:postcode": "16226", "addr:country": "US", "name": "Ford City", "phone": "+17247631708", "website": "https://www.stbank.com/locations/ford-city", "opening_hours": "Mo-Th 09:00-16:00; Fr 09:00-17:00; Sa 09:00-12:00", "brand": "S&T Bank"}, "geometry": {"type": "Point", "coordinates": [-79.5299742, 40.7699192]}},
{"type": "Feature", "id": "dH9qwj_k9xznBt-JJTp0H1e5Yeg=", "properties": {"ref": "/locations/fruitville-pike", "fax": "+17173581961", "@spider": "stbank", "addr:full": "2055 Fruitville Pike", "addr:city": "Lancaster", "addr:state": "PA", "addr:postcode": "17601", "addr:country": "US", "name": "Fruitville Pike", "phone": "+17173581960", "website": "https://www.stbank.com/locations/fruitville-pike", "opening_hours": "Mo-Th 09:00-16:00; Fr 09:00-17:00", "brand": "S&T Bank"}, "geometry": {"type": "Point", "coordinates": [-76.32425, 40.07658]}},
{"type": "Feature", "id": "bTAtK5NuzrGBCNoYUbcfx3piDxg=", "properties": {"ref": "/locations/gallitzin", "fax": "+18148865831", "@spider": "stbank", "addr:full": "701 Main St", "addr:city": "Gallitzin", "addr:state": "PA", "addr:postcode": "16641", "addr:country": "US", "name": "Gallitzin", "phone": "+18148868191", "website": "https://www.stbank.com/locations/gallitzin", "opening_hours": "Mo-Th 09:00-16:00; Fr 09:00-18:00", "brand": "S&T Bank"}, "geometry": {"type": "Point", "coordinates": [-78.552691, 40.481443]}},
{"type": "Feature", "id": "ETI7zAYyclw2Sf1tHZqXN8h-0n0=", "properties": {"ref": "/locations/greensburg", "fax": "+17248535939", "@spider": "stbank", "addr:full": "701 East Pittsburgh St.", "addr:city": "Greensburg", "addr:state": "PA", "addr:postcode": "15601", "addr:country": "US", "name": "Greensburg", "phone": "+17248535932", "website": "https://www.stbank.com/locations/greensburg", "opening_hours": "Mo-Th 09:00-16:00; Fr 09:00-18:00; Sa 09:00-12:00", "brand": "S&T Bank"}, "geometry": {"type": "Point", "coordinates": [-79.5286648, 40.3034397]}},
{"type": "Feature", "id": "Xw-dvaiVGARH6-cIOvon_oAYhHA=", "properties": {"ref": "/locations/hampton-ave", "fax": "+18149381130", "@spider": "stbank", "addr:full": "232 Hampton Ave.", "addr:city": "Punxsutawney", "addr:state": "PA", "addr:postcode": "15767", "addr:country": "US", "name": "Hampton Ave", "phone": "+18149381101", "website": "https://www.stbank.com/locations/hampton-ave", "opening_hours": "Mo-Th 09:00-16:00; Fr 09:00-18:00; Sa 09:00-12:00", "brand": "S&T Bank"}, "geometry": {"type": "Point", "coordinates": [-78.967411, 40.9467895]}},
{"type": "Feature", "id": "26CjM5CYB7HmOmxwbX2adkFOqpA=", "properties": {"ref": "/locations/hilliard", "fax": null, "@spider": "stbank", "addr:full": "4599 Cemetary Road", "addr:city": "Hilliard", "addr:state": "OH", "addr:postcode": "43026", "addr:country": "US", "name": "Hilliard", "phone": "+16149712089", "website": "https://www.stbank.com/locations/hilliard", "brand": "S&T Bank"}, "geometry": {"type": "Point", "coordinates": [-83.139289, 40.031465]}},
{"type": "Feature", "id": "rgWA574_sWYxulkUR4GVvIYCFfE=", "properties": {"ref": "/locations/holiday-park", "fax": "+17243275017", "@spider": "stbank", "addr:full": "2388 Pennsylvania 286", "addr:city": "Pittsburgh", "addr:state": "PA", "addr:postcode": "15239", "addr:country": "US", "name": "Holiday Park", "phone": "+17243272753", "website": "https://www.stbank.com/locations/holiday-park", "opening_hours": "Mo-Th 09:00-16:00; Fr 09:00-17:00; Sa 09:00-12:00", "brand": "S&T Bank"}, "geometry": {"type": "Point", "coordinates": [-79.7045229, 40.463061]}},
{"type": "Feature", "id": "VxKDCwXOwjUmvlzmlokr7jc8s3k=", "properties": {"ref": "/locations/homer-city", "fax": "+17244795003", "@spider": "stbank", "addr:full": "34 North Main St.", "addr:city": "Homer City", "addr:state": "PA", "addr:postcode": "15748", "addr:country": "US", "name": "Homer City", "phone": "+17244795010", "website": "https://www.stbank.com/locations/homer-city", "opening_hours": "Mo-Th 09:00-16:00; Fr 09:00-17:00; Sa 09:00-12:00", "brand": "S&T Bank"}, "geometry": {"type": "Point", "coordinates": [-79.1611867, 40.5429928]}},
{"type": "Feature", "id": "ibx_8eC-kM6PG9nNYFW38uYcDyk=", "properties": {"ref": "/locations/irwin", "fax": "+17248645760", "@spider": "stbank", "addr:full": "309 Main St.", "addr:city": "Irwin", "addr:state": "PA", "addr:postcode": "15642", "addr:country": "US", "name": "Irwin", "phone": "+17248614427", "website": "https://www.stbank.com/locations/irwin", "opening_hours": "Mo-We 09:00-16:00; Th 09:00-17:00; Fr 09:00-16:00", "brand": "S&T Bank"}, "geometry": {"type": "Point", "coordinates": [-79.710277, 40.332446]}},
{"type": "Feature", "id": "XZw3_7jyHypIomKe15HCoOLDesI=", "properties": {"ref": "/locations/kennett-square", "fax": "+16109253679", "@spider": "stbank", "addr:full": "215 E Cypress St", "addr:city": "Kennett Square", "addr:state": "PA", "addr:postcode": "19348", "addr:country": "US", "name": "Kennett Square", "phone": "+16104444350", "website": "https://www.stbank.com/locations/kennett-square", "opening_hours": "Mo-Th 09:00-16:00; Fr 09:00-18:00; Sa 09:00-12:00", "brand": "S&T Bank"}, "geometry": {"type": "Point", "coordinates": [-75.70915, 39.84627]}},
{"type": "Feature", "id": "_mhbXk7dMHtbdAbfjElKbatDhkM=", "properties": {"ref": "/locations/irwin-route-30", "fax": "+17248631316", "@spider": "stbank", "addr:full": "9350 Lincoln Hwy E", "addr:city": "Irwin", "addr:state": "PA", "addr:postcode": "15642", "addr:country": "US", "name": "Irwin Route 30", "phone": "+17248614406", "website": "https://www.stbank.com/locations/irwin-route-30", "opening_hours": "Mo-Fr 09:00-18:00; Sa 09:00-12:00", "brand": "S&T Bank"}, "geometry": {"type": "Point", "coordinates": [-79.697528, 40.322328]}},
{"type": "Feature", "id": "Gn-RacJM852ThVuiMzo-Xgu5qhw=", "properties": {"ref": "/locations/latrobe-route-30", "fax": "+17245394825", "@spider": "stbank", "addr:full": "3884 US-30", "addr:city": "Latrobe", "addr:state": "PA", "addr:postcode": "15650", "addr:country": "US", "name": "Latrobe Route 30", "phone": "+17245394080", "website": "https://www.stbank.com/locations/latrobe-route-30", "opening_hours": "Mo-Th 09:00-16:00; Fr 09:00-17:00; Sa 09:00-12:00", "brand": "S&T Bank"}, "geometry": {"type": "Point", "coordinates": [-79.383315, 40.2862733]}},
{"type": "Feature", "id": "M7AzIw-Lpmog5VcQytcMz94tPIw=", "properties": {"ref": "/locations/liberty-boulevard", "fax": "+18143753839", "@spider": "stbank", "addr:full": "614 Liberty Blvd", "addr:city": "DuBois", "addr:state": "PA", "addr:postcode": "15801", "addr:country": "US", "name": "Liberty Boulevard", "phone": "+18143753860", "website": "https://www.stbank.com/locations/liberty-boulevard", "opening_hours": "Mo-Th 09:00-16:00; Fr 09:00-17:00; Sa 09:00-12:00", "brand": "S&T Bank"}, "geometry": {"type": "Point", "coordinates": [-78.755888, 41.1248]}},
{"type": "Feature", "id": "gvpR4bPnzYpK8HVLGzL4jj34ocs=", "properties": {"ref": "/locations/lionville", "fax": "+16105948186", "@spider": "stbank", "addr:full": "891 Pottstown Pike", "addr:city": "Exton", "addr:state": "PA", "addr:postcode": "19341", "addr:country": "US", "name": "Lionville", "phone": "+16103637590", "website": "https://www.stbank.com/locations/lionville", "opening_hours": "Mo-Th 09:00-16:00; Fr 09:00-17:00", "brand": "S&T Bank"}, "geometry": {"type": "Point", "coordinates": [-75.654188, 40.056578]}},
{"type": "Feature", "id": "IrR6o2hVt-gA2BB02i8i4bCIpxQ=", "properties": {"ref": "/locations/ludwigs-corner", "fax": "+16104587963", "@spider": "stbank", "addr:full": "1030 Pottstown Pike", "addr:city": "Chester Springs", "addr:state": "PA", "addr:postcode": "19425", "addr:country": "US", "name": "Ludwigs Corner", "phone": "+16104585100", "website": "https://www.stbank.com/locations/ludwigs-corner", "opening_hours": "Mo-Th 09:00-16:00; Fr 09:00-17:00; Sa 09:00-12:00", "brand": "S&T Bank"}, "geometry": {"type": "Point", "coordinates": [-75.6937595, 40.1147311]}},
{"type": "Feature", "id": "BgIQUIsoYZ4y83bnLGDFMcAiD2Y=", "properties": {"ref": "/locations/mahoning-drive-up", "fax": "+18149381129", "@spider": "stbank", "addr:full": "539 West Mahoning St.", "addr:city": "Punxsutawney", "addr:state": "PA", "addr:postcode": "15767", "addr:country": "US", "name": "Mahoning Drive-Up", "phone": "+18149381125", "website": "https://www.stbank.com/locations/mahoning-drive-up", "opening_hours": "Mo-Th 09:00-16:00; Fr 09:00-18:00", "brand": "S&T Bank"}, "geometry": {"type": "Point", "coordinates": [-78.980366, 40.942056]}},
{"type": "Feature", "id": "qrdmi3Wshq7-1YBU0ww18y9PSh0=", "properties": {"ref": "/locations/mccandless-crossing", "fax": "+17244272170", "@spider": "stbank", "addr:full": "9100 Covenant Avenue", "addr:city": "Pittsburgh", "addr:state": "PA", "addr:postcode": "15237", "addr:country": "US", "name": "McCandless Crossing", "phone": "+17244272160", "website": "https://www.stbank.com/locations/mccandless-crossing", "brand": "S&T Bank"}, "geometry": {"type": "Point", "coordinates": [-80.022027, 40.571222]}},
{"type": "Feature", "id": "rYoYq23PmgXAEkwqTyt5QOdZM1Y=", "properties": {"ref": "/locations/monroeville", "fax": null, "@spider": "stbank", "addr:full": "4385 Old William Penn Hwy", "addr:city": "Monroeville", "addr:state": "PA", "addr:postcode": "15146", "addr:country": "US", "name": "Monroeville", "phone": "+14123735378", "website": "https://www.stbank.com/locations/monroeville", "opening_hours": "Mo-Th 09:00-16:00; Fr 09:00-17:00; Sa 09:00-12:00", "brand": "S&T Bank"}, "geometry": {"type": "Point", "coordinates": [-79.766774, 40.44521]}},
{"type": "Feature", "id": "ktnmz8aCNDfssK_pzgBsJSQoEI8=", "properties": {"ref": "/locations/new-bethlehem", "fax": "+18142754174", "@spider": "stbank", "addr:full": "628 Broad Street", "addr:city": "New Bethlehem", "addr:state": "PA", "addr:postcode": "16242", "addr:country": "US", "name": "New Bethlehem", "phone": "+18142751750", "website": "https://www.stbank.com/locations/new-bethlehem", "opening_hours": "Mo-Th 09:00-16:00; Fr 09:00-17:00; Sa 09:00-12:00", "brand": "S&T Bank"}, "geometry": {"type": "Point", "coordinates": [-79.32567, 41.00212]}},
{"type": "Feature", "id": "HKk7fSX5Krrnd2aYcPEq5cgc0rs=", "properties": {"ref": "/locations/penn-township", "fax": "+17247442340", "@spider": "stbank", "addr:full": "4021 Route 130", "addr:city": "Irwin", "addr:state": "PA", "addr:postcode": "15642", "addr:country": "US", "name": "Penn Township", "phone": "+17247442177", "website": "https://www.stbank.com/locations/penn-township", "opening_hours": "Mo-Th 09:00-16:00; Fr 09:00-17:00; Sa 09:00-12:00", "brand": "S&T Bank"}, "geometry": {"type": "Point", "coordinates": [-79.6827927, 40.3700025]}},
{"type": "Feature", "id": "5gip_4YaNz-txE-cyDS80VgMUR0=", "properties": {"ref": "/locations/portage", "fax": "+18147364843", "@spider": "stbank", "addr:full": "737 Main St", "addr:city": "Portage", "addr:state": "PA", "addr:postcode": "15946", "addr:country": "US", "name": "Portage", "phone": "+18147369646", "website": "https://www.stbank.com/locations/portage", "opening_hours": "Mo-Th 09:00-16:00; Fr 09:00-17:00; Sa 09:00-12:00", "brand": "S&T Bank"}, "geometry": {"type": "Point", "coordinates": [-78.6726133, 40.3855015]}},
{"type": "Feature", "id": "bqx7VqfpgnmkJDuRKaGMgqe6emU=", "properties": {"ref": "/locations/oregon-pike", "fax": "+17173812101", "@spider": "stbank", "addr:full": "1683 Oregon Pike", "addr:city": "Lancaster", "addr:state": "PA", "addr:postcode": "17601", "addr:country": "US", "name": "Oregon Pike", "phone": "+17173812100", "website": "https://www.stbank.com/locations/oregon-pike", "opening_hours": "Mo-Th 09:00-16:00; Fr 09:00-18:00; Sa 09:00-12:00", "brand": "S&T Bank"}, "geometry": {"type": "Point", "coordinates": [-76.303633, 40.06687]}},
{"type": "Feature", "id": "2hbFu4_kFIKTuzGgmvWo6yXE1Rg=", "properties": {"ref": "/locations/reynoldsville", "fax": "+18146538345", "@spider": "stbank", "addr:full": "418 E Main Street", "addr:city": "Reynoldsville", "addr:state": "PA", "addr:postcode": "15851", "addr:country": "US", "name": "Reynoldsville", "phone": "+18146538264", "website": "https://www.stbank.com/locations/reynoldsville", "opening_hours": "Mo-Th 09:00-16:00; Fr 09:00-18:00", "brand": "S&T Bank"}, "geometry": {"type": "Point", "coordinates": [-78.8885413, 41.0967668]}},
{"type": "Feature", "id": "Xie7rs7k3bFpMqUq_F3KDKpJ3NA=", "properties": {"ref": "/locations/richland", "fax": "+18142665832", "@spider": "stbank", "addr:full": "1516 Scalp Ave", "addr:city": "Johnstown", "addr:state": "PA", "addr:postcode": "15904", "addr:country": "US", "name": "Richland", "phone": "+18142664818", "website": "https://www.stbank.com/locations/richland", "opening_hours": "Mo-Th 09:00-16:00; Fr 09:00-18:00", "brand": "S&T Bank"}, "geometry": {"type": "Point", "coordinates": [-78.8569757, 40.2684307]}},
{"type": "Feature", "id": "xZJsBxx7Xe1S3w-iS1WmfOV7mDg=", "properties": {"ref": "/locations/roxborough", "fax": "+12154829407", "@spider": "stbank", "addr:full": "6137 Ridge Ave", "addr:city": "Philadelphia", "addr:state": "PA", "addr:postcode": "19128", "addr:country": "US", "name": "Roxborough", "phone": "+12154829401", "website": "https://www.stbank.com/locations/roxborough", "opening_hours": "Mo-Th 09:00-16:00; Fr 09:00-18:00; Sa 09:00-12:00", "brand": "S&T Bank"}, "geometry": {"type": "Point", "coordinates": [-75.216098, 40.034637]}},
{"type": "Feature", "id": "0Nfi0x-xg6Ic38p-P1gUemzlb2c=", "properties": {"ref": "/locations/squirrel-hill-financial", "fax": "+14124216534", "@spider": "stbank", "addr:full": "6306 Forbes Ave", "addr:city": "Pittsburgh", "addr:state": "PA", "addr:postcode": "15217", "addr:country": "US", "name": "Squirrel Hill Financial", "phone": "+14124216370", "website": "https://www.stbank.com/locations/squirrel-hill-financial", "brand": "S&T Bank"}, "geometry": {"type": "Point", "coordinates": [-79.9190297, 40.4376934]}},
{"type": "Feature", "id": "gmU7kPBL_yya2XyV3lsbjZApeEM=", "properties": {"ref": "/locations/west-chester", "fax": "+16104293847", "@spider": "stbank", "addr:full": "2 North Church Street", "addr:city": "West Chester", "addr:state": "PA", "addr:postcode": "19380", "addr:country": "US", "name": "West Chester", "phone": "+16104293030", "website": "https://www.stbank.com/locations/west-chester", "opening_hours": "Mo-Th 09:00-16:00; Fr 09:00-18:00", "brand": "S&T Bank"}, "geometry": {"type": "Point", "coordinates": [-75.605092, 39.958585]}},
{"type": "Feature", "id": "G7qptls1WQR6iJl7zA_p9fbLMfo=", "properties": {"ref": "/locations/saltsburg", "fax": null, "@spider": "stbank", "addr:full": "602 Salt St", "addr:city": "Saltsburg", "addr:state": "PA", "addr:postcode": "15681", "addr:country": "US", "name": "Saltsburg", "phone": "+17246399100", "website": "https://www.stbank.com/locations/saltsburg", "opening_hours": "Mo-Th 09:00-16:00; Fr 09:00-17:00; Sa 09:00-12:00", "brand": "S&T Bank"}, "geometry": {"type": "Point", "coordinates": [-79.450653, 40.4851148]}},
{"type": "Feature", "id": "rYbubUBkm3mcGkI33kmxAszVOV0=", "properties": {"ref": "/locations/west-goshen", "fax": "+16104295865", "@spider": "stbank", "addr:full": "1115 West Chester Pike", "addr:city": "West Chester", "addr:state": "PA", "addr:postcode": "19380", "addr:country": "US", "name": "West Goshen", "phone": "+16104295860", "website": "https://www.stbank.com/locations/west-goshen", "opening_hours": "Mo-Th 09:00-16:00; Fr 09:00-17:00", "brand": "S&T Bank"}, "geometry": {"type": "Point", "coordinates": [-75.5730191, 39.9691979]}},
{"type": "Feature", "id": "JgWMpZj3FQFKP113sO6qD7L4iNE=", "properties": {"ref": "/locations/west-kittanning", "fax": "+17245453463", "@spider": "stbank", "addr:full": "227 Butler Road", "addr:city": "Kittanning", "addr:state": "PA", "addr:postcode": "16201", "addr:country": "US", "name": "West Kittanning", "phone": "+17245453466", "website": "https://www.stbank.com/locations/west-kittanning", "opening_hours": "Mo-Th 09:00-16:00; Fr 09:00-18:00; Sa 09:00-12:00", "brand": "S&T Bank"}, "geometry": {"type": "Point", "coordinates": [-79.530636, 40.8068232]}},
{"type": "Feature", "id": "8cxWHjwy0jndgPNbbEuZZP_7PQ8=", "properties": {"ref": "/locations/brookville", "fax": "+18148490164", "@spider": "stbank", "addr:full": "256 Main St.", "addr:city": "Brookville", "addr:state": "PA", "addr:postcode": "15825", "addr:country": "US", "name": "Brookville", "phone": "+18148498365", "website": "https://www.stbank.com/locations/brookville", "opening_hours": "Mo-Th 09:00-16:00; Fr 09:00-18:00", "brand": "S&T Bank"}, "geometry": {"type": "Point", "coordinates": [-79.0808829, 41.1607297]}},
{"type": "Feature", "id": "B30yN98TvTPh9YKPYCOt26lXyOg=", "properties": {"ref": "/locations/boothwyn", "fax": "+16104850718", "@spider": "stbank", "addr:full": "3915 Chichester Ave", "addr:city": "Boothwyn", "addr:state": "PA", "addr:postcode": "19061", "addr:country": "US", "name": "Boothwyn", "phone": "+16104851226", "website": "https://www.stbank.com/locations/boothwyn", "opening_hours": "Mo-Th 09:00-16:00; Fr 09:00-17:00", "brand": "S&T Bank"}, "geometry": {"type": "Point", "coordinates": [-75.4434018, 39.8437832]}},
{"type": "Feature", "id": "a21XeQLPdfSnhKJUr7rpiXYwbrc=", "properties": {"ref": "/locations/allegheny-towne-center", "fax": "+17248453466", "@spider": "stbank", "addr:full": "30 Towne Center Dr.", "addr:city": "Leechburg", "addr:state": "PA", "addr:postcode": "15656", "addr:country": "US", "name": "Allegheny Towne Center", "phone": "+17248453445", "website": "https://www.stbank.com/locations/allegheny-towne-center", "opening_hours": "Mo-Th 09:00-16:00; Fr 09:00-17:00; Sa 09:00-12:00", "brand": "S&T Bank"}, "geometry": {"type": "Point", "coordinates": [-79.611087, 40.607865]}},
{"type": "Feature", "id": "PgiJwHjPfjtGPOccaIZR9rh5CRo=", "properties": {"ref": "/locations/allentown-boulevard", "fax": "+17179203502", "@spider": "stbank", "addr:full": "6085 Allentown Blvd", "addr:city": "Harrisburg", "addr:state": "PA", "addr:postcode": "17112", "addr:country": "US", "name": "Allentown Boulevard", "phone": "+17179203500", "website": "https://www.stbank.com/locations/allentown-boulevard", "opening_hours": "Mo-Th 09:00-16:00; Fr 09:00-17:00; Sa 09:00-12:00", "brand": "S&T Bank"}, "geometry": {"type": "Point", "coordinates": [-76.786874, 40.322615]}},
{"type": "Feature", "id": "e3CB7KE5NI7ILExjqGNRSnNOZnc=", "properties": {"ref": "/locations/butler", "fax": "+17242822803", "@spider": "stbank", "addr:full": "220 New Castle Rd.", "addr:city": "Butler", "addr:state": "PA", "addr:postcode": "16001", "addr:country": "US", "name": "Butler", "phone": "+17242832724", "website": "https://www.stbank.com/locations/butler", "brand": "S&T Bank"}, "geometry": {"type": "Point", "coordinates": [-79.93078, 40.870719]}},
{"type": "Feature", "id": "5K9jcSO1LNSfc-EoyR3B5wcky5Q=", "properties": {"ref": "/locations/derry", "fax": "+17246949825", "@spider": "stbank", "addr:full": "100 South Chestnut St.", "addr:city": "Derry", "addr:state": "PA", "addr:postcode": "15627", "addr:country": "US", "name": "Derry", "phone": "+17246949706", "website": "https://www.stbank.com/locations/derry", "opening_hours": "Mo-Fr 09:00-16:00", "brand": "S&T Bank"}, "geometry": {"type": "Point", "coordinates": [-79.3004867, 40.3332067]}},
{"type": "Feature", "id": "Id-keCM7oHSe4yGlTSEuCnIydMo=", "properties": {"ref": "/locations/cranberry", "fax": "+17247412045", "@spider": "stbank", "addr:full": "900 Commonwealth Dr", "addr:city": "Cranberry Township", "addr:state": "PA", "addr:postcode": "16066", "addr:country": "US", "name": "Cranberry", "phone": "+17247412000", "website": "https://www.stbank.com/locations/cranberry", "brand": "S&T Bank"}, "geometry": {"type": "Point", "coordinates": [-80.111674, 40.683165]}},
{"type": "Feature", "id": "uZKHsOS3e9rQ_vAVg7xcLn6R-uM=", "properties": {"ref": "/locations/colonial-road", "fax": "+17179203201", "@spider": "stbank", "addr:full": "301 Colonial Road", "addr:city": "Harrisburg", "addr:state": "PA", "addr:postcode": "17109", "addr:country": "US", "name": "Colonial Road", "phone": "+17179203200", "website": "https://www.stbank.com/locations/colonial-road", "opening_hours": "Mo-Th 09:00-16:00; Fr 09:00-17:00; Sa 09:00-12:00", "brand": "S&T Bank"}, "geometry": {"type": "Point", "coordinates": [-76.821828, 40.303353]}},
{"type": "Feature", "id": "BQCG-3w9ZGqVyuOQe4T5cq4v3Ho=", "properties": {"ref": "/locations/cuyahoga", "fax": null, "@spider": "stbank", "addr:full": "2032 Front Street", "addr:city": "Cuyahoga Falls", "addr:state": "OH", "addr:postcode": "44221", "addr:country": "US", "name": "Cuyahoga", "phone": "+13309682013", "website": "https://www.stbank.com/locations/cuyahoga", "brand": "S&T Bank"}, "geometry": {"type": "Point", "coordinates": [-81.4831468, 41.1346753]}},
{"type": "Feature", "id": "NprgJW-s3cUT1Z10Bgp0DRL2Ok4=", "properties": {"ref": "/locations/east-end-downingtown", "fax": "+16102697133", "@spider": "stbank", "addr:full": "701 E Lancaster Ave", "addr:city": "Downingtown", "addr:state": "PA", "addr:postcode": "19335", "addr:country": "US", "name": "East End Downingtown", "phone": "+16102693800", "website": "https://www.stbank.com/locations/east-end-downingtown", "opening_hours": "Mo-Th 09:00-16:00; Fr 09:00-18:00; Sa 09:00-12:00", "brand": "S&T Bank"}, "geometry": {"type": "Point", "coordinates": [-75.691962, 40.013563]}},
{"type": "Feature", "id": "LBbLtON6n1emKGCzathjF6TO6jQ=", "properties": {"ref": "/locations/east-falls", "fax": "+12672956422", "@spider": "stbank", "addr:full": "4341 Ridge Ave", "addr:city": "Philadelphia", "addr:state": "PA", "addr:postcode": "19129", "addr:country": "US", "name": "East Falls", "phone": "+12672956499", "website": "https://www.stbank.com/locations/east-falls", "opening_hours": "Mo-Th 09:00-16:00; Fr 09:00-18:00", "brand": "S&T Bank"}, "geometry": {"type": "Point", "coordinates": [-75.1968953, 40.0102498]}},
{"type": "Feature", "id": "X70wMZD_Z8YHveku12iAQo5YCM0=", "properties": {"ref": "/locations/haymaker", "fax": null, "@spider": "stbank", "addr:full": "4580 Broadway Blvd.", "addr:city": "Monroeville", "addr:state": "PA", "addr:postcode": "15146", "addr:country": "US", "name": "Haymaker", "phone": "+14128584612", "website": "https://www.stbank.com/locations/haymaker", "brand": "S&T Bank"}, "geometry": {"type": "Point", "coordinates": [-79.76611, 40.38852]}},
{"type": "Feature", "id": "nPifyFPiGhGKUBgMUWnGZstjozc=", "properties": {"ref": "/locations/indian-springs", "fax": "+17244655451", "@spider": "stbank", "addr:full": "2455 Oakland Avenue", "addr:city": "Indiana", "addr:state": "PA", "addr:postcode": "15701", "addr:country": "US", "name": "Indian Springs", "phone": "+17244654862", "website": "https://www.stbank.com/locations/indian-springs", "opening_hours": "Mo-Fr 09:00-18:00; Sa 09:00-12:00", "brand": "S&T Bank"}, "geometry": {"type": "Point", "coordinates": [-79.1830115, 40.6054372]}},
{"type": "Feature", "id": "uwRyB_clMPi9RSMw4rKQjUba0kk=", "properties": {"ref": "/locations/little-washington-downingtown", "fax": "+16109422759", "@spider": "stbank", "addr:full": "104 Culbertson Run Rd", "addr:city": "Downingtown", "addr:state": "PA", "addr:postcode": "19335", "addr:country": "US", "name": "Little Washington Downingtown", "phone": "+16109423666", "website": "https://www.stbank.com/locations/little-washington-downingtown", "opening_hours": "Mo-Th 09:00-16:00; Fr 09:00-18:00; Sa 09:00-12:00", "brand": "S&T Bank"}, "geometry": {"type": "Point", "coordinates": [-75.786068, 40.047338]}},
{"type": "Feature", "id": "ROKqfM9ixaqK-kz_w3FA1YH_P0s=", "properties": {"ref": "/locations/main-office", "fax": "+17244651417", "@spider": "stbank", "addr:full": "800 Philadelphia Street", "addr:city": "Indiana", "addr:state": "PA", "addr:postcode": "15701", "addr:country": "US", "name": "Main Office", "phone": "+17243490599", "website": "https://www.stbank.com/locations/main-office", "brand": "S&T Bank"}, "geometry": {"type": "Point", "coordinates": [-79.1551178, 40.6226794]}},
{"type": "Feature", "id": "Kr6aHKvOOvTcCTRhjzkF3NuLSbo=", "properties": {"ref": "/locations/mcmurray", "fax": "+17249690542", "@spider": "stbank", "addr:full": "3402 Washington Road", "addr:city": "McMurray", "addr:state": "PA", "addr:postcode": "15317", "addr:country": "US", "name": "McMurray", "phone": "+17249691010", "website": "https://www.stbank.com/locations/mcmurray", "brand": "S&T Bank"}, "geometry": {"type": "Point", "coordinates": [-80.11798, 40.2874533]}},
{"type": "Feature", "id": "xP1eqJ15ka4BDF7c5tZHdpIvfd4=", "properties": {"ref": "/locations/murrysville", "fax": "+17243253636", "@spider": "stbank", "addr:full": "4251 Old William Penn Hwy", "addr:city": "Murrysville", "addr:state": "PA", "addr:postcode": "15668", "addr:country": "US", "name": "Murrysville", "phone": "+17243252778", "website": "https://www.stbank.com/locations/murrysville", "opening_hours": "Mo-Th 09:00-16:00; Fr 09:00-17:00; Sa 09:00-12:00", "brand": "S&T Bank"}, "geometry": {"type": "Point", "coordinates": [-79.684674, 40.427625]}},
{"type": "Feature", "id": "XbMstLFwqJEutFK7dlUxaOkpQGo=", "properties": {"ref": "/locations/new-cumberland", "fax": "+17179015501", "@spider": "stbank", "addr:full": "440 Bridge Street", "addr:city": "New Cumberland", "addr:state": "PA", "addr:postcode": "17070", "addr:country": "US", "name": "New Cumberland", "phone": "+17179015500", "website": "https://www.stbank.com/locations/new-cumberland", "opening_hours": "Mo-Th 09:00-16:00; Fr 09:00-17:00; Sa 09:00-12:00", "brand": "S&T Bank"}, "geometry": {"type": "Point", "coordinates": [-76.8673267, 40.2279192]}},
{"type": "Feature", "id": "PBc33A1AdbXybPXWuJr2JfEc_rg=", "properties": {"ref": "/locations/north-fourth-street-drive-up", "fax": "+17244656672", "@spider": "stbank", "addr:full": "324 North Fourth Street", "addr:city": "Indiana", "addr:state": "PA", "addr:postcode": "15701", "addr:country": "US", "name": "North Fourth Street Drive-Up", "phone": "+17244654808", "website": "https://www.stbank.com/locations/north-fourth-street-drive-up", "brand": "S&T Bank"}, "geometry": {"type": "Point", "coordinates": [-79.14617, 40.6279]}},
{"type": "Feature", "id": "wss4BfmGrtYOBe4vYgl2oid_b_A=", "properties": {"ref": "/locations/o-hara-township", "fax": "+14127813823", "@spider": "stbank", "addr:full": "1077 Freeport Rd", "addr:city": "Pittsburgh", "addr:state": "PA", "addr:postcode": "15238", "addr:country": "US", "name": "O'Hara Township", "phone": "+14127812106", "website": "https://www.stbank.com/locations/o-hara-township", "brand": "S&T Bank"}, "geometry": {"type": "Point", "coordinates": [-79.884255, 40.488036]}},
{"type": "Feature", "id": "dSeYjOCa6AoTc7VNjlCMPBFPGkA=", "properties": {"ref": "/locations/penn-hills", "fax": "+14127952999", "@spider": "stbank", "addr:full": "12262 Frankstown Rd", "addr:city": "Pittsburgh", "addr:state": "PA", "addr:postcode": "15235", "addr:country": "US", "name": "Penn Hills", "phone": "+14127952801", "website": "https://www.stbank.com/locations/penn-hills", "opening_hours": "Mo-Th 09:00-16:00; Fr 09:00-17:00; Sa 09:00-12:00", "brand": "S&T Bank"}, "geometry": {"type": "Point", "coordinates": [-79.8196602, 40.4729158]}},
{"type": "Feature", "id": "l61gmo6Gy0DOyGgeIW_55s-vLrM=", "properties": {"ref": "/locations/plum", "fax": "+14127956934", "@spider": "stbank", "addr:full": "7660 Saltsburg Rd", "addr:city": "Pittsburgh", "addr:state": "PA", "addr:postcode": "15239", "addr:country": "US", "name": "Plum", "phone": "+14127983347", "website": "https://www.stbank.com/locations/plum", "opening_hours": "Mo-Th 09:00-16:00; Fr 09:00-17:00; Sa 09:00-12:00", "brand": "S&T Bank"}, "geometry": {"type": "Point", "coordinates": [-79.77504, 40.47423]}},
{"type": "Feature", "id": "5bNy_RH17TJ2svZQwhLFFokqXgo=", "properties": {"ref": "/locations/resort-plaza", "fax": "+17244595993", "@spider": "stbank", "addr:full": "111 Resort Plaza Drive", "addr:city": "Blairsville", "addr:state": "PA", "addr:postcode": "15717", "addr:country": "US", "name": "Resort Plaza", "phone": "+17244595903", "website": "https://www.stbank.com/locations/resort-plaza", "opening_hours": "Mo-Th 09:00-16:00; Fr 09:00-17:00; Sa 09:00-12:00", "brand": "S&T Bank"}, "geometry": {"type": "Point", "coordinates": [-79.228471, 40.443502]}},
{"type": "Feature", "id": "8pSzp6zSj4rnIukybbkEVQyNyiA=", "properties": {"ref": "/locations/route-36", "fax": "+18148491284", "@spider": "stbank", "addr:full": "209 Allegheny Boulevard", "addr:city": "Brookville", "addr:state": "PA", "addr:postcode": "15825", "addr:country": "US", "name": "Route 36", "phone": "+18148491280", "website": "https://www.stbank.com/locations/route-36", "opening_hours": "Mo-Th 09:00-16:00; Fr 09:00-18:00; Sa 09:00-12:00", "brand": "S&T Bank"}, "geometry": {"type": "Point", "coordinates": [-79.098182, 41.1648827]}},
{"type": "Feature", "id": "3NhTXVYVPvBt8aqnqVluNwgtEvE=", "properties": {"ref": "/locations/solution-center---service", "fax": null, "@spider": "stbank", "addr:full": "2416 Philadelphia Street", "addr:city": "Indiana", "addr:state": "PA", "addr:postcode": "15701", "addr:country": "US", "name": "Solution Center - Service", "phone": "+18003252265", "website": "https://www.stbank.com/locations/solution-center---service", "opening_hours": "Mo-Fr 07:00-21:00; Sa 08:00-17:00; Su 10:00-17:00", "brand": "S&T Bank"}, "geometry": {"type": "Point", "coordinates": [-79.1896812, 40.6207693]}},
{"type": "Feature", "id": "K-Yb3lIhVqpDdSqcjttgR4sZg3M=", "properties": {"ref": "/locations/shadyside", "fax": "+14128026035", "@spider": "stbank", "addr:full": "810 S. Aiken Ave", "addr:city": "Pittsburgh", "addr:state": "PA", "addr:postcode": "15232", "addr:country": "US", "name": "Shadyside", "phone": "+14128026000", "website": "https://www.stbank.com/locations/shadyside", "brand": "S&T Bank"}, "geometry": {"type": "Point", "coordinates": [-79.935519, 40.450406]}},
{"type": "Feature", "id": "l1mczEVI9UN4KtZWu8USU7HRY1M=", "properties": {"ref": "/locations/wexford", "fax": "+17249355090", "@spider": "stbank", "addr:full": "12550 Perry Highway", "addr:city": "Wexford", "addr:state": "PA", "addr:postcode": "15090", "addr:country": "US", "name": "Wexford", "phone": "+17247592150", "website": "https://www.stbank.com/locations/wexford", "brand": "S&T Bank"}, "geometry": {"type": "Point", "coordinates": [-80.0623545, 40.637667]}},
{"type": "Feature", "id": "nrJflCoTpG5sKayFwh3B3Xjr32c=", "properties": {"ref": "/locations/white-oak", "fax": "+14126783007", "@spider": "stbank", "addr:full": "2003 Lincoln Way", "addr:city": "White Oak", "addr:state": "PA", "addr:postcode": "15131", "addr:country": "US", "name": "White Oak", "phone": "+14126783054", "website": "https://www.stbank.com/locations/white-oak", "opening_hours": "Mo-Th 09:00-16:00; Fr 09:00-17:00; Sa 09:00-12:00", "brand": "S&T Bank"}, "geometry": {"type": "Point", "coordinates": [-79.8071115, 40.3371015]}},
{"type": "Feature", "id": "QZGMPneBL1ml1QIAku5dwPuQZrM=", "properties": {"ref": "/locations/youngwood", "fax": "+17249256825", "@spider": "stbank", "addr:full": "100 S. Fourth St", "addr:city": "Youngwood", "addr:state": "PA", "addr:postcode": "15697", "addr:country": "US", "name": "Youngwood", "phone": "+17249256216", "website": "https://www.stbank.com/locations/youngwood", "opening_hours": "Mo-Th 09:00-16:00; Fr 09:00-18:00", "brand": "S&T Bank"}, "geometry": {"type": "Point", "coordinates": [-79.57983, 40.23821]}},
{"type": "Feature", "id": "UG_fBKS8XMv8mPQHNp126ib9Bcw=", "properties": {"ref": "/locations/downtown-york", "fax": null, "@spider": "stbank", "addr:full": "2 South George St.", "addr:city": "York", "addr:state": "PA", "addr:postcode": "17401", "addr:country": "US", "name": "Downtown York", "phone": "+17177188000", "website": "https://www.stbank.com/locations/downtown-york", "brand": "S&T Bank"}, "geometry": {"type": "Point", "coordinates": [-76.7277978, 39.9620719]}},
{"type": "Feature", "id": "Ow-KDTtGeIcoB79c8fAkPRH1g10=", "properties": {"ref": "/locations/dilworthtown-crossing", "fax": "+16103619428", "@spider": "stbank", "addr:full": "1349 Wilmington Pike", "addr:city": "West Chester", "addr:state": "PA", "addr:postcode": "19382", "addr:country": "US", "name": "Dilworthtown Crossing", "phone": "+14843593228", "website": "https://www.stbank.com/locations/dilworthtown-crossing", "opening_hours": "Mo-Th 09:00-16:00; Fr 09:00-18:00; Sa 09:00-12:00", "brand": "S&T Bank"}, "geometry": {"type": "Point", "coordinates": [-75.563919, 39.902429]}},
{"type": "Feature", "id": "0RGpMIHPnrCrFN5NfRI3nMV4rEA=", "properties": {"ref": "/locations/chester-county-justice-center-atm", "fax": null, "@spider": "stbank", "addr:full": "201 West Market Street", "addr:city": "West Chester", "addr:state": "PA", "addr:postcode": "19380", "addr:country": "US", "name": "Chester County Justice Center ATM", "phone": "+18003252265", "website": "https://www.stbank.com/locations/chester-county-justice-center-atm", "opening_hours": "Mo-Fr 08:00-16:30", "brand": "S&T Bank"}, "geometry": {"type": "Point", "coordinates": [-75.607985, 39.958489]}},
{"type": "Feature", "id": "DnmtSyQQgkDp545_knofFMk1fm8=", "properties": {"ref": "/locations/irmc-atm", "fax": null, "@spider": "stbank", "addr:full": "835 Hospital Road", "addr:city": "Indiana", "addr:state": "PA", "addr:postcode": "15701", "addr:country": "US", "name": "IRMC ATM", "phone": "+18003252265", "website": "https://www.stbank.com/locations/irmc-atm", "opening_hours": "24/7", "brand": "S&T Bank"}, "geometry": {"type": "Point", "coordinates": [-79.1511307, 40.6087023]}}]}