{"type":"FeatureCollection","features":[{"type": "Feature", "id": "RaVF-MwnI--27nIhoCZcGjS8LS8=", "properties": {"ref": "https://www.stonehouserestaurants.co.uk/nationalsearch/eastandwestmidlands/theroundoakbrierleyhill", "@spider": "stonehouse_gb", "addr:street_address": "24-26 Merry Hill, Brierley Hill", "addr:city": "Dudley", "addr:state": "West Midlands", "addr:postcode": "DY5 1SB", "addr:country": "GB", "name": "The Round Oak Brierley Hill", "phone": "01384 484854", "website": "https://www.stonehouserestaurants.co.uk/nationalsearch/eastandwestmidlands/theroundoakbrierleyhill", "contact:twitter": "gary.neal@mbplc.com", "opening_hours": "Mo-Su 09:00-22:00", "brand": "Stonehouse", "brand:wikidata": "Q78192049"}, "geometry": {"type": "Point", "coordinates": [-2.108105, 52.474282]}},
{"type": "Feature", "id": "HIHz2OLDsAhI0uCyeTpUHf4wdfI=", "properties": {"ref": "https://www.stonehouserestaurants.co.uk/nationalsearch/eastandwestmidlands/thebluepeterderby", "@spider": "stonehouse_gb", "addr:street_address": "Shardlow Road, Alvaston", "addr:city": "Derby", "addr:state": "Derbyshire", "addr:postcode": "DE24 0JH", "addr:country": "GB", "name": "The Blue Peter Derby", "phone": "01332 754912", "website": "https://www.stonehouserestaurants.co.uk/nationalsearch/eastandwestmidlands/thebluepeterderby", "contact:twitter": "gary.neal@mbplc.com", "opening_hours": "Mo-Su 09:00-22:30", "brand": "Stonehouse", "brand:wikidata": "Q78192049"}, "geometry": {"type": "Point", "coordinates": [-1.428483, 52.895793]}},
{"type": "Feature", "id": "IPIxVdX__tzQILfwwCb9YfrqTk8=", "properties": {"ref": "https://www.stonehouserestaurants.co.uk/nationalsearch/eastandwestmidlands/thecrownkingsheath", "@spider": "stonehouse_gb", "addr:street_address": "290 Alcester Road South, Kings Heath", "addr:city": "Birmingham", "addr:state": "West Midlands", "addr:postcode": "B14 6EN", "addr:country": "GB", "name": "The Crown Kings Heath", "phone": "0121 444 2912", "website": "https://www.stonehouserestaurants.co.uk/nationalsearch/eastandwestmidlands/thecrownkingsheath", "contact:twitter": "gary.neal@mbplc.com", "opening_hours": "Mo-Th 09:00-23:00; Fr-Sa 09:00-23:30; Su 09:00-22:00", "brand": "Stonehouse", "brand:wikidata": "Q78192049"}, "geometry": {"type": "Point", "coordinates": [-1.892182, 52.420926]}},
{"type": "Feature", "id": "AnrmYmPAb0H7WoC0zKx7wdlBYQU=", "properties": {"ref": "https://www.stonehouserestaurants.co.uk/nationalsearch/eastandwestmidlands/thefoxsuttoncoldfield", "@spider": "stonehouse_gb", "addr:street_address": "Walmley Road", "addr:city": "Sutton Coldfield", "addr:state": "West Midlands", "addr:postcode": "B76 1NP", "addr:country": "GB", "name": "The Fox Sutton Coldfield", "phone": "0121 351 5680", "website": "https://www.stonehouserestaurants.co.uk/nationalsearch/eastandwestmidlands/thefoxsuttoncoldfield", "contact:twitter": "gary.neal@mbplc.com", "opening_hours": "Mo-Su 09:00-23:00", "brand": "Stonehouse", "brand:wikidata": "Q78192049"}, "geometry": {"type": "Point", "coordinates": [-1.800854, 52.540871]}},
{"type": "Feature", "id": "14jq1Nxh9XUnGxbfm1QG9RBLA3w=", "properties": {"ref": "https://www.stonehouserestaurants.co.uk/nationalsearch/eastandwestmidlands/derodesarmschesterfield", "@spider": "stonehouse_gb", "addr:street_address": "Church Street, Barlborough", "addr:city": "Chesterfield", "addr:state": "Derbyshire", "addr:postcode": "S43 4ER", "addr:country": "GB", "name": "De Rodes Arms Chesterfield", "phone": "01246 810345", "website": "https://www.stonehouserestaurants.co.uk/nationalsearch/eastandwestmidlands/derodesarmschesterfield", "contact:twitter": "gary.neal@mbplc.com", "opening_hours": "Mo-Su 08:00-22:00", "brand": "Stonehouse", "brand:wikidata": "Q78192049"}, "geometry": {"type": "Point", "coordinates": [-1.283964, 53.288881]}},
{"type": "Feature", "id": "u5FQvN3kzEyPg49W4m8nu4twyp0=", "properties": {"ref": "https://www.stonehouserestaurants.co.uk/nationalsearch/eastandwestmidlands/theashbankwerrington", "@spider": "stonehouse_gb", "addr:street_address": "216 Ash Bank Road, Werrington", "addr:city": "Stoke On Trent", "addr:state": "Staffordshire", "addr:postcode": "ST2 9EB", "addr:country": "GB", "name": "The Ashbank Werrington", "phone": "01782 302378", "website": "https://www.stonehouserestaurants.co.uk/nationalsearch/eastandwestmidlands/theashbankwerrington", "contact:twitter": "gary.neal@mbplc.com", "opening_hours": "Mo-Su 09:00-23:00", "brand": "Stonehouse", "brand:wikidata": "Q78192049"}, "geometry": {"type": "Point", "coordinates": [-2.106261, 53.021157]}},
{"type": "Feature", "id": "1WxXyMnV3tNXOOIjZYm7t544dY8=", "properties": {"ref": "https://www.stonehouserestaurants.co.uk/nationalsearch/eastandwestmidlands/thewalsgravecoventry", "@spider": "stonehouse_gb", "addr:street_address": "382 Walsgrave Road", "addr:city": "Coventry", "addr:state": "West Midlands", "addr:postcode": "CV2 4AF", "addr:country": "GB", "name": "The Walsgrave Coventry", "phone": "024 7645 1174", "website": "https://www.stonehouserestaurants.co.uk/nationalsearch/eastandwestmidlands/thewalsgravecoventry", "contact:twitter": "gary.neal@mbplc.com", "opening_hours": "Mo-Th 09:00-23:00; Fr-Sa 09:00-24:00; Su 09:00-23:00", "brand": "Stonehouse", "brand:wikidata": "Q78192049"}, "geometry": {"type": "Point", "coordinates": [-1.471047, 52.413948]}},
{"type": "Feature", "id": "qw6P_6GtYXEHEcYKuzkfV7aHWpI=", "properties": {"ref": "https://www.stonehouserestaurants.co.uk/nationalsearch/eastandwestmidlands/thewoodendsuttoninashfield", "@spider": "stonehouse_gb", "addr:street_address": "Chesterfield Road, Huthwaite", "addr:city": "Sutton-In-Ashfield", "addr:state": "Nottinghamshire", "addr:postcode": "NG17 2QJ", "addr:country": "GB", "name": "The Woodend Sutton In Ashfield", "phone": "01773 872231", "website": "https://www.stonehouserestaurants.co.uk/nationalsearch/eastandwestmidlands/thewoodendsuttoninashfield", "contact:twitter": "gary.neal@mbplc.com", "opening_hours": "Mo-Su 09:00-22:00", "brand": "Stonehouse", "brand:wikidata": "Q78192049"}, "geometry": {"type": "Point", "coordinates": [-1.313939, 53.135908]}},
{"type": "Feature", "id": "QwIveIltj8yA9PCZcps4zJo9aRo=", "properties": {"ref": "https://www.stonehouserestaurants.co.uk/nationalsearch/eastandwestmidlands/sheldonhallsheldon", "@spider": "stonehouse_gb", "addr:street_address": "Gressel Lane, Sheldon", "addr:city": "Birmingham", "addr:state": "West Midlands", "addr:postcode": "B33 9US", "addr:country": "GB", "name": "Sheldon Hall Sheldon", "phone": "0121 788 1135", "website": "https://www.stonehouserestaurants.co.uk/nationalsearch/eastandwestmidlands/sheldonhallsheldon", "contact:twitter": "gary.neal@mbplc.com", "opening_hours": "Mo-Th 09:00-23:00; Fr-Sa 09:00-24:00; Su 09:00-23:00", "brand": "Stonehouse", "brand:wikidata": "Q78192049"}, "geometry": {"type": "Point", "coordinates": [-1.762408, 52.484692]}},
{"type": "Feature", "id": "Mxx-7erygK8rcW5DR3SN7dY8iJc=", "properties": {"ref": "https://www.stonehouserestaurants.co.uk/nationalsearch/eastandwestmidlands/bartlewoodlodgederby", "@spider": "stonehouse_gb", "addr:street_address": "Dale Road, Ockbrook", "addr:city": "Derby", "addr:state": "Derbyshire", "addr:postcode": "DE72 3RY", "addr:country": "GB", "name": "Bartlewood Lodge Derby", "phone": "01332 677198", "website": "https://www.stonehouserestaurants.co.uk/nationalsearch/eastandwestmidlands/bartlewoodlodgederby", "contact:twitter": "gary.neal@mbplc.com", "opening_hours": "Mo-Su 09:00-22:00", "brand": "Stonehouse", "brand:wikidata": "Q78192049"}, "geometry": {"type": "Point", "coordinates": [-1.371304, 52.937378]}},
{"type": "Feature", "id": "U_mCCZPklb2LT44bji58qb1E3p8=", "properties": {"ref": "https://www.stonehouserestaurants.co.uk/nationalsearch/eastandwestmidlands/theprettypigstamworth", "@spider": "stonehouse_gb", "addr:street_address": "Shuttington Road, Alvecote", "addr:city": "Tamworth", "addr:state": "Staffordshire", "addr:postcode": "B79 0ED", "addr:country": "GB", "name": "The Pretty Pigs Tamworth", "phone": "01827 63129", "website": "https://www.stonehouserestaurants.co.uk/nationalsearch/eastandwestmidlands/theprettypigstamworth", "contact:twitter": "gary.neal@mbplc.com", "opening_hours": "Mo-Su 09:00-23:00", "brand": "Stonehouse", "brand:wikidata": "Q78192049"}, "geometry": {"type": "Point", "coordinates": [-1.647437, 52.639943]}},
{"type": "Feature", "id": "NyUGlt4vQruKIWa95WC6Y4WFgSQ=", "properties": {"ref": "https://www.stonehouserestaurants.co.uk/nationalsearch/eastandwestmidlands/thewhiteswanwythall", "@spider": "stonehouse_gb", "addr:street_address": "Alcester Road, Wythall", "addr:city": "Birmingham", "addr:state": "West Midlands", "addr:postcode": "B47 6JG", "addr:country": "GB", "name": "The White Swan Wythall", "phone": "01564 826894", "website": "https://www.stonehouserestaurants.co.uk/nationalsearch/eastandwestmidlands/thewhiteswanwythall", "contact:twitter": "gary.neal@mbplc.com", "opening_hours": "Mo-Sa 09:00-23:00; Su 09:00-22:30", "brand": "Stonehouse", "brand:wikidata": "Q78192049"}, "geometry": {"type": "Point", "coordinates": [-1.883518, 52.383239]}},
{"type": "Feature", "id": "vxr-s1dOcWtkLPWirblgk-4PZnE=", "properties": {"ref": "https://www.stonehouserestaurants.co.uk/nationalsearch/eastandwestmidlands/thegapinnnottingham", "@spider": "stonehouse_gb", "addr:street_address": "Church Lane, Muston", "addr:city": "Nottingham", "addr:state": "Nottinghamshire", "addr:postcode": "NG13 0FD", "addr:country": "GB", "name": "The Gap Inn Nottingham", "phone": "01949 842374", "website": "https://www.stonehouserestaurants.co.uk/nationalsearch/eastandwestmidlands/thegapinnnottingham", "contact:twitter": "gary.neal@mbplc.com", "opening_hours": "Mo-Su 09:00-22:00", "brand": "Stonehouse", "brand:wikidata": "Q78192049"}, "geometry": {"type": "Point", "coordinates": [-0.764432, 52.935378]}},
{"type": "Feature", "id": "C6zsVc46u7v2asPonmClaJRGtwU=", "properties": {"ref": "https://www.stonehouserestaurants.co.uk/nationalsearch/eastandwestmidlands/thenewbridgewolverhampton", "@spider": "stonehouse_gb", "addr:street_address": "Tettenhall Road", "addr:city": "Wolverhampton", "addr:state": "West Midlands", "addr:postcode": "WV6 0JU", "addr:country": "GB", "name": "The Newbridge Wolverhampton", "phone": "01902 754911", "website": "https://www.stonehouserestaurants.co.uk/nationalsearch/eastandwestmidlands/thenewbridgewolverhampton", "contact:twitter": "gary.neal@mbplc.com", "opening_hours": "Mo-Th 09:00-22:00; Fr-Sa 08:00-23:00; Su 09:00-22:00", "brand": "Stonehouse", "brand:wikidata": "Q78192049"}, "geometry": {"type": "Point", "coordinates": [-2.157951, 52.596347]}},
{"type": "Feature", "id": "hUNcdSzmsuN2DbqIAlEwmyyhhqw=", "properties": {"ref": "https://www.stonehouserestaurants.co.uk/nationalsearch/eastandwestmidlands/theswanhotelcoleshill", "@spider": "stonehouse_gb", "addr:street_address": "High Street, Coleshill", "addr:city": "Birmingham", "addr:state": "West Midlands", "addr:postcode": "B46 3BL", "addr:country": "GB", "name": "The Swan Hotel Coleshill", "phone": "01675 462212", "website": "https://www.stonehouserestaurants.co.uk/nationalsearch/eastandwestmidlands/theswanhotelcoleshill", "contact:twitter": "@CrownCarveries", "opening_hours": "Mo-Su 09:00-23:00", "brand": "Stonehouse", "brand:wikidata": "Q78192049"}, "geometry": {"type": "Point", "coordinates": [-1.706973, 52.498961]}},
{"type": "Feature", "id": "19-wdxNaB_hIRF1ucD_J_b2s6_c=", "properties": {"ref": "https://www.stonehouserestaurants.co.uk/nationalsearch/yorkshire-and-the-humber/crosspooltavernsheffield", "@spider": "stonehouse_gb", "addr:street_address": "468 Manchester Road", "addr:city": "Sheffield", "addr:state": "South Yorkshire", "addr:postcode": "S10 5DT", "addr:country": "GB", "name": "Crosspool Tavern Sheffield", "phone": "0114 266 2113", "website": "https://www.stonehouserestaurants.co.uk/nationalsearch/yorkshire-and-the-humber/crosspooltavernsheffield", "contact:twitter": "gary.neal@mbplc.com", "opening_hours": "Mo 09:00-22:00; Tu-Su 09:00-23:00", "brand": "Stonehouse", "brand:wikidata": "Q78192049"}, "geometry": {"type": "Point", "coordinates": [-1.518955, 53.379967]}},
{"type": "Feature", "id": "s61M-SuOL35X1P-ZCisZuu2iAJ4=", "properties": {"ref": "https://www.stonehouserestaurants.co.uk/nationalsearch/yorkshire-and-the-humber/themoorlandssheffield", "@spider": "stonehouse_gb", "addr:street_address": "Owler Bar, Baslow Road", "addr:city": "Sheffield", "addr:state": "South Yorkshire", "addr:postcode": "S17 3BQ", "addr:country": "GB", "name": "The Moorlands Sheffield", "phone": "0114 262 0189", "website": "https://www.stonehouserestaurants.co.uk/nationalsearch/yorkshire-and-the-humber/themoorlandssheffield", "contact:twitter": "gary.neal@mbplc.com", "opening_hours": "Mo-Su 09:00-22:00", "brand": "Stonehouse", "brand:wikidata": "Q78192049"}, "geometry": {"type": "Point", "coordinates": [-1.557783, 53.29884]}},
{"type": "Feature", "id": "tXO7ajpqA3Cb94dfFhaaGY3cukE=", "properties": {"ref": "https://www.stonehouserestaurants.co.uk/nationalsearch/yorkshire-and-the-humber/thedrawbridgerotherham", "@spider": "stonehouse_gb", "addr:street_address": "Fellowsfield Way", "addr:city": "Rotherham", "addr:state": "South Yorkshire", "addr:postcode": "S61 1JN", "addr:country": "GB", "name": "The Drawbridge Rotherham", "phone": "01709 557701", "website": "https://www.stonehouserestaurants.co.uk/nationalsearch/yorkshire-and-the-humber/thedrawbridgerotherham", "contact:twitter": "gary.neal@mbplc.com", "opening_hours": "Mo-Su 09:00-23:00", "brand": "Stonehouse", "brand:wikidata": "Q78192049"}, "geometry": {"type": "Point", "coordinates": [-1.394128, 53.4386]}},
{"type": "Feature", "id": "RUnrB330QQBmPeCFRNN9jJ6cg4c=", "properties": {"ref": "https://www.stonehouserestaurants.co.uk/nationalsearch/yorkshire-and-the-humber/scalbymanorscarborough", "@spider": "stonehouse_gb", "addr:street_address": "Burniston Road", "addr:city": "Scarborough", "addr:state": "North Yorkshire", "addr:postcode": "YO13 0DA", "addr:country": "GB", "name": "Scalby Manor Scarborough", "phone": "01723 503452", "website": "https://www.stonehouserestaurants.co.uk/nationalsearch/yorkshire-and-the-humber/scalbymanorscarborough", "contact:twitter": "gary.neal@mbplc.com", "opening_hours": "Mo-Su 09:00-22:00", "brand": "Stonehouse", "brand:wikidata": "Q78192049"}, "geometry": {"type": "Point", "coordinates": [-0.424879, 54.303731]}},
{"type": "Feature", "id": "Sfd3LMPMTYstYDWXsbjAm7odliA=", "properties": {"ref": "https://www.stonehouserestaurants.co.uk/nationalsearch/yorkshire-and-the-humber/thecockandcrownwakefield", "@spider": "stonehouse_gb", "addr:street_address": "570 Doncaster Road, Crofton", "addr:city": "Wakefield", "addr:state": "West Yorkshire", "addr:postcode": "WF4 1PP", "addr:country": "GB", "name": "The Cock and Crown Wakefield", "phone": "01924 862344", "website": "https://www.stonehouserestaurants.co.uk/nationalsearch/yorkshire-and-the-humber/thecockandcrownwakefield", "contact:twitter": "gary.neal@mbplc.com", "opening_hours": "Mo-Sa 09:00-23:00; Su 09:00-22:00", "brand": "Stonehouse", "brand:wikidata": "Q78192049"}, "geometry": {"type": "Point", "coordinates": [-1.431331, 53.663409]}},
{"type": "Feature", "id": "GMSAE3uhvaZNGjX-ZEsHoObUCZQ=", "properties": {"ref": "https://www.stonehouserestaurants.co.uk/nationalsearch/yorkshire-and-the-humber/thelambwathhull", "@spider": "stonehouse_gb", "addr:street_address": "Sutton Road", "addr:city": "Hull", "addr:state": "East Riding Of Yorkshire", "addr:postcode": "HU8 0HU", "addr:country": "GB", "name": "The Lambwath Hull", "phone": "01482 376156", "website": "https://www.stonehouserestaurants.co.uk/nationalsearch/yorkshire-and-the-humber/thelambwathhull", "contact:twitter": "gary.neal@mbplc.com", "opening_hours": "Mo-Th 09:00-23:00; Fr-Sa 09:00-24:00; Su 09:00-23:00", "brand": "Stonehouse", "brand:wikidata": "Q78192049"}, "geometry": {"type": "Point", "coordinates": [-0.307735, 53.774409]}},
{"type": "Feature", "id": "TjlVOnz0dl_NOuaw0qQ1TH0zOHk=", "properties": {"ref": "https://www.stonehouserestaurants.co.uk/nationalsearch/yorkshire-and-the-humber/thehighwaymandoncaster", "@spider": "stonehouse_gb", "addr:street_address": "Great North Road, Woodlands", "addr:city": "Doncaster", "addr:state": "South Yorkshire", "addr:postcode": "DN6 7HU", "addr:country": "GB", "name": "Highwayman Doncaster", "phone": "01302 723559", "website": "https://www.stonehouserestaurants.co.uk/nationalsearch/yorkshire-and-the-humber/thehighwaymandoncaster", "contact:twitter": "gary.neal@mbplc.com", "opening_hours": "Mo-Su 09:00-23:00", "brand": "Stonehouse", "brand:wikidata": "Q78192049"}, "geometry": {"type": "Point", "coordinates": [-1.181812, 53.558082]}},
{"type": "Feature", "id": "OBiBVFWc5PwGeAEBb3AdBVljL78=", "properties": {"ref": "https://www.stonehouserestaurants.co.uk/nationalsearch/yorkshire-and-the-humber/thewestbullshull", "@spider": "stonehouse_gb", "addr:street_address": "Bricknell Avenue", "addr:city": "Hull", "addr:state": "East Riding Of Yorkshire", "addr:postcode": "HU5 4QD", "addr:country": "GB", "name": "The West Bulls Hull", "phone": "01482 847497", "website": "https://www.stonehouserestaurants.co.uk/nationalsearch/yorkshire-and-the-humber/thewestbullshull", "contact:twitter": "gary.neal@mbplc.com", "opening_hours": "Mo-Th 09:00-23:00; Fr-Sa 09:00-24:00; Su 09:00-23:00", "brand": "Stonehouse", "brand:wikidata": "Q78192049"}, "geometry": {"type": "Point", "coordinates": [-0.392883, 53.771671]}},
{"type": "Feature", "id": "2llCoZweEWsOB6pa7DV0KTj55bU=", "properties": {"ref": "https://www.stonehouserestaurants.co.uk/nationalsearch/yorkshire-and-the-humber/theprincewilliamcastleford", "@spider": "stonehouse_gb", "addr:street_address": "Pioneer Way", "addr:city": "Castleford", "addr:state": "West Yorkshire", "addr:postcode": "WF10 5TG", "addr:country": "GB", "name": "The Prince William Castleford", "phone": "01977 555868", "website": "https://www.stonehouserestaurants.co.uk/nationalsearch/yorkshire-and-the-humber/theprincewilliamcastleford", "contact:twitter": "gary.neal@mbplc.com", "opening_hours": "Mo-Su 09:00-23:00", "brand": "Stonehouse", "brand:wikidata": "Q78192049"}, "geometry": {"type": "Point", "coordinates": [-1.387511, 53.711955]}},
{"type": "Feature", "id": "pfqTZioOzcdy8LFqF0HiQ-KZoXY=", "properties": {"ref": "https://www.stonehouserestaurants.co.uk/nationalsearch/yorkshire-and-the-humber/thegreentreeinndoncaster", "@spider": "stonehouse_gb", "addr:street_address": "Tudworth Road, Hatfield", "addr:city": "Doncaster", "addr:state": "South Yorkshire", "addr:postcode": "DN7 6NL", "addr:country": "GB", "name": "The Green Tree Inn Doncaster", "phone": "01302 840305", "website": "https://www.stonehouserestaurants.co.uk/nationalsearch/yorkshire-and-the-humber/thegreentreeinndoncaster", "contact:twitter": "gary.neal@mbplc.com", "opening_hours": "Mo-Sa 09:00-22:00; Su 09:00-21:00", "brand": "Stonehouse", "brand:wikidata": "Q78192049"}, "geometry": {"type": "Point", "coordinates": [-0.969799, 53.579671]}},
{"type": "Feature", "id": "PzxpUQGqXjkOvSQOmOsmKGCWLh8=", "properties": {"ref": "https://www.stonehouserestaurants.co.uk/nationalsearch/yorkshire-and-the-humber/thejugandbottlegrimsby", "@spider": "stonehouse_gb", "addr:street_address": "Louth Road, Holton le Clay", "addr:city": "Grimsby", "addr:state": "Lincolnshire", "addr:postcode": "DN36 5YN", "addr:country": "GB", "name": "The Jug & Bottle Grimsby", "phone": "01472 821533", "website": "https://www.stonehouserestaurants.co.uk/nationalsearch/yorkshire-and-the-humber/thejugandbottlegrimsby", "contact:twitter": "gary.neal@mbplc.com", "opening_hours": "Mo-Su 09:00-22:00", "brand": "Stonehouse", "brand:wikidata": "Q78192049"}, "geometry": {"type": "Point", "coordinates": [-0.065656, 53.498928]}},
{"type": "Feature", "id": "CHXtrhR4WtP8ODdneZlwnmO5daA=", "properties": {"ref": "https://www.stonehouserestaurants.co.uk/nationalsearch/yorkshire-and-the-humber/thebarnbowleeds", "@spider": "stonehouse_gb", "addr:street_address": "Austhorpe Road, Crossgates", "addr:city": "Leeds", "addr:state": "West Yorkshire", "addr:postcode": "LS15 8EH", "addr:country": "GB", "name": "Barnbow Leeds", "phone": "0113 264 5072", "website": "https://www.stonehouserestaurants.co.uk/nationalsearch/yorkshire-and-the-humber/thebarnbowleeds", "contact:twitter": "gary.neal@mbplc.com", "opening_hours": "Mo-Th 09:00-23:00; Fr-Sa 09:00-24:00; Su 09:00-23:00", "brand": "Stonehouse", "brand:wikidata": "Q78192049"}, "geometry": {"type": "Point", "coordinates": [-1.443135, 53.807997]}},
{"type": "Feature", "id": "nZisMwXmb109ebIdnBN2bIilHoQ=", "properties": {"ref": "https://www.stonehouserestaurants.co.uk/nationalsearch/wales/thehollybushcardiff", "@spider": "stonehouse_gb", "addr:street_address": "Pendwyallt Road, Whitchurch", "addr:city": "Cardiff", "addr:state": "South Glamorgan", "addr:postcode": "CF14 7EG", "addr:country": "GB", "name": "The Hollybush Cardiff", "phone": "029 2062 5037", "website": "https://www.stonehouserestaurants.co.uk/nationalsearch/wales/thehollybushcardiff", "contact:twitter": "gary.neal@mbplc.com", "opening_hours": "Mo-Su 09:00-23:00", "brand": "Stonehouse", "brand:wikidata": "Q78192049"}, "geometry": {"type": "Point", "coordinates": [-3.233547, 51.521511]}},
{"type": "Feature", "id": "Fkyh_v1xQr0Taf2a7Jvh-u9v3SU=", "properties": {"ref": "https://www.stonehouserestaurants.co.uk/nationalsearch/wales/theupperboatinnpontypridd", "@spider": "stonehouse_gb", "addr:street_address": "Williams Place, Upper Boat", "addr:city": "Pontypridd", "addr:state": "Mid Glamorgan", "addr:postcode": "CF37 5BH", "addr:country": "GB", "name": "The Upper Boat Inn Pontypridd", "phone": "01443 842050", "website": "https://www.stonehouserestaurants.co.uk/nationalsearch/wales/theupperboatinnpontypridd", "contact:twitter": "gary.neal@mbplc.com", "opening_hours": "Mo-Th 09:00-22:00; Fr-Sa 09:00-23:00; Su 09:00-21:30", "brand": "Stonehouse", "brand:wikidata": "Q78192049"}, "geometry": {"type": "Point", "coordinates": [-3.29274, 51.575771]}},
{"type": "Feature", "id": "EVHKZlvQCCkHh56l42t0A3sxktk=", "properties": {"ref": "https://www.stonehouserestaurants.co.uk/nationalsearch/wales/thefullingmill", "@spider": "stonehouse_gb", "addr:street_address": "Mr Speakers Way", "addr:city": "Tonypandy", "addr:state": "Mid Glamorgan", "addr:postcode": "CF40 2PS", "addr:country": "GB", "name": "The Fulling Mill Tonypandy", "phone": "01443 430060", "website": "https://www.stonehouserestaurants.co.uk/nationalsearch/wales/thefullingmill", "contact:twitter": "gary.neal@mbplc.com", "opening_hours": "Mo-Su 09:00-21:00", "brand": "Stonehouse", "brand:wikidata": "Q78192049"}, "geometry": {"type": "Point", "coordinates": [-3.445398, 51.617701]}},
{"type": "Feature", "id": "FTFJH179KHfGR-CT6ySiwKXNKkY=", "properties": {"ref": "https://www.stonehouserestaurants.co.uk/nationalsearch/wales/thebellsofstmarysprestatyn", "@spider": "stonehouse_gb", "addr:street_address": "Mostyn Road, Prestatyn", "addr:city": "Gronant", "addr:state": "Clwyd", "addr:postcode": "LL19 9TB", "addr:country": "GB", "name": "The Bells of St Marys Prestatyn", "phone": "01745 853770", "website": "https://www.stonehouserestaurants.co.uk/nationalsearch/wales/thebellsofstmarysprestatyn", "contact:twitter": "gary.neal@mbplc.com", "opening_hours": "Mo-Su 09:00-23:00", "brand": "Stonehouse", "brand:wikidata": "Q78192049"}, "geometry": {"type": "Point", "coordinates": [-3.350833, 53.340823]}},
{"type": "Feature", "id": "X6DpA_zlwBQzeFkJAEsTjZzIVlA=", "properties": {"ref": "https://www.stonehouserestaurants.co.uk/nationalsearch/southwest/thelordlouisplymouth", "@spider": "stonehouse_gb", "addr:street_address": "Glen Road, Plympton", "addr:city": "Plymouth", "addr:state": "Devon", "addr:postcode": "PL7 2DE", "addr:country": "GB", "name": "The Lord Louis Plymouth", "phone": "01752 339562", "website": "https://www.stonehouserestaurants.co.uk/nationalsearch/southwest/thelordlouisplymouth", "contact:twitter": "gary.neal@mbplc.com", "opening_hours": "Mo-Th 09:00-22:00; Fr-Sa 09:00-23:00; Su 09:00-22:00", "brand": "Stonehouse", "brand:wikidata": "Q78192049"}, "geometry": {"type": "Point", "coordinates": [-4.049115, 50.391733]}},
{"type": "Feature", "id": "-uw-CZOjBIrDxkV6FVUTF4SQsaU=", "properties": {"ref": "https://www.stonehouserestaurants.co.uk/nationalsearch/southwest/themasonsarmsrudgeway", "@spider": "stonehouse_gb", "addr:street_address": "94 Gloucester Road, Rudgeway", "addr:city": "Bristol", "addr:state": "Gloucestershire", "addr:postcode": "BS35 3QJ", "addr:country": "GB", "name": "The Masons Arms Rudgeway", "phone": "01454 412370", "website": "https://www.stonehouserestaurants.co.uk/nationalsearch/southwest/themasonsarmsrudgeway", "contact:twitter": "gary.neal@mbplc.com", "opening_hours": "Mo-Su 09:00-21:00", "brand": "Stonehouse", "brand:wikidata": "Q78192049"}, "geometry": {"type": "Point", "coordinates": [-2.536834, 51.580314]}},
{"type": "Feature", "id": "NqZQ_b2OYCLACUsIkt_mGBdfGXs=", "properties": {"ref": "https://www.stonehouserestaurants.co.uk/nationalsearch/southwest/henburybristol", "@spider": "stonehouse_gb", "addr:street_address": "189 Henbury Road, Henbury", "addr:city": "Bristol", "addr:state": "City of Bristol", "addr:postcode": "BS10 7AD", "addr:country": "GB", "name": "Henbury Arms Bristol", "phone": "0117 950 0144", "website": "https://www.stonehouserestaurants.co.uk/nationalsearch/southwest/henburybristol", "contact:twitter": "gary.neal@mbplc.com", "opening_hours": "Mo-Th 09:00-21:30; Fr-Sa 09:00-23:30; Su 09:00-21:30", "brand": "Stonehouse", "brand:wikidata": "Q78192049"}, "geometry": {"type": "Point", "coordinates": [-2.62865, 51.505937]}},
{"type": "Feature", "id": "rKvGKm-IxNaB-6GH8KLSakEiVy8=", "properties": {"ref": "https://www.stonehouserestaurants.co.uk/nationalsearch/southwest/thewillowtreetorquay", "@spider": "stonehouse_gb", "addr:street_address": "Condor Way", "addr:city": "Torquay", "addr:state": "Devon", "addr:postcode": "TQ2 7TG", "addr:country": "GB", "name": "The Willow Tree Torquay", "phone": "01803 615245", "website": "https://www.stonehouserestaurants.co.uk/nationalsearch/southwest/thewillowtreetorquay", "contact:twitter": "gary.neal@mbplc.com", "opening_hours": "Mo-Th 09:00-22:00; Fr-Sa 09:00-23:00; Su 09:00-22:00", "brand": "Stonehouse", "brand:wikidata": "Q78192049"}, "geometry": {"type": "Point", "coordinates": [-3.557152, 50.490308]}},
{"type": "Feature", "id": "6im5Ni_8cnb2JwpJr5hNbXB_IJk=", "properties": {"ref": "https://www.stonehouserestaurants.co.uk/nationalsearch/southeast/thecopperfieldgravesend", "@spider": "stonehouse_gb", "addr:street_address": "Gravesend Road, Shorne", "addr:city": "Gravesend", "addr:state": "Kent", "addr:postcode": "DA12 3JW", "addr:country": "GB", "name": "The Copperfield Gravesend", "phone": "01474 822395", "website": "https://www.stonehouserestaurants.co.uk/nationalsearch/southeast/thecopperfieldgravesend", "contact:twitter": "gary.neal@mbplc.com", "opening_hours": "Mo-Sa 09:00-23:00; Su 09:00-22:00", "brand": "Stonehouse", "brand:wikidata": "Q78192049"}, "geometry": {"type": "Point", "coordinates": [0.440048, 51.418569]}},
{"type": "Feature", "id": "9E85jMMGUALuPQRGo814RhGuiVY=", "properties": {"ref": "https://www.stonehouserestaurants.co.uk/nationalsearch/southeast/theroyalgeorgeshoreham", "@spider": "stonehouse_gb", "addr:street_address": "Upper Shoreham Road", "addr:city": "Shoreham", "addr:state": "West Sussex", "addr:postcode": "BN43 6TA", "addr:country": "GB", "name": "The Royal George Shoreham", "phone": "01273 591904", "website": "https://www.stonehouserestaurants.co.uk/nationalsearch/southeast/theroyalgeorgeshoreham", "contact:twitter": "gary.neal@mbplc.com", "opening_hours": "Mo-Su 09:00-23:00", "brand": "Stonehouse", "brand:wikidata": "Q78192049"}, "geometry": {"type": "Point", "coordinates": [-0.249587, 50.841043]}},
{"type": "Feature", "id": "PhJLA6ibjcaBx1sPVQ0qR8aeVKE=", "properties": {"ref": "https://www.stonehouserestaurants.co.uk/nationalsearch/southeast/theinnbythesealeeonthesolent", "@spider": "stonehouse_gb", "addr:street_address": "177 Portsmouth Road", "addr:city": "Lee-On-The-Solent", "addr:state": "Hampshire", "addr:postcode": "PO13 9AD", "addr:country": "GB", "name": "The Inn by the Sea Lee On The Solent", "phone": "023 9255 0303", "website": "https://www.stonehouserestaurants.co.uk/nationalsearch/southeast/theinnbythesealeeonthesolent", "contact:twitter": "gary.neal@mbplc.com", "opening_hours": "Mo 09:00-22:00; Tu 09:00-23:00; We 09:00-22:00; Th-Sa 09:00-23:00; Su 09:00-22:00", "brand": "Stonehouse", "brand:wikidata": "Q78192049"}, "geometry": {"type": "Point", "coordinates": [-1.194331, 50.79514]}},
{"type": "Feature", "id": "n8eVqsJ7Fv7ICSZuE9I47RXeZwA=", "properties": {"ref": "https://www.stonehouserestaurants.co.uk/nationalsearch/southeast/thepunchtavernsturry", "@spider": "stonehouse_gb", "addr:street_address": "Calcott, Sturry", "addr:city": "Canterbury", "addr:state": "Kent", "addr:postcode": "CT3 4NB", "addr:country": "GB", "name": "The Punch Tavern Sturry", "phone": "01227 710474", "website": "https://www.stonehouserestaurants.co.uk/nationalsearch/southeast/thepunchtavernsturry", "contact:twitter": "gary.neal@mbplc.com", "opening_hours": "Mo-Sa 09:00-23:00; Su 09:00-22:00", "brand": "Stonehouse", "brand:wikidata": "Q78192049"}, "geometry": {"type": "Point", "coordinates": [1.119495, 51.324413]}},
{"type": "Feature", "id": "64XM6hlbqJl1Yura67-WIz9QuKU=", "properties": {"ref": "https://www.stonehouserestaurants.co.uk/nationalsearch/southeast/thekingsarmsbattle", "@spider": "stonehouse_gb", "addr:street_address": "Bexhill Road, Ninfield", "addr:city": "Battle", "addr:state": "East Sussex", "addr:postcode": "TN33 9JB", "addr:country": "GB", "name": "The Kings Arms Battle", "phone": "01424 892263", "website": "https://www.stonehouserestaurants.co.uk/nationalsearch/southeast/thekingsarmsbattle", "contact:twitter": "gary.neal@mbplc.com", "opening_hours": "Mo-Su 09:00-22:00", "brand": "Stonehouse", "brand:wikidata": "Q78192049"}, "geometry": {"type": "Point", "coordinates": [0.426725, 50.885507]}},
{"type": "Feature", "id": "mVF92QSf7wcZOujPugRwn_3ERiQ=", "properties": {"ref": "https://www.stonehouserestaurants.co.uk/nationalsearch/southeast/thealmainnsouthampton", "@spider": "stonehouse_gb", "addr:street_address": "Alma Lane, Upham", "addr:city": "Southampton", "addr:state": "Hampshire", "addr:postcode": "SO32 1HE", "addr:country": "GB", "name": "The Alma Inn Southampton", "phone": "01489 860227", "website": "https://www.stonehouserestaurants.co.uk/nationalsearch/southeast/thealmainnsouthampton", "contact:twitter": "gary.neal@mbplc.com", "opening_hours": "Mo-Su 09:00-22:00", "brand": "Stonehouse", "brand:wikidata": "Q78192049"}, "geometry": {"type": "Point", "coordinates": [-1.257063, 50.972849]}},
{"type": "Feature", "id": "WvuOFxN6ynG9oRCQqTiWlHpmDc4=", "properties": {"ref": "https://www.stonehouserestaurants.co.uk/nationalsearch/southeast/thepeartreebridgeinnmiltonkeynes", "@spider": "stonehouse_gb", "addr:street_address": "Waterside, Peartree Bridge", "addr:city": "Milton Keynes", "addr:state": "Buckinghamshire", "addr:postcode": "MK6 3PE", "addr:country": "GB", "name": "The Peartree Bridge Inn Milton Keynes", "phone": "01908 691515", "website": "https://www.stonehouserestaurants.co.uk/nationalsearch/southeast/thepeartreebridgeinnmiltonkeynes", "contact:twitter": "gary.neal@mbplc.com", "opening_hours": "Mo-Su 09:00-23:00", "brand": "Stonehouse", "brand:wikidata": "Q78192049"}, "geometry": {"type": "Point", "coordinates": [-0.730999, 52.028043]}},
{"type": "Feature", "id": "OdwNwpPZFSu8ftTReN-dup9XUTM=", "properties": {"ref": "https://www.stonehouserestaurants.co.uk/nationalsearch/southeast/theworldturnedupsidedownreading", "@spider": "stonehouse_gb", "addr:street_address": "387 Basingstoke Road", "addr:city": "Reading", "addr:state": "Berkshire", "addr:postcode": "RG2 0JE", "addr:country": "GB", "name": "The World Turned Upside Down Reading", "phone": "0118 987 1763", "website": "https://www.stonehouserestaurants.co.uk/nationalsearch/southeast/theworldturnedupsidedownreading", "contact:twitter": "gary.neal@mbplc.com", "opening_hours": "Mo-Su 09:00-21:00", "brand": "Stonehouse", "brand:wikidata": "Q78192049"}, "geometry": {"type": "Point", "coordinates": [-0.968591, 51.429433]}},
{"type": "Feature", "id": "DtV1jnolM-jD82z_6vTdbWu0LLo=", "properties": {"ref": "https://www.stonehouserestaurants.co.uk/nationalsearch/southeast/thepeacehavenpeacehaven", "@spider": "stonehouse_gb", "addr:street_address": "293-295 South Coast Road", "addr:city": "Peacehaven", "addr:state": "East Sussex", "addr:postcode": "BN10 7HX", "addr:country": "GB", "name": "The Peacehaven Peacehaven", "phone": "01273 589332", "website": "https://www.stonehouserestaurants.co.uk/nationalsearch/southeast/thepeacehavenpeacehaven", "contact:twitter": "gary.neal@mbplc.com", "opening_hours": "Mo-Su 09:00-21:00", "brand": "Stonehouse", "brand:wikidata": "Q78192049"}, "geometry": {"type": "Point", "coordinates": [-0.008911, 50.792673]}},
{"type": "Feature", "id": "4YRCKZPECUz__PPTH9oEPoYx9hs=", "properties": {"ref": "https://www.stonehouserestaurants.co.uk/nationalsearch/southeast/thesloopinntheisleofwight", "@spider": "stonehouse_gb", "addr:street_address": "Mill Square, Wootton", "addr:city": "Ryde", "addr:state": "Isle Of Wight", "addr:postcode": "PO33 4HS", "addr:country": "GB", "name": "The Sloop Inn the Isle of Wight", "phone": "01983 882544", "website": "https://www.stonehouserestaurants.co.uk/nationalsearch/southeast/thesloopinntheisleofwight", "contact:twitter": "gary.neal@mbplc.com", "opening_hours": "Mo-Su 09:00-22:00", "brand": "Stonehouse", "brand:wikidata": "Q78192049"}, "geometry": {"type": "Point", "coordinates": [-1.226701, 50.725124]}},
{"type": "Feature", "id": "m72WGlrXcSailzktFKmSL8CwHQk=", "properties": {"ref": "https://www.stonehouserestaurants.co.uk/nationalsearch/southeast/thesportsmanbrighton", "@spider": "stonehouse_gb", "addr:street_address": "Withdean Stadium, Tongdean Lane", "addr:city": "Brighton", "addr:state": "East Sussex", "addr:postcode": "BN1 5JD", "addr:country": "GB", "name": "The Sportsman Brighton", "phone": "01273 330055", "website": "https://www.stonehouserestaurants.co.uk/nationalsearch/southeast/thesportsmanbrighton", "contact:twitter": "gary.neal@mbplc.com", "opening_hours": "Mo-Su 09:00-21:00", "brand": "Stonehouse", "brand:wikidata": "Q78192049"}, "geometry": {"type": "Point", "coordinates": [-0.159215, 50.852738]}},
{"type": "Feature", "id": "5GIIHTd94meTE10BzC_0dKe_xPA=", "properties": {"ref": "https://www.stonehouserestaurants.co.uk/nationalsearch/southeast/thehaywainsouthampton", "@spider": "stonehouse_gb", "addr:street_address": "Southampton Road, Bartley", "addr:city": "Southampton", "addr:state": "Hampshire", "addr:postcode": "SO40 2NA", "addr:country": "GB", "name": "The Haywain Southampton", "phone": "023 8081 2243", "website": "https://www.stonehouserestaurants.co.uk/nationalsearch/southeast/thehaywainsouthampton", "contact:twitter": "gary.neal@mbplc.com", "opening_hours": "Mo-Su 09:00-21:00", "brand": "Stonehouse", "brand:wikidata": "Q78192049"}, "geometry": {"type": "Point", "coordinates": [-1.564942, 50.917478]}},
{"type": "Feature", "id": "2DJBEOPlTeszm6CvEKltcN2uyDQ=", "properties": {"ref": "https://www.stonehouserestaurants.co.uk/nationalsearch/southeast/thesaltdeantavernsaltdean", "@spider": "stonehouse_gb", "addr:street_address": "Saltdean Park Road, Saltdean", "addr:city": "Brighton", "addr:state": "East Sussex", "addr:postcode": "BN2 8SP", "addr:country": "GB", "name": "The Saltdean Tavern Saltdean", "phone": "01273 304614", "website": "https://www.stonehouserestaurants.co.uk/nationalsearch/southeast/thesaltdeantavernsaltdean", "contact:twitter": "gary.neal@mbplc.com", "opening_hours": "Mo-Su 09:00-21:00", "brand": "Stonehouse", "brand:wikidata": "Q78192049"}, "geometry": {"type": "Point", "coordinates": [-0.04234, 50.802224]}},
{"type": "Feature", "id": "C85HPb9rzOjWNtLFSeQytTe-2us=", "properties": {"ref": "https://www.stonehouserestaurants.co.uk/nationalsearch/southeast/thebarleymowhaylingisland", "@spider": "stonehouse_gb", "addr:street_address": "Manor Road", "addr:city": "Hayling Island", "addr:state": "Hampshire", "addr:postcode": "PO11 0EZ", "addr:country": "GB", "name": "The Barley Mow, Hayling Island Hayling Island", "phone": "023 9246 5611", "website": "https://www.stonehouserestaurants.co.uk/nationalsearch/southeast/thebarleymowhaylingisland", "contact:twitter": "gary.neal@mbplc.com", "opening_hours": "Mo-Th 09:00-22:00; Fr-Sa 09:00-23:00; Su 09:00-22:00", "brand": "Stonehouse", "brand:wikidata": "Q78192049"}, "geometry": {"type": "Point", "coordinates": [-0.988258, 50.790792]}},
{"type": "Feature", "id": "VA9C3waA-O5419VgrBuRz8zmyJw=", "properties": {"ref": "https://www.stonehouserestaurants.co.uk/nationalsearch/southeast/thegoatshepperton", "@spider": "stonehouse_gb", "addr:street_address": "47 Upper Halliford Road", "addr:city": "Shepperton", "addr:state": "Surrey", "addr:postcode": "TW17 8RX", "addr:country": "GB", "name": "The Goat Shepperton", "phone": "01932 782415", "website": "https://www.stonehouserestaurants.co.uk/nationalsearch/southeast/thegoatshepperton", "contact:twitter": "gary.neal@mbplc.com", "opening_hours": "Mo-Su 09:00-23:00", "brand": "Stonehouse", "brand:wikidata": "Q78192049"}, "geometry": {"type": "Point", "coordinates": [-0.432825, 51.40149]}},
{"type": "Feature", "id": "jp9wEQ-F0diZzLpC-D7WXxPl2gY=", "properties": {"ref": "https://www.stonehouserestaurants.co.uk/nationalsearch/southeast/wolvertonhousemiltonkeynes", "@spider": "stonehouse_gb", "addr:street_address": "Stratford Road, Wolverton Mill", "addr:city": "Milton Keynes", "addr:state": "Buckinghamshire", "addr:postcode": "MK12 5NZ", "addr:country": "GB", "name": "Wolverton House Milton Keynes", "phone": "01908 261570", "website": "https://www.stonehouserestaurants.co.uk/nationalsearch/southeast/wolvertonhousemiltonkeynes", "contact:twitter": "gary.neal@mbplc.com", "opening_hours": "Mo-Su 09:00-23:00", "brand": "Stonehouse", "brand:wikidata": "Q78192049"}, "geometry": {"type": "Point", "coordinates": [-0.839318, 52.06115]}},
{"type": "Feature", "id": "YIHe18VnleXWMmpbqwYGetuUjhM=", "properties": {"ref": "https://www.stonehouserestaurants.co.uk/nationalsearch/southeast/thebeacharmsoakley", "@spider": "stonehouse_gb", "addr:street_address": "Clerken Green, Oakley", "addr:city": "Basingstoke", "addr:state": "Hampshire", "addr:postcode": "RG23 7EP", "addr:country": "GB", "name": "The Beach Arms Oakley", "phone": "01256 780210", "website": "https://www.stonehouserestaurants.co.uk/nationalsearch/southeast/thebeacharmsoakley", "contact:twitter": "gary.neal@mbplc.com", "opening_hours": "Mo-Fr 07:00-21:00; Sa-Su 08:00-21:00", "brand": "Stonehouse", "brand:wikidata": "Q78192049"}, "geometry": {"type": "Point", "coordinates": [-1.19278, 51.254335]}},
{"type": "Feature", "id": "0iFJ0nX6I8m_VzWEMJlKDJbPZws=", "properties": {"ref": "https://www.stonehouserestaurants.co.uk/nationalsearch/scotland-and-northern-ireland/brucefieldfarmlivingston", "@spider": "stonehouse_gb", "addr:street_address": "Rutherford Square, Brucefield Industrial Estate", "addr:city": "Livingston", "addr:state": "West Lothian", "addr:postcode": "EH54 9BU", "addr:country": "GB", "name": "Brucefield Farm Livingston", "phone": "01506 417788", "website": "https://www.stonehouserestaurants.co.uk/nationalsearch/scotland-and-northern-ireland/brucefieldfarmlivingston", "contact:twitter": "gary.neal@mbplc.com", "opening_hours": "Mo-Su 09:00-22:00", "brand": "Stonehouse", "brand:wikidata": "Q78192049"}, "geometry": {"type": "Point", "coordinates": [-3.535181, 55.866288]}},
{"type": "Feature", "id": "tSuplDr2QBjHmA1fkYROBpKGR24=", "properties": {"ref": "https://www.stonehouserestaurants.co.uk/nationalsearch/scotland-and-northern-ireland/levenvalleyglasgow", "@spider": "stonehouse_gb", "addr:street_address": "7 Allerdyce Court", "addr:city": "Glasgow", "addr:postcode": "G15 6SA", "addr:country": "GB", "name": "Leven Valley Glasgow", "phone": "0141 944 3366", "website": "https://www.stonehouserestaurants.co.uk/nationalsearch/scotland-and-northern-ireland/levenvalleyglasgow", "contact:twitter": "gary.neal@mbplc.com", "opening_hours": "Mo-Su 11:30-22:00", "brand": "Stonehouse", "brand:wikidata": "Q78192049"}, "geometry": {"type": "Point", "coordinates": [-4.375976, 55.902493]}},
{"type": "Feature", "id": "e9STOkja5Me2bMywYzQ9-soPvv0=", "properties": {"ref": "https://www.stonehouserestaurants.co.uk/nationalsearch/scotland-and-northern-ireland/broadwoodfarmcumbernauld", "@spider": "stonehouse_gb", "addr:street_address": "Craiglinn Park Road, Cumbernauld", "addr:city": "Glasgow", "addr:postcode": "G68 9AD", "addr:country": "GB", "name": "Broadwood Farm Cumbernauld", "phone": "01236 737556", "website": "https://www.stonehouserestaurants.co.uk/nationalsearch/scotland-and-northern-ireland/broadwoodfarmcumbernauld", "contact:twitter": "gary.neal@mbplc.com", "opening_hours": "Mo-Su 09:00-22:00", "brand": "Stonehouse", "brand:wikidata": "Q78192049"}, "geometry": {"type": "Point", "coordinates": [-4.029176, 55.944511]}},
{"type": "Feature", "id": "E8LdLSRAEC6F1kZAn8D9pPaH0PA=", "properties": {"ref": "https://www.stonehouserestaurants.co.uk/nationalsearch/scotland-and-northern-ireland/buckiefarmaberdeen", "@spider": "stonehouse_gb", "addr:street_address": "The Parkway, Danestone", "addr:city": "Aberdeen", "addr:postcode": "AB22 8AL", "addr:country": "GB", "name": "Buckie Farm Aberdeen", "phone": "01224 822889", "website": "https://www.stonehouserestaurants.co.uk/nationalsearch/scotland-and-northern-ireland/buckiefarmaberdeen", "contact:twitter": "gary.neal@mbplc.com", "opening_hours": "Mo-We 09:00-23:00; Th-Sa 09:00-24:00; Su 09:00-23:00", "brand": "Stonehouse", "brand:wikidata": "Q78192049"}, "geometry": {"type": "Point", "coordinates": [-2.126532, 57.183279]}},
{"type": "Feature", "id": "NoGyM_uyUbKNpY2WmAFEDNvkQd8=", "properties": {"ref": "https://www.stonehouserestaurants.co.uk/nationalsearch/northwest/theoldmotherredcapblackburn", "@spider": "stonehouse_gb", "addr:street_address": "Blackburn Road", "addr:city": "Blackburn", "addr:state": "Lancashire", "addr:postcode": "BB1 3LS", "addr:country": "GB", "name": "The Old Mother Redcap Blackburn", "phone": "01254 667272", "website": "https://www.stonehouserestaurants.co.uk/nationalsearch/northwest/theoldmotherredcapblackburn", "contact:twitter": "gary.neal@mbplc.com", "opening_hours": "Mo-Su 09:00-23:00", "brand": "Stonehouse", "brand:wikidata": "Q78192049"}, "geometry": {"type": "Point", "coordinates": [-2.433072, 53.749788]}},
{"type": "Feature", "id": "ON96HC6bQvcbfbSBfZsjwqfDXJ4=", "properties": {"ref": "https://www.stonehouserestaurants.co.uk/nationalsearch/northwest/monsbootle", "@spider": "stonehouse_gb", "addr:street_address": "36-38 Breeze Hill", "addr:city": "Bootle", "addr:state": "Merseyside", "addr:postcode": "L20 9NZ", "addr:country": "GB", "name": "Mons Bootle", "phone": "0151 922 5487", "website": "https://www.stonehouserestaurants.co.uk/nationalsearch/northwest/monsbootle", "contact:twitter": "gary.neal@mbplc.com", "opening_hours": "Mo-Su 09:00-23:00", "brand": "Stonehouse", "brand:wikidata": "Q78192049"}, "geometry": {"type": "Point", "coordinates": [-2.977616, 53.447256]}},
{"type": "Feature", "id": "YZGY0eklv7EndQe4J9O-Sp9IPaM=", "properties": {"ref": "https://www.stonehouserestaurants.co.uk/nationalsearch/northwest/theredlionswinton", "@spider": "stonehouse_gb", "addr:street_address": "296 Chorley Road, Swinton", "addr:city": "Manchester", "addr:state": "Greater Manchester", "addr:postcode": "M27 9UW", "addr:country": "GB", "name": "The Red Lion Swinton", "phone": "0161 728 9051", "website": "https://www.stonehouserestaurants.co.uk/nationalsearch/northwest/theredlionswinton", "contact:twitter": "gary.neal@mbplc.com", "opening_hours": "Mo-Th 09:00-23:00; Fr 09:00-23:30; Sa-Su 09:00-23:00", "brand": "Stonehouse", "brand:wikidata": "Q78192049"}, "geometry": {"type": "Point", "coordinates": [-2.351831, 53.516669]}},
{"type": "Feature", "id": "t6VIVsse6N-28H4t9s1YliSyygs=", "properties": {"ref": "https://www.stonehouserestaurants.co.uk/nationalsearch/northwest/theastleyarmswhitleybay", "@spider": "stonehouse_gb", "addr:street_address": "Marine View, Seaton Sluice", "addr:city": "Whitley Bay", "addr:state": "Tyne And Wear", "addr:postcode": "NE26 4JX", "addr:country": "GB", "name": "The Astley Arms Whitley Bay", "phone": "0191 237 0057", "website": "https://www.stonehouserestaurants.co.uk/nationalsearch/northwest/theastleyarmswhitleybay", "contact:twitter": "gary.neal@mbplc.com", "opening_hours": "Mo-Tu 09:00-21:00; We-Th 09:00-22:00; Fr 09:00-23:00; Sa 09:00-22:00; Su 09:00-21:00", "brand": "Stonehouse", "brand:wikidata": "Q78192049"}, "geometry": {"type": "Point", "coordinates": [-1.484797, 55.088709]}},
{"type": "Feature", "id": "6jb04KX4WXkY1SHsbR2Emc6WwJY=", "properties": {"ref": "https://www.stonehouserestaurants.co.uk/nationalsearch/northwest/thegreenhillsliverpool", "@spider": "stonehouse_gb", "addr:street_address": "Greenhill Road, Mossley Hill", "addr:city": "Liverpool", "addr:state": "Merseyside", "addr:postcode": "L18 7HN", "addr:country": "GB", "name": "The Greenhills Liverpool", "phone": "0151 724 1101", "website": "https://www.stonehouserestaurants.co.uk/nationalsearch/northwest/thegreenhillsliverpool", "contact:twitter": "gary.neal@mbplc.com", "opening_hours": "Mo-Su 09:00-23:00", "brand": "Stonehouse", "brand:wikidata": "Q78192049"}, "geometry": {"type": "Point", "coordinates": [-2.902453, 53.371395]}},
{"type": "Feature", "id": "ymMquMB91YEqeP2Hm07P0QAUwGc=", "properties": {"ref": "https://www.stonehouserestaurants.co.uk/nationalsearch/northwest/thebritanniainnliverpool", "@spider": "stonehouse_gb", "addr:street_address": "Riverside Drive", "addr:city": "Liverpool", "addr:state": "Merseyside", "addr:postcode": "L3 4AZ", "addr:country": "GB", "name": "The Britannia Inn Liverpool", "phone": "0151 727 8237", "website": "https://www.stonehouserestaurants.co.uk/nationalsearch/northwest/thebritanniainnliverpool", "contact:twitter": "gary.neal@mbplc.com", "opening_hours": "Mo-Su 09:00-23:00", "brand": "Stonehouse", "brand:wikidata": "Q78192049"}, "geometry": {"type": "Point", "coordinates": [-2.963713, 53.373838]}},
{"type": "Feature", "id": "vU0c-Bcd-PqkF7McAEhhP25kOf8=", "properties": {"ref": "https://www.stonehouserestaurants.co.uk/nationalsearch/northwest/thefarmersarmspreston", "@spider": "stonehouse_gb", "addr:street_address": "Wham Lane, Whitestake", "addr:city": "Preston", "addr:state": "Lancashire", "addr:postcode": "PR4 4JS", "addr:country": "GB", "name": "The Farmers Arms Preston", "phone": "01772 613210", "website": "https://www.stonehouserestaurants.co.uk/nationalsearch/northwest/thefarmersarmspreston", "contact:twitter": "gary.neal@mbplc.com", "opening_hours": "Mo-Th 09:00-23:00; Fr-Sa 08:00-23:00; Su 08:00-22:30", "brand": "Stonehouse", "brand:wikidata": "Q78192049"}, "geometry": {"type": "Point", "coordinates": [-2.738176, 53.722995]}},
{"type": "Feature", "id": "2VPTOaa96GGpRnPhuym87Hbrr4Y=", "properties": {"ref": "https://www.stonehouserestaurants.co.uk/nationalsearch/northwest/theferryhotelbarrowinfurness", "@spider": "stonehouse_gb", "addr:street_address": "1 Promenade, Walney", "addr:city": "Barrow-In-Furness", "addr:state": "Cumbria", "addr:postcode": "LA14 3PE", "addr:country": "GB", "name": "The Ferry Hotel Barrow in Furness", "phone": "01229 471352", "website": "https://www.stonehouserestaurants.co.uk/nationalsearch/northwest/theferryhotelbarrowinfurness", "contact:twitter": "gary.neal@mbplc.com", "opening_hours": "Mo-Su 09:00-23:00", "brand": "Stonehouse", "brand:wikidata": "Q78192049"}, "geometry": {"type": "Point", "coordinates": [-3.247021, 54.108436]}},
{"type": "Feature", "id": "EWW2Nw9IXIIyZIqbYhSRCToRl8w=", "properties": {"ref": "https://www.stonehouserestaurants.co.uk/nationalsearch/northwest/themickerbrookcheadle", "@spider": "stonehouse_gb", "addr:street_address": "Councillor Lane", "addr:city": "Cheadle", "addr:state": "Greater Manchester", "addr:postcode": "SK8 5NU", "addr:country": "GB", "name": "The Micker Brook Cheadle", "phone": "0161 482 8139", "website": "https://www.stonehouserestaurants.co.uk/nationalsearch/northwest/themickerbrookcheadle", "contact:twitter": "gary.neal@mbplc.com", "opening_hours": "Mo-We 08:00-23:00; Th 09:00-23:00; Fr-Su 08:00-23:00", "brand": "Stonehouse", "brand:wikidata": "Q78192049"}, "geometry": {"type": "Point", "coordinates": [-2.185898, 53.387399]}},
{"type": "Feature", "id": "luU7Ufft8RfW3cUv1oXg0ISz-nA=", "properties": {"ref": "https://www.stonehouserestaurants.co.uk/nationalsearch/northwest/thewindmilldenton", "@spider": "stonehouse_gb", "addr:street_address": "Hulme Road, Denton", "addr:city": "Manchester", "addr:state": "Greater Manchester", "addr:postcode": "M34 2WZ", "addr:country": "GB", "name": "The Windmill Denton", "phone": "0161 320 6144", "website": "https://www.stonehouserestaurants.co.uk/nationalsearch/northwest/thewindmilldenton", "contact:twitter": "gary.neal@mbplc.com", "opening_hours": "Mo-Su 09:00-23:00", "brand": "Stonehouse", "brand:wikidata": "Q78192049"}, "geometry": {"type": "Point", "coordinates": [-2.143917, 53.453955]}},
{"type": "Feature", "id": "fX2urvX9OS3bVHl2LvQiI3Q1Jo4=", "properties": {"ref": "https://www.stonehouserestaurants.co.uk/nationalsearch/northwest/thewheatsheafinnmollington", "@spider": "stonehouse_gb", "addr:street_address": "Parkgate Road, Mollington", "addr:city": "Chester", "addr:state": "Cheshire", "addr:postcode": "CH1 6JS", "addr:country": "GB", "name": "The Wheatsheaf Inn Mollington", "phone": "01244 851804", "website": "https://www.stonehouserestaurants.co.uk/nationalsearch/northwest/thewheatsheafinnmollington", "contact:twitter": "gary.neal@mbplc.com", "opening_hours": "Mo-Su 09:00-23:00", "brand": "Stonehouse", "brand:wikidata": "Q78192049"}, "geometry": {"type": "Point", "coordinates": [-2.93437, 53.225973]}},
{"type": "Feature", "id": "6bH9ule4CZD3rrvdrZPeMh9-_q0=", "properties": {"ref": "https://www.stonehouserestaurants.co.uk/nationalsearch/northwest/thesandbrookrochdale", "@spider": "stonehouse_gb", "addr:street_address": "Sandbrook Park, Sandbrook Way", "addr:city": "Rochdale", "addr:state": "Greater Manchester", "addr:postcode": "OL11 1RY", "addr:country": "GB", "name": "The Sandbrook Rochdale", "phone": "01706 719660", "website": "https://www.stonehouserestaurants.co.uk/nationalsearch/northwest/thesandbrookrochdale", "contact:twitter": "gary.neal@mbplc.com", "opening_hours": "Mo-Su 08:00-23:00", "brand": "Stonehouse", "brand:wikidata": "Q78192049"}, "geometry": {"type": "Point", "coordinates": [-2.163396, 53.600893]}},
{"type": "Feature", "id": "tH98wJzKGLkDDCtqRF4erFuIb5U=", "properties": {"ref": "https://www.stonehouserestaurants.co.uk/nationalsearch/northwest/thetramwaythorntoncleveleys", "@spider": "stonehouse_gb", "addr:street_address": "167-169 Victoria Road West, Thornton-Cleveleys", "addr:city": "Blackpool", "addr:state": "Lancashire", "addr:postcode": "FY5 3LB", "addr:country": "GB", "name": "The Tramway Thornton-Cleveleys", "phone": "01253 858329", "website": "https://www.stonehouserestaurants.co.uk/nationalsearch/northwest/thetramwaythorntoncleveleys", "contact:twitter": "gary.neal@mbplc.com", "opening_hours": "Mo-Su 09:00-22:00", "brand": "Stonehouse", "brand:wikidata": "Q78192049"}, "geometry": {"type": "Point", "coordinates": [-3.034444, 53.876216]}},
{"type": "Feature", "id": "MYlG--3n9LrBCfL1_mCYjSblu3Y=", "properties": {"ref": "https://www.stonehouserestaurants.co.uk/nationalsearch/northwest/thepigandwhistlepreston", "@spider": "stonehouse_gb", "addr:street_address": "849 Blackpool Road, Lea", "addr:city": "Preston", "addr:state": "Lancashire", "addr:postcode": "PR2 1QS", "addr:country": "GB", "name": "The Pig & Whistle Preston", "phone": "01772 732164", "website": "https://www.stonehouserestaurants.co.uk/nationalsearch/northwest/thepigandwhistlepreston", "contact:twitter": "gary.neal@mbplc.com", "opening_hours": "Mo-Su 09:00-23:00", "brand": "Stonehouse", "brand:wikidata": "Q78192049"}, "geometry": {"type": "Point", "coordinates": [-2.76564, 53.766479]}},
{"type": "Feature", "id": "YZMvUXvpZt5YlpTplTEZiNE4aK8=", "properties": {"ref": "https://www.stonehouserestaurants.co.uk/nationalsearch/northwest/thesquirrelbispham", "@spider": "stonehouse_gb", "addr:street_address": "Bispham Road, Greenlands", "addr:city": "Blackpool", "addr:state": "Lancashire", "addr:postcode": "FY2 0LB", "addr:country": "GB", "name": "The Squirrel Bispham", "phone": "01253 352198", "website": "https://www.stonehouserestaurants.co.uk/nationalsearch/northwest/thesquirrelbispham", "contact:twitter": "gary.neal@mbplc.com", "opening_hours": "Mo-Su 09:00-23:00", "brand": "Stonehouse", "brand:wikidata": "Q78192049"}, "geometry": {"type": "Point", "coordinates": [-3.033715, 53.843585]}},
{"type": "Feature", "id": "fasHj-V_FI-jDU2TjBW2BB3NSoo=", "properties": {"ref": "https://www.stonehouserestaurants.co.uk/nationalsearch/northwest/thewhartonparkwinsford", "@spider": "stonehouse_gb", "addr:street_address": "Weaver Valley Road", "addr:city": "Winsford", "addr:state": "Cheshire", "addr:postcode": "CW7 3DB", "addr:country": "GB", "name": "The Wharton Park Winsford", "phone": "01606 558729", "website": "https://www.stonehouserestaurants.co.uk/nationalsearch/northwest/thewhartonparkwinsford", "contact:twitter": "gary.neal@mbplc.com", "opening_hours": "Mo-Sa 09:00-22:00; Su 09:00-23:00", "brand": "Stonehouse", "brand:wikidata": "Q78192049"}, "geometry": {"type": "Point", "coordinates": [-2.515223, 53.198948]}},
{"type": "Feature", "id": "iPQD1WleWZtVL5YgH_bkvk2xus0=", "properties": {"ref": "https://www.stonehouserestaurants.co.uk/nationalsearch/northwest/theoldquayparkgate", "@spider": "stonehouse_gb", "addr:street_address": "Station Road, Parkgate", "addr:city": "Neston", "addr:state": "Cheshire", "addr:postcode": "CH64 6QJ", "addr:country": "GB", "name": "The Old Quay Parkgate", "phone": "0151 336 4343", "website": "https://www.stonehouserestaurants.co.uk/nationalsearch/northwest/theoldquayparkgate", "contact:twitter": "gary.neal@mbplc.com", "opening_hours": "Mo-Su 09:00-23:00", "brand": "Stonehouse", "brand:wikidata": "Q78192049"}, "geometry": {"type": "Point", "coordinates": [-3.080527, 53.292608]}},
{"type": "Feature", "id": "4d_cA1SfF1td9aENoZHI_vL5pl8=", "properties": {"ref": "https://www.stonehouserestaurants.co.uk/nationalsearch/northeast/themermaidcleveland", "@spider": "stonehouse_gb", "addr:street_address": "Redcar Road, Marske by the Sea", "addr:city": "Redcar", "addr:state": "North Yorkshire", "addr:postcode": "TS11 6EX", "addr:country": "GB", "name": "The Mermaid Cleveland", "phone": "01642 483163", "website": "https://www.stonehouserestaurants.co.uk/nationalsearch/northeast/themermaidcleveland", "contact:twitter": "gary.neal@mbplc.com", "opening_hours": "Mo-Su 09:00-23:00", "brand": "Stonehouse", "brand:wikidata": "Q78192049"}, "geometry": {"type": "Point", "coordinates": [-1.028359, 54.592626]}},
{"type": "Feature", "id": "j4rTlIZLgEdF5IWi7x0Rh2aaSn8=", "properties": {"ref": "https://www.stonehouserestaurants.co.uk/nationalsearch/northeast/thegoosenewcastleupontyne", "@spider": "stonehouse_gb", "addr:street_address": "Unit 1 Eldon Gardens, Percy Street", "addr:city": "Newcastle-Upon-Tyne", "addr:state": "Tyne And Wear", "addr:postcode": "NE1 7RA", "addr:country": "GB", "name": "The Goose Newcastle-upon-Tyne", "phone": "0191 221 2208", "website": "https://www.stonehouserestaurants.co.uk/nationalsearch/northeast/thegoosenewcastleupontyne", "contact:twitter": "gary.neal@mbplc.com", "opening_hours": "Mo-Th 10:00-22:00; Fr-Sa 10:00-24:00; Su 10:00-21:00", "brand": "Stonehouse", "brand:wikidata": "Q78192049"}, "geometry": {"type": "Point", "coordinates": [-1.61689, 54.975366]}},
{"type": "Feature", "id": "S85SvC4Mecc4z-AXAB6GL7MFM7w=", "properties": {"ref": "https://www.stonehouserestaurants.co.uk/nationalsearch/london/thewatersedgeruislip", "@spider": "stonehouse_gb", "addr:street_address": "Reservoir Road", "addr:city": "Ruislip", "addr:state": "Greater London", "addr:postcode": "HA4 7TY", "addr:country": "GB", "name": "The Waters Edge Ruislip", "phone": "01895 625241", "website": "https://www.stonehouserestaurants.co.uk/nationalsearch/london/thewatersedgeruislip", "contact:twitter": "gary.neal@mbplc.com", "opening_hours": "Mo-Sa 09:00-23:00; Su 09:00-22:00", "brand": "Stonehouse", "brand:wikidata": "Q78192049"}, "geometry": {"type": "Point", "coordinates": [-0.432765, 51.590977]}},
{"type": "Feature", "id": "1fIKvP1FheSM1lIF_CNRSsq8dgs=", "properties": {"ref": "https://www.stonehouserestaurants.co.uk/nationalsearch/eastofengland/thetownhousenorwich", "@spider": "stonehouse_gb", "addr:street_address": "18-22 Yarmouth Road, Thorpe St Andrew", "addr:city": "Norwich", "addr:state": "Norfolk", "addr:postcode": "NR7 0EF", "addr:country": "GB", "name": "The Town House Norwich", "phone": "01603 700600", "website": "https://www.stonehouserestaurants.co.uk/nationalsearch/eastofengland/thetownhousenorwich", "contact:twitter": "gary.neal@mbplc.com", "opening_hours": "Mo-Su 07:00-23:00", "brand": "Stonehouse", "brand:wikidata": "Q78192049"}, "geometry": {"type": "Point", "coordinates": [1.333367, 52.626599]}},
{"type": "Feature", "id": "HwpLJUj0rEhSNJUlNF5WtXk4G5I=", "properties": {"ref": "https://www.stonehouserestaurants.co.uk/nationalsearch/eastofengland/theredlionbarnet", "@spider": "stonehouse_gb", "addr:street_address": "31 High Street", "addr:city": "Barnet", "addr:state": "Greater London", "addr:postcode": "EN5 5UW", "addr:country": "GB", "name": "Red Lion Barnet Barnet", "phone": "020 8449 2667", "website": "https://www.stonehouserestaurants.co.uk/nationalsearch/eastofengland/theredlionbarnet", "contact:twitter": "gary.neal@mbplc.com", "opening_hours": "Mo-Su 09:00-23:00", "brand": "Stonehouse", "brand:wikidata": "Q78192049"}, "geometry": {"type": "Point", "coordinates": [-0.199044, 51.652431]}},
{"type": "Feature", "id": "GkLHOfM9SbwHhNWX1u5Uw44rTbA=", "properties": {"ref": "https://www.stonehouserestaurants.co.uk/nationalsearch/eastofengland/thewilburyletchworth", "@spider": "stonehouse_gb", "addr:street_address": "Wilbury Hills Road, Letchworth", "addr:city": "Letchworth Garden City", "addr:state": "Hertfordshire", "addr:postcode": "SG6 4LG", "addr:country": "GB", "name": "The Wilbury Letchworth", "phone": "01462 678216", "website": "https://www.stonehouserestaurants.co.uk/nationalsearch/eastofengland/thewilburyletchworth", "contact:twitter": "gary.neal@mbplc.com", "opening_hours": "Mo-Th 09:00-22:00; Fr-Sa 09:00-23:00; Su 09:00-22:00", "brand": "Stonehouse", "brand:wikidata": "Q78192049"}, "geometry": {"type": "Point", "coordinates": [-0.252807, 51.979479]}},
{"type": "Feature", "id": "NQh_HGATWTq6GGhKZQnGuRJINw8=", "properties": {"ref": "https://www.stonehouserestaurants.co.uk/nationalsearch/eastofengland/theoldmoathouseluton", "@spider": "stonehouse_gb", "addr:street_address": "Moat Lane", "addr:city": "Luton", "addr:state": "Bedfordshire", "addr:postcode": "LU3 1UU", "addr:country": "GB", "name": "The Old Moat House Luton", "phone": "01582 597474", "website": "https://www.stonehouserestaurants.co.uk/nationalsearch/eastofengland/theoldmoathouseluton", "contact:twitter": "gary.neal@mbplc.com", "opening_hours": "Mo-Sa 09:00-23:00; Su 09:00-22:00", "brand": "Stonehouse", "brand:wikidata": "Q78192049"}, "geometry": {"type": "Point", "coordinates": [-0.434442, 51.904318]}},
{"type": "Feature", "id": "jVfJC4mj0l6QVk3uRR5Yl4Po-Ik=", "properties": {"ref": "https://www.stonehouserestaurants.co.uk/nationalsearch/eastofengland/thevillageinnlittlemelton", "@spider": "stonehouse_gb", "addr:street_address": "33-43 School Lane, Little Melton", "addr:city": "Norwich", "addr:state": "Norfolk", "addr:postcode": "NR9 3AD", "addr:country": "GB", "name": "The Village Inn Little Melton", "phone": "01603 812510", "website": "https://www.stonehouserestaurants.co.uk/nationalsearch/eastofengland/thevillageinnlittlemelton", "contact:twitter": "gary.neal@mbplc.com", "opening_hours": "Mo-Su 09:00-23:00", "brand": "Stonehouse", "brand:wikidata": "Q78192049"}, "geometry": {"type": "Point", "coordinates": [1.193758, 52.616283]}},
{"type": "Feature", "id": "3Gx9_a_1GZl_r47oD7LXVxnPC4s=", "properties": {"ref": "https://www.stonehouserestaurants.co.uk/nationalsearch/eastofengland/thedarbydiggerwickford", "@spider": "stonehouse_gb", "addr:street_address": "Radwinter Avenue", "addr:city": "Wickford", "addr:state": "Essex", "addr:postcode": "SS12 9PT", "addr:country": "GB", "name": "The Darby Digger Wickford", "phone": "01268 571810", "website": "https://www.stonehouserestaurants.co.uk/nationalsearch/eastofengland/thedarbydiggerwickford", "contact:twitter": "gary.neal@mbplc.com", "opening_hours": "Mo-Th 11:30-22:00; Fr-Sa 09:00-23:00; Su 09:00-22:00", "brand": "Stonehouse", "brand:wikidata": "Q78192049"}, "geometry": {"type": "Point", "coordinates": [0.519897, 51.600636]}},
{"type": "Feature", "id": "-wKVlRu8QR8DPsVVwn4Ny47IO34=", "properties": {"ref": "https://www.stonehouserestaurants.co.uk/nationalsearch/eastandwestmidlands/themaltshovelgreatbarr", "@spider": "stonehouse_gb", "addr:street_address": "Newton Road, Great Barr", "addr:city": "Birmingham", "addr:state": "West Midlands", "addr:postcode": "B43 6HN", "addr:country": "GB", "name": "The Malt Shovel Great Barr", "phone": "0121 357 1148", "website": "https://www.stonehouserestaurants.co.uk/nationalsearch/eastandwestmidlands/themaltshovelgreatbarr", "contact:twitter": "gary.neal@mbplc.com", "opening_hours": "Mo-Su 09:00-23:00", "brand": "Stonehouse", "brand:wikidata": "Q78192049"}, "geometry": {"type": "Point", "coordinates": [-1.955731, 52.543097]}},
{"type": "Feature", "id": "sWSLfRUA4l8TzL0C2-5I32LNd9Q=", "properties": {"ref": "https://www.stonehouserestaurants.co.uk/nationalsearch/eastandwestmidlands/theyoungvanishinnchesterfield", "@spider": "stonehouse_gb", "addr:street_address": "The Hill, Glapwell", "addr:city": "Chesterfield", "addr:state": "Derbyshire", "addr:postcode": "S44 5NB", "addr:country": "GB", "name": "The Young Vanish Inn Chesterfield", "phone": "01623 810238", "website": "https://www.stonehouserestaurants.co.uk/nationalsearch/eastandwestmidlands/theyoungvanishinnchesterfield", "contact:twitter": "gary.neal@mbplc.com", "opening_hours": "Mo-Su 08:00-23:00", "brand": "Stonehouse", "brand:wikidata": "Q78192049"}, "geometry": {"type": "Point", "coordinates": [-1.284718, 53.18978]}},
{"type": "Feature", "id": "h-3vTEWh9Nm7830UQdnTp9V6dmQ=", "properties": {"ref": "https://www.stonehouserestaurants.co.uk/nationalsearch/eastandwestmidlands/thebarleymowstudley", "@spider": "stonehouse_gb", "addr:street_address": "Priory Square", "addr:city": "Studley", "addr:state": "Warwickshire", "addr:postcode": "B80 7BA", "addr:country": "GB", "name": "The Barley Mow, Studley Studley", "phone": "01527 854386", "website": "https://www.stonehouserestaurants.co.uk/nationalsearch/eastandwestmidlands/thebarleymowstudley", "contact:twitter": "gary.neal@mbplc.com", "opening_hours": "Mo-Sa 09:00-23:00; Su 09:00-22:00", "brand": "Stonehouse", "brand:wikidata": "Q78192049"}, "geometry": {"type": "Point", "coordinates": [-1.894955, 52.274826]}},
{"type": "Feature", "id": "ZxBczMQxPyB1ycy4qCg-R8T7uzA=", "properties": {"ref": "https://www.stonehouserestaurants.co.uk/nationalsearch/eastandwestmidlands/thetollgatecoventry", "@spider": "stonehouse_gb", "addr:street_address": "Holyhead Road", "addr:city": "Coventry", "addr:state": "West Midlands", "addr:postcode": "CV5 8HX", "addr:country": "GB", "name": "The Tollgate Coventry", "phone": "024 7667 2309", "website": "https://www.stonehouserestaurants.co.uk/nationalsearch/eastandwestmidlands/thetollgatecoventry", "contact:twitter": "gary.neal@mbplc.com", "opening_hours": "Mo-Th 11:00-23:00; Fr-Su 09:00-23:00", "brand": "Stonehouse", "brand:wikidata": "Q78192049"}, "geometry": {"type": "Point", "coordinates": [-1.553261, 52.420005]}},
{"type": "Feature", "id": "26u3DLhrPsJTXIH0Qq_1EGu5kK0=", "properties": {"ref": "https://www.stonehouserestaurants.co.uk/nationalsearch/eastandwestmidlands/thebullsheadcoalville", "@spider": "stonehouse_gb", "addr:street_address": "Loughborough Road, Thringstone", "addr:city": "Coalville", "addr:state": "Leicestershire", "addr:postcode": "LE67 8LR", "addr:country": "GB", "name": "The Bulls Head Coalville", "phone": "01530 224327", "website": "https://www.stonehouserestaurants.co.uk/nationalsearch/eastandwestmidlands/thebullsheadcoalville", "contact:twitter": "gary.neal@mbplc.com", "opening_hours": "Mo-Su 09:00-23:00", "brand": "Stonehouse", "brand:wikidata": "Q78192049"}, "geometry": {"type": "Point", "coordinates": [-1.362927, 52.75886]}},
{"type": "Feature", "id": "9FQSKZw8i4sk6YRSvAoSyjzxMKA=", "properties": {"ref": "https://www.stonehouserestaurants.co.uk/nationalsearch/eastandwestmidlands/theshepherdsradcliffeontrent", "@spider": "stonehouse_gb", "addr:street_address": "Stragglethorpe, Radcliffe-on-Trent", "addr:city": "Nottingham", "addr:state": "Nottinghamshire", "addr:postcode": "NG12 2JZ", "addr:country": "GB", "name": "The Shepherds Radcliffe on Trent", "phone": "0115 933 3337", "website": "https://www.stonehouserestaurants.co.uk/nationalsearch/eastandwestmidlands/theshepherdsradcliffeontrent", "contact:twitter": "gary.neal@mbplc.com", "opening_hours": "Mo-Su 09:00-22:00", "brand": "Stonehouse", "brand:wikidata": "Q78192049"}, "geometry": {"type": "Point", "coordinates": [-1.055554, 52.931486]}},
{"type": "Feature", "id": "wSrgwBS0rxEwfU9W_9SEPbeOA3U=", "properties": {"ref": "https://www.stonehouserestaurants.co.uk/nationalsearch/eastandwestmidlands/theplumeoffeatherssolihull", "@spider": "stonehouse_gb", "addr:street_address": "Stratford Road, Shirley", "addr:city": "Solihull", "addr:state": "West Midlands", "addr:postcode": "B90 3BW", "addr:country": "GB", "name": "The Plume of Feathers Solihull", "phone": "0121 744 1021", "website": "https://www.stonehouserestaurants.co.uk/nationalsearch/eastandwestmidlands/theplumeoffeatherssolihull", "contact:twitter": "gary.neal@mbplc.com", "opening_hours": "Mo-Su 09:00-23:00", "brand": "Stonehouse", "brand:wikidata": "Q78192049"}, "geometry": {"type": "Point", "coordinates": [-1.824256, 52.40744]}},
{"type": "Feature", "id": "0EklHBoSzW83_vZZ-iFnG2z4qkY=", "properties": {"ref": "https://www.stonehouserestaurants.co.uk/nationalsearch/eastandwestmidlands/thetrentportgainsborough", "@spider": "stonehouse_gb", "addr:street_address": "Ramper Road", "addr:city": "Gainsborough", "addr:postcode": "DN21 1NE", "addr:country": "GB", "name": "The Trent Port Gainsborough", "phone": "01427 612026", "website": "https://www.stonehouserestaurants.co.uk/nationalsearch/eastandwestmidlands/thetrentportgainsborough", "contact:twitter": "gary.neal@mbplc.com", "opening_hours": "Mo-Su 09:00-22:00", "brand": "Stonehouse", "brand:wikidata": "Q78192049"}, "geometry": {"type": "Point", "coordinates": [-0.777734, 53.392847]}},
{"type": "Feature", "id": "CciWzuMDRO69hL4QIX-RFkMulWI=", "properties": {"ref": "https://www.stonehouserestaurants.co.uk/nationalsearch/eastandwestmidlands/theholeinthewallnottingham", "@spider": "stonehouse_gb", "addr:street_address": "Main Road, Underwood", "addr:city": "Nottingham", "addr:state": "Nottinghamshire", "addr:postcode": "NG16 5GQ", "addr:country": "GB", "name": "The Hole in the Wall Nottingham", "phone": "01773 713936", "website": "https://www.stonehouserestaurants.co.uk/nationalsearch/eastandwestmidlands/theholeinthewallnottingham", "contact:twitter": "gary.neal@mbplc.com", "opening_hours": "Mo-Su 09:00-22:00", "brand": "Stonehouse", "brand:wikidata": "Q78192049"}, "geometry": {"type": "Point", "coordinates": [-1.303981, 53.050963]}},
{"type": "Feature", "id": "vfgqzSqA8Gp-Fxiv96ofB7zoNQo=", "properties": {"ref": "https://www.stonehouserestaurants.co.uk/nationalsearch/eastandwestmidlands/theradfordbankinnstafford", "@spider": "stonehouse_gb", "addr:street_address": "Radford Bank", "addr:city": "Stafford", "addr:state": "Staffordshire", "addr:postcode": "ST17 4PG", "addr:country": "GB", "name": "The Radford Bank Inn Stafford", "phone": "01785 242825", "website": "https://www.stonehouserestaurants.co.uk/nationalsearch/eastandwestmidlands/theradfordbankinnstafford", "contact:twitter": "gary.neal@mbplc.com", "opening_hours": "Mo-Su 09:00-23:00", "brand": "Stonehouse", "brand:wikidata": "Q78192049"}, "geometry": {"type": "Point", "coordinates": [-2.091319, 52.792764]}}]}