{"type":"FeatureCollection","features":[{"type": "Feature", "id": "cmJYpDBawvG7m6pykQdRaWd5H0Y=", "properties": {"ref": "57ede4543dac7b5c124b9bac", "@spider": "superonefoods", "shop": "supermarket", "addr:full": "1316 W. Arrowhead Road", "addr:city": "Duluth", "addr:state": "MN", "addr:postcode": 55811, "name": "Super One Foods", "website": "https://www.superonefoods.com/store-details/duluth-kenwood-super-one-foods", "brand": "Super One Foods", "brand:wikidata": "Q17108733", "nsi_id": "superonefoods-dde59d"}, "geometry": {"type": "Point", "coordinates": [-92.099, 46.8221]}},
{"type": "Feature", "id": "qr6DDWm7x82-caK71yRCCKO_tMk=", "properties": {"ref": "57ede4543dac7b5c124b9bae", "@spider": "superonefoods", "shop": "supermarket", "addr:full": "15 S. 13th Ave. East", "addr:city": "Duluth", "addr:state": "MN", "addr:postcode": 55802, "name": "Super One Foods", "website": "https://www.superonefoods.com/store-details/duluth-plaza-super-one-foods", "brand": "Super One Foods", "brand:wikidata": "Q17108733", "nsi_id": "superonefoods-dde59d"}, "geometry": {"type": "Point", "coordinates": [-92.082146, 46.799284]}},
{"type": "Feature", "id": "11BKSdwdm06B3CR-KSU2mqJAoTo=", "properties": {"ref": "57ede4543dac7b5c124b9baa", "@spider": "superonefoods", "shop": "supermarket", "addr:full": "4020 Woodland Avenue", "addr:city": "Duluth", "addr:state": "MN", "addr:postcode": 55803, "name": "Super One Foods", "website": "https://www.superonefoods.com/store-details/duluth-woodland-marketplace-foods", "brand": "Super One Foods", "brand:wikidata": "Q17108733", "nsi_id": "superonefoods-dde59d"}, "geometry": {"type": "Point", "coordinates": [-92.081712, 46.850194]}},
{"type": "Feature", "id": "7SnRstB8s8CYPFl_3tkES9UB5Gw=", "properties": {"ref": "57ede4543dac7b5c124b9b9a", "@spider": "superonefoods", "shop": "supermarket", "addr:full": "5401 Burning Tree Road", "addr:city": "Duluth", "addr:state": "MN", "addr:postcode": 55811, "name": "Super One Foods", "website": "https://www.superonefoods.com/store-details/duluth-miller-hill-super-one-foods", "brand": "Super One Foods", "brand:wikidata": "Q17108733", "nsi_id": "superonefoods-dde59d"}, "geometry": {"type": "Point", "coordinates": [-92.169477, 46.810729]}},
{"type": "Feature", "id": "unjIrJWNMD16-wyvJD-tUCTrUV0=", "properties": {"ref": "57ede4543dac7b5c124b9bab", "@spider": "superonefoods", "shop": "supermarket", "addr:full": "5928 E. Superior St.", "addr:city": "Duluth", "addr:state": "MN", "addr:postcode": 55804, "name": "Super One Foods", "website": "https://www.superonefoods.com/store-details/duluth-lakeside-super-one-foods", "brand": "Super One Foods", "brand:wikidata": "Q17108733", "nsi_id": "superonefoods-dde59d"}, "geometry": {"type": "Point", "coordinates": [-92.010265, 46.838086]}},
{"type": "Feature", "id": "IR5HCY8Ft8mhOBsU3MvorbJSnaU=", "properties": {"ref": "57ede4543dac7b5c124b9b9b", "@spider": "superonefoods", "shop": "supermarket", "addr:full": "5300 Bristol Street", "addr:city": "Duluth", "addr:state": "MN", "addr:postcode": 55807, "name": "Super One Foods", "website": "https://www.superonefoods.com/store-details/duluth-west-super-one-foods", "brand": "Super One Foods", "brand:wikidata": "Q17108733", "nsi_id": "superonefoods-dde59d"}, "geometry": {"type": "Point", "coordinates": [-92.163827, 46.73761]}},
{"type": "Feature", "id": "Y9qJ32G1oU8rXgVRQCIC8i1LlTk=", "properties": {"ref": "57ede4543dac7b5c124b9b9e", "@spider": "superonefoods", "shop": "supermarket", "addr:full": "1515 Oakes Avenue", "addr:city": "Superior", "addr:state": "WI", "addr:postcode": 54880, "name": "Super One Foods", "website": "https://www.superonefoods.com/store-details/superior-oakes-ave-super-one-foods", "brand": "Super One Foods", "brand:wikidata": "Q17108733", "nsi_id": "superonefoods-dde59d"}, "geometry": {"type": "Point", "coordinates": [-92.107178, 46.720242]}},
{"type": "Feature", "id": "mzTAdRKYxMoYWs6q3HJNCM7Gr50=", "properties": {"ref": "57ede4543dac7b5c124b9bb5", "@spider": "superonefoods", "shop": "supermarket", "addr:full": "2202 East 2nd St", "addr:city": "Superior", "addr:state": "WI", "addr:postcode": 54880, "name": "Super One Foods", "website": "https://www.superonefoods.com/store-details/superior-harbor-view-super-one-foods", "brand": "Super One Foods", "brand:wikidata": "Q17108733", "nsi_id": "superonefoods-dde59d"}, "geometry": {"type": "Point", "coordinates": [-92.047301, 46.7061599]}},
{"type": "Feature", "id": "k-cULxzqCayG1GGYL1H-OF9LEMo=", "properties": {"ref": "57ede4543dac7b5c124b9bb1", "@spider": "superonefoods", "shop": "supermarket", "addr:full": "5698 Miller Trunk Highway", "addr:city": "Duluth", "addr:state": "MN", "addr:postcode": 55811, "name": "Super One Foods", "website": "https://www.superonefoods.com/store-details/pike-lake-super-one-foods", "brand": "Super One Foods", "brand:wikidata": "Q17108733", "nsi_id": "superonefoods-dde59d"}, "geometry": {"type": "Point", "coordinates": [-92.2799416, 46.8527615]}},
{"type": "Feature", "id": "tHkIZtyQS9xJ4TQTIXxgcbEQpj0=", "properties": {"ref": "57ede4543dac7b5c124b9b9c", "@spider": "superonefoods", "shop": "supermarket", "addr:full": "707 Highway 33 South", "addr:city": "Cloquet", "addr:state": "MN", "addr:postcode": 55720, "name": "Super One Foods", "website": "https://www.superonefoods.com/store-details/cloquet-super-one-foods", "brand": "Super One Foods", "brand:wikidata": "Q17108733", "nsi_id": "superonefoods-dde59d"}, "geometry": {"type": "Point", "coordinates": [-92.459824, 46.710755]}},
{"type": "Feature", "id": "B8_A7skK7j0_Xz9kAzGo5ifPrfg=", "properties": {"ref": "57ede4543dac7b5c124b9b9d", "@spider": "superonefoods", "shop": "supermarket", "addr:full": "802 11th St", "addr:city": "Two Harbors", "addr:state": "MN", "addr:postcode": 55616, "name": "Super One Foods", "website": "https://www.superonefoods.com/store-details/two-harbors-super-one-foods", "brand": "Super One Foods", "brand:wikidata": "Q17108733", "nsi_id": "superonefoods-dde59d"}, "geometry": {"type": "Point", "coordinates": [-91.685256, 47.025711]}},
{"type": "Feature", "id": "L51NBKBQ7gfVUeLeQS11AXaAAYc=", "properties": {"ref": "57ede4543dac7b5c124b9bb0", "@spider": "superonefoods", "shop": "supermarket", "addr:full": "317 Main Street N", "addr:city": "Biwabik", "addr:state": "MN", "addr:postcode": 55708, "name": "Super One Foods", "website": "https://www.superonefoods.com/store-details/biwabik-super-one-foods", "brand": "Super One Foods", "brand:wikidata": "Q17108733", "nsi_id": "superonefoods-dde59d"}, "geometry": {"type": "Point", "coordinates": [-92.345, 47.533]}},
{"type": "Feature", "id": "1U0KjNTszuLxdpAqulSJ7vw92Hk=", "properties": {"ref": "57ede4543dac7b5c124b9ba1", "@spider": "superonefoods", "shop": "supermarket", "addr:full": "1111 17th Street South", "addr:city": "Virginia", "addr:state": "MN", "addr:postcode": 55792, "name": "Super One Foods", "website": "https://www.superonefoods.com/store-details/virginia-south-super-one-foods", "brand": "Super One Foods", "brand:wikidata": "Q17108733", "nsi_id": "superonefoods-dde59d"}, "geometry": {"type": "Point", "coordinates": [-92.549265, 47.508947]}},
{"type": "Feature", "id": "PWjGRwyjxTnJ3E967bjQ79Q0o9E=", "properties": {"ref": "57ede4543dac7b5c124b9bad", "@spider": "superonefoods", "shop": "supermarket", "addr:full": "601 4th St. North", "addr:city": "Virginia", "addr:state": "MN", "addr:postcode": 55792, "name": "Super One Foods", "website": "https://www.superonefoods.com/store-details/virginia-north-super-one-foods", "brand": "Super One Foods", "brand:wikidata": "Q17108733", "nsi_id": "superonefoods-dde59d"}, "geometry": {"type": "Point", "coordinates": [-92.541985, 47.526841]}},
{"type": "Feature", "id": "MY9bjV6L0SDOwxSlE_-lD3pBgnw=", "properties": {"ref": "57ede4543dac7b5c124b9ba0", "@spider": "superonefoods", "shop": "supermarket", "addr:full": "1101 East 37th Street", "addr:city": "Hibbing", "addr:state": "MN", "addr:postcode": 55746, "name": "Super One Foods", "website": "https://www.superonefoods.com/store-details/hibbing-super-one-foods", "brand": "Super One Foods", "brand:wikidata": "Q17108733", "nsi_id": "superonefoods-dde59d"}, "geometry": {"type": "Point", "coordinates": [-92.927285, 47.406814]}},
{"type": "Feature", "id": "Im1nwW6iM0FPhcSa43rn4Q5wngc=", "properties": {"ref": "57ede4543dac7b5c124b9bb3", "@spider": "superonefoods", "shop": "supermarket", "addr:full": "401 Ellis Avenue", "addr:city": "Ashland", "addr:state": "WI", "addr:postcode": 54806, "name": "Super One Foods", "website": "https://www.superonefoods.com/store-details/ashland-super-one-foods", "brand": "Super One Foods", "brand:wikidata": "Q17108733", "nsi_id": "superonefoods-dde59d"}, "geometry": {"type": "Point", "coordinates": [-90.8831462, 46.5914615]}},
{"type": "Feature", "id": "co3-dBvq_0HSope4dtft3FAThcE=", "properties": {"ref": "58fc38742db8090b221fa4ac", "@spider": "superonefoods", "shop": "supermarket", "addr:full": "2410 South Pokegama Ave.", "addr:city": "Grand Rapids", "addr:state": "MN", "addr:postcode": 55744, "name": "Super One Foods", "website": "https://www.superonefoods.com/store-details/grand-rapids-south-super-one-foods", "brand": "Super One Foods", "brand:wikidata": "Q17108733", "nsi_id": "superonefoods-dde59d"}, "geometry": {"type": "Point", "coordinates": [-93.52583899, 47.2077508]}},
{"type": "Feature", "id": "cmLvmNKyD4GxjxhVmkPFQ-QH8t4=", "properties": {"ref": "593f6461002f6b302d2afc3f", "@spider": "superonefoods", "shop": "supermarket", "addr:full": "503 NW 4th Street", "addr:city": "Grand Rapids", "addr:state": "MN", "addr:postcode": 55744, "name": "Super One Foods", "website": "https://www.superonefoods.com/store-details/grand-rapids-north-super-one-foods", "brand": "Super One Foods", "brand:wikidata": "Q17108733", "nsi_id": "superonefoods-dde59d"}, "geometry": {"type": "Point", "coordinates": [-93.53624, 47.236415]}},
{"type": "Feature", "id": "5EDpwQnVMe2MyPvzM6cJWjIZ7Og=", "properties": {"ref": "57ede4543dac7b5c124b9b9f", "@spider": "superonefoods", "shop": "supermarket", "addr:full": "210 Main Avenue East", "addr:city": "Deer River", "addr:state": "MN", "addr:postcode": 56636, "name": "Super One Foods", "website": "https://www.superonefoods.com/store-details/deer-river-super-one-foods", "brand": "Super One Foods", "brand:wikidata": "Q17108733", "nsi_id": "superonefoods-dde59d"}, "geometry": {"type": "Point", "coordinates": [-93.791284, 47.332878]}},
{"type": "Feature", "id": "_A4GoC2Jb22tHIgkLEYtkNhLsZ0=", "properties": {"ref": "57ede4543dac7b5c124b9bb2", "@spider": "superonefoods", "shop": "supermarket", "addr:full": "22418 State Hwy. 6, Suite 100", "addr:city": "Crosby", "addr:state": "MN", "addr:postcode": 56441, "name": "Super One Foods", "website": "https://www.superonefoods.com/store-details/crosby-super-one-foods", "brand": "Super One Foods", "brand:wikidata": "Q17108733", "nsi_id": "superonefoods-dde59d"}, "geometry": {"type": "Point", "coordinates": [-93.9502651, 46.482458]}},
{"type": "Feature", "id": "9ya2gTg5MWWD6akhTTx2emjsrRo=", "properties": {"ref": "57ede4543dac7b5c124b9ba6", "@spider": "superonefoods", "shop": "supermarket", "addr:full": "1480 East Cloverland Drive", "addr:city": "Ironwood", "addr:state": "MI", "addr:postcode": 49938, "name": "Super One Foods", "website": "https://www.superonefoods.com/store-details/ironwood-super-one-foods", "brand": "Super One Foods", "brand:wikidata": "Q17108733", "nsi_id": "superonefoods-dde59d"}, "geometry": {"type": "Point", "coordinates": [-90.144813, 46.463431]}},
{"type": "Feature", "id": "0xX9chHoNSmYIZvLSoLeunw77Ek=", "properties": {"ref": "57ede4543dac7b5c124b9ba3", "@spider": "superonefoods", "shop": "supermarket", "addr:full": "1347 S. 4th Avenue", "addr:city": "Park Falls", "addr:state": "WI", "addr:postcode": 54552, "name": "Super One Foods", "website": "https://www.superonefoods.com/store-details/park-falls-super-one-foods", "brand": "Super One Foods", "brand:wikidata": "Q17108733", "nsi_id": "superonefoods-dde59d"}, "geometry": {"type": "Point", "coordinates": [-90.449747, 45.9430111]}},
{"type": "Feature", "id": "2mEPVkKmW9pKzrY_CxWd90TMo_E=", "properties": {"ref": "57ede4543dac7b5c124b9ba4", "@spider": "superonefoods", "shop": "supermarket", "addr:full": "7895 Excelsior Rd.", "addr:city": "Baxter", "addr:state": "MN", "addr:postcode": 56425, "name": "Super One Foods", "website": "https://www.superonefoods.com/store-details/baxter-super-one-foods", "brand": "Super One Foods", "brand:wikidata": "Q17108733", "nsi_id": "superonefoods-dde59d"}, "geometry": {"type": "Point", "coordinates": [-94.236997, 46.353406]}},
{"type": "Feature", "id": "zKiN3EfHh30u6aZwKhc4xxAj8yw=", "properties": {"ref": "57ede4543dac7b5c124b9baf", "@spider": "superonefoods", "shop": "supermarket", "addr:full": "701 Michigan Ave.", "addr:city": "Walker", "addr:state": "MN", "addr:postcode": 56484, "name": "Super One Foods", "website": "https://www.superonefoods.com/store-details/walker-super-one-foods", "brand": "Super One Foods", "brand:wikidata": "Q17108733", "nsi_id": "superonefoods-dde59d"}, "geometry": {"type": "Point", "coordinates": [-94.584874, 47.100805]}},
{"type": "Feature", "id": "IHYAB7DzUDD_0qztUe9PCR9y7hU=", "properties": {"ref": "57ede4543dac7b5c124b9bb4", "@spider": "superonefoods", "shop": "supermarket", "addr:full": "1907 Valley Pine Circle", "addr:city": "International Falls", "addr:state": "MN", "addr:postcode": 56649, "name": "Super One Foods", "website": "https://www.superonefoods.com/store-details/international-falls-county-market", "brand": "Super One Foods", "brand:wikidata": "Q17108733", "nsi_id": "superonefoods-dde59d"}, "geometry": {"type": "Point", "coordinates": [-93.4401443, 48.5885262]}},
{"type": "Feature", "id": "TwVJo8TQpfYPd_Q0Di6AWdMJi2Y=", "properties": {"ref": "5e5038e911b5c03f67256221", "@spider": "superonefoods", "shop": "supermarket", "addr:full": "1313 3rd Street", "addr:city": "International Falls", "addr:state": "MN", "addr:postcode": 56649, "name": "Super One Foods", "website": "https://www.superonefoods.com/store-details/international-falls-super-one-foods", "brand": "Super One Foods", "brand:wikidata": "Q17108733", "nsi_id": "superonefoods-dde59d"}, "geometry": {"type": "Point", "coordinates": [-93.419518, 48.5989361]}},
{"type": "Feature", "id": "lCXybXTow3cwqxssETVifx761z4=", "properties": {"ref": "57ede4543dac7b5c124b9ba7", "@spider": "superonefoods", "shop": "supermarket", "addr:full": "15 Aldrich Ave. SW", "addr:city": "Wadena", "addr:state": "MN", "addr:postcode": 56482, "name": "Super One Foods", "website": "https://www.superonefoods.com/store-details/wadena-super-one-foods", "brand": "Super One Foods", "brand:wikidata": "Q17108733", "nsi_id": "superonefoods-dde59d"}, "geometry": {"type": "Point", "coordinates": [-95.1292597, 46.4504531]}},
{"type": "Feature", "id": "_I8ziTafDzU1UKXct2sEAVC3a4M=", "properties": {"ref": "626ae7ffda1fa706c28de30f", "@spider": "superonefoods", "shop": "supermarket", "addr:full": "833 Riverside Plaza", "addr:city": "Iron River", "addr:state": "MI", "addr:postcode": 49935, "name": "Super One Foods", "website": "https://www.superonefoods.com/store-details/iron-river-super-one-foods", "brand": "Super One Foods", "brand:wikidata": "Q17108733", "nsi_id": "superonefoods-dde59d"}, "geometry": {"type": "Point", "coordinates": [-88.636252, 46.09289]}},
{"type": "Feature", "id": "8OPfza16oT39isk1NY-zRgUngeI=", "properties": {"ref": "57ede4543dac7b5c124b9ba5", "@spider": "superonefoods", "shop": "supermarket", "addr:full": "1118 Stephenson Avenue", "addr:city": "Iron Mountain", "addr:state": "MI", "addr:postcode": 49801, "name": "Super One Foods", "website": "https://www.superonefoods.com/store-details/iron-mountain-super-one-foods", "brand": "Super One Foods", "brand:wikidata": "Q17108733", "nsi_id": "superonefoods-dde59d"}, "geometry": {"type": "Point", "coordinates": [-88.063395, 45.828502]}},
{"type": "Feature", "id": "EFbxbzxJX48389FF9bXdh_67ZVc=", "properties": {"ref": "57ede4543dac7b5c124b9ba8", "@spider": "superonefoods", "shop": "supermarket", "addr:full": "440 U.S. Highway 41 East", "addr:city": "Negaunee", "addr:state": "MI", "addr:postcode": 49866, "name": "Super One Foods", "website": "https://www.superonefoods.com/store-details/negaunee-super-one-foods", "brand": "Super One Foods", "brand:wikidata": "Q17108733", "nsi_id": "superonefoods-dde59d"}, "geometry": {"type": "Point", "coordinates": [-87.603659, 46.511127]}},
{"type": "Feature", "id": "XzmgsHWxDDu1ORMXz11tyidBjg8=", "properties": {"ref": "57ede4543dac7b5c124b9bb6", "@spider": "superonefoods", "shop": "supermarket", "addr:full": "610 3rd Street NW", "addr:city": "Roseau", "addr:state": "MN", "addr:postcode": 56751, "name": "Super One Foods", "website": "https://www.superonefoods.com/store-details/roseau-super-one-foods", "brand": "Super One Foods", "brand:wikidata": "Q17108733", "nsi_id": "superonefoods-dde59d"}, "geometry": {"type": "Point", "coordinates": [-95.7702451, 48.8480737]}},
{"type": "Feature", "id": "aYH55hcKQJpSm02QH9oEHdmMB7g=", "properties": {"ref": "57ede4543dac7b5c124b9ba9", "@spider": "superonefoods", "shop": "supermarket", "addr:full": "3070 West Highway 41", "addr:city": "Marquette", "addr:state": "MI", "addr:postcode": 49855, "name": "Super One Foods", "website": "https://www.superonefoods.com/store-details/marquette-super-one-foods", "brand": "Super One Foods", "brand:wikidata": "Q17108733", "nsi_id": "superonefoods-dde59d"}, "geometry": {"type": "Point", "coordinates": [-87.45455, 46.5495903]}}]}