{"type":"FeatureCollection","features":[{"type": "Feature", "id": "8b_vG_M0bF8iPkQAJBUmaaVN57w=", "properties": {"ref": "110", "@spider": "surlatable", "addr:street_address": "7014 E Camelback Rd.", "addr:city": "Scottsdale Fashion Square", "addr:state": "AZ", "addr:postcode": "85251", "addr:country": "US", "name": "Scottsdale Fashion Square", "phone": "480-292-9426", "website": "https://www.surlatable.com/store-details?StoreID=110", "opening_hours": "Mo-Sa 10:00-21:00; Su 11:00-18:00", "image": "https://www.surlatable.com/dw/image/v2/BCJL_PRD/on/demandware.static/-/Sites-shop-slt-storefront-catalog/default/dwbb0dc3d3/images/noimagelarge.png?sw=688&amp;sh=680&amp;sm=fit", "brand": "Sur La Table"}, "geometry": {"type": "Point", "coordinates": [-111.9294198, 33.5028371]}},
{"type": "Feature", "id": "t9aSHUsXyynsYmhi2Y9LfA8b9LY=", "properties": {"ref": "114", "@spider": "surlatable", "addr:street_address": "7007 Friars Road", "addr:city": "San Diego", "addr:state": "CA", "addr:postcode": "92108", "addr:country": "US", "name": "Fashion Valley Mall", "phone": "619-757-2982", "website": "https://www.surlatable.com/store-details?StoreID=114", "opening_hours": "Mo-Sa 10:00-21:00; Su 11:00-19:00", "image": "https://www.surlatable.com/dw/image/v2/BCJL_PRD/on/demandware.static/-/Sites-shop-slt-storefront-catalog/default/dwbb0dc3d3/images/noimagelarge.png?sw=688&amp;sh=680&amp;sm=fit", "brand": "Sur La Table"}, "geometry": {"type": "Point", "coordinates": [-117.1659598, 32.7684887]}},
{"type": "Feature", "id": "Z_v2YDbTffXpgRcUdJj7E5WvJoo=", "properties": {"ref": "10", "@spider": "surlatable", "addr:street_address": "4050 East Thousand Oaks Blvd, Suite E", "addr:city": "Thousand Oaks", "addr:state": "CA", "addr:postcode": "91362", "addr:country": "US", "name": "The Promenade at Westlake", "phone": "805-381-0030", "website": "https://www.surlatable.com/store-details?StoreID=10", "opening_hours": "Mo-Th 10:00-19:00; Fr-Sa 10:00-20:00; Su 11:00-19:00", "image": "https://www.surlatable.com/dw/image/v2/BCJL_PRD/on/demandware.static/-/Sites-shop-slt-storefront-catalog/default/dwbb0dc3d3/images/noimagelarge.png?sw=688&amp;sh=680&amp;sm=fit", "brand": "Sur La Table"}, "geometry": {"type": "Point", "coordinates": [-118.8214435, 34.1597532]}},
{"type": "Feature", "id": "qsSEKc7lj2V0jLjt8Mw5UrvMyL8=", "properties": {"ref": "11", "@spider": "surlatable", "addr:street_address": "23 University Avenue", "addr:city": "Los Gatos", "addr:state": "CA", "addr:postcode": "95030", "addr:country": "US", "name": "Los Gatos", "phone": "408-395-6946", "website": "https://www.surlatable.com/store-details?StoreID=11", "opening_hours": "Mo-Sa 10:00-21:00; Su 11:00-18:00", "image": "https://www.surlatable.com/dw/image/v2/BCJL_PRD/on/demandware.static/-/Sites-shop-slt-storefront-catalog/default/dwbb0dc3d3/images/noimagelarge.png?sw=688&amp;sh=680&amp;sm=fit", "brand": "Sur La Table"}, "geometry": {"type": "Point", "coordinates": [-121.9826838, 37.2228491]}},
{"type": "Feature", "id": "Yn-MPtiG4ETzF-kICpnhnW3VJgg=", "properties": {"ref": "72", "@spider": "surlatable", "addr:street_address": "1198 Roseville Parkway, Suite 170", "addr:city": "Roseville", "addr:state": "CA", "addr:postcode": "95678", "addr:country": "US", "name": "The Fountains at Roseville", "phone": "916-788-0603", "website": "https://www.surlatable.com/store-details?StoreID=72", "opening_hours": "Mo-Sa 10:00-20:00; Su 11:00-18:00", "image": "https://www.surlatable.com/dw/image/v2/BCJL_PRD/on/demandware.static/-/Sites-shop-slt-storefront-catalog/default/dwbb0dc3d3/images/noimagelarge.png?sw=688&amp;sh=680&amp;sm=fit", "brand": "Sur La Table"}, "geometry": {"type": "Point", "coordinates": [-121.2675623, 38.7681976]}},
{"type": "Feature", "id": "l5pS0GporkNhyXQ1WYHHH29l4d0=", "properties": {"ref": "71", "@spider": "surlatable", "addr:street_address": "138 Caruso Avenue", "addr:city": "Glendale", "addr:state": "CA", "addr:postcode": "91210", "addr:country": "US", "name": "Glendale", "phone": "818-244-3608", "website": "https://www.surlatable.com/store-details?StoreID=71", "opening_hours": "Mo-Sa 10:00-21:00; Su 11:00-19:00", "image": "https://www.surlatable.com/dw/image/v2/BCJL_PRD/on/demandware.static/-/Sites-shop-slt-storefront-catalog/default/dwbb0dc3d3/images/noimagelarge.png?sw=688&amp;sh=680&amp;sm=fit", "brand": "Sur La Table"}, "geometry": {"type": "Point", "coordinates": [-118.2553167, 34.143468]}},
{"type": "Feature", "id": "qEc_ERIZRp7cRB-3_96gNWkTOVs=", "properties": {"ref": "7", "@spider": "surlatable", "addr:street_address": "832 Avocado Avenue", "addr:city": "Newport Beach", "addr:state": "CA", "addr:postcode": "92660", "addr:country": "US", "name": "Newport Beach", "phone": "949-640-0200", "website": "https://www.surlatable.com/store-details?StoreID=7", "opening_hours": "Mo-Sa 10:00-21:00; Su 11:00-19:00", "image": "https://www.surlatable.com/dw/image/v2/BCJL_PRD/on/demandware.static/-/Sites-shop-slt-storefront-catalog/default/dwbb0dc3d3/images/noimagelarge.png?sw=688&amp;sh=680&amp;sm=fit", "brand": "Sur La Table"}, "geometry": {"type": "Point", "coordinates": [-117.8743586, 33.6067584]}},
{"type": "Feature", "id": "3-ksz3qoULkM4K0U1u1V66BVXxc=", "properties": {"ref": "21", "@spider": "surlatable", "addr:street_address": "7122 E Greenway Pkwy", "addr:city": "Scottsdale Kierland Commons", "addr:state": "AZ", "addr:postcode": "85254", "addr:country": "US", "name": "Kierland Commons", "phone": "480-998-0118", "website": "https://www.surlatable.com/store-details?StoreID=21", "opening_hours": "Mo-Sa 10:00-20:00; Su 11:00-18:00", "image": "https://www.surlatable.com/dw/image/v2/BCJL_PRD/on/demandware.static/-/Sites-shop-slt-storefront-catalog/default/dwbb0dc3d3/images/noimagelarge.png?sw=688&amp;sh=680&amp;sm=fit", "brand": "Sur La Table"}, "geometry": {"type": "Point", "coordinates": [-111.9457389, 33.6246316]}},
{"type": "Feature", "id": "3vMtqvLBXLTdmG0Ek-JKr1M3IHs=", "properties": {"ref": "164", "@spider": "surlatable", "addr:street_address": "10353 Pacific Street", "addr:city": "Omaha", "addr:state": "NE", "addr:postcode": "68114", "addr:country": "US", "name": "Omaha - Now Open", "phone": "531-510-2455", "website": "https://www.surlatable.com/store-details?StoreID=164", "opening_hours": "Mo-Sa 10:00-21:00; Su 12:00-17:00", "image": "https://www.surlatable.com/dw/image/v2/BCJL_PRD/on/demandware.static/-/Sites-shop-slt-storefront-catalog/default/dwbb0dc3d3/images/noimagelarge.png?sw=688&amp;sh=680&amp;sm=fit", "brand": "Sur La Table"}, "geometry": {"type": "Point", "coordinates": [-96.053634, 41.263262]}},
{"type": "Feature", "id": "05FKvirbcLfywh48tab_MjDyENQ=", "properties": {"ref": "38", "@spider": "surlatable", "addr:street_address": "4400 Sharon Road, Suite BO3A", "addr:city": "Charlotte", "addr:state": "NC", "addr:postcode": "28211", "addr:country": "US", "name": "SouthPark Mall", "phone": "704-362-2360", "website": "https://www.surlatable.com/store-details?StoreID=38", "opening_hours": "Mo-Sa 10:00-21:00; Su 12:00-18:00", "image": "https://www.surlatable.com/dw/image/v2/BCJL_PRD/on/demandware.static/-/Sites-shop-slt-storefront-catalog/default/dwbb0dc3d3/images/noimagelarge.png?sw=688&amp;sh=680&amp;sm=fit", "brand": "Sur La Table"}, "geometry": {"type": "Point", "coordinates": [-80.8321252, 35.1523851]}},
{"type": "Feature", "id": "G5e_oc9lqSASqN9KCQFI7bT5Zp8=", "properties": {"ref": "138", "@spider": "surlatable", "addr:street_address": "4421 Six Forks Road", "addr:city": "Raleigh", "addr:state": "NC", "addr:postcode": "27609", "addr:country": "US", "name": "North Hills", "phone": "919-783-6615", "website": "https://www.surlatable.com/store-details?StoreID=138", "opening_hours": "Mo-Sa 10:00-20:00; Su 10:00-18:00", "image": "https://www.surlatable.com/dw/image/v2/BCJL_PRD/on/demandware.static/-/Sites-shop-slt-storefront-catalog/default/dwbb0dc3d3/images/noimagelarge.png?sw=688&amp;sh=680&amp;sm=fit", "brand": "Sur La Table"}, "geometry": {"type": "Point", "coordinates": [-78.6436611, 35.8399979]}},
{"type": "Feature", "id": "TLKCbTj8r9_2-YK3YQbb-f3FLNI=", "properties": {"ref": "85", "@spider": "surlatable", "addr:street_address": "2801 W. Big Beaver Rd, Suite 264", "addr:city": "Troy", "addr:state": "MI", "addr:postcode": "48084", "addr:country": "US", "name": "Somerset Collection", "phone": "248-283-1051", "website": "https://www.surlatable.com/store-details?StoreID=85", "opening_hours": "Mo-Sa 10:00-20:00; Su 12:00-18:00", "image": "https://www.surlatable.com/dw/image/v2/BCJL_PRD/on/demandware.static/-/Sites-shop-slt-storefront-catalog/default/dwbb0dc3d3/images/noimagelarge.png?sw=688&amp;sh=680&amp;sm=fit", "brand": "Sur La Table"}, "geometry": {"type": "Point", "coordinates": [-83.1834191, 42.5600991]}},
{"type": "Feature", "id": "qivczsA0Kg8laAl91CGKal5qGLI=", "properties": {"ref": "125", "@spider": "surlatable", "addr:street_address": "3050 Washtenaw Ave", "addr:city": "Ann Arbor", "addr:state": "MI", "addr:postcode": "48104", "addr:country": "US", "name": "Arbor Hills", "phone": "734-531-0300", "website": "https://www.surlatable.com/store-details?StoreID=125", "opening_hours": "Mo-Sa 10:00-20:00; Su 12:00-18:00", "image": "https://www.surlatable.com/dw/image/v2/BCJL_PRD/on/demandware.static/-/Sites-shop-slt-storefront-catalog/default/dwbb0dc3d3/images/noimagelarge.png?sw=688&amp;sh=680&amp;sm=fit", "brand": "Sur La Table"}, "geometry": {"type": "Point", "coordinates": [-83.6987148, 42.2562941]}},
{"type": "Feature", "id": "BW2lFj9_tDaxx6xHDv0ZbdfVB54=", "properties": {"ref": "157", "@spider": "surlatable", "addr:street_address": "11874 Grand Park Ave", "addr:city": "North Bethesda", "addr:state": "MD", "addr:postcode": "20852", "addr:country": "US", "name": "Pike &amp; Rose", "phone": "301-230-1503", "website": "https://www.surlatable.com/store-details?StoreID=157", "opening_hours": "Mo-Sa 10:00-21:00; Su 11:00-18:00", "image": "https://www.surlatable.com/dw/image/v2/BCJL_PRD/on/demandware.static/-/Sites-shop-slt-storefront-catalog/default/dwbb0dc3d3/images/noimagelarge.png?sw=688&amp;sh=680&amp;sm=fit", "brand": "Sur La Table"}, "geometry": {"type": "Point", "coordinates": [-77.117244, 39.050087]}},
{"type": "Feature", "id": "e990wLCbkBtoglw7r1NUvZNTuo8=", "properties": {"ref": "48", "@spider": "surlatable", "addr:street_address": "14400 Clay Terrace Blvd, Suite 100", "addr:city": "Carmel", "addr:state": "IN", "addr:postcode": "46032", "addr:country": "US", "name": "Clay Terrace", "phone": "317-575-0953", "website": "https://www.surlatable.com/store-details?StoreID=48", "opening_hours": "Mo-Sa 10:00-21:00; Su 12:00-18:00", "image": "https://www.surlatable.com/dw/image/v2/BCJL_PRD/on/demandware.static/-/Sites-shop-slt-storefront-catalog/default/dwbb0dc3d3/images/noimagelarge.png?sw=688&amp;sh=680&amp;sm=fit", "brand": "Sur La Table"}, "geometry": {"type": "Point", "coordinates": [-86.1301323, 39.9977791]}},
{"type": "Feature", "id": "JY3hpEO73c98q30NBulca0jVPw4=", "properties": {"ref": "35", "@spider": "surlatable", "addr:street_address": "55 South Main Street", "addr:city": "Naperville", "addr:state": "IL", "addr:postcode": "60540", "addr:country": "US", "name": "Naperville", "phone": "630-428-1110", "website": "https://www.surlatable.com/store-details?StoreID=35", "opening_hours": "Mo-Sa 10:00-21:00; Su 11:00-18:00", "image": "https://www.surlatable.com/dw/image/v2/BCJL_PRD/on/demandware.static/-/Sites-shop-slt-storefront-catalog/default/dwbb0dc3d3/images/noimagelarge.png?sw=688&amp;sh=680&amp;sm=fit", "brand": "Sur La Table"}, "geometry": {"type": "Point", "coordinates": [-88.1503136, 41.7743589]}},
{"type": "Feature", "id": "qW8FiSIVZFiKVTOZ9z1bwTB2FSE=", "properties": {"ref": "600", "@spider": "surlatable", "addr:street_address": "6100 4th Ave South", "addr:city": "Seattle", "addr:state": "Washington", "addr:postcode": "98108", "addr:country": "US", "name": "Online Cooking Class", "phone": "555-555-5555", "website": "https://www.surlatable.com/store-details?StoreID=600", "image": "https://www.surlatable.com/dw/image/v2/BCJL_PRD/on/demandware.static/-/Sites-shop-slt-storefront-catalog/default/dwbb0dc3d3/images/noimagelarge.png?sw=688&amp;sh=680&amp;sm=fit", "brand": "Sur La Table"}, "geometry": {"type": "Point", "coordinates": [-121.803388, 47.432251]}},
{"type": "Feature", "id": "NWR1ZkpTZmubZhHtbxszwppG7Jo=", "properties": {"ref": "139", "@spider": "surlatable", "addr:street_address": "712 N Midvale Blvd", "addr:city": "Madison", "addr:state": "WI", "addr:postcode": "53705", "addr:country": "US", "name": "Hilldale", "phone": "608-236-4849", "website": "https://www.surlatable.com/store-details?StoreID=139", "opening_hours": "Mo-Sa 10:00-20:00; Su 11:00-18:00", "image": "https://www.surlatable.com/dw/image/v2/BCJL_PRD/on/demandware.static/-/Sites-shop-slt-storefront-catalog/default/dwbb0dc3d3/images/noimagelarge.png?sw=688&amp;sh=680&amp;sm=fit", "brand": "Sur La Table"}, "geometry": {"type": "Point", "coordinates": [-89.4530824, 43.0728319]}},
{"type": "Feature", "id": "E3oVORRac6oH06MoOIWlD1Ebo8s=", "properties": {"ref": "4", "@spider": "surlatable", "addr:street_address": "90 Central Way", "addr:city": "Kirkland", "addr:state": "WA", "addr:postcode": "98033", "addr:country": "US", "name": "Kirkland", "phone": "425-827-1311", "website": "https://www.surlatable.com/store-details?StoreID=4", "opening_hours": "Mo-Sa 10:00-19:00; Su 11:00-18:00", "image": "https://www.surlatable.com/dw/image/v2/BCJL_PRD/on/demandware.static/-/Sites-shop-slt-storefront-catalog/default/dwbb0dc3d3/images/noimagelarge.png?sw=688&amp;sh=680&amp;sm=fit", "brand": "Sur La Table"}, "geometry": {"type": "Point", "coordinates": [-122.2086608, 47.6765735]}},
{"type": "Feature", "id": "ee0fu2AeMbofCfJ7lHW5wzLYtao=", "properties": {"ref": "1", "@spider": "surlatable", "addr:street_address": "84 Pine St", "addr:city": "Seattle", "addr:state": "WA", "addr:postcode": "98101", "addr:country": "US", "name": "Pike Place", "phone": "206-448-2244", "website": "https://www.surlatable.com/store-details?StoreID=1", "opening_hours": "Mo-Su 10:00-18:00", "image": "https://www.surlatable.com/dw/image/v2/BCJL_PRD/on/demandware.static/-/Sites-shop-slt-storefront-catalog/default/dwbb0dc3d3/images/noimagelarge.png?sw=688&amp;sh=680&amp;sm=fit", "brand": "Sur La Table"}, "geometry": {"type": "Point", "coordinates": [-122.341674, 47.6096278]}},
{"type": "Feature", "id": "roLc4802D5bANOmP-vDisR9J_Po=", "properties": {"ref": "18", "@spider": "surlatable", "addr:street_address": "1711G International Drive", "addr:city": "McLean", "addr:state": "VA", "addr:postcode": "22102", "addr:country": "US", "name": "Tysons Galleria", "phone": "703-749-1125", "website": "https://www.surlatable.com/store-details?StoreID=18", "opening_hours": "Mo-Sa 11:00-19:00; Su 12:00-18:00", "image": "https://www.surlatable.com/dw/image/v2/BCJL_PRD/on/demandware.static/-/Sites-shop-slt-storefront-catalog/default/dwbb0dc3d3/images/noimagelarge.png?sw=688&amp;sh=680&amp;sm=fit", "brand": "Sur La Table"}, "geometry": {"type": "Point", "coordinates": [-77.2245345, 38.924571]}},
{"type": "Feature", "id": "iyFiZiVEJPzWfx7n6EOKaQbKMU0=", "properties": {"ref": "163", "@spider": "surlatable", "addr:street_address": "326 King Street", "addr:city": "Alexandria", "addr:state": "VA", "addr:postcode": "22314", "addr:country": "US", "name": "Alexandria", "phone": "571-771-8969", "website": "https://www.surlatable.com/store-details?StoreID=163", "opening_hours": "Mo-Sa 10:00-20:00; Su 11:00-18:00", "image": "https://www.surlatable.com/dw/image/v2/BCJL_PRD/on/demandware.static/-/Sites-shop-slt-storefront-catalog/default/dwbb0dc3d3/images/noimagelarge.png?sw=688&amp;sh=680&amp;sm=fit", "brand": "Sur La Table"}, "geometry": {"type": "Point", "coordinates": [-77.063587, 38.811436]}},
{"type": "Feature", "id": "1-7ruCRw4HSsr0CM8Hl1Vq5Jfk8=", "properties": {"ref": "24", "@spider": "surlatable", "addr:street_address": "1101 South Joyce Street, Suite B-20", "addr:city": "Arlington", "addr:state": "VA", "addr:postcode": "22202", "addr:country": "US", "name": "Pentagon Row", "phone": "703-414-3580", "website": "https://www.surlatable.com/store-details?StoreID=24", "opening_hours": "Mo-Sa 10:00-21:00; Su 11:00-18:00", "image": "https://www.surlatable.com/dw/image/v2/BCJL_PRD/on/demandware.static/-/Sites-shop-slt-storefront-catalog/default/dwbb0dc3d3/images/noimagelarge.png?sw=688&amp;sh=680&amp;sm=fit", "brand": "Sur La Table"}, "geometry": {"type": "Point", "coordinates": [-77.0630085, 38.8641886]}},
{"type": "Feature", "id": "vu7LLzRSRI9O9lb8decnUHcMChU=", "properties": {"ref": "154", "@spider": "surlatable", "addr:street_address": "6117 South State Street", "addr:city": "Murray", "addr:state": "UT", "addr:postcode": "84107", "addr:country": "US", "name": "Fashion Place", "phone": "801-281-6642", "website": "https://www.surlatable.com/store-details?StoreID=154", "opening_hours": "Mo-Th 11:00-20:00; Fr-Sa 10:00-21:00; Su 12:00-18:00", "image": "https://www.surlatable.com/dw/image/v2/BCJL_PRD/on/demandware.static/-/Sites-shop-slt-storefront-catalog/default/dwbb0dc3d3/images/noimagelarge.png?sw=688&amp;sh=680&amp;sm=fit", "brand": "Sur La Table"}, "geometry": {"type": "Point", "coordinates": [-111.884951, 40.636471]}},
{"type": "Feature", "id": "zOXidwJh63DH1LP4r1bGyEM7i5A=", "properties": {"ref": "14", "@spider": "surlatable", "addr:street_address": "1996 West Gray", "addr:city": "Houston River Oaks", "addr:state": "TX", "addr:postcode": "77019", "addr:country": "US", "name": "River Oaks Shopping Center", "phone": "713-533-0400", "website": "https://www.surlatable.com/store-details?StoreID=14", "opening_hours": "Mo-Sa 10:00-21:00; Su 11:00-18:00", "image": "https://www.surlatable.com/dw/image/v2/BCJL_PRD/on/demandware.static/-/Sites-shop-slt-storefront-catalog/default/dwbb0dc3d3/images/noimagelarge.png?sw=688&amp;sh=680&amp;sm=fit", "brand": "Sur La Table"}, "geometry": {"type": "Point", "coordinates": [-95.4080221, 29.753357]}},
{"type": "Feature", "id": "tm8AM4TALzqSncbz90vvaS-AHQc=", "properties": {"ref": "103", "@spider": "surlatable", "addr:street_address": "15900 La Cantera Parkway, #19120", "addr:city": "San Antonio", "addr:state": "TX", "addr:postcode": "78256", "addr:country": "US", "name": "Shops at La Cantera", "phone": "210-978-5580", "website": "https://www.surlatable.com/store-details?StoreID=103", "opening_hours": "Mo-Th 11:00-20:00; Fr-Sa 11:00-21:00; Su 12:00-18:00", "image": "https://www.surlatable.com/dw/image/v2/BCJL_PRD/on/demandware.static/-/Sites-shop-slt-storefront-catalog/default/dwbb0dc3d3/images/noimagelarge.png?sw=688&amp;sh=680&amp;sm=fit", "brand": "Sur La Table"}, "geometry": {"type": "Point", "coordinates": [-98.6151165, 29.5943789]}},
{"type": "Feature", "id": "Bp1Xmgqk1111W_cnT7Mu9utWyZE=", "properties": {"ref": "89", "@spider": "surlatable", "addr:street_address": "816 Town and Country Boulevard", "addr:city": "Houston City Centre", "addr:state": "TX", "addr:postcode": "77024", "addr:country": "US", "name": "City Centre", "phone": "832-201-3492", "website": "https://www.surlatable.com/store-details?StoreID=89", "opening_hours": "Mo-Sa 10:00-21:00; Su 11:00-18:00", "image": "https://www.surlatable.com/dw/image/v2/BCJL_PRD/on/demandware.static/-/Sites-shop-slt-storefront-catalog/default/dwbb0dc3d3/images/noimagelarge.png?sw=688&amp;sh=680&amp;sm=fit", "brand": "Sur La Table"}, "geometry": {"type": "Point", "coordinates": [-95.5609068, 29.781105]}},
{"type": "Feature", "id": "Cwq4HQO0QUw3M3DoE4nHMDhgv7c=", "properties": {"ref": "51", "@spider": "surlatable", "addr:street_address": "9595 Six Pines Drive, Suite 608", "addr:city": "Houston", "addr:state": "TX", "addr:postcode": "77380", "addr:country": "US", "name": "Market Street at the Woodlands", "phone": "281-298-7320", "website": "https://www.surlatable.com/store-details?StoreID=51", "opening_hours": "Mo-Sa 10:00-20:00; Su 12:00-18:00", "image": "https://www.surlatable.com/dw/image/v2/BCJL_PRD/on/demandware.static/-/Sites-shop-slt-storefront-catalog/default/dwbb0dc3d3/images/noimagelarge.png?sw=688&amp;sh=680&amp;sm=fit", "brand": "Sur La Table"}, "geometry": {"type": "Point", "coordinates": [-95.4642177, 30.1640407]}},
{"type": "Feature", "id": "VJedSCBY78x52P3-vMb4r0zCK7Y=", "properties": {"ref": "156", "@spider": "surlatable", "addr:street_address": "6025 Royal Lane", "addr:city": "Dallas Preston Royal", "addr:state": "TX", "addr:postcode": "75230", "addr:country": "US", "name": "Preston Royal", "phone": "469-232-9409", "website": "https://www.surlatable.com/store-details?StoreID=156", "opening_hours": "Mo-Sa 10:00-21:00; Su 11:00-19:00", "image": "https://www.surlatable.com/dw/image/v2/BCJL_PRD/on/demandware.static/-/Sites-shop-slt-storefront-catalog/default/dwbb0dc3d3/images/noimagelarge.png?sw=688&amp;sh=680&amp;sm=fit", "brand": "Sur La Table"}, "geometry": {"type": "Point", "coordinates": [-96.802792, 32.896098]}},
{"type": "Feature", "id": "7nC--QzQdlvOh_BNWf3UEc1WFGk=", "properties": {"ref": "152", "@spider": "surlatable", "addr:street_address": "11800 Domain Boulevard Suite 130", "addr:city": "Austin", "addr:state": "TX", "addr:postcode": "78758", "addr:country": "US", "name": "Domain Northside", "phone": "512-873-7149", "website": "https://www.surlatable.com/store-details?StoreID=152", "opening_hours": "Mo-Sa 10:00-21:00; Su 12:00-18:00", "image": "https://www.surlatable.com/dw/image/v2/BCJL_PRD/on/demandware.static/-/Sites-shop-slt-storefront-catalog/default/dwbb0dc3d3/images/noimagelarge.png?sw=688&amp;sh=680&amp;sm=fit", "brand": "Sur La Table"}, "geometry": {"type": "Point", "coordinates": [-97.7216099, 30.4046932]}},
{"type": "Feature", "id": "aa89xqfyb8mWJwoqth3q-tigR4A=", "properties": {"ref": "147", "@spider": "surlatable", "addr:street_address": "4525 Cole Avenue Suite 190", "addr:city": "Dallas Knox District", "addr:state": "TX", "addr:postcode": "75205", "addr:country": "US", "name": "Knox District", "phone": "214-219-4404", "website": "https://www.surlatable.com/store-details?StoreID=147", "opening_hours": "Mo-Sa 10:00-21:00; Su 11:00-19:00", "image": "https://www.surlatable.com/dw/image/v2/BCJL_PRD/on/demandware.static/-/Sites-shop-slt-storefront-catalog/default/dwbb0dc3d3/images/noimagelarge.png?sw=688&amp;sh=680&amp;sm=fit", "brand": "Sur La Table"}, "geometry": {"type": "Point", "coordinates": [-96.789751, 32.822539]}},
{"type": "Feature", "id": "ItLEOJDO_6udVcAJTd58oxev9zI=", "properties": {"ref": "144", "@spider": "surlatable", "addr:street_address": "1151 E. Southlake Boulevard Suite 340", "addr:city": "Southlake", "addr:state": "TX", "addr:postcode": "76092", "addr:country": "US", "name": "Park Village", "phone": "817-416-6257", "website": "https://www.surlatable.com/store-details?StoreID=144", "opening_hours": "Mo-Sa 10:00-21:00; Su 10:00-19:00", "image": "https://www.surlatable.com/dw/image/v2/BCJL_PRD/on/demandware.static/-/Sites-shop-slt-storefront-catalog/default/dwbb0dc3d3/images/noimagelarge.png?sw=688&amp;sh=680&amp;sm=fit", "brand": "Sur La Table"}, "geometry": {"type": "Point", "coordinates": [-97.1349569, 32.9402762]}},
{"type": "Feature", "id": "EYYlsRmHLqI2PP_kVfNQiancVaU=", "properties": {"ref": "158", "@spider": "surlatable", "addr:street_address": "211 Franklin Road", "addr:city": "Brentwood/Nashville", "addr:state": "TN", "addr:postcode": "37027", "addr:country": "US", "name": "Hill Center", "phone": "615-376-9905", "website": "https://www.surlatable.com/store-details?StoreID=158", "opening_hours": "Mo-Sa 10:00-19:00; Su 12:00-18:00", "image": "https://www.surlatable.com/dw/image/v2/BCJL_PRD/on/demandware.static/-/Sites-shop-slt-storefront-catalog/default/dwbb0dc3d3/images/noimagelarge.png?sw=688&amp;sh=680&amp;sm=fit", "brand": "Sur La Table"}, "geometry": {"type": "Point", "coordinates": [-86.789036, 36.033076]}},
{"type": "Feature", "id": "x9NgmYqjrzgFzLfX4xmBXnqxdCs=", "properties": {"ref": "81", "@spider": "surlatable", "addr:street_address": "690 West DeKalb Pike", "addr:city": "King Of Prussia", "addr:state": "PA", "addr:postcode": "19406", "addr:country": "US", "name": "King Of Prussia", "phone": "484-612-0040", "website": "https://www.surlatable.com/store-details?StoreID=81", "opening_hours": "Mo-Th 10:00-20:00; Fr-Sa 10:00-21:00; Su 11:00-18:00", "image": "https://www.surlatable.com/dw/image/v2/BCJL_PRD/on/demandware.static/-/Sites-shop-slt-storefront-catalog/default/dwbb0dc3d3/images/noimagelarge.png?sw=688&amp;sh=680&amp;sm=fit", "brand": "Sur La Table"}, "geometry": {"type": "Point", "coordinates": [-75.3855588, 40.0890849]}},
{"type": "Feature", "id": "z7aHdV5ULr86QXnbn8vlqR43UJE=", "properties": {"ref": "160", "@spider": "surlatable", "addr:street_address": "5854 North Classen Blvd, Building P, Suite P-01", "addr:city": "Oklahoma City", "addr:state": "OK", "addr:postcode": "73118", "addr:country": "US", "name": "Classen Curve", "phone": "405-400-7641", "website": "https://www.surlatable.com/store-details?StoreID=160", "opening_hours": "Mo-Sa 10:00-20:00; Su 12:00-18:00", "image": "https://www.surlatable.com/dw/image/v2/BCJL_PRD/on/demandware.static/-/Sites-shop-slt-storefront-catalog/default/dwbb0dc3d3/images/noimagelarge.png?sw=688&amp;sh=680&amp;sm=fit", "brand": "Sur La Table"}, "geometry": {"type": "Point", "coordinates": [-97.528372, 35.476244]}},
{"type": "Feature", "id": "jqLTQdi9VT74GDgfOa4xSy-_YVI=", "properties": {"ref": "19", "@spider": "surlatable", "addr:street_address": "2673 Edmondson Road", "addr:city": "Cincinnati", "addr:state": "OH", "addr:postcode": "45209", "addr:country": "US", "name": "Rookwood Commons", "phone": "513-351-7444", "website": "https://www.surlatable.com/store-details?StoreID=19", "opening_hours": "Mo-Sa 10:00-21:00; Su 11:00-18:00", "image": "https://www.surlatable.com/dw/image/v2/BCJL_PRD/on/demandware.static/-/Sites-shop-slt-storefront-catalog/default/dwbb0dc3d3/images/noimagelarge.png?sw=688&amp;sh=680&amp;sm=fit", "brand": "Sur La Table"}, "geometry": {"type": "Point", "coordinates": [-84.4464091, 39.1465491]}},
{"type": "Feature", "id": "sRVfuK2UUocZELjkUgM65qBaqNU=", "properties": {"ref": "37", "@spider": "surlatable", "addr:street_address": "28819 Chagrin Boulevard", "addr:city": "Woodmere", "addr:state": "OH", "addr:postcode": "44122", "addr:country": "US", "name": "Eton Chagrin Boulevard", "phone": "216-378-1800", "website": "https://www.surlatable.com/store-details?StoreID=37", "opening_hours": "Mo-Th 10:00-19:00; Fr-Sa 10:00-21:00; Su 12:00-18:00", "image": "https://www.surlatable.com/dw/image/v2/BCJL_PRD/on/demandware.static/-/Sites-shop-slt-storefront-catalog/default/dwbb0dc3d3/images/noimagelarge.png?sw=688&amp;sh=680&amp;sm=fit", "brand": "Sur La Table"}, "geometry": {"type": "Point", "coordinates": [-81.4765177, 41.46353]}},
{"type": "Feature", "id": "h6PdLvC2HnFahtfdw6xFkm9SsoA=", "properties": {"ref": "32", "@spider": "surlatable", "addr:street_address": "3990 New Bond Street", "addr:city": "Columbus", "addr:state": "OH", "addr:postcode": "43219", "addr:country": "US", "name": "Easton Town Center", "phone": "614-473-1211", "website": "https://www.surlatable.com/store-details?StoreID=32", "opening_hours": "Mo-Sa 10:00-21:00; Su 12:00-18:00", "image": "https://www.surlatable.com/dw/image/v2/BCJL_PRD/on/demandware.static/-/Sites-shop-slt-storefront-catalog/default/dwbb0dc3d3/images/noimagelarge.png?sw=688&amp;sh=680&amp;sm=fit", "brand": "Sur La Table"}, "geometry": {"type": "Point", "coordinates": [-82.9157475, 40.0532939]}},
{"type": "Feature", "id": "bJEYMvm2ra_77CrzROwJJ1-g-DE=", "properties": {"ref": "140", "@spider": "surlatable", "addr:street_address": "218 Main Street", "addr:city": "Westlake", "addr:state": "OH", "addr:postcode": "44145", "addr:country": "US", "name": "Crocker Park", "phone": "440-250-0463", "website": "https://www.surlatable.com/store-details?StoreID=140", "opening_hours": "Mo-Sa 10:00-21:00; Su 11:00-18:00", "image": "https://www.surlatable.com/dw/image/v2/BCJL_PRD/on/demandware.static/-/Sites-shop-slt-storefront-catalog/default/dwbb0dc3d3/images/noimagelarge.png?sw=688&amp;sh=680&amp;sm=fit", "brand": "Sur La Table"}, "geometry": {"type": "Point", "coordinates": [-81.9519421, 41.4571481]}},
{"type": "Feature", "id": "GZk_3EBMziaZJNSOn2Mvw-qakWM=", "properties": {"ref": "102", "@spider": "surlatable", "addr:street_address": "306 West 57th Street", "addr:city": "New York", "addr:state": "NY", "addr:postcode": "10019", "addr:country": "US", "name": "57th &amp; 8th", "phone": "212-574-8334", "website": "https://www.surlatable.com/store-details?StoreID=102", "opening_hours": "Mo-Sa 10:00-21:00; Su 11:00-19:00", "image": "https://www.surlatable.com/dw/image/v2/BCJL_PRD/on/demandware.static/-/Sites-shop-slt-storefront-catalog/default/dwbb0dc3d3/images/noimagelarge.png?sw=688&amp;sh=680&amp;sm=fit", "brand": "Sur La Table"}, "geometry": {"type": "Point", "coordinates": [-73.9837476, 40.7667714]}},
{"type": "Feature", "id": "6W5nVaZEBD1gt8o8pLZx4qybY3M=", "properties": {"ref": "137", "@spider": "surlatable", "addr:street_address": "1980 Festival Plaza Drive", "addr:city": "Las Vegas", "addr:state": "NV", "addr:postcode": "89135", "addr:country": "US", "name": "Summerlin", "phone": "702-448-8611", "website": "https://www.surlatable.com/store-details?StoreID=137", "opening_hours": "Mo-Th 10:00-20:00; Fr-Sa 10:00-21:00; Su 11:00-19:00", "image": "https://www.surlatable.com/dw/image/v2/BCJL_PRD/on/demandware.static/-/Sites-shop-slt-storefront-catalog/default/dwbb0dc3d3/images/noimagelarge.png?sw=688&amp;sh=680&amp;sm=fit", "brand": "Sur La Table"}, "geometry": {"type": "Point", "coordinates": [-115.3330428, 36.1500213]}},
{"type": "Feature", "id": "RXWvy_2V_6kVapQnlG8KylwC1u0=", "properties": {"ref": "122", "@spider": "surlatable", "addr:street_address": "4999 Old Orchard Center, Suite L12", "addr:city": "Skokie", "addr:state": "IL", "addr:postcode": "60077", "addr:country": "US", "name": "Old Orchard", "phone": "847-568-1210", "website": "https://www.surlatable.com/store-details?StoreID=122", "opening_hours": "Mo-Th 10:00-20:00; Fr-Sa 10:00-21:00; Su 11:00-19:00", "image": "https://www.surlatable.com/dw/image/v2/BCJL_PRD/on/demandware.static/-/Sites-shop-slt-storefront-catalog/default/dwbb0dc3d3/images/noimagelarge.png?sw=688&amp;sh=680&amp;sm=fit", "brand": "Sur La Table"}, "geometry": {"type": "Point", "coordinates": [-87.7495227, 42.0591232]}},
{"type": "Feature", "id": "igGwqwgie-3YGdbjtoSSqWRzHeE=", "properties": {"ref": "126", "@spider": "surlatable", "addr:street_address": "900 North Michigan Ave", "addr:city": "Chicago", "addr:state": "IL", "addr:postcode": "60611", "addr:country": "US", "name": "900 North Michigan", "phone": "312-204-6008", "website": "https://www.surlatable.com/store-details?StoreID=126", "opening_hours": "Mo-Sa 11:00-18:00; Su 12:00-18:00", "image": "https://www.surlatable.com/dw/image/v2/BCJL_PRD/on/demandware.static/-/Sites-shop-slt-storefront-catalog/default/dwbb0dc3d3/images/noimagelarge.png?sw=688&amp;sh=680&amp;sm=fit", "brand": "Sur La Table"}, "geometry": {"type": "Point", "coordinates": [-87.6264604, 41.8995715]}},
{"type": "Feature", "id": "oPRQ9V6tvlH8rHfACYDw4_65RCA=", "properties": {"ref": "136", "@spider": "surlatable", "addr:street_address": "N Eagle Rd &amp; E Fairview Ave", "addr:city": "Meridian", "addr:state": "ID", "addr:postcode": "83646", "addr:country": "US", "name": "Village at Meridian - CLOSED", "phone": "208-888-4066", "website": "https://www.surlatable.com/store-details?StoreID=136", "opening_hours": "Mo-Sa 10:00-18:00; Su 11:00-18:00", "image": "https://www.surlatable.com/dw/image/v2/BCJL_PRD/on/demandware.static/-/Sites-shop-slt-storefront-catalog/default/dwbb0dc3d3/images/noimagelarge.png?sw=688&amp;sh=680&amp;sm=fit", "brand": "Sur La Table"}, "geometry": {"type": "Point", "coordinates": [-116.3505889, 43.6214803]}},
{"type": "Feature", "id": "iulp-NwpQjbyezZzZQpwExqTB94=", "properties": {"ref": "162", "@spider": "surlatable", "addr:street_address": "700 S. Rosemary Avenue, Suite 116", "addr:city": "West Palm Beach", "addr:state": "FL", "addr:postcode": "33401", "addr:country": "US", "name": "The Square", "phone": "561-473-3346", "website": "https://www.surlatable.com/store-details?StoreID=162", "opening_hours": "Mo-We 10:00-19:00; Th-Sa 10:00-21:00; Su 11:00-18:00", "image": "https://www.surlatable.com/dw/image/v2/BCJL_PRD/on/demandware.static/-/Sites-shop-slt-storefront-catalog/default/dwbb0dc3d3/images/noimagelarge.png?sw=688&amp;sh=680&amp;sm=fit", "brand": "Sur La Table"}, "geometry": {"type": "Point", "coordinates": [-80.057077, 26.706933]}},
{"type": "Feature", "id": "bRejzik6XymmrpvSh5vCzuv8vg0=", "properties": {"ref": "159", "@spider": "surlatable", "addr:street_address": "701 South Miami Avenue", "addr:city": "Miami", "addr:state": "FL", "addr:postcode": "33131", "addr:country": "US", "name": "Brickell", "phone": "786-796-0978", "website": "https://www.surlatable.com/store-details?StoreID=159", "opening_hours": "Mo-Sa 11:00-21:00; Su 11:00-19:00", "image": "https://www.surlatable.com/dw/image/v2/BCJL_PRD/on/demandware.static/-/Sites-shop-slt-storefront-catalog/default/dwbb0dc3d3/images/noimagelarge.png?sw=688&amp;sh=680&amp;sm=fit", "brand": "Sur La Table"}, "geometry": {"type": "Point", "coordinates": [-80.193203, 25.76759]}},
{"type": "Feature", "id": "-0QcKpmK9azVYC1bt2-sI5WGEWQ=", "properties": {"ref": "76", "@spider": "surlatable", "addr:street_address": "9105 Strada Place", "addr:city": "Naples", "addr:state": "FL", "addr:postcode": "34108", "addr:country": "US", "name": "The Mercato", "phone": "239-598-3586", "website": "https://www.surlatable.com/store-details?StoreID=76", "opening_hours": "Mo-Sa 10:00-21:00; Su 12:00-18:00", "image": "https://www.surlatable.com/dw/image/v2/BCJL_PRD/on/demandware.static/-/Sites-shop-slt-storefront-catalog/default/dwbb0dc3d3/images/noimagelarge.png?sw=688&amp;sh=680&amp;sm=fit", "brand": "Sur La Table"}, "geometry": {"type": "Point", "coordinates": [-81.799647, 26.254414]}},
{"type": "Feature", "id": "Vj7EjOkySDUbqViW10xeNCAAefo=", "properties": {"ref": "113", "@spider": "surlatable", "addr:street_address": "438 Plaza Real", "addr:city": "Boca Raton", "addr:state": "FL", "addr:postcode": "33432", "addr:country": "US", "name": "Mizner Park", "phone": "561-953-7638", "website": "https://www.surlatable.com/store-details?StoreID=113", "opening_hours": "Mo-Sa 11:00-21:00; Su 12:00-18:00", "image": "https://www.surlatable.com/dw/image/v2/BCJL_PRD/on/demandware.static/-/Sites-shop-slt-storefront-catalog/default/dwbb0dc3d3/images/noimagelarge.png?sw=688&amp;sh=680&amp;sm=fit", "brand": "Sur La Table"}, "geometry": {"type": "Point", "coordinates": [-80.0848909, 26.3557087]}},
{"type": "Feature", "id": "OwYUtSo9Nh_PgVDpBLGViJZ3ZFs=", "properties": {"ref": "161", "@spider": "surlatable", "addr:street_address": "4713 River City Drive, Suite 109", "addr:city": "Jacksonville", "addr:state": "FL", "addr:postcode": "32246", "addr:country": "US", "name": "St. Johns", "phone": "904-719-7597", "website": "https://www.surlatable.com/store-details?StoreID=161", "opening_hours": "Mo-Th 11:00-20:00; Fr-Sa 10:00-21:00; Su 11:00-18:00", "image": "https://www.surlatable.com/dw/image/v2/BCJL_PRD/on/demandware.static/-/Sites-shop-slt-storefront-catalog/default/dwbb0dc3d3/images/noimagelarge.png?sw=688&amp;sh=680&amp;sm=fit", "brand": "Sur La Table"}, "geometry": {"type": "Point", "coordinates": [-81.52528, 30.257598]}},
{"type": "Feature", "id": "1lGaEYNRhAsRpPK7PCbHx5rruGc=", "properties": {"ref": "141", "@spider": "surlatable", "addr:street_address": "711 South Dakota Ave", "addr:city": "Tampa", "addr:state": "FL", "addr:postcode": "33606", "addr:country": "US", "name": "Hyde Park Village", "phone": "813-253-3063", "website": "https://www.surlatable.com/store-details?StoreID=141", "opening_hours": "Mo-Sa 10:00-20:00; Su 12:00-17:00", "image": "https://www.surlatable.com/dw/image/v2/BCJL_PRD/on/demandware.static/-/Sites-shop-slt-storefront-catalog/default/dwbb0dc3d3/images/noimagelarge.png?sw=688&amp;sh=680&amp;sm=fit", "brand": "Sur La Table"}, "geometry": {"type": "Point", "coordinates": [-82.4758153, 27.9371749]}},
{"type": "Feature", "id": "IOKKRPZ8tc7S65ABjFStP2y7lOc=", "properties": {"ref": "106", "@spider": "surlatable", "addr:street_address": "1850 29th Street, Suite #1004", "addr:city": "Boulder", "addr:state": "CO", "addr:postcode": "80301", "addr:country": "US", "name": "Boulder", "phone": "303-952-7080", "website": "https://www.surlatable.com/store-details?StoreID=106", "opening_hours": "Mo-Sa 10:00-20:00; Su 11:00-18:00", "image": "https://www.surlatable.com/dw/image/v2/BCJL_PRD/on/demandware.static/-/Sites-shop-slt-storefront-catalog/default/dwbb0dc3d3/images/noimagelarge.png?sw=688&amp;sh=680&amp;sm=fit", "brand": "Sur La Table"}, "geometry": {"type": "Point", "coordinates": [-105.2554524, 40.0190365]}},
{"type": "Feature", "id": "arJA8Og5dPpJBHVMq0VGMGiexUg=", "properties": {"ref": "133", "@spider": "surlatable", "addr:street_address": "6853 S Gaylord St, Suite 115", "addr:city": "Centennial", "addr:state": "CO", "addr:postcode": "80122", "addr:country": "US", "name": "SouthGlenn", "phone": "303-730-4133", "website": "https://www.surlatable.com/store-details?StoreID=133", "opening_hours": "Mo-Sa 10:00-21:00; Su 11:00-18:00", "image": "https://www.surlatable.com/dw/image/v2/BCJL_PRD/on/demandware.static/-/Sites-shop-slt-storefront-catalog/default/dwbb0dc3d3/images/noimagelarge.png?sw=688&amp;sh=680&amp;sm=fit", "brand": "Sur La Table"}, "geometry": {"type": "Point", "coordinates": [-104.9621919, 39.5920828]}},
{"type": "Feature", "id": "e8A2x9CZEwbUTEPoC1kHxsw0OMA=", "properties": {"ref": "46", "@spider": "surlatable", "addr:street_address": "1915 Calle Barcelona, Suite #130", "addr:city": "Carlsbad", "addr:state": "CA", "addr:postcode": "92009", "addr:country": "US", "name": "Forum at Carlsbad", "phone": "760-635-1316", "website": "https://www.surlatable.com/store-details?StoreID=46", "opening_hours": "Mo-Sa 10:00-20:00; Su 11:00-18:00", "image": "https://www.surlatable.com/dw/image/v2/BCJL_PRD/on/demandware.static/-/Sites-shop-slt-storefront-catalog/default/dwbb0dc3d3/images/noimagelarge.png?sw=688&amp;sh=680&amp;sm=fit", "brand": "Sur La Table"}, "geometry": {"type": "Point", "coordinates": [-117.265326, 33.0708706]}},
{"type": "Feature", "id": "w1tCsnN2LOe1XshOwRdgFWYPs2M=", "properties": {"ref": "42", "@spider": "surlatable", "addr:street_address": "2323 Magowan Dr.", "addr:city": "Santa Rosa", "addr:state": "CA", "addr:postcode": "95405", "addr:country": "US", "name": "Montgomery Village", "phone": "707-566-9820", "website": "https://www.surlatable.com/store-details?StoreID=42", "opening_hours": "Mo-Sa 10:00-19:00; Su 11:00-18:00", "image": "https://www.surlatable.com/dw/image/v2/BCJL_PRD/on/demandware.static/-/Sites-shop-slt-storefront-catalog/default/dwbb0dc3d3/images/noimagelarge.png?sw=688&amp;sh=680&amp;sm=fit", "brand": "Sur La Table"}, "geometry": {"type": "Point", "coordinates": [-122.6870545, 38.4456361]}},
{"type": "Feature", "id": "g6XkhNF9bFKtkGdDK8NPd7AW75Y=", "properties": {"ref": "73", "@spider": "surlatable", "addr:street_address": "855 El Camino Real, Suite 57", "addr:city": "Palo Alto", "addr:state": "CA", "addr:postcode": "94301", "addr:country": "US", "name": "Palo Alto", "phone": "650-289-0019", "website": "https://www.surlatable.com/store-details?StoreID=73", "opening_hours": "Mo-Su 10:00-19:00", "image": "https://www.surlatable.com/dw/image/v2/BCJL_PRD/on/demandware.static/-/Sites-shop-slt-storefront-catalog/default/dwbb0dc3d3/images/noimagelarge.png?sw=688&amp;sh=680&amp;sm=fit", "brand": "Sur La Table"}, "geometry": {"type": "Point", "coordinates": [-122.1576598, 37.438472]}},
{"type": "Feature", "id": "ncFQ1K_thcOETUK_B-Er-vxxbBg=", "properties": {"ref": "3", "@spider": "surlatable", "addr:street_address": "1806 Fourth Street", "addr:city": "Berkeley", "addr:state": "CA", "addr:postcode": "94710", "addr:country": "US", "name": "Berkeley", "phone": "510-849-2252", "website": "https://www.surlatable.com/store-details?StoreID=3", "opening_hours": "Mo-Sa 10:00-19:00; Su 11:00-18:00", "image": "https://www.surlatable.com/dw/image/v2/BCJL_PRD/on/demandware.static/-/Sites-shop-slt-storefront-catalog/default/dwbb0dc3d3/images/noimagelarge.png?sw=688&amp;sh=680&amp;sm=fit", "brand": "Sur La Table"}, "geometry": {"type": "Point", "coordinates": [-122.3009876, 37.8698334]}},
{"type": "Feature", "id": "zb8QzsyEM9W7mMjTmjo-eIdmx-A=", "properties": {"ref": "142", "@spider": "surlatable", "addr:street_address": "6316 Topanga Canyon Blvd", "addr:city": "Woodland Hills", "addr:state": "CA", "addr:postcode": "91367", "addr:country": "US", "name": "Village at Topanga", "phone": "818-224-6479", "website": "https://www.surlatable.com/store-details?StoreID=142", "opening_hours": "Mo-Th 10:00-20:00; Fr-Sa 10:00-21:00; Su 11:00-19:00", "image": "https://www.surlatable.com/dw/image/v2/BCJL_PRD/on/demandware.static/-/Sites-shop-slt-storefront-catalog/default/dwbb0dc3d3/images/noimagelarge.png?sw=688&amp;sh=680&amp;sm=fit", "brand": "Sur La Table"}, "geometry": {"type": "Point", "coordinates": [-118.6058409, 34.1856359]}},
{"type": "Feature", "id": "ew0xTiSTbGO24BLnLpJxUI0Q-jc=", "properties": {"ref": "79", "@spider": "surlatable", "addr:street_address": "3333 Bear Street", "addr:city": "Costa Mesa", "addr:state": "CA", "addr:postcode": "92626", "addr:country": "US", "name": "South Coast Plaza", "phone": "714-241-0118", "website": "https://www.surlatable.com/store-details?StoreID=79", "opening_hours": "Mo-Sa 10:00-20:00; Su 11:00-19:00", "image": "https://www.surlatable.com/dw/image/v2/BCJL_PRD/on/demandware.static/-/Sites-shop-slt-storefront-catalog/default/dwbb0dc3d3/images/noimagelarge.png?sw=688&amp;sh=680&amp;sm=fit", "brand": "Sur La Table"}, "geometry": {"type": "Point", "coordinates": [-117.892915, 33.692049]}}]}