{"type":"FeatureCollection","features":[{"type": "Feature", "id": "midx_lOicohXw2bVq9XGOquJJn8=", "properties": {"ref": "https://www.tangeroutlet.com/locustgrove/location", "@spider": "tanger_outlet", "shop": "mall", "addr:full": "1000 Tanger Drive", "addr:city": "Atlanta/Locust Grove", "addr:state": "GA", "addr:postcode": "30248", "name": "Tanger Outlets", "website": "https://www.tangeroutlet.com/locustgrove/location", "brand": "Tanger Outlet", "brand:wikidata": "Q7682888", "nsi_id": "tangeroutlets-7adb3b"}, "geometry": {"type": "Point", "coordinates": [-84.12281036376953, 33.348419189453125]}},
{"type": "Feature", "id": "vzzRZkodaDdBWaRWemXFVd1e7OU=", "properties": {"ref": "https://www.tangeroutlet.com/atlanticcity/location", "@spider": "tanger_outlet", "shop": "mall", "addr:full": "2014 Baltic Avenue", "addr:city": "Atlantic City", "addr:state": "NJ", "addr:postcode": "08401", "name": "Tanger Outlets", "website": "https://www.tangeroutlet.com/atlanticcity/location", "brand": "Tanger Outlet", "brand:wikidata": "Q7682888", "nsi_id": "tangeroutlets-7adb3b"}, "geometry": {"type": "Point", "coordinates": [-74.43533325195312, 39.360469818115234]}},
{"type": "Feature", "id": "hFacw2YVu2bxrb751qUiPEbrvFQ=", "properties": {"ref": "https://www.tangeroutlet.com/blowingrock/location", "@spider": "tanger_outlet", "shop": "mall", "addr:full": "278 Shoppes on the Parkway Road", "addr:city": "Blowing Rock", "addr:state": "NC", "addr:postcode": "28605", "name": "Tanger Outlets", "website": "https://www.tangeroutlet.com/blowingrock/location", "brand": "Tanger Outlet", "brand:wikidata": "Q7682888", "nsi_id": "tangeroutlets-7adb3b"}, "geometry": {"type": "Point", "coordinates": [-81.67073059082031, 36.14126968383789]}},
{"type": "Feature", "id": "GT_w8WZYs_JKHxa5e9-Z_b0ivFY=", "properties": {"ref": "https://www.tangeroutlet.com/branson/location", "@spider": "tanger_outlet", "shop": "mall", "addr:full": "300 Tanger Boulevard", "addr:city": "Branson", "addr:state": "MO", "addr:postcode": "65616", "name": "Tanger Outlets", "website": "https://www.tangeroutlet.com/branson/location", "brand": "Tanger Outlet", "brand:wikidata": "Q7682888", "nsi_id": "tangeroutlets-7adb3b"}, "geometry": {"type": "Point", "coordinates": [-93.26466369628906, 36.6449089050293]}},
{"type": "Feature", "id": "m_ehJG2XMjeyaNemINWsZL5qTqo=", "properties": {"ref": "https://www.tangeroutlet.com/charleston/location", "@spider": "tanger_outlet", "shop": "mall", "addr:full": "4840 Tanger Outlet Blvd.", "addr:city": "Charleston", "addr:state": "SC", "addr:postcode": "29418", "name": "Tanger Outlets", "website": "https://www.tangeroutlet.com/charleston/location", "brand": "Tanger Outlet", "brand:wikidata": "Q7682888", "nsi_id": "tangeroutlets-7adb3b"}, "geometry": {"type": "Point", "coordinates": [-80.01830291748047, 32.873409271240234]}},
{"type": "Feature", "id": "4SCyg2KwFJmaDP4lOQ_ruUwMDIE=", "properties": {"ref": "https://www.tangeroutlet.com/columbus/location", "@spider": "tanger_outlet", "shop": "mall", "addr:full": "400 South Wilson Rd.", "addr:city": "Columbus", "addr:state": "OH", "addr:postcode": "43074", "name": "Tanger Outlets", "website": "https://www.tangeroutlet.com/columbus/location", "brand": "Tanger Outlet", "brand:wikidata": "Q7682888", "nsi_id": "tangeroutlets-7adb3b"}, "geometry": {"type": "Point", "coordinates": [-82.92571258544922, 40.26041030883789]}},
{"type": "Feature", "id": "VpN7cdeLI4IzhGU-RHifCjMfKLU=", "properties": {"ref": "https://www.tangeroutlet.com/commerce/location", "@spider": "tanger_outlet", "shop": "mall", "addr:full": "800 Steven B Tanger Blvd", "addr:city": "Commerce", "addr:state": "GA", "addr:postcode": "30529", "name": "Tanger Outlets", "website": "https://www.tangeroutlet.com/commerce/location", "brand": "Tanger Outlet", "brand:wikidata": "Q7682888", "nsi_id": "tangeroutlets-7adb3b"}, "geometry": {"type": "Point", "coordinates": [-83.47355651855469, 34.2507209777832]}},
{"type": "Feature", "id": "wvAWRVD_bKxYDmiWc6xWGU__nbo=", "properties": {"ref": "https://www.tangeroutlet.com/cookstown/location", "@spider": "tanger_outlet", "shop": "mall", "addr:full": "3311 County Road 89", "addr:city": "Cookstown", "addr:state": "L0L", "addr:postcode": "1L0", "name": "Tanger Outlets", "website": "https://www.tangeroutlet.com/cookstown/location", "brand": "Tanger Outlet", "brand:wikidata": "Q7682888", "nsi_id": "tangeroutlets-7adb3b"}, "geometry": {"type": "Point", "coordinates": [-79.6521987915039, 44.200130462646484]}},
{"type": "Feature", "id": "jYcyhAaMGboLYcxX85beII7z1Sg=", "properties": {"ref": "https://www.tangeroutlet.com/daytona/location", "@spider": "tanger_outlet", "shop": "mall", "addr:full": "1100 Cornerstone Blvd.", "addr:city": "Daytona Beach", "addr:state": "FL", "addr:postcode": "32117", "name": "Tanger Outlets", "website": "https://www.tangeroutlet.com/daytona/location", "brand": "Tanger Outlet", "brand:wikidata": "Q7682888", "nsi_id": "tangeroutlets-7adb3b"}, "geometry": {"type": "Point", "coordinates": [-81.09874725341797, 29.2143497467041]}},
{"type": "Feature", "id": "NjKpymXXlx1hKMn-vHI8zdy1wGI=", "properties": {"ref": "https://www.tangeroutlet.com/deerpark/location", "@spider": "tanger_outlet", "shop": "mall", "addr:full": "152 The Arches Circle", "addr:city": "Deer Park", "addr:state": "NY", "addr:postcode": "11729", "name": "Tanger Outlets", "website": "https://www.tangeroutlet.com/deerpark/location", "brand": "Tanger Outlet", "brand:wikidata": "Q7682888", "nsi_id": "tangeroutlets-7adb3b"}, "geometry": {"type": "Point", "coordinates": [-73.30648803710938, 40.76409912109375]}},
{"type": "Feature", "id": "1VJVueFv3HPse4DosfV6TmY3EXg=", "properties": {"ref": "https://www.tangeroutlet.com/foley/location", "@spider": "tanger_outlet", "shop": "mall", "addr:full": "2601 S McKenzie Street", "addr:city": "Foley", "addr:state": "AL", "addr:postcode": "36535", "name": "Tanger Outlets", "website": "https://www.tangeroutlet.com/foley/location", "brand": "Tanger Outlet", "brand:wikidata": "Q7682888", "nsi_id": "tangeroutlets-7adb3b"}, "geometry": {"type": "Point", "coordinates": [-87.68025207519531, 30.376060485839844]}},
{"type": "Feature", "id": "FUw4OZJ6qoP4FN_2BRYGS_ZcDV8=", "properties": {"ref": "https://www.tangeroutlet.com/fortworth/location", "@spider": "tanger_outlet", "shop": "mall", "addr:full": "15853 North Freeway", "addr:city": "Fort Worth", "addr:state": "TX", "addr:postcode": "76177", "name": "Tanger Outlets", "website": "https://www.tangeroutlet.com/fortworth/location", "brand": "Tanger Outlet", "brand:wikidata": "Q7682888", "nsi_id": "tangeroutlets-7adb3b"}, "geometry": {"type": "Point", "coordinates": [-97.2824478149414, 33.02260971069336]}},
{"type": "Feature", "id": "D_EcHVHzjo4h1nqbP9cgEdUJO_U=", "properties": {"ref": "https://www.tangeroutlet.com/foxwoods/location", "@spider": "tanger_outlet", "shop": "mall", "addr:full": "455 Trolley Line Boulevard", "addr:city": "Foxwoods", "addr:state": "CT", "addr:postcode": "06338", "name": "Tanger Outlets", "website": "https://www.tangeroutlet.com/foxwoods/location", "brand": "Tanger Outlet", "brand:wikidata": "Q7682888", "nsi_id": "tangeroutlets-7adb3b"}, "geometry": {"type": "Point", "coordinates": [-71.96077728271484, 41.473968505859375]}},
{"type": "Feature", "id": "S2JHydvXuNUeuqbd8-QR_CQ1H3w=", "properties": {"ref": "https://www.tangeroutlet.com/gonzales/location", "@spider": "tanger_outlet", "shop": "mall", "addr:full": "2100 S. Tanger Blvd.", "addr:city": "Gonzales", "addr:state": "LA", "addr:postcode": "70737", "name": "Tanger Outlets", "website": "https://www.tangeroutlet.com/gonzales/location", "brand": "Tanger Outlet", "brand:wikidata": "Q7682888", "nsi_id": "tangeroutlets-7adb3b"}, "geometry": {"type": "Point", "coordinates": [-90.9522933959961, 30.21380043029785]}},
{"type": "Feature", "id": "HlNe8tDxotjlPTFHo8k4EHSxL-M=", "properties": {"ref": "https://www.tangeroutlet.com/grandrapids/location", "@spider": "tanger_outlet", "shop": "mall", "addr:full": "350 84th Street SW", "addr:city": "Grand Rapids", "addr:state": "MI", "addr:postcode": "49315", "name": "Tanger Outlets", "website": "https://www.tangeroutlet.com/grandrapids/location", "brand": "Tanger Outlet", "brand:wikidata": "Q7682888", "nsi_id": "tangeroutlets-7adb3b"}, "geometry": {"type": "Point", "coordinates": [-85.67130279541016, 42.809200286865234]}},
{"type": "Feature", "id": "vRiG3nnSgSeEYf5s3QG1YJu6YcQ=", "properties": {"ref": "https://www.tangeroutlet.com/hershey/location", "@spider": "tanger_outlet", "shop": "mall", "addr:full": "46 Outlet Square", "addr:city": "Hershey", "addr:state": "PA", "addr:postcode": "17033", "name": "Tanger Outlets", "website": "https://www.tangeroutlet.com/hershey/location", "brand": "Tanger Outlet", "brand:wikidata": "Q7682888", "nsi_id": "tangeroutlets-7adb3b"}, "geometry": {"type": "Point", "coordinates": [-76.64810180664062, 40.29534149169922]}},
{"type": "Feature", "id": "K0Nd2CzsdmPYKeMVw8dI33-9vw4=", "properties": {"ref": "https://www.tangeroutlet.com/hiltonhead/location", "@spider": "tanger_outlet", "shop": "mall", "addr:full": "1414 Fording Island Rd.", "addr:city": "Hilton Head", "addr:state": "SC", "addr:postcode": "29910", "name": "Tanger Outlets", "website": "https://www.tangeroutlet.com/hiltonhead/location", "brand": "Tanger Outlet", "brand:wikidata": "Q7682888", "nsi_id": "tangeroutlets-7adb3b"}, "geometry": {"type": "Point", "coordinates": [-80.83236694335938, 32.24589920043945]}},
{"type": "Feature", "id": "O8rM2Rc6-FdJKvxIZ9BiiHVQH3c=", "properties": {"ref": "https://www.tangeroutlet.com/houston/location", "@spider": "tanger_outlet", "shop": "mall", "addr:full": "5885 Gulf Freeway", "addr:city": "Houston", "addr:state": "TX", "addr:postcode": "77591", "name": "Tanger Outlets", "website": "https://www.tangeroutlet.com/houston/location", "brand": "Tanger Outlet", "brand:wikidata": "Q7682888", "nsi_id": "tangeroutlets-7adb3b"}, "geometry": {"type": "Point", "coordinates": [-95.05892181396484, 29.424739837646484]}},
{"type": "Feature", "id": "BXQt3VMH8XRuy9-b90iWCsjVE9c=", "properties": {"ref": "https://www.tangeroutlet.com/howell/location", "@spider": "tanger_outlet", "shop": "mall", "addr:full": "1475 N Burkhart Road", "addr:city": "Howell", "addr:state": "MI", "addr:postcode": "48855", "name": "Tanger Outlets", "website": "https://www.tangeroutlet.com/howell/location", "brand": "Tanger Outlet", "brand:wikidata": "Q7682888", "nsi_id": "tangeroutlets-7adb3b"}, "geometry": {"type": "Point", "coordinates": [-83.99714660644531, 42.62220001220703]}},
{"type": "Feature", "id": "C4G3VG1lYaEScrvy97F3Zg8gQsU=", "properties": {"ref": "https://www.tangeroutlet.com/lancaster/location", "@spider": "tanger_outlet", "shop": "mall", "addr:full": "312 Stanley K. Tanger Blvd", "addr:city": "Lancaster", "addr:state": "PA", "addr:postcode": "17602-1467", "name": "Tanger Outlets", "website": "https://www.tangeroutlet.com/lancaster/location", "brand": "Tanger Outlet", "brand:wikidata": "Q7682888", "nsi_id": "tangeroutlets-7adb3b"}, "geometry": {"type": "Point", "coordinates": [-76.2213363647461, 40.0257682800293]}},
{"type": "Feature", "id": "7Z8yWbEOpIHTiX65A_fzAUjb4rk=", "properties": {"ref": "https://www.tangeroutlet.com/mebane/location", "@spider": "tanger_outlet", "shop": "mall", "addr:full": "4000 Arrowhead Blvd.", "addr:city": "Mebane", "addr:state": "NC", "addr:postcode": "27302", "name": "Tanger Outlets", "website": "https://www.tangeroutlet.com/mebane/location", "brand": "Tanger Outlet", "brand:wikidata": "Q7682888", "nsi_id": "tangeroutlets-7adb3b"}, "geometry": {"type": "Point", "coordinates": [-79.26629638671875, 36.07640075683594]}},
{"type": "Feature", "id": "xNh5IaFwmy_Oo_Nk_LDheQvIgdE=", "properties": {"ref": "https://www.tangeroutlet.com/southaven/location", "@spider": "tanger_outlet", "shop": "mall", "addr:full": "5205 Airways Blvd.", "addr:city": "Memphis/Southaven", "addr:state": "MS", "addr:postcode": "38671", "name": "Tanger Outlets", "website": "https://www.tangeroutlet.com/southaven/location", "brand": "Tanger Outlet", "brand:wikidata": "Q7682888", "nsi_id": "tangeroutlets-7adb3b"}, "geometry": {"type": "Point", "coordinates": [-89.98905944824219, 34.93370819091797]}},
{"type": "Feature", "id": "tde-DGdUaeUxuC95waaokxsE5GU=", "properties": {"ref": "https://www.tangeroutlet.com/myrtlebeach17/location", "@spider": "tanger_outlet", "shop": "mall", "addr:full": "10835 Kings Road", "addr:city": "Myrtle Beach - Hwy 17", "addr:state": "SC", "addr:postcode": "29572", "name": "Tanger Outlets", "website": "https://www.tangeroutlet.com/myrtlebeach17/location", "brand": "Tanger Outlet", "brand:wikidata": "Q7682888", "nsi_id": "tangeroutlets-7adb3b"}, "geometry": {"type": "Point", "coordinates": [-78.77461242675781, 33.7841911315918]}},
{"type": "Feature", "id": "APPkbZJFh9YCZr9kzZFWIL3yl-0=", "properties": {"ref": "https://www.tangeroutlet.com/myrtlebeach501/location", "@spider": "tanger_outlet", "shop": "mall", "addr:full": "4635 Factory Stores Blvd", "addr:city": "Myrtle Beach - Hwy 501", "addr:state": "SC", "addr:postcode": "29579", "name": "Tanger Outlets", "website": "https://www.tangeroutlet.com/myrtlebeach501/location", "brand": "Tanger Outlet", "brand:wikidata": "Q7682888", "nsi_id": "tangeroutlets-7adb3b"}, "geometry": {"type": "Point", "coordinates": [-78.95805358886719, 33.751190185546875]}},
{"type": "Feature", "id": "i6thoxMAmY-b3Q8zvOBMav-7wpE=", "properties": {"ref": "https://www.tangeroutlet.com/nationalharbor/location", "@spider": "tanger_outlet", "shop": "mall", "addr:full": "6800 Oxon Hill Road", "addr:city": "National Harbor/Washington DC", "addr:state": "MD", "addr:postcode": "20745", "name": "Tanger Outlets", "website": "https://www.tangeroutlet.com/nationalharbor/location", "brand": "Tanger Outlet", "brand:wikidata": "Q7682888", "nsi_id": "tangeroutlets-7adb3b"}, "geometry": {"type": "Point", "coordinates": [-77.00100708007812, 38.79553985595703]}},
{"type": "Feature", "id": "3NhvfTI8dEGt2Nd_8O9A0jUwMzQ=", "properties": {"ref": "https://www.tangeroutlet.com/ottawa/location", "@spider": "tanger_outlet", "shop": "mall", "addr:full": "8555 Campeau Drive", "addr:city": "Ottawa", "addr:state": "K2T", "addr:postcode": "0K5", "name": "Tanger Outlets", "website": "https://www.tangeroutlet.com/ottawa/location", "brand": "Tanger Outlet", "brand:wikidata": "Q7682888", "nsi_id": "tangeroutlets-7adb3b"}, "geometry": {"type": "Point", "coordinates": [-75.9365463256836, 45.296749114990234]}},
{"type": "Feature", "id": "L1xNRNWydfhwRD_CQHaZu3YETa0=", "properties": {"ref": "https://www.tangeroutlet.com/palmbeach/location", "@spider": "tanger_outlet", "shop": "mall", "addr:full": "1751 Palm Beach Lakes Blvd", "addr:city": "Palm Beach", "addr:state": "FL", "addr:postcode": "33401", "name": "Tanger Outlets", "website": "https://www.tangeroutlet.com/palmbeach/location", "brand": "Tanger Outlet", "brand:wikidata": "Q7682888", "nsi_id": "tangeroutlets-7adb3b"}, "geometry": {"type": "Point", "coordinates": [-80.08999633789062, 26.725650787353516]}},
{"type": "Feature", "id": "_TeH1s1ZyWZ8eLfH-KeSPpfab1g=", "properties": {"ref": "https://www.tangeroutlet.com/glendale/location", "@spider": "tanger_outlet", "shop": "mall", "addr:full": "6800 N. 95th Avenue", "addr:city": "Phoenix/Glendale", "addr:state": "AZ", "addr:postcode": "85305", "name": "Tanger Outlets", "website": "https://www.tangeroutlet.com/glendale/location", "brand": "Tanger Outlet", "brand:wikidata": "Q7682888", "nsi_id": "tangeroutlets-7adb3b"}, "geometry": {"type": "Point", "coordinates": [-112.2667007446289, 33.53466033935547]}},
{"type": "Feature", "id": "U5HNJKcjabGx9v13rBXvmA7Fc50=", "properties": {"ref": "https://www.tangeroutlet.com/pittsburgh/location", "@spider": "tanger_outlet", "shop": "mall", "addr:full": "2200 Tanger Boulevard", "addr:city": "Pittsburgh", "addr:state": "PA", "addr:postcode": "15301", "name": "Tanger Outlets", "website": "https://www.tangeroutlet.com/pittsburgh/location", "brand": "Tanger Outlet", "brand:wikidata": "Q7682888", "nsi_id": "tangeroutlets-7adb3b"}, "geometry": {"type": "Point", "coordinates": [-80.20916748046875, 40.21736145019531]}},
{"type": "Feature", "id": "QHrWVq7BqfavfzZ5hzqab9bwtzA=", "properties": {"ref": "https://www.tangeroutlet.com/rehoboth/location", "@spider": "tanger_outlet", "shop": "mall", "addr:full": "36470 Seaside Outlet Drive", "addr:city": "Rehoboth Beach", "addr:state": "DE", "addr:postcode": "19971", "name": "Tanger Outlets", "website": "https://www.tangeroutlet.com/rehoboth/location", "brand": "Tanger Outlet", "brand:wikidata": "Q7682888", "nsi_id": "tangeroutlets-7adb3b"}, "geometry": {"type": "Point", "coordinates": [-75.1134033203125, 38.71915054321289]}},
{"type": "Feature", "id": "J3-PgJE64BlWRdVlhK9svJRAqzg=", "properties": {"ref": "https://www.tangeroutlet.com/riverhead/location", "@spider": "tanger_outlet", "shop": "mall", "addr:full": "200 Tanger Mall Drive", "addr:city": "Riverhead", "addr:state": "NY", "addr:postcode": "11901", "name": "Tanger Outlets", "website": "https://www.tangeroutlet.com/riverhead/location", "brand": "Tanger Outlet", "brand:wikidata": "Q7682888", "nsi_id": "tangeroutlets-7adb3b"}, "geometry": {"type": "Point", "coordinates": [-72.71296691894531, 40.92177963256836]}},
{"type": "Feature", "id": "QVBs98deBQkYd5oSl8Nnjr34TGk=", "properties": {"ref": "https://www.tangeroutlet.com/sanmarcos/location", "@spider": "tanger_outlet", "shop": "mall", "addr:full": "4015 I-35 South", "addr:city": "San Marcos", "addr:state": "TX", "addr:postcode": "78666", "name": "Tanger Outlets", "website": "https://www.tangeroutlet.com/sanmarcos/location", "brand": "Tanger Outlet", "brand:wikidata": "Q7682888", "nsi_id": "tangeroutlets-7adb3b"}, "geometry": {"type": "Point", "coordinates": [-97.9875717163086, 29.824539184570312]}},
{"type": "Feature", "id": "wSotsGZQtQV80ENbjpXUFv3aHl8=", "properties": {"ref": "https://www.tangeroutlet.com/savannah/location", "@spider": "tanger_outlet", "shop": "mall", "addr:full": "200 Tanger Outlet Blvd", "addr:city": "Savannah", "addr:state": "GA", "addr:postcode": "31322", "name": "Tanger Outlets", "website": "https://www.tangeroutlet.com/savannah/location", "brand": "Tanger Outlet", "brand:wikidata": "Q7682888", "nsi_id": "tangeroutlets-7adb3b"}, "geometry": {"type": "Point", "coordinates": [-81.24281311035156, 32.135860443115234]}},
{"type": "Feature", "id": "pizsjh0PC1_HcCKEFUNIMzSXhR8=", "properties": {"ref": "https://www.tangeroutlet.com/sevierville/location", "@spider": "tanger_outlet", "shop": "mall", "addr:full": "1645 Parkway, Suite 960", "addr:city": "Sevierville", "addr:state": "TN", "addr:postcode": "37862", "name": "Tanger Outlets", "website": "https://www.tangeroutlet.com/sevierville/location", "brand": "Tanger Outlet", "brand:wikidata": "Q7682888", "nsi_id": "tangeroutlets-7adb3b"}, "geometry": {"type": "Point", "coordinates": [-83.57015228271484, 35.83224868774414]}},
{"type": "Feature", "id": "44JRmctNd1XiEgiejwKl_-qS1t4=", "properties": {"ref": "https://www.tangeroutlet.com/tilton/location", "@spider": "tanger_outlet", "shop": "mall", "addr:full": "120 Laconia Road", "addr:city": "Tilton", "addr:state": "NH", "addr:postcode": "03276", "name": "Tanger Outlets", "website": "https://www.tangeroutlet.com/tilton/location", "brand": "Tanger Outlet", "brand:wikidata": "Q7682888", "nsi_id": "tangeroutlets-7adb3b"}, "geometry": {"type": "Point", "coordinates": [-71.5617904663086, 43.4588508605957]}}]}