{"type":"FeatureCollection","features":[{"type": "Feature", "id": "tqOePxlB0Nx66JKGyWsCDcHgTsk=", "properties": {"ref": "001-T-5045", "amenity:fuel": true, "fuel:diesel:class2": true, "fuel:diesel": true, "fuel:HGV_diesel": true, "fuel:lng": false, "fuel:propane": false, "hgv": true, "@spider": "tapetro", "addr:full": "100 North Carter Rd.", "addr:city": "Ashland", "addr:state": "VA", "addr:postcode": "23005-0712", "name": "TA Ashland", "phone": "804-798-6011", "brand": "TravelCenters of America", "brand:wikidata": "Q7835892"}, "geometry": {"type": "Point", "coordinates": [-77.4631, 37.7589]}},
{"type": "Feature", "id": "EzOYw7QNmvIHIfThJ7ue2qrZsRM=", "properties": {"ref": "002-T-5025", "amenity:fuel": true, "fuel:diesel:class2": true, "fuel:diesel": true, "fuel:HGV_diesel": true, "fuel:lng": false, "fuel:propane": false, "hgv": true, "@spider": "tapetro", "addr:full": "1101 NC Highway 61", "addr:city": "Whitsett", "addr:state": "NC", "addr:postcode": "27377-0218", "name": "TA Greensboro", "phone": "336-449-6060", "brand": "TravelCenters of America", "brand:wikidata": "Q7835892"}, "geometry": {"type": "Point", "coordinates": [-79.5636, 36.0635]}},
{"type": "Feature", "id": "QadU2jr-Zo9w0icY6_UV5_hIs_8=", "properties": {"ref": "003-T-5036", "amenity:fuel": true, "fuel:diesel:class2": true, "fuel:diesel": true, "fuel:HGV_diesel": true, "fuel:lng": false, "fuel:propane": false, "hgv": true, "@spider": "tapetro", "addr:full": "245 Allegheny Blvd.", "addr:city": "Brookville", "addr:state": "PA", "addr:postcode": "15825-8211", "name": "TA Brookville", "phone": "814-849-3051", "brand": "TravelCenters of America", "brand:wikidata": "Q7835892"}, "geometry": {"type": "Point", "coordinates": [-79.0992, 41.1729]}},
{"type": "Feature", "id": "_H1H1v87A7Wi9PzzPGfI_S_MCbA=", "properties": {"ref": "006-T-5022", "amenity:fuel": true, "fuel:diesel:class2": true, "fuel:diesel": true, "fuel:HGV_diesel": true, "fuel:lng": false, "fuel:propane": false, "hgv": true, "@spider": "tapetro", "addr:full": "2 Simpson Road", "addr:city": "Columbia", "addr:state": "NJ", "addr:postcode": "07832-0305", "name": "TA Columbia Dedication: Norman Knight ", "phone": "908-496-4124", "brand": "TravelCenters of America", "brand:wikidata": "Q7835892"}, "geometry": {"type": "Point", "coordinates": [-75.0969, 40.9317]}},
{"type": "Feature", "id": "YLAx-S6Mso-4MbFbaGjskVL8Sho=", "properties": {"ref": "007-T-5002", "amenity:fuel": true, "fuel:diesel:class2": true, "fuel:diesel": true, "fuel:HGV_diesel": true, "fuel:lng": false, "fuel:propane": false, "hgv": true, "@spider": "tapetro", "addr:full": "2949 North Toltec Road", "addr:city": "Eloy ", "addr:state": "AZ", "addr:postcode": "85131", "name": "TA Eloy", "phone": "520-466-7363", "brand": "TravelCenters of America", "brand:wikidata": "Q7835892"}, "geometry": {"type": "Point", "coordinates": [-111.6178, 32.7737]}},
{"type": "Feature", "id": "QW37_ANxWtskAdvVbazpNn9fQTk=", "properties": {"ref": "008-T-5024", "amenity:fuel": true, "fuel:diesel:class2": true, "fuel:diesel": true, "fuel:HGV_diesel": true, "fuel:lng": false, "fuel:propane": false, "hgv": true, "@spider": "tapetro", "addr:full": "3404 W Historical Hwy 66", "addr:city": "Gallup", "addr:state": "NM", "addr:postcode": "87301-6841", "name": "TA Gallup", "phone": "505-863-6801", "brand": "TravelCenters of America", "brand:wikidata": "Q7835892"}, "geometry": {"type": "Point", "coordinates": [-108.8359, 35.5059]}},
{"type": "Feature", "id": "5EH1zFPoo-bBENXffX2TQZ21Yy4=", "properties": {"ref": "010-T-5013", "amenity:fuel": true, "fuel:diesel:class2": true, "fuel:diesel": true, "fuel:HGV_diesel": true, "fuel:lng": false, "fuel:propane": false, "hgv": true, "@spider": "tapetro", "addr:full": "2510 Burr St.", "addr:city": "Gary", "addr:state": "IN", "addr:postcode": "46406", "name": "TA Gary", "phone": "219-845-3721", "brand": "TravelCenters of America", "brand:wikidata": "Q7835892"}, "geometry": {"type": "Point", "coordinates": [-87.4045, 41.573]}},
{"type": "Feature", "id": "SDca3mcCZ7SM5JnSPdCke4Rlr9Y=", "properties": {"ref": "011-T-5028", "amenity:fuel": true, "fuel:diesel:class2": true, "fuel:diesel": true, "fuel:HGV_diesel": true, "fuel:lng": false, "fuel:propane": false, "hgv": true, "@spider": "tapetro", "addr:full": "6762 US Rte 127 N.", "addr:city": "Eaton", "addr:state": "OH", "addr:postcode": "45320-0030", "name": "TA Dayton", "phone": "937-456-5522", "brand": "TravelCenters of America", "brand:wikidata": "Q7835892"}, "geometry": {"type": "Point", "coordinates": [-84.6282, 39.84]}},
{"type": "Feature", "id": "9SunxL-YFdgUs97Ktlfrcm6Ifv4=", "properties": {"ref": "012-T-5037", "amenity:fuel": true, "fuel:diesel:class2": true, "fuel:diesel": true, "fuel:HGV_diesel": true, "fuel:lng": false, "fuel:propane": false, "hgv": true, "@spider": "tapetro", "addr:full": "7848 Linglestown Road", "addr:city": "Harrisburg", "addr:state": "PA", "addr:postcode": "17112-0535", "name": "TA Harrisburg", "phone": "717-652-4556", "brand": "TravelCenters of America", "brand:wikidata": "Q7835892"}, "geometry": {"type": "Point", "coordinates": [-76.7241, 40.355]}},
{"type": "Feature", "id": "CVB0OCrWU68XqNyS9xcSwKBHwso=", "properties": {"ref": "013-T-5040", "amenity:fuel": true, "fuel:diesel:class2": true, "fuel:diesel": true, "fuel:HGV_diesel": true, "fuel:lng": false, "fuel:propane": false, "hgv": true, "@spider": "tapetro", "addr:full": "608 Lovell Road", "addr:city": "Knoxville ", "addr:state": "TN", "addr:postcode": "37932-3297", "name": "TA Knoxvillle East", "phone": "865-966-6781", "brand": "TravelCenters of America", "brand:wikidata": "Q7835892"}, "geometry": {"type": "Point", "coordinates": [-84.1473, 35.9096]}},
{"type": "Feature", "id": "Dst6X-6-Q1-ptWWzOxpKm2a01y0=", "properties": {"ref": "014-T-5003", "amenity:fuel": true, "fuel:diesel:class2": true, "fuel:diesel": true, "fuel:HGV_diesel": true, "fuel:lng": false, "fuel:propane": false, "hgv": true, "@spider": "tapetro", "addr:full": "202 N. Motel Blvd", "addr:city": "Las Cruces", "addr:state": "NM", "addr:postcode": "88005-4113", "name": "TA Las Cruces", "phone": "575-527-7400", "brand": "TravelCenters of America", "brand:wikidata": "Q7835892"}, "geometry": {"type": "Point", "coordinates": [-106.8115, 32.2977]}},
{"type": "Feature", "id": "PoGZMd6mclFIEoe53e_1zR-Wma4=", "properties": {"ref": "015-T-5030", "amenity:fuel": true, "fuel:diesel:class2": true, "fuel:diesel": true, "fuel:HGV_diesel": true, "fuel:lng": false, "fuel:propane": false, "hgv": true, "@spider": "tapetro", "addr:full": "8834 Lake Road", "addr:city": "Seville", "addr:state": "OH", "addr:postcode": "44273-0125", "name": "TA Lodi", "phone": "330-769-2053", "brand": "TravelCenters of America", "brand:wikidata": "Q7835892"}, "geometry": {"type": "Point", "coordinates": [-81.9078, 41.0322]}},
{"type": "Feature", "id": "LkmpVff3XP-CVIzJJ6R52sysPnI=", "properties": {"ref": "016-T-5005", "amenity:fuel": true, "fuel:diesel:class2": true, "fuel:diesel": true, "fuel:HGV_diesel": true, "fuel:lng": false, "fuel:propane": false, "hgv": true, "@spider": "tapetro", "addr:full": "3501 Buttermilk Road", "addr:city": "Cottondale", "addr:state": "AL", "addr:postcode": "35453-9364", "name": "TA Tuscaloosa", "phone": "205-554-0215", "brand": "TravelCenters of America", "brand:wikidata": "Q7835892"}, "geometry": {"type": "Point", "coordinates": [-87.4462, 33.1759]}},
{"type": "Feature", "id": "ELQT2OTC4kri3Q87goy3HJB-_yE=", "properties": {"ref": "017-T-5044", "amenity:fuel": true, "fuel:diesel:class2": true, "fuel:diesel": true, "fuel:HGV_diesel": true, "fuel:lng": true, "fuel:propane": false, "hgv": true, "@spider": "tapetro", "addr:full": "6800 Thompson Road", "addr:city": "Baytown", "addr:state": "TX", "addr:postcode": "77522", "name": "TA Baytown", "phone": "281-424-7772", "brand": "TravelCenters of America", "brand:wikidata": "Q7835892"}, "geometry": {"type": "Point", "coordinates": [-95.0311, 29.7967]}},
{"type": "Feature", "id": "2LsAktfUA3JuThnzzsJTWubB0kA=", "properties": {"ref": "018-T-5020", "amenity:fuel": true, "fuel:diesel:class2": true, "fuel:diesel": true, "fuel:HGV_diesel": true, "fuel:lng": false, "fuel:propane": false, "hgv": true, "@spider": "tapetro", "addr:full": "102 N W 4th Street", "addr:city": "Concordia", "addr:state": "MO", "addr:postcode": "64020-0745", "name": "TA Concordia", "phone": "660-463-2001", "brand": "TravelCenters of America", "brand:wikidata": "Q7835892"}, "geometry": {"type": "Point", "coordinates": [-93.5678, 38.9941]}},
{"type": "Feature", "id": "3IaHuTxxCfu3fBDqr8_-YTakpxk=", "properties": {"ref": "019-T-0214", "amenity:fuel": true, "fuel:diesel:class2": true, "fuel:diesel": true, "fuel:HGV_diesel": true, "fuel:lng": false, "fuel:propane": false, "hgv": true, "@spider": "tapetro", "addr:full": "1400 Elkton Road", "addr:city": "Elkton", "addr:state": "MD", "addr:postcode": "21921", "name": "TA Elkton", "phone": "410-398-7000", "brand": "TravelCenters of America", "brand:wikidata": "Q7835892"}, "geometry": {"type": "Point", "coordinates": [-75.7974, 39.6436]}},
{"type": "Feature", "id": "yBnujewhW1SaFg652ThGLKFnXyI=", "properties": {"ref": "022-T-5009", "amenity:fuel": true, "fuel:diesel:class2": true, "fuel:diesel": true, "fuel:HGV_diesel": true, "fuel:lng": false, "fuel:propane": false, "hgv": true, "@spider": "tapetro", "addr:full": "327 Ruby Road", "addr:city": "Willington", "addr:state": "CT", "addr:postcode": "06279", "name": "TA Willington Dedication: Robert Fernald", "phone": "860-684-0499", "brand": "TravelCenters of America", "brand:wikidata": "Q7835892"}, "geometry": {"type": "Point", "coordinates": [-72.2615, 41.9177]}},
{"type": "Feature", "id": "CGLp-B8FmuaeR_R5uxJVOYi1hS4=", "properties": {"ref": "023-T-5004", "amenity:fuel": true, "fuel:diesel:class2": true, "fuel:diesel": true, "fuel:HGV_diesel": true, "fuel:lng": false, "fuel:propane": false, "hgv": true, "@spider": "tapetro", "addr:full": "2634 Historic Route 66", "addr:city": "Santa Rosa", "addr:state": "NM", "addr:postcode": "88435-0372", "name": "TA Santa Rosa", "phone": "575-472-3432", "brand": "TravelCenters of America", "brand:wikidata": "Q7835892"}, "geometry": {"type": "Point", "coordinates": [-104.6407, 34.9443]}},
{"type": "Feature", "id": "K7Z7SUck2XtmfFI7HFXr-ZmEvqg=", "properties": {"ref": "024-T-0118", "amenity:fuel": true, "fuel:diesel:class2": true, "fuel:diesel": true, "fuel:HGV_diesel": true, "fuel:lng": false, "fuel:propane": false, "hgv": true, "@spider": "tapetro", "addr:full": "940 US RT 42 NE", "addr:city": "London", "addr:state": "OH", "addr:postcode": "43140-0560", "name": "TA London", "phone": "740-852-3810", "brand": "TravelCenters of America", "brand:wikidata": "Q7835892"}, "geometry": {"type": "Point", "coordinates": [-83.3796, 39.9538]}},
{"type": "Feature", "id": "4xpGII5mBOj2FD8ClJ8xrpfr7WA=", "properties": {"ref": "025-T-5039", "amenity:fuel": true, "fuel:diesel:class2": true, "fuel:diesel": true, "fuel:HGV_diesel": true, "fuel:lng": false, "fuel:propane": false, "hgv": true, "@spider": "tapetro", "addr:full": "1402 East Main St.", "addr:city": "Duncan", "addr:state": "SC", "addr:postcode": "29334-9647", "name": "TA Spartanburg", "phone": "864-433-0711", "brand": "TravelCenters of America", "brand:wikidata": "Q7835892"}, "geometry": {"type": "Point", "coordinates": [-82.11, 34.914]}},
{"type": "Feature", "id": "itS_CholgQ69gfhyZSRDvSMMhL4=", "properties": {"ref": "026-P-5007", "amenity:fuel": true, "fuel:diesel:class2": true, "fuel:diesel": true, "fuel:HGV_diesel": true, "fuel:lng": true, "fuel:propane": false, "hgv": true, "@spider": "tapetro", "addr:full": "4325 E. Guasti Road", "addr:city": "Ontario   ", "addr:state": "CA", "addr:postcode": "91761-7807", "name": "Petro Ontario Dedication: Shawn Hubbard ", "phone": "909-390-7800", "brand": "Petro", "brand:wikidata": "Q7835892"}, "geometry": {"type": "Point", "coordinates": [-117.5566, 34.0647]}},
{"type": "Feature", "id": "EreeUMIj6d7-26-CkwdGwuJKbgE=", "properties": {"ref": "028-T-5017", "amenity:fuel": true, "fuel:diesel:class2": false, "fuel:diesel": true, "fuel:HGV_diesel": true, "fuel:lng": false, "fuel:propane": false, "hgv": true, "@spider": "tapetro", "addr:full": "145 Richwood Road", "addr:city": "Walton", "addr:state": "KY", "addr:postcode": "41094-9526", "name": "TA Walton", "phone": "859-485-4111", "brand": "TravelCenters of America", "brand:wikidata": "Q7835892"}, "geometry": {"type": "Point", "coordinates": [-84.6266, 38.9172]}},
{"type": "Feature", "id": "M9wGQ3ymwZoUmowjrmz04XvtkY8=", "properties": {"ref": "029-T-0189", "amenity:fuel": true, "fuel:diesel:class2": true, "fuel:diesel": true, "fuel:HGV_diesel": true, "fuel:lng": false, "fuel:propane": false, "hgv": true, "@spider": "tapetro", "addr:full": "5551 St Rt 193", "addr:city": "Kingsville", "addr:state": "OH", "addr:postcode": "44048", "name": "TA Kingsville", "phone": "440-224-2035", "brand": "TravelCenters of America", "brand:wikidata": "Q7835892"}, "geometry": {"type": "Point", "coordinates": [-80.6671, 41.8765]}},
{"type": "Feature", "id": "yNS6jDzH-KwIk6IuryHByKNIXv4=", "properties": {"ref": "030-T-5012", "amenity:fuel": true, "fuel:diesel:class2": true, "fuel:diesel": true, "fuel:HGV_diesel": true, "fuel:lng": false, "fuel:propane": false, "hgv": true, "@spider": "tapetro", "addr:full": "16650 W. Russell Rd.", "addr:city": "Zion", "addr:state": "IL", "addr:postcode": "60099", "name": "TA Chicago North Dedication: Kenn & Elizabeth Zelten", "phone": "847-395-5580", "brand": "TravelCenters of America", "brand:wikidata": "Q7835892"}, "geometry": {"type": "Point", "coordinates": [-87.951, 42.4857]}},
{"type": "Feature", "id": "M3__p_25XrjUKbFYSLBLArxaxDU=", "properties": {"ref": "032-T-5047", "amenity:fuel": true, "fuel:diesel:class2": true, "fuel:diesel": true, "fuel:HGV_diesel": true, "fuel:lng": false, "fuel:propane": false, "hgv": true, "@spider": "tapetro", "addr:full": "270 W. Alexander Rd.", "addr:city": "Valley Grove", "addr:state": "WV", "addr:postcode": "26060-8025", "name": "TA Wheeling", "phone": "304-547-1521", "brand": "TravelCenters of America", "brand:wikidata": "Q7835892"}, "geometry": {"type": "Point", "coordinates": [-80.5677, 40.0694]}},
{"type": "Feature", "id": "_ciQQi4PwelOtHcZdxRPeYl-oYU=", "properties": {"ref": "033-T-5006", "amenity:fuel": true, "fuel:diesel:class2": true, "fuel:diesel": true, "fuel:HGV_diesel": true, "fuel:lng": false, "fuel:propane": false, "hgv": true, "@spider": "tapetro", "addr:full": "408 Highway 149 North", "addr:city": "Earle", "addr:state": "AR", "addr:postcode": "72331", "name": "TA Earle", "phone": "870-657-2105", "brand": "TravelCenters of America", "brand:wikidata": "Q7835892"}, "geometry": {"type": "Point", "coordinates": [-90.4881, 35.1364]}},
{"type": "Feature", "id": "_YaB6bjc8GHKTih-Qr54She44mE=", "properties": {"ref": "034-T-5041", "amenity:fuel": true, "fuel:diesel:class2": true, "fuel:diesel": true, "fuel:HGV_diesel": true, "fuel:lng": false, "fuel:propane": false, "hgv": true, "@spider": "tapetro", "addr:full": "111 N. First St.", "addr:city": "Nashville", "addr:state": "TN", "addr:postcode": "37213", "name": "TA Nashville Dedication: Candy Bass ", "phone": "615-244-3682", "brand": "TravelCenters of America", "brand:wikidata": "Q7835892"}, "geometry": {"type": "Point", "coordinates": [-86.7721, 36.1716]}},
{"type": "Feature", "id": "JRV00YVHTED2yz0G7GHACWUS0Y4=", "properties": {"ref": "035-T-5001", "amenity:fuel": true, "fuel:diesel:class2": true, "fuel:diesel": true, "fuel:HGV_diesel": true, "fuel:lng": false, "fuel:propane": false, "hgv": true, "@spider": "tapetro", "addr:full": "1702 West Evergreen Ave", "addr:city": "Effingham ", "addr:state": "IL", "addr:postcode": "62401-1388", "name": "TA Effingham", "phone": "217-347-7183", "brand": "TravelCenters of America", "brand:wikidata": "Q7835892"}, "geometry": {"type": "Point", "coordinates": [-88.5662, 39.1364]}},
{"type": "Feature", "id": "FXcyrDsj9Ywal50d4Rf1y4QSB3U=", "properties": {"ref": "036-T-5032", "amenity:fuel": true, "fuel:diesel:class2": true, "fuel:diesel": true, "fuel:HGV_diesel": true, "fuel:lng": false, "fuel:propane": false, "hgv": true, "@spider": "tapetro", "addr:full": "801 South Council Road", "addr:city": "Oklahoma City", "addr:state": "OK", "addr:postcode": "73128-4218", "name": "TA Oklahoma City East", "phone": "405-787-7411", "brand": "TravelCenters of America", "brand:wikidata": "Q7835892"}, "geometry": {"type": "Point", "coordinates": [-97.6556, 35.458]}},
{"type": "Feature", "id": "SIr2AfKj4g-GLAyFj86EaaxaS-8=", "properties": {"ref": "039-T-0186", "amenity:fuel": true, "fuel:diesel:class2": true, "fuel:diesel": true, "fuel:HGV_diesel": true, "fuel:lng": false, "fuel:propane": false, "hgv": true, "@spider": "tapetro", "addr:full": "10679 Lancaster Rd.", "addr:city": "Hebron", "addr:state": "OH", "addr:postcode": "43025-0520", "name": "TA Hebron Dedication: Michael Eugene Zanella", "phone": "740-467-2900", "brand": "TravelCenters of America", "brand:wikidata": "Q7835892"}, "geometry": {"type": "Point", "coordinates": [-82.5349, 39.9389]}},
{"type": "Feature", "id": "QSZudVgNm82ySAn-ZyovRRrUxT0=", "properties": {"ref": "040-T-5051", "amenity:fuel": true, "fuel:diesel:class2": true, "fuel:diesel": true, "fuel:HGV_diesel": true, "fuel:lng": false, "fuel:propane": true, "hgv": true, "@spider": "tapetro", "addr:full": "3524 South Highway 99 W", "addr:city": "Corning   ", "addr:state": "CA", "addr:postcode": "96021", "name": "TA Corning", "phone": "530-824-4646", "brand": "TravelCenters of America", "brand:wikidata": "Q7835892"}, "geometry": {"type": "Point", "coordinates": [-122.1985, 39.9042]}},
{"type": "Feature", "id": "ELDjz8aiwz7uc0MYrA_DFky--U0=", "properties": {"ref": "041-T-5050", "amenity:fuel": true, "fuel:diesel:class2": true, "fuel:diesel": true, "fuel:HGV_diesel": true, "fuel:lng": false, "fuel:propane": true, "hgv": true, "@spider": "tapetro", "addr:full": "46155 Dillon Road", "addr:city": "Coachella", "addr:state": "CA", "addr:postcode": "92236", "name": "TA Coachella", "phone": "760-342-6200", "brand": "TravelCenters of America", "brand:wikidata": "Q7835892"}, "geometry": {"type": "Point", "coordinates": [-116.1756, 33.7139]}},
{"type": "Feature", "id": "zrceCMvJaZaui9rrQqhPTlMBZao=", "properties": {"ref": "043-T-0319", "amenity:fuel": true, "fuel:diesel:class2": true, "fuel:diesel": true, "fuel:HGV_diesel": true, "fuel:lng": false, "fuel:propane": false, "hgv": true, "@spider": "tapetro", "addr:full": "4510 Broadway St", "addr:city": "Mt. Vernon", "addr:state": "IL", "addr:postcode": "62864", "name": "TA Mt. Vernon", "phone": "618-244-4242", "brand": "TravelCenters of America", "brand:wikidata": "Q7835892"}, "geometry": {"type": "Point", "coordinates": [-88.9594, 38.3134]}},
{"type": "Feature", "id": "DHwJhkiLntdh4h7qGsNLY6rjaVQ=", "properties": {"ref": "044-T-0342", "amenity:fuel": true, "fuel:diesel:class2": true, "fuel:diesel": true, "fuel:HGV_diesel": true, "fuel:lng": false, "fuel:propane": false, "hgv": true, "@spider": "tapetro", "addr:full": "19 N 430 US Highway 20", "addr:city": "Hampshire", "addr:state": "IL", "addr:postcode": "60140", "name": "TA Elgin", "phone": "847-683-4550", "brand": "TravelCenters of America", "brand:wikidata": "Q7835892"}, "geometry": {"type": "Point", "coordinates": [-88.5095, 42.1451]}},
{"type": "Feature", "id": "nxl-PXZ2zSEqndgmOP5PShOl26Q=", "properties": {"ref": "045-T-0676", "amenity:fuel": true, "fuel:diesel:class2": true, "fuel:diesel": true, "fuel:HGV_diesel": true, "fuel:lng": false, "fuel:propane": false, "hgv": true, "@spider": "tapetro", "addr:full": "2021 Eatonton Rd.", "addr:city": "Madison ", "addr:state": "GA", "addr:postcode": "30650", "name": "TA Madison", "phone": "706-342-4176", "brand": "TravelCenters of America", "brand:wikidata": "Q7835892"}, "geometry": {"type": "Point", "coordinates": [-83.4748, 33.5524]}},
{"type": "Feature", "id": "gDWHPvOcC-9DLVdaqqw-OazZ5Wk=", "properties": {"ref": "046-T-0785", "amenity:fuel": true, "fuel:diesel:class2": true, "fuel:diesel": true, "fuel:HGV_diesel": true, "fuel:lng": false, "fuel:propane": false, "hgv": true, "@spider": "tapetro", "addr:full": "224 Highway 65 South", "addr:city": "Tallulah", "addr:state": "LA", "addr:postcode": "71282", "name": "TA Tallulah", "phone": "318-574-5900", "brand": "TravelCenters of America", "brand:wikidata": "Q7835892"}, "geometry": {"type": "Point", "coordinates": [-91.2006, 32.3886]}},
{"type": "Feature", "id": "odiAbH9Xsc-jE-dm3MTvB6iaQ0M=", "properties": {"ref": "047-T-0756", "amenity:fuel": true, "fuel:diesel:class2": true, "fuel:diesel": true, "fuel:HGV_diesel": true, "fuel:lng": false, "fuel:propane": true, "hgv": true, "@spider": "tapetro", "addr:full": "2150 Russell Mt. Gilead Road", "addr:city": "Meridian", "addr:state": "MS", "addr:postcode": "39301", "name": "TA Meridian", "phone": "601-483-7611", "brand": "TravelCenters of America", "brand:wikidata": "Q7835892"}, "geometry": {"type": "Point", "coordinates": [-88.5826, 32.3962]}},
{"type": "Feature", "id": "3bw3vjDh6B8YbkTlK8Tr10VcU3U=", "properties": {"ref": "048-T-0212", "amenity:fuel": true, "fuel:diesel:class2": true, "fuel:diesel": true, "fuel:HGV_diesel": true, "fuel:lng": false, "fuel:propane": false, "hgv": true, "@spider": "tapetro", "addr:full": "975 S.R. 173", "addr:city": "Bloomsbury", "addr:state": "NJ", "addr:postcode": "08804", "name": "TA Bloomsbury", "phone": "908-479-4136", "brand": "TravelCenters of America", "brand:wikidata": "Q7835892"}, "geometry": {"type": "Point", "coordinates": [-75.075, 40.6594]}},
{"type": "Feature", "id": "IlnihjGvRcN_l3KNDolw5nh_0do=", "properties": {"ref": "049-T-0729", "amenity:fuel": true, "fuel:diesel:class2": false, "fuel:diesel": true, "fuel:HGV_diesel": true, "fuel:lng": false, "fuel:propane": false, "hgv": true, "@spider": "tapetro", "addr:full": "2105 South Goliad St.", "addr:city": "Rockwall", "addr:state": "TX", "addr:postcode": "75087", "name": "TA Rockwall", "phone": "972-722-7450", "brand": "TravelCenters of America", "brand:wikidata": "Q7835892"}, "geometry": {"type": "Point", "coordinates": [-96.45, 32.9074]}},
{"type": "Feature", "id": "cy5ntTAJJL613z3RXCmPeYdAtsk=", "properties": {"ref": "050-T-0307", "amenity:fuel": true, "fuel:diesel:class2": true, "fuel:diesel": true, "fuel:HGV_diesel": true, "fuel:lng": false, "fuel:propane": false, "hgv": true, "@spider": "tapetro", "addr:full": "5901 Highway 51", "addr:city": "DeForest", "addr:state": "WI", "addr:postcode": "53532", "name": "TA Madison Dedication: Dick Pingel ", "phone": "608-249-9000", "brand": "TravelCenters of America", "brand:wikidata": "Q7835892"}, "geometry": {"type": "Point", "coordinates": [-89.3255, 43.1745]}},
{"type": "Feature", "id": "U-gQFbfNXRXCqOzfEWc0WJwug1c=", "properties": {"ref": "051-T-0701", "amenity:fuel": true, "fuel:diesel:class2": true, "fuel:diesel": true, "fuel:HGV_diesel": true, "fuel:lng": false, "fuel:propane": false, "hgv": true, "@spider": "tapetro", "addr:full": "854 State Hwy 80", "addr:city": "Matthews", "addr:state": "MO", "addr:postcode": "63867", "name": "TA Matthews", "phone": "573-471-8644", "brand": "TravelCenters of America", "brand:wikidata": "Q7835892"}, "geometry": {"type": "Point", "coordinates": [-89.5346, 36.7582]}},
{"type": "Feature", "id": "AHk8F1Jd5b1PpmREabDJweq7UV4=", "properties": {"ref": "052-T-0317", "amenity:fuel": true, "fuel:diesel:class2": true, "fuel:diesel": true, "fuel:HGV_diesel": true, "fuel:lng": false, "fuel:propane": false, "hgv": true, "@spider": "tapetro", "addr:full": "100 North Broadway", "addr:city": "Oak Grove ", "addr:state": "MO", "addr:postcode": "64075", "name": "TA Oak Grove Dedication: Sandy Long ", "phone": "816-690-4115", "brand": "TravelCenters of America", "brand:wikidata": "Q7835892"}, "geometry": {"type": "Point", "coordinates": [-94.1302, 39.0176]}},
{"type": "Feature", "id": "fZwmlTPQEoORnIVdD7WlBZ6r7Rg=", "properties": {"ref": "053-T-0656", "amenity:fuel": true, "fuel:diesel:class2": true, "fuel:diesel": true, "fuel:HGV_diesel": true, "fuel:lng": false, "fuel:propane": false, "hgv": true, "@spider": "tapetro", "addr:full": "556 E. St. Rt. 44", "addr:city": "Wildwood", "addr:state": "FL", "addr:postcode": "34785", "name": "TA Wildwood", "phone": "352-748-2501", "brand": "TravelCenters of America", "brand:wikidata": "Q7835892"}, "geometry": {"type": "Point", "coordinates": [-82.0939, 28.875]}},
{"type": "Feature", "id": "4zM97qbBNJY8Ir-CMvBsuVpMJ_4=", "properties": {"ref": "054-T-0778", "amenity:fuel": true, "fuel:diesel:class2": true, "fuel:diesel": true, "fuel:HGV_diesel": true, "fuel:lng": false, "fuel:propane": false, "hgv": true, "@spider": "tapetro", "addr:full": "9201 Grand Bay", "addr:city": "Grand Bay", "addr:state": "AL", "addr:postcode": "36541", "name": "TA Mobile", "phone": "251-865-6175", "brand": "TravelCenters of America", "brand:wikidata": "Q7835892"}, "geometry": {"type": "Point", "coordinates": [-88.3336, 30.4985]}},
{"type": "Feature", "id": "1A0bGOK3DzEl8vWfb5sHjX_OCmo=", "properties": {"ref": "055-T-5073", "amenity:fuel": true, "fuel:diesel:class2": true, "fuel:diesel": true, "fuel:HGV_diesel": true, "fuel:lng": false, "fuel:propane": false, "hgv": true, "@spider": "tapetro", "addr:full": "7000 E. Interstate 40", "addr:city": "Amarillo ", "addr:state": "TX", "addr:postcode": "79118", "name": "TA Amarillo", "phone": "806-342-3080", "brand": "TravelCenters of America", "brand:wikidata": "Q7835892"}, "geometry": {"type": "Point", "coordinates": [-101.7589, 35.1915]}},
{"type": "Feature", "id": "b90SXv24R4nx0M5SWhaEnXDx9lU=", "properties": {"ref": "056-T-0435", "amenity:fuel": true, "fuel:diesel:class2": true, "fuel:diesel": true, "fuel:HGV_diesel": true, "fuel:lng": false, "fuel:propane": false, "hgv": true, "@spider": "tapetro", "addr:full": "21856 Bents Road NE", "addr:city": "Aurora", "addr:state": "OR", "addr:postcode": "97002", "name": "TA Aurora", "phone": "503-678-2111", "brand": "TravelCenters of America", "brand:wikidata": "Q7835892"}, "geometry": {"type": "Point", "coordinates": [-122.8072, 45.2361]}},
{"type": "Feature", "id": "P0sMDnD1ixV37O5MJ_csuArjyDw=", "properties": {"ref": "057-T-0433", "amenity:fuel": true, "fuel:diesel:class2": true, "fuel:diesel": true, "fuel:HGV_diesel": true, "fuel:lng": false, "fuel:propane": false, "hgv": true, "@spider": "tapetro", "addr:full": "19483 Knighton Road", "addr:city": "Redding", "addr:state": "CA", "addr:postcode": "96002", "name": "TA Redding", "phone": "530-221-4760", "brand": "TravelCenters of America", "brand:wikidata": "Q7835892"}, "geometry": {"type": "Point", "coordinates": [-122.3349, 40.5048]}},
{"type": "Feature", "id": "tfNfZwMgxg_4_LunluEPsX90vkM=", "properties": {"ref": "058-T-0120", "amenity:fuel": true, "fuel:diesel:class2": true, "fuel:diesel": true, "fuel:HGV_diesel": true, "fuel:lng": false, "fuel:propane": false, "hgv": true, "@spider": "tapetro", "addr:full": "5400 Seventy Six Drive", "addr:city": "Youngstown", "addr:state": "OH", "addr:postcode": "44515", "name": "TA Youngstown", "phone": "330-793-4426", "brand": "TravelCenters of America", "brand:wikidata": "Q7835892"}, "geometry": {"type": "Point", "coordinates": [-80.7653, 41.1225]}},
{"type": "Feature", "id": "IQHW5kMwSuFhD782xA-pSB10b1g=", "properties": {"ref": "059-T-0709", "amenity:fuel": true, "fuel:diesel:class2": true, "fuel:diesel": true, "fuel:HGV_diesel": true, "fuel:lng": false, "fuel:propane": false, "hgv": true, "@spider": "tapetro", "addr:full": "501 South Morgan Road", "addr:city": "Oklahoma City ", "addr:state": "OK", "addr:postcode": "73128", "name": "TA Oklahoma City West", "phone": "405-324-5376", "brand": "TravelCenters of America", "brand:wikidata": "Q7835892"}, "geometry": {"type": "Point", "coordinates": [-97.6906, 35.4617]}},
{"type": "Feature", "id": "lZ6SVof2LqFyy-lCwm-KEpiMDRM=", "properties": {"ref": "060-T-0425", "amenity:fuel": true, "fuel:diesel:class2": true, "fuel:diesel": true, "fuel:HGV_diesel": true, "fuel:lng": false, "fuel:propane": false, "hgv": true, "@spider": "tapetro", "addr:full": "8836 Clinton Landing Rd.", "addr:city": "Tooele", "addr:state": "UT", "addr:postcode": "84074", "name": "TA Tooele", "phone": "801-250-8585", "brand": "TravelCenters of America", "brand:wikidata": "Q7835892"}, "geometry": {"type": "Point", "coordinates": [-112.2629, 40.6899]}},
{"type": "Feature", "id": "qnEw64XOFFLbAhD8uyMwUlcVk7s=", "properties": {"ref": "065-T-5014", "amenity:fuel": true, "fuel:diesel:class2": true, "fuel:diesel": true, "fuel:HGV_diesel": true, "fuel:lng": false, "fuel:propane": false, "hgv": true, "@spider": "tapetro", "addr:full": "2636 E. Tipton St.", "addr:city": "Seymour", "addr:state": "IN", "addr:postcode": "47274-3593", "name": "TA Seymour", "phone": "812-522-6622", "brand": "TravelCenters of America", "brand:wikidata": "Q7835892"}, "geometry": {"type": "Point", "coordinates": [-85.8366, 38.9576]}},
{"type": "Feature", "id": "IqEW_7T-rfKeWiMhNTBGNrUMG8Y=", "properties": {"ref": "066-T-0528", "amenity:fuel": true, "fuel:diesel:class2": true, "fuel:diesel": true, "fuel:HGV_diesel": true, "fuel:lng": false, "fuel:propane": false, "hgv": true, "@spider": "tapetro", "addr:full": "3210 South Seven Street", "addr:city": "Council Bluffs", "addr:state": "IA", "addr:postcode": "51501", "name": "TA Council Bluffs", "phone": "712-366-2217", "brand": "TravelCenters of America", "brand:wikidata": "Q7835892"}, "geometry": {"type": "Point", "coordinates": [-95.8536, 41.2287]}},
{"type": "Feature", "id": "iAL0q_w1O0KXR-5HSsAcuNmj1Ug=", "properties": {"ref": "067-T-5034", "amenity:fuel": true, "fuel:diesel:class2": true, "fuel:diesel": true, "fuel:HGV_diesel": true, "fuel:lng": false, "fuel:propane": false, "hgv": true, "@spider": "tapetro", "addr:full": "5644 St. Rt. 8", "addr:city": "Harrisville", "addr:state": "PA", "addr:postcode": "16038-9641", "name": "TA Barkeyville", "phone": "814-786-7988", "brand": "TravelCenters of America", "brand:wikidata": "Q7835892"}, "geometry": {"type": "Point", "coordinates": [-79.9758, 41.1992]}},
{"type": "Feature", "id": "r1ckFQ8z3ZIPApbNgOzjF2uhetg=", "properties": {"ref": "068-T-5038", "amenity:fuel": true, "fuel:diesel:class2": true, "fuel:diesel": true, "fuel:HGV_diesel": true, "fuel:lng": false, "fuel:propane": false, "hgv": true, "@spider": "tapetro", "addr:full": "5600 Nittany Valley Drive", "addr:city": "Lamar", "addr:state": "PA", "addr:postcode": "16848-0278", "name": "TA Lamar", "phone": "570-726-4996", "brand": "TravelCenters of America", "brand:wikidata": "Q7835892"}, "geometry": {"type": "Point", "coordinates": [-77.521, 41.0275]}},
{"type": "Feature", "id": "AEZTYVnmUmygieOF75QOFE7fo08=", "properties": {"ref": "069-T-5019", "amenity:fuel": true, "fuel:diesel:class2": true, "fuel:diesel": true, "fuel:HGV_diesel": true, "fuel:lng": false, "fuel:propane": false, "hgv": true, "@spider": "tapetro", "addr:full": "1255 N Dixie Hwy", "addr:city": "Monroe", "addr:state": "MI", "addr:postcode": "48162", "name": "TA Monroe", "phone": "734-384-7952", "brand": "TravelCenters of America", "brand:wikidata": "Q7835892"}, "geometry": {"type": "Point", "coordinates": [-83.3632, 41.9267]}},
{"type": "Feature", "id": "iLmVW8NpxLjfLvOqqcanqygtFQo=", "properties": {"ref": "071-T-5048", "amenity:fuel": true, "fuel:diesel:class2": true, "fuel:diesel": true, "fuel:HGV_diesel": true, "fuel:lng": false, "fuel:propane": false, "hgv": true, "@spider": "tapetro", "addr:full": "3222 Hwy. 14 East", "addr:city": "Janesville", "addr:state": "WI", "addr:postcode": "53546-8218", "name": "TA Janesville", "phone": "608-752-8700", "brand": "TravelCenters of America", "brand:wikidata": "Q7835892"}, "geometry": {"type": "Point", "coordinates": [-88.9793, 42.7143]}},
{"type": "Feature", "id": "NXIZSRLGHMK9-l12v6fiSSwhFlo=", "properties": {"ref": "072-T-5021", "amenity:fuel": true, "fuel:diesel:class2": false, "fuel:diesel": true, "fuel:HGV_diesel": true, "fuel:lng": false, "fuel:propane": false, "hgv": true, "@spider": "tapetro", "addr:full": "1000 E. Mt. Vernon Blvd.", "addr:city": "Mt. Vernon", "addr:state": "MO", "addr:postcode": "65712", "name": "TA Mt. Vernon", "phone": "417-466-9230", "brand": "TravelCenters of America", "brand:wikidata": "Q7835892"}, "geometry": {"type": "Point", "coordinates": [-93.8065, 37.0948]}},
{"type": "Feature", "id": "G3YRfr41465ZYVMn73Oq3Nq44VQ=", "properties": {"ref": "075-T-5035", "amenity:fuel": true, "fuel:diesel:class2": true, "fuel:diesel": true, "fuel:HGV_diesel": true, "fuel:lng": false, "fuel:propane": false, "hgv": true, "@spider": "tapetro", "addr:full": "16567 Lincoln Hwy.", "addr:city": "Breezewood", "addr:state": "PA", "addr:postcode": "15533-0287", "name": "TA Breezewood", "phone": "814-735-2011", "brand": "TravelCenters of America", "brand:wikidata": "Q7835892"}, "geometry": {"type": "Point", "coordinates": [-78.234, 40.0002]}},
{"type": "Feature", "id": "fDF_1uRi1VQAeQEqsZdViBbTymM=", "properties": {"ref": "077-T-5015", "amenity:fuel": true, "fuel:diesel:class2": true, "fuel:diesel": true, "fuel:HGV_diesel": true, "fuel:lng": false, "fuel:propane": false, "hgv": true, "@spider": "tapetro", "addr:full": "755 W. Iowa 80 Rd.", "addr:city": "Walcott", "addr:state": "IA", "addr:postcode": "52773", "name": "TA Walcott", "phone": "563-284-6961", "brand": "TravelCenters of America", "brand:wikidata": "Q7835892"}, "geometry": {"type": "Point", "coordinates": [-90.7815, 41.6179]}},
{"type": "Feature", "id": "cQ_vdazxgfxttNTiVrDQ-2-6jIw=", "properties": {"ref": "078-T-5033", "amenity:fuel": true, "fuel:diesel:class2": false, "fuel:diesel": true, "fuel:HGV_diesel": true, "fuel:lng": false, "fuel:propane": true, "hgv": true, "@spider": "tapetro", "addr:full": "32910 East Pearl St.", "addr:city": "Coburg", "addr:state": "OR", "addr:postcode": "97408", "name": "TA Coburg", "phone": "541-868-2880", "brand": "TravelCenters of America", "brand:wikidata": "Q7835892"}, "geometry": {"type": "Point", "coordinates": [-123.057, 44.1363]}},
{"type": "Feature", "id": "sfP1nX9RAtfAGPRdPwp6-_51v0k=", "properties": {"ref": "081-T-0424", "amenity:fuel": true, "fuel:diesel:class2": true, "fuel:diesel": true, "fuel:HGV_diesel": true, "fuel:lng": false, "fuel:propane": false, "hgv": true, "@spider": "tapetro", "addr:full": "2501 University Blvd., NE", "addr:city": "Albuquerque", "addr:state": "NM", "addr:postcode": "87107", "name": "TA Albuquerque Dedication: Jim Wilcox ", "phone": "505-884-1066", "brand": "TravelCenters of America", "brand:wikidata": "Q7835892"}, "geometry": {"type": "Point", "coordinates": [-106.6247, 35.1111]}},
{"type": "Feature", "id": "qa_Fe6KeW84BXaUnxCEySEHNG1k=", "properties": {"ref": "082-T-5082", "amenity:fuel": true, "fuel:diesel:class2": false, "fuel:diesel": true, "fuel:HGV_diesel": true, "fuel:lng": false, "fuel:propane": false, "hgv": true, "@spider": "tapetro", "addr:full": "1775 Bellefontaine St.", "addr:city": "Wapakoneta", "addr:state": "OH", "addr:postcode": "45895", "name": "TA Wapakoneta", "phone": "419-738-2550", "brand": "TravelCenters of America", "brand:wikidata": "Q7835892"}, "geometry": {"type": "Point", "coordinates": [-84.1656, 40.5582]}},
{"type": "Feature", "id": "UJ6qoBLTKFHzeqp__UzbFcOLt_E=", "properties": {"ref": "087-T-0178", "amenity:fuel": true, "fuel:diesel:class2": true, "fuel:diesel": true, "fuel:HGV_diesel": true, "fuel:lng": false, "fuel:propane": false, "hgv": true, "@spider": "tapetro", "addr:full": "3483 Libbey Road", "addr:city": "Perrysburg", "addr:state": "OH", "addr:postcode": "43551-9750", "name": "TA Toledo", "phone": "419-837-5017", "brand": "TravelCenters of America", "brand:wikidata": "Q7835892"}, "geometry": {"type": "Point", "coordinates": [-83.4624, 41.5215]}},
{"type": "Feature", "id": "utDGHzKgC4eJv77VE_nwf_ltKlw=", "properties": {"ref": "089-T-0312", "amenity:fuel": true, "fuel:diesel:class2": true, "fuel:diesel": true, "fuel:HGV_diesel": true, "fuel:lng": false, "fuel:propane": false, "hgv": true, "@spider": "tapetro", "addr:full": "200 Baker Road", "addr:city": "Dexter", "addr:state": "MI", "addr:postcode": "48130", "name": "TA Ann Arbor", "phone": "734-426-3951", "brand": "TravelCenters of America", "brand:wikidata": "Q7835892"}, "geometry": {"type": "Point", "coordinates": [-83.8764, 42.2963]}},
{"type": "Feature", "id": "NQslAkIFvF14FN3wpzp0mL9ALgk=", "properties": {"ref": "090-T-0502", "amenity:fuel": true, "fuel:diesel:class2": true, "fuel:diesel": true, "fuel:HGV_diesel": true, "fuel:lng": false, "fuel:propane": false, "hgv": true, "@spider": "tapetro", "addr:full": "103 Prospector Drive", "addr:city": "Ogallala", "addr:state": "NE", "addr:postcode": "69153-3198", "name": "TA Ogallala", "phone": "308-284-3667", "brand": "TravelCenters of America", "brand:wikidata": "Q7835892"}, "geometry": {"type": "Point", "coordinates": [-101.7116, 41.1138]}},
{"type": "Feature", "id": "cwbDrwikevbSZ8GcjXaBLMFid_U=", "properties": {"ref": "091-T-5091", "amenity:fuel": true, "fuel:diesel:class2": true, "fuel:diesel": true, "fuel:HGV_diesel": true, "fuel:lng": false, "fuel:propane": false, "hgv": true, "@spider": "tapetro", "addr:full": "1001 Hwy 40", "addr:city": "Oakley", "addr:state": "KS", "addr:postcode": "67748", "name": "TA Oakley", "phone": "785-672-4111", "brand": "TravelCenters of America", "brand:wikidata": "Q7835892"}, "geometry": {"type": "Point", "coordinates": [-100.811, 39.1188]}},
{"type": "Feature", "id": "XLxOt4xAaIleCHspbwMhBMD0bss=", "properties": {"ref": "092-T-0322", "amenity:fuel": true, "fuel:diesel:class2": true, "fuel:diesel": true, "fuel:HGV_diesel": true, "fuel:lng": false, "fuel:propane": false, "hgv": true, "@spider": "tapetro", "addr:full": "505 Truckers Lane", "addr:city": "Bloomington", "addr:state": "IL", "addr:postcode": 61701.0, "name": "TA Bloomington Dedication: Gary Buchs ", "phone": "309-827-4676", "brand": "TravelCenters of America", "brand:wikidata": "Q7835892"}, "geometry": {"type": "Point", "coordinates": [-89.0262, 40.488]}},
{"type": "Feature", "id": "8-gNcstDz7J0M7EcBV6fPpl-sWY=", "properties": {"ref": "093-T-5072", "amenity:fuel": true, "fuel:diesel:class2": true, "fuel:diesel": true, "fuel:HGV_diesel": true, "fuel:lng": false, "fuel:propane": false, "hgv": true, "@spider": "tapetro", "addr:full": "7777 Burlington Pike", "addr:city": "Florence ", "addr:state": "KY", "addr:postcode": "41042", "name": "TA Florence", "phone": "859-371-7166", "brand": "TravelCenters of America", "brand:wikidata": "Q7835892"}, "geometry": {"type": "Point", "coordinates": [-84.6447, 39.0001]}},
{"type": "Feature", "id": "d-1i9MgawVXOTn8N7DiJrxIsxcc=", "properties": {"ref": "094-T-0439", "amenity:fuel": true, "fuel:diesel:class2": true, "fuel:diesel": true, "fuel:HGV_diesel": true, "fuel:lng": false, "fuel:propane": false, "hgv": true, "@spider": "tapetro", "addr:full": "946 West Beale Street", "addr:city": "Kingman   ", "addr:state": "AZ", "addr:postcode": "86401", "name": "TA Kingman", "phone": "928-753-7600", "brand": "TravelCenters of America", "brand:wikidata": "Q7835892"}, "geometry": {"type": "Point", "coordinates": [-114.0709, 35.1901]}},
{"type": "Feature", "id": "3F9pyJiO3MgJqYV1yNC3i3u1FNg=", "properties": {"ref": "095-T-0104", "amenity:fuel": true, "fuel:diesel:class2": true, "fuel:diesel": true, "fuel:HGV_diesel": true, "fuel:lng": false, "fuel:propane": false, "hgv": true, "@spider": "tapetro", "addr:full": "4450 Portage St. NW", "addr:city": "North Canton", "addr:state": "OH", "addr:postcode": "44720", "name": "TA North Canton", "phone": "330-494-7507", "brand": "TravelCenters of America", "brand:wikidata": "Q7835892"}, "geometry": {"type": "Point", "coordinates": [-81.4295, 40.8788]}},
{"type": "Feature", "id": "l4DIvIjCOVSpyld-qzJg0zFoMxk=", "properties": {"ref": "108-T-0421", "amenity:fuel": true, "fuel:diesel:class2": true, "fuel:diesel": true, "fuel:HGV_diesel": true, "fuel:lng": false, "fuel:propane": true, "hgv": true, "@spider": "tapetro", "addr:full": "8050 Dean Martin Drive", "addr:city": "Las Vegas ", "addr:state": "NV", "addr:postcode": "89139", "name": "TA Las Vegas", "phone": "702-361-1176", "brand": "TravelCenters of America", "brand:wikidata": "Q7835892"}, "geometry": {"type": "Point", "coordinates": [-115.1873, 36.0433]}},
{"type": "Feature", "id": "A4iGINSB60J7Ef4RgbXTuFG6lRc=", "properties": {"ref": "111-T-0723", "amenity:fuel": true, "fuel:diesel:class2": false, "fuel:diesel": true, "fuel:HGV_diesel": true, "fuel:lng": false, "fuel:propane": false, "hgv": true, "@spider": "tapetro", "addr:full": "980 West South Blvd.", "addr:city": "Montgomery", "addr:state": "AL", "addr:postcode": "36105-3021", "name": "TA Montgomery", "phone": "334-288-3700", "brand": "TravelCenters of America", "brand:wikidata": "Q7835892"}, "geometry": {"type": "Point", "coordinates": [-86.3322, 32.3276]}},
{"type": "Feature", "id": "F0fsTAIyAFKCX3cwM5cmL0SYV_k=", "properties": {"ref": "113-T-0713", "amenity:fuel": true, "fuel:diesel:class2": false, "fuel:diesel": true, "fuel:HGV_diesel": true, "fuel:lng": false, "fuel:propane": false, "hgv": true, "@spider": "tapetro", "addr:full": "100 South Hopkins Rd.", "addr:city": "Sweetwater", "addr:state": "TX", "addr:postcode": "79556-1578", "name": "TA Sweetwater", "phone": "325-235-8488", "brand": "TravelCenters of America", "brand:wikidata": "Q7835892"}, "geometry": {"type": "Point", "coordinates": [-100.4433, 32.4486]}},
{"type": "Feature", "id": "Cx_L6NEQiKSLHUJZgXtuzDU2dsc=", "properties": {"ref": "116-T-0384", "amenity:fuel": true, "fuel:diesel:class2": true, "fuel:diesel": true, "fuel:HGV_diesel": true, "fuel:lng": false, "fuel:propane": false, "hgv": true, "@spider": "tapetro", "addr:full": "6100 Sawyer Road", "addr:city": "Sawyer", "addr:state": "MI", "addr:postcode": "49125", "name": "TA Sawyer", "phone": "269-426-4884", "brand": "TravelCenters of America", "brand:wikidata": "Q7835892"}, "geometry": {"type": "Point", "coordinates": [-86.6001, 41.8845]}},
{"type": "Feature", "id": "mhScIVt7cRW0mvNtEPQ21GDhnsc=", "properties": {"ref": "117-T-0768", "amenity:fuel": true, "fuel:diesel:class2": true, "fuel:diesel": true, "fuel:HGV_diesel": true, "fuel:lng": false, "fuel:propane": false, "hgv": true, "@spider": "tapetro", "addr:full": "13011 Old Hickory Blvd.", "addr:city": "Antioch", "addr:state": "TN", "addr:postcode": "37013", "name": "TA Antioch", "phone": "615-641-6731", "brand": "TravelCenters of America", "brand:wikidata": "Q7835892"}, "geometry": {"type": "Point", "coordinates": [-86.6184, 36.0147]}},
{"type": "Feature", "id": "H0YEWxMuwsveH9QK07j6ttGlY6U=", "properties": {"ref": "137-T-0310", "amenity:fuel": true, "fuel:diesel:class2": false, "fuel:diesel": true, "fuel:HGV_diesel": true, "fuel:lng": false, "fuel:propane": false, "hgv": true, "@spider": "tapetro", "addr:full": "225 E. Evergreen", "addr:city": "Strafford", "addr:state": "MO", "addr:postcode": "65757-0069", "name": "TA Strafford", "phone": "417-736-2161", "brand": "TravelCenters of America", "brand:wikidata": "Q7835892"}, "geometry": {"type": "Point", "coordinates": [-93.1152, 37.2745]}},
{"type": "Feature", "id": "yg23RlPrL6CXcKd1uy7ZfCVSRy4=", "properties": {"ref": "139-T-0187", "amenity:fuel": true, "fuel:diesel:class2": true, "fuel:diesel": true, "fuel:HGV_diesel": true, "fuel:lng": false, "fuel:propane": false, "hgv": true, "@spider": "tapetro", "addr:full": "12403 US Rt 35 NW", "addr:city": "Jeffersonville", "addr:state": "OH", "addr:postcode": "43128-0068", "name": "TA Jeffersonville", "phone": "740-948-2365", "brand": "TravelCenters of America", "brand:wikidata": "Q7835892"}, "geometry": {"type": "Point", "coordinates": [-83.6038, 39.6166]}},
{"type": "Feature", "id": "svm2j1ud9S-tB9IxZ4E7SyCIa7s=", "properties": {"ref": "142-T-0210", "amenity:fuel": true, "fuel:diesel:class2": true, "fuel:diesel": true, "fuel:HGV_diesel": true, "fuel:lng": false, "fuel:propane": false, "hgv": true, "@spider": "tapetro", "addr:full": "10134 Lewistown Road", "addr:city": "Ashland", "addr:state": "VA", "addr:postcode": "23005", "name": "TA Richmond", "phone": "804-798-6021", "brand": "TravelCenters of America", "brand:wikidata": "Q7835892"}, "geometry": {"type": "Point", "coordinates": [-77.4479, 37.7237]}},
{"type": "Feature", "id": "vWzD0gVjocFZmSH8gBbcL3CxM6o=", "properties": {"ref": "143-T-0217", "amenity:fuel": true, "fuel:diesel:class2": true, "fuel:diesel": true, "fuel:HGV_diesel": true, "fuel:lng": false, "fuel:propane": false, "hgv": true, "@spider": "tapetro", "addr:full": "1025 Peppers Ferry Road", "addr:city": "Wytheville", "addr:state": "VA", "addr:postcode": "24382", "name": "TA Wytheville", "phone": "276-228-8676", "brand": "TravelCenters of America", "brand:wikidata": "Q7835892"}, "geometry": {"type": "Point", "coordinates": [-81.069, 36.9657]}},
{"type": "Feature", "id": "rbjJNVYOCnpLGmcRf1k9EVcpmVk=", "properties": {"ref": "146-T-5071", "amenity:fuel": true, "fuel:diesel:class2": false, "fuel:diesel": true, "fuel:HGV_diesel": true, "fuel:lng": false, "fuel:propane": false, "hgv": true, "@spider": "tapetro", "addr:full": "981 Cassville-White Road", "addr:city": "Cartersville", "addr:state": "GA", "addr:postcode": "30121", "name": "TA Cartersville", "phone": "770-607-8885", "brand": "TravelCenters of America", "brand:wikidata": "Q7835892"}, "geometry": {"type": "Point", "coordinates": [-84.8075, 34.2739]}},
{"type": "Feature", "id": "eqxdtOdC-stubCglYmWj8S1KKfM=", "properties": {"ref": "147-T-5076", "amenity:fuel": true, "fuel:diesel:class2": true, "fuel:diesel": true, "fuel:HGV_diesel": true, "fuel:lng": true, "fuel:propane": false, "hgv": true, "@spider": "tapetro", "addr:full": "6170 I.H.-10 East", "addr:city": "San Antonio ", "addr:state": "TX", "addr:postcode": "78219", "name": "TA San Antonio", "phone": "210-310-0145", "brand": "TravelCenters of America", "brand:wikidata": "Q7835892"}, "geometry": {"type": "Point", "coordinates": [-98.3618, 29.4433]}},
{"type": "Feature", "id": "mZjhN2rC-oQYDwVq7nmZYEJUyP0=", "properties": {"ref": "148-T-5070", "amenity:fuel": true, "fuel:diesel:class2": true, "fuel:diesel": true, "fuel:HGV_diesel": true, "fuel:lng": false, "fuel:propane": false, "hgv": true, "@spider": "tapetro", "addr:full": "5101 Quebec Street", "addr:city": "Commerce City", "addr:state": "CO", "addr:postcode": "80022", "name": "TA Commerce City Dedication: Rick Ash ", "phone": "303-286-0123", "brand": "TravelCenters of America", "brand:wikidata": "Q7835892"}, "geometry": {"type": "Point", "coordinates": [-104.9043, 39.7901]}},
{"type": "Feature", "id": "epxQAV8tn2CFRN9WrTFT5oBbK-Q=", "properties": {"ref": "149-T-0198", "amenity:fuel": true, "fuel:diesel:class2": true, "fuel:diesel": true, "fuel:HGV_diesel": true, "fuel:lng": false, "fuel:propane": false, "hgv": true, "@spider": "tapetro", "addr:full": "4195 State Route 34", "addr:city": "Hurricane", "addr:state": "WV", "addr:postcode": "25526-9772", "name": "TA Hurricane", "phone": "304-757-7600", "brand": "TravelCenters of America", "brand:wikidata": "Q7835892"}, "geometry": {"type": "Point", "coordinates": [-81.935, 38.4543]}},
{"type": "Feature", "id": "wpK6zCcGWc_OMitqEUcU_uuiXb0=", "properties": {"ref": "150-T-5078", "amenity:fuel": true, "fuel:diesel:class2": false, "fuel:diesel": true, "fuel:HGV_diesel": true, "fuel:lng": true, "fuel:propane": false, "hgv": true, "@spider": "tapetro", "addr:full": "7751 Bonnie View Rd", "addr:city": "Dallas South", "addr:state": "TX", "addr:postcode": "75241", "name": "TA Dallas South", "phone": "469-941-3150", "brand": "TravelCenters of America", "brand:wikidata": "Q7835892"}, "geometry": {"type": "Point", "coordinates": [-96.7517, 32.6534]}},
{"type": "Feature", "id": "mXGuUIllwdd7LiEv48HS7kzPqNU=", "properties": {"ref": "151-T-5018", "amenity:fuel": true, "fuel:diesel:class2": true, "fuel:diesel": true, "fuel:HGV_diesel": true, "fuel:lng": false, "fuel:propane": false, "hgv": true, "@spider": "tapetro", "addr:full": "7401 Assateague Drive", "addr:city": "Jessup", "addr:state": "MD", "addr:postcode": "20794", "name": "TA Baltimore South", "phone": "410-799-3835", "brand": "TravelCenters of America", "brand:wikidata": "Q7835892"}, "geometry": {"type": "Point", "coordinates": [-76.7828, 39.1667]}},
{"type": "Feature", "id": "E5P-Pfrfoo5Y9E8CYNC0zPmLpNQ=", "properties": {"ref": "152-T-5074", "amenity:fuel": true, "fuel:diesel:class2": true, "fuel:diesel": true, "fuel:HGV_diesel": true, "fuel:lng": false, "fuel:propane": false, "hgv": true, "@spider": "tapetro", "addr:full": "11603 N. 1900 Rd.", "addr:city": "Sayre", "addr:state": "OK", "addr:postcode": "73662", "name": "TA Sayre", "phone": "580-928-5571", "brand": "TravelCenters of America", "brand:wikidata": "Q7835892"}, "geometry": {"type": "Point", "coordinates": [-99.5946, 35.3355]}},
{"type": "Feature", "id": "09kzELN7HBIsRCAqEErI2cP1T3c=", "properties": {"ref": "153-T-6153", "amenity:fuel": true, "fuel:diesel:class2": false, "fuel:diesel": true, "fuel:HGV_diesel": true, "fuel:lng": false, "fuel:propane": false, "hgv": true, "@spider": "tapetro", "addr:full": "1010 Beltway Parkway ", "addr:city": "Laredo", "addr:state": "TX", "addr:postcode": "78045", "name": "TA Laredo Dedication: Henry Albert ", "phone": "956-724-2016", "brand": "TravelCenters of America", "brand:wikidata": "Q7835892"}, "geometry": {"type": "Point", "coordinates": [-99.464, 27.6884]}},
{"type": "Feature", "id": "DDrm5p_cjcVdCzjOa3TeplpbS-0=", "properties": {"ref": "154-T-5079.0", "amenity:fuel": true, "fuel:diesel:class2": true, "fuel:diesel": true, "fuel:HGV_diesel": true, "fuel:lng": false, "fuel:propane": false, "hgv": true, "@spider": "tapetro", "addr:full": "1875 Meriden-Waterbury Turnpike", "addr:city": "Milldale", "addr:state": "CT", "addr:postcode": "06467", "name": "TA Southington Dedication: Bill & Robyn Taylor ", "phone": "860-621-0106", "brand": "TravelCenters of America", "brand:wikidata": "Q7835892"}, "geometry": {"type": "Point", "coordinates": [-72.9102, 41.5647]}},
{"type": "Feature", "id": "gz4V-hw9SupCQO07peXKkC9p4A4=", "properties": {"ref": "156-T-0677", "amenity:fuel": true, "fuel:diesel:class2": false, "fuel:diesel": true, "fuel:HGV_diesel": true, "fuel:lng": false, "fuel:propane": false, "hgv": true, "@spider": "tapetro", "addr:full": "30732 Hwy 441 South", "addr:city": "Commerce", "addr:state": "GA", "addr:postcode": "30529", "name": "TA Commerce", "phone": "706-335-5198", "brand": "TravelCenters of America", "brand:wikidata": "Q7835892"}, "geometry": {"type": "Point", "coordinates": [-83.4632, 34.2528]}},
{"type": "Feature", "id": "mfeu9FkwRSnaqUn0RTT0_mJc4o0=", "properties": {"ref": "157-T-0706", "amenity:fuel": true, "fuel:diesel:class2": false, "fuel:diesel": true, "fuel:HGV_diesel": true, "fuel:lng": false, "fuel:propane": false, "hgv": true, "@spider": "tapetro", "addr:full": "4400 Peytonsville Road", "addr:city": "Franklin ", "addr:state": "TN", "addr:postcode": "37064", "name": "TA Franklin", "phone": "615-794-8406", "brand": "TravelCenters of America", "brand:wikidata": "Q7835892"}, "geometry": {"type": "Point", "coordinates": [-86.8299, 35.8603]}},
{"type": "Feature", "id": "XNrUw_FBaMEVhw9BjeGj7Zj_6Rc=", "properties": {"ref": "158-TE-5084", "amenity:fuel": true, "fuel:diesel:class2": true, "fuel:diesel": true, "fuel:HGV_diesel": true, "fuel:lng": false, "fuel:propane": false, "hgv": true, "@spider": "tapetro", "addr:full": "11706 Tampa Gateway Blvd.", "addr:city": "Seffner", "addr:state": "FL", "addr:postcode": "33584", "name": "TA Express Tampa", "phone": "813-262-1560", "brand": "TA Express", "brand:wikidata": "Q7835892"}, "geometry": {"type": "Point", "coordinates": [-82.3006, 28.0099]}},
{"type": "Feature", "id": "C_NvZDsfVkR8j-BXc16UFxSTqoU=", "properties": {"ref": "160-T-0429", "amenity:fuel": true, "fuel:diesel:class2": true, "fuel:diesel": true, "fuel:HGV_diesel": true, "fuel:lng": false, "fuel:propane": true, "hgv": true, "@spider": "tapetro", "addr:full": "27769 Lagoon Drive", "addr:city": "Buttonwillow", "addr:state": "CA", "addr:postcode": "93206-0004", "name": "TA Buttonwillow", "phone": "661-764-5266", "brand": "TravelCenters of America", "brand:wikidata": "Q7835892"}, "geometry": {"type": "Point", "coordinates": [-119.3961, 35.401]}},
{"type": "Feature", "id": "vNlhUwUFFT4yW5OSCqgI7yXxC28=", "properties": {"ref": "161-T-0770", "amenity:fuel": true, "fuel:diesel:class2": true, "fuel:diesel": true, "fuel:HGV_diesel": true, "fuel:lng": true, "fuel:propane": false, "hgv": true, "@spider": "tapetro", "addr:full": "1701 North University Ave.", "addr:city": "Lafayette", "addr:state": "LA", "addr:postcode": "70507-6399", "name": "TA Lafayette", "phone": "337-237-0176", "brand": "TravelCenters of America", "brand:wikidata": "Q7835892"}, "geometry": {"type": "Point", "coordinates": [-92.0381, 30.2521]}},
{"type": "Feature", "id": "48ZMljtTUoJlvgo_vEn8XzLFA8o=", "properties": {"ref": "162-T-0417", "amenity:fuel": true, "fuel:diesel:class2": true, "fuel:diesel": true, "fuel:HGV_diesel": true, "fuel:lng": false, "fuel:propane": false, "hgv": true, "@spider": "tapetro", "addr:full": "4265 East Guasti Road", "addr:city": "Ontario   ", "addr:state": "CA", "addr:postcode": "91761-1571", "name": "TA Ontario", "phone": "909-390-2525", "brand": "TravelCenters of America", "brand:wikidata": "Q7835892"}, "geometry": {"type": "Point", "coordinates": [-117.5599, 34.0649]}},
{"type": "Feature", "id": "VFTyqj2L29cG8w-9HjbhswaiNwA=", "properties": {"ref": "163-T-0431", "amenity:fuel": true, "fuel:diesel:class2": true, "fuel:diesel": true, "fuel:HGV_diesel": true, "fuel:lng": true, "fuel:propane": false, "hgv": true, "@spider": "tapetro", "addr:full": "12310 S. Hwy 33 ", "addr:city": "Santa Nella", "addr:state": "CA", "addr:postcode": "95322-9735", "name": "TA Santa Nella", "phone": "209-826-0741", "brand": "TravelCenters of America", "brand:wikidata": "Q7835892"}, "geometry": {"type": "Point", "coordinates": [-121.0147, 37.1101]}},
{"type": "Feature", "id": "Yv7yrsLep-S1PM7q5jxqRb9odOM=", "properties": {"ref": "167-T-5053", "amenity:fuel": true, "fuel:diesel:class2": true, "fuel:diesel": true, "fuel:HGV_diesel": true, "fuel:lng": false, "fuel:propane": false, "hgv": true, "@spider": "tapetro", "addr:full": "4115  Broadway Ave", "addr:city": "Boise", "addr:state": "ID", "addr:postcode": "83705", "name": "TA Boise Dedication: J.D. \"Doc\" Osburn ", "phone": "208-344-1091", "brand": "TravelCenters of America", "brand:wikidata": "Q7835892"}, "geometry": {"type": "Point", "coordinates": [-116.1994, 43.5656]}},
{"type": "Feature", "id": "Z4GipFn4B1JsCSS-Anaa7aEKd84=", "properties": {"ref": "170-T-6170", "amenity:fuel": true, "fuel:diesel:class2": true, "fuel:diesel": true, "fuel:HGV_diesel": true, "fuel:lng": false, "fuel:propane": false, "hgv": true, "@spider": "tapetro", "addr:full": "435 Winton Pkwy.", "addr:city": "Livingston", "addr:state": "CA", "addr:postcode": "95334", "name": "TA Livingston", "phone": "209-394-4418", "brand": "TravelCenters of America", "brand:wikidata": "Q7835892"}, "geometry": {"type": "Point", "coordinates": [-120.7382, 37.3876]}},
{"type": "Feature", "id": "WKdX9s_ZIWJrg7j52Q5Xpf-F3Mc=", "properties": {"ref": "171-TE-0115", "amenity:fuel": true, "fuel:diesel:class2": true, "fuel:diesel": true, "fuel:HGV_diesel": true, "fuel:lng": false, "fuel:propane": false, "hgv": true, "@spider": "tapetro", "addr:full": "3 East Industrial Road", "addr:city": "Branford", "addr:state": "CT", "addr:postcode": "06405-6508", "name": "TA Express New Haven Dedication: Roland Bolduc ", "phone": "203-481-0301", "brand": "TA Express", "brand:wikidata": "Q7835892"}, "geometry": {"type": "Point", "coordinates": [-72.7595, 41.2968]}},
{"type": "Feature", "id": "7pgU5zCRcOr8_9ldY6gvSb6RVps=", "properties": {"ref": "172-T-0428", "amenity:fuel": true, "fuel:diesel:class2": true, "fuel:diesel": true, "fuel:HGV_diesel": true, "fuel:lng": false, "fuel:propane": false, "hgv": true, "@spider": "tapetro", "addr:full": "200 North McCarren", "addr:city": "Sparks ", "addr:state": "NV", "addr:postcode": "89431-5419", "name": "TA Sparks", "phone": "775-359-0550", "brand": "TravelCenters of America", "brand:wikidata": "Q7835892"}, "geometry": {"type": "Point", "coordinates": [-119.7361, 39.5351]}},
{"type": "Feature", "id": "C8XtsNotJOP2ZVgtmGDmmb82CHk=", "properties": {"ref": "173-T-0306", "amenity:fuel": true, "fuel:diesel:class2": true, "fuel:diesel": true, "fuel:HGV_diesel": true, "fuel:lng": false, "fuel:propane": false, "hgv": true, "@spider": "tapetro", "addr:full": "5930 East State Road 334", "addr:city": "Whitestown", "addr:state": "IN", "addr:postcode": "46075-9801", "name": "TA Whitestown", "phone": "317-769-3291", "brand": "TravelCenters of America", "brand:wikidata": "Q7835892"}, "geometry": {"type": "Point", "coordinates": [-86.357, 39.9478]}},
{"type": "Feature", "id": "dY6aIAuDgl0auo7_0Li07x7hjnQ=", "properties": {"ref": "174-T-0432", "amenity:fuel": true, "fuel:diesel:class2": true, "fuel:diesel": true, "fuel:HGV_diesel": true, "fuel:lng": false, "fuel:propane": false, "hgv": true, "@spider": "tapetro", "addr:full": "12151 West 44th Avenue", "addr:city": "Wheat Ridge", "addr:state": "CO", "addr:postcode": "80033-2448", "name": "TA Wheat Ridge Dedication: Danny & Cindy George ", "phone": "303-423-8250", "brand": "TravelCenters of America", "brand:wikidata": "Q7835892"}, "geometry": {"type": "Point", "coordinates": [-105.1344, 39.7792]}},
{"type": "Feature", "id": "vI3AKGzbjqk-E8L8Tm_16W97KRI=", "properties": {"ref": "175-T-0315", "amenity:fuel": true, "fuel:diesel:class2": true, "fuel:diesel": true, "fuel:HGV_diesel": true, "fuel:lng": false, "fuel:propane": false, "hgv": true, "@spider": "tapetro", "addr:full": "3265 N. Service Road East", "addr:city": "Foristell", "addr:state": "MO", "addr:postcode": "63348-0069", "name": "TA Foristell", "phone": "636-673-2295", "brand": "TravelCenters of America", "brand:wikidata": "Q7835892"}, "geometry": {"type": "Point", "coordinates": [-90.9495, 38.8171]}},
{"type": "Feature", "id": "9NpWllBPI7tBMuPcXilXzqz8dYI=", "properties": {"ref": "176-T-5087", "amenity:fuel": true, "fuel:diesel:class2": true, "fuel:diesel": true, "fuel:HGV_diesel": true, "fuel:lng": false, "fuel:propane": false, "hgv": true, "@spider": "tapetro", "addr:full": "46600 S.E. North Bend Way", "addr:city": "North Bend", "addr:state": "WA", "addr:postcode": "98045", "name": "TA Seattle East Dedication: Carol Wolder-Nixon ", "phone": "425-888-1119", "brand": "TravelCenters of America", "brand:wikidata": "Q7835892"}, "geometry": {"type": "Point", "coordinates": [-121.7181, 47.4683]}},
{"type": "Feature", "id": "K9GU_WeVUrzqmnLb0pQlGnstgSw=", "properties": {"ref": "177-T-0604", "amenity:fuel": true, "fuel:diesel:class2": true, "fuel:diesel": true, "fuel:HGV_diesel": true, "fuel:lng": false, "fuel:propane": false, "hgv": true, "@spider": "tapetro", "addr:full": "4401 Hwy. 17", "addr:city": "Richmond Hill", "addr:state": "GA", "addr:postcode": "31324-0280", "name": "TA Savannah", "phone": "912-756-3381", "brand": "TravelCenters of America", "brand:wikidata": "Q7835892"}, "geometry": {"type": "Point", "coordinates": [-81.3327, 31.9252]}},
{"type": "Feature", "id": "QXUwarPU9oFO0GyaRWKoNZiBbtE=", "properties": {"ref": "178-T-0605", "amenity:fuel": true, "fuel:diesel:class2": true, "fuel:diesel": true, "fuel:HGV_diesel": true, "fuel:lng": false, "fuel:propane": false, "hgv": true, "@spider": "tapetro", "addr:full": "2112 Highway 71 South", "addr:city": "Marianna", "addr:state": "FL", "addr:postcode": "32448", "name": "TA Marianna", "phone": "850-526-3303", "brand": "TravelCenters of America", "brand:wikidata": "Q7835892"}, "geometry": {"type": "Point", "coordinates": [-85.1837, 30.7187]}},
{"type": "Feature", "id": "C571MHPwVAM7blJNDi9cZAqPwgA=", "properties": {"ref": "179-T-0213", "amenity:fuel": true, "fuel:diesel:class2": true, "fuel:diesel": true, "fuel:HGV_diesel": true, "fuel:lng": false, "fuel:propane": false, "hgv": true, "@spider": "tapetro", "addr:full": "Rt. 6 - Box 200", "addr:city": "Manning", "addr:state": "SC", "addr:postcode": "29102", "name": "TA Manning Dedication: Jimmy Ardis ", "phone": "803-473-2568", "brand": "TravelCenters of America", "brand:wikidata": "Q7835892"}, "geometry": {"type": "Point", "coordinates": [-80.242, 33.7046]}},
{"type": "Feature", "id": "B0k7A72v33sswSpLc-7BmaZ4RVQ=", "properties": {"ref": "180-T-0725", "amenity:fuel": true, "fuel:diesel:class2": true, "fuel:diesel": true, "fuel:HGV_diesel": true, "fuel:lng": false, "fuel:propane": false, "hgv": true, "@spider": "tapetro", "addr:full": "1682 Gause Blvd", "addr:city": "Slidell", "addr:state": "LA", "addr:postcode": "70458-1361", "name": "TA Slidell", "phone": "985-643-9974", "brand": "TravelCenters of America", "brand:wikidata": "Q7835892"}, "geometry": {"type": "Point", "coordinates": [-89.7511, 30.2864]}},
{"type": "Feature", "id": "KZvKEaja6KD53dIl2VghBxHWOZQ=", "properties": {"ref": "181-T-5058", "amenity:fuel": true, "fuel:diesel:class2": true, "fuel:diesel": true, "fuel:HGV_diesel": true, "fuel:lng": false, "fuel:propane": false, "hgv": true, "@spider": "tapetro", "addr:full": "6000 E. Frontage Road", "addr:city": "Mill City", "addr:state": "NV", "addr:postcode": "89418", "name": "TA Mill City", "phone": "775-538-7311", "brand": "TravelCenters of America", "brand:wikidata": "Q7835892"}, "geometry": {"type": "Point", "coordinates": [-118.056, 40.6932]}},
{"type": "Feature", "id": "xsaU-yGeUGUacVUpEWzXl40yZFI=", "properties": {"ref": "183-T-5060", "amenity:fuel": true, "fuel:diesel:class2": true, "fuel:diesel": true, "fuel:HGV_diesel": true, "fuel:lng": false, "fuel:propane": false, "hgv": true, "@spider": "tapetro", "addr:full": "790 N W Frontage Road", "addr:city": "Troutdale", "addr:state": "OR", "addr:postcode": "97060", "name": "TA Troutdale", "phone": "503-666-1588", "brand": "TravelCenters of America", "brand:wikidata": "Q7835892"}, "geometry": {"type": "Point", "coordinates": [-122.3958, 45.5438]}},
{"type": "Feature", "id": "7IpvSp4akHGGMdBSIzm3oBLBu5c=", "properties": {"ref": "186-TE-5064", "amenity:fuel": true, "fuel:diesel:class2": true, "fuel:diesel": true, "fuel:HGV_diesel": true, "fuel:lng": false, "fuel:propane": false, "hgv": true, "@spider": "tapetro", "addr:full": "1130 North 100", "addr:city": "Parowan", "addr:state": "UT", "addr:postcode": "84761", "name": "TA Express Parowan", "phone": "435-477-3311", "brand": "TA Express", "brand:wikidata": "Q7835892"}, "geometry": {"type": "Point", "coordinates": [-112.8291, 37.8607]}},
{"type": "Feature", "id": "JfUqhRxmUtYsbi71w3VeTzp2iCY=", "properties": {"ref": "187-T-5065", "amenity:fuel": true, "fuel:diesel:class2": true, "fuel:diesel": true, "fuel:HGV_diesel": true, "fuel:lng": false, "fuel:propane": false, "hgv": true, "@spider": "tapetro", "addr:full": "4000 I-80 Service Road ", "addr:city": "Burns", "addr:state": "WY", "addr:postcode": "82003", "name": "TA Cheyenne", "phone": "307-547-3557", "brand": "TravelCenters of America", "brand:wikidata": "Q7835892"}, "geometry": {"type": "Point", "coordinates": [-104.5207, 41.1602]}},
{"type": "Feature", "id": "NUV0Bu7D_08jNUvVJWQUTAFAfGc=", "properties": {"ref": "188-T-5067", "amenity:fuel": true, "fuel:diesel:class2": true, "fuel:diesel": true, "fuel:HGV_diesel": true, "fuel:lng": false, "fuel:propane": false, "hgv": true, "@spider": "tapetro", "addr:full": "I-80 @ Bigelow Road", "addr:city": "Ft. Bridger", "addr:state": "WY", "addr:postcode": "82933", "name": "TA Ft Bridger", "phone": "307-782-3846", "brand": "TravelCenters of America", "brand:wikidata": "Q7835892"}, "geometry": {"type": "Point", "coordinates": [-110.5095, 41.3144]}},
{"type": "Feature", "id": "BU-9LqUwveApLrhT4qV_oaNBWDI=", "properties": {"ref": "190-T-0510", "amenity:fuel": true, "fuel:diesel:class2": true, "fuel:diesel": true, "fuel:HGV_diesel": true, "fuel:lng": false, "fuel:propane": false, "hgv": true, "@spider": "tapetro", "addr:full": "13400 Rogers Drive", "addr:city": "Rogers", "addr:state": "MN", "addr:postcode": "55374-0238", "name": "TA Rogers Dedication: Marty Ellis ", "phone": "763-428-2277", "brand": "TravelCenters of America", "brand:wikidata": "Q7835892"}, "geometry": {"type": "Point", "coordinates": [-93.5492, 45.1969]}},
{"type": "Feature", "id": "mQ84onL-f4wdKc9m9XbylM00R48=", "properties": {"ref": "192-T-0504", "amenity:fuel": true, "fuel:diesel:class2": true, "fuel:diesel": true, "fuel:HGV_diesel": true, "fuel:lng": false, "fuel:propane": false, "hgv": true, "@spider": "tapetro", "addr:full": "601 Brakke Dr.", "addr:city": "Hudson", "addr:state": "WI", "addr:postcode": "54016-0630", "name": "TA Hudson", "phone": "715-386-5835", "brand": "TravelCenters of America", "brand:wikidata": "Q7835892"}, "geometry": {"type": "Point", "coordinates": [-92.6785, 44.9655]}},
{"type": "Feature", "id": "-bqQoytTRXz4Nq15ptfy3gYJEPE=", "properties": {"ref": "193-T-0512", "amenity:fuel": true, "fuel:diesel:class2": true, "fuel:diesel": true, "fuel:HGV_diesel": true, "fuel:lng": false, "fuel:propane": false, "hgv": true, "@spider": "tapetro", "addr:full": "8033 West Holling Rd.", "addr:city": "Alda", "addr:state": "NE", "addr:postcode": "68810-0167", "name": "TA Grand Island", "phone": "308-382-5902", "brand": "TravelCenters of America", "brand:wikidata": "Q7835892"}, "geometry": {"type": "Point", "coordinates": [-98.496, 40.7998]}},
{"type": "Feature", "id": "BU_a2C1ldKf9HUs6haXh_WVRbJM=", "properties": {"ref": "194-T-0102", "amenity:fuel": true, "fuel:diesel:class2": true, "fuel:diesel": true, "fuel:HGV_diesel": true, "fuel:lng": false, "fuel:propane": false, "hgv": true, "@spider": "tapetro", "addr:full": "8420 Alleghany", "addr:city": "Corfu", "addr:state": "NY", "addr:postcode": "14036-0276", "name": "TA Pembroke", "phone": "585-599-4577", "brand": "TravelCenters of America", "brand:wikidata": "Q7835892"}, "geometry": {"type": "Point", "coordinates": [-78.4056, 43.0059]}},
{"type": "Feature", "id": "mMMajBLREzw5MqEeGpXIxMZeuFU=", "properties": {"ref": "195-T-5195", "amenity:fuel": true, "fuel:diesel:class2": true, "fuel:diesel": true, "fuel:HGV_diesel": true, "fuel:lng": false, "fuel:propane": false, "hgv": true, "@spider": "tapetro", "addr:full": "2301 W. Lucas Street", "addr:city": "Florence ", "addr:state": "SC", "addr:postcode": "29501", "name": "TA Florence", "phone": "843-292-0386", "brand": "TravelCenters of America", "brand:wikidata": "Q7835892"}, "geometry": {"type": "Point", "coordinates": [-79.8065, 34.2367]}},
{"type": "Feature", "id": "mXN1Oz3LpI5hbm4B1zrEjWTi7MA=", "properties": {"ref": "197-T-0672", "amenity:fuel": true, "fuel:diesel:class2": true, "fuel:diesel": true, "fuel:HGV_diesel": true, "fuel:lng": false, "fuel:propane": false, "hgv": true, "@spider": "tapetro", "addr:full": "8909 20th Street", "addr:city": "Vero Beach", "addr:state": "FL", "addr:postcode": "32966", "name": "TA Vero Beach", "phone": "772-562-1791", "brand": "TravelCenters of America", "brand:wikidata": "Q7835892"}, "geometry": {"type": "Point", "coordinates": [-80.511, 27.6381]}},
{"type": "Feature", "id": "ZL3qQ-1qH38f_kCJ-tXQZdUFJ2A=", "properties": {"ref": "198-T-0304", "amenity:fuel": true, "fuel:diesel:class2": true, "fuel:diesel": true, "fuel:HGV_diesel": true, "fuel:lng": false, "fuel:propane": false, "hgv": true, "@spider": "tapetro", "addr:full": "6364 Dixie Hwy", "addr:city": "Bridgeport", "addr:state": "MI", "addr:postcode": "48722-9566", "name": "TA Saginaw", "phone": "989-777-7650", "brand": "TravelCenters of America", "brand:wikidata": "Q7835892"}, "geometry": {"type": "Point", "coordinates": [-83.869, 43.3517]}},
{"type": "Feature", "id": "6vIz1t157l5oahhQluhrUUMXiG8=", "properties": {"ref": "199-T-5199", "amenity:fuel": true, "fuel:diesel:class2": true, "fuel:diesel": true, "fuel:HGV_diesel": true, "fuel:lng": false, "fuel:propane": false, "hgv": true, "@spider": "tapetro", "addr:full": "819 Edwardsville Road", "addr:city": "Troy", "addr:state": "IL", "addr:postcode": "62294", "name": "TA Troy", "phone": "618-667-9931", "brand": "TravelCenters of America", "brand:wikidata": "Q7835892"}, "geometry": {"type": "Point", "coordinates": [-89.9098, 38.7338]}},
{"type": "Feature", "id": "fYVfRh-SZ3eyv_MCqn2hz7AlFQk=", "properties": {"ref": "201-T-6201", "amenity:fuel": true, "fuel:diesel:class2": false, "fuel:diesel": true, "fuel:HGV_diesel": true, "fuel:lng": false, "fuel:propane": false, "hgv": true, "@spider": "tapetro", "addr:full": "195 Van Hill Road", "addr:city": "Greeneville", "addr:state": "TN", "addr:postcode": "37745", "name": "TA Davy Crockett", "phone": "423-234-4451", "brand": "TravelCenters of America", "brand:wikidata": "Q7835892"}, "geometry": {"type": "Point", "coordinates": [-82.8354, 36.3254]}},
{"type": "Feature", "id": "HcevYfdhyC6L88rwS25kVhKVeEA=", "properties": {"ref": "202-T-6202", "amenity:fuel": true, "fuel:diesel:class2": false, "fuel:diesel": true, "fuel:HGV_diesel": true, "fuel:lng": false, "fuel:propane": false, "hgv": true, "@spider": "tapetro", "addr:full": "2516 N. Lee Highway", "addr:city": "Lexington", "addr:state": "VA", "addr:postcode": 24450.0, "name": "TA Lexington", "phone": "540-463-3478", "brand": "TravelCenters of America", "brand:wikidata": "Q7835892"}, "geometry": {"type": "Point", "coordinates": [-79.3779, 37.8318]}},
{"type": "Feature", "id": "PhC7cjzxsT_bofItFgHmH4e8WAk=", "properties": {"ref": "207-T-6207", "amenity:fuel": true, "fuel:diesel:class2": true, "fuel:diesel": true, "fuel:HGV_diesel": true, "fuel:lng": false, "fuel:propane": false, "hgv": true, "@spider": "tapetro", "addr:full": "753 Upper Court Street", "addr:city": "Binghamton", "addr:state": "NY", "addr:postcode": "13904", "name": "TA Binghamton", "phone": "607-775-3500", "brand": "TravelCenters of America", "brand:wikidata": "Q7835892"}, "geometry": {"type": "Point", "coordinates": [-75.8418, 42.1013]}},
{"type": "Feature", "id": "E0_SVG7hEgxLu4HCjgV63CWknpA=", "properties": {"ref": "208-T-6208", "amenity:fuel": true, "fuel:diesel:class2": true, "fuel:diesel": true, "fuel:HGV_diesel": true, "fuel:lng": false, "fuel:propane": true, "hgv": true, "@spider": "tapetro", "addr:full": "9616 Commerce Drive", "addr:city": "Dansville", "addr:state": "NY", "addr:postcode": "14437", "name": "TA Dansville", "phone": "585-335-6023", "brand": "TravelCenters of America", "brand:wikidata": "Q7835892"}, "geometry": {"type": "Point", "coordinates": [-77.7195, 42.5662]}},
{"type": "Feature", "id": "LaRbISF8HkYnXNKP5QpUwy-IJIE=", "properties": {"ref": "209-T-6209", "amenity:fuel": true, "fuel:diesel:class2": true, "fuel:diesel": true, "fuel:HGV_diesel": true, "fuel:lng": false, "fuel:propane": false, "hgv": true, "@spider": "tapetro", "addr:full": "40 Riverside Drive", "addr:city": "Fultonville", "addr:state": "NY", "addr:postcode": "12072", "name": "TA Fultonville", "phone": "518-853-3411", "brand": "TravelCenters of America", "brand:wikidata": "Q7835892"}, "geometry": {"type": "Point", "coordinates": [-74.3629, 42.9488]}},
{"type": "Feature", "id": "OJEe4V9nGQo5LzvZrQd9uE78T88=", "properties": {"ref": "210-T-6210", "amenity:fuel": true, "fuel:diesel:class2": true, "fuel:diesel": true, "fuel:HGV_diesel": true, "fuel:lng": false, "fuel:propane": false, "hgv": true, "@spider": "tapetro", "addr:full": "125 Neelytown Road", "addr:city": "Montgomery", "addr:state": "NY", "addr:postcode": "12549", "name": "TA Maybrook", "phone": "845-457-3163", "brand": "TravelCenters of America", "brand:wikidata": "Q7835892"}, "geometry": {"type": "Point", "coordinates": [-74.2207, 41.5042]}},
{"type": "Feature", "id": "fo4NnBOHFm9MMINHQ6Hb-ZAOTmw=", "properties": {"ref": "211-T-6211", "amenity:fuel": true, "fuel:diesel:class2": true, "fuel:diesel": true, "fuel:HGV_diesel": true, "fuel:lng": false, "fuel:propane": false, "hgv": true, "@spider": "tapetro", "addr:full": "108 Ocean Road", "addr:city": "Greenland", "addr:state": "NH", "addr:postcode": "03840", "name": "TA Greenland Dedication: Denis Litalien ", "phone": "603-436-3636", "brand": "TravelCenters of America", "brand:wikidata": "Q7835892"}, "geometry": {"type": "Point", "coordinates": [-70.8182, 43.0431]}},
{"type": "Feature", "id": "Gm6S3IZ-EeXi_SqSzV0iTdTuiGs=", "properties": {"ref": "212-T-6212", "amenity:fuel": true, "fuel:diesel:class2": true, "fuel:diesel": true, "fuel:HGV_diesel": true, "fuel:lng": false, "fuel:propane": false, "hgv": true, "@spider": "tapetro", "addr:full": "6 Buckhorn Rd.", "addr:city": "Bloomsburg", "addr:state": "PA", "addr:postcode": "17815", "name": "TA Bloomsburg", "phone": "570-784-9400", "brand": "TravelCenters of America", "brand:wikidata": "Q7835892"}, "geometry": {"type": "Point", "coordinates": [-76.4928, 41.0143]}},
{"type": "Feature", "id": "nRgabc5Blgu5JJOv0n7n7ldtn0Y=", "properties": {"ref": "213-T-6213", "amenity:fuel": true, "fuel:diesel:class2": true, "fuel:diesel": true, "fuel:HGV_diesel": true, "fuel:lng": false, "fuel:propane": true, "hgv": true, "@spider": "tapetro", "addr:full": "10835 John Wayne Drive", "addr:city": "Greencastle", "addr:state": "PA", "addr:postcode": "17225", "name": "TA Greencastle", "phone": "717-597-7762", "brand": "TravelCenters of America", "brand:wikidata": "Q7835892"}, "geometry": {"type": "Point", "coordinates": [-77.7126, 39.7846]}},
{"type": "Feature", "id": "W1z5_fdAwN_TvUBLolQJGMvDOG0=", "properties": {"ref": "214-T-6214", "amenity:fuel": true, "fuel:diesel:class2": true, "fuel:diesel": true, "fuel:HGV_diesel": true, "fuel:lng": false, "fuel:propane": true, "hgv": true, "@spider": "tapetro", "addr:full": "875 N. Eagle Valley Road", "addr:city": "Milesburg", "addr:state": "PA", "addr:postcode": "16853", "name": "TA Milesburg", "phone": "814-355-7561", "brand": "TravelCenters of America", "brand:wikidata": "Q7835892"}, "geometry": {"type": "Point", "coordinates": [-77.763, 40.9589]}},
{"type": "Feature", "id": "hnaii_i8znWUW_Umkei5rhUKV4s=", "properties": {"ref": "215-T-6215", "amenity:fuel": true, "fuel:diesel:class2": true, "fuel:diesel": true, "fuel:HGV_diesel": true, "fuel:lng": false, "fuel:propane": false, "hgv": true, "@spider": "tapetro", "addr:full": "4050 Depot Road", "addr:city": "Erie", "addr:state": "PA", "addr:postcode": "16510", "name": "TA Harborcreek", "phone": "814-899-1919", "brand": "TravelCenters of America", "brand:wikidata": "Q7835892"}, "geometry": {"type": "Point", "coordinates": [-79.9261, 42.1405]}},
{"type": "Feature", "id": "ctBpcubx-kjajEl-nfBtNHmljGY=", "properties": {"ref": "216-T-6216", "amenity:fuel": true, "fuel:diesel:class2": true, "fuel:diesel": true, "fuel:HGV_diesel": true, "fuel:lng": false, "fuel:propane": false, "hgv": true, "@spider": "tapetro", "addr:full": "5501 O'Donnell Street", "addr:city": "Baltimore", "addr:state": "MD", "addr:postcode": "21224", "name": "TA Baltimore", "phone": "410-633-4611", "brand": "TravelCenters of America", "brand:wikidata": "Q7835892"}, "geometry": {"type": "Point", "coordinates": [-76.5488, 39.2775]}},
{"type": "Feature", "id": "PzOuKqDUWv5yhLAU8NJOYi-GXaA=", "properties": {"ref": "218-T-6218", "amenity:fuel": true, "fuel:diesel:class2": true, "fuel:diesel": true, "fuel:HGV_diesel": true, "fuel:lng": false, "fuel:propane": false, "hgv": true, "@spider": "tapetro", "addr:full": "171 Berkley Rd.", "addr:city": "Paulsboro", "addr:state": "NJ", "addr:postcode": "08066", "name": "TA Paulsboro", "phone": "856-423-5500", "brand": "TravelCenters of America", "brand:wikidata": "Q7835892"}, "geometry": {"type": "Point", "coordinates": [-75.2385, 39.819]}},
{"type": "Feature", "id": "bQFUs6kDIpGcb4jN_o9PX-FJ0pM=", "properties": {"ref": "219-T-6219", "amenity:fuel": true, "fuel:diesel:class2": true, "fuel:diesel": true, "fuel:HGV_diesel": true, "fuel:lng": false, "fuel:propane": false, "hgv": true, "@spider": "tapetro", "addr:full": "1201 Ripley Street", "addr:city": "Lake Station", "addr:state": "IN", "addr:postcode": "46405", "name": "TA Lake Station", "phone": "219-962-6552", "brand": "TravelCenters of America", "brand:wikidata": "Q7835892"}, "geometry": {"type": "Point", "coordinates": [-87.2393, 41.5906]}},
{"type": "Feature", "id": "MCT8LcJUoy7Eku_RqkaPsBasqXg=", "properties": {"ref": "220-T-6220", "amenity:fuel": true, "fuel:diesel:class2": true, "fuel:diesel": true, "fuel:HGV_diesel": true, "fuel:lng": false, "fuel:propane": false, "hgv": true, "@spider": "tapetro", "addr:full": "1600 West US Hwy 20 ", "addr:city": "Porter", "addr:state": "IN", "addr:postcode": "46304", "name": "TA Porter", "phone": "219-926-8566", "brand": "TravelCenters of America", "brand:wikidata": "Q7835892"}, "geometry": {"type": "Point", "coordinates": [-87.0985, 41.6125]}},
{"type": "Feature", "id": "XXsCAhqpp3uPIMQ0oNcW1vqImTE=", "properties": {"ref": "221-T-6221", "amenity:fuel": true, "fuel:diesel:class2": true, "fuel:diesel": true, "fuel:HGV_diesel": true, "fuel:lng": false, "fuel:propane": false, "hgv": true, "@spider": "tapetro", "addr:full": "153 Wiggins Road", "addr:city": "Candler", "addr:state": "NC", "addr:postcode": "28715", "name": "TA Candler", "phone": "828-665-1156", "brand": "TravelCenters of America", "brand:wikidata": "Q7835892"}, "geometry": {"type": "Point", "coordinates": [-82.754, 35.5432]}},
{"type": "Feature", "id": "MmyTz6nfO0EVCZF3CHlyLo0juTE=", "properties": {"ref": "224-T-6224", "amenity:fuel": true, "fuel:diesel:class2": true, "fuel:diesel": true, "fuel:HGV_diesel": true, "fuel:lng": false, "fuel:propane": false, "hgv": true, "@spider": "tapetro", "addr:full": "1806 Hwy 371 West", "addr:city": "Prescott", "addr:state": "AR", "addr:postcode": "71857", "name": "TA Prescott", "phone": "870-887-8900", "brand": "TravelCenters of America", "brand:wikidata": "Q7835892"}, "geometry": {"type": "Point", "coordinates": [-93.427, 33.8112]}},
{"type": "Feature", "id": "j8ips0vqAnLsQhpIvLvpe-gr-i0=", "properties": {"ref": "225-T-6225", "amenity:fuel": true, "fuel:diesel:class2": true, "fuel:diesel": true, "fuel:HGV_diesel": true, "fuel:lng": false, "fuel:propane": false, "hgv": true, "@spider": "tapetro", "addr:full": "1010 N. 339th Avenue", "addr:city": "Tonopah", "addr:state": "AZ", "addr:postcode": "85354", "name": "TA Tonopah", "phone": "623-386-6443", "brand": "TravelCenters of America", "brand:wikidata": "Q7835892"}, "geometry": {"type": "Point", "coordinates": [-112.7841, 33.4597]}},
{"type": "Feature", "id": "M60SKaVMH_YL_MmmLWtD1NGFWlM=", "properties": {"ref": "226-T-6226", "amenity:fuel": true, "fuel:diesel:class2": true, "fuel:diesel": true, "fuel:HGV_diesel": true, "fuel:lng": false, "fuel:propane": false, "hgv": true, "@spider": "tapetro", "addr:full": "1501 North Fort Grant Road", "addr:city": "Willcox", "addr:state": "AZ", "addr:postcode": "85643", "name": "TA Willcox", "phone": "520-384-5311", "brand": "TravelCenters of America", "brand:wikidata": "Q7835892"}, "geometry": {"type": "Point", "coordinates": [-109.8479, 32.2688]}},
{"type": "Feature", "id": "mhGAaD4H4gpyrtzh4kCGoe6DLlE=", "properties": {"ref": "227-T-6227", "amenity:fuel": true, "fuel:diesel:class2": true, "fuel:diesel": true, "fuel:HGV_diesel": true, "fuel:lng": false, "fuel:propane": false, "hgv": true, "@spider": "tapetro", "addr:full": "2930 Lenwood Road", "addr:city": "Barstow", "addr:state": "CA", "addr:postcode": "92311", "name": "TA Barstow", "phone": "760-253-2922", "brand": "TravelCenters of America", "brand:wikidata": "Q7835892"}, "geometry": {"type": "Point", "coordinates": [-117.0888, 34.8537]}},
{"type": "Feature", "id": "9B-a0SB5YLZ2vI1oLMhoLxPROV0=", "properties": {"ref": "228-T-6228", "amenity:fuel": true, "fuel:diesel:class2": true, "fuel:diesel": true, "fuel:HGV_diesel": true, "fuel:lng": false, "fuel:propane": false, "hgv": true, "@spider": "tapetro", "addr:full": "2200 Ninth Street", "addr:city": "Limon", "addr:state": "CO", "addr:postcode": "80828", "name": "TA Limon", "phone": "719-775-2811", "brand": "TravelCenters of America", "brand:wikidata": "Q7835892"}, "geometry": {"type": "Point", "coordinates": [-103.7067, 39.271]}},
{"type": "Feature", "id": "8wJpZgY4W2PQI_3ZeMsuAeYF3Us=", "properties": {"ref": "229-T-6229", "amenity:fuel": true, "fuel:diesel:class2": true, "fuel:diesel": true, "fuel:HGV_diesel": true, "fuel:lng": false, "fuel:propane": false, "hgv": true, "@spider": "tapetro", "addr:full": "1700 U.S. Route 66 West", "addr:city": "Moriarty", "addr:state": "NM", "addr:postcode": "87035", "name": "TA Moriarty", "phone": "505-832-4421", "brand": "TravelCenters of America", "brand:wikidata": "Q7835892"}, "geometry": {"type": "Point", "coordinates": [-106.065, 35.0095]}},
{"type": "Feature", "id": "isqmlxhGQ25ba6BGgWKFouQHIN4=", "properties": {"ref": "230-T-6230", "amenity:fuel": true, "fuel:diesel:class2": true, "fuel:diesel": true, "fuel:HGV_diesel": true, "fuel:lng": false, "fuel:propane": false, "hgv": true, "@spider": "tapetro", "addr:full": "704 West Interstate 20", "addr:city": "Big Spring", "addr:state": "TX", "addr:postcode": "79720", "name": "TA Big Spring", "phone": "432-264-4444", "brand": "TravelCenters of America", "brand:wikidata": "Q7835892"}, "geometry": {"type": "Point", "coordinates": [-101.49, 32.2648]}},
{"type": "Feature", "id": "pSJBwgIg5iAnGlDU2AkCopsnPxk=", "properties": {"ref": "231-T-6231", "amenity:fuel": true, "fuel:diesel:class2": true, "fuel:diesel": true, "fuel:HGV_diesel": true, "fuel:lng": false, "fuel:propane": false, "hgv": true, "@spider": "tapetro", "addr:full": "802 E. York, Hwy 59", "addr:city": "Ganado", "addr:state": "TX", "addr:postcode": "77962", "name": "TA Ganado", "phone": "361-771-3504", "brand": "TravelCenters of America", "brand:wikidata": "Q7835892"}, "geometry": {"type": "Point", "coordinates": [-96.5136, 29.0405]}},
{"type": "Feature", "id": "VCIrxexMAUKsb5y_LPQXMnOXKU8=", "properties": {"ref": "232-T-6232", "amenity:fuel": true, "fuel:diesel:class2": true, "fuel:diesel": true, "fuel:HGV_diesel": true, "fuel:lng": false, "fuel:propane": false, "hgv": true, "@spider": "tapetro", "addr:full": "4817  I-35 North", "addr:city": "New Braunfels", "addr:state": "TX", "addr:postcode": "78130", "name": "TA New Braunfels", "phone": "830-608-9395", "brand": "TravelCenters of America", "brand:wikidata": "Q7835892"}, "geometry": {"type": "Point", "coordinates": [-98.0586, 29.75]}},
{"type": "Feature", "id": "JAJfk1Inkcu-a-I3FfFak7c-nO4=", "properties": {"ref": "233-T-6233", "amenity:fuel": true, "fuel:diesel:class2": false, "fuel:diesel": true, "fuel:HGV_diesel": true, "fuel:lng": false, "fuel:propane": false, "hgv": true, "@spider": "tapetro", "addr:full": "1700 Wilson Road", "addr:city": "Terrell", "addr:state": "TX", "addr:postcode": "75161", "name": "TA Terrell", "phone": "972-563-6939", "brand": "TravelCenters of America", "brand:wikidata": "Q7835892"}, "geometry": {"type": "Point", "coordinates": [-96.2441, 32.6908]}},
{"type": "Feature", "id": "wF_xXEsox1ZqdNZtDVNodj6lQRs=", "properties": {"ref": "234-T-6234", "amenity:fuel": true, "fuel:diesel:class2": true, "fuel:diesel": true, "fuel:HGV_diesel": true, "fuel:lng": false, "fuel:propane": false, "hgv": true, "@spider": "tapetro", "addr:full": "1400 Higley Blvd.", "addr:city": "Rawlins", "addr:state": "WY", "addr:postcode": "82301", "name": "TA Rawlins", "phone": "307-324-8722", "brand": "TravelCenters of America", "brand:wikidata": "Q7835892"}, "geometry": {"type": "Point", "coordinates": [-107.2243, 41.7762]}},
{"type": "Feature", "id": "vzly34jC6KAL3MHnNnqFUtuLZZg=", "properties": {"ref": "235-T-5085", "amenity:fuel": true, "fuel:diesel:class2": true, "fuel:diesel": true, "fuel:HGV_diesel": true, "fuel:lng": false, "fuel:propane": false, "hgv": true, "@spider": "tapetro", "addr:full": "8301 N.HWY 281", "addr:city": "Edinburg", "addr:state": "TX", "addr:postcode": "78541-7060", "name": "TA Edinburg", "phone": "956-383-0788", "brand": "TravelCenters of America", "brand:wikidata": "Q7835892"}, "geometry": {"type": "Point", "coordinates": [-98.1432, 26.385]}},
{"type": "Feature", "id": "-0kErn3b_nVWOQS_7UIyEYfU7YU=", "properties": {"ref": "236-T-6236.0", "amenity:fuel": true, "fuel:diesel:class2": true, "fuel:diesel": true, "fuel:HGV_diesel": true, "fuel:lng": false, "fuel:propane": false, "hgv": true, "@spider": "tapetro", "addr:full": "21 Romines Dr.", "addr:city": "Morris", "addr:state": "IL", "addr:postcode": "60440", "name": "TA Morris", "phone": "815-942-5690", "brand": "TravelCenters of America", "brand:wikidata": "Q7835892"}, "geometry": {"type": "Point", "coordinates": [-88.4203, 41.3917]}},
{"type": "Feature", "id": "pklBanmkJtgT9yxfKUNkmLHPfgw=", "properties": {"ref": "237-T-6237", "amenity:fuel": true, "fuel:diesel:class2": true, "fuel:diesel": true, "fuel:HGV_diesel": true, "fuel:lng": false, "fuel:propane": false, "hgv": true, "@spider": "tapetro", "addr:full": "8560 Greenwood Rd", "addr:city": "Greenwood", "addr:state": "LA", "addr:postcode": "71033", "name": "TA Greenwood Dedication: Bill Underwood ", "phone": "318-938-5411", "brand": "TravelCenters of America", "brand:wikidata": "Q7835892"}, "geometry": {"type": "Point", "coordinates": [-93.9493, 32.4461]}},
{"type": "Feature", "id": "_jIJWPJKlIVb33gGGurG1wNLRg8=", "properties": {"ref": "238.0-P-6238.0", "amenity:fuel": true, "fuel:diesel:class2": true, "fuel:diesel": true, "fuel:HGV_diesel": true, "fuel:lng": false, "fuel:propane": false, "hgv": true, "@spider": "tapetro", "addr:full": "2154 S. Beltline Blvd.", "addr:city": "Columbia", "addr:state": "SC", "addr:postcode": "29201", "name": "Petro Columbia", "phone": "803-908-4889", "brand": "Petro", "brand:wikidata": "Q7835892"}, "geometry": {"type": "Point", "coordinates": [-80.9896, 33.9533]}},
{"type": "Feature", "id": "abaC8lbKpproLGInHwoTKQetG_U=", "properties": {"ref": "239-T-6239", "amenity:fuel": true, "fuel:diesel:class2": true, "fuel:diesel": true, "fuel:HGV_diesel": true, "fuel:lng": false, "fuel:propane": false, "hgv": true, "@spider": "tapetro", "addr:full": "5552 Wheeler Ridge Rd.", "addr:city": "Arvin", "addr:state": "CA", "addr:postcode": 93203.0, "name": "TA Wheeler Ridge", "phone": "661-858-2804", "brand": "TravelCenters of America", "brand:wikidata": "Q7835892"}, "geometry": {"type": "Point", "coordinates": [-118.9412, 34.992]}},
{"type": "Feature", "id": "5MdPXSRcsMJLFapi91_HSX35fn0=", "properties": {"ref": "241-T-6241", "amenity:fuel": true, "fuel:diesel:class2": true, "fuel:diesel": true, "fuel:HGV_diesel": true, "fuel:lng": false, "fuel:propane": false, "hgv": true, "@spider": "tapetro", "addr:full": "11166 W. State Road 10", "addr:city": "DeMotte", "addr:state": "IN", "addr:postcode": 46310.0, "name": "TA DeMotte", "phone": "219-987-7520", "brand": "TravelCenters of America", "brand:wikidata": "Q7835892"}, "geometry": {"type": "Point", "coordinates": [-87.2597, 41.1456]}},
{"type": "Feature", "id": "vevz0EHAGGu8HI5ySqSKfluWwQA=", "properties": {"ref": "242-T-6242", "amenity:fuel": true, "fuel:diesel:class2": true, "fuel:diesel": true, "fuel:HGV_diesel": true, "fuel:lng": false, "fuel:propane": true, "hgv": true, "@spider": "tapetro", "addr:full": "15874 Eleven Mile Rd.", "addr:city": "Battle Creek", "addr:state": "MI", "addr:postcode": 49014.0, "name": "TA Battle Creek", "phone": "269-965-7721", "brand": "TravelCenters of America", "brand:wikidata": "Q7835892"}, "geometry": {"type": "Point", "coordinates": [-85.0811, 42.3029]}},
{"type": "Feature", "id": "i9RJb5hQQXMBC4hiJVPcC4vKRZo=", "properties": {"ref": "243-T-6243", "amenity:fuel": true, "fuel:diesel:class2": true, "fuel:diesel": true, "fuel:HGV_diesel": true, "fuel:lng": false, "fuel:propane": true, "hgv": true, "@spider": "tapetro", "addr:full": "15587 M-60", "addr:city": "Tekonsha", "addr:state": "MI", "addr:postcode": 49092.0, "name": "TA Tekonsha", "phone": "517-767-4135", "brand": "TravelCenters of America", "brand:wikidata": "Q7835892"}, "geometry": {"type": "Point", "coordinates": [-84.9897, 42.1065]}},
{"type": "Feature", "id": "29nFET8EwKGLNdb1TXdY-R5cUCs=", "properties": {"ref": "245-T-6245", "amenity:fuel": true, "fuel:diesel:class2": true, "fuel:diesel": true, "fuel:HGV_diesel": true, "fuel:lng": false, "fuel:propane": false, "hgv": true, "@spider": "tapetro", "addr:full": "155 Hwy. 138 Providence Road", "addr:city": "Denmark", "addr:state": "TN", "addr:postcode": "38391-9998", "name": "TA Denmark", "phone": "731-424-5591", "brand": "TravelCenters of America", "brand:wikidata": "Q7835892"}, "geometry": {"type": "Point", "coordinates": [-89.0562, 35.595]}},
{"type": "Feature", "id": "SQA7HLsRu8u-TnDq4NHB1rXjeR4=", "properties": {"ref": "246.0-T-6246.0", "amenity:fuel": true, "fuel:diesel:class2": true, "fuel:diesel": true, "fuel:HGV_diesel": true, "fuel:lng": false, "fuel:propane": false, "hgv": true, "@spider": "tapetro", "addr:full": "3747 Express Dr.", "addr:city": "Holbrook", "addr:state": "AZ", "addr:postcode": 86025.0, "name": "TA Holbrook", "phone": "928-524-3006", "brand": "TravelCenters of America", "brand:wikidata": "Q7835892"}, "geometry": {"type": "Point", "coordinates": [-110.2108, 34.9054]}},
{"type": "Feature", "id": "5cLfbBLYjbm-EBPfRTXvk4UPUi4=", "properties": {"ref": "247.0-T-6247.0", "amenity:fuel": true, "fuel:diesel:class2": true, "fuel:diesel": true, "fuel:HGV_diesel": true, "fuel:lng": false, "fuel:propane": false, "hgv": true, "@spider": "tapetro", "addr:full": "1024 US 301 South", "addr:city": "Baldwin", "addr:state": "FL", "addr:postcode": "32234", "name": "TA Baldwin", "phone": "904-266-4281", "brand": "TravelCenters of America", "brand:wikidata": "Q7835892"}, "geometry": {"type": "Point", "coordinates": [-81.9841, 30.2855]}},
{"type": "Feature", "id": "1y9a6BzPu3z9NeLJAw9sffC-n5I=", "properties": {"ref": "248-T-6248.0", "amenity:fuel": true, "fuel:diesel:class2": true, "fuel:diesel": true, "fuel:HGV_diesel": true, "fuel:lng": false, "fuel:propane": false, "hgv": true, "@spider": "tapetro", "addr:full": "1650 C.R. 210 West", "addr:city": "Jacksonville", "addr:state": "FL", "addr:postcode": "32259-2011", "name": "TA Jacksonville South", "phone": "904-829-3946", "brand": "TravelCenters of America", "brand:wikidata": "Q7835892"}, "geometry": {"type": "Point", "coordinates": [-81.4961, 30.0661]}},
{"type": "Feature", "id": "HdfZyXPED7SfmtdqFQ3k9vHaOZI=", "properties": {"ref": "249.0-T-6249.0", "amenity:fuel": true, "fuel:diesel:class2": true, "fuel:diesel": true, "fuel:HGV_diesel": true, "fuel:lng": false, "fuel:propane": false, "hgv": true, "@spider": "tapetro", "addr:full": "6901 Lake Park Bellville Road", "addr:city": "Lake Park", "addr:state": "GA", "addr:postcode": "31636-0430", "name": "TA Lake Park", "phone": "229-559-5113", "brand": "TravelCenters of America", "brand:wikidata": "Q7835892"}, "geometry": {"type": "Point", "coordinates": [-83.1876, 30.644]}},
{"type": "Feature", "id": "ZfBAGHtPQVC1AdARnZJVBtCKvOk=", "properties": {"ref": "250-T-6250", "amenity:fuel": true, "fuel:diesel:class2": true, "fuel:diesel": true, "fuel:HGV_diesel": true, "fuel:lng": false, "fuel:propane": false, "hgv": true, "@spider": "tapetro", "addr:full": "1441 W. US Hwy 20", "addr:city": "Porter", "addr:state": "IN", "addr:postcode": 46304.0, "name": "TA Porter South", "phone": "219-926-4871", "brand": "TravelCenters of America", "brand:wikidata": "Q7835892"}, "geometry": {"type": "Point", "coordinates": [-87.0957, 41.6129]}},
{"type": "Feature", "id": "SJ99MwB4C252lv__McC2Dl1_IdY=", "properties": {"ref": "251.0-T-6251.0", "amenity:fuel": true, "fuel:diesel:class2": true, "fuel:diesel": true, "fuel:HGV_diesel": true, "fuel:lng": false, "fuel:propane": false, "hgv": true, "@spider": "tapetro", "addr:full": "1670 U.S. Hwy 601 North", "addr:city": "Mocksville", "addr:state": "NC", "addr:postcode": 27028.0, "name": "TA Mocksville", "phone": "336-751-3815", "brand": "TravelCenters of America", "brand:wikidata": "Q7835892"}, "geometry": {"type": "Point", "coordinates": [-80.5917, 35.925]}},
{"type": "Feature", "id": "ZlJ-ZJE37IIJgeqC230wf9DgXBI=", "properties": {"ref": "252.0-T-6252.0", "amenity:fuel": true, "fuel:diesel:class2": true, "fuel:diesel": true, "fuel:HGV_diesel": true, "fuel:lng": false, "fuel:propane": false, "hgv": true, "@spider": "tapetro", "addr:full": "2775 Highway 75", "addr:city": "Lebo", "addr:state": "KS", "addr:postcode": "66856", "name": "TA Beto Junction", "phone": "620-256-6311", "brand": "TravelCenters of America", "brand:wikidata": "Q7835892"}, "geometry": {"type": "Point", "coordinates": [-95.7272, 38.4276]}},
{"type": "Feature", "id": "HK4yCXFvNphw31-avQKW3LC6nOE=", "properties": {"ref": "253.0-T-6253.0", "amenity:fuel": true, "fuel:diesel:class2": true, "fuel:diesel": true, "fuel:HGV_diesel": true, "fuel:lng": false, "fuel:propane": false, "hgv": true, "@spider": "tapetro", "addr:full": "849 Victory Hwy. West", "addr:city": "West Greenwich", "addr:state": "RI", "addr:postcode": 2817.0, "name": "TA West Greenwich", "phone": "401-397-7774", "brand": "TravelCenters of America", "brand:wikidata": "Q7835892"}, "geometry": {"type": "Point", "coordinates": [-71.6638, 41.6081]}},
{"type": "Feature", "id": "leToR9hG3xSBNk_q7V2aQw1JypQ=", "properties": {"ref": "254-T-6254.0", "amenity:fuel": true, "fuel:diesel:class2": true, "fuel:diesel": true, "fuel:HGV_diesel": true, "fuel:lng": false, "fuel:propane": false, "hgv": true, "@spider": "tapetro", "addr:full": "4124 V18 Rd.", "addr:city": "Brooklyn", "addr:state": "IA", "addr:postcode": 52211.0, "name": "TA Brooklyn ", "phone": "641-522-4569", "brand": "TravelCenters of America", "brand:wikidata": "Q7835892"}, "geometry": {"type": "Point", "coordinates": [-92.4459, 41.6978]}},
{"type": "Feature", "id": "sDoyXPWlkEsE-c1V_T6SJw-WOuY=", "properties": {"ref": "255-T-6255.0", "amenity:fuel": true, "fuel:diesel:class2": true, "fuel:diesel": true, "fuel:HGV_diesel": true, "fuel:lng": false, "fuel:propane": false, "hgv": true, "@spider": "tapetro", "addr:full": "305 Howard Baker Hwy", "addr:city": "Pioneer", "addr:state": "TN", "addr:postcode": 37847.0, "name": "TA Caryville", "phone": "423-562-3490", "brand": "TravelCenters of America", "brand:wikidata": "Q7835892"}, "geometry": {"type": "Point", "coordinates": [-84.2496, 36.378]}},
{"type": "Feature", "id": "crwFPmf8taTeiOEUpXOnMr-YHjM=", "properties": {"ref": "256-T-6256.0", "amenity:fuel": true, "fuel:diesel:class2": true, "fuel:diesel": true, "fuel:HGV_diesel": true, "fuel:lng": false, "fuel:propane": true, "hgv": true, "@spider": "tapetro", "addr:full": "8018 U.S. Hwy. 93 N.", "addr:city": "Missoula", "addr:state": "MT", "addr:postcode": 59808.0, "name": "TA Missoula", "phone": "406-549-2327", "brand": "TravelCenters of America", "brand:wikidata": "Q7835892"}, "geometry": {"type": "Point", "coordinates": [-114.1298, 46.9485]}},
{"type": "Feature", "id": "kS8XO5FIAp7R8wxtHKEAIG1bvow=", "properties": {"ref": "257-T-6257.0", "amenity:fuel": true, "fuel:diesel:class2": true, "fuel:diesel": true, "fuel:HGV_diesel": true, "fuel:lng": false, "fuel:propane": false, "hgv": true, "@spider": "tapetro", "addr:full": "10346 S.  State Road 39", "addr:city": "Clayton", "addr:state": "IN", "addr:postcode": "46118-9184", "name": "TA Clayton", "phone": "317-539-6515", "brand": "TravelCenters of America", "brand:wikidata": "Q7835892"}, "geometry": {"type": "Point", "coordinates": [-86.4807, 39.6113]}},
{"type": "Feature", "id": "MJBZTV05-qquIL4sK3CErsIyl8Q=", "properties": {"ref": "258-T-6258.0", "amenity:fuel": true, "fuel:diesel:class2": true, "fuel:diesel": true, "fuel:HGV_diesel": true, "fuel:lng": false, "fuel:propane": false, "hgv": true, "@spider": "tapetro", "addr:full": "185 Dungeness Drive", "addr:city": "Brunswick", "addr:state": "GA", "addr:postcode": "31523", "name": "TA Brunswick ", "phone": "912-279-3386", "brand": "TravelCenters of America", "brand:wikidata": "Q7835892"}, "geometry": {"type": "Point", "coordinates": [-81.5799, 31.1381]}},
{"type": "Feature", "id": "okCoVbzwIxFBHwhUHq70oi6czKM=", "properties": {"ref": "259-TE-6259.0", "amenity:fuel": true, "fuel:diesel:class2": true, "fuel:diesel": true, "fuel:HGV_diesel": true, "fuel:lng": false, "fuel:propane": true, "hgv": true, "@spider": "tapetro", "addr:full": "14256 Hwy. 85 North", "addr:city": "Alexander", "addr:state": "ND", "addr:postcode": "58831", "name": "TA Express Alexander", "phone": "701-828-3355", "brand": "TA Express", "brand:wikidata": "Q7835892"}, "geometry": {"type": "Point", "coordinates": [-103.6458, 47.8047]}},
{"type": "Feature", "id": "KNOsxVSszWVIzRjdrAW0DqidhFc=", "properties": {"ref": "260-T-6260.0", "amenity:fuel": true, "fuel:diesel:class2": false, "fuel:diesel": true, "fuel:HGV_diesel": true, "fuel:lng": false, "fuel:propane": false, "hgv": true, "@spider": "tapetro", "addr:full": "75246 Alabama 77", "addr:city": "Lincoln", "addr:state": "AL", "addr:postcode": "35096", "name": "TA Lincoln", "phone": "205-763-2771", "brand": "TravelCenters of America", "brand:wikidata": "Q7835892"}, "geometry": {"type": "Point", "coordinates": [-86.1248, 33.5865]}},
{"type": "Feature", "id": "11lESnsH-n3tk_vsxNCK5KcU764=", "properties": {"ref": "261-T-6261.0", "amenity:fuel": true, "fuel:diesel:class2": true, "fuel:diesel": true, "fuel:HGV_diesel": true, "fuel:lng": false, "fuel:propane": false, "hgv": true, "@spider": "tapetro", "addr:full": "11360 South Frontage Road", "addr:city": "Laurel", "addr:state": "MT", "addr:postcode": "59044", "name": "TA Laurel", "phone": "406-628-4324", "brand": "TravelCenters of America", "brand:wikidata": "Q7835892"}, "geometry": {"type": "Point", "coordinates": [-108.7038, 45.6823]}},
{"type": "Feature", "id": "Fv7UYA24uM9b5pPHinsZt6YZ8Eg=", "properties": {"ref": "262-T-6262.0", "amenity:fuel": true, "fuel:diesel:class2": true, "fuel:diesel": true, "fuel:HGV_diesel": true, "fuel:lng": false, "fuel:propane": true, "hgv": true, "@spider": "tapetro", "addr:full": "99 Plumbers Road", "addr:city": "Columbia", "addr:state": "SC", "addr:postcode": "29203", "name": "TA Columbia North", "phone": "803-786-7680", "brand": "TravelCenters of America", "brand:wikidata": "Q7835892"}, "geometry": {"type": "Point", "coordinates": [-80.9971, 34.0747]}},
{"type": "Feature", "id": "Vi1tG_N2BB4KMifWE_e_1AxwRcM=", "properties": {"ref": "264-TE-6264.0", "amenity:fuel": true, "fuel:diesel:class2": true, "fuel:diesel": true, "fuel:HGV_diesel": true, "fuel:lng": false, "fuel:propane": false, "hgv": true, "@spider": "tapetro", "addr:full": "2222 US Hwy 6", "addr:city": "Grand Junction", "addr:state": "CO", "addr:postcode": "81505", "name": "TA Express Grand Junction", "phone": "970-243-7401", "brand": "TA Express", "brand:wikidata": "Q7835892"}, "geometry": {"type": "Point", "coordinates": [-108.6408, 39.1089]}},
{"type": "Feature", "id": "933AIuSzJ2rjXDp_nlS6WKuMq3U=", "properties": {"ref": "266-T-6266.0", "amenity:fuel": true, "fuel:diesel:class2": false, "fuel:diesel": true, "fuel:HGV_diesel": true, "fuel:lng": false, "fuel:propane": false, "hgv": true, "@spider": "tapetro", "addr:full": "6420 North I-35", "addr:city": "Denton", "addr:state": "TX", "addr:postcode": "76207", "name": "TA Denton", "phone": "940-383-1458", "brand": "TravelCenters of America", "brand:wikidata": "Q7835892"}, "geometry": {"type": "Point", "coordinates": [-97.1758, 33.2617]}},
{"type": "Feature", "id": "soRbXj4117Z8qNm2aFAnQahuh_0=", "properties": {"ref": "268-T-6268.0", "amenity:fuel": true, "fuel:diesel:class2": true, "fuel:diesel": true, "fuel:HGV_diesel": true, "fuel:lng": false, "fuel:propane": false, "hgv": true, "@spider": "tapetro", "addr:full": "122 Truckstop Way", "addr:city": "Jackson ", "addr:state": "GA", "addr:postcode": "30233-0967", "name": "TA Atlanta South", "phone": "770-775-2076", "brand": "TravelCenters of America", "brand:wikidata": "Q7835892"}, "geometry": {"type": "Point", "coordinates": [-84.0585, 33.2065]}},
{"type": "Feature", "id": "iUZDPh9exh9XZbW_cc4acsnxYcQ=", "properties": {"ref": "269-T-6269.0", "amenity:fuel": true, "fuel:diesel:class2": true, "fuel:diesel": true, "fuel:HGV_diesel": true, "fuel:lng": false, "fuel:propane": false, "hgv": true, "@spider": "tapetro", "addr:full": "615 Watt Road", "addr:city": "Knoxville", "addr:state": "TN", "addr:postcode": "37922-1112", "name": "TA Knoxville West", "phone": "865-531-7676", "brand": "TravelCenters of America", "brand:wikidata": "Q7835892"}, "geometry": {"type": "Point", "coordinates": [-84.2354, 35.8734]}},
{"type": "Feature", "id": "t9Nh6EYA61O8tLKGHQPk7URbO8c=", "properties": {"ref": "270-T-6270.0", "amenity:fuel": true, "fuel:diesel:class2": true, "fuel:diesel": true, "fuel:HGV_diesel": true, "fuel:lng": false, "fuel:propane": false, "hgv": true, "@spider": "tapetro", "addr:full": "6701 US Hwy 90", "addr:city": "Sealy", "addr:state": "TX", "addr:postcode": "77474", "name": "TA Bernardo", "phone": "979-732-2986", "brand": "TravelCenters of America", "brand:wikidata": "Q7835892"}, "geometry": {"type": "Point", "coordinates": [-96.3301, 29.7427]}},
{"type": "Feature", "id": "yO0qHlglp3xdrAB5Pc7BTyly4fo=", "properties": {"ref": "271-T-7271.0", "amenity:fuel": true, "fuel:diesel:class2": false, "fuel:diesel": true, "fuel:HGV_diesel": true, "fuel:lng": false, "fuel:propane": false, "hgv": true, "@spider": "tapetro", "addr:full": "5800 Oakley Industrial Blvd.", "addr:city": "Fairburn", "addr:state": "GA", "addr:postcode": "30213", "name": "TA Truck Service Fairburn", "phone": "470-615-3956", "brand": "TravelCenters of America", "brand:wikidata": "Q7835892"}, "geometry": {"type": "Point", "coordinates": [-84.5729, 33.541]}},
{"type": "Feature", "id": "Y7Bw_TE6YDYzW3W1y9uZDQzqGcM=", "properties": {"ref": "272-TE-1750.0", "amenity:fuel": true, "fuel:diesel:class2": true, "fuel:diesel": true, "fuel:HGV_diesel": true, "fuel:lng": false, "fuel:propane": false, "hgv": true, "@spider": "tapetro", "addr:full": "620 Mitchell Ave. North", "addr:city": "Steele", "addr:state": "ND", "addr:postcode": "58482", "name": "TA Express Steele", "phone": "701-475-2274", "brand": "TA Express", "brand:wikidata": "Q7835892"}, "geometry": {"type": "Point", "coordinates": [-99.9157, 46.8618]}},
{"type": "Feature", "id": "_ASfQsA-7WdejOJEZbs56KvoZ7M=", "properties": {"ref": "273-TE-6273.0", "amenity:fuel": true, "fuel:diesel:class2": true, "fuel:diesel": true, "fuel:HGV_diesel": true, "fuel:lng": false, "fuel:propane": false, "hgv": true, "@spider": "tapetro", "addr:full": "27638 US 385", "addr:city": "Hot Springs", "addr:state": "SD", "addr:postcode": "57747", "name": "TA Express Hot Springs", "phone": "605-745-4215", "brand": "TA Express", "brand:wikidata": "Q7835892"}, "geometry": {"type": "Point", "coordinates": [-103.3958, 43.3986]}},
{"type": "Feature", "id": "poZvURPiUdY7zH9k2WgsGXqwQvE=", "properties": {"ref": "274.0-TE-6274.0", "amenity:fuel": true, "fuel:diesel:class2": true, "fuel:diesel": true, "fuel:HGV_diesel": true, "fuel:lng": false, "fuel:propane": false, "hgv": true, "@spider": "tapetro", "addr:full": "45789 US Hwy 12", "addr:city": "Summit", "addr:state": "SD", "addr:postcode": 57266.0, "name": "TA Express Summit", "phone": "605-398-6493", "brand": "TA Express", "brand:wikidata": "Q7835892"}, "geometry": {"type": "Point", "coordinates": [-97.04626, 45.311234]}},
{"type": "Feature", "id": "2P44KpIknSMCP0pCj1xrrHSZ0jk=", "properties": {"ref": "275.0-TE-6275.0", "amenity:fuel": true, "fuel:diesel:class2": true, "fuel:diesel": true, "fuel:HGV_diesel": true, "fuel:lng": false, "fuel:propane": true, "hgv": true, "@spider": "tapetro", "addr:full": "47051 SD Hwy 50", "addr:city": "Burbank", "addr:state": "SD", "addr:postcode": "57010", "name": "TA Express Vermillion", "phone": "605-624-2062", "brand": "TA Express", "brand:wikidata": "Q7835892"}, "geometry": {"type": "Point", "coordinates": [-96.797, 42.785]}},
{"type": "Feature", "id": "RiPa_Leyo5yxzk7a5GRSg-7Une8=", "properties": {"ref": "276.0-T-6276.0", "amenity:fuel": true, "fuel:diesel:class2": true, "fuel:diesel": true, "fuel:HGV_diesel": true, "fuel:lng": false, "fuel:propane": false, "hgv": true, "@spider": "tapetro", "addr:full": "5945 US Hwy 30", "addr:city": "Huntington", "addr:state": "OR", "addr:postcode": 97907.0, "name": "TA Huntington", "phone": "541-869-2301", "brand": "TravelCenters of America", "brand:wikidata": "Q7835892"}, "geometry": {"type": "Point", "coordinates": [-117.22249, 44.2934]}},
{"type": "Feature", "id": "Vi1DehTmljymf9KwYT-GOR0S-Bw=", "properties": {"ref": "277-TE-6277.0", "amenity:fuel": true, "fuel:diesel:class2": false, "fuel:diesel": true, "fuel:HGV_diesel": true, "fuel:lng": false, "fuel:propane": false, "hgv": true, "@spider": "tapetro", "addr:full": "5490 N Hwy 146", "addr:city": "Baytown", "addr:state": "TX", "addr:postcode": "77523", "name": "TA Express Baytown South", "phone": "281-918-0288", "brand": "TA Express", "brand:wikidata": "Q7835892"}, "geometry": {"type": "Point", "coordinates": [-94.9135, 29.7774]}},
{"type": "Feature", "id": "md1ncwVlbyd4QdU2tFUrUJvyQ9Y=", "properties": {"ref": "279.0-TE-6279.0", "amenity:fuel": true, "fuel:diesel:class2": false, "fuel:diesel": true, "fuel:HGV_diesel": true, "fuel:lng": false, "fuel:propane": false, "hgv": true, "@spider": "tapetro", "addr:full": "91464 Biggs-Rugus Hwy", "addr:city": "Wasco", "addr:state": "OR", "addr:postcode": "97065", "name": "TA Express Biggs Junction", "phone": "541-739-2008", "brand": "TA Express", "brand:wikidata": "Q7835892"}, "geometry": {"type": "Point", "coordinates": [-120.8349, 45.6688]}},
{"type": "Feature", "id": "s5tpMctWDXoYunGNaIS-Mce6mQk=", "properties": {"ref": "280.0-TE-6280.0", "amenity:fuel": true, "fuel:diesel:class2": false, "fuel:diesel": true, "fuel:HGV_diesel": true, "fuel:lng": false, "fuel:propane": false, "hgv": true, "@spider": "tapetro", "addr:full": "2055 South State Street", "addr:city": "Salina", "addr:state": "UT", "addr:postcode": 8454.0, "name": "TA Express Salina", "phone": "435-287-0546", "brand": "TA Express", "brand:wikidata": "Q7835892"}, "geometry": {"type": "Point", "coordinates": [-111.85645, 38.946]}},
{"type": "Feature", "id": "uW3sIX7mAj466nSlRR6kLBTArts=", "properties": {"ref": "281.0-TE-6281.0", "amenity:fuel": true, "fuel:diesel:class2": false, "fuel:diesel": true, "fuel:HGV_diesel": true, "fuel:lng": false, "fuel:propane": false, "hgv": true, "@spider": "tapetro", "addr:full": "4403 TX-42", "addr:city": "Kilgore", "addr:state": "TX", "addr:postcode": 75662.0, "name": "TA Express Kilgore", "phone": "903-986-8450", "brand": "TA Express", "brand:wikidata": "Q7835892"}, "geometry": {"type": "Point", "coordinates": [-94.8643, 32.4288]}},
{"type": "Feature", "id": "r9P_7mSdnDEkfxl_D3bofSqUGZ4=", "properties": {"ref": "282-TE-6282.0", "amenity:fuel": true, "fuel:diesel:class2": false, "fuel:diesel": true, "fuel:HGV_diesel": true, "fuel:lng": false, "fuel:propane": false, "hgv": true, "@spider": "tapetro", "addr:full": "12602 South Freeway", "addr:city": "Almeda", "addr:state": "TX", "addr:postcode": "77047", "name": "TA Express Almeda", "phone": "713-413-8222", "brand": "TA Express", "brand:wikidata": "Q7835892"}, "geometry": {"type": "Point", "coordinates": [-95.3882, 29.6141]}},
{"type": "Feature", "id": "E2I2tYSowUmxf_Fy5m8Jhj4DxTI=", "properties": {"ref": "283-TE-3283.0", "amenity:fuel": true, "fuel:diesel:class2": false, "fuel:diesel": true, "fuel:HGV_diesel": true, "fuel:lng": false, "fuel:propane": true, "hgv": true, "@spider": "tapetro", "addr:full": "300 Kia Blvd", "addr:city": "West Point", "addr:state": "GA", "addr:postcode": "31833", "name": "TA Express West Point", "phone": "770-355-2175", "brand": "TA Express", "brand:wikidata": "Q7835892"}, "geometry": {"type": "Point", "coordinates": [-85.1161, 32.9303]}},
{"type": "Feature", "id": "hhbAUVQs3D2gwtAYBNNSNSogglw=", "properties": {"ref": "284-TE-6284.0", "amenity:fuel": true, "fuel:diesel:class2": false, "fuel:diesel": true, "fuel:HGV_diesel": true, "fuel:lng": false, "fuel:propane": false, "hgv": true, "@spider": "tapetro", "addr:full": "32501 W 200th St", "addr:city": "Edgerton", "addr:state": "KS", "addr:postcode": "66021", "name": "TA Express Edgerton", "phone": "913-441-5700", "brand": "TA Express", "brand:wikidata": "Q7835892"}, "geometry": {"type": "Point", "coordinates": [-94.9625, 38.7628]}},
{"type": "Feature", "id": "gW2ihI7LZQsXpuvOnbnpevBB3G8=", "properties": {"ref": "286.0-TE-6286.0", "amenity:fuel": true, "fuel:diesel:class2": false, "fuel:diesel": true, "fuel:HGV_diesel": true, "fuel:lng": false, "fuel:propane": true, "hgv": true, "@spider": "tapetro", "addr:full": "300 SE Access Rd", "addr:city": "Mount Vernon", "addr:state": "TX", "addr:postcode": "75457", "name": "TA Express Mt. Vernon", "phone": "903-567-9200", "brand": "TA Express", "brand:wikidata": "Q7835892"}, "geometry": {"type": "Point", "coordinates": [-95.2094, 33.1491]}},
{"type": "Feature", "id": "pmErBWBtq6UyItFQOKxE7bgOwd4=", "properties": {"ref": "288-T-6288.0", "amenity:fuel": true, "fuel:diesel:class2": false, "fuel:diesel": true, "fuel:HGV_diesel": true, "fuel:lng": false, "fuel:propane": false, "hgv": true, "@spider": "tapetro", "addr:full": "14197 South US HWY 441", "addr:city": "Lake City", "addr:state": "FL", "addr:postcode": "32024", "name": "TA Lake City", "phone": "386-202-6500", "brand": "TravelCenters of America", "brand:wikidata": "Q7835892"}, "geometry": {"type": "Point", "coordinates": [-82.5967, 29.9959]}},
{"type": "Feature", "id": "Yvg_q0h92sxrgRt8U2bRJrnMAi8=", "properties": {"ref": "289.0-TE-6289.0", "amenity:fuel": true, "fuel:diesel:class2": false, "fuel:diesel": true, "fuel:HGV_diesel": true, "fuel:lng": false, "fuel:propane": false, "hgv": true, "@spider": "tapetro", "addr:full": "2615 NW Stallings Dr", "addr:city": "Nacogooches", "addr:state": "TX", "addr:postcode": "75964", "name": "TA Express Nacogodoches", "phone": "936-462-8801", "brand": "TA Express", "brand:wikidata": "Q7835892"}, "geometry": {"type": "Point", "coordinates": [-94.6845, 31.6119]}},
{"type": "Feature", "id": "glkTwM9LJPna1SYvEz35wQUI_AA=", "properties": {"ref": "292.0-TE-6292.0", "amenity:fuel": true, "fuel:diesel:class2": false, "fuel:diesel": true, "fuel:HGV_diesel": true, "fuel:lng": false, "fuel:propane": false, "hgv": true, "@spider": "tapetro", "addr:full": "19210 US Hwy 93", "addr:city": "White Hills", "addr:state": "AZ", "addr:postcode": 86445.0, "name": "TA Express White Hills", "phone": "928-285-2431", "brand": "TA Express", "brand:wikidata": "Q7835892"}, "geometry": {"type": "Point", "coordinates": [-114.4672, 35.684]}},
{"type": "Feature", "id": "UGkXSFhTfDQi2JtiHMoXU7jzK14=", "properties": {"ref": "293-TE-6293.0", "amenity:fuel": true, "fuel:diesel:class2": false, "fuel:diesel": true, "fuel:HGV_diesel": true, "fuel:lng": false, "fuel:propane": false, "hgv": true, "@spider": "tapetro", "addr:full": "1086 US 59 South", "addr:city": "Carthage", "addr:state": "TX", "addr:postcode": "75633", "name": "TA Express Carthage", "phone": "903-690-0272", "brand": "TA Express", "brand:wikidata": "Q7835892"}, "geometry": {"type": "Point", "coordinates": [-94.3326, 32.1298]}},
{"type": "Feature", "id": "31WOVo9D7znCsFha42ES4NnO598=", "properties": {"ref": "297.0-T-7297.0", "amenity:fuel": true, "fuel:diesel:class2": false, "fuel:diesel": true, "fuel:HGV_diesel": true, "fuel:lng": false, "fuel:propane": false, "hgv": true, "@spider": "tapetro", "addr:full": "27801 County Road 64", "addr:city": "Robertsdale", "addr:state": "AL", "addr:postcode": 36567.0, "name": "TA Truck Service Robertsdale", "phone": "251-828-8342", "brand": "TravelCenters of America", "brand:wikidata": "Q7835892"}, "geometry": {"type": "Point", "coordinates": [-87.6158, 30.6306]}},
{"type": "Feature", "id": "zkBMxRbDZdUYyOJtIMRTCfewZiQ=", "properties": {"ref": "301-P-6301", "amenity:fuel": true, "fuel:diesel:class2": false, "fuel:diesel": true, "fuel:HGV_diesel": true, "fuel:lng": false, "fuel:propane": false, "hgv": true, "@spider": "tapetro", "addr:full": "1295 Horizon Blvd.", "addr:city": "El Paso", "addr:state": "TX", "addr:postcode": "79927", "name": "Petro El Paso", "phone": "915-790-4529", "brand": "Petro", "brand:wikidata": "Q7835892"}, "geometry": {"type": "Point", "coordinates": [-106.2424, 31.6583]}},
{"type": "Feature", "id": "W0jjjoxX8sEEvn5FpLF9GsP7wsE=", "properties": {"ref": "302-P-6302", "amenity:fuel": true, "fuel:diesel:class2": false, "fuel:diesel": true, "fuel:HGV_diesel": true, "fuel:lng": false, "fuel:propane": false, "hgv": true, "@spider": "tapetro", "addr:full": "2001 Santa Fe Dr", "addr:city": "Weatherford", "addr:state": "TX", "addr:postcode": "76086", "name": "Petro Weatherford", "phone": "817-599-9411", "brand": "Petro", "brand:wikidata": "Q7835892"}, "geometry": {"type": "Point", "coordinates": [-97.7644, 32.7391]}},
{"type": "Feature", "id": "AXf_4BLvHZ9Lwf5HMi9CEAa0gpA=", "properties": {"ref": "303-P-6303", "amenity:fuel": true, "fuel:diesel:class2": true, "fuel:diesel": true, "fuel:HGV_diesel": true, "fuel:lng": false, "fuel:propane": false, "hgv": true, "@spider": "tapetro", "addr:full": "1855 West Curtis", "addr:city": "Laramie", "addr:state": "WY", "addr:postcode": "82070", "name": "Petro Laramie Dedication: Steen Gronlund", "phone": "307-745-6480", "brand": "Petro", "brand:wikidata": "Q7835892"}, "geometry": {"type": "Point", "coordinates": [-105.6208, 41.3298]}},
{"type": "Feature", "id": "F_eAGUdceKFV70f1mxsJr-EXKEA=", "properties": {"ref": "304-P-6304", "amenity:fuel": true, "fuel:diesel:class2": true, "fuel:diesel": true, "fuel:HGV_diesel": true, "fuel:lng": false, "fuel:propane": false, "hgv": true, "@spider": "tapetro", "addr:full": "5405 Walden Rd", "addr:city": "Beaumont", "addr:state": "TX", "addr:postcode": "77705", "name": "Petro Beaumont", "phone": "409-842-9600", "brand": "Petro", "brand:wikidata": "Q7835892"}, "geometry": {"type": "Point", "coordinates": [-94.1561, 30.037]}},
{"type": "Feature", "id": "l49jiAhqCzkXj1r16Q7t51anL14=", "properties": {"ref": "305-P-6305", "amenity:fuel": true, "fuel:diesel:class2": true, "fuel:diesel": true, "fuel:HGV_diesel": true, "fuel:lng": false, "fuel:propane": false, "hgv": true, "@spider": "tapetro", "addr:full": "1112 Ackerman Road", "addr:city": "San Antonio ", "addr:state": "TX", "addr:postcode": "78219", "name": "Petro San Antonio", "phone": "210-661-9416", "brand": "Petro", "brand:wikidata": "Q7835892"}, "geometry": {"type": "Point", "coordinates": [-98.3799, 29.4376]}},
{"type": "Feature", "id": "M0lUcjKw-C7kMu_OpeDMVRyJFX0=", "properties": {"ref": "306-P-6306", "amenity:fuel": true, "fuel:diesel:class2": true, "fuel:diesel": true, "fuel:HGV_diesel": true, "fuel:lng": false, "fuel:propane": false, "hgv": true, "@spider": "tapetro", "addr:full": "5235 North Sunland Gin Road", "addr:city": "Casa Grande", "addr:state": "AZ", "addr:postcode": "85231", "name": "Petro Eloy", "phone": "520-836-3983", "brand": "Petro", "brand:wikidata": "Q7835892"}, "geometry": {"type": "Point", "coordinates": [-111.6703, 32.8122]}},
{"type": "Feature", "id": "8Wboq4deBTNM__jfuy41lE0tk8w=", "properties": {"ref": "307-P-6307", "amenity:fuel": true, "fuel:diesel:class2": true, "fuel:diesel": true, "fuel:HGV_diesel": true, "fuel:lng": false, "fuel:propane": false, "hgv": true, "@spider": "tapetro", "addr:full": "8500 E I-40 @ Lakeside Drive", "addr:city": "Amarillo ", "addr:state": "TX", "addr:postcode": "79118", "name": "Petro Amarillo Dedication: Evan \"Buddy\" Haston ", "phone": "806-372-4899", "brand": "Petro", "brand:wikidata": "Q7835892"}, "geometry": {"type": "Point", "coordinates": [-101.7437, 35.1917]}},
{"type": "Feature", "id": "vgbZdd6ecnc_lIrQev3YOXwGfcA=", "properties": {"ref": "308-P-6308", "amenity:fuel": true, "fuel:diesel:class2": true, "fuel:diesel": true, "fuel:HGV_diesel": true, "fuel:lng": false, "fuel:propane": false, "hgv": true, "@spider": "tapetro", "addr:full": "6910 W. Bert Kouns/Industrial Loop", "addr:city": "Shreveport", "addr:state": "LA", "addr:postcode": "71129", "name": "Petro Shreveport", "phone": "318-686-6111", "brand": "Petro", "brand:wikidata": "Q7835892"}, "geometry": {"type": "Point", "coordinates": [-93.901, 32.4446]}},
{"type": "Feature", "id": "XGQyYA9sfK-x2Y1vGqmXH6r6rpE=", "properties": {"ref": "309-P-6309", "amenity:fuel": true, "fuel:diesel:class2": true, "fuel:diesel": true, "fuel:HGV_diesel": true, "fuel:lng": false, "fuel:propane": false, "hgv": true, "@spider": "tapetro", "addr:full": "2151 South Avenue", "addr:city": "Corning   ", "addr:state": "CA", "addr:postcode": "96021", "name": "Petro Corning", "phone": "530-824-4685", "brand": "Petro", "brand:wikidata": "Q7835892"}, "geometry": {"type": "Point", "coordinates": [-122.1967, 39.9059]}},
{"type": "Feature", "id": "QMkNQboEf_bQuP7h2klQ0Bpp8uQ=", "properties": {"ref": "310-P-6310", "amenity:fuel": true, "fuel:diesel:class2": true, "fuel:diesel": true, "fuel:HGV_diesel": true, "fuel:lng": false, "fuel:propane": false, "hgv": true, "@spider": "tapetro", "addr:full": "2100 S.W. Railroad Avenue", "addr:city": "Hammond", "addr:state": "LA", "addr:postcode": "70403", "name": "Petro Hammond", "phone": "985-542-4981", "brand": "Petro", "brand:wikidata": "Q7835892"}, "geometry": {"type": "Point", "coordinates": [-90.4579, 30.477]}},
{"type": "Feature", "id": "dERnv6uIorz9jo5qq4jBN5RDc9k=", "properties": {"ref": "311-P-6311", "amenity:fuel": true, "fuel:diesel:class2": true, "fuel:diesel": true, "fuel:HGV_diesel": true, "fuel:lng": false, "fuel:propane": false, "hgv": true, "@spider": "tapetro", "addr:full": "3900 Petro Rd", "addr:city": "West Memphis  ", "addr:state": "AR", "addr:postcode": "72301", "name": "Petro W. Memphis Dedication: Jerry Fritts Jr. ", "phone": "870-702-5540", "brand": "Petro", "brand:wikidata": "Q7835892"}, "geometry": {"type": "Point", "coordinates": [-90.136, 35.1544]}},
{"type": "Feature", "id": "KK9S1iTUynSUNrgHPWrHgdBVeVA=", "properties": {"ref": "312-P-6312", "amenity:fuel": true, "fuel:diesel:class2": true, "fuel:diesel": true, "fuel:HGV_diesel": true, "fuel:lng": false, "fuel:propane": false, "hgv": true, "@spider": "tapetro", "addr:full": "722 N. Watt Rd.", "addr:city": "Knoxville ", "addr:state": "TN", "addr:postcode": "37922", "name": "Petro Knoxville", "phone": "865-693-6542", "brand": "Petro", "brand:wikidata": "Q7835892"}, "geometry": {"type": "Point", "coordinates": [-84.2361, 35.875]}},
{"type": "Feature", "id": "siTZz5XVmlYYqXpHit8VXFQDtuo=", "properties": {"ref": "313-P-6313", "amenity:fuel": true, "fuel:diesel:class2": true, "fuel:diesel": true, "fuel:HGV_diesel": true, "fuel:lng": false, "fuel:propane": false, "hgv": true, "@spider": "tapetro", "addr:full": "1430 Motel Drive", "addr:city": "Milan", "addr:state": "NM", "addr:postcode": "87021", "name": "Petro Milan", "phone": "505-285-6648", "brand": "Petro", "brand:wikidata": "Q7835892"}, "geometry": {"type": "Point", "coordinates": [-107.9038, 35.181]}},
{"type": "Feature", "id": "9BeElvatA3JGuTcMwDg1VWMc_9g=", "properties": {"ref": "314-P-6314", "amenity:fuel": true, "fuel:diesel:class2": true, "fuel:diesel": true, "fuel:HGV_diesel": true, "fuel:lng": false, "fuel:propane": false, "hgv": true, "@spider": "tapetro", "addr:full": "402 Rising Sun Square Road", "addr:city": "Bordentown", "addr:state": "NJ", "addr:postcode": "08505", "name": "Petro Bordentown", "phone": "609-298-6070", "brand": "Petro", "brand:wikidata": "Q7835892"}, "geometry": {"type": "Point", "coordinates": [-74.7131, 40.1234]}},
{"type": "Feature", "id": "Rzehn1tVIOuHTeBXVrmBqaGeh0c=", "properties": {"ref": "315-P-6315", "amenity:fuel": true, "fuel:diesel:class2": true, "fuel:diesel": true, "fuel:HGV_diesel": true, "fuel:lng": false, "fuel:propane": false, "hgv": true, "@spider": "tapetro", "addr:full": "970 South Blake Ranch Road", "addr:city": "Kingman   ", "addr:state": "AZ", "addr:postcode": "86401", "name": "Petro Kingman", "phone": "928-681-5246", "brand": "Petro", "brand:wikidata": "Q7835892"}, "geometry": {"type": "Point", "coordinates": [-113.7887, 35.1778]}},
{"type": "Feature", "id": "h3YPgrHR_Z1hB3XyQ6fzqqDBbwQ=", "properties": {"ref": "316-P-6316", "amenity:fuel": true, "fuel:diesel:class2": true, "fuel:diesel": true, "fuel:HGV_diesel": true, "fuel:lng": false, "fuel:propane": false, "hgv": true, "@spider": "tapetro", "addr:full": "20 Martin Luther King Blvd", "addr:city": "Oklahoma City ", "addr:state": "OK", "addr:postcode": "73117", "name": "Petro Oklahoma City Dedication: Ingrid R. Brown", "phone": "405-228-7040", "brand": "Petro", "brand:wikidata": "Q7835892"}, "geometry": {"type": "Point", "coordinates": [-97.4755, 35.4662]}},
{"type": "Feature", "id": "wC3JnJiUrEuv0NiJlK7q7scN_Eg=", "properties": {"ref": "317-P-6317", "amenity:fuel": true, "fuel:diesel:class2": true, "fuel:diesel": true, "fuel:HGV_diesel": true, "fuel:lng": false, "fuel:propane": false, "hgv": true, "@spider": "tapetro", "addr:full": "26416 Baker Rd.", "addr:city": "Perrysburg", "addr:state": "OH", "addr:postcode": "43551", "name": "Petro Perrysburg", "phone": "419-837-9725", "brand": "Petro", "brand:wikidata": "Q7835892"}, "geometry": {"type": "Point", "coordinates": [-83.4664, 41.5355]}},
{"type": "Feature", "id": "LjPEZfN7SmJjQRTrm0SlXwc5SzM=", "properties": {"ref": "318-P-6318", "amenity:fuel": true, "fuel:diesel:class2": true, "fuel:diesel": true, "fuel:HGV_diesel": true, "fuel:lng": false, "fuel:propane": false, "hgv": true, "@spider": "tapetro", "addr:full": "3304 Gold Road", "addr:city": "Kingdom City", "addr:state": "MO", "addr:postcode": "65262", "name": "Petro Kingdom City", "phone": "573-642-0676", "brand": "Petro", "brand:wikidata": "Q7835892"}, "geometry": {"type": "Point", "coordinates": [-91.9399, 38.9426]}},
{"type": "Feature", "id": "1Gfrr_Va6e2l10U7isZvl8LoC3c=", "properties": {"ref": "319-P-6319.0", "amenity:fuel": true, "fuel:diesel:class2": true, "fuel:diesel": true, "fuel:HGV_diesel": true, "fuel:lng": false, "fuel:propane": false, "hgv": true, "@spider": "tapetro", "addr:full": "22526 Highway 216", "addr:city": "McCalla", "addr:state": "AL", "addr:postcode": 35111.0, "name": "Petro Bucksville", "phone": "205-477-9178", "brand": "Petro", "brand:wikidata": "Q7835892"}, "geometry": {"type": "Point", "coordinates": [-87.0919, 33.2796]}},
{"type": "Feature", "id": "MmI7QfCsBQ7NoCVYV1lBvSNUEXw=", "properties": {"ref": "320-P-6320", "amenity:fuel": true, "fuel:diesel:class2": true, "fuel:diesel": true, "fuel:HGV_diesel": true, "fuel:lng": false, "fuel:propane": false, "hgv": true, "@spider": "tapetro", "addr:full": "1 Petro Place", "addr:city": "Girard", "addr:state": "OH", "addr:postcode": "44420", "name": "Petro Girard", "phone": "330-505-3700", "brand": "Petro", "brand:wikidata": "Q7835892"}, "geometry": {"type": "Point", "coordinates": [-80.7172, 41.1408]}},
{"type": "Feature", "id": "n6WafuS4z9808cKRtMOCBOLmbYM=", "properties": {"ref": "321-P-6321", "amenity:fuel": true, "fuel:diesel:class2": true, "fuel:diesel": true, "fuel:HGV_diesel": true, "fuel:lng": false, "fuel:propane": false, "hgv": true, "@spider": "tapetro", "addr:full": "1805 West Fayette Ave", "addr:city": "Effingham ", "addr:state": "IL", "addr:postcode": "62401", "name": "Petro Effingham", "phone": "217-347-0480", "brand": "Petro", "brand:wikidata": "Q7835892"}, "geometry": {"type": "Point", "coordinates": [-88.5723, 39.1197]}},
{"type": "Feature", "id": "6qt1ytRcQp3CsrJ5gc-I4Q4wCtw=", "properties": {"ref": "322-P-6322", "amenity:fuel": true, "fuel:diesel:class2": false, "fuel:diesel": true, "fuel:HGV_diesel": true, "fuel:lng": false, "fuel:propane": true, "hgv": true, "@spider": "tapetro", "addr:full": "3181 Donald Lee Hollowell Parkway", "addr:city": "Atlanta", "addr:state": "GA", "addr:postcode": "30318", "name": "Petro Atlanta", "phone": "404-794-7772", "brand": "Petro", "brand:wikidata": "Q7835892"}, "geometry": {"type": "Point", "coordinates": [-84.4905, 33.7865]}},
{"type": "Feature", "id": "sHWlBSQtVCqTmGbgLc2uIMQjbcI=", "properties": {"ref": "323-P-6323", "amenity:fuel": true, "fuel:diesel:class2": true, "fuel:diesel": true, "fuel:HGV_diesel": true, "fuel:lng": false, "fuel:propane": true, "hgv": true, "@spider": "tapetro", "addr:full": "7401 West Hwy 318", "addr:city": "Reddick", "addr:state": "FL", "addr:postcode": "32686", "name": "Petro Ocala", "phone": "352-591-1881", "brand": "Petro", "brand:wikidata": "Q7835892"}, "geometry": {"type": "Point", "coordinates": [-82.2462, 29.409]}},
{"type": "Feature", "id": "B7MiPd3Ug4oSaGVPyYnTstz5iHk=", "properties": {"ref": "324-P-6324", "amenity:fuel": true, "fuel:diesel:class2": true, "fuel:diesel": true, "fuel:HGV_diesel": true, "fuel:lng": false, "fuel:propane": false, "hgv": true, "@spider": "tapetro", "addr:full": "3730 Fern Valley Rd.", "addr:city": "Phoenix", "addr:state": "OR", "addr:postcode": "97535", "name": "Petro Phoenix", "phone": "541-535-3372", "brand": "Petro", "brand:wikidata": "Q7835892"}, "geometry": {"type": "Point", "coordinates": [-122.8108, 42.2795]}},
{"type": "Feature", "id": "bZMXyuBK2lswmz6yQNmuWnYhXDk=", "properties": {"ref": "325-P-6325", "amenity:fuel": true, "fuel:diesel:class2": true, "fuel:diesel": true, "fuel:HGV_diesel": true, "fuel:lng": false, "fuel:propane": false, "hgv": true, "@spider": "tapetro", "addr:full": "12906 Deshler Rd.", "addr:city": "North Baltimore", "addr:state": "OH", "addr:postcode": "45872", "name": "Petro North Baltimore", "phone": "419-257-3744", "brand": "Petro", "brand:wikidata": "Q7835892"}, "geometry": {"type": "Point", "coordinates": [-83.6475, 41.1738]}},
{"type": "Feature", "id": "2--KZvsVj6JU7As-CkVJ5SdUzyU=", "properties": {"ref": "326-P-6326", "amenity:fuel": true, "fuel:diesel:class2": true, "fuel:diesel": true, "fuel:HGV_diesel": true, "fuel:lng": false, "fuel:propane": false, "hgv": true, "@spider": "tapetro", "addr:full": "3205 Valentine Road", "addr:city": "North Little Rock", "addr:state": "AR", "addr:postcode": "72117", "name": "Petro N. Little Rock Dedication: Idella M. Hansen ", "phone": "501-945-3206", "brand": "Petro", "brand:wikidata": "Q7835892"}, "geometry": {"type": "Point", "coordinates": [-92.1298, 34.781]}},
{"type": "Feature", "id": "PJ2G0ps1BcY2PJ09XwA9osEj0DE=", "properties": {"ref": "327-P-6327", "amenity:fuel": true, "fuel:diesel:class2": true, "fuel:diesel": true, "fuel:HGV_diesel": true, "fuel:lng": false, "fuel:propane": false, "hgv": true, "@spider": "tapetro", "addr:full": "5821 Dennis McCarthy Dr.", "addr:city": "Lebec", "addr:state": "CA", "addr:postcode": "93243", "name": "Petro Wheeler Ridge", "phone": "661-663-4341", "brand": "Petro", "brand:wikidata": "Q7835892"}, "geometry": {"type": "Point", "coordinates": [-118.9841, 34.9861]}},
{"type": "Feature", "id": "ffTwBfJpj5jDIxbWTLDEoyR9XI4=", "properties": {"ref": "328-P-6328", "amenity:fuel": true, "fuel:diesel:class2": true, "fuel:diesel": true, "fuel:HGV_diesel": true, "fuel:lng": false, "fuel:propane": false, "hgv": true, "@spider": "tapetro", "addr:full": "970 I-20 W. Frontage Road", "addr:city": "Jackson ", "addr:state": "MS", "addr:postcode": "39201", "name": "Petro Jackson", "phone": "601-292-0940", "brand": "Petro", "brand:wikidata": "Q7835892"}, "geometry": {"type": "Point", "coordinates": [-90.1977, 32.2787]}},
{"type": "Feature", "id": "TpSgJIE6OHWFmvL_pcBX3QsfyPE=", "properties": {"ref": "329-P-6329", "amenity:fuel": true, "fuel:diesel:class2": true, "fuel:diesel": true, "fuel:HGV_diesel": true, "fuel:lng": false, "fuel:propane": false, "hgv": true, "@spider": "tapetro", "addr:full": "500 Buckhorn Road", "addr:city": "Mebane", "addr:state": "NC", "addr:postcode": "27302", "name": "Petro Mebane", "phone": "919-304-7474", "brand": "Petro", "brand:wikidata": "Q7835892"}, "geometry": {"type": "Point", "coordinates": [-79.2251, 36.0772]}},
{"type": "Feature", "id": "5Ipmjei2D_fWIQFdznLvu1EYulA=", "properties": {"ref": "330-P-6330", "amenity:fuel": true, "fuel:diesel:class2": true, "fuel:diesel": true, "fuel:HGV_diesel": true, "fuel:lng": false, "fuel:propane": false, "hgv": true, "@spider": "tapetro", "addr:full": "554 W. Glendale Hodgenville Road", "addr:city": "Glendale", "addr:state": "KY", "addr:postcode": "42740", "name": "Petro Glendale", "phone": "270-369-6840", "brand": "Petro", "brand:wikidata": "Q7835892"}, "geometry": {"type": "Point", "coordinates": [-85.8739, 37.5992]}},
{"type": "Feature", "id": "AdP39LFeteDhXQmqYi13-VN7fU0=", "properties": {"ref": "331-P-6331", "amenity:fuel": true, "fuel:diesel:class2": true, "fuel:diesel": true, "fuel:HGV_diesel": true, "fuel:lng": false, "fuel:propane": false, "hgv": true, "@spider": "tapetro", "addr:full": "6595 North Hollywood Blvd", "addr:city": "Las Vegas", "addr:state": "NV", "addr:postcode": "89115", "name": "Petro North Las Vegas Dedication: Bob & Linda Caffee ", "phone": "702-632-2640", "brand": "Petro", "brand:wikidata": "Q7835892"}, "geometry": {"type": "Point", "coordinates": [-115.0261, 36.2789]}},
{"type": "Feature", "id": "VCA4aLTqV6TlZWGAY3dY9U_UOZw=", "properties": {"ref": "333.0-T-6333.0", "amenity:fuel": true, "fuel:diesel:class2": false, "fuel:diesel": true, "fuel:HGV_diesel": true, "fuel:lng": false, "fuel:propane": false, "hgv": true, "@spider": "tapetro", "addr:full": "160 State Hwy 77", "addr:city": "Hillsboro", "addr:state": "TX", "addr:postcode": "76645", "name": "TA Hillsboro", "phone": "254-283-6556", "brand": "TravelCenters of America", "brand:wikidata": "Q7835892"}, "geometry": {"type": "Point", "coordinates": [-97.092, 32.0455]}},
{"type": "Feature", "id": "qrAsymQexpLiEayIhCowpHBZWlM=", "properties": {"ref": "336-P-6336", "amenity:fuel": true, "fuel:diesel:class2": true, "fuel:diesel": true, "fuel:HGV_diesel": true, "fuel:lng": false, "fuel:propane": false, "hgv": true, "@spider": "tapetro", "addr:full": "1201 Harrisburg Ave, Route 11", "addr:city": "Carlisle", "addr:state": "PA", "addr:postcode": "17013", "name": "Petro Carlisle", "phone": "717-249-1919", "brand": "Petro", "brand:wikidata": "Q7835892"}, "geometry": {"type": "Point", "coordinates": [-77.1418, 40.2319]}},
{"type": "Feature", "id": "otaGoZRqATCdCciF9ivl_plFicc=", "properties": {"ref": "338.0-P-6338", "amenity:fuel": true, "fuel:diesel:class2": true, "fuel:diesel": true, "fuel:HGV_diesel": true, "fuel:lng": false, "fuel:propane": false, "hgv": true, "@spider": "tapetro", "addr:full": "1950 East Greg St.", "addr:city": "Sparks ", "addr:state": "NV", "addr:postcode": 89431.0, "name": "Petro Sparks", "phone": "775-355-8888", "brand": "Petro", "brand:wikidata": "Q7835892"}, "geometry": {"type": "Point", "coordinates": [-119.7087, 39.5233]}},
{"type": "Feature", "id": "ew46bpXYJcERvPtoD3WniN79j9A=", "properties": {"ref": "339-P-6339", "amenity:fuel": true, "fuel:diesel:class2": true, "fuel:diesel": true, "fuel:HGV_diesel": true, "fuel:lng": false, "fuel:propane": false, "hgv": true, "@spider": "tapetro", "addr:full": "10506 West Aero Road", "addr:city": "Spokane", "addr:state": "WA", "addr:postcode": "99224", "name": "Petro Spokane", "phone": "509-842-1100", "brand": "Petro", "brand:wikidata": "Q7835892"}, "geometry": {"type": "Point", "coordinates": [-117.5608, 47.5893]}},
{"type": "Feature", "id": "0tmz7Oj7HfgWnERP08pRkV_0MRU=", "properties": {"ref": "340-P-6340.0", "amenity:fuel": true, "fuel:diesel:class2": false, "fuel:diesel": true, "fuel:HGV_diesel": true, "fuel:lng": false, "fuel:propane": false, "hgv": true, "@spider": "tapetro", "addr:full": "101 Cornelius Road North", "addr:city": "Hillsboro", "addr:state": "TX", "addr:postcode": "76645", "name": "Petro Carl's Corner Dedication: Bill Ater Jr. ", "phone": "254-714-3000", "brand": "Petro", "brand:wikidata": "Q7835892"}, "geometry": {"type": "Point", "coordinates": [-97.0552, 32.0794]}},
{"type": "Feature", "id": "Yj2bKh58RApHNEYbXWy85IqfGhE=", "properties": {"ref": "343-P-6343", "amenity:fuel": true, "fuel:diesel:class2": true, "fuel:diesel": true, "fuel:HGV_diesel": true, "fuel:lng": false, "fuel:propane": false, "hgv": true, "@spider": "tapetro", "addr:full": "114 Jasmine Road", "addr:city": "Egan", "addr:state": "LA", "addr:postcode": "70531", "name": "Petro Egan", "phone": "337-783-0424", "brand": "Petro", "brand:wikidata": "Q7835892"}, "geometry": {"type": "Point", "coordinates": [-92.4624, 30.2314]}},
{"type": "Feature", "id": "u5y40N7Bvuox4HilfI07sNVTXrs=", "properties": {"ref": "344-P-6344", "amenity:fuel": true, "fuel:diesel:class2": true, "fuel:diesel": true, "fuel:HGV_diesel": true, "fuel:lng": false, "fuel:propane": true, "hgv": true, "@spider": "tapetro", "addr:full": "1105 East King Avenue", "addr:city": "Kingsland", "addr:state": "GA", "addr:postcode": "31548", "name": "Petro Kingsland", "phone": "912-882-3111", "brand": "Petro", "brand:wikidata": "Q7835892"}, "geometry": {"type": "Point", "coordinates": [-81.6662, 30.7942]}},
{"type": "Feature", "id": "ky5MMHw9wCxBdLqtqrTBW3Q5Cf4=", "properties": {"ref": "345-P-6345", "amenity:fuel": true, "fuel:diesel:class2": true, "fuel:diesel": true, "fuel:HGV_diesel": true, "fuel:lng": false, "fuel:propane": false, "hgv": true, "@spider": "tapetro", "addr:full": "7265 North Baker Road", "addr:city": "Fremont", "addr:state": "IN", "addr:postcode": "46737", "name": "Petro Angola", "phone": "260-495-2523", "brand": "Petro", "brand:wikidata": "Q7835892"}, "geometry": {"type": "Point", "coordinates": [-84.9932, 41.7483]}},
{"type": "Feature", "id": "8QuA6U15U4TIhC4Tb8lHHQt9Ofg=", "properties": {"ref": "346-P-6346", "amenity:fuel": true, "fuel:diesel:class2": true, "fuel:diesel": true, "fuel:HGV_diesel": true, "fuel:lng": false, "fuel:propane": false, "hgv": true, "@spider": "tapetro", "addr:full": "28991 West Gonzaga", "addr:city": "Santa Nella ", "addr:state": "CA", "addr:postcode": "95322", "name": "Petro Santa Nella", "phone": "209-827-8025", "brand": "Petro", "brand:wikidata": "Q7835892"}, "geometry": {"type": "Point", "coordinates": [-121.0155, 37.0547]}},
{"type": "Feature", "id": "wlABvdg2fOdAMRJxrLGb_oOr07I=", "properties": {"ref": "347-T-6347", "amenity:fuel": true, "fuel:diesel:class2": false, "fuel:diesel": true, "fuel:HGV_diesel": true, "fuel:lng": false, "fuel:propane": false, "hgv": true, "@spider": "tapetro", "addr:full": "101 Trotters Lane", "addr:city": "Franklin ", "addr:state": "KY", "addr:postcode": "42134", "name": "TA Truck Service Franklin", "phone": "270-586-0877", "brand": "TravelCenters of America", "brand:wikidata": "Q7835892"}, "geometry": {"type": "Point", "coordinates": [-86.525, 36.7163]}},
{"type": "Feature", "id": "6zxEGXX20YjhcfErIuxP4S-Bjzg=", "properties": {"ref": "348-P-6348", "amenity:fuel": true, "fuel:diesel:class2": true, "fuel:diesel": true, "fuel:HGV_diesel": true, "fuel:lng": false, "fuel:propane": false, "hgv": true, "@spider": "tapetro", "addr:full": "428 Main St", "addr:city": "Shorter", "addr:state": "AL", "addr:postcode": "36075", "name": "Petro Shorter", "phone": "334-727-3354", "brand": "Petro", "brand:wikidata": "Q7835892"}, "geometry": {"type": "Point", "coordinates": [-85.9556, 32.4056]}},
{"type": "Feature", "id": "1yywBY3tTJyEswlI9ve2XJ0SGB0=", "properties": {"ref": "349-P-6349", "amenity:fuel": true, "fuel:diesel:class2": true, "fuel:diesel": true, "fuel:HGV_diesel": true, "fuel:lng": false, "fuel:propane": false, "hgv": true, "@spider": "tapetro", "addr:full": "162 Luyben Hills Road", "addr:city": "Kingston Springs", "addr:state": "TN", "addr:postcode": "37082", "name": "Petro Kingston Springs", "phone": "615-952-3208", "brand": "Petro", "brand:wikidata": "Q7835892"}, "geometry": {"type": "Point", "coordinates": [-87.0946, 36.083]}},
{"type": "Feature", "id": "nKAAL2m3Wgy5Zj7kDSLPq_4IwTA=", "properties": {"ref": "350-TE-6350", "amenity:fuel": true, "fuel:diesel:class2": false, "fuel:diesel": true, "fuel:HGV_diesel": true, "fuel:lng": false, "fuel:propane": false, "hgv": true, "@spider": "tapetro", "addr:full": "601 Westway Blvd.", "addr:city": "Canutillo", "addr:state": "TX", "addr:postcode": "79835", "name": "TA Express Vinton", "phone": "915-886-5761", "brand": "TA Express", "brand:wikidata": "Q7835892"}, "geometry": {"type": "Point", "coordinates": [-106.58, 31.9581]}},
{"type": "Feature", "id": "dNyMcbYvWVmUWtWBNvU7kfCpyj4=", "properties": {"ref": "352-P-6352.0", "amenity:fuel": true, "fuel:diesel:class2": false, "fuel:diesel": true, "fuel:HGV_diesel": true, "fuel:lng": false, "fuel:propane": false, "hgv": true, "@spider": "tapetro", "addr:full": "1724 West Grand Ave.", "addr:city": "Gadsden", "addr:state": "AL", "addr:postcode": "35904", "name": "Petro Gadsden", "phone": "256-413-7135", "brand": "Petro", "brand:wikidata": "Q7835892"}, "geometry": {"type": "Point", "coordinates": [-86.0827, 33.9956]}},
{"type": "Feature", "id": "9777CnMEJ6diM634jbxnwGr8Q3k=", "properties": {"ref": "354-P-6354", "amenity:fuel": true, "fuel:diesel:class2": true, "fuel:diesel": true, "fuel:HGV_diesel": true, "fuel:lng": false, "fuel:propane": false, "hgv": true, "@spider": "tapetro", "addr:full": "4240 Hwy 43", "addr:city": "Joplin", "addr:state": "MO", "addr:postcode": "64804", "name": "Petro Joplin", "phone": "417-624-3400", "brand": "Petro", "brand:wikidata": "Q7835892"}, "geometry": {"type": "Point", "coordinates": [-94.5523, 37.0072]}},
{"type": "Feature", "id": "LfPkey8EfyRIq6h60jcrYDlw5tU=", "properties": {"ref": "357-P-6357", "amenity:fuel": true, "fuel:diesel:class2": true, "fuel:diesel": true, "fuel:HGV_diesel": true, "fuel:lng": false, "fuel:propane": false, "hgv": true, "@spider": "tapetro", "addr:full": "9787 US Route 40 West", "addr:city": "New Paris", "addr:state": "OH", "addr:postcode": "45347", "name": "Petro New Paris", "phone": "937-437-8593", "brand": "Petro", "brand:wikidata": "Q7835892"}, "geometry": {"type": "Point", "coordinates": [-84.8111, 39.8359]}},
{"type": "Feature", "id": "DYx9AS_T4VcQe2yu0kzyfCvZkPA=", "properties": {"ref": "359-P-6359", "amenity:fuel": true, "fuel:diesel:class2": true, "fuel:diesel": true, "fuel:HGV_diesel": true, "fuel:lng": false, "fuel:propane": false, "hgv": true, "@spider": "tapetro", "addr:full": "900 Petro Dr.", "addr:city": "Rochelle", "addr:state": "IL", "addr:postcode": "61068", "name": "Petro Rochelle", "phone": "815-562-3716", "brand": "Petro", "brand:wikidata": "Q7835892"}, "geometry": {"type": "Point", "coordinates": [-89.0335, 41.9356]}},
{"type": "Feature", "id": "D0_LszTAJA1Q6z5SPDY2_lVSNTA=", "properties": {"ref": "361-P-6361", "amenity:fuel": true, "fuel:diesel:class2": true, "fuel:diesel": true, "fuel:HGV_diesel": true, "fuel:lng": false, "fuel:propane": false, "hgv": true, "@spider": "tapetro", "addr:full": "4510 19th Ave. S.W.", "addr:city": "Fargo", "addr:state": "ND", "addr:postcode": "58103", "name": "Petro Fargo", "phone": "701-282-8105", "brand": "Petro", "brand:wikidata": "Q7835892"}, "geometry": {"type": "Point", "coordinates": [-96.8832, 46.8503]}},
{"type": "Feature", "id": "bP61v0ajvlXfhHG1RWyQFB-dUzg=", "properties": {"ref": "362-P-6362", "amenity:fuel": true, "fuel:diesel:class2": true, "fuel:diesel": true, "fuel:HGV_diesel": true, "fuel:lng": false, "fuel:propane": false, "hgv": true, "@spider": "tapetro", "addr:full": "4700 S. Lincoln Ave.", "addr:city": "York", "addr:state": "NE", "addr:postcode": "68467", "name": "Petro York Dedication: Charley Endorf ", "phone": "402-362-1776", "brand": "Petro", "brand:wikidata": "Q7835892"}, "geometry": {"type": "Point", "coordinates": [-97.5989, 40.8182]}},
{"type": "Feature", "id": "Dl0xgotX_wLrhKexyqJOHSVap74=", "properties": {"ref": "366-P-6366", "amenity:fuel": true, "fuel:diesel:class2": true, "fuel:diesel": true, "fuel:HGV_diesel": true, "fuel:lng": false, "fuel:propane": false, "hgv": true, "@spider": "tapetro", "addr:full": "2125 North 9th Street", "addr:city": "Salina", "addr:state": "KS", "addr:postcode": "67401", "name": "Petro Salina", "phone": "785-825-7723", "brand": "Petro", "brand:wikidata": "Q7835892"}, "geometry": {"type": "Point", "coordinates": [-97.613, 38.8789]}},
{"type": "Feature", "id": "CvvZKNAAAOjmCnUwuR8bCXzXRDw=", "properties": {"ref": "367-P-6367", "amenity:fuel": true, "fuel:diesel:class2": true, "fuel:diesel": true, "fuel:HGV_diesel": true, "fuel:lng": false, "fuel:propane": false, "hgv": true, "@spider": "tapetro", "addr:full": "5915 Monee Rd.", "addr:city": "Monee", "addr:state": "IL", "addr:postcode": "60449", "name": "Petro Monee", "phone": "708-534-0400", "brand": "Petro", "brand:wikidata": "Q7835892"}, "geometry": {"type": "Point", "coordinates": [-87.7552, 41.4255]}},
{"type": "Feature", "id": "6MwdrlHx3ENUeOrtD0HLzVvAwOI=", "properties": {"ref": "368-P-6368", "amenity:fuel": true, "fuel:diesel:class2": true, "fuel:diesel": true, "fuel:HGV_diesel": true, "fuel:lng": false, "fuel:propane": false, "hgv": true, "@spider": "tapetro", "addr:full": "717 South Sylvania Avenue", "addr:city": "Sturtevant", "addr:state": "WI", "addr:postcode": "53177", "name": "Petro Racine", "phone": "262-884-7500", "brand": "Petro", "brand:wikidata": "Q7835892"}, "geometry": {"type": "Point", "coordinates": [-87.9561, 42.7251]}},
{"type": "Feature", "id": "9KdZwC2LFElc-GmfVypQt99geUU=", "properties": {"ref": "369-P-6369", "amenity:fuel": true, "fuel:diesel:class2": true, "fuel:diesel": true, "fuel:HGV_diesel": true, "fuel:lng": false, "fuel:propane": false, "hgv": true, "@spider": "tapetro", "addr:full": "3001 Grant Street", "addr:city": "Gary", "addr:state": "IN", "addr:postcode": "46408", "name": "Petro Gary", "phone": "219-884-1133", "brand": "Petro", "brand:wikidata": "Q7835892"}, "geometry": {"type": "Point", "coordinates": [-87.3557, 41.5638]}},
{"type": "Feature", "id": "NT_GIIBvAMBTf9WeB3mvmipjRtQ=", "properties": {"ref": "370-P-6370", "amenity:fuel": true, "fuel:diesel:class2": false, "fuel:diesel": true, "fuel:HGV_diesel": true, "fuel:lng": false, "fuel:propane": false, "hgv": true, "@spider": "tapetro", "addr:full": "301 SW First Street", "addr:city": "Oak Grove ", "addr:state": "MO", "addr:postcode": "64075", "name": "Petro Oak Grove", "phone": "816-690-4455", "brand": "Petro", "brand:wikidata": "Q7835892"}, "geometry": {"type": "Point", "coordinates": [-94.1322, 39.0157]}},
{"type": "Feature", "id": "nizsbuE7Cu-roDtyQHv89D5HQEo=", "properties": {"ref": "371-P-6371", "amenity:fuel": true, "fuel:diesel:class2": true, "fuel:diesel": true, "fuel:HGV_diesel": true, "fuel:lng": false, "fuel:propane": false, "hgv": true, "@spider": "tapetro", "addr:full": "1255 Route 414", "addr:city": "Waterloo", "addr:state": "NY", "addr:postcode": "13165", "name": "Petro Waterloo", "phone": "315-220-6550", "brand": "Petro", "brand:wikidata": "Q7835892"}, "geometry": {"type": "Point", "coordinates": [-76.8468, 42.9644]}},
{"type": "Feature", "id": "6cr-ZInAfMh4Q9auEKnsjuS0Row=", "properties": {"ref": "372-P-6372", "amenity:fuel": true, "fuel:diesel:class2": true, "fuel:diesel": true, "fuel:HGV_diesel": true, "fuel:lng": false, "fuel:propane": false, "hgv": true, "@spider": "tapetro", "addr:full": "12433 Maple St.", "addr:city": "Glade Spring", "addr:state": "VA", "addr:postcode": "24340", "name": "Petro Glade Spring", "phone": "276-429-6000", "brand": "Petro", "brand:wikidata": "Q7835892"}, "geometry": {"type": "Point", "coordinates": [-81.7751, 36.7724]}},
{"type": "Feature", "id": "5Kgwuu-ULZOyg-UjJTakC87RMVc=", "properties": {"ref": "376-P-6376", "amenity:fuel": true, "fuel:diesel:class2": true, "fuel:diesel": true, "fuel:HGV_diesel": true, "fuel:lng": false, "fuel:propane": false, "hgv": true, "@spider": "tapetro", "addr:full": "1035 W. State Road 42", "addr:city": "Brazil", "addr:state": "IN", "addr:postcode": "47834", "name": "Petro Brazil", "phone": "812-446-2296", "brand": "Petro", "brand:wikidata": "Q7835892"}, "geometry": {"type": "Point", "coordinates": [-87.127, 39.4455]}},
{"type": "Feature", "id": "4a3qfm9uN0OzldTG9TmPZhgq_eg=", "properties": {"ref": "377-P-6377", "amenity:fuel": true, "fuel:diesel:class2": true, "fuel:diesel": true, "fuel:HGV_diesel": true, "fuel:lng": false, "fuel:propane": false, "hgv": true, "@spider": "tapetro", "addr:full": "10200 Old Federal Rd.", "addr:city": "Carnesville", "addr:state": "GA", "addr:postcode": 30521.0, "name": "Petro Carnesville", "phone": "706-335-1984", "brand": "Petro", "brand:wikidata": "Q7835892"}, "geometry": {"type": "Point", "coordinates": [-83.3199, 34.3481]}},
{"type": "Feature", "id": "i022Qle_D6aFnlU35yqKHFaFrM0=", "properties": {"ref": "378-P-6378", "amenity:fuel": true, "fuel:diesel:class2": true, "fuel:diesel": true, "fuel:HGV_diesel": true, "fuel:lng": false, "fuel:propane": false, "hgv": true, "@spider": "tapetro", "addr:full": "98 Grove St.", "addr:city": "DuPont", "addr:state": "PA", "addr:postcode": 18641.0, "name": "Petro Scranton", "phone": "570-654-5111", "brand": "Petro", "brand:wikidata": "Q7835892"}, "geometry": {"type": "Point", "coordinates": [-75.7417, 41.3317]}},
{"type": "Feature", "id": "o6hP-klH4XtorbmEV3xIMasHX4o=", "properties": {"ref": "379-P-6379", "amenity:fuel": true, "fuel:diesel:class2": true, "fuel:diesel": true, "fuel:HGV_diesel": true, "fuel:lng": false, "fuel:propane": false, "hgv": true, "@spider": "tapetro", "addr:full": "1409 S. Country Road #850 East", "addr:city": "Greensburg", "addr:state": "IN", "addr:postcode": "47240", "name": "Petro Greensburg", "phone": "812-663-2333", "brand": "Petro", "brand:wikidata": "Q7835892"}, "geometry": {"type": "Point", "coordinates": [-85.3282, 39.3182]}},
{"type": "Feature", "id": "B48dHbkqVRMHc-7SCHaL1a8ad1g=", "properties": {"ref": "380-P-6380", "amenity:fuel": true, "fuel:diesel:class2": true, "fuel:diesel": true, "fuel:HGV_diesel": true, "fuel:lng": false, "fuel:propane": false, "hgv": true, "@spider": "tapetro", "addr:full": "14000 W. 28 State Road", "addr:city": "Gaston", "addr:state": "IN", "addr:postcode": "47342", "name": "Petro Gaston", "phone": "765-358-3326", "brand": "Petro", "brand:wikidata": "Q7835892"}, "geometry": {"type": "Point", "coordinates": [-85.5526, 40.2772]}},
{"type": "Feature", "id": "2idKtSVsXTEdBq8thPlMNrTUK9I=", "properties": {"ref": "382-P-6382", "amenity:fuel": true, "fuel:diesel:class2": true, "fuel:diesel": true, "fuel:HGV_diesel": true, "fuel:lng": false, "fuel:propane": false, "hgv": true, "@spider": "tapetro", "addr:full": "4230 W. Highway 24", "addr:city": "Remington", "addr:state": "IN", "addr:postcode": "47977", "name": "Petro Remington", "phone": "219-261-2172", "brand": "Petro", "brand:wikidata": "Q7835892"}, "geometry": {"type": "Point", "coordinates": [-87.1261, 40.767]}},
{"type": "Feature", "id": "2K6Ef3l-Kk2tc2vVz9wOYV1Yrh0=", "properties": {"ref": "385-P-6385", "amenity:fuel": true, "fuel:diesel:class2": true, "fuel:diesel": true, "fuel:HGV_diesel": true, "fuel:lng": false, "fuel:propane": false, "hgv": true, "@spider": "tapetro", "addr:full": "14150 Hwy 418 SW", "addr:city": "Deming", "addr:state": "NM", "addr:postcode": "88030", "name": "Petro Deming", "phone": "575-546-7070", "brand": "Petro", "brand:wikidata": "Q7835892"}, "geometry": {"type": "Point", "coordinates": [-107.9927, 32.2386]}},
{"type": "Feature", "id": "WNhVCGq_VX1frCD3b3cHmpWHiow=", "properties": {"ref": "386-P-6386", "amenity:fuel": true, "fuel:diesel:class2": true, "fuel:diesel": true, "fuel:HGV_diesel": true, "fuel:lng": false, "fuel:propane": false, "hgv": true, "@spider": "tapetro", "addr:full": "700 West Horton", "addr:city": "Colby", "addr:state": "KS", "addr:postcode": "67701", "name": "Petro Colby", "phone": "785-460-0044", "brand": "Petro", "brand:wikidata": "Q7835892"}, "geometry": {"type": "Point", "coordinates": [-101.0537, 39.3617]}},
{"type": "Feature", "id": "ouhTDEEC1bAecxk3zyuxdcrMPNw=", "properties": {"ref": "388-P-6388", "amenity:fuel": true, "fuel:diesel:class2": true, "fuel:diesel": true, "fuel:HGV_diesel": true, "fuel:lng": false, "fuel:propane": false, "hgv": true, "@spider": "tapetro", "addr:full": "900 American Road", "addr:city": "Napolean", "addr:state": "OH", "addr:postcode": "43545", "name": "Petro Napolean", "phone": "419-599-3835", "brand": "Petro", "brand:wikidata": "Q7835892"}, "geometry": {"type": "Point", "coordinates": [-84.1045, 41.4178]}},
{"type": "Feature", "id": "aLPmIpTW3aGX0rOqvAUhV9AytRk=", "properties": {"ref": "389-P-6389", "amenity:fuel": true, "fuel:diesel:class2": false, "fuel:diesel": true, "fuel:HGV_diesel": true, "fuel:lng": false, "fuel:propane": false, "hgv": true, "@spider": "tapetro", "addr:full": "950 State Hwy 24", "addr:city": "Clearwater", "addr:state": "MN", "addr:postcode": "55320", "name": "Petro Clearwater", "phone": "320-558-2261", "brand": "Petro", "brand:wikidata": "Q7835892"}, "geometry": {"type": "Point", "coordinates": [-94.0549, 45.4126]}},
{"type": "Feature", "id": "0sQzSG_zF6z-ZHXdoLMG1KJzzwc=", "properties": {"ref": "392.0-P-6392.0", "amenity:fuel": true, "fuel:diesel:class2": true, "fuel:diesel": true, "fuel:HGV_diesel": true, "fuel:lng": false, "fuel:propane": false, "hgv": true, "@spider": "tapetro", "addr:full": "1440  6th St.", "addr:city": "Wells", "addr:state": "NV", "addr:postcode": "89835", "name": "Petro Wells", "phone": "775-752-2000", "brand": "Petro", "brand:wikidata": "Q7835892"}, "geometry": {"type": "Point", "coordinates": [-114.9561, 41.101]}},
{"type": "Feature", "id": "C9q5C7envO4vVDAEY-agGKRw0yo=", "properties": {"ref": "393.0-P-6393.0", "amenity:fuel": true, "fuel:diesel:class2": true, "fuel:diesel": true, "fuel:HGV_diesel": true, "fuel:lng": false, "fuel:propane": true, "hgv": true, "@spider": "tapetro", "addr:full": "3001 TV Road", "addr:city": "Florence ", "addr:state": "SC", "addr:postcode": 29501.0, "name": "Petro Florence", "phone": "843-669-5736", "brand": "Petro", "brand:wikidata": "Q7835892"}, "geometry": {"type": "Point", "coordinates": [-79.7321, 34.2665]}},
{"type": "Feature", "id": "5k_fIpfi-rcC-sQqe3LThQI5h_Q=", "properties": {"ref": "394-P-6394.0", "amenity:fuel": true, "fuel:diesel:class2": true, "fuel:diesel": true, "fuel:HGV_diesel": true, "fuel:lng": false, "fuel:propane": false, "hgv": true, "@spider": "tapetro", "addr:full": "110 Interstate 35 Frontage Rd.", "addr:city": "Pearsall", "addr:state": "TX", "addr:postcode": 78061.0, "name": "Petro Pearsall", "phone": "830-334-8222", "brand": "Petro", "brand:wikidata": "Q7835892"}, "geometry": {"type": "Point", "coordinates": [-99.1158, 28.8996]}},
{"type": "Feature", "id": "_qvLiOycm_udHkl6xkfadin2FD0=", "properties": {"ref": "395-P-5026", "amenity:fuel": true, "fuel:diesel:class2": false, "fuel:diesel": true, "fuel:HGV_diesel": true, "fuel:lng": false, "fuel:propane": false, "hgv": true, "@spider": "tapetro", "addr:full": "923 Johnston Parkway", "addr:city": "Kenly", "addr:state": "NC", "addr:postcode": "27542", "name": "Petro Kenly", "phone": "919-284-5121", "brand": "Petro", "brand:wikidata": "Q7835892"}, "geometry": {"type": "Point", "coordinates": [-78.1457, 35.582]}},
{"type": "Feature", "id": "K0V3DLp5uvcQ6e-UjR6h92-Fl0w=", "properties": {"ref": "396-P-6396", "amenity:fuel": true, "fuel:diesel:class2": true, "fuel:diesel": true, "fuel:HGV_diesel": true, "fuel:lng": false, "fuel:propane": false, "hgv": true, "@spider": "tapetro", "addr:full": "2440 Raphine Road", "addr:city": "Raphine", "addr:state": "VA", "addr:postcode": "24472", "name": "Petro Raphine", "phone": "540-377-2111", "brand": "Petro", "brand:wikidata": "Q7835892"}, "geometry": {"type": "Point", "coordinates": [-79.2283, 37.93]}},
{"type": "Feature", "id": "KZ-eVMDgFFDEK4IOviWIwJjYlE0=", "properties": {"ref": "397-P-6397", "amenity:fuel": true, "fuel:diesel:class2": false, "fuel:diesel": true, "fuel:HGV_diesel": true, "fuel:lng": false, "fuel:propane": false, "hgv": true, "@spider": "tapetro", "addr:full": "426 Alabama Highway 69 S", "addr:city": "Hanceville", "addr:state": "AL", "addr:postcode": "35077", "name": "Petro Dodge City", "phone": "256-287-1299", "brand": "Petro", "brand:wikidata": "Q7835892"}, "geometry": {"type": "Point", "coordinates": [-86.8721, 34.0504]}},
{"type": "Feature", "id": "KCIlSiHHr55tTihDeim0-eq8I-I=", "properties": {"ref": "398.0-P-6398.0", "amenity:fuel": true, "fuel:diesel:class2": false, "fuel:diesel": true, "fuel:HGV_diesel": true, "fuel:lng": false, "fuel:propane": false, "hgv": true, "@spider": "tapetro", "addr:full": "820 Happy Trails Lane", "addr:city": "Albert Lea", "addr:state": "MN", "addr:postcode": "56007", "name": "Petro Albert Lea", "phone": "507-373-4200", "brand": "Petro", "brand:wikidata": "Q7835892"}, "geometry": {"type": "Point", "coordinates": [-93.3157, 43.6577]}},
{"type": "Feature", "id": "1-yPAn8o3YGxshUeM8PEz33BYnw=", "properties": {"ref": "399-P-6399.0", "amenity:fuel": true, "fuel:diesel:class2": true, "fuel:diesel": true, "fuel:HGV_diesel": true, "fuel:lng": false, "fuel:propane": true, "hgv": true, "@spider": "tapetro", "addr:full": "2842 SE Frontage Road", "addr:city": "Johnstown", "addr:state": "CO", "addr:postcode": "80534", "name": "Petro Johnson's Corner", "phone": "970-667-2069", "brand": "Petro", "brand:wikidata": "Q7835892"}, "geometry": {"type": "Point", "coordinates": [-104.984, 40.363]}},
{"type": "Feature", "id": "BtNsAQxngFTf40REJWK9B3zvu4M=", "properties": {"ref": "402-P-6402.0", "amenity:fuel": true, "fuel:diesel:class2": true, "fuel:diesel": true, "fuel:HGV_diesel": true, "fuel:lng": false, "fuel:propane": false, "hgv": true, "@spider": "tapetro", "addr:full": "24225 W. Lorenzo Road", "addr:city": "Wilmington", "addr:state": "IL", "addr:postcode": "60481", "name": "Petro Wilmington", "phone": "779-232-7975", "brand": "Petro", "brand:wikidata": "Q7835892"}, "geometry": {"type": "Point", "coordinates": [-88.1974, 41.3454]}},
{"type": "Feature", "id": "FLNT9p3ih-tZfj9n3f775N-Z8-0=", "properties": {"ref": "403-P-6403.0", "amenity:fuel": true, "fuel:diesel:class2": true, "fuel:diesel": true, "fuel:HGV_diesel": true, "fuel:lng": false, "fuel:propane": false, "hgv": true, "@spider": "tapetro", "addr:full": "North 5800 Kinney Road", "addr:city": "Portage", "addr:state": "WI", "addr:postcode": "53901", "name": "Petro Portage", "phone": "608-742-6551", "brand": "Petro", "brand:wikidata": "Q7835892"}, "geometry": {"type": "Point", "coordinates": [-89.497, 43.4884]}},
{"type": "Feature", "id": "YmOCuF9FKHTwP3zJSFF-MjfGFMQ=", "properties": {"ref": "431-TE-6431.0", "amenity:fuel": true, "fuel:diesel:class2": false, "fuel:diesel": true, "fuel:HGV_diesel": true, "fuel:lng": false, "fuel:propane": true, "hgv": true, "@spider": "tapetro", "addr:full": "12613 Gunderson Road", "addr:city": "Osseo", "addr:state": "WI", "addr:postcode": "54758", "name": "TA Express Osseo", "phone": "715-597-2353", "brand": "TA Express", "brand:wikidata": "Q7835892"}, "geometry": {"type": "Point", "coordinates": [-91.1981, 44.5577]}},
{"type": "Feature", "id": "YQGLhmzvoODKZyBuftYyK38YxWQ=", "properties": {"ref": "437-TE-6437.0", "amenity:fuel": true, "fuel:diesel:class2": false, "fuel:diesel": true, "fuel:HGV_diesel": true, "fuel:lng": false, "fuel:propane": false, "hgv": true, "@spider": "tapetro", "addr:full": "2622 Lincholn Hwy East", "addr:city": " Ronks", "addr:state": "PA", "addr:postcode": "17572", "name": "TA Express Ronks", "phone": "717-687-6112", "brand": "TA Express", "brand:wikidata": "Q7835892"}, "geometry": {"type": "Point", "coordinates": [-76.181, 40.0197]}},
{"type": "Feature", "id": "R3HM_NcCjLNSp-D2qmwEZ3yUhnc=", "properties": {"ref": "601-T-5086", "amenity:fuel": true, "fuel:diesel:class2": false, "fuel:diesel": true, "fuel:HGV_diesel": true, "fuel:lng": false, "fuel:propane": false, "hgv": true, "@spider": "tapetro", "addr:full": "535 Mill Street N4S 7V6", "addr:city": "Woodstock", "addr:state": "ON", "addr:postcode": "N4S 0A9", "name": "TA Woodstock", "phone": "519-421-3144", "brand": "TravelCenters of America", "brand:wikidata": "Q7835892"}, "geometry": {"type": "Point", "coordinates": [-80.755, 43.102]}},
{"type": "Feature", "id": "0vjxHB-_jUP1Eg-ehcE-FxWVMCA=", "properties": {"ref": "648-TE-13648.0", "amenity:fuel": true, "fuel:diesel:class2": false, "fuel:diesel": true, "fuel:HGV_diesel": true, "fuel:lng": false, "fuel:propane": false, "hgv": true, "@spider": "tapetro", "addr:full": "1041 N. Colorado Avenue", "addr:city": "Brush", "addr:state": "CO", "addr:postcode": "80723", "name": "TA Express Brush", "phone": "970-842-3122", "brand": "TA Express", "brand:wikidata": "Q7835892"}, "geometry": {"type": "Point", "coordinates": [-103.621, 40.2665]}},
{"type": "Feature", "id": "0Ulgw3QMm4q0VqZqNwpc5PFuMSM=", "properties": {"ref": "649-TE-13649.0", "amenity:fuel": true, "fuel:diesel:class2": false, "fuel:diesel": true, "fuel:HGV_diesel": true, "fuel:lng": false, "fuel:propane": false, "hgv": true, "@spider": "tapetro", "addr:full": "455 US-85", "addr:city": "Walsenburg", "addr:state": "CO", "addr:postcode": "81089", "name": "TA Express Walsenburg", "phone": "719-738-5733", "brand": "TA Express", "brand:wikidata": "Q7835892"}, "geometry": {"type": "Point", "coordinates": [-104.7938, 37.6537]}}]}