{"type":"FeatureCollection","features":[{"type": "Feature", "id": "dJVDWAV6mLXd6qLZlvTeVxIeZjU=", "properties": {"ref": "https://www.tapi.co.uk/stores/ayr", "@spider": "tapi_gb", "shop": "carpet", "addr:street_address": "Unit 19 Heathfield Retail Park, Liberator Drive", "addr:postcode": "KA8 9BF", "addr:country": "GB", "name": "Tapi Carpets & Floors Ayr", "phone": "01292 438 460", "website": "https://www.tapi.co.uk/stores/ayr", "image": "https://www.tapi.co.uk/images_stores/tapi-carpets-ayr-web.jpg", "brand": "Tapi", "brand:wikidata": "Q79223951", "nsi_id": "tapicarpets-40b39f"}, "geometry": {"type": "Point", "coordinates": [-4.593997, 55.478332]}},
{"type": "Feature", "id": "4cHlL703QIxWSv59W_kYiHS5PxA=", "properties": {"ref": "https://www.tapi.co.uk/stores/bristol", "@spider": "tapi_gb", "shop": "carpet", "addr:street_address": "Unit C2 Centaurus Retail Park, Centaurus Road", "addr:city": "Patchway", "addr:postcode": "BS34 5TS", "addr:country": "GB", "name": "Tapi Carpets & Floors Bristol", "phone": "0117 428 6430", "website": "https://www.tapi.co.uk/stores/bristol", "image": "https://www.tapi.co.uk/images_stores/tapi-carpets-bristol-web.jpg", "brand": "Tapi", "brand:wikidata": "Q79223951", "nsi_id": "tapicarpets-40b39f"}, "geometry": {"type": "Point", "coordinates": [-2.5985, 51.52828]}},
{"type": "Feature", "id": "Z2E7mhgxMWtsRN8ovfOz9ZERe0I=", "properties": {"ref": "https://www.tapi.co.uk/stores/bolton", "@spider": "tapi_gb", "shop": "carpet", "addr:street_address": "15a Middlebrook Retail Park, 72 The Linkway", "addr:postcode": "BL6 6JA", "addr:country": "GB", "name": "Tapi Carpets & Floors Bolton", "phone": "01204 803 740", "website": "https://www.tapi.co.uk/stores/bolton", "image": "https://www.tapi.co.uk/images_stores/tapi-carpets-bolton-web.jpg", "brand": "Tapi", "brand:wikidata": "Q79223951", "nsi_id": "tapicarpets-40b39f"}, "geometry": {"type": "Point", "coordinates": [-2.533768, 53.583875]}},
{"type": "Feature", "id": "iux7gpluagUU1s0eDbBYTlbrr1o=", "properties": {"ref": "https://www.tapi.co.uk/stores/poole", "@spider": "tapi_gb", "shop": "carpet", "addr:street_address": "Unit 2 Wessex Gate Retail Park, Broadstone Way", "addr:postcode": "BH15 3TE", "addr:country": "GB", "name": "Tapi Carpets & Floors Poole", "phone": "01202 057 220", "website": "https://www.tapi.co.uk/stores/poole", "image": "https://www.tapi.co.uk/images_stores/tapi-carpets-poole-web.jpg", "brand": "Tapi", "brand:wikidata": "Q79223951", "nsi_id": "tapicarpets-40b39f"}, "geometry": {"type": "Point", "coordinates": [-1.991507, 50.734084]}},
{"type": "Feature", "id": "aajYNkjPNVBi3Zqy96wp1xjR-Dw=", "properties": {"ref": "https://www.tapi.co.uk/stores/banbury", "@spider": "tapi_gb", "shop": "carpet", "addr:street_address": "6 Lockheed Close", "addr:postcode": "OX16 1LX", "addr:country": "GB", "name": "Tapi Carpets & Floors Banbury", "phone": "01295 239 960", "website": "https://www.tapi.co.uk/stores/banbury", "image": "https://www.tapi.co.uk/images_stores/tapi-carpets-banbury-web.jpg", "brand": "Tapi", "brand:wikidata": "Q79223951", "nsi_id": "tapicarpets-40b39f"}, "geometry": {"type": "Point", "coordinates": [-1.342994, 52.074026]}},
{"type": "Feature", "id": "oEvsoAv_EX2T7qM8z7qQdhhW_l4=", "properties": {"ref": "https://www.tapi.co.uk/stores/solihull", "@spider": "tapi_gb", "shop": "carpet", "addr:street_address": "Unit 2 Solihull Gate Retail Park, Marshall Lake Road", "addr:city": "Shirley", "addr:postcode": "B90 4BP", "addr:country": "GB", "name": "Tapi Carpets & Floors Solihull", "phone": "0121 726 8250", "website": "https://www.tapi.co.uk/stores/solihull", "image": "https://www.tapi.co.uk/images_stores/tapi-carpets-solihull-web.jpg", "brand": "Tapi", "brand:wikidata": "Q79223951", "nsi_id": "tapicarpets-40b39f"}, "geometry": {"type": "Point", "coordinates": [-1.818456, 52.398676]}},
{"type": "Feature", "id": "M_kJjcn906AlvGuxtLq6AGxdpXs=", "properties": {"ref": "https://www.tapi.co.uk/stores/st-albans", "@spider": "tapi_gb", "shop": "carpet", "addr:street_address": "Unit 4B Abbey View Retail Park, Griffiths Way", "addr:postcode": "AL1 2RJ", "addr:country": "GB", "name": "Tapi Carpets & Floors St Albans", "phone": "01727 226 760", "website": "https://www.tapi.co.uk/stores/st-albans", "image": "https://www.tapi.co.uk/images_stores/tapi-carpets-stalbans-web.jpg", "brand": "Tapi", "brand:wikidata": "Q79223951", "nsi_id": "tapicarpets-40b39f"}, "geometry": {"type": "Point", "coordinates": [-0.341274, 51.742293]}},
{"type": "Feature", "id": "ZDBDjXQN_8fO8gG_icdy3w5jGPQ=", "properties": {"ref": "https://www.tapi.co.uk/stores/cannock", "@spider": "tapi_gb", "shop": "carpet", "addr:street_address": "Unit 4b Linkway Retail Park, Watling Street", "addr:postcode": "WS11 1TD", "addr:country": "GB", "name": "Tapi Carpets & Floors Cannock", "phone": "01543 223 710", "website": "https://www.tapi.co.uk/stores/cannock", "image": "https://www.tapi.co.uk/images_stores/tapi-carpets-cannock-web.jpg", "brand": "Tapi", "brand:wikidata": "Q79223951", "nsi_id": "tapicarpets-40b39f"}, "geometry": {"type": "Point", "coordinates": [-2.047551, 52.678324]}},
{"type": "Feature", "id": "tW_gTQCVBb64WJvEw7DoFqf8op0=", "properties": {"ref": "https://www.tapi.co.uk/stores/aberdeen", "@spider": "tapi_gb", "shop": "carpet", "addr:street_address": "Unit 4a Kittybrewster Retail Park, Bedford Road", "addr:postcode": "AB24 3LJ", "addr:country": "GB", "name": "Tapi Carpets & Floors Aberdeen", "phone": "01224 470 230", "website": "https://www.tapi.co.uk/stores/aberdeen", "image": "https://www.tapi.co.uk/images_stores/tapi-carpets-aberdeen-web.jpg", "brand": "Tapi", "brand:wikidata": "Q79223951", "nsi_id": "tapicarpets-40b39f"}, "geometry": {"type": "Point", "coordinates": [-2.1124175, 57.161377]}},
{"type": "Feature", "id": "zTbSDIHWipJOjyw4Y7RB4pSd9nM=", "properties": {"ref": "https://www.tapi.co.uk/stores/tooting", "@spider": "tapi_gb", "shop": "carpet", "addr:street_address": "205-207 Tooting High Street, Tooting", "addr:postcode": "SW17 0SZ", "addr:country": "GB", "name": "Tapi Carpets & Floors Tooting", "phone": "020 3818 0700", "website": "https://www.tapi.co.uk/stores/tooting", "image": "https://www.tapi.co.uk/images_stores/tapi-carpets-tooting-web.jpg", "brand": "Tapi", "brand:wikidata": "Q79223951", "nsi_id": "tapicarpets-40b39f"}, "geometry": {"type": "Point", "coordinates": [-0.171846, 51.423927]}},
{"type": "Feature", "id": "BF0lLB0oEMDjb4D9OhRRRr-nino=", "properties": {"ref": "https://www.tapi.co.uk/stores/inverness", "@spider": "tapi_gb", "shop": "carpet", "addr:street_address": "Unit 3 Telford Retail Park , Telford Street", "addr:postcode": "IV3 5LU", "addr:country": "GB", "name": "Tapi Carpets & Floors Inverness", "phone": "01463 213 180", "website": "https://www.tapi.co.uk/stores/inverness", "image": "https://www.tapi.co.uk/images_stores/tapi-carpets-inverness-web.jpg", "brand": "Tapi", "brand:wikidata": "Q79223951", "nsi_id": "tapicarpets-40b39f"}, "geometry": {"type": "Point", "coordinates": [-4.247356, 57.481505]}},
{"type": "Feature", "id": "w5CU6H3l5pSKvj4KzVe0MQmjtbM=", "properties": {"ref": "https://www.tapi.co.uk/stores/edmonton", "@spider": "tapi_gb", "shop": "carpet", "addr:street_address": "4 Ravenside Retail Park, Ravenside Close", "addr:postcode": "N18 3HA", "addr:country": "GB", "name": "Tapi Carpets & Floors Edmonton", "phone": "020 3846 1080", "website": "https://www.tapi.co.uk/stores/edmonton", "image": "https://www.tapi.co.uk/images_stores/tapi-carpets-edmonton-web.jpg", "brand": "Tapi", "brand:wikidata": "Q79223951", "nsi_id": "tapicarpets-40b39f"}, "geometry": {"type": "Point", "coordinates": [-0.041476, 51.61139]}},
{"type": "Feature", "id": "5zfsHn_VOvtSjuT0n2rMxiSNOYY=", "properties": {"ref": "https://www.tapi.co.uk/stores/guildford", "@spider": "tapi_gb", "shop": "carpet", "addr:street_address": "Unit 6B Ladymead Retail Park, Europa Park Road", "addr:postcode": "GU1 1AJ", "addr:country": "GB", "name": "Tapi Carpets & Floors Guildford", "phone": "01483 678 940", "website": "https://www.tapi.co.uk/stores/guildford", "image": "https://www.tapi.co.uk/images_stores/tapi-carpets-guildford-web.jpg", "brand": "Tapi", "brand:wikidata": "Q79223951", "nsi_id": "tapicarpets-40b39f"}, "geometry": {"type": "Point", "coordinates": [-0.579644, 51.248527]}},
{"type": "Feature", "id": "BcrTE6MQw2_-yoi_7G2kwzDuuao=", "properties": {"ref": "https://www.tapi.co.uk/stores/hayes", "@spider": "tapi_gb", "shop": "carpet", "addr:street_address": "Unit 7B Hayes Bridge Retail Park, Uxbridge Road", "addr:postcode": "UB4 0RH", "addr:country": "GB", "name": "Tapi Carpets & Floors Hayes", "phone": "020 8629 6810", "website": "https://www.tapi.co.uk/stores/hayes", "image": "https://www.tapi.co.uk/images_stores/tapi-carpets-hayes-web.jpg", "brand": "Tapi", "brand:wikidata": "Q79223951", "nsi_id": "tapicarpets-40b39f"}, "geometry": {"type": "Point", "coordinates": [-0.393924, 51.511835]}},
{"type": "Feature", "id": "-Lmgkn8ExjPSQtVZOGcPG3HcnYE=", "properties": {"ref": "https://www.tapi.co.uk/stores/gloucester", "@spider": "tapi_gb", "shop": "carpet", "addr:street_address": "Unit 6B St. Oswalds Retail Park, Gavel Way", "addr:postcode": "GL1 2UE", "addr:country": "GB", "name": "Tapi Carpets & Floors Gloucester", "phone": "01452 221 900", "website": "https://www.tapi.co.uk/stores/gloucester", "image": "https://www.tapi.co.uk/images_stores/tapi-carpets-gloucester-web.jpg", "brand": "Tapi", "brand:wikidata": "Q79223951", "nsi_id": "tapicarpets-40b39f"}, "geometry": {"type": "Point", "coordinates": [-2.246723, 51.874433]}},
{"type": "Feature", "id": "RJKnazS19yxfjtz3yn2uc5OzYDI=", "properties": {"ref": "https://www.tapi.co.uk/stores/bexhill", "@spider": "tapi_gb", "shop": "carpet", "addr:street_address": "Unit E4, Ravenside Retail Park, Bexhill", "addr:city": "East Sussex", "addr:postcode": "TN40 2JS", "addr:country": "GB", "name": "Tapi Carpets & Floors Bexhill", "phone": "01424 232840", "website": "https://www.tapi.co.uk/stores/bexhill", "image": "https://www.tapi.co.uk/images_stores/tapi-carpets-banbury-web.jpg", "brand": "Tapi", "brand:wikidata": "Q79223951", "nsi_id": "tapicarpets-40b39f"}, "geometry": {"type": "Point", "coordinates": [0.500033, 50.844206]}},
{"type": "Feature", "id": "OcPFMRraIFTcWIl9Uh2TdUyqxA4=", "properties": {"ref": "https://www.tapi.co.uk/stores/kettering", "@spider": "tapi_gb", "shop": "carpet", "addr:street_address": "Unit 5 Kettering Retail Park, Carina Road", "addr:city": "Kettering", "addr:postcode": "NN15 6YA", "addr:country": "GB", "name": "Tapi Carpets & Floors Kettering", "phone": "01536 904070", "website": "https://www.tapi.co.uk/stores/kettering", "image": "https://www.tapi.co.uk/images_stores/tapi-carpets-banbury-web.jpg", "brand": "Tapi", "brand:wikidata": "Q79223951", "nsi_id": "tapicarpets-40b39f"}, "geometry": {"type": "Point", "coordinates": [-0.7190304364156651, 52.3750522940807]}},
{"type": "Feature", "id": "NpvxoK9mKr0hFF7i5T4xCZ05cA8=", "properties": {"ref": "https://www.tapi.co.uk/stores/staines", "@spider": "tapi_gb", "shop": "carpet", "addr:street_address": "Unit S5A Two Rivers Retail Park, Mustard Mill Road", "addr:city": "Staines", "addr:postcode": "TW18 4WB", "addr:country": "GB", "name": "Tapi Carpets & Floors Staines", "phone": "01784 918670", "website": "https://www.tapi.co.uk/stores/staines", "image": "https://www.tapi.co.uk/images_stores/tapi-carpets-banbury-web.jpg", "brand": "Tapi", "brand:wikidata": "Q79223951", "nsi_id": "tapicarpets-40b39f"}, "geometry": {"type": "Point", "coordinates": [-0.5108592, 51.43497117]}},
{"type": "Feature", "id": "_Gjb9lJLjI24ZIcApPVecTm8N6U=", "properties": {"ref": "https://www.tapi.co.uk/stores/southend", "@spider": "tapi_gb", "shop": "carpet", "addr:street_address": "Unit 4, Airport Retail Park, Rochford Road", "addr:postcode": "SS2 6FW", "addr:country": "GB", "name": "Tapi Carpets & Floors Southend", "phone": "01702 900490", "website": "https://www.tapi.co.uk/stores/southend", "image": "https://www.tapi.co.uk/images_stores/ef61d263248bc482e22fe9c9d6336c6b.jpg", "brand": "Tapi", "brand:wikidata": "Q79223951", "nsi_id": "tapicarpets-40b39f"}, "geometry": {"type": "Point", "coordinates": [0.7038126244924322, 51.56763870388555]}},
{"type": "Feature", "id": "xwmET9Hm_a-6JCP8zuvLV2rTzS0=", "properties": {"ref": "https://www.tapi.co.uk/stores/worcester", "@spider": "tapi_gb", "shop": "carpet", "addr:street_address": "Unit B5 Elgar Retail Park, Blackpole Road", "addr:postcode": "WR3 8HP", "addr:country": "GB", "name": "Tapi Carpets & Floors Worcester", "phone": "01905 950980", "website": "https://www.tapi.co.uk/stores/worcester", "image": "https://www.tapi.co.uk/images_stores/tapi-carpets-rustington-web.jpg", "brand": "Tapi", "brand:wikidata": "Q79223951", "nsi_id": "tapicarpets-40b39f"}, "geometry": {"type": "Point", "coordinates": [-2.201285, 52.21077]}},
{"type": "Feature", "id": "8cAmtNNZxWP_bNtIOFHvk_Xmw90=", "properties": {"ref": "https://www.tapi.co.uk/stores/bromborough", "@spider": "tapi_gb", "shop": "carpet", "addr:street_address": "Unit D The Croft Retail & Leisure Park, Welton Road", "addr:city": "Wirral", "addr:postcode": "CH62 3PN", "addr:country": "GB", "name": "Tapi Carpets & Floors Bromborough", "phone": "01513 517560", "website": "https://www.tapi.co.uk/stores/bromborough", "image": "https://www.tapi.co.uk/images_stores/tapi-carpets-rustington-web.jpg", "brand": "Tapi", "brand:wikidata": "Q79223951", "nsi_id": "tapicarpets-40b39f"}, "geometry": {"type": "Point", "coordinates": [-2.9782817317535133, 53.34117152612099]}},
{"type": "Feature", "id": "Jxq13tDTsLuMhp6HIvzHToYtNtw=", "properties": {"ref": "https://www.tapi.co.uk/stores/oxford", "@spider": "tapi_gb", "shop": "carpet", "addr:street_address": "Unit 1b Botley Road Retail Park, Lamarsh Road", "addr:city": "Oxford", "addr:postcode": "OX2 0HA", "addr:country": "GB", "name": "Tapi Carpets & Floors Oxford", "phone": "01865 966250", "website": "https://www.tapi.co.uk/stores/oxford", "image": "https://www.tapi.co.uk/images_stores/tapi-carpets-rustington-web.jpg", "brand": "Tapi", "brand:wikidata": "Q79223951", "nsi_id": "tapicarpets-40b39f"}, "geometry": {"type": "Point", "coordinates": [-1.28591991, 51.75223184]}},
{"type": "Feature", "id": "AECeawsDdvafntUtTpFtAkvaGvI=", "properties": {"ref": "https://www.tapi.co.uk/stores/carlisle", "@spider": "tapi_gb", "shop": "carpet", "addr:street_address": "Unit 3 London Road Retail Park, London Road", "addr:postcode": "CA1 2PD", "addr:country": "GB", "name": "Tapi Carpets & Floors Carlisle", "phone": "01228 587060", "website": "https://www.tapi.co.uk/stores/carlisle", "image": "https://www.tapi.co.uk/images_stores/tapi-carpets-rustington-web.jpg", "brand": "Tapi", "brand:wikidata": "Q79223951", "nsi_id": "tapicarpets-40b39f"}, "geometry": {"type": "Point", "coordinates": [-2.9157220709874627, 54.88412683811789]}},
{"type": "Feature", "id": "wLjb1-uh7kq_pcKpoaGWcCGssso=", "properties": {"ref": "https://www.tapi.co.uk/stores/doncaster", "@spider": "tapi_gb", "shop": "carpet", "addr:street_address": "Unit 6b Danum Retail Park, York Road", "addr:postcode": "DN5 8LZ", "addr:country": "GB", "name": "Tapi Carpets & Floors Doncaster", "phone": "01302 248910", "website": "https://www.tapi.co.uk/stores/doncaster", "image": "https://www.tapi.co.uk/images_stores/tapi-carpets-rustington-web.jpg", "brand": "Tapi", "brand:wikidata": "Q79223951", "nsi_id": "tapicarpets-40b39f"}, "geometry": {"type": "Point", "coordinates": [-1.1555313999604253, 53.531878651180556]}},
{"type": "Feature", "id": "nCLUW9tPFsybjWfEBwZwzfZJHRw=", "properties": {"ref": "https://www.tapi.co.uk/stores/bognor-regis", "@spider": "tapi_gb", "shop": "carpet", "addr:street_address": "Unit C1 Arun Retail Park, Shripney Road", "addr:postcode": "PO22 9NF", "addr:country": "GB", "name": "Tapi Carpets & Floors Bognor Regis", "phone": "01243 349 220", "website": "https://www.tapi.co.uk/stores/bognor-regis", "image": "https://www.tapi.co.uk/images_stores/tapi-carpets-rustington-web.jpg", "brand": "Tapi", "brand:wikidata": "Q79223951", "nsi_id": "tapicarpets-40b39f"}, "geometry": {"type": "Point", "coordinates": [-0.666703, 50.798798]}},
{"type": "Feature", "id": "fGV00Eo_AbbF9uG1Bh89-7utEd4=", "properties": {"ref": "https://www.tapi.co.uk/stores/huntingdon", "@spider": "tapi_gb", "shop": "carpet", "addr:street_address": "Unit 1b Stukeley Road Retail Park, Stukeley Road", "addr:postcode": "PE29 6DA", "addr:country": "GB", "name": "Tapi Carpets & Floors Huntingdon", "phone": "01480 775 690", "website": "https://www.tapi.co.uk/stores/huntingdon", "image": "https://www.tapi.co.uk/images_stores/ce014a29a6636a707797cf8e39170d40.JPG", "brand": "Tapi", "brand:wikidata": "Q79223951", "nsi_id": "tapicarpets-40b39f"}, "geometry": {"type": "Point", "coordinates": [-0.192222, 52.339167]}},
{"type": "Feature", "id": "b1b8IIw4JA6Rz8j2WJpUNwDGPGs=", "properties": {"ref": "https://www.tapi.co.uk/stores/bredbury-homebase", "@spider": "tapi_gb", "shop": "carpet", "addr:street_address": "Stockport Road East, Bredbury", "addr:postcode": "SK6 2BN", "addr:country": "GB", "name": "Tapi Carpets & Floors within Bredbury Homebase", "phone": "01616 699550", "website": "https://www.tapi.co.uk/stores/bredbury-homebase", "image": "https://www.tapi.co.uk/", "brand": "Tapi", "brand:wikidata": "Q79223951", "nsi_id": "tapicarpets-40b39f"}, "geometry": {"type": "Point", "coordinates": [-2.1175, 53.423056]}},
{"type": "Feature", "id": "3QfWD04unFZzpwULTy4a_9ugPS0=", "properties": {"ref": "https://www.tapi.co.uk/stores/llandudno", "@spider": "tapi_gb", "shop": "carpet", "addr:street_address": "Unit D1, Mostyn , Champneys Retail Park", "addr:city": "Mostyn Broadway", "addr:postcode": "LL30 1RY", "addr:country": "GB", "name": "Tapi Carpets & Floors Llandudno", "phone": "01492 555260", "website": "https://www.tapi.co.uk/stores/llandudno", "image": "https://www.tapi.co.uk/images_stores/tapi-carpets-cardiff-newport-web.jpg", "brand": "Tapi", "brand:wikidata": "Q79223951", "nsi_id": "tapicarpets-40b39f"}, "geometry": {"type": "Point", "coordinates": [-3.817139, 53.319333]}},
{"type": "Feature", "id": "ZZFZBJWSzdmQUI186gxIxf_WrGk=", "properties": {"ref": "https://www.tapi.co.uk/stores/yeovil", "@spider": "tapi_gb", "shop": "carpet", "addr:street_address": "Units 1A - 2 Lynx Trade Park, Garrett Road", "addr:city": "Lynx Trading Estate", "addr:postcode": "BA20 2TJ", "addr:country": "GB", "name": "Tapi Carpets & Floors Yeovil", "phone": "01935 316440", "website": "https://www.tapi.co.uk/stores/yeovil", "image": "https://www.tapi.co.uk/images_stores/tapi-carpets-christchurch-web.jpg", "brand": "Tapi", "brand:wikidata": "Q79223951", "nsi_id": "tapicarpets-40b39f"}, "geometry": {"type": "Point", "coordinates": [-2.65877, 50.9337]}},
{"type": "Feature", "id": "HQEt2CxP7Y-Hk3MGUOjJhXdpJcc=", "properties": {"ref": "https://www.tapi.co.uk/stores/salisbury", "@spider": "tapi_gb", "shop": "carpet", "addr:street_address": "Unit 3, Southampton Road Retail Park, Southampton Road", "addr:postcode": "SP1 2FE", "addr:country": "GB", "name": "Tapi Carpets & Floors Salisbury", "phone": "01722 656010", "website": "https://www.tapi.co.uk/stores/salisbury", "image": "https://www.tapi.co.uk/images_stores/tapi-carpets-christchurch-web.jpg", "brand": "Tapi", "brand:wikidata": "Q79223951", "nsi_id": "tapicarpets-40b39f"}, "geometry": {"type": "Point", "coordinates": [-1.77956, 51.06426]}},
{"type": "Feature", "id": "0Wp4NmZS9CKRicvv1mWOwbB1Vws=", "properties": {"ref": "https://www.tapi.co.uk/stores/east-kilbride", "@spider": "tapi_gb", "shop": "carpet", "addr:street_address": "2 Kingsgate Retail Park, Glasgow Road", "addr:city": "East Kilbride", "addr:postcode": "G74 4UN", "addr:country": "GB", "name": "Tapi Carpets & Floors East Kilbride", "phone": "01355 203100", "website": "https://www.tapi.co.uk/stores/east-kilbride", "image": "https://www.tapi.co.uk/images_stores/tapi-carpets-ayr-web.jpg", "brand": "Tapi", "brand:wikidata": "Q79223951", "nsi_id": "tapicarpets-40b39f"}, "geometry": {"type": "Point", "coordinates": [-4.1706352, 55.78345971]}},
{"type": "Feature", "id": "404LfKOS-hgs3SWNuhL_vuUZKCA=", "properties": {"ref": "https://www.tapi.co.uk/stores/bradford-homebase", "@spider": "tapi_gb", "shop": "carpet", "addr:street_address": "Unit 4 Enterprise 5 Retail Park, Bradford Road", "addr:postcode": "BD10 8EG", "addr:country": "GB", "name": "Tapi Carpets & Floors within Bradford Homebase", "phone": "01274 933630", "website": "https://www.tapi.co.uk/stores/bradford-homebase", "image": "https://www.tapi.co.uk/", "brand": "Tapi", "brand:wikidata": "Q79223951", "nsi_id": "tapicarpets-40b39f"}, "geometry": {"type": "Point", "coordinates": [-1.73289, 53.82543]}},
{"type": "Feature", "id": "qq7Nz2nlkfvkddZHHsVdtnlqNI8=", "properties": {"ref": "https://www.tapi.co.uk/stores/cromer", "@spider": "tapi_gb", "shop": "carpet", "addr:street_address": "Unit D North Norfolk Retail Park, Holt Road", "addr:postcode": "NR27 9ST", "addr:country": "GB", "name": "Tapi Carpets & Floors Cromer", "phone": "01263 802230", "website": "https://www.tapi.co.uk/stores/cromer", "image": "https://www.tapi.co.uk/images_stores/tapi-carpets-croydon-web.jpg", "brand": "Tapi", "brand:wikidata": "Q79223951", "nsi_id": "tapicarpets-40b39f"}, "geometry": {"type": "Point", "coordinates": [1.291, 52.92969]}},
{"type": "Feature", "id": "Yx09cFDpFUmzyuTNeKHgio-DCBA=", "properties": {"ref": "https://www.tapi.co.uk/stores/peckham", "@spider": "tapi_gb", "shop": "carpet", "addr:street_address": "101 Peckham High Street", "addr:postcode": "SE15 5RS", "addr:country": "GB", "name": "Tapi Carpets & Floors Peckham", "phone": "0208 154 7027", "website": "https://www.tapi.co.uk/stores/peckham", "image": "https://www.tapi.co.uk/images_stores/tapi-carpets-banbury-web.jpg", "brand": "Tapi", "brand:wikidata": "Q79223951", "nsi_id": "tapicarpets-40b39f"}, "geometry": {"type": "Point", "coordinates": [-0.06884, 51.4739]}},
{"type": "Feature", "id": "eV4rAfmbr_T4uVt25Tk6RXpBmtY=", "properties": {"ref": "https://www.tapi.co.uk/stores/derby-homebase", "@spider": "tapi_gb", "shop": "carpet", "addr:street_address": "Kingsway Retail Park, Kingsway", "addr:postcode": "DE22 3FA", "addr:country": "GB", "name": "Tapi Carpets & Floors within Derby Homebase", "phone": "01332 327 840", "website": "https://www.tapi.co.uk/stores/derby-homebase", "image": "https://www.tapi.co.uk/images_stores/f8b75464d4ca534fa2fd7b98eb2f2b3d.jpg", "brand": "Tapi", "brand:wikidata": "Q79223951", "nsi_id": "tapicarpets-40b39f"}, "geometry": {"type": "Point", "coordinates": [-1.508973, 52.921176]}},
{"type": "Feature", "id": "D_PHDYTstOviRVo6vr_XXvgkGVc=", "properties": {"ref": "https://www.tapi.co.uk/stores/ashton-under-lyne", "@spider": "tapi_gb", "shop": "carpet", "addr:street_address": "Snipe Retail Park, Snipe Way", "addr:postcode": "OL7 0DN", "addr:country": "GB", "name": "Tapi Carpets & Floors Ashton Under Lyne", "phone": "01615 431580", "website": "https://www.tapi.co.uk/stores/ashton-under-lyne", "image": "https://www.tapi.co.uk/images_stores/147bc15ca68be4c9a57f27f9b89e3dff.jpg", "brand": "Tapi", "brand:wikidata": "Q79223951", "nsi_id": "tapicarpets-40b39f"}, "geometry": {"type": "Point", "coordinates": [-2.127019, 53.477155]}},
{"type": "Feature", "id": "IAPhMKaIZx0rfBQc9cUDb7rnTlQ=", "properties": {"ref": "https://www.tapi.co.uk/stores/eltham", "@spider": "tapi_gb", "shop": "carpet", "addr:street_address": "145/149 Eltham High Street", "addr:city": "Eltham", "addr:postcode": "SE9 1TW", "addr:country": "GB", "name": "Tapi Carpets & Floors Eltham", "phone": "0203 763 3850", "website": "https://www.tapi.co.uk/stores/eltham", "image": "https://www.tapi.co.uk/images_stores/0841f6113f64379f26ec0a36c3ad38ac.jpg", "brand": "Tapi", "brand:wikidata": "Q79223951", "nsi_id": "tapicarpets-40b39f"}, "geometry": {"type": "Point", "coordinates": [0.05625773, 51.4508779]}},
{"type": "Feature", "id": "L6w5LU6VzY4t5YrOL5nSNjqLeRE=", "properties": {"ref": "https://www.tapi.co.uk/stores/catford", "@spider": "tapi_gb", "shop": "carpet", "addr:street_address": "Unit 3, Bromley Road Retail Park", "addr:city": "Catford", "addr:postcode": "SE6 2QU", "addr:country": "GB", "name": "Tapi Carpets & Floors Catford", "phone": "0203 869 2740", "website": "https://www.tapi.co.uk/stores/catford", "image": "https://www.tapi.co.uk/images_stores/0841f6113f64379f26ec0a36c3ad38ac.jpg", "brand": "Tapi", "brand:wikidata": "Q79223951", "nsi_id": "tapicarpets-40b39f"}, "geometry": {"type": "Point", "coordinates": [-0.0205293, 51.4367627]}},
{"type": "Feature", "id": "ogkH4e0pVNcUrKEcgeTAxjYrD9w=", "properties": {"ref": "https://www.tapi.co.uk/stores/fareham-homebase", "@spider": "tapi_gb", "shop": "carpet", "addr:street_address": "Collingwood Retail Park, Newgate Lane", "addr:city": "Fareham", "addr:postcode": "PO14 1AN", "addr:country": "GB", "name": "Tapi Carpets & Floors within Fareham Homebase", "phone": "01329 756360", "website": "https://www.tapi.co.uk/stores/fareham-homebase", "image": "https://www.tapi.co.uk/", "brand": "Tapi", "brand:wikidata": "Q79223951", "nsi_id": "tapicarpets-40b39f"}, "geometry": {"type": "Point", "coordinates": [-1.185279, 50.837621]}},
{"type": "Feature", "id": "zu6u8KmfRBOpW2G7pao8X4hjeeQ=", "properties": {"ref": "https://www.tapi.co.uk/stores/dunfermline", "@spider": "tapi_gb", "shop": "carpet", "addr:street_address": "Halbeath Retail Park, Halbeath Road", "addr:postcode": "KY11 4LP", "addr:country": "GB", "name": "Tapi Carpets & Floors Dunfermline", "phone": "01383 668130", "website": "https://www.tapi.co.uk/stores/dunfermline", "image": "https://www.tapi.co.uk/", "brand": "Tapi", "brand:wikidata": "Q79223951", "nsi_id": "tapicarpets-40b39f"}, "geometry": {"type": "Point", "coordinates": [-3.409193, 56.081308]}},
{"type": "Feature", "id": "1BQqyZTBA3q3xsJKPMEcgfH7fyg=", "properties": {"ref": "https://www.tapi.co.uk/stores/durham", "@spider": "tapi_gb", "shop": "carpet", "addr:street_address": "Unit H Arnison Retail Park", "addr:postcode": "DH1 5GB", "addr:country": "GB", "name": "Tapi Carpets & Floors Durham", "phone": "01918 237740", "website": "https://www.tapi.co.uk/stores/durham", "image": "https://www.tapi.co.uk/images_stores/tapi-carpets-abbotsinch-web.jpg", "brand": "Tapi", "brand:wikidata": "Q79223951", "nsi_id": "tapicarpets-40b39f"}, "geometry": {"type": "Point", "coordinates": [-1.581166, 54.806875]}},
{"type": "Feature", "id": "sWmn6VRvqkN8ld11KDB8yAyn9BY=", "properties": {"ref": "https://www.tapi.co.uk/stores/sudbury-homebase", "@spider": "tapi_gb", "shop": "carpet", "addr:street_address": "Waldingfield Road", "addr:postcode": "CO10 2YH", "addr:country": "GB", "name": "Tapi Carpets & Floors within Sudbury Homebase", "phone": "01787 323820", "website": "https://www.tapi.co.uk/stores/sudbury-homebase", "image": "https://www.tapi.co.uk/", "brand": "Tapi", "brand:wikidata": "Q79223951", "nsi_id": "tapicarpets-40b39f"}, "geometry": {"type": "Point", "coordinates": [0.746798, 52.047639]}},
{"type": "Feature", "id": "VECi5YB7X0F9w2Cx-AQmgSA3aE0=", "properties": {"ref": "https://www.tapi.co.uk/stores/basingstoke", "@spider": "tapi_gb", "shop": "carpet", "addr:street_address": "Unit 3B, St Michaels Retail Park, Winchester Road", "addr:postcode": "RG22 4AN", "addr:country": "GB", "name": "Tapi Carpets & Floors Basingstoke", "phone": "01256 679 950", "website": "https://www.tapi.co.uk/stores/basingstoke", "image": "https://www.tapi.co.uk/", "brand": "Tapi", "brand:wikidata": "Q79223951", "nsi_id": "tapicarpets-40b39f"}, "geometry": {"type": "Point", "coordinates": [-1.1111607, 51.2506787]}},
{"type": "Feature", "id": "XewFxYe0JrOJULrfvzX4mtL0xkM=", "properties": {"ref": "https://www.tapi.co.uk/stores/leicester-homebase", "@spider": "tapi_gb", "shop": "carpet", "addr:street_address": "37 Putney Road", "addr:postcode": "LE2 7TF", "addr:country": "GB", "name": "Tapi Carpets & Floors within Leicester Homebase", "phone": "01164 976600", "website": "https://www.tapi.co.uk/stores/leicester-homebase", "image": "https://www.tapi.co.uk/images_stores/b33189a37d09b9a29597c8a9dc2437f5.jpg", "brand": "Tapi", "brand:wikidata": "Q79223951", "nsi_id": "tapicarpets-40b39f"}, "geometry": {"type": "Point", "coordinates": [-1.127678, 52.616473]}},
{"type": "Feature", "id": "8CS8EFjqNj60BcSwPbwt4KUFDEU=", "properties": {"ref": "https://www.tapi.co.uk/stores/high-wycombe-homebase", "@spider": "tapi_gb", "shop": "carpet", "addr:street_address": "Knaves Beech Business Centre, Loudwater", "addr:postcode": "HP10 9QR", "addr:country": "GB", "name": "Tapi Carpets & Floors within High Wycombe Homebase", "phone": "01494 326520", "website": "https://www.tapi.co.uk/stores/high-wycombe-homebase", "image": "https://www.tapi.co.uk/images_stores/f8b75464d4ca534fa2fd7b98eb2f2b3d.jpg", "brand": "Tapi", "brand:wikidata": "Q79223951", "nsi_id": "tapicarpets-40b39f"}, "geometry": {"type": "Point", "coordinates": [-0.692351, 51.601932]}},
{"type": "Feature", "id": "b3k7Ll1O84JzJMd4_CAnTbofKQA=", "properties": {"ref": "https://www.tapi.co.uk/stores/leamington-spa-homebase", "@spider": "tapi_gb", "shop": "carpet", "addr:street_address": "Myton Road", "addr:postcode": "CV31 3NY", "addr:country": "GB", "name": "Tapi Carpets & Floors within Leamington Spa Homebase", "phone": "01926 359979", "website": "https://www.tapi.co.uk/stores/leamington-spa-homebase", "image": "https://www.tapi.co.uk/", "brand": "Tapi", "brand:wikidata": "Q79223951", "nsi_id": "tapicarpets-40b39f"}, "geometry": {"type": "Point", "coordinates": [-1.549078, 52.283571]}},
{"type": "Feature", "id": "4V9cZn8GA253ecIM24igNjERsKA=", "properties": {"ref": "https://www.tapi.co.uk/stores/portishead-homebase", "@spider": "tapi_gb", "shop": "carpet", "addr:street_address": "Wyndham Retail Park, Wyndham Way", "addr:postcode": "BS20 8LR", "addr:country": "GB", "name": "Tapi Carpets & Floors within Portishead Homebase", "phone": "01275 403090", "website": "https://www.tapi.co.uk/stores/portishead-homebase", "image": "https://www.tapi.co.uk/images_stores/tapi-carpets-abbotsinch-web.jpg", "brand": "Tapi", "brand:wikidata": "Q79223951", "nsi_id": "tapicarpets-40b39f"}, "geometry": {"type": "Point", "coordinates": [-2.764528, 51.48342]}},
{"type": "Feature", "id": "-_dKi1Qtpxuv2phIEffMiIg-VNM=", "properties": {"ref": "https://www.tapi.co.uk/stores/falkirk", "@spider": "tapi_gb", "shop": "carpet", "addr:street_address": "Unit 8 Central Retail Park, Grahams Road", "addr:postcode": "FK1 1LW", "addr:country": "GB", "name": "Tapi Carpets & Floors Falkirk", "phone": "01324 464 070", "website": "https://www.tapi.co.uk/stores/falkirk", "image": "https://www.tapi.co.uk/images_stores/tapi-carpets-falkirk-web.jpg", "brand": "Tapi", "brand:wikidata": "Q79223951", "nsi_id": "tapicarpets-40b39f"}, "geometry": {"type": "Point", "coordinates": [-3.780085, 56.003961]}},
{"type": "Feature", "id": "TreaqnJnq5h-h-Po6b8mSRmvVzo=", "properties": {"ref": "https://www.tapi.co.uk/stores/newton-abbot-homebase", "@spider": "tapi_gb", "shop": "carpet", "addr:street_address": "Greenhill Way, Kingsteignton", "addr:postcode": "TQ12 3SB", "addr:country": "GB", "name": "Tapi Carpets & Floors within Newton Abbot Homebase", "phone": "01626 241990", "website": "https://www.tapi.co.uk/stores/newton-abbot-homebase", "image": "https://www.tapi.co.uk/images_stores/tapi-carpets-abbotsinch-web.jpg", "brand": "Tapi", "brand:wikidata": "Q79223951", "nsi_id": "tapicarpets-40b39f"}, "geometry": {"type": "Point", "coordinates": [-3.59558, 50.543353]}},
{"type": "Feature", "id": "VcKlrc2nOIP5iyB116Q5_fV4KrM=", "properties": {"ref": "https://www.tapi.co.uk/stores/orpington", "@spider": "tapi_gb", "shop": "carpet", "addr:street_address": "Unit 11 Nugent Shopping Park, Cray Avenue", "addr:postcode": "BR5 3RP", "addr:country": "GB", "name": "Tapi Carpets & Floors Orpington", "phone": "01689 667 110", "website": "https://www.tapi.co.uk/stores/orpington", "image": "https://www.tapi.co.uk/images_stores/tapi-carpets-orpington-web.jpg", "brand": "Tapi", "brand:wikidata": "Q79223951", "nsi_id": "tapicarpets-40b39f"}, "geometry": {"type": "Point", "coordinates": [0.112503, 51.3930081]}},
{"type": "Feature", "id": "2qdLowzkh3Yxo37B23g4n-nh164=", "properties": {"ref": "https://www.tapi.co.uk/stores/ashby-de-la-zouch", "@spider": "tapi_gb", "shop": "carpet", "addr:postcode": "SE6 2QU", "addr:country": "GB", "name": "Tapi Carpets & Floors Ashby de la Zouch", "phone": "03330 150 501", "website": "https://www.tapi.co.uk/stores/ashby-de-la-zouch", "image": "https://www.tapi.co.uk/", "brand": "Tapi", "brand:wikidata": "Q79223951", "nsi_id": "tapicarpets-40b39f"}, "geometry": {"type": "Point", "coordinates": [-1.473007, 52.746061]}},
{"type": "Feature", "id": "PPYGwSBE_fAYCiZ2IpgP2A2cSnM=", "properties": {"ref": "https://www.tapi.co.uk/stores/stretford", "@spider": "tapi_gb", "shop": "carpet", "addr:postcode": "SE6 2QU", "addr:country": "GB", "name": "Tapi Carpets & Floors Stretford", "phone": "03330 150 501", "website": "https://www.tapi.co.uk/stores/stretford", "image": "https://www.tapi.co.uk/", "brand": "Tapi", "brand:wikidata": "Q79223951", "nsi_id": "tapicarpets-40b39f"}, "geometry": {"type": "Point", "coordinates": [-2.32061, 53.444969]}},
{"type": "Feature", "id": "s0ObuhmHaHpveJVa7DUGOWk-1z8=", "properties": {"ref": "https://www.tapi.co.uk/stores/salford", "@spider": "tapi_gb", "shop": "carpet", "addr:postcode": "SE6 2QU", "addr:country": "GB", "name": "Tapi Carpets & Floors Salford", "phone": "03330 150 501", "website": "https://www.tapi.co.uk/stores/salford", "image": "https://www.tapi.co.uk/", "brand": "Tapi", "brand:wikidata": "Q79223951", "nsi_id": "tapicarpets-40b39f"}, "geometry": {"type": "Point", "coordinates": [-2.290126, 53.487522]}},
{"type": "Feature", "id": "VL18vDmSoOidM30oe1Q-Ym4g3MY=", "properties": {"ref": "https://www.tapi.co.uk/stores/huddersfield", "@spider": "tapi_gb", "shop": "carpet", "addr:postcode": "SE6 2QU", "addr:country": "GB", "name": "Tapi Carpets & Floors Huddersfield", "phone": "03330 150 501", "website": "https://www.tapi.co.uk/stores/huddersfield", "image": "https://www.tapi.co.uk/", "brand": "Tapi", "brand:wikidata": "Q79223951", "nsi_id": "tapicarpets-40b39f"}, "geometry": {"type": "Point", "coordinates": [-1.785035, 53.64579]}},
{"type": "Feature", "id": "PBIKmEtBnm7u8Xpcz1JhRPVS0q8=", "properties": {"ref": "https://www.tapi.co.uk/stores/rochdale", "@spider": "tapi_gb", "shop": "carpet", "addr:postcode": "SE6 2QU", "addr:country": "GB", "name": "Tapi Carpets & Floors Rochdale", "phone": "03330 150 501", "website": "https://www.tapi.co.uk/stores/rochdale", "image": "https://www.tapi.co.uk/", "brand": "Tapi", "brand:wikidata": "Q79223951", "nsi_id": "tapicarpets-40b39f"}, "geometry": {"type": "Point", "coordinates": [-2.1561, 53.609715]}},
{"type": "Feature", "id": "GalBmDZaBTUOtPF9jbYlmpDWIo8=", "properties": {"ref": "https://www.tapi.co.uk/stores/bury", "@spider": "tapi_gb", "shop": "carpet", "addr:postcode": "SE6 2QU", "addr:country": "GB", "name": "Tapi Carpets & Floors Bury", "phone": "03330 150 501", "website": "https://www.tapi.co.uk/stores/bury", "image": "https://www.tapi.co.uk/", "brand": "Tapi", "brand:wikidata": "Q79223951", "nsi_id": "tapicarpets-40b39f"}, "geometry": {"type": "Point", "coordinates": [-2.29854, 53.59346]}},
{"type": "Feature", "id": "7frj6TAw07cniRkE_QcpOKjfuEg=", "properties": {"ref": "https://www.tapi.co.uk/stores/sale", "@spider": "tapi_gb", "shop": "carpet", "addr:postcode": "SE6 2QU", "addr:country": "GB", "name": "Tapi Carpets & Floors Sale", "phone": "03330 150 501", "website": "https://www.tapi.co.uk/stores/sale", "image": "https://www.tapi.co.uk/", "brand": "Tapi", "brand:wikidata": "Q79223951", "nsi_id": "tapicarpets-40b39f"}, "geometry": {"type": "Point", "coordinates": [-2.318311, 53.424213]}},
{"type": "Feature", "id": "BCVLFZolaCZriJqfxMjqo7QSTWA=", "properties": {"ref": "https://www.tapi.co.uk/stores/oldham", "@spider": "tapi_gb", "shop": "carpet", "addr:postcode": "SE6 2QU", "addr:country": "GB", "name": "Tapi Carpets & Floors Oldham", "phone": "03330 150 501", "website": "https://www.tapi.co.uk/stores/oldham", "image": "https://www.tapi.co.uk/", "brand": "Tapi", "brand:wikidata": "Q79223951", "nsi_id": "tapicarpets-40b39f"}, "geometry": {"type": "Point", "coordinates": [-2.111366, 53.540932]}},
{"type": "Feature", "id": "kNBLofrVtEVQN6JpIEAUbVAp1KU=", "properties": {"ref": "https://www.tapi.co.uk/stores/manchester", "@spider": "tapi_gb", "shop": "carpet", "addr:postcode": "SE6 2QU", "addr:country": "GB", "name": "Tapi Carpets & Floors Manchester", "phone": "03330 150 501", "website": "https://www.tapi.co.uk/stores/manchester", "image": "https://www.tapi.co.uk/", "brand": "Tapi", "brand:wikidata": "Q79223951", "nsi_id": "tapicarpets-40b39f"}, "geometry": {"type": "Point", "coordinates": [-2.242631, 53.480759]}},
{"type": "Feature", "id": "eOaSWCX1jZbxnwA9f2K5OyE3drQ=", "properties": {"ref": "https://www.tapi.co.uk/stores/stockport", "@spider": "tapi_gb", "shop": "carpet", "addr:postcode": "SE6 2QU", "addr:country": "GB", "name": "Tapi Carpets & Floors Stockport", "phone": "03330 150 501", "website": "https://www.tapi.co.uk/stores/stockport", "image": "https://www.tapi.co.uk/", "brand": "Tapi", "brand:wikidata": "Q79223951", "nsi_id": "tapicarpets-40b39f"}, "geometry": {"type": "Point", "coordinates": [-2.163517, 53.406871]}},
{"type": "Feature", "id": "dcEO_XAlxO1oA4GFyXsyyb921Ko=", "properties": {"ref": "https://www.tapi.co.uk/stores/altrincham", "@spider": "tapi_gb", "shop": "carpet", "addr:postcode": "SE6 2QU", "addr:country": "GB", "name": "Tapi Carpets & Floors Altrincham", "phone": "03330 150 501", "website": "https://www.tapi.co.uk/stores/altrincham", "image": "https://www.tapi.co.uk/", "brand": "Tapi", "brand:wikidata": "Q79223951", "nsi_id": "tapicarpets-40b39f"}, "geometry": {"type": "Point", "coordinates": [-2.348898, 53.386906]}},
{"type": "Feature", "id": "68O4dj1hWhI4iz6ph8U-pbDr-KE=", "properties": {"ref": "https://www.tapi.co.uk/stores/leighton-buzzard", "@spider": "tapi_gb", "shop": "carpet", "addr:postcode": "SE6 2QU", "addr:country": "GB", "name": "Tapi Carpets & Floors Leighton Buzzard", "phone": "03330 150 501", "website": "https://www.tapi.co.uk/stores/leighton-buzzard", "image": "https://www.tapi.co.uk/", "brand": "Tapi", "brand:wikidata": "Q79223951", "nsi_id": "tapicarpets-40b39f"}, "geometry": {"type": "Point", "coordinates": [-0.66093, 51.917759]}},
{"type": "Feature", "id": "djRbm5aRaY59fIBAeuo7qEn9XRk=", "properties": {"ref": "https://www.tapi.co.uk/stores/weston-super-mare", "@spider": "tapi_gb", "shop": "carpet", "addr:postcode": "SE6 2QU", "addr:country": "GB", "name": "Tapi Carpets & Floors Weston super Mare", "phone": "03330 150 501", "website": "https://www.tapi.co.uk/stores/weston-super-mare", "image": "https://www.tapi.co.uk/", "brand": "Tapi", "brand:wikidata": "Q79223951", "nsi_id": "tapicarpets-40b39f"}, "geometry": {"type": "Point", "coordinates": [-2.9793, 51.347618]}},
{"type": "Feature", "id": "9wBpJw3jDXg0GlJ-ibsbybe4-zk=", "properties": {"ref": "https://www.tapi.co.uk/stores/newark", "@spider": "tapi_gb", "shop": "carpet", "addr:postcode": "SE6 2QU", "addr:country": "GB", "name": "Tapi Carpets & Floors Newark", "phone": "03330 150 501", "website": "https://www.tapi.co.uk/stores/newark", "image": "https://www.tapi.co.uk/", "brand": "Tapi", "brand:wikidata": "Q79223951", "nsi_id": "tapicarpets-40b39f"}, "geometry": {"type": "Point", "coordinates": [-0.812183, 53.072577]}},
{"type": "Feature", "id": "BZJmbCIoM0KqynuO9hPu6pNP2jE=", "properties": {"ref": "https://www.tapi.co.uk/stores/reigate", "@spider": "tapi_gb", "shop": "carpet", "addr:postcode": "SE6 2QU", "addr:country": "GB", "name": "Tapi Carpets & Floors Reigate", "phone": "03330 150 501", "website": "https://www.tapi.co.uk/stores/reigate", "image": "https://www.tapi.co.uk/", "brand": "Tapi", "brand:wikidata": "Q79223951", "nsi_id": "tapicarpets-40b39f"}, "geometry": {"type": "Point", "coordinates": [-0.205883, 51.237274]}},
{"type": "Feature", "id": "27sBuLD3FFpkuYNVamBO0q5bruc=", "properties": {"ref": "https://www.tapi.co.uk/stores/bath", "@spider": "tapi_gb", "shop": "carpet", "addr:postcode": "SE6 2QU", "addr:country": "GB", "name": "Tapi Carpets & Floors Bath", "phone": "03330 150 501", "website": "https://www.tapi.co.uk/stores/bath", "image": "https://www.tapi.co.uk/", "brand": "Tapi", "brand:wikidata": "Q79223951", "nsi_id": "tapicarpets-40b39f"}, "geometry": {"type": "Point", "coordinates": [-2.36197, 51.38488]}},
{"type": "Feature", "id": "IitO3GgsMMUgj47061Oj1vIgNgc=", "properties": {"ref": "https://www.tapi.co.uk/stores/bicester", "@spider": "tapi_gb", "shop": "carpet", "addr:postcode": "SE6 2QU", "addr:country": "GB", "name": "Tapi Carpets & Floors Bicester", "phone": "03330 150 501", "website": "https://www.tapi.co.uk/stores/bicester", "image": "https://www.tapi.co.uk/", "brand": "Tapi", "brand:wikidata": "Q79223951", "nsi_id": "tapicarpets-40b39f"}, "geometry": {"type": "Point", "coordinates": [-1.15422, 51.902012]}},
{"type": "Feature", "id": "_QVqYkUqmEg880-JtcsSwiRYtyQ=", "properties": {"ref": "https://www.tapi.co.uk/stores/coventry", "@spider": "tapi_gb", "shop": "carpet", "addr:postcode": "SE6 2QU", "addr:country": "GB", "name": "Tapi Carpets & Floors Coventry", "phone": "03330 150 501", "website": "https://www.tapi.co.uk/stores/coventry", "image": "https://www.tapi.co.uk/", "brand": "Tapi", "brand:wikidata": "Q79223951", "nsi_id": "tapicarpets-40b39f"}, "geometry": {"type": "Point", "coordinates": [-1.519693, 52.406822]}},
{"type": "Feature", "id": "PK4P3Xi9nTDp-L4MfboiOPi3us8=", "properties": {"ref": "https://www.tapi.co.uk/stores/plymouth-homebase", "@spider": "tapi_gb", "shop": "carpet", "addr:street_address": "Unit 6 Marsh Mills Retail Park, Longbridge Road", "addr:postcode": "PL6 8LX", "addr:country": "GB", "name": "Tapi Carpets & Floors within Plymouth Homebase", "phone": "01752 746720", "website": "https://www.tapi.co.uk/stores/plymouth-homebase", "image": "https://www.tapi.co.uk/", "brand": "Tapi", "brand:wikidata": "Q79223951", "nsi_id": "tapicarpets-40b39f"}, "geometry": {"type": "Point", "coordinates": [-4.091084, 50.394082]}},
{"type": "Feature", "id": "kogWXJwF2HqM_kdBDgGovnCK8zo=", "properties": {"ref": "https://www.tapi.co.uk/stores/maidenhead-homebase", "@spider": "tapi_gb", "shop": "carpet", "addr:street_address": "Stafferton Way", "addr:postcode": "SL6 1AY", "addr:country": "GB", "name": "Tapi Carpets & Floors within Maidenhead Homebase", "phone": "01628 969060", "website": "https://www.tapi.co.uk/stores/maidenhead-homebase", "image": "https://www.tapi.co.uk/", "brand": "Tapi", "brand:wikidata": "Q79223951", "nsi_id": "tapicarpets-40b39f"}, "geometry": {"type": "Point", "coordinates": [-0.717123, 51.518544]}},
{"type": "Feature", "id": "lxcZ6_KLsnc6crkxdeg6os1MNF8=", "properties": {"ref": "https://www.tapi.co.uk/stores/tonbridge", "@spider": "tapi_gb", "shop": "carpet", "addr:postcode": "TN2 3HL", "addr:country": "GB", "name": "Tapi Carpets & Floors Tonbridge", "phone": "03330 150 501", "website": "https://www.tapi.co.uk/stores/tonbridge", "image": "https://www.tapi.co.uk/", "brand": "Tapi", "brand:wikidata": "Q79223951", "nsi_id": "tapicarpets-40b39f"}, "geometry": {"type": "Point", "coordinates": [0.269338, 51.203195]}},
{"type": "Feature", "id": "artFfQMhYflOWGr0F0wQrlkPR_Q=", "properties": {"ref": "https://www.tapi.co.uk/stores/folkestone-homebase", "@spider": "tapi_gb", "shop": "carpet", "addr:street_address": "Park Farm Road, Park Farm Industrial Estate", "addr:postcode": "CT19 5FJ", "addr:country": "GB", "name": "Tapi Carpets & Floors within Folkestone Homebase", "phone": "01303 764150", "website": "https://www.tapi.co.uk/stores/folkestone-homebase", "image": "https://www.tapi.co.uk/", "brand": "Tapi", "brand:wikidata": "Q79223951", "nsi_id": "tapicarpets-40b39f"}, "geometry": {"type": "Point", "coordinates": [1.169571, 51.09628]}},
{"type": "Feature", "id": "7ltA-nvPRrID-xtOS5y7D02ramA=", "properties": {"ref": "https://www.tapi.co.uk/stores/northampton-homebase", "@spider": "tapi_gb", "shop": "carpet", "addr:street_address": "1-5 Fairground Way, Riverside Park", "addr:postcode": "NN3 9HU", "addr:country": "GB", "name": "Tapi Carpets & Floors within Northampton Homebase", "phone": "01604 263130", "website": "https://www.tapi.co.uk/stores/northampton-homebase-", "image": "https://www.tapi.co.uk/", "brand": "Tapi", "brand:wikidata": "Q79223951", "nsi_id": "tapicarpets-40b39f"}, "geometry": {"type": "Point", "coordinates": [-0.838037, 52.242595]}},
{"type": "Feature", "id": "iEYNZNVMkAfkxPymxcK8aCgYk5k=", "properties": {"ref": "https://www.tapi.co.uk/stores/biggleswade-homebase", "@spider": "tapi_gb", "shop": "carpet", "addr:street_address": "A1 Trading Estate, London Road", "addr:city": "Biggleswade", "addr:postcode": "SG18 8PW", "addr:country": "GB", "name": "Tapi Carpets & Floors within Biggleswade Homebase", "phone": "01767 660690", "website": "https://www.tapi.co.uk/stores/biggleswade-homebase", "image": "https://www.tapi.co.uk/", "brand": "Tapi", "brand:wikidata": "Q79223951", "nsi_id": "tapicarpets-40b39f"}, "geometry": {"type": "Point", "coordinates": [-0.243295, 52.072661]}},
{"type": "Feature", "id": "WUu7lIgy9NCO2zAg5OZE7LPoP4M=", "properties": {"ref": "https://www.tapi.co.uk/stores/bishops-stortford-homebase", "@spider": "tapi_gb", "shop": "carpet", "addr:street_address": "Fitzroy Park , Stansted Rd", "addr:postcode": "CM23 5PP", "addr:country": "GB", "name": "Tapi Carpets & Floors within Bishops Stortford Homebase", "phone": "01279 212460", "website": "https://www.tapi.co.uk/stores/bishops-stortford-homebase", "image": "https://www.tapi.co.uk/", "brand": "Tapi", "brand:wikidata": "Q79223951", "nsi_id": "tapicarpets-40b39f"}, "geometry": {"type": "Point", "coordinates": [0.176033, 51.88429]}},
{"type": "Feature", "id": "a4xD04RAxJkNG5_gMU9CaaACkd4=", "properties": {"ref": "https://www.tapi.co.uk/stores/basildon-homebase", "@spider": "tapi_gb", "shop": "carpet", "addr:street_address": "London Road, Vange", "addr:postcode": "SS16 4PR", "addr:country": "GB", "name": "Tapi Carpets & Floors within Basildon Homebase", "phone": "01268 385370", "website": "https://www.tapi.co.uk/stores/basildon-homebase-", "image": "https://www.tapi.co.uk/", "brand": "Tapi", "brand:wikidata": "Q79223951", "nsi_id": "tapicarpets-40b39f"}, "geometry": {"type": "Point", "coordinates": [0.465678, 51.554051]}},
{"type": "Feature", "id": "UWa_6NyDUaO-4lHgtBMnH5Ba7vY=", "properties": {"ref": "https://www.tapi.co.uk/stores/enfield", "@spider": "tapi_gb", "shop": "carpet", "addr:street_address": "11-14 The Town, c/o Pearsons", "addr:city": "Enfield", "addr:postcode": "EN2 6LJ", "addr:country": "GB", "name": "Tapi Carpets & Floors Enfield", "phone": "0204 513 5460", "website": "https://www.tapi.co.uk/stores/enfield", "image": "https://www.tapi.co.uk/", "brand": "Tapi", "brand:wikidata": "Q79223951", "nsi_id": "tapicarpets-40b39f"}, "geometry": {"type": "Point", "coordinates": [-0.082755, 51.652055]}},
{"type": "Feature", "id": "4i709sa7cIskfI6EbIInpJ-oLpI=", "properties": {"ref": "https://www.tapi.co.uk/stores/norwich-homebase", "@spider": "tapi_gb", "shop": "carpet", "addr:street_address": "Hall Road", "addr:postcode": "NR4 6DH", "addr:country": "GB", "name": "Tapi Carpets & Floors within Norwich Homebase", "phone": "01603 537060", "website": "https://www.tapi.co.uk/stores/norwich-homebase", "image": "https://www.tapi.co.uk/", "brand": "Tapi", "brand:wikidata": "Q79223951", "nsi_id": "tapicarpets-40b39f"}, "geometry": {"type": "Point", "coordinates": [1.28877, 52.60965]}},
{"type": "Feature", "id": "p-ns5NiEgTJ6uoDTs8OcaeX4ayk=", "properties": {"ref": "https://www.tapi.co.uk/stores/ewell-homebase", "@spider": "tapi_gb", "shop": "carpet", "addr:street_address": "23 Reigate Road", "addr:postcode": "KT17 1PE", "addr:country": "GB", "name": "Tapi Carpets & Floors within Ewell Homebase", "phone": "020 8138 4890", "website": "https://www.tapi.co.uk/stores/ewell-homebase", "image": "https://www.tapi.co.uk/", "brand": "Tapi", "brand:wikidata": "Q79223951", "nsi_id": "tapicarpets-40b39f"}, "geometry": {"type": "Point", "coordinates": [-0.2495, 51.346458]}},
{"type": "Feature", "id": "BqvU6HPQCb1Jc9_JwG8z-c9Aol8=", "properties": {"ref": "https://www.tapi.co.uk/stores/chichester-homebase", "@spider": "tapi_gb", "shop": "carpet", "addr:street_address": "Discovery Park, Barnfield Drive", "addr:postcode": "PO19 6UX", "addr:country": "GB", "name": "Tapi Carpets & Floors within Chichester Homebase", "phone": "01243 964 680", "website": "https://www.tapi.co.uk/stores/chichester-homebase", "image": "https://www.tapi.co.uk/", "brand": "Tapi", "brand:wikidata": "Q79223951", "nsi_id": "tapicarpets-40b39f"}, "geometry": {"type": "Point", "coordinates": [-0.76434, 50.84605]}},
{"type": "Feature", "id": "ARDXsI2iFcbGOxNowyDAFjcAYS0=", "properties": {"ref": "https://www.tapi.co.uk/stores/farnham-homebase", "@spider": "tapi_gb", "shop": "carpet", "addr:street_address": "Farnham Retail Park", "addr:postcode": "GU9 9QJ", "addr:country": "GB", "name": "Tapi Carpets & Floors within Farnham Homebase", "phone": "01252 978 600", "website": "https://www.tapi.co.uk/stores/farnham-homebase", "image": "https://www.tapi.co.uk/", "brand": "Tapi", "brand:wikidata": "Q79223951", "nsi_id": "tapicarpets-40b39f"}, "geometry": {"type": "Point", "coordinates": [-0.78325, 51.218129]}},
{"type": "Feature", "id": "xvUusPMJXrXsA4cn5sXcDiOR0II=", "properties": {"ref": "https://www.tapi.co.uk/stores/godalming-homebase", "@spider": "tapi_gb", "shop": "carpet", "addr:street_address": "1 Woolsack Way", "addr:postcode": "GU7 1DR", "addr:country": "GB", "name": "Tapi Carpets & Floors within Godalming Homebase", "phone": "01483 959 030", "website": "https://www.tapi.co.uk/stores/godalming-homebase", "image": "https://www.tapi.co.uk/", "brand": "Tapi", "brand:wikidata": "Q79223951", "nsi_id": "tapicarpets-40b39f"}, "geometry": {"type": "Point", "coordinates": [-0.607604, 51.187197]}},
{"type": "Feature", "id": "7e3ZW_PMTanvniI4BDj184PtTZo=", "properties": {"ref": "https://www.tapi.co.uk/stores/east-grinstead-homebase", "@spider": "tapi_gb", "shop": "carpet", "addr:street_address": "219-223 London Road", "addr:postcode": "RH19 1HA", "addr:country": "GB", "name": "Tapi Carpets & Floors within East Grinstead Homebase", "phone": "01342 651 970", "website": "https://www.tapi.co.uk/stores/east-grinstead-homebase", "image": "https://www.tapi.co.uk/images_stores/f8b75464d4ca534fa2fd7b98eb2f2b3d.jpg", "brand": "Tapi", "brand:wikidata": "Q79223951", "nsi_id": "tapicarpets-40b39f"}, "geometry": {"type": "Point", "coordinates": [0.017129, 51.130612]}},
{"type": "Feature", "id": "Bzhjp-Uvh2sZ2Uv9aKocVDrNMIg=", "properties": {"ref": "https://www.tapi.co.uk/stores/streatham", "@spider": "tapi_gb", "shop": "carpet", "addr:street_address": "Astoria Parade, Streatham High Road", "addr:postcode": "SW16 1PR", "addr:country": "GB", "name": "Tapi Carpets & Floors Streatham", "phone": "020 8092 7680", "website": "https://www.tapi.co.uk/stores/streatham", "image": "https://www.tapi.co.uk/images_stores/7922f8f5c2fa113181d5a306a1cf7e1d.jpg", "brand": "Tapi", "brand:wikidata": "Q79223951", "nsi_id": "tapicarpets-40b39f"}, "geometry": {"type": "Point", "coordinates": [-0.128441, 51.432848]}},
{"type": "Feature", "id": "OdBrxX9hw7xJH8psJPc8qMFKHq4=", "properties": {"ref": "https://www.tapi.co.uk/stores/woking-homebase", "@spider": "tapi_gb", "shop": "carpet", "addr:street_address": "Reading Way, Knaphill", "addr:postcode": "GU21 2QT", "addr:country": "GB", "name": "Tapi Carpets & Floors within Woking Homebase", "phone": "01483 947 140", "website": "https://www.tapi.co.uk/stores/woking-homebase", "image": "https://www.tapi.co.uk/images_stores/af079d310f95ccaa203d3bd89ab6594e.jpg", "brand": "Tapi", "brand:wikidata": "Q79223951", "nsi_id": "tapicarpets-40b39f"}, "geometry": {"type": "Point", "coordinates": [-0.624505, 51.312194]}},
{"type": "Feature", "id": "oW2YQ950KOJDWPpUhd4mPUOdtlo=", "properties": {"ref": "https://www.tapi.co.uk/stores/basingstoke-homebase", "@spider": "tapi_gb", "shop": "carpet", "addr:street_address": "Winchester Road", "addr:postcode": "RG22 6HN", "addr:country": "GB", "name": "Tapi Carpets & Floors within Basingstoke Homebase", "phone": "01256 262 770", "website": "https://www.tapi.co.uk/stores/basingstoke-homebase", "image": "https://www.tapi.co.uk/images_stores/b33189a37d09b9a29597c8a9dc2437f5.jpg", "brand": "Tapi", "brand:wikidata": "Q79223951", "nsi_id": "tapicarpets-40b39f"}, "geometry": {"type": "Point", "coordinates": [-1.116636, 51.249059]}},
{"type": "Feature", "id": "BcWaeQciLidpid0bjtdDgZkuf20=", "properties": {"ref": "https://www.tapi.co.uk/stores/haringey-homebase", "@spider": "tapi_gb", "shop": "carpet", "addr:street_address": "Arena Shopping Park, Green Lanes", "addr:city": "Finsbury Park", "addr:postcode": "N4 1DT", "addr:country": "GB", "name": "Tapi Carpets & Floors within Haringey Homebase", "phone": "020 3927 5100", "website": "https://www.tapi.co.uk/stores/haringey-homebase", "image": "https://www.tapi.co.uk/images_stores/7d66ac4b59bc1936024def6877e10e1b.jpg", "brand": "Tapi", "brand:wikidata": "Q79223951", "nsi_id": "tapicarpets-40b39f"}, "geometry": {"type": "Point", "coordinates": [-0.09746, 51.575522]}},
{"type": "Feature", "id": "PtZP-0ruBrKn_fJgxVu6kABtdFM=", "properties": {"ref": "https://www.tapi.co.uk/stores/sevenoaks-homebase", "@spider": "tapi_gb", "shop": "carpet", "addr:street_address": "Sevenoaks Retail Park, Old Otford Rd", "addr:city": "Sevenoaks", "addr:postcode": "TN14 5EW", "addr:country": "GB", "name": "Tapi Carpets & Floors within Sevenoaks Homebase", "phone": "01732 927 040", "website": "https://www.tapi.co.uk/stores/sevenoaks-homebase", "image": "https://www.tapi.co.uk/images_stores/403a2ebcac4fd5fa4e310e4100acf0d2.jpg", "brand": "Tapi", "brand:wikidata": "Q79223951", "nsi_id": "tapicarpets-40b39f"}, "geometry": {"type": "Point", "coordinates": [0.19357, 51.29884]}},
{"type": "Feature", "id": "sqqT_H9M88SToX7JMwvBa9dA1No=", "properties": {"ref": "https://www.tapi.co.uk/stores/colchester", "@spider": "tapi_gb", "shop": "carpet", "addr:street_address": "Tollgate centre, Tollgate West", "addr:city": "Colchester", "addr:postcode": "CO3 8RG", "addr:country": "GB", "name": "Tapi Carpets & Floors Colchester", "phone": "01206 239 910", "website": "https://www.tapi.co.uk/stores/colchester-", "image": "https://www.tapi.co.uk/images_stores/0841f6113f64379f26ec0a36c3ad38ac.jpg", "brand": "Tapi", "brand:wikidata": "Q79223951", "nsi_id": "tapicarpets-40b39f"}, "geometry": {"type": "Point", "coordinates": [0.832595, 51.883528]}},
{"type": "Feature", "id": "FxT3E0uQxaOrwWhqUhhGVEemy5Y=", "properties": {"ref": "https://www.tapi.co.uk/stores/cheltenham", "@spider": "tapi_gb", "shop": "carpet", "addr:street_address": "Gallagher Shopping Park, Manor Road", "addr:postcode": "GL51 9RR", "addr:country": "GB", "name": "Tapi Carpets & Floors Cheltenham", "phone": "01242 903 870", "website": "https://www.tapi.co.uk/stores/cheltenham", "image": "https://www.tapi.co.uk/images_stores/147bc15ca68be4c9a57f27f9b89e3dff.jpg", "brand": "Tapi", "brand:wikidata": "Q79223951", "nsi_id": "tapicarpets-40b39f"}, "geometry": {"type": "Point", "coordinates": [-2.10275, 51.917806]}},
{"type": "Feature", "id": "v1r9XZ9qJ5nFB00Y4ZZkQhk0wMA=", "properties": {"ref": "https://www.tapi.co.uk/stores/leeds-homebase", "@spider": "tapi_gb", "shop": "carpet", "addr:street_address": "Moor Allerton Centre, King lane", "addr:postcode": "LS17 5NY", "addr:country": "GB", "name": "Tapi Carpets & Floors within Leeds Homebase", "phone": "0113 532 4360", "website": "https://www.tapi.co.uk/stores/leeds-homebase", "image": "https://www.tapi.co.uk/images_stores/3109959853a29657faaafa47f23428ab.jpg", "brand": "Tapi", "brand:wikidata": "Q79223951", "nsi_id": "tapicarpets-40b39f"}, "geometry": {"type": "Point", "coordinates": [-1.555206, 53.843671]}},
{"type": "Feature", "id": "05c3aKZO182s4Scczi0vriR2rm0=", "properties": {"ref": "https://www.tapi.co.uk/stores/edinburgh-homebase", "@spider": "tapi_gb", "shop": "carpet", "addr:street_address": "36 South Groathill Avenue , Craigleith Retail Park", "addr:postcode": "EH4 2LN", "addr:country": "GB", "name": "Tapi Carpets & Floors within Edinburgh Homebase", "phone": "0131 370 6580", "website": "https://www.tapi.co.uk/stores/edinburgh-homebase", "image": "https://www.tapi.co.uk/images_stores/b46247c0c5a256b225cdf53d41ebcfcb.jpg", "brand": "Tapi", "brand:wikidata": "Q79223951", "nsi_id": "tapicarpets-40b39f"}, "geometry": {"type": "Point", "coordinates": [-3.241436, 55.959537]}},
{"type": "Feature", "id": "UHNY_T9GhyUr1CxtOOmw3a8m1IQ=", "properties": {"ref": "https://www.tapi.co.uk/stores/harrogate-homebase", "@spider": "tapi_gb", "shop": "carpet", "addr:street_address": "Plumpton Park", "addr:postcode": "HG2 7LD", "addr:country": "GB", "name": "Tapi Carpets & Floors within Harrogate Homebase", "phone": "01423 449 760", "website": "https://www.tapi.co.uk/stores/harrogate-homebase", "image": "https://www.tapi.co.uk/images_stores/289c3df67ad0017f860c88d6b268edee.jpg", "brand": "Tapi", "brand:wikidata": "Q79223951", "nsi_id": "tapicarpets-40b39f"}, "geometry": {"type": "Point", "coordinates": [-1.496291, 53.993651]}},
{"type": "Feature", "id": "eJ-Zytcv7S_NFnWD9EyCYKzj3gA=", "properties": {"ref": "https://www.tapi.co.uk/stores/canterbury", "@spider": "tapi_gb", "shop": "carpet", "addr:street_address": "Unit 4 Maybrook Retail Park, Vauxhall Road", "addr:postcode": "CT1 1ZG", "addr:country": "GB", "name": "Tapi Carpets & Floors Canterbury", "phone": "01227 209 010", "website": "https://www.tapi.co.uk/stores/canterbury", "image": "https://www.tapi.co.uk/images_stores/22f12a6a4628f21e0141059b67e461bd.jpg", "brand": "Tapi", "brand:wikidata": "Q79223951", "nsi_id": "tapicarpets-40b39f"}, "geometry": {"type": "Point", "coordinates": [1.10365, 51.29299]}},
{"type": "Feature", "id": "xfLAweuUjD1-iNfQ9HFZm82urHc=", "properties": {"ref": "https://www.tapi.co.uk/stores/sittingbourne", "@spider": "tapi_gb", "shop": "carpet", "addr:street_address": "Unit 7A, Sittingbourne Retail Park, Mill Way", "addr:city": "Sittingbourne", "addr:postcode": "ME10 2XD", "addr:country": "GB", "name": "Tapi Carpets & Floors Sittingbourne", "phone": "01795 505 970", "website": "https://www.tapi.co.uk/stores/sittingbourne", "image": "https://www.tapi.co.uk/images_stores/ef61d263248bc482e22fe9c9d6336c6b.jpg", "brand": "Tapi", "brand:wikidata": "Q79223951", "nsi_id": "tapicarpets-40b39f"}, "geometry": {"type": "Point", "coordinates": [0.735817, 51.345073]}},
{"type": "Feature", "id": "YWCt-fcRiK-jjOViuDd-SQv-Uz8=", "properties": {"ref": "https://www.tapi.co.uk/stores/guiseley", "@spider": "tapi_gb", "shop": "carpet", "addr:street_address": "Unit 5, West Side Retail Park, Leeds Road", "addr:postcode": "LS20 9NE", "addr:country": "GB", "name": "Tapi Carpets & Floors Guiseley", "phone": "01943 663 990", "website": "https://www.tapi.co.uk/stores/guiseley", "image": "https://www.tapi.co.uk/images_stores/b684a82bd4149c417038eb71797e3eb1.jpg", "brand": "Tapi", "brand:wikidata": "Q79223951", "nsi_id": "tapicarpets-40b39f"}, "geometry": {"type": "Point", "coordinates": [-1.703006, 53.868494]}},
{"type": "Feature", "id": "Lb1MGLYjtBBICI8tLd_nOayWEyU=", "properties": {"ref": "https://www.tapi.co.uk/stores/maidstone-homebase", "@spider": "tapi_gb", "shop": "carpet", "addr:street_address": "Aylesford Retail Park, Maidstone", "addr:postcode": "ME20 7TP", "addr:country": "GB", "name": "Tapi Carpets & Floors within Maidstone Homebase", "phone": "01622 239 680", "website": "https://www.tapi.co.uk/stores/maidstone-homebase", "image": "https://www.tapi.co.uk/images_stores/d6f1b4fcbf9cb8030a96c2615fe89baf.jpg", "brand": "Tapi", "brand:wikidata": "Q79223951", "nsi_id": "tapicarpets-40b39f"}, "geometry": {"type": "Point", "coordinates": [0.470454, 51.294365]}},
{"type": "Feature", "id": "Pxzk8E3iDE15P3yT-bpC-_-odAA=", "properties": {"ref": "https://www.tapi.co.uk/stores/leicester", "@spider": "tapi_gb", "shop": "carpet", "addr:street_address": "10B St Georges Retail Park, St Georges Way", "addr:postcode": "LE1 1SG", "addr:country": "GB", "name": "Tapi Carpets & Floors Leicester", "phone": "0116 464 7800", "website": "https://www.tapi.co.uk/stores/leicester", "image": "https://www.tapi.co.uk/images_stores/a4b522f17c845f387aef93d134bea633.jpg", "brand": "Tapi", "brand:wikidata": "Q79223951", "nsi_id": "tapicarpets-40b39f"}, "geometry": {"type": "Point", "coordinates": [-1.121566, 52.636938]}},
{"type": "Feature", "id": "hCq8demY9rn2WolIp6wd6llNnAs=", "properties": {"ref": "https://www.tapi.co.uk/stores/york", "@spider": "tapi_gb", "shop": "carpet", "addr:street_address": "Unit 8 Clifton Moor Retail Park, Stirling Road", "addr:postcode": "YO30 4WZ", "addr:country": "GB", "name": "Tapi Carpets & Floors York", "phone": "01904 809 980", "website": "https://www.tapi.co.uk/stores/york", "image": "https://www.tapi.co.uk/images_stores/tapi-carpets-york-web.jpg", "brand": "Tapi", "brand:wikidata": "Q79223951", "nsi_id": "tapicarpets-40b39f"}, "geometry": {"type": "Point", "coordinates": [-1.097433, 53.993019]}},
{"type": "Feature", "id": "d5q_JACTJn8_796hhSaGo-zD4cs=", "properties": {"ref": "https://www.tapi.co.uk/stores/watford", "@spider": "tapi_gb", "shop": "carpet", "addr:street_address": "Unit B Colne Valley Retail Park, Lower High Street", "addr:postcode": "WD17 2JZ", "addr:country": "GB", "name": "Tapi Carpets & Floors Watford", "phone": "01923 979 420", "website": "https://www.tapi.co.uk/stores/watford", "image": "https://www.tapi.co.uk/images_stores/tapi-carpets-watford-web.jpg", "brand": "Tapi", "brand:wikidata": "Q79223951", "nsi_id": "tapicarpets-40b39f"}, "geometry": {"type": "Point", "coordinates": [-0.385214, 51.650323]}},
{"type": "Feature", "id": "N_UWO_AuCSxmE3UBpx7w3SC3wOA=", "properties": {"ref": "https://www.tapi.co.uk/stores/rayleigh-weir-homebase", "@spider": "tapi_gb", "shop": "carpet", "addr:street_address": "23 - 25 Stadium Way, Rayleigh", "addr:postcode": "SS7 3NT", "addr:country": "GB", "name": "Tapi Carpets & Floors within Rayleigh Weir Homebase", "phone": "01268 214 350", "website": "https://www.tapi.co.uk/stores/rayleigh-weir-homebase", "image": "https://www.tapi.co.uk/images_stores/tapi-carpets-rayleigh-weir-homepbase-web.jpg", "brand": "Tapi", "brand:wikidata": "Q79223951", "nsi_id": "tapicarpets-40b39f"}, "geometry": {"type": "Point", "coordinates": [0.60072094, 51.576029]}},
{"type": "Feature", "id": "SQ6Jxcp4s1HYqlEL3pxj_f0UbAU=", "properties": {"ref": "https://www.tapi.co.uk/stores/orpington-homebase", "@spider": "tapi_gb", "shop": "carpet", "addr:street_address": "Sevenoaks Way Industrial Estate, Main road", "addr:postcode": "BR5 3QD", "addr:country": "GB", "name": "Tapi Carpets & Floors within Orpington Homebase", "phone": "01689 669 540", "website": "https://www.tapi.co.uk/stores/orpington-homebase", "image": "https://www.tapi.co.uk/images_stores/tapi-carpets-orpington-homepbase-web.jpg", "brand": "Tapi", "brand:wikidata": "Q79223951", "nsi_id": "tapicarpets-40b39f"}, "geometry": {"type": "Point", "coordinates": [0.1156858, 51.4063608]}},
{"type": "Feature", "id": "CIgwwQtL75-uBNmm34ZEslvxmN4=", "properties": {"ref": "https://www.tapi.co.uk/stores/barnstaple", "@spider": "tapi_gb", "shop": "carpet", "addr:street_address": "Unit 4 Anchorwood Retail Park  , Taw Wharf, Sticklepath", "addr:postcode": "EX31 2BN", "addr:country": "GB", "name": "Tapi Carpets & Floors Barnstaple", "phone": "01271 442 380", "website": "https://www.tapi.co.uk/stores/barnstaple", "image": "https://www.tapi.co.uk/images_stores/tapi-carpets-barnstaple-web.jpg", "brand": "Tapi", "brand:wikidata": "Q79223951", "nsi_id": "tapicarpets-40b39f"}, "geometry": {"type": "Point", "coordinates": [-4.063514, 51.07743]}},
{"type": "Feature", "id": "hePORGzBbQA99ytNaKNZpI1-F2g=", "properties": {"ref": "https://www.tapi.co.uk/stores/penge", "@spider": "tapi_gb", "shop": "carpet", "addr:street_address": "96-98 High Street", "addr:postcode": "SE20 7EZ", "addr:country": "GB", "name": "Tapi Carpets & Floors Penge", "phone": "020 8049 9900", "website": "https://www.tapi.co.uk/stores/penge", "image": "https://www.tapi.co.uk/images_stores/tapi-carpets-penge-web.jpg", "brand": "Tapi", "brand:wikidata": "Q79223951", "nsi_id": "tapicarpets-40b39f"}, "geometry": {"type": "Point", "coordinates": [-0.053949, 51.415672]}},
{"type": "Feature", "id": "7_C8FUMA2NfwOqNDHuUdGM5XTFE=", "properties": {"ref": "https://www.tapi.co.uk/stores/chatham", "@spider": "tapi_gb", "shop": "carpet", "addr:street_address": "Unit B Horsted Retail Park, Maidstone Road", "addr:postcode": "ME5 9SQ", "addr:country": "GB", "name": "Tapi Carpets & Floors Chatham", "phone": "01634 567 720", "website": "https://www.tapi.co.uk/stores/chatham", "image": "https://www.tapi.co.uk/images_stores/tapi-carpets-chatham-web.jpg", "brand": "Tapi", "brand:wikidata": "Q79223951", "nsi_id": "tapicarpets-40b39f"}, "geometry": {"type": "Point", "coordinates": [0.507445, 51.350208]}},
{"type": "Feature", "id": "ml0ID1UFyPJH1Icr_259Ns-wKQA=", "properties": {"ref": "https://www.tapi.co.uk/stores/warrington", "@spider": "tapi_gb", "shop": "carpet", "addr:street_address": "Unit 4B Junction Nine Retail Park, Winwick Road", "addr:postcode": "WA2 8TW", "addr:country": "GB", "name": "Tapi Carpets & Floors Warrington", "phone": "01925 918 050", "website": "https://www.tapi.co.uk/stores/warrington", "image": "https://www.tapi.co.uk/images_stores/tapi-carpets-warrington-web.jpg", "brand": "Tapi", "brand:wikidata": "Q79223951", "nsi_id": "tapicarpets-40b39f"}, "geometry": {"type": "Point", "coordinates": [-2.597936, 53.409976]}},
{"type": "Feature", "id": "9_NZ-Xn4bqUvrqZw1tGew0UGoKk=", "properties": {"ref": "https://www.tapi.co.uk/stores/christchurch", "@spider": "tapi_gb", "shop": "carpet", "addr:street_address": "Unit 5 Christchurch Retail Park , Bailey Drive", "addr:postcode": "BH23 2BN", "addr:country": "GB", "name": "Tapi Carpets & Floors Christchurch", "phone": "01202 084 040", "website": "https://www.tapi.co.uk/stores/christchurch", "image": "https://www.tapi.co.uk/images_stores/tapi-carpets-christchurch-web.jpg", "brand": "Tapi", "brand:wikidata": "Q79223951", "nsi_id": "tapicarpets-40b39f"}, "geometry": {"type": "Point", "coordinates": [-1.791683, 50.738159]}},
{"type": "Feature", "id": "35UdVkEhZWOz4qjj0p6MX5ehnoU=", "properties": {"ref": "https://www.tapi.co.uk/stores/tamworth", "@spider": "tapi_gb", "shop": "carpet", "addr:street_address": "Unit 3 Cardinal Point Retail Park, Ventura Park Road", "addr:postcode": "B78 3JG", "addr:country": "GB", "name": "Tapi Carpets & Floors Tamworth", "phone": "01827 210 710", "website": "https://www.tapi.co.uk/stores/tamworth", "image": "https://www.tapi.co.uk/images_stores/tapi-carpets-tamworth-web.jpg", "brand": "Tapi", "brand:wikidata": "Q79223951", "nsi_id": "tapicarpets-40b39f"}, "geometry": {"type": "Point", "coordinates": [-1.709838, 52.626644]}},
{"type": "Feature", "id": "nz52_lRrJBM4O4FNtRHpx-m0piQ=", "properties": {"ref": "https://www.tapi.co.uk/stores/andover", "@spider": "tapi_gb", "shop": "carpet", "addr:street_address": "Unit 2 Enham Arch Retail Park, Newbury Road", "addr:postcode": "SP10 4DU", "addr:country": "GB", "name": "Tapi Carpets & Floors Andover", "phone": "01264 315 940", "website": "https://www.tapi.co.uk/stores/andover", "image": "https://www.tapi.co.uk/images_stores/tapi-carpets-andover-web.jpg", "brand": "Tapi", "brand:wikidata": "Q79223951", "nsi_id": "tapicarpets-40b39f"}, "geometry": {"type": "Point", "coordinates": [-1.4774076, 51.2170058]}},
{"type": "Feature", "id": "hZROgoy25iLRvwYOpT7Y53ogjM8=", "properties": {"ref": "https://www.tapi.co.uk/stores/waterlooville", "@spider": "tapi_gb", "shop": "carpet", "addr:street_address": "Unit 6 Wellington Retail Park, Hambledon Road", "addr:postcode": "PO7 7FG", "addr:country": "GB", "name": "Tapi Carpets & Floors Waterlooville", "phone": "023 9421 8230", "website": "https://www.tapi.co.uk/stores/waterlooville", "image": "https://www.tapi.co.uk/images_stores/tapi-carpets-waterlooville-web.jpg", "brand": "Tapi", "brand:wikidata": "Q79223951", "nsi_id": "tapicarpets-40b39f"}, "geometry": {"type": "Point", "coordinates": [-1.03402, 50.88215]}},
{"type": "Feature", "id": "sWxTCt4Sfj6A29M1ZJQQx9q6g5s=", "properties": {"ref": "https://www.tapi.co.uk/stores/stockton", "@spider": "tapi_gb", "shop": "carpet", "addr:street_address": "Unit 2 Portrack Interchange Retail Park, Cheltenham Road", "addr:postcode": "TS18 2SP", "addr:country": "GB", "name": "Tapi Carpets & Floors Stockton", "phone": "01642 049 940", "website": "https://www.tapi.co.uk/stores/stockton", "image": "https://www.tapi.co.uk/images_stores/tapi-carpets-stockton-web.jpg", "brand": "Tapi", "brand:wikidata": "Q79223951", "nsi_id": "tapicarpets-40b39f"}, "geometry": {"type": "Point", "coordinates": [-1.28066, 54.57686]}},
{"type": "Feature", "id": "V0rjaS2jK5LRFvrICoc9Wd3GdSQ=", "properties": {"ref": "https://www.tapi.co.uk/stores/abingdon", "@spider": "tapi_gb", "shop": "carpet", "addr:street_address": "Unit C1 Fairacres Retail Park, Marcham Road", "addr:postcode": "OX14 1BY", "addr:country": "GB", "name": "Tapi Carpets & Floors Abingdon", "phone": "01235 427 440", "website": "https://www.tapi.co.uk/stores/abingdon", "image": "https://www.tapi.co.uk/images_stores/tapi-carpets-abingdon-web.jpg", "brand": "Tapi", "brand:wikidata": "Q79223951", "nsi_id": "tapicarpets-40b39f"}, "geometry": {"type": "Point", "coordinates": [-1.3077544, 51.6693471]}},
{"type": "Feature", "id": "yIqzo9NpQ2S7vhT9tWa2l9xcO6M=", "properties": {"ref": "https://www.tapi.co.uk/stores/ashford", "@spider": "tapi_gb", "shop": "carpet", "addr:street_address": "Unit 1B Ashford Retail Park, Barrey Road", "addr:postcode": "TN24 0SG", "addr:country": "GB", "name": "Tapi Carpets & Floors Ashford", "phone": "01233 225 840", "website": "https://www.tapi.co.uk/stores/ashford", "image": "https://www.tapi.co.uk/images_stores/tapi-carpets-ashford-web.jpg", "brand": "Tapi", "brand:wikidata": "Q79223951", "nsi_id": "tapicarpets-40b39f"}, "geometry": {"type": "Point", "coordinates": [0.905175, 51.131097]}},
{"type": "Feature", "id": "RfEh5Wv1NhjD7VTLUDpV-80jQ1M=", "properties": {"ref": "https://www.tapi.co.uk/stores/telford", "@spider": "tapi_gb", "shop": "carpet", "addr:street_address": "Unit 11B Telford Bridge Retail Park, Colliers Way Old Park", "addr:postcode": "TF3 4PB", "addr:country": "GB", "name": "Tapi Carpets & Floors Telford", "phone": "01952 767 890", "website": "https://www.tapi.co.uk/stores/telford", "image": "https://www.tapi.co.uk/images_stores/tapi-carpets-telford-web.jpg", "brand": "Tapi", "brand:wikidata": "Q79223951", "nsi_id": "tapicarpets-40b39f"}, "geometry": {"type": "Point", "coordinates": [-2.4536, 52.679171]}},
{"type": "Feature", "id": "XyBpWFQ028UMyWlC-tapuCqEdXg=", "properties": {"ref": "https://www.tapi.co.uk/stores/fort-kinnaird", "@spider": "tapi_gb", "shop": "carpet", "addr:street_address": "9 Kinnaird Park, Newcraighall Road", "addr:city": "Fort Kinnaird", "addr:postcode": "EH15 3RD", "addr:country": "GB", "name": "Tapi Carpets & Floors Fort Kinnaird", "phone": "0131 357 5510", "website": "https://www.tapi.co.uk/stores/fort-kinnaird", "image": "https://www.tapi.co.uk/images_stores/tapi-carpets-fort-kinnaird-web.jpg", "brand": "Tapi", "brand:wikidata": "Q79223951", "nsi_id": "tapicarpets-40b39f"}, "geometry": {"type": "Point", "coordinates": [-3.104497, 55.934027]}},
{"type": "Feature", "id": "xK9Sp7ZwVe_3K5hq-P9e-rD4AZg=", "properties": {"ref": "https://www.tapi.co.uk/stores/taunton", "@spider": "tapi_gb", "shop": "carpet", "addr:street_address": "Unit 6B Priory Fields Retail Park , Priory Avenue", "addr:postcode": "TA1 1QS", "addr:country": "GB", "name": "Tapi Carpets & Floors Taunton", "phone": "01823 218 670", "website": "https://www.tapi.co.uk/stores/taunton", "image": "https://www.tapi.co.uk/images_stores/tapi-carpets-taunton-web.jpg", "brand": "Tapi", "brand:wikidata": "Q79223951", "nsi_id": "tapicarpets-40b39f"}, "geometry": {"type": "Point", "coordinates": [-3.091757, 51.020724]}},
{"type": "Feature", "id": "Hqc7H482VckMPGQpA0NF_ruaeSU=", "properties": {"ref": "https://www.tapi.co.uk/stores/stoke", "@spider": "tapi_gb", "shop": "carpet", "addr:street_address": "Unit 2A Festival Retail Park, Ridgehouse Drive", "addr:postcode": "ST1 5SJ", "addr:country": "GB", "name": "Tapi Carpets & Floors Stoke", "phone": "01782 959 130", "website": "https://www.tapi.co.uk/stores/stoke", "image": "https://www.tapi.co.uk/images_stores/tapi-carpets-stoke-web.jpg", "brand": "Tapi", "brand:wikidata": "Q79223951", "nsi_id": "tapicarpets-40b39f"}, "geometry": {"type": "Point", "coordinates": [-2.1921292, 53.028807]}},
{"type": "Feature", "id": "-gEVrmd_CDCMKfMlKtpn0-vHl50=", "properties": {"ref": "https://www.tapi.co.uk/stores/nursling", "@spider": "tapi_gb", "shop": "carpet", "addr:street_address": "Unit 4 Southampton Retail Park, Franconia Drive", "addr:city": "Nursling", "addr:postcode": "SO16 0YW", "addr:country": "GB", "name": "Tapi Carpets & Floors Nursling", "phone": "023 8202 7870", "website": "https://www.tapi.co.uk/stores/nursling", "image": "https://www.tapi.co.uk/images_stores/tapi-carpets-nursling-web.jpg", "brand": "Tapi", "brand:wikidata": "Q79223951", "nsi_id": "tapicarpets-40b39f"}, "geometry": {"type": "Point", "coordinates": [-1.4759713, 50.9357727]}},
{"type": "Feature", "id": "ngvfuS-4wB4xm1vE5JalZ-zDdXY=", "properties": {"ref": "https://www.tapi.co.uk/stores/swindon", "@spider": "tapi_gb", "shop": "carpet", "addr:street_address": "Unit 4 Greenbridge Retail Park, Stratton Road", "addr:postcode": "SN3 3SG", "addr:country": "GB", "name": "Tapi Carpets & Floors Swindon", "phone": "01793 987 350", "website": "https://www.tapi.co.uk/stores/swindon", "image": "https://www.tapi.co.uk/images_stores/tapi-carpets-swindon-web.jpg", "brand": "Tapi", "brand:wikidata": "Q79223951", "nsi_id": "tapicarpets-40b39f"}, "geometry": {"type": "Point", "coordinates": [-1.75415, 51.571029]}},
{"type": "Feature", "id": "mHQxeM4fcnDri2SyA12F70wdMQM=", "properties": {"ref": "https://www.tapi.co.uk/stores/stevenage", "@spider": "tapi_gb", "shop": "carpet", "addr:street_address": "Unit 1B Roaring Meg Retail Park, London Road", "addr:postcode": "SG1 1XN", "addr:country": "GB", "name": "Tapi Carpets & Floors Stevenage", "phone": "01438 905 860", "website": "https://www.tapi.co.uk/stores/stevenage", "image": "https://www.tapi.co.uk/images_stores/8c7d2b2faa412976551f4546ce0ad825.jpg", "brand": "Tapi", "brand:wikidata": "Q79223951", "nsi_id": "tapicarpets-40b39f"}, "geometry": {"type": "Point", "coordinates": [-0.19789, 51.89198]}},
{"type": "Feature", "id": "nXNjSOFmWhH4hMrLISoWVqtBH5k=", "properties": {"ref": "https://www.tapi.co.uk/stores/crawley-queens-square", "@spider": "tapi_gb", "shop": "carpet", "addr:street_address": "8-9 Queens Square", "addr:postcode": "RH10 1DY", "addr:country": "GB", "name": "Tapi Carpets & Floors Crawley Queens Square", "phone": "01293 224 820", "website": "https://www.tapi.co.uk/stores/crawley-queens-square", "image": "https://www.tapi.co.uk/images_stores/tapi-carpets-crawley-web.jpg", "brand": "Tapi", "brand:wikidata": "Q79223951", "nsi_id": "tapicarpets-40b39f"}, "geometry": {"type": "Point", "coordinates": [-0.187307, 51.115686]}},
{"type": "Feature", "id": "k_Mo8kz6w5ur6pIoLrQHn-Jl95Y=", "properties": {"ref": "https://www.tapi.co.uk/stores/charlton", "@spider": "tapi_gb", "shop": "carpet", "addr:street_address": "Unit 2 Peninsular Retail Park, Peninsular Park Road", "addr:city": "Bugsbys Way", "addr:postcode": "SE7 7TZ", "addr:country": "GB", "name": "Tapi Carpets & Floors Charlton", "phone": "020 3959 2040", "website": "https://www.tapi.co.uk/stores/charlton", "image": "https://www.tapi.co.uk/images_stores/tapi-carpets-greenwich-web.jpg", "brand": "Tapi", "brand:wikidata": "Q79223951", "nsi_id": "tapicarpets-40b39f"}, "geometry": {"type": "Point", "coordinates": [0.020637, 51.488953]}},
{"type": "Feature", "id": "TKwUzJ7dcBQ6_ZLg7VkT62wtjAc=", "properties": {"ref": "https://www.tapi.co.uk/stores/llanelli", "@spider": "tapi_gb", "shop": "carpet", "addr:street_address": "Unit 2 Trostre South Retail Park", "addr:postcode": "SA14 9UY", "addr:country": "GB", "name": "Tapi Carpets & Floors Llanelli", "phone": "01554 700 840", "website": "https://www.tapi.co.uk/stores/llanelli", "image": "https://www.tapi.co.uk/images_stores/tapi-carpets-llanelli-web.jpg", "brand": "Tapi", "brand:wikidata": "Q79223951", "nsi_id": "tapicarpets-40b39f"}, "geometry": {"type": "Point", "coordinates": [-4.136862, 51.67509]}},
{"type": "Feature", "id": "3OaT8Y_WpuDp0RFSxPNKCrEwG8Y=", "properties": {"ref": "https://www.tapi.co.uk/stores/preston", "@spider": "tapi_gb", "shop": "carpet", "addr:street_address": "Unit 5C Capitol Retail Park, Winery Lane", "addr:city": "Walton-le-Dale", "addr:postcode": "PR5 4AW", "addr:country": "GB", "name": "Tapi Carpets & Floors Preston", "phone": "01772 957 920", "website": "https://www.tapi.co.uk/stores/preston", "image": "https://www.tapi.co.uk/images_stores/tapi-carpets-preston-web.jpg", "brand": "Tapi", "brand:wikidata": "Q79223951", "nsi_id": "tapicarpets-40b39f"}, "geometry": {"type": "Point", "coordinates": [-2.676107, 53.74972]}},
{"type": "Feature", "id": "WbfHo7NN0mQRuEUNTDbc-SOetx4=", "properties": {"ref": "https://www.tapi.co.uk/stores/sheffield", "@spider": "tapi_gb", "shop": "carpet", "addr:street_address": "Unit 1A Drakehouse Retail Park, Drake House Way", "addr:postcode": "S20 7JJ", "addr:country": "GB", "name": "Tapi Carpets & Floors Sheffield", "phone": "0114 478 3200", "website": "https://www.tapi.co.uk/stores/sheffield", "image": "https://www.tapi.co.uk/images_stores/tapi-carpets-sheffield-web.jpg", "brand": "Tapi", "brand:wikidata": "Q79223951", "nsi_id": "tapicarpets-40b39f"}, "geometry": {"type": "Point", "coordinates": [-1.358277, 53.344131]}},
{"type": "Feature", "id": "NzMamFvdO7Z6yQYgxoO2eF5TnMo=", "properties": {"ref": "https://www.tapi.co.uk/stores/gateshead", "@spider": "tapi_gb", "shop": "carpet", "addr:street_address": "Unit 4 Retail World, Team Valley", "addr:postcode": "NE11 0BD", "addr:country": "GB", "name": "Tapi Carpets & Floors Gateshead", "phone": "0191 300 9850", "website": "https://www.tapi.co.uk/stores/gateshead", "image": "https://www.tapi.co.uk/images_stores/tapi-carpets-gateshead-web.jpg", "brand": "Tapi", "brand:wikidata": "Q79223951", "nsi_id": "tapicarpets-40b39f"}, "geometry": {"type": "Point", "coordinates": [-1.61918, 54.92242]}},
{"type": "Feature", "id": "wyBubjnuyr3XF4vjXqU1rp-ohJk=", "properties": {"ref": "https://www.tapi.co.uk/stores/hove", "@spider": "tapi_gb", "shop": "carpet", "addr:street_address": "Unit 2 Peacock Industrial Estate, Davigdor Road", "addr:postcode": "BN3 1SF", "addr:country": "GB", "name": "Tapi Carpets & Floors Hove", "phone": "01273 944 390", "website": "https://www.tapi.co.uk/stores/hove", "image": "https://www.tapi.co.uk/images_stores/tapi-carpets-hove-web.jpg", "brand": "Tapi", "brand:wikidata": "Q79223951", "nsi_id": "tapicarpets-40b39f"}, "geometry": {"type": "Point", "coordinates": [-0.158488, 50.832118]}},
{"type": "Feature", "id": "pvsdcfXqREInwdZdGGa7eRTwkeU=", "properties": {"ref": "https://www.tapi.co.uk/stores/cardiff-newport-road", "@spider": "tapi_gb", "shop": "carpet", "addr:street_address": "Unit B Seager Retail Park, Newport Road", "addr:postcode": "CF23 9AA", "addr:country": "GB", "name": "Tapi Carpets & Floors Cardiff Newport Road", "phone": "029 2167 4250", "website": "https://www.tapi.co.uk/stores/cardiff-newport-road", "image": "https://www.tapi.co.uk/images_stores/tapi-carpets-cardiff-newport-web.jpg", "brand": "Tapi", "brand:wikidata": "Q79223951", "nsi_id": "tapicarpets-40b39f"}, "geometry": {"type": "Point", "coordinates": [-3.143665, 51.49622]}},
{"type": "Feature", "id": "hda8y5N6wT3_JROcLSKy0K9GffM=", "properties": {"ref": "https://www.tapi.co.uk/stores/redhill", "@spider": "tapi_gb", "shop": "carpet", "addr:street_address": "Units 32/33 The Belfry Shopping Centre", "addr:postcode": "RH1 1SE", "addr:country": "GB", "name": "Tapi Carpets & Floors Redhill", "phone": "01737 304 740", "website": "https://www.tapi.co.uk/stores/redhill", "image": "https://www.tapi.co.uk/images_stores/tapi-carpets-redhill-web.jpg", "brand": "Tapi", "brand:wikidata": "Q79223951", "nsi_id": "tapicarpets-40b39f"}, "geometry": {"type": "Point", "coordinates": [-0.16915, 51.239544]}},
{"type": "Feature", "id": "YJO_boBfp2PS1msjkoqIc3DK_6Y=", "properties": {"ref": "https://www.tapi.co.uk/stores/rustington", "@spider": "tapi_gb", "shop": "carpet", "addr:street_address": "Unit 2  Manor Retail Park, Rustington Bypass", "addr:city": "Rustington", "addr:postcode": "BN16 3FH", "addr:country": "GB", "name": "Tapi Carpets & Floors Rustington", "phone": "01903 259 460", "website": "https://www.tapi.co.uk/stores/rustington", "image": "https://www.tapi.co.uk/images_stores/tapi-carpets-rustington-web.jpg", "brand": "Tapi", "brand:wikidata": "Q79223951", "nsi_id": "tapicarpets-40b39f"}, "geometry": {"type": "Point", "coordinates": [-0.504701, 50.819722]}},
{"type": "Feature", "id": "s0Zn4qBMgLYjEj9GNRPpNdvAKAA=", "properties": {"ref": "https://www.tapi.co.uk/stores/maidenhead", "@spider": "tapi_gb", "shop": "carpet", "addr:street_address": "71-73 High Street", "addr:postcode": "SL6 1JX", "addr:country": "GB", "name": "Tapi Carpets & Floors Maidenhead", "phone": "01628 327 050", "website": "https://www.tapi.co.uk/stores/maidenhead", "image": "https://www.tapi.co.uk/images_stores/tapi-carpets-maidenhead-web.jpg", "brand": "Tapi", "brand:wikidata": "Q79223951", "nsi_id": "tapicarpets-40b39f"}, "geometry": {"type": "Point", "coordinates": [-0.721653, 51.522601]}},
{"type": "Feature", "id": "1HciX2Cz4y6S3e07bkCiDUrl61I=", "properties": {"ref": "https://www.tapi.co.uk/stores/farnborough", "@spider": "tapi_gb", "shop": "carpet", "addr:street_address": "Unit 5 Horizon Retail Park , Solartron Road", "addr:postcode": "GU14 7GY", "addr:country": "GB", "name": "Tapi Carpets & Floors Farnborough", "phone": "01252 418 400", "website": "https://www.tapi.co.uk/stores/farnborough", "image": "https://www.tapi.co.uk/images_stores/tapi-carpets-farnborough-web.jpg", "brand": "Tapi", "brand:wikidata": "Q79223951", "nsi_id": "tapicarpets-40b39f"}, "geometry": {"type": "Point", "coordinates": [-0.759063, 51.290305]}},
{"type": "Feature", "id": "WeJJ7g-_5hqIOw9K-pUdz1c-qao=", "properties": {"ref": "https://www.tapi.co.uk/stores/reading", "@spider": "tapi_gb", "shop": "carpet", "addr:street_address": "Unit 3 Reading Gate Retail Park", "addr:postcode": "RG2 0QG", "addr:country": "GB", "name": "Tapi Carpets & Floors Reading", "phone": "0118 467 3850", "website": "https://www.tapi.co.uk/stores/reading", "image": "https://www.tapi.co.uk/images_stores/tapi-carpets-reading-web.jpg", "brand": "Tapi", "brand:wikidata": "Q79223951", "nsi_id": "tapicarpets-40b39f"}, "geometry": {"type": "Point", "coordinates": [-0.980398, 51.423019]}},
{"type": "Feature", "id": "qhGsjD77OLdEvjV_EGXHVI3QHxI=", "properties": {"ref": "https://www.tapi.co.uk/stores/chester", "@spider": "tapi_gb", "shop": "carpet", "addr:street_address": "28 Greyhound Park Road, Greyhound Retail Park", "addr:city": "6 Sealand Road", "addr:postcode": "CH1 4QG", "addr:country": "GB", "name": "Tapi Carpets & Floors Chester", "phone": "01244 621 050", "website": "https://www.tapi.co.uk/stores/chester", "image": "https://www.tapi.co.uk/images_stores/tapi-carpets-chester-web.jpg", "brand": "Tapi", "brand:wikidata": "Q79223951", "nsi_id": "tapicarpets-40b39f"}, "geometry": {"type": "Point", "coordinates": [-2.913357, 53.198197]}},
{"type": "Feature", "id": "MT9MKl2pa4kXDLI3wV5lMpz1D1g=", "properties": {"ref": "https://www.tapi.co.uk/stores/bracknell", "@spider": "tapi_gb", "shop": "carpet", "addr:street_address": "Unit 2B The Peel Centre, Skimped Hill Lane", "addr:postcode": "RG12 1EN", "addr:country": "GB", "name": "Tapi Carpets & Floors Bracknell", "phone": "01344 586 800", "website": "https://www.tapi.co.uk/stores/bracknell", "image": "https://www.tapi.co.uk/images_stores/tapi-carpets-bracknell-web.jpg", "brand": "Tapi", "brand:wikidata": "Q79223951", "nsi_id": "tapicarpets-40b39f"}, "geometry": {"type": "Point", "coordinates": [-0.757273, 51.41399]}},
{"type": "Feature", "id": "FTDTA9UiKofCCh4BrwvQBLaCCNc=", "properties": {"ref": "https://www.tapi.co.uk/stores/bury-st-edmunds", "@spider": "tapi_gb", "shop": "carpet", "addr:street_address": "Unit 4B St Edmundsbury Retail Park, Bedingfield Way", "addr:postcode": "IP32 7BT", "addr:country": "GB", "name": "Tapi Carpets & Floors Bury St Edmunds", "phone": "01284 333 060", "website": "https://www.tapi.co.uk/stores/bury-st-edmunds", "image": "https://www.tapi.co.uk/images_stores/tapi-carpets-burystedmunds-web.jpg", "brand": "Tapi", "brand:wikidata": "Q79223951", "nsi_id": "tapicarpets-40b39f"}, "geometry": {"type": "Point", "coordinates": [0.7403955, 52.2395207]}},
{"type": "Feature", "id": "cPKtofI_QhET1mno8VwlqiODwRk=", "properties": {"ref": "https://www.tapi.co.uk/stores/shrewsbury", "@spider": "tapi_gb", "shop": "carpet", "addr:street_address": "Unit 1B Sundorne Retail Park", "addr:postcode": "SY1 4YA", "addr:country": "GB", "name": "Tapi Carpets & Floors Shrewsbury", "phone": "01743 297 860", "website": "https://www.tapi.co.uk/stores/shrewsbury", "image": "https://www.tapi.co.uk/images_stores/tapi-carpets-shrewsbury-web.jpg", "brand": "Tapi", "brand:wikidata": "Q79223951", "nsi_id": "tapicarpets-40b39f"}, "geometry": {"type": "Point", "coordinates": [-2.71971, 52.738604]}},
{"type": "Feature", "id": "QGw_Bxq41UO-ZoFBKAzA7QLTHpw=", "properties": {"ref": "https://www.tapi.co.uk/stores/south-ruislip", "@spider": "tapi_gb", "shop": "carpet", "addr:street_address": "Unit 2, Victoria Retail Park", "addr:postcode": "HA4 0AJ", "addr:country": "GB", "name": "Tapi Carpets & Floors South Ruislip", "phone": "01895 320 880", "website": "https://www.tapi.co.uk/stores/south-ruislip", "image": "https://www.tapi.co.uk/images_stores/tapi-carpets-southruislip-web.jpg", "brand": "Tapi", "brand:wikidata": "Q79223951", "nsi_id": "tapicarpets-40b39f"}, "geometry": {"type": "Point", "coordinates": [-0.387901, 51.556453]}},
{"type": "Feature", "id": "vyZBio3ttcCIiOm--dnT9RoDvig=", "properties": {"ref": "https://www.tapi.co.uk/stores/aylesbury", "@spider": "tapi_gb", "shop": "carpet", "addr:street_address": "Unit 12 Aylesbury Shopping Park, Cambridge Close", "addr:postcode": "HP20 1DG", "addr:country": "GB", "name": "Tapi Carpets & Floors Aylesbury", "phone": "01296 328 000", "website": "https://www.tapi.co.uk/stores/aylesbury", "image": "https://www.tapi.co.uk/images_stores/tapi-carpets-aylesbury-web.jpg", "brand": "Tapi", "brand:wikidata": "Q79223951", "nsi_id": "tapicarpets-40b39f"}, "geometry": {"type": "Point", "coordinates": [-0.8093358, 51.8205911]}},
{"type": "Feature", "id": "k1FJNLDIVQMiLhLm4oyX6ZROWlQ=", "properties": {"ref": "https://www.tapi.co.uk/stores/plymouth", "@spider": "tapi_gb", "shop": "carpet", "addr:street_address": "Unit 3 Plymouth Gateway Retail Park, 270 Plymouth Road", "addr:postcode": "PL6 8ET", "addr:country": "GB", "name": "Tapi Carpets & Floors Plymouth", "phone": "01752 422 510", "website": "https://www.tapi.co.uk/stores/plymouth", "image": "https://www.tapi.co.uk/images_stores/tapi-carpets-plymouth-web.jpg", "brand": "Tapi", "brand:wikidata": "Q79223951", "nsi_id": "tapicarpets-40b39f"}, "geometry": {"type": "Point", "coordinates": [-4.086309, 50.393002]}},
{"type": "Feature", "id": "_UUuEgyAAEodoW5EwgFdGD4oAPQ=", "properties": {"ref": "https://www.tapi.co.uk/stores/perth", "@spider": "tapi_gb", "shop": "carpet", "addr:street_address": "Unit 8B St Catherine's Retail Park, St Catherine's Road", "addr:postcode": "PH1 5XA", "addr:country": "GB", "name": "Tapi Carpets & Floors Perth", "phone": "01738 230 690", "website": "https://www.tapi.co.uk/stores/perth", "image": "https://www.tapi.co.uk/images_stores/tapi-carpets-perth-web.jpg", "brand": "Tapi", "brand:wikidata": "Q79223951", "nsi_id": "tapicarpets-40b39f"}, "geometry": {"type": "Point", "coordinates": [-3.441418, 56.398977]}},
{"type": "Feature", "id": "oZUdikonHchn1BqLIXIeeB-JzC4=", "properties": {"ref": "https://www.tapi.co.uk/stores/kings-lynn", "@spider": "tapi_gb", "shop": "carpet", "addr:street_address": "Unit 1B Pierpoint Retail Park , Hansa Road Hardwick Industrial Estate", "addr:postcode": "PE30 4HX", "addr:country": "GB", "name": "Tapi Carpets & Floors Kings Lynn", "phone": "01553 602 200", "website": "https://www.tapi.co.uk/stores/kings-lynn", "image": "https://www.tapi.co.uk/images_stores/tapi-carpets-kings-lynn-web.jpg", "brand": "Tapi", "brand:wikidata": "Q79223951", "nsi_id": "tapicarpets-40b39f"}, "geometry": {"type": "Point", "coordinates": [0.4123323, 52.7403057]}},
{"type": "Feature", "id": "XwrIsnlLnpeVg6Q29QoylZ7QMvo=", "properties": {"ref": "https://www.tapi.co.uk/stores/abbotsinch", "@spider": "tapi_gb", "shop": "carpet", "addr:street_address": "Unit 15 Abbotsinch Retail Park, Washington Road", "addr:postcode": "PA3 4EP", "addr:country": "GB", "name": "Tapi Carpets & Floors Abbotsinch", "phone": "0141 648 9880", "website": "https://www.tapi.co.uk/stores/abbotsinch", "image": "https://www.tapi.co.uk/images_stores/tapi-carpets-abbotsinch-web.jpg", "brand": "Tapi", "brand:wikidata": "Q79223951", "nsi_id": "tapicarpets-40b39f"}, "geometry": {"type": "Point", "coordinates": [-4.4157606, 55.8604443]}},
{"type": "Feature", "id": "ppgZi81EEJDJMhdWlen7lhRaYe8=", "properties": {"ref": "https://www.tapi.co.uk/stores/dartford", "@spider": "tapi_gb", "shop": "carpet", "addr:street_address": "Unit 5a Prospect Place, Westgate Road", "addr:postcode": "DA1 1DY", "addr:country": "GB", "name": "Tapi Carpets & Floors Dartford", "phone": "01322 918 950", "website": "https://www.tapi.co.uk/stores/dartford", "image": "https://www.tapi.co.uk/images_stores/tapi-carpets-dartford-web.jpg", "brand": "Tapi", "brand:wikidata": "Q79223951", "nsi_id": "tapicarpets-40b39f"}, "geometry": {"type": "Point", "coordinates": [0.216216, 51.447602]}},
{"type": "Feature", "id": "8afdlwf1gtSp0LmvfbM_S3Vokak=", "properties": {"ref": "https://www.tapi.co.uk/stores/norwich", "@spider": "tapi_gb", "shop": "carpet", "addr:street_address": "Unit 5A Sweet Briar Retail Park, Sweet Briar Road", "addr:postcode": "NR6 5DH", "addr:country": "GB", "name": "Tapi Carpets & Floors Norwich", "phone": "01603 931 470", "website": "https://www.tapi.co.uk/stores/norwich", "image": "https://www.tapi.co.uk/images_stores/tapi-carpets-norwich-web.jpg", "brand": "Tapi", "brand:wikidata": "Q79223951", "nsi_id": "tapicarpets-40b39f"}, "geometry": {"type": "Point", "coordinates": [1.2584353, 52.6514371]}},
{"type": "Feature", "id": "3z0rNP9CF3fCMiEsQK2UCmfdSN0=", "properties": {"ref": "https://www.tapi.co.uk/stores/brent-cross", "@spider": "tapi_gb", "shop": "carpet", "addr:street_address": "Unit 2 Brent South Shopping Park, Tiling Road", "addr:postcode": "NW2 1LS", "addr:country": "GB", "name": "Tapi Carpets & Floors Brent Cross", "phone": "020 3873 7070", "website": "https://www.tapi.co.uk/stores/brent-cross", "image": "https://www.tapi.co.uk/images_stores/tapi-carpets-brent-cross-web.jpg", "brand": "Tapi", "brand:wikidata": "Q79223951", "nsi_id": "tapicarpets-40b39f"}, "geometry": {"type": "Point", "coordinates": [-0.224306, 51.571851]}},
{"type": "Feature", "id": "kSFij_pLhYs8g6fBeo4a_N6-4Fk=", "properties": {"ref": "https://www.tapi.co.uk/stores/great-yarmouth", "@spider": "tapi_gb", "shop": "carpet", "addr:street_address": "Unit 2 Pasteur Retail Park , Thamesfield Way", "addr:postcode": "NR31 0DH", "addr:country": "GB", "name": "Tapi Carpets & Floors Great Yarmouth", "phone": "01493 808 980", "website": "https://www.tapi.co.uk/stores/great-yarmouth", "image": "https://www.tapi.co.uk/images_stores/tapi-carpets-great-yarmouth-web.jpg", "brand": "Tapi", "brand:wikidata": "Q79223951", "nsi_id": "tapicarpets-40b39f"}, "geometry": {"type": "Point", "coordinates": [1.717703, 52.599172]}},
{"type": "Feature", "id": "ZboNvnE-84Gw7pyselEupHXtF08=", "properties": {"ref": "https://www.tapi.co.uk/stores/lowestoft", "@spider": "tapi_gb", "shop": "carpet", "addr:street_address": "Unit 20D North Quay Retail Park, Peto Way", "addr:postcode": "NR32 2ED", "addr:country": "GB", "name": "Tapi Carpets & Floors Lowestoft", "phone": "01502 446 040", "website": "https://www.tapi.co.uk/stores/lowestoft", "image": "https://www.tapi.co.uk/images_stores/tapi-carpets-lowestoft-web.jpg", "brand": "Tapi", "brand:wikidata": "Q79223951", "nsi_id": "tapicarpets-40b39f"}, "geometry": {"type": "Point", "coordinates": [1.734887, 52.477085]}},
{"type": "Feature", "id": "H9ej7TaiO_RUu_WGILssRnd9zrk=", "properties": {"ref": "https://www.tapi.co.uk/stores/swansea", "@spider": "tapi_gb", "shop": "carpet", "addr:street_address": "Unit 4B Enterprise Retail Park, Nantyffin North", "addr:postcode": "SA7 9RF", "addr:country": "GB", "name": "Tapi Carpets & Floors Swansea", "phone": "01792 341 750", "website": "https://www.tapi.co.uk/stores/swansea", "image": "https://www.tapi.co.uk/images_stores/tapi-carpets-swansea-web.jpg", "brand": "Tapi", "brand:wikidata": "Q79223951", "nsi_id": "tapicarpets-40b39f"}, "geometry": {"type": "Point", "coordinates": [-3.902855, 51.656963]}},
{"type": "Feature", "id": "WC-QIZSCzuru6iSpnCu4BYrYzdk=", "properties": {"ref": "https://www.tapi.co.uk/stores/northampton", "@spider": "tapi_gb", "shop": "carpet", "addr:street_address": "Unit 3A Nene Valley Retail Park, St James Mill Road East", "addr:postcode": "NN1 1ET", "addr:country": "GB", "name": "Tapi Carpets & Floors Northampton", "phone": "01604 320 410", "website": "https://www.tapi.co.uk/stores/northampton", "image": "https://www.tapi.co.uk/images_stores/tapi-carpets-northampton-web.jpg", "brand": "Tapi", "brand:wikidata": "Q79223951", "nsi_id": "tapicarpets-40b39f"}, "geometry": {"type": "Point", "coordinates": [-0.905695, 52.231683]}},
{"type": "Feature", "id": "BQrb69nZKCJmjPmHo5yfw_RaFbE=", "properties": {"ref": "https://www.tapi.co.uk/stores/kirkcaldy", "@spider": "tapi_gb", "shop": "carpet", "addr:street_address": "Unit 10 Fife Retail Park, Chapel Park", "addr:postcode": "KY2 6QL", "addr:country": "GB", "name": "Tapi Carpets & Floors Kirkcaldy", "phone": "01592 802 700", "website": "https://www.tapi.co.uk/stores/kirkcaldy", "image": "https://www.tapi.co.uk/images_stores/tapi-carpets-kirkcaldy-web.jpg", "brand": "Tapi", "brand:wikidata": "Q79223951", "nsi_id": "tapicarpets-40b39f"}, "geometry": {"type": "Point", "coordinates": [-3.195995, 56.135544]}},
{"type": "Feature", "id": "VbBfCtLjl3Xbu_xWk80YI0tZpZM=", "properties": {"ref": "https://www.tapi.co.uk/stores/nottingham", "@spider": "tapi_gb", "shop": "carpet", "addr:street_address": "Unit 5B Castle Marina Retail Park, Castle Bridge Road", "addr:postcode": "NG7 1GX", "addr:country": "GB", "name": "Tapi Carpets & Floors Nottingham", "phone": "0115 697 2800", "website": "https://www.tapi.co.uk/stores/nottingham", "image": "https://www.tapi.co.uk/images_stores/tapi-carpets-nottingham-web.jpg", "brand": "Tapi", "brand:wikidata": "Q79223951", "nsi_id": "tapicarpets-40b39f"}, "geometry": {"type": "Point", "coordinates": [-1.159993, 52.946662]}},
{"type": "Feature", "id": "H4WzVHIMm4i-7al0TupNyVAyiGY=", "properties": {"ref": "https://www.tapi.co.uk/stores/portsmouth", "@spider": "tapi_gb", "shop": "carpet", "addr:street_address": "Unit 1C Ocean Retail Park, Burrfields Road", "addr:postcode": "PO3 5NP", "addr:country": "GB", "name": "Tapi Carpets & Floors Portsmouth", "phone": "023 9387 4540", "website": "https://www.tapi.co.uk/stores/portsmouth", "image": "https://www.tapi.co.uk/images_stores/tapi-carpets-portsmouth-web.jpg", "brand": "Tapi", "brand:wikidata": "Q79223951", "nsi_id": "tapicarpets-40b39f"}, "geometry": {"type": "Point", "coordinates": [-1.055354, 50.817518]}},
{"type": "Feature", "id": "tvOkmhCDH9B04MhRQ6eBrPl2Uxk=", "properties": {"ref": "https://www.tapi.co.uk/stores/birmingham-selly-oak", "@spider": "tapi_gb", "shop": "carpet", "addr:street_address": "Unit 5 Battery Retail Park, Chapel Lane", "addr:postcode": "B29 6SJ", "addr:country": "GB", "name": "Tapi Carpets & Floors Birmingham Selly Oak", "phone": "0121 728 6450", "website": "https://www.tapi.co.uk/stores/birmingham-selly-oak", "image": "https://www.tapi.co.uk/images_stores/tapi-carpets-sellyoak-web.jpg", "brand": "Tapi", "brand:wikidata": "Q79223951", "nsi_id": "tapicarpets-40b39f"}, "geometry": {"type": "Point", "coordinates": [-1.938722, 52.44185]}},
{"type": "Feature", "id": "l-bIlofWa8Ivics2YywtUxdppr8=", "properties": {"ref": "https://www.tapi.co.uk/stores/milton-keynes", "@spider": "tapi_gb", "shop": "carpet", "addr:street_address": "Unit C Routeco Retail Park, Snowdon Drive", "addr:city": "Winterhill", "addr:postcode": "MK6 1BN", "addr:country": "GB", "name": "Tapi Carpets & Floors Milton Keynes", "phone": "01908 018 540", "website": "https://www.tapi.co.uk/stores/milton-keynes", "image": "https://www.tapi.co.uk/images_stores/tapi-carpets-milton-keynes-web.jpg", "brand": "Tapi", "brand:wikidata": "Q79223951", "nsi_id": "tapicarpets-40b39f"}, "geometry": {"type": "Point", "coordinates": [-0.76314, 52.02751]}},
{"type": "Feature", "id": "l6O19FSmNyX-v-J6hTXVqCf5pv4=", "properties": {"ref": "https://www.tapi.co.uk/stores/new-malden", "@spider": "tapi_gb", "shop": "carpet", "addr:street_address": "Unit 7 Beverley Way", "addr:postcode": "KT3 4PH", "addr:country": "GB", "name": "Tapi Carpets & Floors New Malden", "phone": "020 3846 1090", "website": "https://www.tapi.co.uk/stores/new-malden", "image": "https://www.tapi.co.uk/images_stores/tapi-carpets-new-malden-web.jpg", "brand": "Tapi", "brand:wikidata": "Q79223951", "nsi_id": "tapicarpets-40b39f"}, "geometry": {"type": "Point", "coordinates": [-0.243394, 51.400639]}},
{"type": "Feature", "id": "aCyjh3M9wfGYWcMcLUAS-23luY4=", "properties": {"ref": "https://www.tapi.co.uk/stores/newport", "@spider": "tapi_gb", "shop": "carpet", "addr:street_address": "Unit 15 Newport Retail Park, Spytty Road", "addr:postcode": "NP19 4QQ", "addr:country": "GB", "name": "Tapi Carpets & Floors Newport", "phone": "01633 973 020", "website": "https://www.tapi.co.uk/stores/newport-", "image": "https://www.tapi.co.uk/images_stores/tapi-carpets-newport-web.jpg", "brand": "Tapi", "brand:wikidata": "Q79223951", "nsi_id": "tapicarpets-40b39f"}, "geometry": {"type": "Point", "coordinates": [-2.943912, 51.57676]}},
{"type": "Feature", "id": "uelvWdErFCCVfouyc5iXR9d6zwA=", "properties": {"ref": "https://www.tapi.co.uk/stores/irvine", "@spider": "tapi_gb", "shop": "carpet", "addr:street_address": "4 Riverway Retail Park", "addr:postcode": "KA12 8AG", "addr:country": "GB", "name": "Tapi Carpets & Floors Irvine", "phone": "01294 440 220", "website": "https://www.tapi.co.uk/stores/irvine", "image": "https://www.tapi.co.uk/images_stores/tapi-carpets-irvine-web.jpg", "brand": "Tapi", "brand:wikidata": "Q79223951", "nsi_id": "tapicarpets-40b39f"}, "geometry": {"type": "Point", "coordinates": [-4.672052, 55.610092]}},
{"type": "Feature", "id": "lEhBSWnuU0CjZSc_cX-L8BmYCy4=", "properties": {"ref": "https://www.tapi.co.uk/stores/bridgend", "@spider": "tapi_gb", "shop": "carpet", "addr:street_address": "Unit 10 Royal London Park, Waterton Industrial Estate", "addr:postcode": "CF31 3TN", "addr:country": "GB", "name": "Tapi Carpets & Floors Bridgend", "phone": "01656 334 000", "website": "https://www.tapi.co.uk/stores/bridgend", "image": "https://www.tapi.co.uk/images_stores/tapi-carpets-bridgend-web.jpg", "brand": "Tapi", "brand:wikidata": "Q79223951", "nsi_id": "tapicarpets-40b39f"}, "geometry": {"type": "Point", "coordinates": [-3.539194, 51.499382]}},
{"type": "Feature", "id": "QqS8oI_QT7GsB6cdSjZciVE2Jvk=", "properties": {"ref": "https://www.tapi.co.uk/stores/elgin", "@spider": "tapi_gb", "shop": "carpet", "addr:street_address": "Unit 1B Springfield Retail Park, Edgar Road", "addr:postcode": "IV30 6WQ", "addr:country": "GB", "name": "Tapi Carpets & Floors Elgin", "phone": "01343 612 260", "website": "https://www.tapi.co.uk/stores/elgin", "image": "https://www.tapi.co.uk/images_stores/tapi-carpets-elgin-web.jpg", "brand": "Tapi", "brand:wikidata": "Q79223951", "nsi_id": "tapicarpets-40b39f"}, "geometry": {"type": "Point", "coordinates": [-3.311667, 57.63987]}},
{"type": "Feature", "id": "2_PnRGYN0czBsIGhS6z0gSqohe0=", "properties": {"ref": "https://www.tapi.co.uk/stores/basildon", "@spider": "tapi_gb", "shop": "carpet", "addr:street_address": "Unit 1B Mayflower Retail Park, Gardiners Link", "addr:postcode": "SS14 3HZ", "addr:country": "GB", "name": "Tapi Carpets & Floors Basildon", "phone": "01268 988 490", "website": "https://www.tapi.co.uk/stores/basildon", "image": "https://www.tapi.co.uk/images_stores/tapi-carpets-basildon-web.jpg", "brand": "Tapi", "brand:wikidata": "Q79223951", "nsi_id": "tapicarpets-40b39f"}, "geometry": {"type": "Point", "coordinates": [0.4814325, 51.591159]}},
{"type": "Feature", "id": "DiDPHWbZOsWdoLZ6eIHBGD_mraY=", "properties": {"ref": "https://www.tapi.co.uk/stores/stirling", "@spider": "tapi_gb", "shop": "carpet", "addr:street_address": "Unit 3 Springkerse Retail Park , Muirton Road", "addr:postcode": "FK7 7TL", "addr:country": "GB", "name": "Tapi Carpets & Floors Stirling", "phone": "01786 235 680", "website": "https://www.tapi.co.uk/stores/stirling", "image": "https://www.tapi.co.uk/images_stores/tapi-carpets-stirling-web.jpg", "brand": "Tapi", "brand:wikidata": "Q79223951", "nsi_id": "tapicarpets-40b39f"}, "geometry": {"type": "Point", "coordinates": [-3.911194, 56.114067]}},
{"type": "Feature", "id": "NELwxqkPSQDGhvNIRPtnt7h9qCM=", "properties": {"ref": "https://www.tapi.co.uk/stores/straiton", "@spider": "tapi_gb", "shop": "carpet", "addr:street_address": "Unit 3a Straiton Retail Park, Loanhead", "addr:city": "Straiton", "addr:postcode": "EH20 9PW", "addr:country": "GB", "name": "Tapi Carpets & Floors Straiton", "phone": "0131 322 2020", "website": "https://www.tapi.co.uk/stores/straiton", "image": "https://www.tapi.co.uk/images_stores/tapi-carpets-straiton-web.jpg", "brand": "Tapi", "brand:wikidata": "Q79223951", "nsi_id": "tapicarpets-40b39f"}, "geometry": {"type": "Point", "coordinates": [-3.163256, 55.88435]}},
{"type": "Feature", "id": "Q_BOMER20LEHc7txLtlFexuc0ro=", "properties": {"ref": "https://www.tapi.co.uk/stores/chippenham", "@spider": "tapi_gb", "shop": "carpet", "addr:street_address": "Hathaway Retail Park, Foundry Lane", "addr:postcode": "SN15 1JG", "addr:country": "GB", "name": "Tapi Carpets & Floors Chippenham", "phone": "01249 472 490", "website": "https://www.tapi.co.uk/stores/chippenham", "image": "https://www.tapi.co.uk/images_stores/tapi-carpets-chippenham-web.jpg", "brand": "Tapi", "brand:wikidata": "Q79223951", "nsi_id": "tapicarpets-40b39f"}, "geometry": {"type": "Point", "coordinates": [-2.116609, 51.46324]}},
{"type": "Feature", "id": "b00hUCn5cs5kIBE6GbWHe0GOt-w=", "properties": {"ref": "https://www.tapi.co.uk/stores/exeter", "@spider": "tapi_gb", "shop": "carpet", "addr:street_address": "Unit 6A Rydon Lane Retail Park, Digby Road", "addr:postcode": "EX2 7HX", "addr:country": "GB", "name": "Tapi Carpets & Floors Exeter", "phone": "01392 531 430", "website": "https://www.tapi.co.uk/stores/exeter", "image": "https://www.tapi.co.uk/images_stores/tapi-carpets-exeter-web.jpg", "brand": "Tapi", "brand:wikidata": "Q79223951", "nsi_id": "tapicarpets-40b39f"}, "geometry": {"type": "Point", "coordinates": [-3.482674, 50.711301]}},
{"type": "Feature", "id": "xLyM084gTVZJ5wkt0EKun2fhaKo=", "properties": {"ref": "https://www.tapi.co.uk/stores/ipswich", "@spider": "tapi_gb", "shop": "carpet", "addr:street_address": "Unit 5 Futura Retail Park, James Bennett Avenue", "addr:postcode": "IP3 9SR", "addr:country": "GB", "name": "Tapi Carpets & Floors Ipswich", "phone": "01473 351 670", "website": "https://www.tapi.co.uk/stores/ipswich-", "image": "https://www.tapi.co.uk/images_stores/tapi-carpets-ipswich-web.jpg", "brand": "Tapi", "brand:wikidata": "Q79223951", "nsi_id": "tapicarpets-40b39f"}, "geometry": {"type": "Point", "coordinates": [1.2029466, 52.033137]}},
{"type": "Feature", "id": "h-ud7oYqXhGDz8E_ORBwMsK5J3w=", "properties": {"ref": "https://www.tapi.co.uk/stores/horsham", "@spider": "tapi_gb", "shop": "carpet", "addr:street_address": "29 West Street", "addr:postcode": "RH12 1PB", "addr:country": "GB", "name": "Tapi Carpets & Floors Horsham", "phone": "01403 338 160", "website": "https://www.tapi.co.uk/stores/horsham", "image": "https://www.tapi.co.uk/images_stores/tapi-carpets-horsham-web.jpg", "brand": "Tapi", "brand:wikidata": "Q79223951", "nsi_id": "tapicarpets-40b39f"}, "geometry": {"type": "Point", "coordinates": [-0.331879, 51.063155]}},
{"type": "Feature", "id": "g46UD20MPzXYEy0SC5vh-SbOhHc=", "properties": {"ref": "https://www.tapi.co.uk/stores/thanet", "@spider": "tapi_gb", "shop": "carpet", "addr:street_address": "Unit B1 Westwood Retail Park , Westwood Road", "addr:city": "Broadstairs", "addr:postcode": "CT10 2RQ", "addr:country": "GB", "name": "Tapi Carpets & Floors Thanet", "phone": "01843 268 880", "website": "https://www.tapi.co.uk/stores/thanet", "image": "https://www.tapi.co.uk/images_stores/tapi-carpets-thanet-web.jpg", "brand": "Tapi", "brand:wikidata": "Q79223951", "nsi_id": "tapicarpets-40b39f"}, "geometry": {"type": "Point", "coordinates": [1.395708, 51.36132]}},
{"type": "Feature", "id": "s7-FrDQaReCOaAv20yRMv9ui2lo=", "properties": {"ref": "https://www.tapi.co.uk/stores/hull", "@spider": "tapi_gb", "shop": "carpet", "addr:street_address": "Unit 2 Clough Road Retail Park, Clough Road", "addr:postcode": "HU5 1SP", "addr:country": "GB", "name": "Tapi Carpets & Floors Hull", "phone": "01482 296 680", "website": "https://www.tapi.co.uk/stores/hull", "image": "https://www.tapi.co.uk/images_stores/tapi-carpets-hull-web.jpg", "brand": "Tapi", "brand:wikidata": "Q79223951", "nsi_id": "tapicarpets-40b39f"}, "geometry": {"type": "Point", "coordinates": [-0.344982, 53.767329]}},
{"type": "Feature", "id": "xHYKqBtbmDsbGq0visDOxFdQA88=", "properties": {"ref": "https://www.tapi.co.uk/stores/luton", "@spider": "tapi_gb", "shop": "carpet", "addr:street_address": "Unit 6b Luton Retail Park, Gipsy Lane", "addr:postcode": "LU1 3JH", "addr:country": "GB", "name": "Tapi Carpets & Floors Luton", "phone": "01582 280 110", "website": "https://www.tapi.co.uk/stores/luton", "image": "https://www.tapi.co.uk/images_stores/tapi-carpets-luton-web.jpg", "brand": "Tapi", "brand:wikidata": "Q79223951", "nsi_id": "tapicarpets-40b39f"}, "geometry": {"type": "Point", "coordinates": [-0.398163, 51.873167]}},
{"type": "Feature", "id": "1tWz6ZxM3kCzcRaQPd5QtGgNEgA=", "properties": {"ref": "https://www.tapi.co.uk/stores/slough", "@spider": "tapi_gb", "shop": "carpet", "addr:street_address": "Bath Road Shopping Park, Bath Road", "addr:postcode": "SL1 4DX", "addr:country": "GB", "name": "Tapi Carpets & Floors Slough", "phone": "01753 916 340", "website": "https://www.tapi.co.uk/stores/slough", "image": "https://www.tapi.co.uk/images_stores/tapi-carpets-slough-web.jpg", "brand": "Tapi", "brand:wikidata": "Q79223951", "nsi_id": "tapicarpets-40b39f"}, "geometry": {"type": "Point", "coordinates": [-0.635637, 51.521326]}},
{"type": "Feature", "id": "hUpebVhv1TFBg2Es96U0z9aAYtQ=", "properties": {"ref": "https://www.tapi.co.uk/stores/glasgow", "@spider": "tapi_gb", "shop": "carpet", "addr:street_address": "Unit 6 Great Western Retail Park, Great Western Road", "addr:postcode": "G15 6RX", "addr:country": "GB", "name": "Tapi Carpets & Floors Glasgow", "phone": "0141 648 9400", "website": "https://www.tapi.co.uk/stores/glasgow", "image": "https://www.tapi.co.uk/images_stores/tapi-carpets-glasgow-web.jpg", "brand": "Tapi", "brand:wikidata": "Q79223951", "nsi_id": "tapicarpets-40b39f"}, "geometry": {"type": "Point", "coordinates": [-4.375997, 55.905011]}},
{"type": "Feature", "id": "GTXiRwIz5cs7wes2o6_1Lm8ivPQ=", "properties": {"ref": "https://www.tapi.co.uk/stores/peterborough", "@spider": "tapi_gb", "shop": "carpet", "addr:street_address": "Unit B1 Brotherhood Shopping Park, Lincoln Road", "addr:postcode": "PE4 6ZR", "addr:country": "GB", "name": "Tapi Carpets & Floors Peterborough", "phone": "01733 857 070", "website": "https://www.tapi.co.uk/stores/peterborough", "image": "https://www.tapi.co.uk/images_stores/tapi-carpets-peterborough-web.jpg", "brand": "Tapi", "brand:wikidata": "Q79223951", "nsi_id": "tapicarpets-40b39f"}, "geometry": {"type": "Point", "coordinates": [-0.264431, 52.598537]}},
{"type": "Feature", "id": "9khDTYE5oLwyEnCMPJ_y35I5pew=", "properties": {"ref": "https://www.tapi.co.uk/stores/livingston", "@spider": "tapi_gb", "shop": "carpet", "addr:street_address": "Unit 6 Almondvale Retail Park", "addr:postcode": "EH54 6RQ", "addr:country": "GB", "name": "Tapi Carpets & Floors Livingston", "phone": "01506 537 680", "website": "https://www.tapi.co.uk/stores/livingston", "image": "https://www.tapi.co.uk/images_stores/tapi-carpets-livingston-web.jpg", "brand": "Tapi", "brand:wikidata": "Q79223951", "nsi_id": "tapicarpets-40b39f"}, "geometry": {"type": "Point", "coordinates": [-3.5225497, 55.8808971]}},
{"type": "Feature", "id": "x4Lq4YOdCs4yQWUL6k1HuSI1HCQ=", "properties": {"ref": "https://www.tapi.co.uk/stores/tunbridge-wells", "@spider": "tapi_gb", "shop": "carpet", "addr:street_address": "Unit 2 Longfield Retail Park, Longfield Road", "addr:postcode": "TN2 3HL", "addr:country": "GB", "name": "Tapi Carpets & Floors Tunbridge Wells", "phone": "01892 576 190", "website": "https://www.tapi.co.uk/stores/tunbridge-wells", "image": "https://www.tapi.co.uk/images_stores/tapi-carpets-tunbridge-wells-web.jpg", "brand": "Tapi", "brand:wikidata": "Q79223951", "nsi_id": "tapicarpets-40b39f"}, "geometry": {"type": "Point", "coordinates": [0.289511, 51.155644]}},
{"type": "Feature", "id": "iYZ6dmFgG3DsnEdwbFZroMJAoPo=", "properties": {"ref": "https://www.tapi.co.uk/stores/welwyn-garden-city", "@spider": "tapi_gb", "shop": "carpet", "addr:street_address": "52 Howardsgate", "addr:postcode": "AL8 6BP", "addr:country": "GB", "name": "Tapi Carpets & Floors Welwyn Garden City", "phone": "01707 245 900", "website": "https://www.tapi.co.uk/stores/welwyn-garden-city", "image": "https://www.tapi.co.uk/images_stores/tapi-carpets-welwyn-web.jpg", "brand": "Tapi", "brand:wikidata": "Q79223951", "nsi_id": "tapicarpets-40b39f"}, "geometry": {"type": "Point", "coordinates": [-0.205704, 51.801028]}},
{"type": "Feature", "id": "bDB6W_wEck0nx27l6pHu3EKeaXQ=", "properties": {"ref": "https://www.tapi.co.uk/stores/beckton", "@spider": "tapi_gb", "shop": "carpet", "addr:street_address": "Unit 4 Beckton Gateway Retail Park, 8 Claps Gate Lane", "addr:postcode": "E6 6LG", "addr:country": "GB", "name": "Tapi Carpets & Floors Beckton", "phone": "020 3909 4310", "website": "https://www.tapi.co.uk/stores/beckton", "image": "https://www.tapi.co.uk/images_stores/tapi-carpets-beckton-web.jpg", "brand": "Tapi", "brand:wikidata": "Q79223951", "nsi_id": "tapicarpets-40b39f"}, "geometry": {"type": "Point", "coordinates": [0.0707124, 51.5207975]}},
{"type": "Feature", "id": "dIgUk_5S-3Ah-lSXbRd4QRcbBsA=", "properties": {"ref": "https://www.tapi.co.uk/stores/derby", "@spider": "tapi_gb", "shop": "carpet", "addr:street_address": "Unit 5 Wyvern Retail Park, Wyvern Way", "addr:postcode": "DE21 6NZ", "addr:country": "GB", "name": "Tapi Carpets & Floors Derby", "phone": "01332 418 230", "website": "https://www.tapi.co.uk/stores/derby", "image": "https://www.tapi.co.uk/images_stores/tapi-carpets-derby-web.jpg", "brand": "Tapi", "brand:wikidata": "Q79223951", "nsi_id": "tapicarpets-40b39f"}, "geometry": {"type": "Point", "coordinates": [-1.436179, 52.917522]}},
{"type": "Feature", "id": "tr53j0c3ZFcw506lc_PwAVeh4H0=", "properties": {"ref": "https://www.tapi.co.uk/stores/rugby", "@spider": "tapi_gb", "shop": "carpet", "addr:street_address": "Unit 21 Elliotts Field Shopping Park, Leicester Road", "addr:postcode": "CV21 1SR", "addr:country": "GB", "name": "Tapi Carpets & Floors Rugby", "phone": "01788 223 290", "website": "https://www.tapi.co.uk/stores/rugby", "image": "https://www.tapi.co.uk/images_stores/tapi-carpets-rugby-web.jpg", "brand": "Tapi", "brand:wikidata": "Q79223951", "nsi_id": "tapicarpets-40b39f"}, "geometry": {"type": "Point", "coordinates": [-1.26227, 52.38709]}},
{"type": "Feature", "id": "R8rAKEy0bO7PBAN29SCxX775i-A=", "properties": {"ref": "https://www.tapi.co.uk/stores/croydon", "@spider": "tapi_gb", "shop": "carpet", "addr:street_address": "Unit A2 Valley Retail & Leisure Park, Daniell Way", "addr:postcode": "CR0 4YJ", "addr:country": "GB", "name": "Tapi Carpets & Floors Croydon", "phone": "020 3954 6670", "website": "https://www.tapi.co.uk/stores/croydon", "image": "https://www.tapi.co.uk/images_stores/tapi-carpets-croydon-web.jpg", "brand": "Tapi", "brand:wikidata": "Q79223951", "nsi_id": "tapicarpets-40b39f"}, "geometry": {"type": "Point", "coordinates": [-0.125997, 51.37879]}},
{"type": "Feature", "id": "GvrrYIcpTX8nZbMoZ7gh7W84zt8=", "properties": {"ref": "https://www.tapi.co.uk/stores/harlow", "@spider": "tapi_gb", "shop": "carpet", "addr:street_address": "Unit 7 Queensgate Centre, Edinburgh Way", "addr:postcode": "CM20 2DA", "addr:country": "GB", "name": "Tapi Carpets & Floors Harlow", "phone": "01279 216 590", "website": "https://www.tapi.co.uk/stores/harlow", "image": "https://www.tapi.co.uk/images_stores/tapi-carpets-harlow-web.jpg", "brand": "Tapi", "brand:wikidata": "Q79223951", "nsi_id": "tapicarpets-40b39f"}, "geometry": {"type": "Point", "coordinates": [0.108566, 51.784539]}},
{"type": "Feature", "id": "sqOSNI9167vjwCC3beIGsh7J3rI=", "properties": {"ref": "https://www.tapi.co.uk/stores/bexleyheath", "@spider": "tapi_gb", "shop": "carpet", "addr:street_address": "122 Broadway", "addr:postcode": "DA6 7DQ", "addr:country": "GB", "name": "Tapi Carpets & Floors Bexleyheath", "phone": "020 8629 6820", "website": "https://www.tapi.co.uk/stores/bexleyheath", "image": "https://www.tapi.co.uk/images_stores/tapi-carpets-bexleyheath-web.jpg", "brand": "Tapi", "brand:wikidata": "Q79223951", "nsi_id": "tapicarpets-40b39f"}, "geometry": {"type": "Point", "coordinates": [0.1442, 51.4569153]}},
{"type": "Feature", "id": "b50LBgoqT6KcinoLBTxRKtyvICk=", "properties": {"ref": "https://www.tapi.co.uk/stores/chelmsford-clock-tower", "@spider": "tapi_gb", "shop": "carpet", "addr:street_address": "5 Clock Tower Retail Park, Westway", "addr:postcode": "CM1 3FJ", "addr:country": "GB", "name": "Tapi Carpets & Floors Chelmsford Clock Tower", "phone": "01245 673 030", "website": "https://www.tapi.co.uk/stores/chelmsford-clock-tower", "image": "https://www.tapi.co.uk/images_stores/tapi-carpets-chelmsfordclocktower-web.jpg", "brand": "Tapi", "brand:wikidata": "Q79223951", "nsi_id": "tapicarpets-40b39f"}, "geometry": {"type": "Point", "coordinates": [0.452895, 51.7234]}},
{"type": "Feature", "id": "-bGavwga_MDTxdPRmc3FXcesA54=", "properties": {"ref": "https://www.tapi.co.uk/stores/wellingborough", "@spider": "tapi_gb", "shop": "carpet", "addr:street_address": "Unit 5 Castlefields Retail Park , 21 London Road", "addr:postcode": "NN8 2DP", "addr:country": "GB", "name": "Tapi Carpets & Floors Wellingborough", "phone": "01933 425 950", "website": "https://www.tapi.co.uk/stores/wellingborough", "image": "https://www.tapi.co.uk/images_stores/tapi-carpets-wellingborough-web.jpg", "brand": "Tapi", "brand:wikidata": "Q79223951", "nsi_id": "tapicarpets-40b39f"}, "geometry": {"type": "Point", "coordinates": [-0.685925, 52.292753]}},
{"type": "Feature", "id": "ysIpb6Tknm6ja3LxRda0A00uIHg=", "properties": {"ref": "https://www.tapi.co.uk/stores/uddingston", "@spider": "tapi_gb", "shop": "carpet", "addr:street_address": "Unit 3 Birkenshaw Trading Estate, Rannoch Road", "addr:postcode": "G71 5PR", "addr:country": "GB", "name": "Tapi Carpets & Floors Uddingston", "phone": "01698 535 450", "website": "https://www.tapi.co.uk/stores/uddingston", "image": "https://www.tapi.co.uk/images_stores/tapi-carpets-uddingston-web.jpg", "brand": "Tapi", "brand:wikidata": "Q79223951", "nsi_id": "tapicarpets-40b39f"}, "geometry": {"type": "Point", "coordinates": [-4.08935, 55.836747]}},
{"type": "Feature", "id": "KROYzPw7lE120qKhuD-VbhL6-So=", "properties": {"ref": "https://www.tapi.co.uk/stores/wallasey", "@spider": "tapi_gb", "shop": "carpet", "addr:street_address": "Unit 6 Junction 1 Retail Park, Bidston Moss", "addr:postcode": "CH44 2HE", "addr:country": "GB", "name": "Tapi Carpets & Floors Wallasey", "phone": "01513 051 220", "website": "https://www.tapi.co.uk/stores/wallasey", "image": "https://www.tapi.co.uk/images_stores/tapi-carpets-wallasey-web.jpg", "brand": "Tapi", "brand:wikidata": "Q79223951", "nsi_id": "tapicarpets-40b39f"}, "geometry": {"type": "Point", "coordinates": [-3.073609, 53.41146]}},
{"type": "Feature", "id": "AY8lKQX1EoSOCjcugwSueidLPrI=", "properties": {"ref": "https://www.tapi.co.uk/stores/cardiff", "@spider": "tapi_gb", "shop": "carpet", "addr:street_address": "Unit 7 Cardiff Gate Retail Park, Dering Road", "addr:postcode": "CF23 8NL", "addr:country": "GB", "name": "Tapi Carpets & Floors Cardiff", "phone": "029 2167 6700", "website": "https://www.tapi.co.uk/stores/cardiff", "image": "https://www.tapi.co.uk/images_stores/tapi-carpets-cardiff-web.jpg", "brand": "Tapi", "brand:wikidata": "Q79223951", "nsi_id": "tapicarpets-40b39f"}, "geometry": {"type": "Point", "coordinates": [-3.128027, 51.536688]}},
{"type": "Feature", "id": "1VbNJawu5yLjJZGxUgE8hvW4AyM=", "properties": {"ref": "https://www.tapi.co.uk/stores/dundee", "@spider": "tapi_gb", "shop": "carpet", "addr:street_address": "Unit A3C Kingsway West Retail Park, 467 Clepington Road", "addr:postcode": "DD3 8RX", "addr:country": "GB", "name": "Tapi Carpets & Floors Dundee", "phone": "01382 768 800", "website": "https://www.tapi.co.uk/stores/dundee", "image": "https://www.tapi.co.uk/images_stores/tapi-carpets-dundee-web.jpg", "brand": "Tapi", "brand:wikidata": "Q79223951", "nsi_id": "tapicarpets-40b39f"}, "geometry": {"type": "Point", "coordinates": [-2.994469, 56.480993]}},
{"type": "Feature", "id": "odITFximoinrCaRqY2moJE-V0Rk=", "properties": {"ref": "https://www.tapi.co.uk/stores/cambridge", "@spider": "tapi_gb", "shop": "carpet", "addr:street_address": "Unit 1A Beehive Centre, Coldhams Lane", "addr:postcode": "CB1 3ET", "addr:country": "GB", "name": "Tapi Carpets & Floors Cambridge", "phone": "01223 941 670", "website": "https://www.tapi.co.uk/stores/cambridge", "image": "https://www.tapi.co.uk/images_stores/tapi-carpets-cambridge-web.jpg", "brand": "Tapi", "brand:wikidata": "Q79223951", "nsi_id": "tapicarpets-40b39f"}, "geometry": {"type": "Point", "coordinates": [0.14451, 52.20499]}},
{"type": "Feature", "id": "l6Wc9xOyNuWLY-yBSYKROF1CPIU=", "properties": {"ref": "https://www.tapi.co.uk/stores/bedford", "@spider": "tapi_gb", "shop": "carpet", "addr:street_address": "Unit 2b St John's Retail Park, Rope Walk", "addr:postcode": "MK42 0XE", "addr:country": "GB", "name": "Tapi Carpets & Floors Bedford", "phone": "01234 868 230", "website": "https://www.tapi.co.uk/stores/bedford", "image": "https://www.tapi.co.uk/images_stores/tapi-carpets-bedford-web.jpg", "brand": "Tapi", "brand:wikidata": "Q79223951", "nsi_id": "tapicarpets-40b39f"}, "geometry": {"type": "Point", "coordinates": [-0.461255, 52.130344]}},
{"type": "Feature", "id": "OeQGukq4HmYz8dZJOAq0MGO5SyI=", "properties": {"ref": "https://www.tapi.co.uk/stores/wolverhampton", "@spider": "tapi_gb", "shop": "carpet", "addr:street_address": "St Johns Retail Park", "addr:postcode": "WV2 4SJ", "addr:country": "GB", "name": "Tapi Carpets & Floors Wolverhampton", "phone": "01902 904 690", "website": "https://www.tapi.co.uk/stores/wolverhampton", "image": "https://www.tapi.co.uk/images_stores/tapi-carpets-wolverhampton-web.jpg", "brand": "Tapi", "brand:wikidata": "Q79223951", "nsi_id": "tapicarpets-40b39f"}, "geometry": {"type": "Point", "coordinates": [-2.126984, 52.579342]}},
{"type": "Feature", "id": "wGrv011l2V0YWkaVhjku5y61H8o=", "properties": {"ref": "https://www.tapi.co.uk/stores/thurrock", "@spider": "tapi_gb", "shop": "carpet", "addr:street_address": "Unit A3, Lakeside Retail Park", "addr:postcode": "RM20 1WN", "addr:country": "GB", "name": "Tapi Carpets & Floors Thurrock", "phone": "01708 208 420", "website": "https://www.tapi.co.uk/stores/thurrock", "image": "https://www.tapi.co.uk/images_stores/tapi-carpets-thurrock-web.jpg", "brand": "Tapi", "brand:wikidata": "Q79223951", "nsi_id": "tapicarpets-40b39f"}, "geometry": {"type": "Point", "coordinates": [0.278726, 51.485845]}}]}