{"type":"FeatureCollection","features":[{"type": "Feature", "id": "PeiN54FA0LqwKcRMuhe-vvXvcmk=", "properties": {"ref": "15", "@spider": "teds_montana_grill", "amenity": "restaurant", "cuisine": "american", "addr:full": "16495 East 40th Circle, Aurora, CO 80011", "addr:street_address": "16495 East 40th Circle", "addr:city": "Aurora", "addr:state": "Colorado", "addr:postcode": "Aurora, CO 80011", "name": "Ted's Montana Grill", "phone": "720-374-7220", "brand": "Ted's Montana Grill", "brand:wikidata": "Q16953170", "nsi_id": "tedsmontanagrill-96af40"}},
{"type": "Feature", "id": "7HR5oUDI_pYSpl2jpzgIrmgAClA=", "properties": {"ref": "47", "@spider": "teds_montana_grill", "amenity": "restaurant", "cuisine": "american", "addr:full": "6105 South Main Street, Suite 101, Aurora, CO 80015", "addr:street_address": "6105 South Main Street, Suite 101", "addr:city": "Aurora", "addr:state": "Colorado", "addr:postcode": "Aurora, CO 80015", "name": "Ted's Montana Grill", "phone": "720-870-4470", "brand": "Ted's Montana Grill", "brand:wikidata": "Q16953170", "nsi_id": "tedsmontanagrill-96af40"}},
{"type": "Feature", "id": "dZrReiF0MJniqwDsuHTRHFxsay8=", "properties": {"ref": "11", "@spider": "teds_montana_grill", "amenity": "restaurant", "cuisine": "american", "addr:full": "1685 Briargate Parkway, Colorado Springs, CO 80920", "addr:street_address": "1685 Briargate Parkway", "addr:city": "Colorado Springs", "addr:state": "Colorado", "addr:postcode": "Colorado Springs, CO 80920", "name": "Ted's Montana Grill", "phone": "719-598-6195", "brand": "Ted's Montana Grill", "brand:wikidata": "Q16953170", "nsi_id": "tedsmontanagrill-96af40"}},
{"type": "Feature", "id": "fOzXEw8eJwOl6smz-w6zMFZEDeA=", "properties": {"ref": "6", "@spider": "teds_montana_grill", "amenity": "restaurant", "cuisine": "american", "addr:full": "1401 Larimer Street, Denver, CO 80202", "addr:street_address": "1401 Larimer Street", "addr:city": "Denver", "addr:state": "Colorado", "addr:postcode": "Denver, CO 80202", "name": "Ted's Montana Grill", "phone": "303-893-0654", "brand": "Ted's Montana Grill", "brand:wikidata": "Q16953170", "nsi_id": "tedsmontanagrill-96af40"}},
{"type": "Feature", "id": "CuwFtbQWuxzfj1ty7DgIdZ7jVrw=", "properties": {"ref": "49", "@spider": "teds_montana_grill", "amenity": "restaurant", "cuisine": "american", "addr:full": "5370 Greenwood Plaza Blvd, Suite 110, Greenwood Village, CO 80111", "addr:street_address": "5370 Greenwood Plaza Blvd, Suite 110", "addr:city": "Greenwood Village", "addr:state": "Colorado", "addr:postcode": "Greenwood Village, CO 80111", "name": "Ted's Montana Grill", "phone": "303-771-3038", "brand": "Ted's Montana Grill", "brand:wikidata": "Q16953170", "nsi_id": "tedsmontanagrill-96af40"}},
{"type": "Feature", "id": "NoPATkzEKVl4B4ux0PjkHRBi-PE=", "properties": {"ref": "25", "@spider": "teds_montana_grill", "amenity": "restaurant", "cuisine": "american", "addr:full": "330 S. Teller St., Bldg. 3M1, Lakewood, CO 80226", "addr:street_address": "330 S. Teller St., Bldg. 3M1", "addr:city": "Lakewood", "addr:state": "Colorado", "addr:postcode": "Lakewood, CO 80226", "name": "Ted's Montana Grill", "phone": "303-922-7770", "brand": "Ted's Montana Grill", "brand:wikidata": "Q16953170", "nsi_id": "tedsmontanagrill-96af40"}},
{"type": "Feature", "id": "v9dy9RLkA2NKIQEQlVeT0SuQyII=", "properties": {"ref": "5", "@spider": "teds_montana_grill", "amenity": "restaurant", "cuisine": "american", "addr:full": "7301 S. Santa Fe Drive, Suite 610, Littleton, CO 80120", "addr:street_address": "7301 S. Santa Fe Drive, Suite 610", "addr:city": "Littleton", "addr:state": "Colorado", "addr:postcode": "Littleton, CO 80120", "name": "Ted's Montana Grill", "phone": "720-283-2303", "brand": "Ted's Montana Grill", "brand:wikidata": "Q16953170", "nsi_id": "tedsmontanagrill-96af40"}},
{"type": "Feature", "id": "l76N2jkEr74NtMzDMT8rVdpc_Yk=", "properties": {"ref": "30", "@spider": "teds_montana_grill", "amenity": "restaurant", "cuisine": "american", "addr:full": "11950 Bradburn Blvd., Westminster, CO 80031", "addr:street_address": "11950 Bradburn Blvd.", "addr:city": "Westminster", "addr:state": "Colorado", "addr:postcode": "Westminster, CO 80031", "name": "Ted's Montana Grill", "phone": "303-410-8337", "brand": "Ted's Montana Grill", "brand:wikidata": "Q16953170", "nsi_id": "tedsmontanagrill-96af40"}},
{"type": "Feature", "id": "JEuHKa7mk8fpYKRXB5Mrv9Q_wTA=", "properties": {"ref": "36", "@spider": "teds_montana_grill", "amenity": "restaurant", "cuisine": "american", "addr:full": "500 Evergreen Way, Suite 500, South Windsor, CT 06074", "addr:street_address": "500 Evergreen Way, Suite 500", "addr:city": "South Windsor", "addr:state": "Connecticut", "addr:postcode": "South Windsor, CT 06074", "name": "Ted's Montana Grill", "phone": "860-648-1100", "brand": "Ted's Montana Grill", "brand:wikidata": "Q16953170", "nsi_id": "tedsmontanagrill-96af40"}},
{"type": "Feature", "id": "Hfd0e3310OFcgodIoPvgkhti5-8=", "properties": {"ref": "67", "@spider": "teds_montana_grill", "amenity": "restaurant", "cuisine": "american", "addr:full": "3194 Fashion Center Boulevard, Newark, DE 19702", "addr:street_address": "3194 Fashion Center Boulevard", "addr:city": "Newark", "addr:state": "Delaware", "addr:postcode": "Newark, DE 19702", "name": "Ted's Montana Grill", "phone": "302-366-1601 ", "brand": "Ted's Montana Grill", "brand:wikidata": "Q16953170", "nsi_id": "tedsmontanagrill-96af40"}},
{"type": "Feature", "id": "joeAY84jC_4PJIXegLsewatWPog=", "properties": {"ref": "32", "@spider": "teds_montana_grill", "amenity": "restaurant", "cuisine": "american", "addr:full": "8017 Plaza Del Lago Drive, Estero, FL 33928", "addr:street_address": "8017 Plaza Del Lago Drive", "addr:city": "Estero", "addr:state": "Florida", "addr:postcode": "Estero, FL 33928", "name": "Ted's Montana Grill", "phone": "239-947-9318", "brand": "Ted's Montana Grill", "brand:wikidata": "Q16953170", "nsi_id": "tedsmontanagrill-96af40"}},
{"type": "Feature", "id": "gT3ZWwzxj3RfvwfZwW0HoPHzOBU=", "properties": {"ref": "34", "@spider": "teds_montana_grill", "amenity": "restaurant", "cuisine": "american", "addr:full": "8635 Blanding Blvd., Jacksonville, FL 32244", "addr:street_address": "8635 Blanding Blvd.", "addr:city": "Jacksonville", "addr:state": "Florida", "addr:postcode": "Jacksonville, FL 32244", "name": "Ted's Montana Grill", "phone": "904-771-1964", "brand": "Ted's Montana Grill", "brand:wikidata": "Q16953170", "nsi_id": "tedsmontanagrill-96af40"}},
{"type": "Feature", "id": "oIfmK-uMiz4WXr-UNZF0F9S3-NE=", "properties": {"ref": "38", "@spider": "teds_montana_grill", "amenity": "restaurant", "cuisine": "american", "addr:full": "10281 Midtown Parkway, Suite 221, Jacksonville, FL 32246", "addr:street_address": "10281 Midtown Parkway, Suite 221", "addr:city": "Jacksonville", "addr:state": "Florida", "addr:postcode": "Jacksonville, FL 32246", "name": "Ted's Montana Grill", "phone": "904-998-0010", "brand": "Ted's Montana Grill", "brand:wikidata": "Q16953170", "nsi_id": "tedsmontanagrill-96af40"}},
{"type": "Feature", "id": "p1eC3mi76Y3y9PImotEuRkRaQxc=", "properties": {"ref": "39", "@spider": "teds_montana_grill", "amenity": "restaurant", "cuisine": "american", "addr:full": "1954 Village Green Way, Tallahassee, FL 32308", "addr:street_address": "1954 Village Green Way", "addr:city": "Tallahassee", "addr:state": "Florida", "addr:postcode": "Tallahassee, FL 32308", "name": "Ted's Montana Grill", "phone": "850-561-8337", "brand": "Ted's Montana Grill", "brand:wikidata": "Q16953170", "nsi_id": "tedsmontanagrill-96af40"}},
{"type": "Feature", "id": "TOlpO_xXYfxBxOnT7UtQi9JWnPk=", "properties": {"ref": "62", "@spider": "teds_montana_grill", "amenity": "restaurant", "cuisine": "american", "addr:full": "6100 Avalon Boulevard, Alpharetta, GA 30009", "addr:street_address": "6100 Avalon Boulevard", "addr:city": "Alpharetta", "addr:state": "Georgia", "addr:postcode": "Alpharetta, GA 30009", "name": "Ted's Montana Grill", "phone": "678-710-9025", "brand": "Ted's Montana Grill", "brand:wikidata": "Q16953170", "nsi_id": "tedsmontanagrill-96af40"}},
{"type": "Feature", "id": "OLdM-cgtbBN6uEXHGWiWk9IHPXI=", "properties": {"ref": "1", "@spider": "teds_montana_grill", "amenity": "restaurant", "cuisine": "american", "addr:full": "133 Luckie Street, Atlanta, GA 30303", "addr:street_address": "133 Luckie Street", "addr:city": "Atlanta", "addr:state": "Georgia", "addr:postcode": "Atlanta, GA 30303", "name": "Ted's Montana Grill", "phone": "404-521-9796", "brand": "Ted's Montana Grill", "brand:wikidata": "Q16953170", "nsi_id": "tedsmontanagrill-96af40"}},
{"type": "Feature", "id": "vzl9CGS6yKev6KXFIeJasWvUgyk=", "properties": {"ref": "70", "@spider": "teds_montana_grill", "amenity": "restaurant", "cuisine": "american", "addr:full": "2250 Marietta Blvd NW, Atlanta, GA 30318", "addr:street_address": "2250 Marietta Blvd NW", "addr:city": "Atlanta", "addr:state": "Georgia", "addr:postcode": "Atlanta, GA 30318", "name": "Ted's Montana Grill", "phone": "404-343-3406", "brand": "Ted's Montana Grill", "brand:wikidata": "Q16953170", "nsi_id": "tedsmontanagrill-96af40"}},
{"type": "Feature", "id": "SGieQcKqRoM5Aeoy4MuArfCmNj4=", "properties": {"ref": "8", "@spider": "teds_montana_grill", "amenity": "restaurant", "cuisine": "american", "addr:full": "1680 Mall of Georgia Blvd., Suite 1755, Buford, GA 30519", "addr:street_address": "1680 Mall of Georgia Blvd., Suite 1755", "addr:city": "Buford", "addr:state": "Georgia", "addr:postcode": "Buford, GA 30519", "name": "Ted's Montana Grill", "phone": "678-546-3631", "brand": "Ted's Montana Grill", "brand:wikidata": "Q16953170", "nsi_id": "tedsmontanagrill-96af40"}},
{"type": "Feature", "id": "CPQChlpa7_jbjINN_KB038ap8Xg=", "properties": {"ref": "60", "@spider": "teds_montana_grill", "amenity": "restaurant", "cuisine": "american", "addr:full": "410 Peachtree Parkway, Suite 100, Cumming, GA 30041", "addr:street_address": "410 Peachtree Parkway, Suite 100", "addr:city": "Cumming", "addr:state": "Georgia", "addr:postcode": "Cumming, GA 30041", "name": "Ted's Montana Grill", "phone": "678-947-3530", "brand": "Ted's Montana Grill", "brand:wikidata": "Q16953170", "nsi_id": "tedsmontanagrill-96af40"}},
{"type": "Feature", "id": "RgiVVxHEs_4-CwteEo-gaZyOuH0=", "properties": {"ref": "10", "@spider": "teds_montana_grill", "amenity": "restaurant", "cuisine": "american", "addr:full": "2500 Cobb Place Lane, Suite 210, Kennesaw, GA 30144", "addr:street_address": "2500 Cobb Place Lane, Suite 210", "addr:city": "Kennesaw", "addr:state": "Georgia", "addr:postcode": "Kennesaw, GA 30144", "name": "Ted's Montana Grill", "phone": "678-581-7890", "brand": "Ted's Montana Grill", "brand:wikidata": "Q16953170", "nsi_id": "tedsmontanagrill-96af40"}},
{"type": "Feature", "id": "vPOGXa7beOVJyI3FJbDQnuByuZI=", "properties": {"ref": "58", "@spider": "teds_montana_grill", "amenity": "restaurant", "cuisine": "american", "addr:full": "1250 Scenic Highway, Suite 1720, Lawrenceville, GA 30045", "addr:street_address": "1250 Scenic Highway, Suite 1720", "addr:city": "Lawrenceville", "addr:state": "Georgia", "addr:postcode": "Lawrenceville, GA 30045", "name": "Ted's Montana Grill", "phone": "770-979-6202", "brand": "Ted's Montana Grill", "brand:wikidata": "Q16953170", "nsi_id": "tedsmontanagrill-96af40"}},
{"type": "Feature", "id": "Fz7fxInw9eiSSTWdd3PDDWggm8c=", "properties": {"ref": "42", "@spider": "teds_montana_grill", "amenity": "restaurant", "cuisine": "american", "addr:full": "640 Johnson Ferry Road, Marietta, GA 30068", "addr:street_address": "640 Johnson Ferry Road", "addr:city": "Marietta", "addr:state": "Georgia", "addr:postcode": "Marietta, GA 30068", "name": "Ted's Montana Grill", "phone": "770-578-8337", "brand": "Ted's Montana Grill", "brand:wikidata": "Q16953170", "nsi_id": "tedsmontanagrill-96af40"}},
{"type": "Feature", "id": "otzZlw-0tazogQjn7X-6L5mAqJo=", "properties": {"ref": "14", "@spider": "teds_montana_grill", "amenity": "restaurant", "cuisine": "american", "addr:full": "3625 Dallas Highway SW, Suite 700, Marietta, GA 30064", "addr:street_address": "3625 Dallas Highway SW, Suite 700", "addr:city": "Marietta", "addr:state": "Georgia", "addr:postcode": "Marietta, GA 30064", "name": "Ted's Montana Grill", "phone": "678-594-7242", "brand": "Ted's Montana Grill", "brand:wikidata": "Q16953170", "nsi_id": "tedsmontanagrill-96af40"}},
{"type": "Feature", "id": "7PHmAz2LOD3kDFP_GYP4rmg9LxQ=", "properties": {"ref": "3", "@spider": "teds_montana_grill", "amenity": "restaurant", "cuisine": "american", "addr:full": "314 City Circle, Suite 1320, Peachtree City, GA 30269", "addr:street_address": "314 City Circle, Suite 1320", "addr:city": "Peachtree City", "addr:state": "Georgia", "addr:postcode": "Peachtree City, GA 30269", "name": "Ted's Montana Grill", "phone": "678-829-0272", "brand": "Ted's Montana Grill", "brand:wikidata": "Q16953170", "nsi_id": "tedsmontanagrill-96af40"}},
{"type": "Feature", "id": "bnx4KdFwukVz9yNkTRivDIvR-xM=", "properties": {"ref": "4", "@spider": "teds_montana_grill", "amenity": "restaurant", "cuisine": "american", "addr:full": "5165 Peachtree Parkway, Suite 205, Peachtree Corners, GA 30092", "addr:street_address": "5165 Peachtree Parkway, Suite 205", "addr:city": "Peachtree Corners", "addr:state": "Georgia", "addr:postcode": "Peachtree Corners, GA 30092", "name": "Ted's Montana Grill", "phone": "678-405-0305", "brand": "Ted's Montana Grill", "brand:wikidata": "Q16953170", "nsi_id": "tedsmontanagrill-96af40"}},
{"type": "Feature", "id": "abWXLdSZwkL16fjNzNs1h9gL_qk=", "properties": {"ref": "55", "@spider": "teds_montana_grill", "amenity": "restaurant", "cuisine": "american", "addr:full": "623 E. Boughton Road, Suite 110, Bolingbrook, IL 60440", "addr:street_address": "623 E. Boughton Road, Suite 110", "addr:city": "Bolingbrook", "addr:state": "Illinois", "addr:postcode": "Bolingbrook, IL 60440", "name": "Ted's Montana Grill", "phone": "630-783-2493", "brand": "Ted's Montana Grill", "brand:wikidata": "Q16953170", "nsi_id": "tedsmontanagrill-96af40"}},
{"type": "Feature", "id": "JLfhYkAetj7gqPcOMZLo0Q352jU=", "properties": {"ref": "40", "@spider": "teds_montana_grill", "amenity": "restaurant", "cuisine": "american", "addr:full": "5910 West 86th Street, Suite 134, Indianapolis, IN 46278", "addr:street_address": "5910 West 86th Street, Suite 134", "addr:city": "Indianapolis", "addr:state": "Indiana", "addr:postcode": "Indianapolis, IN 46278", "name": "Ted's Montana Grill", "phone": "317-875-8337", "brand": "Ted's Montana Grill", "brand:wikidata": "Q16953170", "nsi_id": "tedsmontanagrill-96af40"}},
{"type": "Feature", "id": "UPehbHt4_JRYzpPInb5il8fZTaE=", "properties": {"ref": "16", "@spider": "teds_montana_grill", "amenity": "restaurant", "cuisine": "american", "addr:full": "2304 Sir Barton Way, Suite 170, Lexington, KY 40509", "addr:street_address": "2304 Sir Barton Way, Suite 170", "addr:city": "Lexington", "addr:state": "Kentucky", "addr:postcode": "Lexington, KY 40509", "name": "Ted's Montana Grill", "phone": "859-263-5228", "brand": "Ted's Montana Grill", "brand:wikidata": "Q16953170", "nsi_id": "tedsmontanagrill-96af40"}},
{"type": "Feature", "id": "c2Ia8RuoMsU4qoeuZX-UcBNDQYk=", "properties": {"ref": "59", "@spider": "teds_montana_grill", "amenity": "restaurant", "cuisine": "american", "addr:full": "400 Union Street, Suite A104, Westborough, MA 01581", "addr:street_address": "400 Union Street, Suite A104", "addr:city": "Westborough", "addr:state": "Massachusetts", "addr:postcode": "Westborough, MA 01581", "name": "Ted's Montana Grill", "phone": "508-366-5050", "brand": "Ted's Montana Grill", "brand:wikidata": "Q16953170", "nsi_id": "tedsmontanagrill-96af40"}},
{"type": "Feature", "id": "Fe_eRFGXIPmNztxcvM8Bab8D_l4=", "properties": {"ref": "65", "@spider": "teds_montana_grill", "amenity": "restaurant", "cuisine": "american", "addr:full": "105 Ellington Boulevard, Gaithersburg, MD 20878", "addr:street_address": "105 Ellington Boulevard", "addr:city": "Gaithersburg", "addr:state": "Maryland", "addr:postcode": "Gaithersburg, MD 20878", "name": "Ted's Montana Grill", "phone": "301-330-0777", "brand": "Ted's Montana Grill", "brand:wikidata": "Q16953170", "nsi_id": "tedsmontanagrill-96af40"}},
{"type": "Feature", "id": "-v4TeLgBI0gOicLbwkMD5Wa-6V4=", "properties": {"ref": "61", "@spider": "teds_montana_grill", "amenity": "restaurant", "cuisine": "american", "addr:full": "105 W. Main Street, Suite B, Bozeman, MT 59715", "addr:street_address": "105 W. Main Street, Suite B", "addr:city": "Bozeman", "addr:state": "Montana", "addr:postcode": "Bozeman, MT 59715", "name": "Ted's Montana Grill", "phone": "406-587-6000", "brand": "Ted's Montana Grill", "brand:wikidata": "Q16953170", "nsi_id": "tedsmontanagrill-96af40"}},
{"type": "Feature", "id": "sysQrDUooxRI5nkQ98_oP1xC7dI=", "properties": {"ref": "68", "@spider": "teds_montana_grill", "amenity": "restaurant", "cuisine": "american", "addr:full": "7404 Waverly Walk Ave, Charlotte, NC 28277", "addr:street_address": "7404 Waverly Walk Ave", "addr:city": "Charlotte", "addr:state": "North Carolina", "addr:postcode": "Charlotte, NC 28277", "name": "Ted's Montana Grill", "phone": "704-841-7502", "brand": "Ted's Montana Grill", "brand:wikidata": "Q16953170", "nsi_id": "tedsmontanagrill-96af40"}},
{"type": "Feature", "id": "CHF7EorQbbLzz0XzidKq_lT2pXA=", "properties": {"ref": "19", "@spider": "teds_montana_grill", "amenity": "restaurant", "cuisine": "american", "addr:full": "6911 Fayetteville Rd, Suite 102, Durham, NC 27713", "addr:street_address": "6911 Fayetteville Rd, Suite 102", "addr:city": "Durham", "addr:state": "North Carolina", "addr:postcode": "Durham, NC 27713", "name": "Ted's Montana Grill", "phone": "919-572-1210", "brand": "Ted's Montana Grill", "brand:wikidata": "Q16953170", "nsi_id": "tedsmontanagrill-96af40"}},
{"type": "Feature", "id": "5BA0OdAUEcJZOp-r14qswNFImdM=", "properties": {"ref": "50", "@spider": "teds_montana_grill", "amenity": "restaurant", "cuisine": "american", "addr:full": "110 West 51st Street at Sixth Avenue, New York, NY 10020", "addr:street_address": "110 West 51st Street at Sixth Avenue", "addr:city": "New York", "addr:state": "New York", "addr:postcode": "New York, NY 10020", "name": "Ted's Montana Grill", "phone": "212-245-5220", "brand": "Ted's Montana Grill", "brand:wikidata": "Q16953170", "nsi_id": "tedsmontanagrill-96af40"}},
{"type": "Feature", "id": "_pjkYfJ3qUyEHiz3JrIGE9gvf6M=", "properties": {"ref": "2", "@spider": "teds_montana_grill", "amenity": "restaurant", "cuisine": "american", "addr:full": "191 West Nationwide Blvd., Columbus, OH 43215", "addr:street_address": "191 West Nationwide Blvd.", "addr:city": "Columbus", "addr:state": "Ohio", "addr:postcode": "Columbus, OH 43215", "name": "Ted's Montana Grill", "phone": "614-227-0013", "brand": "Ted's Montana Grill", "brand:wikidata": "Q16953170", "nsi_id": "tedsmontanagrill-96af40"}},
{"type": "Feature", "id": "hMf5yoCvkcU0uAcHHU754JPpB5g=", "properties": {"ref": "69", "@spider": "teds_montana_grill", "amenity": "restaurant", "cuisine": "american", "addr:full": "4169 Worth Avenue, Columbus, OH 43219", "addr:street_address": "4169 Worth Avenue", "addr:city": "Columbus", "addr:state": "Ohio", "addr:postcode": "Columbus, OH 43219", "name": "Ted's Montana Grill", "phone": "614-337-1457", "brand": "Ted's Montana Grill", "brand:wikidata": "Q16953170", "nsi_id": "tedsmontanagrill-96af40"}},
{"type": "Feature", "id": "DlFSVtvu1smJlc_KTb-A_WrOmGg=", "properties": {"ref": "7", "@spider": "teds_montana_grill", "amenity": "restaurant", "cuisine": "american", "addr:full": "2817 West End Avenue, Nashville, TN 37203", "addr:street_address": "2817 West End Avenue", "addr:city": "Nashville", "addr:state": "Tennessee", "addr:postcode": "Nashville, TN 37203", "name": "Ted's Montana Grill", "phone": "615-329-3415", "brand": "Ted's Montana Grill", "brand:wikidata": "Q16953170", "nsi_id": "tedsmontanagrill-96af40"}},
{"type": "Feature", "id": "XP1GFegCpPT3y-NFQiTXXSS1oq4=", "properties": {"ref": "28", "@spider": "teds_montana_grill", "amenity": "restaurant", "cuisine": "american", "addr:full": "2451 Eisenhower Ave., Alexandria, VA 22314", "addr:street_address": "2451 Eisenhower Ave.", "addr:city": "Alexandria", "addr:state": "Virginia", "addr:postcode": "Alexandria, VA 22314", "name": "Ted's Montana Grill", "phone": "703-960-0500", "brand": "Ted's Montana Grill", "brand:wikidata": "Q16953170", "nsi_id": "tedsmontanagrill-96af40"}},
{"type": "Feature", "id": "wTb2iP-deXDwAZMBr91itn_JQz4=", "properties": {"ref": "41", "@spider": "teds_montana_grill", "amenity": "restaurant", "cuisine": "american", "addr:full": "2200 Crystal Drive, Suite A, Arlington, VA 22202", "addr:street_address": "2200 Crystal Drive, Suite A", "addr:city": "Arlington", "addr:state": "Virginia", "addr:postcode": "Arlington, VA 22202", "name": "Ted's Montana Grill", "phone": "703-416-8337", "brand": "Ted's Montana Grill", "brand:wikidata": "Q16953170", "nsi_id": "tedsmontanagrill-96af40"}}]}