{"type":"FeatureCollection","features":[{"type": "Feature", "id": "XRwMfys-Tzm4WakWzFUkONpX7-o=", "properties": {"ref": "3", "amenity:fuel": true, "amenity:chargingstation": false, "car_wash": false, "@spider": "terrible_herbst", "amenity": "fuel", "addr:full": "333 SO. MAIN", "addr:city": "LAS VEGAS", "addr:state": "NV", "addr:postcode": "89101", "addr:country": "US", "name": "3", "phone": "702-386-1747", "brand": "Terrible Herbst", "brand:wikidata": "Q7703648", "nsi_id": "terribles-c5cf43"}},
{"type": "Feature", "id": "P0ervyv1sZTpd-DGCNW55UiO8TE=", "properties": {"ref": "101", "amenity:fuel": true, "amenity:chargingstation": false, "car_wash": false, "@spider": "terrible_herbst", "amenity": "fuel", "addr:full": "60 LAKE HAVASU AVE. ", "addr:city": "LAKE HAVASU CITY", "addr:state": "AZ", "addr:postcode": "86403", "addr:country": "US", "name": "101", "phone": "928-854-9335", "brand": "Terrible Herbst", "brand:wikidata": "Q7703648", "nsi_id": "terribles-c5cf43"}},
{"type": "Feature", "id": "2LA0Mc4pTXUpmZ9MRSJXPbTAeWM=", "properties": {"ref": "106", "amenity:fuel": true, "amenity:chargingstation": false, "car_wash": false, "@spider": "terrible_herbst", "amenity": "fuel", "addr:full": "2718 E. TROPICANA", "addr:city": "LAS VEGAS", "addr:state": "NV", "addr:postcode": "89121", "addr:country": "US", "name": "106", "phone": "702-458-8916", "brand": "Terrible Herbst", "brand:wikidata": "Q7703648", "nsi_id": "terribles-c5cf43"}},
{"type": "Feature", "id": "G9bNAnggAWYJ1sTdnT7Xe_ztkUg=", "properties": {"ref": "107", "amenity:fuel": true, "amenity:chargingstation": false, "car_wash": false, "@spider": "terrible_herbst", "amenity": "fuel", "addr:full": "2718 E. TROPICANA", "addr:city": "LAS VEGAS", "addr:state": "NV", "addr:postcode": "89121", "addr:country": "US", "name": "107", "phone": "702-456-7555", "brand": "Terrible Herbst", "brand:wikidata": "Q7703648", "nsi_id": "terribles-c5cf43"}},
{"type": "Feature", "id": "eMg0NL2frSTF0kxIGLujpjEb-nM=", "properties": {"ref": "118", "amenity:fuel": true, "amenity:chargingstation": false, "car_wash": false, "@spider": "terrible_herbst", "amenity": "fuel", "addr:full": "3650 W. SAHARA", "addr:city": "LAS VEGAS", "addr:state": "NV", "addr:postcode": "89102", "addr:country": "US", "name": "118", "phone": "702-873-1265", "brand": "Terrible Herbst", "brand:wikidata": "Q7703648", "nsi_id": "terribles-c5cf43"}},
{"type": "Feature", "id": "u5aANBdYK5R7GYwH6T_oLKm21uM=", "properties": {"ref": "124", "amenity:fuel": true, "amenity:chargingstation": false, "car_wash": false, "@spider": "terrible_herbst", "amenity": "fuel", "addr:full": "4090 S. MARYLAND PKWY", "addr:city": "LAS VEGAS", "addr:state": "NV", "addr:postcode": "89109", "addr:country": "US", "name": "124", "phone": "702-735-8108", "brand": "Terrible Herbst", "brand:wikidata": "Q7703648", "nsi_id": "terribles-c5cf43"}},
{"type": "Feature", "id": "rPl0Vc8nWFKXRrTGJGYpI9ZyYFI=", "properties": {"ref": "126", "amenity:fuel": true, "amenity:chargingstation": false, "car_wash": false, "@spider": "terrible_herbst", "amenity": "fuel", "addr:full": "1195 E. SAHARA", "addr:city": "LAS VEGAS", "addr:state": "NV", "addr:postcode": "89104", "addr:country": "US", "name": "126", "phone": "702-369-0597", "brand": "Terrible Herbst", "brand:wikidata": "Q7703648", "nsi_id": "terribles-c5cf43"}},
{"type": "Feature", "id": "T0SFVmRgPM0bKRCcZsKXHv6pnAA=", "properties": {"ref": "129", "amenity:fuel": true, "amenity:chargingstation": false, "car_wash": false, "@spider": "terrible_herbst", "amenity": "fuel", "addr:full": "4895 W. SPRING MTN.", "addr:city": "LAS VEGAS", "addr:state": "NV", "addr:postcode": "89102", "addr:country": "US", "name": "129", "phone": "702-871-8905", "brand": "Terrible Herbst", "brand:wikidata": "Q7703648", "nsi_id": "terribles-c5cf43"}},
{"type": "Feature", "id": "tvYD5ILB5WTyHExbDUp0fJ1owQY=", "properties": {"ref": "132", "amenity:fuel": true, "amenity:chargingstation": false, "car_wash": false, "@spider": "terrible_herbst", "amenity": "fuel", "addr:full": "3291 E. ANDY DEVINE", "addr:city": "KINGMAN", "addr:state": "AZ", "addr:postcode": "86401", "addr:country": "US", "name": "132", "phone": "928-757-3130", "brand": "Terrible Herbst", "brand:wikidata": "Q7703648", "nsi_id": "terribles-c5cf43"}},
{"type": "Feature", "id": "g58zLCHBh2Fp-UJgYdo9NxPJTks=", "properties": {"ref": "133", "amenity:fuel": true, "amenity:chargingstation": false, "car_wash": false, "@spider": "terrible_herbst", "amenity": "fuel", "addr:full": "3415 W. TROPICANA", "addr:city": "LAS VEGAS", "addr:state": "NV", "addr:postcode": "89103", "addr:country": "US", "name": "133", "phone": "702-736-6898", "brand": "Terrible Herbst", "brand:wikidata": "Q7703648", "nsi_id": "terribles-c5cf43"}},
{"type": "Feature", "id": "O4H3YqnMh7B-nGTPs5ASurcpNJ0=", "properties": {"ref": "135", "amenity:fuel": true, "amenity:chargingstation": false, "car_wash": false, "@spider": "terrible_herbst", "amenity": "fuel", "addr:full": "2100 W. MAIN ST.", "addr:city": "BARSTOW", "addr:state": "CA", "addr:postcode": "92311", "addr:country": "US", "name": "135", "phone": "760-256-8265", "brand": "Terrible Herbst", "brand:wikidata": "Q7703648", "nsi_id": "terribles-c5cf43"}},
{"type": "Feature", "id": "K2TG9NhR9BTSzuejiO3JPBypj0o=", "properties": {"ref": "136", "amenity:fuel": true, "amenity:chargingstation": false, "car_wash": false, "@spider": "terrible_herbst", "amenity": "fuel", "addr:full": "3710 SO. NELLIS", "addr:city": "LAS VEGAS", "addr:state": "NV", "addr:postcode": "89121", "addr:country": "US", "name": "136", "phone": "702-458-4954", "brand": "Terrible Herbst", "brand:wikidata": "Q7703648", "nsi_id": "terribles-c5cf43"}},
{"type": "Feature", "id": "kVZ2eqgZNqJRzgeCAqC9OKgMuyI=", "properties": {"ref": "141", "amenity:fuel": true, "amenity:chargingstation": false, "car_wash": true, "@spider": "terrible_herbst", "amenity": "fuel", "addr:full": "6380 W. CHARLESTON", "addr:city": "LAS VEGAS", "addr:state": "NV", "addr:postcode": "89102", "addr:country": "US", "name": "141", "phone": "702-870-0384", "brand": "Terrible Herbst", "brand:wikidata": "Q7703648", "nsi_id": "terribles-c5cf43"}},
{"type": "Feature", "id": "8uG7MVM_0Shsmx6g40hFoR1IWNM=", "properties": {"ref": "145", "amenity:fuel": true, "amenity:chargingstation": false, "car_wash": false, "@spider": "terrible_herbst", "amenity": "fuel", "addr:full": "3375 E. FLAMINGO RD.", "addr:city": "LAS VEGAS", "addr:state": "NV", "addr:postcode": "89121", "addr:country": "US", "name": "145", "phone": "702-456-1344", "brand": "Terrible Herbst", "brand:wikidata": "Q7703648", "nsi_id": "terribles-c5cf43"}},
{"type": "Feature", "id": "j3NBXi17B_1T7kxn3LSl_AGBy2g=", "properties": {"ref": "147", "amenity:fuel": true, "amenity:chargingstation": false, "car_wash": false, "@spider": "terrible_herbst", "amenity": "fuel", "addr:full": "11 NO. NELLIS", "addr:city": "LAS VEGAS", "addr:state": "NV", "addr:postcode": "89110", "addr:country": "US", "name": "147", "phone": "702-438-6115", "brand": "Terrible Herbst", "brand:wikidata": "Q7703648", "nsi_id": "terribles-c5cf43"}},
{"type": "Feature", "id": "kBv4HFwh8aBzkIZVoRYLiyIvges=", "properties": {"ref": "148", "amenity:fuel": true, "amenity:chargingstation": false, "car_wash": false, "@spider": "terrible_herbst", "amenity": "fuel", "addr:full": "1040 SO. ACOMA BLVD.", "addr:city": "LAKE HAVASU CITY", "addr:state": "AZ", "addr:postcode": "86406", "addr:country": "US", "name": "148", "phone": "928-453-7722", "brand": "Terrible Herbst", "brand:wikidata": "Q7703648", "nsi_id": "terribles-c5cf43"}},
{"type": "Feature", "id": "ppNK37OagbOq6CGEEnQJOYL6MSE=", "properties": {"ref": "152", "amenity:fuel": true, "amenity:chargingstation": false, "car_wash": false, "@spider": "terrible_herbst", "amenity": "fuel", "addr:full": "4070 SO. ARVILLE", "addr:city": "LAS VEGAS", "addr:state": "NV", "addr:postcode": "89103", "addr:country": "US", "name": "152", "phone": "702-364-2514", "brand": "Terrible Herbst", "brand:wikidata": "Q7703648", "nsi_id": "terribles-c5cf43"}},
{"type": "Feature", "id": "lMSHAPyJZRGFxiYEIJ2SF-JSgCc=", "properties": {"ref": "154", "amenity:fuel": true, "amenity:chargingstation": false, "car_wash": false, "@spider": "terrible_herbst", "amenity": "fuel", "addr:full": "4070 SO. ARVILLE", "addr:city": "LAS VEGAS", "addr:state": "NV", "addr:postcode": "89103", "addr:country": "US", "name": "154", "phone": "702-876-9105", "brand": "Terrible Herbst", "brand:wikidata": "Q7703648", "nsi_id": "terribles-c5cf43"}},
{"type": "Feature", "id": "aXoDCi9bVFUgr8V3k4w0ApCpOFQ=", "properties": {"ref": "155", "amenity:fuel": true, "amenity:chargingstation": false, "car_wash": false, "@spider": "terrible_herbst", "amenity": "fuel", "addr:full": "4070 SO. ARVILLE/4310 WEST FLAMINGO", "addr:city": "LAS VEGAS", "addr:state": "NV", "addr:postcode": "89103", "addr:country": "US", "name": "155", "phone": "702-876-0360", "brand": "Terrible Herbst", "brand:wikidata": "Q7703648", "nsi_id": "terribles-c5cf43"}},
{"type": "Feature", "id": "XR3tGge8euQjSMJaA5yQX8zJGm8=", "properties": {"ref": "156", "amenity:fuel": true, "amenity:chargingstation": false, "car_wash": false, "@spider": "terrible_herbst", "amenity": "fuel", "addr:full": "109 SO. RAINBOW", "addr:city": "LAS VEGAS", "addr:state": "NV", "addr:postcode": "89145", "addr:country": "US", "name": "156", "phone": "702-878-9680", "brand": "Terrible Herbst", "brand:wikidata": "Q7703648", "nsi_id": "terribles-c5cf43"}},
{"type": "Feature", "id": "wTWbeS1RTUu3d1hVGvtvXZW_1Hw=", "properties": {"ref": "159", "amenity:fuel": true, "amenity:chargingstation": false, "car_wash": false, "@spider": "terrible_herbst", "amenity": "fuel", "addr:full": "4036 E. SUNSET", "addr:city": "HENDERSON", "addr:state": "NV", "addr:postcode": "89014", "addr:country": "US", "name": "159", "phone": "702-456-6766", "brand": "Terrible Herbst", "brand:wikidata": "Q7703648", "nsi_id": "terribles-c5cf43"}},
{"type": "Feature", "id": "utWDyzL_Gr_L4mi9uJ7MGYBM4us=", "properties": {"ref": "162", "amenity:fuel": true, "amenity:chargingstation": false, "car_wash": false, "@spider": "terrible_herbst", "amenity": "fuel", "addr:full": "6650 W.CHEYENNE", "addr:city": "LAS VEGAS", "addr:state": "NV", "addr:postcode": "89108", "addr:country": "US", "name": "162", "phone": "702-645-5041", "brand": "Terrible Herbst", "brand:wikidata": "Q7703648", "nsi_id": "terribles-c5cf43"}},
{"type": "Feature", "id": "qvM-IT-VXxnSxcBY-BgFT0PVtOM=", "properties": {"ref": "165", "amenity:fuel": true, "amenity:chargingstation": false, "car_wash": false, "@spider": "terrible_herbst", "amenity": "fuel", "addr:full": "1785 E. SUNSET", "addr:city": "LAS VEGAS", "addr:state": "NV", "addr:postcode": "89119", "addr:country": "US", "name": "165", "phone": "702-897-0444", "brand": "Terrible Herbst", "brand:wikidata": "Q7703648", "nsi_id": "terribles-c5cf43"}},
{"type": "Feature", "id": "sLh5mVsVDBMX94CjwPVTRmn9f7c=", "properties": {"ref": "166", "amenity:fuel": true, "amenity:chargingstation": false, "car_wash": false, "@spider": "terrible_herbst", "amenity": "fuel", "addr:full": "7800 W. SAHARA", "addr:city": "LAS VEGAS", "addr:state": "NV", "addr:postcode": "89117", "addr:country": "US", "name": "166", "phone": "702-255-0650", "brand": "Terrible Herbst", "brand:wikidata": "Q7703648", "nsi_id": "terribles-c5cf43"}},
{"type": "Feature", "id": "zxWXabXNZ__De3VW7uHA_xBz8sc=", "properties": {"ref": "169", "amenity:fuel": true, "amenity:chargingstation": false, "car_wash": false, "@spider": "terrible_herbst", "amenity": "fuel", "addr:full": "7780 LAS VEGAS BLVD. SO.", "addr:city": "LAS VEGAS", "addr:state": "NV", "addr:postcode": "89123", "addr:country": "US", "name": "169", "phone": "702-361-7471", "brand": "Terrible Herbst", "brand:wikidata": "Q7703648", "nsi_id": "terribles-c5cf43"}},
{"type": "Feature", "id": "J9_nYhXDBG5tNq5e-gXdukM2BsQ=", "properties": {"ref": "170", "amenity:fuel": true, "amenity:chargingstation": false, "car_wash": false, "@spider": "terrible_herbst", "amenity": "fuel", "addr:full": "599 W. LAKE MEAD", "addr:city": "HENDERSON", "addr:state": "NV", "addr:postcode": "89014", "addr:country": "US", "name": "170", "phone": "702-564-9272", "brand": "Terrible Herbst", "brand:wikidata": "Q7703648", "nsi_id": "terribles-c5cf43"}},
{"type": "Feature", "id": "cP9mtgR3i7gYQaZYb96fAseM2mw=", "properties": {"ref": "171", "amenity:fuel": true, "amenity:chargingstation": false, "car_wash": false, "@spider": "terrible_herbst", "amenity": "fuel", "addr:full": "6065 W. SAHARA", "addr:city": "LAS VEGAS", "addr:state": "NV", "addr:postcode": "89102", "addr:country": "US", "name": "171", "phone": "702-873-7201", "brand": "Terrible Herbst", "brand:wikidata": "Q7703648", "nsi_id": "terribles-c5cf43"}},
{"type": "Feature", "id": "wzLtvkmMHLAcx35zvYlMQnQG7oQ=", "properties": {"ref": "174", "amenity:fuel": true, "amenity:chargingstation": false, "car_wash": true, "@spider": "terrible_herbst", "amenity": "fuel", "addr:full": "1101 W. SUNSET", "addr:city": "HENDERSON", "addr:state": "NV", "addr:postcode": "89014", "addr:country": "US", "name": "174", "phone": "702-435-5547", "brand": "Terrible Herbst", "brand:wikidata": "Q7703648", "nsi_id": "terribles-c5cf43"}},
{"type": "Feature", "id": "AzfoWxaU03Dtru8_IvumWiK6nGw=", "properties": {"ref": "176", "amenity:fuel": true, "amenity:chargingstation": false, "car_wash": false, "@spider": "terrible_herbst", "amenity": "fuel", "addr:full": "810 W. MESQUITE BLVD.", "addr:city": "MESQUITE", "addr:state": "NV", "addr:postcode": "89024", "addr:country": "US", "name": "176", "phone": "702-346-2810", "brand": "Terrible Herbst", "brand:wikidata": "Q7703648", "nsi_id": "terribles-c5cf43"}},
{"type": "Feature", "id": "xwfu7mbiN-u4V2KAWrv_0VJg8GA=", "properties": {"ref": "177", "amenity:fuel": true, "amenity:chargingstation": false, "car_wash": false, "@spider": "terrible_herbst", "amenity": "fuel", "addr:full": "2010 S. CASINO DR.", "addr:city": "LAUGHLIN", "addr:state": "NV", "addr:postcode": "89029", "addr:country": "US", "name": "177", "phone": "702-298-3665", "brand": "Terrible Herbst", "brand:wikidata": "Q7703648", "nsi_id": "terribles-c5cf43"}},
{"type": "Feature", "id": "EXAcbMxYYN6rjd9XGGEisOobxl8=", "properties": {"ref": "178", "amenity:fuel": true, "amenity:chargingstation": false, "car_wash": false, "@spider": "terrible_herbst", "amenity": "fuel", "addr:full": "4805 W. CRAIG RD.", "addr:city": "LAS VEGAS", "addr:state": "NV", "addr:postcode": "89130", "addr:country": "US", "name": "178", "phone": "702-656-7939", "brand": "Terrible Herbst", "brand:wikidata": "Q7703648", "nsi_id": "terribles-c5cf43"}},
{"type": "Feature", "id": "aXFXJJJSYonxpmW2oQ3H2FRD9b8=", "properties": {"ref": "179", "amenity:fuel": true, "amenity:chargingstation": false, "car_wash": false, "@spider": "terrible_herbst", "amenity": "fuel", "addr:full": "2353 E. WARM SPRINGS RD.", "addr:city": "LAS VEGAS", "addr:state": "NV", "addr:postcode": "89119", "addr:country": "US", "name": "179", "phone": "702-896-2822", "brand": "Terrible Herbst", "brand:wikidata": "Q7703648", "nsi_id": "terribles-c5cf43"}},
{"type": "Feature", "id": "Qzk2WFaAxvPEIJo0gmH4VCVc7jU=", "properties": {"ref": "180", "amenity:fuel": true, "amenity:chargingstation": false, "car_wash": true, "@spider": "terrible_herbst", "amenity": "fuel", "addr:full": "1815 HWY 95", "addr:city": "BULLHEAD CITY", "addr:state": "AZ", "addr:postcode": "86442", "addr:country": "US", "name": "180", "phone": "928-758-6080", "brand": "Terrible Herbst", "brand:wikidata": "Q7703648", "nsi_id": "terribles-c5cf43"}},
{"type": "Feature", "id": "hkn8zlNySLad2epeMcf0XhN5MKs=", "properties": {"ref": "184", "amenity:fuel": true, "amenity:chargingstation": false, "car_wash": false, "@spider": "terrible_herbst", "amenity": "fuel", "addr:full": "8590 W. LAKE MEAD", "addr:city": "LAS VEGAS", "addr:state": "NV", "addr:postcode": "89128", "addr:country": "US", "name": "184", "phone": "702-363-5946", "brand": "Terrible Herbst", "brand:wikidata": "Q7703648", "nsi_id": "terribles-c5cf43"}},
{"type": "Feature", "id": "H86HV5vHxIthCjDCCjlDR5yR2n8=", "properties": {"ref": "188", "amenity:fuel": true, "amenity:chargingstation": false, "car_wash": false, "@spider": "terrible_herbst", "amenity": "fuel", "addr:full": "7500 W. CHEYENNE AVE.", "addr:city": "LAS VEGAS", "addr:state": "NV", "addr:postcode": "89129", "addr:country": "US", "name": "188", "phone": "702-395-0266", "brand": "Terrible Herbst", "brand:wikidata": "Q7703648", "nsi_id": "terribles-c5cf43"}},
{"type": "Feature", "id": "GGyxYP8x1shIA9rH__gqBdYKbWg=", "properties": {"ref": "191", "amenity:fuel": true, "amenity:chargingstation": false, "car_wash": false, "@spider": "terrible_herbst", "amenity": "fuel", "addr:full": "2601 WIGWAM PKWY", "addr:city": "HENDERSON", "addr:state": "NV", "addr:postcode": "89074", "addr:country": "US", "name": "191", "phone": "702-361-1492", "brand": "Terrible Herbst", "brand:wikidata": "Q7703648", "nsi_id": "terribles-c5cf43"}},
{"type": "Feature", "id": "FUKREvEl60juQoFO3njeSltuKhg=", "properties": {"ref": "195", "amenity:fuel": true, "amenity:chargingstation": false, "car_wash": false, "@spider": "terrible_herbst", "amenity": "fuel", "addr:full": "6885 W. TROPICANA AVE.", "addr:city": "LAS VEGAS", "addr:state": "NV", "addr:postcode": "89103", "addr:country": "US", "name": "195", "phone": "702-247-7779", "brand": "Terrible Herbst", "brand:wikidata": "Q7703648", "nsi_id": "terribles-c5cf43"}},
{"type": "Feature", "id": "K9wU_lyElJnYyZxMbDGvEWM0CD0=", "properties": {"ref": "196", "amenity:fuel": true, "amenity:chargingstation": false, "car_wash": false, "@spider": "terrible_herbst", "amenity": "fuel", "addr:full": "2025 N. LAMB BLVD", "addr:city": "LAS VEGAS", "addr:state": "NV", "addr:postcode": "89115", "addr:country": "US", "name": "196", "phone": "702-868-6228", "brand": "Terrible Herbst", "brand:wikidata": "Q7703648", "nsi_id": "terribles-c5cf43"}},
{"type": "Feature", "id": "FunonF8CBWCrw6Zi_6H7YM0I7Y0=", "properties": {"ref": "199", "amenity:fuel": true, "amenity:chargingstation": false, "car_wash": false, "@spider": "terrible_herbst", "amenity": "fuel", "addr:full": "3440 W. RUSSELL RD.", "addr:city": "LAS VEGAS", "addr:state": "NV", "addr:postcode": "89118", "addr:country": "US", "name": "199", "phone": "702-895-7370", "brand": "Terrible Herbst", "brand:wikidata": "Q7703648", "nsi_id": "terribles-c5cf43"}},
{"type": "Feature", "id": "EEOyyIvIaqH-nHVgkNiBP28cbGA=", "properties": {"ref": "201", "amenity:fuel": true, "amenity:chargingstation": false, "car_wash": false, "@spider": "terrible_herbst", "amenity": "fuel", "addr:full": "1001 CALIFORNIA AVE.", "addr:city": "PARKER", "addr:state": "AZ", "addr:postcode": "85344", "addr:country": "US", "name": "201", "phone": "928-669-6605", "brand": "Terrible Herbst", "brand:wikidata": "Q7703648", "nsi_id": "terribles-c5cf43"}},
{"type": "Feature", "id": "p3OIVXmakGURXPt87ZTLYq16BjA=", "properties": {"ref": "203", "amenity:fuel": true, "amenity:chargingstation": false, "car_wash": false, "@spider": "terrible_herbst", "amenity": "fuel", "addr:full": "7301 W. LAKE MEAD", "addr:city": "LAS VEGAS", "addr:state": "NV", "addr:postcode": "89128", "addr:country": "US", "name": "203", "phone": "702-869-0291", "brand": "Terrible Herbst", "brand:wikidata": "Q7703648", "nsi_id": "terribles-c5cf43"}},
{"type": "Feature", "id": "xwQbvBb-V2gZrEV94FUzQww26MI=", "properties": {"ref": "204", "amenity:fuel": true, "amenity:chargingstation": false, "car_wash": false, "@spider": "terrible_herbst", "amenity": "fuel", "addr:full": "1412 W. CRAIG RD.", "addr:city": "NORTH LAS VEGAS", "addr:state": "NV", "addr:postcode": "89030", "addr:country": "US", "name": "204", "phone": "702-633-5949", "brand": "Terrible Herbst", "brand:wikidata": "Q7703648", "nsi_id": "terribles-c5cf43"}},
{"type": "Feature", "id": "1_G2_v6pzR9OiH5m79TJNLVp_W0=", "properties": {"ref": "205", "amenity:fuel": true, "amenity:chargingstation": false, "car_wash": false, "@spider": "terrible_herbst", "amenity": "fuel", "addr:full": "3520 BLUE DIAMOND RD.", "addr:city": "LAS VEGAS", "addr:state": "NV", "addr:postcode": "89139", "addr:country": "US", "name": "205", "phone": "702-837-6941", "brand": "Terrible Herbst", "brand:wikidata": "Q7703648", "nsi_id": "terribles-c5cf43"}},
{"type": "Feature", "id": "jxv2Il6gb6Bx5Kxm_ZjKqlEFktc=", "properties": {"ref": "207", "amenity:fuel": true, "amenity:chargingstation": false, "car_wash": false, "@spider": "terrible_herbst", "amenity": "fuel", "addr:full": "6680 E. LAKE MEAD BLVD.", "addr:city": "LAS VEGAS", "addr:state": "NV", "addr:postcode": "89115", "addr:country": "US", "name": "207", "phone": "702-453-7680", "brand": "Terrible Herbst", "brand:wikidata": "Q7703648", "nsi_id": "terribles-c5cf43"}},
{"type": "Feature", "id": "WmCjbGRV1EHeHyVA7FcdRaOFM-w=", "properties": {"ref": "208", "amenity:fuel": true, "amenity:chargingstation": false, "car_wash": false, "@spider": "terrible_herbst", "amenity": "fuel", "addr:full": "7310 LAS VEGAS BLVD. SO.", "addr:city": "LAS VEGAS", "addr:state": "NV", "addr:postcode": "89123", "addr:country": "US", "name": "208", "phone": "702-270-8541", "brand": "Terrible Herbst", "brand:wikidata": "Q7703648", "nsi_id": "terribles-c5cf43"}},
{"type": "Feature", "id": "i1hIX7ozLdSYaC6QhuQpfObjGYM=", "properties": {"ref": "209", "amenity:fuel": true, "amenity:chargingstation": false, "car_wash": false, "@spider": "terrible_herbst", "amenity": "fuel", "addr:full": "1003 E. LAKE MEAD BLVD.", "addr:city": "NORTH LAS VEGAS", "addr:state": "NV", "addr:postcode": "89030", "addr:country": "US", "name": "209", "phone": "702-313-6508", "brand": "Terrible Herbst", "brand:wikidata": "Q7703648", "nsi_id": "terribles-c5cf43"}},
{"type": "Feature", "id": "gsrr1WuhhFKsNT51q-8-PQviI9A=", "properties": {"ref": "210", "amenity:fuel": true, "amenity:chargingstation": false, "car_wash": false, "@spider": "terrible_herbst", "amenity": "fuel", "addr:full": "2886 SO. NELLIS BLVD.", "addr:city": "LAS VEGAS", "addr:state": "NV", "addr:postcode": "89121", "addr:country": "US", "name": "210", "phone": "702-320-2333", "brand": "Terrible Herbst", "brand:wikidata": "Q7703648", "nsi_id": "terribles-c5cf43"}},
{"type": "Feature", "id": "SOv3TCky4dVEtUVFHYmjne9SYEc=", "properties": {"ref": "211", "amenity:fuel": true, "amenity:chargingstation": false, "car_wash": false, "@spider": "terrible_herbst", "amenity": "fuel", "addr:full": "5870 HOMESTEAD RD.", "addr:city": "PAHRUMP", "addr:state": "NV", "addr:postcode": "89048", "addr:country": "US", "name": "211", "phone": "775-751-3311", "brand": "Terrible Herbst", "brand:wikidata": "Q7703648", "nsi_id": "terribles-c5cf43"}},
{"type": "Feature", "id": "6jOz4vOuMBCRxkC87-8LxJu1vKU=", "properties": {"ref": "212", "amenity:fuel": true, "amenity:chargingstation": false, "car_wash": false, "@spider": "terrible_herbst", "amenity": "fuel", "addr:full": "201 NO. PECOS", "addr:city": "HENDERSON", "addr:state": "NV", "addr:postcode": "89074", "addr:country": "US", "name": "212", "phone": "702-361-6610", "brand": "Terrible Herbst", "brand:wikidata": "Q7703648", "nsi_id": "terribles-c5cf43"}},
{"type": "Feature", "id": "XKrS-g_sovWE2F7Mp-ZX3JoVLrY=", "properties": {"ref": "214", "amenity:fuel": true, "amenity:chargingstation": false, "car_wash": false, "@spider": "terrible_herbst", "amenity": "fuel", "addr:full": "4075 SO. BUFFALO DR.", "addr:city": "LAS VEGAS", "addr:state": "NV", "addr:postcode": "89117", "addr:country": "US", "name": "214", "phone": "702-221-9902", "brand": "Terrible Herbst", "brand:wikidata": "Q7703648", "nsi_id": "terribles-c5cf43"}},
{"type": "Feature", "id": "nsKuu_A-0l4Tl72NS-4tUE1TNuA=", "properties": {"ref": "215", "amenity:fuel": true, "amenity:chargingstation": false, "car_wash": false, "@spider": "terrible_herbst", "amenity": "fuel", "addr:full": "1220 E. LAKE MEAD", "addr:city": "NORTH LAS VEGAS", "addr:state": "NV", "addr:postcode": "89030", "addr:country": "US", "name": "215", "phone": "702-399-6728", "brand": "Terrible Herbst", "brand:wikidata": "Q7703648", "nsi_id": "terribles-c5cf43"}},
{"type": "Feature", "id": "I5OcULIczoUdWz7cId3mUo6itCU=", "properties": {"ref": "217", "amenity:fuel": true, "amenity:chargingstation": false, "car_wash": false, "@spider": "terrible_herbst", "amenity": "fuel", "addr:full": "7169 WEST ANN RD.", "addr:city": "LAS VEGAS", "addr:state": "NV", "addr:postcode": "89130", "addr:country": "US", "name": "217", "phone": "702-645-3334", "brand": "Terrible Herbst", "brand:wikidata": "Q7703648", "nsi_id": "terribles-c5cf43"}},
{"type": "Feature", "id": "bL_2-KPKvQ_806NglZriMD1pvWI=", "properties": {"ref": "224", "amenity:fuel": true, "amenity:chargingstation": false, "car_wash": false, "@spider": "terrible_herbst", "amenity": "fuel", "addr:full": "10530 SO. EASTERN", "addr:city": "HENDERSON", "addr:state": "NV", "addr:postcode": "89052", "addr:country": "US", "name": "224", "phone": "702-914-0386", "brand": "Terrible Herbst", "brand:wikidata": "Q7703648", "nsi_id": "terribles-c5cf43"}},
{"type": "Feature", "id": "nOyGeG13ZEsga0bT7kJfGcNQoBo=", "properties": {"ref": "225", "amenity:fuel": true, "amenity:chargingstation": false, "car_wash": false, "@spider": "terrible_herbst", "amenity": "fuel", "addr:full": "6176 LAS VEGAS BLVD. SO.", "addr:city": "LAS VEGAS", "addr:state": "NV", "addr:postcode": "89119", "addr:country": "US", "name": "225", "phone": "702-361-5174", "brand": "Terrible Herbst", "brand:wikidata": "Q7703648", "nsi_id": "terribles-c5cf43"}},
{"type": "Feature", "id": "dsi65umFLjjIi63AJTr6jLwxTy4=", "properties": {"ref": "226", "amenity:fuel": true, "amenity:chargingstation": false, "car_wash": false, "@spider": "terrible_herbst", "amenity": "fuel", "addr:full": "4190 E. SUNSET", "addr:city": "HENDERSON", "addr:state": "NV", "addr:postcode": "89014", "addr:country": "US", "name": "226", "phone": "702-433-4113", "brand": "Terrible Herbst", "brand:wikidata": "Q7703648", "nsi_id": "terribles-c5cf43"}},
{"type": "Feature", "id": "x9nXOGMZN2wskpnI0ey3IltvY8c=", "properties": {"ref": "227", "amenity:fuel": true, "amenity:chargingstation": false, "car_wash": true, "@spider": "terrible_herbst", "amenity": "fuel", "addr:full": "7300 W. CHEYENNE", "addr:city": "LAS VEGAS", "addr:state": "NV", "addr:postcode": "89129", "addr:country": "US", "name": "227", "phone": "702-655-5370", "brand": "Terrible Herbst", "brand:wikidata": "Q7703648", "nsi_id": "terribles-c5cf43"}},
{"type": "Feature", "id": "sxjBHMEaFWoeAu2kYYcRdmgJsb8=", "properties": {"ref": "228", "amenity:fuel": true, "amenity:chargingstation": false, "car_wash": false, "@spider": "terrible_herbst", "amenity": "fuel", "addr:full": "4150 S. DURANGO", "addr:city": "LAS VEGAS", "addr:state": "NV", "addr:postcode": "89117", "addr:country": "US", "name": "228", "phone": "702-871-7940", "brand": "Terrible Herbst", "brand:wikidata": "Q7703648", "nsi_id": "terribles-c5cf43"}},
{"type": "Feature", "id": "5ainxqOWgDtPwhRhJYy6R1XpydQ=", "properties": {"ref": "229", "amenity:fuel": true, "amenity:chargingstation": false, "car_wash": true, "@spider": "terrible_herbst", "amenity": "fuel", "addr:full": "9345 S. EASTERN", "addr:city": "LAS VEGAS", "addr:state": "NV", "addr:postcode": "89123", "addr:country": "US", "name": "229", "phone": "702-614-9750", "brand": "Terrible Herbst", "brand:wikidata": "Q7703648", "nsi_id": "terribles-c5cf43"}},
{"type": "Feature", "id": "ocRFORyFJG7g_Q76bPQMtyxNH90=", "properties": {"ref": "231", "amenity:fuel": true, "amenity:chargingstation": false, "car_wash": true, "@spider": "terrible_herbst", "amenity": "fuel", "addr:full": "330 NORTH RANCHO", "addr:city": "LAS VEGAS", "addr:state": "NV", "addr:postcode": "89106", "addr:country": "US", "name": "231", "phone": "702-647-2069", "brand": "Terrible Herbst", "brand:wikidata": "Q7703648", "nsi_id": "terribles-c5cf43"}},
{"type": "Feature", "id": "A5irHd-XC60_oqqJjCuoH1wNdI8=", "properties": {"ref": "232", "amenity:fuel": true, "amenity:chargingstation": false, "car_wash": false, "@spider": "terrible_herbst", "amenity": "fuel", "addr:full": "1343 SILVERADO RANCH BLVD.", "addr:city": "LAS VEGAS", "addr:state": "NV", "addr:postcode": "89123", "addr:country": "US", "name": "232", "phone": "702-270-6873", "brand": "Terrible Herbst", "brand:wikidata": "Q7703648", "nsi_id": "terribles-c5cf43"}},
{"type": "Feature", "id": "0o9_29PRbRF74ti8PCgR_8pu1OI=", "properties": {"ref": "234", "amenity:fuel": true, "amenity:chargingstation": false, "car_wash": false, "@spider": "terrible_herbst", "amenity": "fuel", "addr:full": "3475 W. RUSSELL RD", "addr:city": "LAS VEGAS", "addr:state": "NV", "addr:postcode": "89118", "addr:country": "US", "name": "234", "phone": "702-736-1699", "brand": "Terrible Herbst", "brand:wikidata": "Q7703648", "nsi_id": "terribles-c5cf43"}},
{"type": "Feature", "id": "6O7WVu4ZCuUyD0dqFQQiTP6RwZ8=", "properties": {"ref": "235", "amenity:fuel": true, "amenity:chargingstation": false, "car_wash": false, "@spider": "terrible_herbst", "amenity": "fuel", "addr:full": "220 WEST SUNSET", "addr:city": "HENDERSON", "addr:state": "NV", "addr:postcode": "89015", "addr:country": "US", "name": "235", "phone": "702-566-6775", "brand": "Terrible Herbst", "brand:wikidata": "Q7703648", "nsi_id": "terribles-c5cf43"}},
{"type": "Feature", "id": "mHeY5a0NcU9ECTQl63Dnt_QVn9c=", "properties": {"ref": "237", "amenity:fuel": true, "amenity:chargingstation": false, "car_wash": false, "@spider": "terrible_herbst", "amenity": "fuel", "addr:full": "2836 W. ANN RD.", "addr:city": "NORTH LAS VEGAS", "addr:state": "NV", "addr:postcode": "89030", "addr:country": "US", "name": "237", "phone": "702-645-2922", "brand": "Terrible Herbst", "brand:wikidata": "Q7703648", "nsi_id": "terribles-c5cf43"}},
{"type": "Feature", "id": "115KYo4k1oHcCCjunMdQGngeOWM=", "properties": {"ref": "238", "amenity:fuel": true, "amenity:chargingstation": false, "car_wash": false, "@spider": "terrible_herbst", "amenity": "fuel", "addr:full": "601 MARKS ST", "addr:city": "HENDERSON", "addr:state": "NV", "addr:postcode": "89014", "addr:country": "US", "name": "238", "phone": "702-456-0258", "brand": "Terrible Herbst", "brand:wikidata": "Q7703648", "nsi_id": "terribles-c5cf43"}},
{"type": "Feature", "id": "f9_iC9mW9PtytGDutBT1aEBN_-8=", "properties": {"ref": "239", "amenity:fuel": true, "amenity:chargingstation": false, "car_wash": false, "@spider": "terrible_herbst", "amenity": "fuel", "addr:full": "10490 W CHARLESTON", "addr:city": "LAS VEGAS", "addr:state": "NV", "addr:postcode": "89135", "addr:country": "US", "name": "239", "phone": "702-254-6007", "brand": "Terrible Herbst", "brand:wikidata": "Q7703648", "nsi_id": "terribles-c5cf43"}},
{"type": "Feature", "id": "cfG3gv12BBBVUf9vrnpX1E63dCs=", "properties": {"ref": "240", "amenity:fuel": true, "amenity:chargingstation": false, "car_wash": false, "@spider": "terrible_herbst", "amenity": "fuel", "addr:full": "4610 W. TROPICANA", "addr:city": "LAS VEGAS", "addr:state": "NV", "addr:postcode": "89103", "addr:country": "US", "name": "240", "phone": "702-248-6942", "brand": "Terrible Herbst", "brand:wikidata": "Q7703648", "nsi_id": "terribles-c5cf43"}},
{"type": "Feature", "id": "1jjql6fbNZtzUEBLaYJR4ydTAFA=", "properties": {"ref": "242", "amenity:fuel": true, "amenity:chargingstation": false, "car_wash": false, "@spider": "terrible_herbst", "amenity": "fuel", "addr:full": "6480 SO. DURANGO DR.", "addr:city": "LAS VEGAS", "addr:state": "NV", "addr:postcode": "89113", "addr:country": "US", "name": "242", "phone": "702-269-0385", "brand": "Terrible Herbst", "brand:wikidata": "Q7703648", "nsi_id": "terribles-c5cf43"}},
{"type": "Feature", "id": "Qk04zaR0n8LBJZ9zm85xrMNl6p0=", "properties": {"ref": "243", "amenity:fuel": true, "amenity:chargingstation": false, "car_wash": false, "@spider": "terrible_herbst", "amenity": "fuel", "addr:full": "670 HIGHWAY 95", "addr:city": "SEARCHLIGHT", "addr:state": "NV", "addr:postcode": "89046", "addr:country": "US", "name": "243", "phone": "702-297-1080", "brand": "Terrible Herbst", "brand:wikidata": "Q7703648", "nsi_id": "terribles-c5cf43"}},
{"type": "Feature", "id": "2n3xsaVRwd31-h0pE8WrR3Dnf4A=", "properties": {"ref": "245", "amenity:fuel": true, "amenity:chargingstation": false, "car_wash": false, "@spider": "terrible_herbst", "amenity": "fuel", "addr:full": "10890 W. CHARLESTON", "addr:city": "LAS VEGAS", "addr:state": "NV", "addr:postcode": "89135", "addr:country": "US", "name": "245", "phone": "702-360-9246", "brand": "Terrible Herbst", "brand:wikidata": "Q7703648", "nsi_id": "terribles-c5cf43"}},
{"type": "Feature", "id": "jUHjZKCycqJZiTOL9RzRTEEOHpc=", "properties": {"ref": "251", "amenity:fuel": true, "amenity:chargingstation": false, "car_wash": false, "@spider": "terrible_herbst", "amenity": "fuel", "addr:full": "9415 W. TROPICANA", "addr:city": "LAS VEGAS", "addr:state": "NV", "addr:postcode": "89147", "addr:country": "US", "name": "251", "phone": "702-222-9429", "brand": "Terrible Herbst", "brand:wikidata": "Q7703648", "nsi_id": "terribles-c5cf43"}},
{"type": "Feature", "id": "z0oIvO0vDnucHVNQ4l5Ad9nMK6c=", "properties": {"ref": "252", "amenity:fuel": true, "amenity:chargingstation": false, "car_wash": false, "@spider": "terrible_herbst", "amenity": "fuel", "addr:full": "6915 BLUE DIAMOND RD.", "addr:city": "LAS VEGAS", "addr:state": "NV", "addr:postcode": "89124", "addr:country": "US", "name": "252", "phone": "702-492-0261", "brand": "Terrible Herbst", "brand:wikidata": "Q7703648", "nsi_id": "terribles-c5cf43"}},
{"type": "Feature", "id": "I3aC1tRvtV_Dr5gz-qAfDAu6Ra0=", "properties": {"ref": "253", "amenity:fuel": true, "amenity:chargingstation": false, "car_wash": true, "@spider": "terrible_herbst", "amenity": "fuel", "addr:full": "3650 S. TOWN CENTER", "addr:city": "LAS VEGAS", "addr:state": "NV", "addr:postcode": "89130", "addr:country": "US", "name": "253", "phone": "702-360-4794", "brand": "Terrible Herbst", "brand:wikidata": "Q7703648", "nsi_id": "terribles-c5cf43"}},
{"type": "Feature", "id": "uqF2nK64h36yWUE8o8rwNr93kXo=", "properties": {"ref": "255", "amenity:fuel": true, "amenity:chargingstation": false, "car_wash": false, "@spider": "terrible_herbst", "amenity": "fuel", "addr:full": "2021 N. BUFFALO", "addr:city": "LAS VEGAS", "addr:state": "NV", "addr:postcode": "89128", "addr:country": "US", "name": "255", "phone": "702-233-2004", "brand": "Terrible Herbst", "brand:wikidata": "Q7703648", "nsi_id": "terribles-c5cf43"}},
{"type": "Feature", "id": "M7naD8gkC5ChbfIUx2nYQO7n5oI=", "properties": {"ref": "256", "amenity:fuel": true, "amenity:chargingstation": false, "car_wash": false, "@spider": "terrible_herbst", "amenity": "fuel", "addr:full": "10590 SO. HIGHLANDS PKWY", "addr:city": "LAS VEGAS", "addr:state": "NV", "addr:postcode": "89141", "addr:country": "US", "name": "256", "phone": "702-837-1964", "brand": "Terrible Herbst", "brand:wikidata": "Q7703648", "nsi_id": "terribles-c5cf43"}},
{"type": "Feature", "id": "iOKZQqCTOn3Ussaa8lRB_Hn6njQ=", "properties": {"ref": "257", "amenity:fuel": true, "amenity:chargingstation": false, "car_wash": false, "@spider": "terrible_herbst", "amenity": "fuel", "addr:full": "8425 WEST CENTENNIAL PKWY", "addr:city": "LAS VEGAS", "addr:state": "NV", "addr:postcode": "89149", "addr:country": "US", "name": "257", "phone": "702-396-1528", "brand": "Terrible Herbst", "brand:wikidata": "Q7703648", "nsi_id": "terribles-c5cf43"}},
{"type": "Feature", "id": "4VmnBAJNQkKv2DYSTzlo-NJVHdA=", "properties": {"ref": "258", "amenity:fuel": true, "amenity:chargingstation": false, "car_wash": true, "@spider": "terrible_herbst", "amenity": "fuel", "addr:full": "921 A CALIFORNIA AVE.", "addr:city": "PARKER", "addr:state": "AZ", "addr:postcode": "85344", "addr:country": "US", "name": "258", "phone": "928-669-5856", "brand": "Terrible Herbst", "brand:wikidata": "Q7703648", "nsi_id": "terribles-c5cf43"}},
{"type": "Feature", "id": "x44Sy9gtrd7stSzdvF0srGDoYX0=", "properties": {"ref": "259", "amenity:fuel": true, "amenity:chargingstation": false, "car_wash": false, "@spider": "terrible_herbst", "amenity": "fuel", "addr:full": "6030 CENTENNIAL CENTER BLVD", "addr:city": "LAS VEGAS", "addr:state": "NV", "addr:postcode": "89149", "addr:country": "US", "name": "259", "phone": "702-396-3597", "brand": "Terrible Herbst", "brand:wikidata": "Q7703648", "nsi_id": "terribles-c5cf43"}},
{"type": "Feature", "id": "Mj8ganoXHuIJ3GXkVScPki0mTXA=", "properties": {"ref": "262", "amenity:fuel": true, "amenity:chargingstation": false, "car_wash": false, "@spider": "terrible_herbst", "amenity": "fuel", "addr:full": "6111 W SAHARA", "addr:city": "LAS VEGAS", "addr:state": "NV", "addr:postcode": "89146", "addr:country": "US", "name": "262", "phone": "702-222-4329", "brand": "Terrible Herbst", "brand:wikidata": "Q7703648", "nsi_id": "terribles-c5cf43"}},
{"type": "Feature", "id": "qqd7SwlqIimo7_mstmmQ37QHEKc=", "properties": {"ref": "263", "amenity:fuel": true, "amenity:chargingstation": false, "car_wash": true, "@spider": "terrible_herbst", "amenity": "fuel", "addr:full": "598 N EASTERN", "addr:city": "LAS VEGAS", "addr:state": "NV", "addr:postcode": "89101", "addr:country": "US", "name": "263", "phone": "702-383-2869", "brand": "Terrible Herbst", "brand:wikidata": "Q7703648", "nsi_id": "terribles-c5cf43"}},
{"type": "Feature", "id": "9vfwJAFoCWS5k36Id4lwbLgzDwU=", "properties": {"ref": "264", "amenity:fuel": true, "amenity:chargingstation": false, "car_wash": false, "@spider": "terrible_herbst", "amenity": "fuel", "addr:full": "4910 S MARYLAND PKWY", "addr:city": "LAS VEGAS", "addr:state": "NV", "addr:postcode": "89119", "addr:country": "US", "name": "264", "phone": "702-895-8999", "brand": "Terrible Herbst", "brand:wikidata": "Q7703648", "nsi_id": "terribles-c5cf43"}},
{"type": "Feature", "id": "Xij5p1eDFytsYNw2IQo9gluEdS8=", "properties": {"ref": "266", "amenity:fuel": true, "amenity:chargingstation": false, "car_wash": false, "@spider": "terrible_herbst", "amenity": "fuel", "addr:full": "298 S. DECATUR", "addr:city": "LAS VEGAS", "addr:state": "NV", "addr:postcode": "89107", "addr:country": "US", "name": "266", "phone": "702-878-0507", "brand": "Terrible Herbst", "brand:wikidata": "Q7703648", "nsi_id": "terribles-c5cf43"}},
{"type": "Feature", "id": "AmzEfhQDr_clvYEMBJnnLoZP2Eo=", "properties": {"ref": "268", "amenity:fuel": true, "amenity:chargingstation": false, "car_wash": false, "@spider": "terrible_herbst", "amenity": "fuel", "addr:full": "9991 W CHARLESTON", "addr:city": "LAS VEGAS", "addr:state": "NV", "addr:postcode": "89117", "addr:country": "US", "name": "268", "phone": "702-932-9379", "brand": "Terrible Herbst", "brand:wikidata": "Q7703648", "nsi_id": "terribles-c5cf43"}},
{"type": "Feature", "id": "78Lub08Yq6mSZkhILoBVJZetPpQ=", "properties": {"ref": "269", "amenity:fuel": true, "amenity:chargingstation": false, "car_wash": true, "@spider": "terrible_herbst", "amenity": "fuel", "addr:full": "8132 LAS VEGAS BLVD SO.", "addr:city": "LAS VEGAS", "addr:state": "NV", "addr:postcode": "89123", "addr:country": "US", "name": "269", "phone": "702-897-7435", "brand": "Terrible Herbst", "brand:wikidata": "Q7703648", "nsi_id": "terribles-c5cf43"}},
{"type": "Feature", "id": "czHNcushJdG052YUei2X0nIzD0w=", "properties": {"ref": "270", "amenity:fuel": true, "amenity:chargingstation": false, "car_wash": false, "@spider": "terrible_herbst", "amenity": "fuel", "addr:full": "330 NORTH RANCHO", "addr:city": "LAS VEGAS", "addr:state": "NV", "addr:postcode": "89106", "addr:country": "US", "name": "270", "brand": "Terrible Herbst", "brand:wikidata": "Q7703648", "nsi_id": "terribles-c5cf43"}},
{"type": "Feature", "id": "2x1Wyn-Xhr9pgI4DuJ_UTFzOQPY=", "properties": {"ref": "272", "amenity:fuel": true, "amenity:chargingstation": false, "car_wash": false, "@spider": "terrible_herbst", "amenity": "fuel", "addr:full": "2395 NO. RANCHO", "addr:city": "LAS VEGAS", "addr:state": "NV", "addr:postcode": "89130", "addr:country": "US", "name": "272", "phone": "702-647-1472", "brand": "Terrible Herbst", "brand:wikidata": "Q7703648", "nsi_id": "terribles-c5cf43"}},
{"type": "Feature", "id": "oZAldokxTAeYvmmmgmAW2uL8i3g=", "properties": {"ref": "273", "amenity:fuel": true, "amenity:chargingstation": false, "car_wash": false, "@spider": "terrible_herbst", "amenity": "fuel", "addr:full": "2000 NO. RAINBOW", "addr:city": "LAS VEGAS", "addr:state": "NV", "addr:postcode": "89108", "addr:country": "US", "name": "273", "phone": "702-647-6981", "brand": "Terrible Herbst", "brand:wikidata": "Q7703648", "nsi_id": "terribles-c5cf43"}},
{"type": "Feature", "id": "17HM038CY_uDzLV9pmWaTfmi4Ig=", "properties": {"ref": "274", "amenity:fuel": true, "amenity:chargingstation": false, "car_wash": true, "@spider": "terrible_herbst", "amenity": "fuel", "addr:full": "1395 E. LAKE MEAD", "addr:city": "HENDERSON", "addr:state": "NV", "addr:postcode": "89015", "addr:country": "US", "name": "274", "phone": "702-566-9347", "brand": "Terrible Herbst", "brand:wikidata": "Q7703648", "nsi_id": "terribles-c5cf43"}},
{"type": "Feature", "id": "QvGWG6XOGiVqkMsjukYt3d3FHkM=", "properties": {"ref": "277", "amenity:fuel": true, "amenity:chargingstation": false, "car_wash": false, "@spider": "terrible_herbst", "amenity": "fuel", "addr:full": "1100 E. LAKE MEAD", "addr:city": "HENDERSON", "addr:state": "NV", "addr:postcode": "89015", "addr:country": "US", "name": "277", "phone": "702-564-9031", "brand": "Terrible Herbst", "brand:wikidata": "Q7703648", "nsi_id": "terribles-c5cf43"}},
{"type": "Feature", "id": "ipUfHzkg5hLTkchl9J4IXjoyj0U=", "properties": {"ref": "278", "amenity:fuel": true, "amenity:chargingstation": false, "car_wash": false, "@spider": "terrible_herbst", "amenity": "fuel", "addr:full": "1051 DESERT FOOTHILLS DR.", "addr:city": "LAS VEGAS", "addr:state": "NV", "addr:postcode": "89138", "addr:country": "US", "name": "278", "phone": "702-240-9253", "brand": "Terrible Herbst", "brand:wikidata": "Q7703648", "nsi_id": "terribles-c5cf43"}},
{"type": "Feature", "id": "nTzIsAL17Ob4_xWvnaJAaGSrL08=", "properties": {"ref": "280", "amenity:fuel": true, "amenity:chargingstation": false, "car_wash": true, "@spider": "terrible_herbst", "amenity": "fuel", "addr:full": "335 W. CRAIG RD", "addr:city": "NORTH LAS VEGAS", "addr:state": "NV", "addr:postcode": "89032", "addr:country": "US", "name": "280", "phone": "702-642-4815", "brand": "Terrible Herbst", "brand:wikidata": "Q7703648", "nsi_id": "terribles-c5cf43"}},
{"type": "Feature", "id": "RQ2m-HtFnV6j-B5GYgneQrmwnms=", "properties": {"ref": "282", "amenity:fuel": true, "amenity:chargingstation": false, "car_wash": true, "@spider": "terrible_herbst", "amenity": "fuel", "addr:full": "5982 LOSEE RD", "addr:city": "NORTH LAS VEGAS", "addr:state": "NV", "addr:postcode": "89081", "addr:country": "US", "name": "282", "phone": "702-633-5232", "brand": "Terrible Herbst", "brand:wikidata": "Q7703648", "nsi_id": "terribles-c5cf43"}},
{"type": "Feature", "id": "PRfC_Zhqug8BQ4sQZyK84g6hG-I=", "properties": {"ref": "283", "amenity:fuel": true, "amenity:chargingstation": false, "car_wash": false, "@spider": "terrible_herbst", "amenity": "fuel", "addr:full": "11330 SOUTHERN HIGHLANDS PKWY", "addr:city": "LAS VEGAS", "addr:state": "NV", "addr:postcode": "89141", "addr:country": "US", "name": "283", "phone": "702-385-0703", "brand": "Terrible Herbst", "brand:wikidata": "Q7703648", "nsi_id": "terribles-c5cf43"}},
{"type": "Feature", "id": "VnMp9yruaFb6IjrFAYahWl7QwhI=", "properties": {"ref": "285", "amenity:fuel": true, "amenity:chargingstation": false, "car_wash": true, "@spider": "terrible_herbst", "amenity": "fuel", "addr:full": "1550 JAMBOREE ROAD", "addr:city": "NEWPORT BEACH", "addr:state": "CA", "addr:postcode": "92660", "addr:country": "US", "name": "285", "phone": "949-644-7933", "brand": "Terrible Herbst", "brand:wikidata": "Q7703648", "nsi_id": "terribles-c5cf43"}},
{"type": "Feature", "id": "0jqLZ57ApMcQG8VEz0WuUwfiWUU=", "properties": {"ref": "290", "amenity:fuel": true, "amenity:chargingstation": false, "car_wash": true, "@spider": "terrible_herbst", "amenity": "fuel", "addr:full": "6050 W. SUNSET ROAD", "addr:city": "LAS VEGAS", "addr:state": "NV", "addr:postcode": "89118", "addr:country": "US", "name": "290", "phone": "702-251-0135", "brand": "Terrible Herbst", "brand:wikidata": "Q7703648", "nsi_id": "terribles-c5cf43"}},
{"type": "Feature", "id": "-u8LkOJy7p7usKnLkbXPGF1wtS8=", "properties": {"ref": "293", "amenity:fuel": true, "amenity:chargingstation": false, "car_wash": true, "@spider": "terrible_herbst", "amenity": "fuel", "addr:full": "1500 W. BONANZA", "addr:city": "LAS VEGAS", "addr:state": "NV", "addr:postcode": "89106", "addr:country": "US", "name": "293", "phone": "702-648-7109", "brand": "Terrible Herbst", "brand:wikidata": "Q7703648", "nsi_id": "terribles-c5cf43"}},
{"type": "Feature", "id": "k8qbFudq_Md4RTPXtS903_6kVQ8=", "properties": {"ref": "296", "amenity:fuel": true, "amenity:chargingstation": false, "car_wash": true, "@spider": "terrible_herbst", "amenity": "fuel", "addr:full": "4401 N. RAINBOW", "addr:city": "LAS VEGAS", "addr:state": "NV", "addr:postcode": "89108", "addr:country": "US", "name": "296", "phone": "702-645-0086", "brand": "Terrible Herbst", "brand:wikidata": "Q7703648", "nsi_id": "terribles-c5cf43"}},
{"type": "Feature", "id": "qk58F3LJkQYz4tpen3Jr7QJJpRg=", "properties": {"ref": "299", "amenity:fuel": true, "amenity:chargingstation": false, "car_wash": true, "@spider": "terrible_herbst", "amenity": "fuel", "addr:full": "5685 MOUNTAIN VISTA", "addr:city": "LAS VEGAS", "addr:state": "NV", "addr:postcode": "89120", "addr:country": "US", "name": "299", "phone": "702-434-2481", "brand": "Terrible Herbst", "brand:wikidata": "Q7703648", "nsi_id": "terribles-c5cf43"}},
{"type": "Feature", "id": "TLEp49YvD-eZlyVhTCp7n87MhlY=", "properties": {"ref": "305", "amenity:fuel": true, "amenity:chargingstation": false, "car_wash": true, "@spider": "terrible_herbst", "amenity": "fuel", "addr:full": "4850 W. SILVERADO RANCH BLVD", "addr:city": "LAS VEGAS", "addr:state": "NV", "addr:postcode": "89139", "addr:country": "US", "name": "305", "phone": "702-837-0614", "brand": "Terrible Herbst", "brand:wikidata": "Q7703648", "nsi_id": "terribles-c5cf43"}},
{"type": "Feature", "id": "0Y3lqAR15iWRzQyK-UD7XGcgvJs=", "properties": {"ref": "310", "amenity:fuel": true, "amenity:chargingstation": false, "car_wash": true, "@spider": "terrible_herbst", "amenity": "fuel", "addr:full": "3320 NOVAT STREET", "addr:city": "LAS VEGAS", "addr:state": "NV", "addr:postcode": "89129", "addr:country": "US", "name": "310", "phone": "702-228-5821", "brand": "Terrible Herbst", "brand:wikidata": "Q7703648", "nsi_id": "terribles-c5cf43"}},
{"type": "Feature", "id": "Q9Egv0G8fg8GSUqD1bJRby3I2KI=", "properties": {"ref": "314", "amenity:fuel": true, "amenity:chargingstation": false, "car_wash": true, "@spider": "terrible_herbst", "amenity": "fuel", "addr:full": "8594 BLUE DIAMOND ROAD", "addr:city": "LAS VEGAS", "addr:state": "NV", "addr:postcode": "89178", "addr:country": "US", "name": "314", "phone": "702-492-0297", "brand": "Terrible Herbst", "brand:wikidata": "Q7703648", "nsi_id": "terribles-c5cf43"}},
{"type": "Feature", "id": "hjyOyys36EWJ1g-J7MvvZXJ9hAg=", "properties": {"ref": "321", "amenity:fuel": true, "amenity:chargingstation": false, "car_wash": false, "@spider": "terrible_herbst", "amenity": "fuel", "addr:full": "6501 SHOW PLACE AVENUE", "addr:city": "LAKE HAVASU CITY", "addr:state": "AZ", "addr:postcode": "86404", "addr:country": "US", "name": "321", "phone": "928-764-2531", "brand": "Terrible Herbst", "brand:wikidata": "Q7703648", "nsi_id": "terribles-c5cf43"}},
{"type": "Feature", "id": "8r7BBVpNRWNDlrK_9--zHcAzQKw=", "properties": {"ref": "324", "amenity:fuel": true, "amenity:chargingstation": false, "car_wash": false, "@spider": "terrible_herbst", "amenity": "fuel", "addr:full": "8490 WESTCLIFF DR", "addr:city": "LAS VEGAS", "addr:state": "NV", "addr:postcode": "89145", "addr:country": "US", "name": "324", "phone": "702-233-2597", "brand": "Terrible Herbst", "brand:wikidata": "Q7703648", "nsi_id": "terribles-c5cf43"}},
{"type": "Feature", "id": "_EtlL0P-v3RioOUKDqHIMKlsjIE=", "properties": {"ref": "325", "amenity:fuel": true, "amenity:chargingstation": false, "car_wash": false, "@spider": "terrible_herbst", "amenity": "fuel", "addr:full": "12325 STATE HWY 160", "addr:city": "LAS VEGAS", "addr:state": "NV", "addr:postcode": "89161", "addr:country": "US", "name": "325", "phone": "702-433-0316", "brand": "Terrible Herbst", "brand:wikidata": "Q7703648", "nsi_id": "terribles-c5cf43"}},
{"type": "Feature", "id": "LsRdawG8g0AS_KhhPQYKbZfuM0I=", "properties": {"ref": "326", "amenity:fuel": true, "amenity:chargingstation": false, "car_wash": true, "@spider": "terrible_herbst", "amenity": "fuel", "addr:full": "9430 PEACE WAY", "addr:city": "LAS VEGAS", "addr:state": "NV", "addr:postcode": "89147", "addr:country": "US", "name": "326", "phone": "702-247-4032", "brand": "Terrible Herbst", "brand:wikidata": "Q7703648", "nsi_id": "terribles-c5cf43"}},
{"type": "Feature", "id": "ET_D2-OZLu-hBJ0q-uZNmJfquIY=", "properties": {"ref": "327", "amenity:fuel": true, "amenity:chargingstation": false, "car_wash": false, "@spider": "terrible_herbst", "amenity": "fuel", "addr:full": "2065 S. CASINO DRIVE", "addr:city": "LAUGHLIN", "addr:state": "NV", "addr:postcode": "89029", "addr:country": "US", "name": "327", "phone": "702-298-0928", "brand": "Terrible Herbst", "brand:wikidata": "Q7703648", "nsi_id": "terribles-c5cf43"}},
{"type": "Feature", "id": "UTdM6Lfhu3x41tAl1Ulm2GmAsyo=", "properties": {"ref": "328", "amenity:fuel": true, "amenity:chargingstation": false, "car_wash": false, "@spider": "terrible_herbst", "amenity": "fuel", "addr:full": "9380 W TROPICANA AVE", "addr:city": "LAS VEGAS", "addr:state": "NV", "addr:postcode": "89147", "addr:country": "US", "name": "328", "phone": "702-220-7452", "brand": "Terrible Herbst", "brand:wikidata": "Q7703648", "nsi_id": "terribles-c5cf43"}},
{"type": "Feature", "id": "V1XfyBiE-wkmYMzx7jV8kneqGCs=", "properties": {"ref": "329", "amenity:fuel": true, "amenity:chargingstation": false, "car_wash": false, "@spider": "terrible_herbst", "amenity": "fuel", "addr:full": "70 FALCON RIDGE PARKWAY", "addr:city": "MESQUITE", "addr:state": "NV", "addr:postcode": "89027", "addr:country": "US", "name": "329", "phone": "702-346-1895", "brand": "Terrible Herbst", "brand:wikidata": "Q7703648", "nsi_id": "terribles-c5cf43"}},
{"type": "Feature", "id": "mYYy8XtSh3PVDQroh4EXbPXiU5o=", "properties": {"ref": "330", "amenity:fuel": true, "amenity:chargingstation": false, "car_wash": true, "@spider": "terrible_herbst", "amenity": "fuel", "addr:full": "115 N. STEPHANIE ST.", "addr:city": "HENDERSON", "addr:state": "NV", "addr:postcode": "89074", "addr:country": "US", "name": "330", "phone": "702-433-1387", "brand": "Terrible Herbst", "brand:wikidata": "Q7703648", "nsi_id": "terribles-c5cf43"}},
{"type": "Feature", "id": "qYzoJx6WRbBHdq_dk5tcQCH7u8w=", "properties": {"ref": "331", "amenity:fuel": true, "amenity:chargingstation": false, "car_wash": true, "@spider": "terrible_herbst", "amenity": "fuel", "addr:full": "3275 S. RAINBOW BLVD", "addr:city": "LAS VEGAS", "addr:state": "NV", "addr:postcode": "89146", "addr:country": "US", "name": "331", "phone": "702-368-0285", "brand": "Terrible Herbst", "brand:wikidata": "Q7703648", "nsi_id": "terribles-c5cf43"}},
{"type": "Feature", "id": "Asyg731USLfgO9tw5nz94mFC7H8=", "properties": {"ref": "332", "amenity:fuel": true, "amenity:chargingstation": false, "car_wash": true, "@spider": "terrible_herbst", "amenity": "fuel", "addr:full": "7560 OSO BLANCA ROAD", "addr:city": "LAS VEGAS", "addr:state": "NV", "addr:postcode": "89149", "addr:country": "US", "name": "332", "phone": "702-369-0904", "brand": "Terrible Herbst", "brand:wikidata": "Q7703648", "nsi_id": "terribles-c5cf43"}},
{"type": "Feature", "id": "VCZct4-0uw6Qsp7x1AFZIU3L-HU=", "properties": {"ref": "335", "amenity:fuel": true, "amenity:chargingstation": false, "car_wash": false, "@spider": "terrible_herbst", "amenity": "fuel", "addr:full": "1591 N DECATUR BLVD", "addr:city": "LAS VEGAS", "addr:state": "NV", "addr:postcode": "89108", "addr:country": "US", "name": "335", "phone": "702-638-0427", "brand": "Terrible Herbst", "brand:wikidata": "Q7703648", "nsi_id": "terribles-c5cf43"}},
{"type": "Feature", "id": "c2C-rvZuyL3FFFSJ3jXAubd6jKc=", "properties": {"ref": "336", "amenity:fuel": true, "amenity:chargingstation": false, "car_wash": false, "@spider": "terrible_herbst", "amenity": "fuel", "addr:full": "4401 E BONANZA RD", "addr:city": "LAS VEGAS", "addr:state": "NV", "addr:postcode": "89110", "addr:country": "US", "name": "336", "phone": "702-381-0842", "brand": "Terrible Herbst", "brand:wikidata": "Q7703648", "nsi_id": "terribles-c5cf43"}},
{"type": "Feature", "id": "0ZurEV6x6WniLRJPWe7cfERxzfw=", "properties": {"ref": "337", "amenity:fuel": true, "amenity:chargingstation": false, "car_wash": false, "@spider": "terrible_herbst", "amenity": "fuel", "addr:full": "1004 NEVADA WAY", "addr:city": "BOULDER CITY", "addr:state": "NV", "addr:postcode": "89005", "addr:country": "US", "name": "337", "phone": "702-293-0819 ", "brand": "Terrible Herbst", "brand:wikidata": "Q7703648", "nsi_id": "terribles-c5cf43"}},
{"type": "Feature", "id": "q7oN4xvRfnJCLb21gTNS255MEKI=", "properties": {"ref": "338", "amenity:fuel": true, "amenity:chargingstation": false, "car_wash": false, "@spider": "terrible_herbst", "amenity": "fuel", "addr:full": "100 VILLE DR", "addr:city": "BOULDER CITY", "addr:state": "NV", "addr:postcode": "89005", "addr:country": "US", "name": "338", "phone": "702-293-3876", "brand": "Terrible Herbst", "brand:wikidata": "Q7703648", "nsi_id": "terribles-c5cf43"}},
{"type": "Feature", "id": "LfmdPDD6xFyzjD2FIAWihAfSvQM=", "properties": {"ref": "339", "amenity:fuel": true, "amenity:chargingstation": false, "car_wash": false, "@spider": "terrible_herbst", "amenity": "fuel", "addr:full": "2065 S. CASINO DRIVE", "addr:city": "LAUGHLIN", "addr:state": "NV", "addr:postcode": "89029", "addr:country": "US", "name": "339", "phone": "702-298-1800", "brand": "Terrible Herbst", "brand:wikidata": "Q7703648", "nsi_id": "terribles-c5cf43"}},
{"type": "Feature", "id": "1RrPqcXxqBqfGguisgUQsBRWP-s=", "properties": {"ref": "340", "amenity:fuel": true, "amenity:chargingstation": false, "car_wash": true, "@spider": "terrible_herbst", "amenity": "fuel", "addr:full": "3428 ST. ROSE PKWY", "addr:city": "HENDERSON", "addr:state": "NV", "addr:postcode": "89052", "addr:country": "US", "name": "340", "phone": "702-568-0942", "brand": "Terrible Herbst", "brand:wikidata": "Q7703648", "nsi_id": "terribles-c5cf43"}},
{"type": "Feature", "id": "NvO_RVd6EXoMtNZe6Uz_7KVUd4k=", "properties": {"ref": "341", "amenity:fuel": true, "amenity:chargingstation": false, "car_wash": false, "@spider": "terrible_herbst", "amenity": "fuel", "addr:full": "148 MACFARLAND AVENUE", "addr:city": "INDIAN SPRINGS", "addr:state": "NV", "addr:postcode": "89108", "addr:country": "US", "name": "341", "phone": "702-879-3567", "brand": "Terrible Herbst", "brand:wikidata": "Q7703648", "nsi_id": "terribles-c5cf43"}},
{"type": "Feature", "id": "P246FevGZ3z5PI-7fY1hJE7k9Yk=", "properties": {"ref": "342", "amenity:fuel": true, "amenity:chargingstation": false, "car_wash": false, "@spider": "terrible_herbst", "amenity": "fuel", "addr:full": "9475 W. DESERT INN ROAD", "addr:city": "LAS VEGAS", "addr:state": "NV", "addr:postcode": "89117", "addr:country": "US", "name": "342", "phone": "702-304-0195", "brand": "Terrible Herbst", "brand:wikidata": "Q7703648", "nsi_id": "terribles-c5cf43"}},
{"type": "Feature", "id": "5Tuw5wus37MK5AYv74ahuL-omYY=", "properties": {"ref": "345", "amenity:fuel": true, "amenity:chargingstation": false, "car_wash": true, "@spider": "terrible_herbst", "amenity": "fuel", "addr:full": "3780 W. SUNSET ROAD", "addr:city": "LAS VEGAS", "addr:state": "NV", "addr:postcode": "89118", "addr:country": "US", "name": "345", "phone": "702-260-8946", "brand": "Terrible Herbst", "brand:wikidata": "Q7703648", "nsi_id": "terribles-c5cf43"}},
{"type": "Feature", "id": "VvVPyrCcWnb7xdsd6LQXt2lP1u8=", "properties": {"ref": "347", "amenity:fuel": true, "amenity:chargingstation": false, "car_wash": true, "@spider": "terrible_herbst", "amenity": "fuel", "addr:full": "5590 N. RAINBOW BLVD", "addr:city": "LAS VEGAS", "addr:state": "NV", "addr:postcode": "89130", "addr:country": "US", "name": "347", "phone": "702-395-2188", "brand": "Terrible Herbst", "brand:wikidata": "Q7703648", "nsi_id": "terribles-c5cf43"}},
{"type": "Feature", "id": "KV1wY5EUAhXuTbcIM42kOWpx4F8=", "properties": {"ref": "349", "amenity:fuel": true, "amenity:chargingstation": false, "car_wash": true, "@spider": "terrible_herbst", "amenity": "fuel", "addr:full": "47 E CACTUS AVENUE", "addr:city": "LAS VEGAS", "addr:state": "NV", "addr:postcode": "89183", "addr:country": "US", "name": "349", "phone": "702-260-7927", "brand": "Terrible Herbst", "brand:wikidata": "Q7703648", "nsi_id": "terribles-c5cf43"}},
{"type": "Feature", "id": "0KrND3KWtAgIWa9zs2Zaigv7-ZE=", "properties": {"ref": "350", "amenity:fuel": true, "amenity:chargingstation": false, "car_wash": false, "@spider": "terrible_herbst", "amenity": "fuel", "addr:full": "OLETA & JONES", "addr:city": "LAS VEGAS", "addr:state": "NV", "addr:postcode": "89139", "addr:country": "US", "name": "350", "brand": "Terrible Herbst", "brand:wikidata": "Q7703648", "nsi_id": "terribles-c5cf43"}},
{"type": "Feature", "id": "NBOxqHbu7ON-DZVPzRlYEySJaok=", "properties": {"ref": "368", "amenity:fuel": true, "amenity:chargingstation": false, "car_wash": true, "@spider": "terrible_herbst", "amenity": "fuel", "addr:full": "4655 SOUTH PIONEER ROAD", "addr:city": "ST. GEORGE", "addr:state": "UT", "addr:postcode": "84790", "addr:country": "US", "name": "368", "phone": "435-359-9777", "brand": "Terrible Herbst", "brand:wikidata": "Q7703648", "nsi_id": "terribles-c5cf43"}},
{"type": "Feature", "id": "SxcIYJjMwyOnDzIy77NEsvFGbjw=", "properties": {"ref": "369", "amenity:fuel": true, "amenity:chargingstation": false, "car_wash": true, "@spider": "terrible_herbst", "amenity": "fuel", "addr:full": "2755 E CRAIG RD ", "addr:city": "NORTH LAS VEGAS", "addr:state": "NV", "addr:postcode": "89030", "addr:country": "US", "name": "369", "brand": "Terrible Herbst", "brand:wikidata": "Q7703648", "nsi_id": "terribles-c5cf43"}},
{"type": "Feature", "id": "KIXrXS59lHhUeBfHHQLyuCSvDPg=", "properties": {"ref": "370", "amenity:fuel": true, "amenity:chargingstation": false, "car_wash": true, "@spider": "terrible_herbst", "amenity": "fuel", "addr:full": "954 N. COMMERCE BLVD ", "addr:city": "WASHINGTON CITY", "addr:state": "UT", "addr:postcode": "84780", "addr:country": "US", "name": "370", "phone": "435-773-2329", "brand": "Terrible Herbst", "brand:wikidata": "Q7703648", "nsi_id": "terribles-c5cf43"}},
{"type": "Feature", "id": "bbLnx7AyrUEgchZttCCuISjEILI=", "properties": {"ref": "371", "amenity:fuel": true, "amenity:chargingstation": false, "car_wash": false, "@spider": "terrible_herbst", "amenity": "fuel", "addr:full": "10591 W. LONE MOUNTAIN ROAD ", "addr:city": "LAS VEGAS", "addr:state": "NV", "addr:postcode": "89129", "addr:country": "US", "name": "371", "phone": "702-369-0057", "brand": "Terrible Herbst", "brand:wikidata": "Q7703648", "nsi_id": "terribles-c5cf43"}},
{"type": "Feature", "id": "0uEZG15W1XMZTHVdsYpD_cn98aI=", "properties": {"ref": "372", "amenity:fuel": true, "amenity:chargingstation": false, "car_wash": false, "@spider": "terrible_herbst", "amenity": "fuel", "addr:full": "2237 W CHARLESTON BLVD ", "addr:city": "LAS VEGAS", "addr:state": "NV", "addr:postcode": "89102", "addr:country": "US", "name": "372", "phone": "702-381-4177", "brand": "Terrible Herbst", "brand:wikidata": "Q7703648", "nsi_id": "terribles-c5cf43"}},
{"type": "Feature", "id": "ZuV4Rw6oUom7K7H-BeMJv2hCM94=", "properties": {"ref": "373", "amenity:fuel": true, "amenity:chargingstation": false, "car_wash": false, "@spider": "terrible_herbst", "amenity": "fuel", "addr:full": "8635 SPRING MOUNTAIN RD", "addr:city": "LAS VEGAS", "addr:state": "NV", "addr:postcode": "89117", "addr:country": "US", "name": "373", "phone": "702-381-1641", "brand": "Terrible Herbst", "brand:wikidata": "Q7703648", "nsi_id": "terribles-c5cf43"}},
{"type": "Feature", "id": "4IlDaCNyNh0l2RXCEDOuLbv1lMI=", "properties": {"ref": "374", "amenity:fuel": true, "amenity:chargingstation": false, "car_wash": true, "@spider": "terrible_herbst", "amenity": "fuel", "addr:full": "1700 E MAIN ST ", "addr:city": "BARSTOW", "addr:state": "CA", "addr:postcode": "92311", "addr:country": "US", "name": "374", "phone": "760-818-4167", "brand": "Terrible Herbst", "brand:wikidata": "Q7703648", "nsi_id": "terribles-c5cf43"}},
{"type": "Feature", "id": "IvYgXIe2oHHyIGnDP0hc7Kk-D54=", "properties": {"ref": "375", "amenity:fuel": true, "amenity:chargingstation": false, "car_wash": false, "@spider": "terrible_herbst", "amenity": "fuel", "addr:full": "3201 W TROPICANA AVE ", "addr:city": "LAS VEGAS", "addr:state": "NV", "addr:postcode": "89103", "addr:country": "US", "name": "375", "phone": "702-381-1424", "brand": "Terrible Herbst", "brand:wikidata": "Q7703648", "nsi_id": "terribles-c5cf43"}},
{"type": "Feature", "id": "cUSBcFpfGCwh4_5WJ0Hyilc-xMo=", "properties": {"ref": "376", "amenity:fuel": true, "amenity:chargingstation": false, "car_wash": false, "@spider": "terrible_herbst", "amenity": "fuel", "addr:full": "5722 S EASTERN AVE ", "addr:city": "LAS VEGAS", "addr:state": "NV", "addr:postcode": "89119", "addr:country": "US", "name": "376", "phone": "702-548-0180", "brand": "Terrible Herbst", "brand:wikidata": "Q7703648", "nsi_id": "terribles-c5cf43"}},
{"type": "Feature", "id": "UmD9_DGV2_gxMGIkob8hhTLbtaU=", "properties": {"ref": "377", "amenity:fuel": true, "amenity:chargingstation": false, "car_wash": false, "@spider": "terrible_herbst", "amenity": "fuel", "addr:full": "4701 W LAKE MEAD", "addr:city": "LAS VEGAS", "addr:state": "NV", "addr:postcode": "89108", "addr:country": "US", "name": "377", "phone": "702-381-1485", "brand": "Terrible Herbst", "brand:wikidata": "Q7703648", "nsi_id": "terribles-c5cf43"}},
{"type": "Feature", "id": "OUhtBrbSTDzh_rY8Asl1K0l965Y=", "properties": {"ref": "378", "amenity:fuel": true, "amenity:chargingstation": false, "car_wash": false, "@spider": "terrible_herbst", "amenity": "fuel", "addr:full": "6075 SPRING MOUNTAIN RD", "addr:city": "LAS VEGAS", "addr:state": "NV", "addr:postcode": "89146", "addr:country": "US", "name": "378", "phone": "702-381-1602", "brand": "Terrible Herbst", "brand:wikidata": "Q7703648", "nsi_id": "terribles-c5cf43"}},
{"type": "Feature", "id": "qMd5y8aTQweWNtMKpsq7Yh2xBHc=", "properties": {"ref": "379", "amenity:fuel": true, "amenity:chargingstation": false, "car_wash": false, "@spider": "terrible_herbst", "amenity": "fuel", "addr:full": "400 N. EASTERN AVENUE", "addr:city": "LAS VEGAS", "addr:state": "NV", "addr:postcode": "89101", "addr:country": "US", "name": "379", "phone": "702-381-1226", "brand": "Terrible Herbst", "brand:wikidata": "Q7703648", "nsi_id": "terribles-c5cf43"}},
{"type": "Feature", "id": "uAPNpzP37mJFpCi7sxSo1HcBNCk=", "properties": {"ref": "380", "amenity:fuel": true, "amenity:chargingstation": false, "car_wash": false, "@spider": "terrible_herbst", "amenity": "fuel", "addr:full": "2596 COMMERCE PARKWAY", "addr:city": "BARSTOW", "addr:state": "CA", "addr:postcode": "92311", "addr:country": "US", "name": "380", "brand": "Terrible Herbst", "brand:wikidata": "Q7703648", "nsi_id": "terribles-c5cf43"}},
{"type": "Feature", "id": "75lvDa5lKyPKVZxdXaP9k0ulCe4=", "properties": {"ref": "381", "amenity:fuel": true, "amenity:chargingstation": false, "car_wash": false, "@spider": "terrible_herbst", "amenity": "fuel", "addr:full": "439 E. DORRELL LANE", "addr:city": "NORTH LAS VEGAS", "addr:state": "NV", "addr:postcode": "89084", "addr:country": "US", "name": "381", "brand": "Terrible Herbst", "brand:wikidata": "Q7703648", "nsi_id": "terribles-c5cf43"}},
{"type": "Feature", "id": "vFyGG23PJ88XNEMcgQC3hjshPh8=", "properties": {"ref": "382", "amenity:fuel": true, "amenity:chargingstation": false, "car_wash": false, "@spider": "terrible_herbst", "amenity": "fuel", "addr:full": "3399 S DURANGO DR #101", "addr:city": "LAS VEGAS", "addr:state": "NV", "addr:postcode": "89117", "addr:country": "US", "name": "382", "phone": "702-293-3341", "brand": "Terrible Herbst", "brand:wikidata": "Q7703648", "nsi_id": "terribles-c5cf43"}},
{"type": "Feature", "id": "t0KAm5xQjpZBUKBcs8gKfxCKQAg=", "properties": {"ref": "383", "amenity:fuel": true, "amenity:chargingstation": false, "car_wash": false, "@spider": "terrible_herbst", "amenity": "fuel", "addr:full": "6660 VEGAS DR", "addr:city": "LAS VEGAS", "addr:state": "NV", "addr:postcode": "89108", "addr:country": "US", "name": "383", "phone": "702-638-0174", "brand": "Terrible Herbst", "brand:wikidata": "Q7703648", "nsi_id": "terribles-c5cf43"}},
{"type": "Feature", "id": "S_D2YsBIdN7_cZSJXOpT1i17KJE=", "properties": {"ref": "384", "amenity:fuel": true, "amenity:chargingstation": false, "car_wash": false, "@spider": "terrible_herbst", "amenity": "fuel", "addr:full": "7600 WESTCLIFF DRIVE", "addr:city": "LAS VEGAS", "addr:state": "NV", "addr:postcode": "89145", "addr:country": "US", "name": "384", "phone": "702-233-3226", "brand": "Terrible Herbst", "brand:wikidata": "Q7703648", "nsi_id": "terribles-c5cf43"}},
{"type": "Feature", "id": "TtLZX-BjKhuQeXYMxkJgmxEzXwE=", "properties": {"ref": "385", "amenity:fuel": true, "amenity:chargingstation": false, "car_wash": true, "@spider": "terrible_herbst", "amenity": "fuel", "addr:full": "2222 FREMONT ST.", "addr:city": "LAS VEGAS", "addr:state": "NV", "addr:postcode": "89101", "addr:country": "US", "name": "385", "phone": "725-217-1871", "brand": "Terrible Herbst", "brand:wikidata": "Q7703648", "nsi_id": "terribles-c5cf43"}},
{"type": "Feature", "id": "y3gXvpH6U-NMV-XNhz4RFAVzw7A=", "properties": {"ref": "388", "amenity:fuel": true, "amenity:chargingstation": false, "car_wash": false, "@spider": "terrible_herbst", "amenity": "fuel", "addr:full": "I-15 & LEWIS RANCH ROAD", "addr:city": "MOAPA", "addr:state": "NV", "addr:postcode": "89025", "addr:country": "US", "name": "388", "brand": "Terrible Herbst", "brand:wikidata": "Q7703648", "nsi_id": "terribles-c5cf43"}},
{"type": "Feature", "id": "OAAFKaoUyBtycMae_y6Me0duMos=", "properties": {"ref": "389", "amenity:fuel": true, "amenity:chargingstation": false, "car_wash": false, "@spider": "terrible_herbst", "amenity": "fuel", "addr:full": "7000 W CACTUS AVE", "addr:city": "LAS VEGAS", "addr:state": "NV", "addr:postcode": "89178", "addr:country": "US", "name": "389", "brand": "Terrible Herbst", "brand:wikidata": "Q7703648", "nsi_id": "terribles-c5cf43"}},
{"type": "Feature", "id": "EbH0nA_uCj7ht2bl575_6QnSAjY=", "properties": {"ref": "390", "amenity:fuel": true, "amenity:chargingstation": false, "car_wash": true, "@spider": "terrible_herbst", "amenity": "fuel", "addr:full": "3616 N LAS VEGAS BLVD", "addr:city": "LAS VEGAS", "addr:state": "NV", "addr:postcode": "89115", "addr:country": "US", "name": "390", "phone": "702-643-1082", "brand": "Terrible Herbst", "brand:wikidata": "Q7703648", "nsi_id": "terribles-c5cf43"}},
{"type": "Feature", "id": "B3QN40oAMoA4gIj8yYY9APQWBKU=", "properties": {"ref": "410", "amenity:fuel": true, "amenity:chargingstation": false, "car_wash": false, "@spider": "terrible_herbst", "amenity": "fuel", "addr:full": "780 E. PYLE ", "addr:city": "LAS VEGAS", "addr:state": "NV", "addr:postcode": "89183", "addr:country": "US", "name": "410", "phone": "702-437-1023", "brand": "Terrible Herbst", "brand:wikidata": "Q7703648", "nsi_id": "terribles-c5cf43"}},
{"type": "Feature", "id": "VTBoHd8ixeO_q8JIqLSi9rTVxZY=", "properties": {"ref": "411", "amenity:fuel": true, "amenity:chargingstation": false, "car_wash": false, "@spider": "terrible_herbst", "amenity": "fuel", "addr:full": "19985 N. HIGHWAY 93 ", "addr:city": "WHITE HILLS", "addr:state": "AZ", "addr:postcode": "86445", "addr:country": "US", "name": "411", "phone": "828-767-3131", "brand": "Terrible Herbst", "brand:wikidata": "Q7703648", "nsi_id": "terribles-c5cf43"}},
{"type": "Feature", "id": "b2OSV5WufJwg1dUbhsXfNHhAxE8=", "properties": {"ref": "701", "amenity:fuel": true, "amenity:chargingstation": false, "car_wash": false, "@spider": "terrible_herbst", "amenity": "fuel", "addr:full": "1 MAIN STREET", "addr:city": "JEAN", "addr:state": "NV", "addr:postcode": "89019", "addr:country": "US", "name": "701", "phone": "702-874-1515", "brand": "Terrible Herbst", "brand:wikidata": "Q7703648", "nsi_id": "terribles-c5cf43"}},
{"type": "Feature", "id": "Rz999Rfvt4wRekQ2rQ_xungW98g=", "properties": {"ref": "861", "amenity:fuel": true, "amenity:chargingstation": false, "car_wash": true, "@spider": "terrible_herbst", "amenity": "fuel", "addr:full": "4640 S. CARSON STREET", "addr:city": "CARSON CITY", "addr:postcode": "89701", "addr:country": "US", "name": "861", "phone": "775-283-0770", "brand": "Terrible Herbst", "brand:wikidata": "Q7703648", "nsi_id": "terribles-c5cf43"}},
{"type": "Feature", "id": "hez8KbQ9ML7-jtDXUO09c9KW2x4=", "properties": {"ref": "703/704", "amenity:fuel": true, "amenity:chargingstation": true, "car_wash": false, "@spider": "terrible_herbst", "amenity": "fuel", "addr:full": "22625 STATE HWY 161", "addr:city": "JEAN", "addr:state": "NV", "addr:postcode": "89019", "addr:country": "US", "name": "703/704", "phone": "702-874-0180", "brand": "Terrible Herbst", "brand:wikidata": "Q7703648", "nsi_id": "terribles-c5cf43"}},
{"type": "Feature", "id": "WDWxpKixAHcHrHrAe39RU-p-kGs=", "properties": {"ref": "417", "amenity:fuel": true, "amenity:chargingstation": false, "car_wash": false, "@spider": "terrible_herbst", "amenity": "fuel", "addr:full": "5001 North Rainbow Blvd", "addr:city": "LAS VEGAS", "addr:state": "NV", "addr:postcode": "89130", "addr:country": "US", "name": "417", "brand": "Terrible Herbst", "brand:wikidata": "Q7703648", "nsi_id": "terribles-c5cf43"}},
{"type": "Feature", "id": "M-6Yhokpn8eoDNqkGximOZYtsVE=", "properties": {"ref": "421", "amenity:fuel": true, "amenity:chargingstation": false, "car_wash": false, "@spider": "terrible_herbst", "amenity": "fuel", "addr:full": "593 Zion Park Blvd", "addr:city": "Springdale", "addr:state": "UT", "addr:postcode": "84767", "addr:country": "US", "name": "421", "brand": "Terrible Herbst", "brand:wikidata": "Q7703648", "nsi_id": "terribles-c5cf43"}},
{"type": "Feature", "id": "T0Chf8a_BLKBgVzX8IAes6TB62Y=", "properties": {"ref": "399", "amenity:fuel": true, "amenity:chargingstation": false, "car_wash": false, "@spider": "terrible_herbst", "amenity": "fuel", "addr:full": "4349 Nexus Way", "addr:city": "NORTH LAS VEGAS", "addr:state": "NV", "addr:postcode": "89081", "addr:country": "US", "name": "399", "brand": "Terrible Herbst", "brand:wikidata": "Q7703648", "nsi_id": "terribles-c5cf43"}}]}