{"type":"FeatureCollection","features":[{"type": "Feature", "id": "PitwgZao-DLrKRf3njx4Xdgm_4I=", "properties": {"ref": "0", "@spider": "thales_fr", "addr:full": "360 Route d'Ardon", "addr:city": "Marcilly-en-Villette", "addr:postcode": "45240", "addr:country": "FR", "name": "TDA ARMEMENTS S.A.S.", "brand": "Thales", "brand:wikidata": "Q1161666"}, "geometry": {"type": "Point", "coordinates": [1.9823034, 47.7644361]}},
{"type": "Feature", "id": "pdHDaxRbUlMTpZCLkh5IlhN31Jg=", "properties": {"ref": "1", "@spider": "thales_fr", "addr:full": "11-13 Avenue Carnot", "addr:city": "Massy", "addr:postcode": "91300", "addr:country": "FR", "name": "TDA ARMEMENTS S.A.S.", "brand": "Thales", "brand:wikidata": "Q1161666"}, "geometry": {"type": "Point", "coordinates": [2.2677563, 48.7292863]}},
{"type": "Feature", "id": "XTsWF6-pu0MVlPB9lck5rkFE7CM=", "properties": {"ref": "2", "@spider": "thales_fr", "addr:full": "105 Avenue du G\u00e9n\u00e9ral Eisenhower", "addr:city": "Toulouse", "addr:postcode": "31100", "addr:country": "FR", "name": "THALES AIR SYSTEMS S.A.", "brand": "Thales", "brand:wikidata": "Q1161666"}, "geometry": {"type": "Point", "coordinates": [1.3839147, 43.5647741]}},
{"type": "Feature", "id": "HBoYHNdplLGAcpq94xL8KvARI10=", "properties": {"ref": "3", "@spider": "thales_fr", "addr:full": "29 Rue des Marais", "addr:city": "Fleury-les-Aubrais", "addr:postcode": "45770", "addr:country": "FR", "name": "THALES AIR SYSTEMS S.A.", "brand": "Thales", "brand:wikidata": "Q1161666"}, "geometry": {"type": "Point", "coordinates": [1.9133433, 47.9453081]}},
{"type": "Feature", "id": "UjxbFdsxM-pUCDvOaMIvMgEpA4U=", "properties": {"ref": "4", "@spider": "thales_fr", "addr:full": "3 Avenue Charles Lindbergh", "addr:city": "Rungis", "addr:postcode": "94150", "addr:country": "FR", "name": "THALES AIR SYSTEMS S.A.", "brand": "Thales", "brand:wikidata": "Q1161666"}, "geometry": {"type": "Point", "coordinates": [2.3536508, 48.751112]}},
{"type": "Feature", "id": "cOz9_5jYO27oucVc6CTQ8ScR_Js=", "properties": {"ref": "5", "@spider": "thales_fr", "addr:full": "3 Place d'Armes", "addr:city": "Toulon", "addr:postcode": "83000", "addr:country": "FR", "name": "THALES AIR SYSTEMS S.A.", "brand": "Thales", "brand:wikidata": "Q1161666"}, "geometry": {"type": "Point", "coordinates": [5.928, 43.124228]}},
{"type": "Feature", "id": "aAxrm8j0xr_2bhAKgpe4nVS-aug=", "properties": {"ref": "6", "@spider": "thales_fr", "addr:full": "41 Avenue de Biscarrosse", "addr:city": "La Teste-de-Buch", "addr:postcode": "33115", "addr:country": "FR", "name": "THALES AIR SYSTEMS S.A.", "brand": "Thales", "brand:wikidata": "Q1161666"}, "geometry": {"type": "Point", "coordinates": [-1.2016343, 44.6058247]}},
{"type": "Feature", "id": "1ZwaIE8m5JgpShOGfZXw-2ohXuQ=", "properties": {"ref": "7", "@spider": "thales_fr", "addr:full": "12 Avenue Gay Lussac", "addr:city": "\u00c9lancourt", "addr:postcode": "78990", "addr:country": "FR", "name": "THALES AIR SYSTEMS S.A.", "brand": "Thales", "brand:wikidata": "Q1161666"}, "geometry": {"type": "Point", "coordinates": [1.9762972, 48.7941123]}},
{"type": "Feature", "id": "ZIwPfgDlyVO0ICQs_QjCPv6WLss=", "properties": {"ref": "8", "@spider": "thales_fr", "addr:full": "1 Rue Pierre Gilles de Gennes", "addr:city": "Limours", "addr:postcode": "91470", "addr:country": "FR", "name": "THALES AIR SYSTEMS S.A.", "brand": "Thales", "brand:wikidata": "Q1161666"}, "geometry": {"type": "Point", "coordinates": [2.0976508, 48.6490011]}},
{"type": "Feature", "id": "TZiH1ACLB3JMRzXB_ddj3QPxA-o=", "properties": {"ref": "9", "@spider": "thales_fr", "addr:full": "Le Mont Jarret", "addr:city": "Ymare", "addr:postcode": "76520", "addr:country": "FR", "name": "THALES AIR SYSTEMS S.A.", "brand": "Thales", "brand:wikidata": "Q1161666"}, "geometry": {"type": "Point", "coordinates": [1.172526, 49.361303]}},
{"type": "Feature", "id": "zE8L7YYrzChP2-3YK4kPFLiP6kE=", "properties": {"ref": "10", "@spider": "thales_fr", "addr:full": "D152", "addr:city": "Forges-les-Bains", "addr:postcode": "91470", "addr:country": "FR", "name": "THALES AIR SYSTEMS S.A.", "brand": "Thales", "brand:wikidata": "Q1161666"}, "geometry": {"type": "Point", "coordinates": [2.103054, 48.637031]}},
{"type": "Feature", "id": "Ut7EX2dSgH_BM5dqkafk_jqQScw=", "properties": {"ref": "11", "@spider": "thales_fr", "addr:full": "3 Avenue Charles Lindbergh", "addr:city": "Rungis", "addr:postcode": "94150", "addr:country": "FR", "name": "THALES AIR SYSTEMS S.A.", "brand": "Thales", "brand:wikidata": "Q1161666"}, "geometry": {"type": "Point", "coordinates": [2.3536508, 48.751112]}},
{"type": "Feature", "id": "GFRVZ0oG7rYVSN7cx4-mqKbMf68=", "properties": {"ref": "12", "@spider": "thales_fr", "addr:full": "1014 Avenue 1\u00e8re Dfl", "addr:city": "Brest", "addr:postcode": "29200", "addr:country": "FR", "name": "THALES AIRBORNE SYSTEMS", "brand": "Thales", "brand:wikidata": "Q1161666"}, "geometry": {"type": "Point", "coordinates": [-4.556708, 48.374639]}},
{"type": "Feature", "id": "-05u6fZ_ze06xawPzXB-fHggxtY=", "properties": {"ref": "13", "@spider": "thales_fr", "addr:full": "6 Rue Jean Perrin", "addr:city": "Pessac", "addr:postcode": "33600", "addr:country": "FR", "name": "THALES AIRBORNE SYSTEMS", "brand": "Thales", "brand:wikidata": "Q1161666"}, "geometry": {"type": "Point", "coordinates": [-0.652528, 44.780678]}},
{"type": "Feature", "id": "PIaQWdTEJM68NMEnD34iG85WtxQ=", "properties": {"ref": "14", "@spider": "thales_fr", "addr:full": "29 Boulevard de Cazaux", "addr:city": "La Teste-de-Buch", "addr:postcode": "33260", "addr:country": "FR", "name": "THALES AIRBORNE SYSTEMS", "brand": "Thales", "brand:wikidata": "Q1161666"}, "geometry": {"type": "Point", "coordinates": [-1.135175, 44.614301]}},
{"type": "Feature", "id": "qw5xmpcP8FuhexdCeZGVplWoWd0=", "properties": {"ref": "15", "@spider": "thales_fr", "addr:full": "26 Avenue Normandie Niemen", "addr:city": "Br\u00e9tigny-sur-Orge", "addr:postcode": "91220", "addr:country": "FR", "name": "THALES AIRBORNE SYSTEMS", "brand": "Thales", "brand:wikidata": "Q1161666"}, "geometry": {"type": "Point", "coordinates": [2.311506, 48.607036]}},
{"type": "Feature", "id": "rLjDgeXyssRydInz8PudtXLpi44=", "properties": {"ref": "16", "@spider": "thales_fr", "addr:full": "12 Avenue Gay Lussac", "addr:city": "\u00c9lancourt", "addr:postcode": "78990", "addr:country": "FR", "name": "THALES AIRBORNE SYSTEMS", "brand": "Thales", "brand:wikidata": "Q1161666"}, "geometry": {"type": "Point", "coordinates": [1.9762972, 48.7941123]}},
{"type": "Feature", "id": "Rcv3YDkOumBpa-9GS7syLMdh4yQ=", "properties": {"ref": "17", "@spider": "thales_fr", "addr:full": "108 Route de Mescleuziou", "addr:city": "Plouzan\u00e9", "addr:postcode": "29280", "addr:country": "FR", "name": "THALES AIRBORNE SYSTEMS", "brand": "Thales", "brand:wikidata": "Q1161666"}, "geometry": {"type": "Point", "coordinates": [-4.568424, 48.353426]}},
{"type": "Feature", "id": "jmFDJ8q45dUs_fioxhzkttefZtw=", "properties": {"ref": "18", "@spider": "thales_fr", "addr:full": "20 Rue Blaise Pascal", "addr:city": "\u00c9lancourt", "addr:postcode": "78990", "addr:country": "FR", "name": "THALES AIRBORNE SYSTEMS", "brand": "Thales", "brand:wikidata": "Q1161666"}, "geometry": {"type": "Point", "coordinates": [1.9786569, 48.794129]}},
{"type": "Feature", "id": "tGyJ7XbicFqEZRdw3dORYQft_aM=", "properties": {"ref": "19", "@spider": "thales_fr", "addr:full": "11 Rue Joseph Thoret", "addr:city": "Istres", "addr:postcode": "13800", "addr:country": "FR", "name": "THALES AIRBORNE SYSTEMS", "brand": "Thales", "brand:wikidata": "Q1161666"}, "geometry": {"type": "Point", "coordinates": [4.925278, 43.523056]}},
{"type": "Feature", "id": "RkM87fP-PzhGAdBLKnf2pOYu0LU=", "properties": {"ref": "20", "@spider": "thales_fr", "addr:full": "5 All\u00e9e des Gabians", "addr:city": "Cannes", "addr:postcode": "06150", "addr:country": "FR", "name": "THALES ALENIA SPACE", "brand": "Thales", "brand:wikidata": "Q1161666"}, "geometry": {"type": "Point", "coordinates": [6.9565077, 43.5410323]}},
{"type": "Feature", "id": "WzVbOTIWnPFuVv57wp9fADfWD_I=", "properties": {"ref": "21", "@spider": "thales_fr", "addr:full": "134 Avenue du G\u00e9n\u00e9ral Eisenhower", "addr:city": "Toulouse", "addr:postcode": "31100", "addr:country": "FR", "name": "THALES ALENIA SPACE", "brand": "Thales", "brand:wikidata": "Q1161666"}, "geometry": {"type": "Point", "coordinates": [1.394234, 43.56074]}},
{"type": "Feature", "id": "yEXN5yprCGNXUFprnKBRJsDpXGk=", "properties": {"ref": "22", "@spider": "thales_fr", "addr:full": "32 Rue de Lyon", "addr:city": "Saint-H\u00e9and", "addr:postcode": "42570", "addr:country": "FR", "name": "THALES ANGENIEUX S.A.", "brand": "Thales", "brand:wikidata": "Q1161666"}, "geometry": {"type": "Point", "coordinates": [4.3745843, 45.5299]}},
{"type": "Feature", "id": "Ij1q1KjObR4sn2n2Md1QzSUq68I=", "properties": {"ref": "23", "@spider": "thales_fr", "addr:full": "5 Rue du Clos d'en Haut", "addr:city": "Conflans-Sainte-Honorine", "addr:postcode": "78700", "addr:country": "FR", "name": "THALES AVIONICS ELECTRICAL MOTORS", "brand": "Thales", "brand:wikidata": "Q1161666"}, "geometry": {"type": "Point", "coordinates": [2.1022982, 49.0023978]}},
{"type": "Feature", "id": "xcGMcL9p3_FINTppdPWjoRggofU=", "properties": {"ref": "24", "@spider": "thales_fr", "addr:full": "41 Boulevard de la R\u00e9publique", "addr:city": "Chatou", "addr:postcode": "78400", "addr:country": "FR", "name": "THALES AVIONICS ELECTRICAL SYSTEMS", "brand": "Thales", "brand:wikidata": "Q1161666"}, "geometry": {"type": "Point", "coordinates": [2.1491147, 48.893571]}},
{"type": "Feature", "id": "C2i08y9WGur7PFwFMsvrX0xnqBk=", "properties": {"ref": "25", "@spider": "thales_fr", "addr:full": "6 Rue Emile Zola", "addr:city": "M\u00e9ru", "addr:postcode": "60110", "addr:country": "FR", "name": "THALES AVIONICS ELECTRICAL SYSTEMS", "brand": "Thales", "brand:wikidata": "Q1161666"}, "geometry": {"type": "Point", "coordinates": [2.13318, 49.220826]}},
{"type": "Feature", "id": "M4d81Nonwf3vMym1YspqRkIcl48=", "properties": {"ref": "26", "@spider": "thales_fr", "addr:full": "25 Rue Jules V\u00e9drines", "addr:city": "Valence Cedex", "addr:postcode": "26027", "addr:country": "FR", "name": "THALES AVIONICS SA", "brand": "Thales", "brand:wikidata": "Q1161666"}, "geometry": {"type": "Point", "coordinates": [4.9181648, 44.9385281]}},
{"type": "Feature", "id": "DRgh-ZMPmi-oxYvuMVPl6TXpEpY=", "properties": {"ref": "27", "@spider": "thales_fr", "addr:full": "40 Rue de la Brelandi\u00e8re", "addr:city": "Ch\u00e2tellerault", "addr:postcode": "86100", "addr:country": "FR", "name": "THALES AVIONICS SA", "brand": "Thales", "brand:wikidata": "Q1161666"}, "geometry": {"type": "Point", "coordinates": [0.5278086, 46.8125841]}},
{"type": "Feature", "id": "jqbD0PQ58QcbzMRwc66sm4J2_kk=", "properties": {"ref": "28", "@spider": "thales_fr", "addr:full": "2-10 Avenue du Mar\u00e9chal Joffre", "addr:city": "Vitrolles", "addr:postcode": "13127", "addr:country": "FR", "name": "THALES AVIONICS SA", "brand": "Thales", "brand:wikidata": "Q1161666"}, "geometry": {"type": "Point", "coordinates": [5.249703, 43.458598]}},
{"type": "Feature", "id": "9KbEKUA38lzz8zGHcTHRTBfOwQ4=", "properties": {"ref": "29", "@spider": "thales_fr", "addr:full": "5 Rue Marcel Dassault", "addr:city": "Ch\u00e2tellerault", "addr:postcode": "86100", "addr:country": "FR", "name": "THALES AVIONICS SA", "brand": "Thales", "brand:wikidata": "Q1161666"}, "geometry": {"type": "Point", "coordinates": [0.531796, 46.832745]}},
{"type": "Feature", "id": "O6n5S4klZlMckqGdpJkNTcx64Pw=", "properties": {"ref": "30", "@spider": "thales_fr", "addr:full": "3 Rue Toussaint Catros", "addr:city": "Le Haillan Cedex", "addr:postcode": "33187", "addr:country": "FR", "name": "THALES AVIONICS SA", "brand": "Thales", "brand:wikidata": "Q1161666"}, "geometry": {"type": "Point", "coordinates": [-0.6994889, 44.8548662]}},
{"type": "Feature", "id": "tnFT63M9q7p_iK13ljOkpnZDPIo=", "properties": {"ref": "31", "@spider": "thales_fr", "addr:full": "22 Boulevard de l'Industrie", "addr:city": "Vend\u00f4me", "addr:postcode": "41100", "addr:country": "FR", "name": "THALES AVIONICS SA", "brand": "Thales", "brand:wikidata": "Q1161666"}, "geometry": {"type": "Point", "coordinates": [1.0473237, 47.8006774]}},
{"type": "Feature", "id": "nMag7ih7s_Oxu96NngBIpGlSBTY=", "properties": {"ref": "32", "@spider": "thales_fr", "addr:full": "105 Avenue du G\u00e9n\u00e9ral Eisenhower BP 63647", "addr:postcode": "31036", "addr:country": "FR", "name": "THALES AVIONICS SA", "brand": "Thales", "brand:wikidata": "Q1161666"}, "geometry": {"type": "Point", "coordinates": [1.3801065, 43.5644946]}},
{"type": "Feature", "id": "RP_IZufMkAiLtdRrIXI-ZDwuTrk=", "properties": {"ref": "33", "@spider": "thales_fr", "addr:full": "22 Avenue du Mar\u00e9chal Juin", "addr:city": "Meudon", "addr:postcode": "92360", "addr:country": "FR", "name": "THALES AVIONICS SA", "brand": "Thales", "brand:wikidata": "Q1161666"}, "geometry": {"type": "Point", "coordinates": [2.2186397, 48.787226]}},
{"type": "Feature", "id": "6R_cTBjhw4aJT58mQOrDv0rHZt4=", "properties": {"ref": "34", "@spider": "thales_fr", "addr:full": "19 Avenue Morane Saulnier", "addr:city": "V\u00e9lizy-Villacoublay", "addr:postcode": "78140", "addr:country": "FR", "name": "THALES AVIONICS SA", "brand": "Thales", "brand:wikidata": "Q1161666"}, "geometry": {"type": "Point", "coordinates": [2.2170141, 48.7852825]}},
{"type": "Feature", "id": "VQHSEof68UL8tojtUmbVBQRhvTs=", "properties": {"ref": "35", "@spider": "thales_fr", "addr:full": "4 avenue des Louvresses", "addr:postcode": "92622", "addr:country": "FR", "name": "Thales Communications & Security", "brand": "Thales", "brand:wikidata": "Q1161666"}, "geometry": {"type": "Point", "coordinates": [2.3048422, 48.9410147]}},
{"type": "Feature", "id": "VbPGXlmv14MJOGwVexJ8PI4Qcx0=", "properties": {"ref": "36", "@spider": "thales_fr", "addr:full": "110 avenue du Mar\u00e9chal Leclerc", "addr:city": "CHOLET", "addr:postcode": "49300", "addr:country": "FR", "name": "Thales Communications & Security", "brand": "Thales", "brand:wikidata": "Q1161666"}, "geometry": {"type": "Point", "coordinates": [-0.854852, 47.069186]}},
{"type": "Feature", "id": "iK-sho4T7HQs0cvbOeEQp7ygc70=", "properties": {"ref": "37", "@spider": "thales_fr", "addr:full": "6 rue Lt Colonel Laporte", "addr:city": "Brive La Gaillarde", "addr:postcode": "19311", "addr:country": "FR", "name": "Thales Communications & Security", "brand": "Thales", "brand:wikidata": "Q1161666"}, "geometry": {"type": "Point", "coordinates": [1.5572103, 45.157026]}},
{"type": "Feature", "id": "EsOROOxJZo472RJU9ZUrjA6DMFM=", "properties": {"ref": "38", "@spider": "thales_fr", "addr:full": "83/85 rue Emile Brault", "addr:city": "LAVAL", "addr:postcode": "53005", "addr:country": "FR", "name": "Thales Communications & Security", "brand": "Thales", "brand:wikidata": "Q1161666"}, "geometry": {"type": "Point", "coordinates": [-0.8014564, 48.070685]}},
{"type": "Feature", "id": "fd4ck78S9m3tezvIq8eFhfjKEJE=", "properties": {"ref": "39", "@spider": "thales_fr", "addr:full": "Parc du Pont Royal 251 Avenue du Bois", "addr:postcode": "59832", "addr:country": "FR", "name": "Thales Communications & Security", "brand": "Thales", "brand:wikidata": "Q1161666"}, "geometry": {"type": "Point", "coordinates": [3.0386646, 50.6468765]}},
{"type": "Feature", "id": "TQIqU2smUh7IrPtqVIjxasNmSn0=", "properties": {"ref": "40", "@spider": "thales_fr", "addr:full": "Parc technologique du canal 3 avenue de l'Europe", "addr:postcode": "31400", "addr:country": "FR", "name": "Thales Communications & Security", "brand": "Thales", "brand:wikidata": "Q1161666"}, "geometry": {"type": "Point", "coordinates": [1.4827732, 43.5535891]}},
{"type": "Feature", "id": "PgLxyPKUWYE7bn5cOFlqg6Cof0A=", "properties": {"ref": "41", "@spider": "thales_fr", "addr:full": "20-22 rue Grange Dame Rose", "addr:city": "VELIZY", "addr:postcode": "78140", "addr:country": "FR", "name": "Thales Communications & Security", "brand": "Thales", "brand:wikidata": "Q1161666"}, "geometry": {"type": "Point", "coordinates": [2.2059345, 48.7850813]}},
{"type": "Feature", "id": "T7K2a7jjKPopnY69p540KPiabVg=", "properties": {"ref": "42", "@spider": "thales_fr", "addr:full": "Rue de la Mare aux Joncs ZAE Le tremblaie", "addr:city": "Le Plessis-P\u00e2t\u00e9 Cedex", "addr:postcode": "91220", "addr:country": "FR", "name": "Thales Communications & Security", "brand": "Thales", "brand:wikidata": "Q1161666"}, "geometry": {"type": "Point", "coordinates": [2.3494435, 48.6025806]}},
{"type": "Feature", "id": "QdyG2vld_8vNNC_pELvJ-aEMgME=", "properties": {"ref": "43", "@spider": "thales_fr", "addr:full": "460 Rue du Pommarin", "addr:city": "Moirans France", "addr:postcode": "38340", "addr:country": "FR", "name": "THALES ELECTRON DEVICES", "brand": "Thales", "brand:wikidata": "Q1161666"}, "geometry": {"type": "Point", "coordinates": [5.5957349, 45.3151732]}},
{"type": "Feature", "id": "gHYjcA4zbY7R7PaWNmgwo14eDX0=", "properties": {"ref": "44", "@spider": "thales_fr", "addr:full": "2 Rue Marcel Dassault", "addr:city": "V\u00e9lizy-Villacoublay", "addr:postcode": "78140", "addr:country": "FR", "name": "THALES ELECTRON DEVICES * Industrial Site *", "brand": "Thales", "brand:wikidata": "Q1161666"}, "geometry": {"type": "Point", "coordinates": [2.2126381, 48.7852798]}},
{"type": "Feature", "id": "DNgnGFVnpV-i2OlMSoHxt8L6Wh4=", "properties": {"ref": "45", "@spider": "thales_fr", "addr:full": "1 Chemin de Vongy", "addr:city": "Thonon-les-Bains", "addr:postcode": "74200", "addr:country": "FR", "name": "THALES ELECTRON DEVICES * Industrial Site *", "brand": "Thales", "brand:wikidata": "Q1161666"}, "geometry": {"type": "Point", "coordinates": [6.5015612, 46.381045]}},
{"type": "Feature", "id": "EeyEdDTYfYPdkr4VDbrIw-n6bpU=", "properties": {"ref": "46", "@spider": "thales_fr", "addr:full": "13 Avenue Maurice Thorez", "addr:city": "Malakoff", "addr:postcode": "92240", "addr:country": "FR", "name": "THALES GEODIS FREIGHT & LOGISTICS (JV)", "brand": "Thales", "brand:wikidata": "Q1161666"}, "geometry": {"type": "Point", "coordinates": [2.2977599, 48.817275]}},
{"type": "Feature", "id": "Jgqfj_LkisC-x21Lice_35uo-Og=", "properties": {"ref": "47", "@spider": "thales_fr", "addr:full": "29 Rue des Marais", "addr:city": "Fleury-les-Aubrais", "addr:postcode": "45770", "addr:country": "FR", "name": "THALES GEODIS FREIGHT & LOGISTICS (JV)", "brand": "Thales", "brand:wikidata": "Q1161666"}, "geometry": {"type": "Point", "coordinates": [1.9133433, 47.9453081]}},
{"type": "Feature", "id": "9Lbb5DqZqAzDApxd-yWlaMHNEpQ=", "properties": {"ref": "48", "@spider": "thales_fr", "addr:full": "Les Taissouni\u00e8res", "addr:city": "Valbonne", "addr:postcode": "06560", "addr:country": "FR", "name": "THALES GEODIS FREIGHT & LOGISTICS (JV)", "brand": "Thales", "brand:wikidata": "Q1161666"}, "geometry": {"type": "Point", "coordinates": [7.045333, 43.624143]}},
{"type": "Feature", "id": "_AkqZnm3RqPciu7A5JfLO5_CmAE=", "properties": {"ref": "49", "@spider": "thales_fr", "addr:full": "4 Rue Georges Guynemer", "addr:city": "Guyancourt", "addr:postcode": "78280", "addr:country": "FR", "name": "THALES GEODIS FREIGHT & LOGISTICS (JV)", "brand": "Thales", "brand:wikidata": "Q1161666"}, "geometry": {"type": "Point", "coordinates": [2.0660452, 48.7602156]}},
{"type": "Feature", "id": "F6YYaxAUkKxay9_HizA_CWe3cis=", "properties": {"ref": "50", "@spider": "thales_fr", "addr:full": "A\u00e9roport Lyon Saint-Exup\u00e9ry", "addr:city": "Colombier-Saugnieu", "addr:postcode": "69125", "addr:country": "FR", "name": "THALES GEODIS FREIGHT & LOGISTICS (JV)", "brand": "Thales", "brand:wikidata": "Q1161666"}, "geometry": {"type": "Point", "coordinates": [5.0852626, 45.7197776]}},
{"type": "Feature", "id": "Mlwkyh0zNPB6j0Zh7HyDKrXvIHo=", "properties": {"ref": "51", "@spider": "thales_fr", "addr:full": "19 Avenue Morane Saulnier", "addr:city": "V\u00e9lizy-Villacoublay", "addr:postcode": "78140", "addr:country": "FR", "name": "Thales Global Services", "brand": "Thales", "brand:wikidata": "Q1161666"}, "geometry": {"type": "Point", "coordinates": [2.2170141, 48.7852825]}},
{"type": "Feature", "id": "9kw1KNStL17hnnGzDnbVVIwtZuA=", "properties": {"ref": "52", "@spider": "thales_fr", "addr:country": "FR", "name": "THALES HQ", "brand": "Thales", "brand:wikidata": "Q1161666"}, "geometry": {"type": "Point", "coordinates": [2.2542051, 48.8856026]}},
{"type": "Feature", "id": "EVsWEoCz5Z634OMZ3QGil02ae1M=", "properties": {"ref": "53", "@spider": "thales_fr", "addr:full": "5 Place de la R\u00e9publique", "addr:city": "Marcoussis", "addr:postcode": "91460", "addr:country": "FR", "name": "THALES LASER DIODES S.A.", "brand": "Thales", "brand:wikidata": "Q1161666"}, "geometry": {"type": "Point", "coordinates": [2.2298809, 48.642446]}},
{"type": "Feature", "id": "YDrTYN7PV1iwZY7xg6BwPU4SEPg=", "properties": {"ref": "54", "@spider": "thales_fr", "addr:full": "Domaine de Corbeville", "addr:city": "Orsay", "addr:postcode": "91400", "addr:country": "FR", "name": "THALES LASER DIODES S.A.", "brand": "Thales", "brand:wikidata": "Q1161666"}, "geometry": {"type": "Point", "coordinates": [2.1848975, 48.7131677]}},
{"type": "Feature", "id": "8BpwLqBSZlDn3bUgJSJGyp42-No=", "properties": {"ref": "55", "@spider": "thales_fr", "addr:full": "Domaine de Corbeville", "addr:city": "Orsay", "addr:postcode": "91400", "addr:country": "FR", "name": "THALES LASER S.A.", "brand": "Thales", "brand:wikidata": "Q1161666"}, "geometry": {"type": "Point", "coordinates": [2.1848975, 48.7131677]}},
{"type": "Feature", "id": "PMAiC6r14sHqm9bfN13sFXFGSAg=", "properties": {"ref": "56", "@spider": "thales_fr", "addr:full": "1001 Zone de Piquet", "addr:city": "\u00c9trelles", "addr:postcode": "35370", "addr:country": "FR", "name": "THALES MICROELECTRONICS", "brand": "Thales", "brand:wikidata": "Q1161666"}, "geometry": {"type": "Point", "coordinates": [-1.1988816, 48.0709471]}},
{"type": "Feature", "id": "SBwTsBQ85GHIIIj-jmsG5KrtXk8=", "properties": {"ref": "57", "@spider": "thales_fr", "addr:full": "85 Impasse des Cabliers", "addr:city": "La Seyne-sur-Mer", "addr:postcode": "83500", "addr:country": "FR", "name": "THALES NAVAL France", "brand": "Thales", "brand:wikidata": "Q1161666"}, "geometry": {"type": "Point", "coordinates": [5.8800131, 43.1056462]}},
{"type": "Feature", "id": "DUtAjOBoW7krfkrft360cYSnsAk=", "properties": {"ref": "58", "@spider": "thales_fr", "addr:full": "2 Avenue Gay Lussac", "addr:city": "\u00c9lancourt", "addr:postcode": "78990", "addr:country": "FR", "name": "THALES OPTRONIQUE S.A.S", "brand": "Thales", "brand:wikidata": "Q1161666"}, "geometry": {"type": "Point", "coordinates": [1.9719669, 48.7906406]}},
{"type": "Feature", "id": "ad7FgZDV9yvzmoUrdw1HVu-6SVI=", "properties": {"ref": "59", "@spider": "thales_fr", "addr:full": "11-13 Avenue Carnot", "addr:city": "Massy", "addr:postcode": "91300", "addr:country": "FR", "name": "THALES RAYTHEON SYSTEMS", "brand": "Thales", "brand:wikidata": "Q1161666"}, "geometry": {"type": "Point", "coordinates": [2.2677563, 48.7292863]}},
{"type": "Feature", "id": "utxUau1j1U_qCb3Ayt3ESQWXnsk=", "properties": {"ref": "60", "@spider": "thales_fr", "addr:full": "Rue Erich G\u00f6pfert", "addr:city": "Palaiseau", "addr:postcode": "91120", "addr:country": "FR", "name": "Thales Research & Technology", "brand": "Thales", "brand:wikidata": "Q1161666"}, "geometry": {"type": "Point", "coordinates": [2.245748, 48.714509]}},
{"type": "Feature", "id": "vCB7-fpb2G-3dNCtu21FakIVCJs=", "properties": {"ref": "61", "@spider": "thales_fr", "addr:full": "Les Taissouni\u00e8res", "addr:city": "Valbonne", "addr:postcode": "06560", "addr:country": "FR", "name": "THALES SAFARE", "brand": "Thales", "brand:wikidata": "Q1161666"}, "geometry": {"type": "Point", "coordinates": [7.045333, 43.624143]}},
{"type": "Feature", "id": "OnyGxWxJvWCbRHx202ydjlXoLFg=", "properties": {"ref": "62", "@spider": "thales_fr", "addr:full": "111 Rue du Bourg", "addr:city": "Lambersart", "addr:postcode": "59130", "addr:country": "FR", "name": "THALES SERVICES", "brand": "Thales", "brand:wikidata": "Q1161666"}, "geometry": {"type": "Point", "coordinates": [3.026676, 50.652468]}},
{"type": "Feature", "id": "135dYTJL558qT-cPLzaax9fVOI4=", "properties": {"ref": "63", "@spider": "thales_fr", "addr:full": "28 Rue Jules V\u00e9drines", "addr:city": "Valence", "addr:postcode": "26000", "addr:country": "FR", "name": "THALES SERVICES", "brand": "Thales", "brand:wikidata": "Q1161666"}, "geometry": {"type": "Point", "coordinates": [4.9190293, 44.9388948]}},
{"type": "Feature", "id": "NZxCrxNkMIIk2bgYAFjPe6S4TGk=", "properties": {"ref": "64", "@spider": "thales_fr", "addr:full": "Domaine de Corbeville", "addr:city": "Orsay", "addr:postcode": "91400", "addr:country": "FR", "name": "THALES SERVICES", "brand": "Thales", "brand:wikidata": "Q1161666"}, "geometry": {"type": "Point", "coordinates": [2.1848975, 48.7131677]}},
{"type": "Feature", "id": "B3L4ufYQg7kXItdA71JYEqipvb0=", "properties": {"ref": "65", "@spider": "thales_fr", "addr:full": "14 Rue Grange Dame Rose", "addr:city": "V\u00e9lizy-Villacoublay", "addr:postcode": "78140", "addr:country": "FR", "name": "THALES Services S.A.S", "brand": "Thales", "brand:wikidata": "Q1161666"}, "geometry": {"type": "Point", "coordinates": [2.2060784, 48.7835995]}},
{"type": "Feature", "id": "ApClRZtCGNOjhWbU8U3fi13uo0o=", "properties": {"ref": "66", "@spider": "thales_fr", "addr:full": "62 Quai Charles de Gaulle", "addr:city": "Lyon-6E-Arrondissement", "addr:postcode": "69006", "addr:country": "FR", "name": "THALES Services S.A.S", "brand": "Thales", "brand:wikidata": "Q1161666"}, "geometry": {"type": "Point", "coordinates": [4.8543486, 45.7856483]}},
{"type": "Feature", "id": "NEjHF3YiUDypmT9QSVlRQLy67xM=", "properties": {"ref": "67", "@spider": "thales_fr", "addr:full": "3 Rue des Citrines", "addr:city": "Nantes", "addr:postcode": "44300", "addr:country": "FR", "name": "THALES SERVICES SA", "brand": "Thales", "brand:wikidata": "Q1161666"}, "geometry": {"type": "Point", "coordinates": [-1.4974417, 47.2600657]}},
{"type": "Feature", "id": "uBRkrCbvtvmIRQsbt7zpKbkg6TE=", "properties": {"ref": "68", "@spider": "thales_fr", "addr:full": "4 Rue du G\u00e9n\u00e9ral de Gaulle", "addr:city": "Osny", "addr:postcode": "95520", "addr:country": "FR", "name": "THALES SERVICES SA", "brand": "Thales", "brand:wikidata": "Q1161666"}, "geometry": {"type": "Point", "coordinates": [2.0631984, 49.0539505]}},
{"type": "Feature", "id": "n-9NB5I6rEZOGNgvaQ-gZYmrFHw=", "properties": {"ref": "69", "@spider": "thales_fr", "addr:full": "105 Avenue du G\u00e9n\u00e9ral Eisenhower", "addr:city": "Toulouse", "addr:postcode": "31100", "addr:country": "FR", "name": "THALES SERVICES SA", "brand": "Thales", "brand:wikidata": "Q1161666"}, "geometry": {"type": "Point", "coordinates": [1.3839147, 43.5647741]}},
{"type": "Feature", "id": "o5a8KBWq4Oj5EaemYtAqwHujD-M=", "properties": {"ref": "70", "@spider": "thales_fr", "addr:full": "Rue Roschach", "addr:city": "Toulouse", "addr:postcode": "31000", "addr:country": "FR", "name": "THALES SERVICES SA", "brand": "Thales", "brand:wikidata": "Q1161666"}, "geometry": {"type": "Point", "coordinates": [1.444209, 43.604652]}},
{"type": "Feature", "id": "-p2nhGXRBVjHuOZsTaG-ZJNsPMg=", "properties": {"ref": "71", "@spider": "thales_fr", "addr:full": "1 Rue des Cordeliers", "addr:city": "Aix-en-Provence", "addr:postcode": "13100", "addr:country": "FR", "name": "THALES SERVICES SA", "brand": "Thales", "brand:wikidata": "Q1161666"}, "geometry": {"type": "Point", "coordinates": [5.447427, 43.529742]}},
{"type": "Feature", "id": "3eb_rK_l5iy5s-n1FWlfGFYyUW0=", "properties": {"ref": "72", "@spider": "thales_fr", "addr:full": "34 Quai de la Douane", "addr:city": "Brest", "addr:postcode": "29200", "addr:country": "FR", "name": "THALES SERVICES SA", "brand": "Thales", "brand:wikidata": "Q1161666"}, "geometry": {"type": "Point", "coordinates": [-4.4843436, 48.382942]}},
{"type": "Feature", "id": "E4Mhit9unSCHxw9mtSha9Cn_edo=", "properties": {"ref": "73", "@spider": "thales_fr", "addr:full": "12 Avenue Gay Lussac", "addr:city": "\u00c9lancourt", "addr:postcode": "78990", "addr:country": "FR", "name": "THALES SERVICES SA", "brand": "Thales", "brand:wikidata": "Q1161666"}, "geometry": {"type": "Point", "coordinates": [1.9762972, 48.7941123]}},
{"type": "Feature", "id": "4fi6uj3Zb-R7Bkk1uqxy8MUKyj0=", "properties": {"ref": "74", "@spider": "thales_fr", "addr:full": "4 Place Charles Hernu", "addr:city": "Villeurbanne", "addr:postcode": "69100", "addr:country": "FR", "name": "THALES SERVICES SA", "brand": "Thales", "brand:wikidata": "Q1161666"}, "geometry": {"type": "Point", "coordinates": [4.8629709, 45.7703388]}},
{"type": "Feature", "id": "08Kpw8RCBgDQ7wCGVPQat7CagdM=", "properties": {"ref": "75", "@spider": "thales_fr", "addr:full": "Les Taissouni\u00e8res", "addr:city": "Valbonne", "addr:postcode": "06560", "addr:country": "FR", "name": "THALES SERVICES SA", "brand": "Thales", "brand:wikidata": "Q1161666"}, "geometry": {"type": "Point", "coordinates": [7.045333, 43.624143]}},
{"type": "Feature", "id": "GFUuii3px2zn4bEi8FxQbm3RecU=", "properties": {"ref": "76", "@spider": "thales_fr", "addr:full": "21 Rue Ariane", "addr:city": "M\u00e9rignac", "addr:postcode": "33700", "addr:country": "FR", "name": "THALES SERVICES SA", "brand": "Thales", "brand:wikidata": "Q1161666"}, "geometry": {"type": "Point", "coordinates": [-0.680593, 44.8338346]}},
{"type": "Feature", "id": "aUxTKOyisOpq6mjBPtob_rLmRck=", "properties": {"ref": "77", "@spider": "thales_fr", "addr:full": "3 Place d'Armes", "addr:city": "Toulon", "addr:postcode": "83000", "addr:country": "FR", "name": "THALES SERVICES SA", "brand": "Thales", "brand:wikidata": "Q1161666"}, "geometry": {"type": "Point", "coordinates": [5.928, 43.124228]}},
{"type": "Feature", "id": "wHs_2jNRvboMCYtxEfamsfkIG4w=", "properties": {"ref": "78", "@spider": "thales_fr", "addr:country": "FR", "name": "Thales Training & Simulation France", "brand": "Thales", "brand:wikidata": "Q1161666"}, "geometry": {"type": "Point", "coordinates": [2.062715, 49.0700239]}},
{"type": "Feature", "id": "ivTa1_3o3Z9t9OG40Nub0qtm--k=", "properties": {"ref": "79", "@spider": "thales_fr", "addr:full": "Chemin de Kerzenniel", "addr:city": "Brest", "addr:postcode": "29200", "addr:country": "FR", "name": "THALES UNDERWATER SYSTEMS", "brand": "Thales", "brand:wikidata": "Q1161666"}, "geometry": {"type": "Point", "coordinates": [-4.5594093, 48.3739274]}},
{"type": "Feature", "id": "8PJTIFSBP29NclVRBZFCg8_T66A=", "properties": {"ref": "80", "@spider": "thales_fr", "addr:full": "Les Taissouni\u00e8res", "addr:city": "Valbonne", "addr:postcode": "06560", "addr:country": "FR", "name": "THALES UNDERWATER SYSTEMS", "brand": "Thales", "brand:wikidata": "Q1161666"}, "geometry": {"type": "Point", "coordinates": [7.045333, 43.624143]}},
{"type": "Feature", "id": "PCoIuC0QMPoxpO76jZJWYE3s9cg=", "properties": {"ref": "81", "@spider": "thales_fr", "addr:full": "Les Taissouni\u00e8res", "addr:city": "Valbonne", "addr:postcode": "06560", "addr:country": "FR", "name": "THALES UNDERWATER SYSTEMS S.A.S", "brand": "Thales", "brand:wikidata": "Q1161666"}, "geometry": {"type": "Point", "coordinates": [7.045333, 43.624143]}},
{"type": "Feature", "id": "EjFoomXlb_gvLX-WxGXmlkyWSXc=", "properties": {"ref": "82", "@spider": "thales_fr", "addr:full": "67 Rue Charles de Gaulle", "addr:city": "Jouy-en-Josas", "addr:postcode": "78350", "addr:country": "FR", "name": "THALES UNIVERSITE S.A.", "brand": "Thales", "brand:wikidata": "Q1161666"}, "geometry": {"type": "Point", "coordinates": [2.1524117, 48.7688041]}},
{"type": "Feature", "id": "iLfOCS_I5LS2yQg8Nc-lRe4AUFw=", "properties": {"ref": "83", "@spider": "thales_fr", "addr:full": "220-464 Rue du Pommarin", "addr:city": "Voreppe", "addr:postcode": "38340", "addr:country": "FR", "name": "TRIXELL", "brand": "Thales", "brand:wikidata": "Q1161666"}, "geometry": {"type": "Point", "coordinates": [5.597315, 45.3148193]}}]}