{"type":"FeatureCollection","features":[{"type": "Feature", "id": "ckc1zCjVDOE7SAZP9iZXutw5-0Q=", "properties": {"ref": "9276c5b2-bf11-4252-8e58-8a238bcd1fe9", "@spider": "the_gym_group_gb", "leisure": "fitness_centre", "addr:street_address": "Unit 1 High Road, Goodmayes Retail Park, Chadwell Heath", "addr:city": "Essex ", "addr:postcode": "RM6 4HX", "addr:country": "GB", "name": "London Chadwell Heath", "website": "https://www.thegymgroup.com/find-a-gym/north-london-gyms/chadwell-heath/", "opening_hours": "24/7", "brand": "The Gym Group", "brand:wikidata": "Q48815022", "nsi_id": "thegym-2770cb"}, "geometry": {"type": "Point", "coordinates": [0.117515, 51.567323]}},
{"type": "Feature", "id": "sagjGnQudZuuzZpghPB4aCxm7yg=", "properties": {"ref": "9b1e486d-c09f-4759-8d68-a5c8bd4199d8", "@spider": "the_gym_group_gb", "leisure": "fitness_centre", "addr:street_address": "Coram Street, London", "addr:city": "Greater London", "addr:postcode": "WC1N 1HB", "addr:country": "GB", "name": "London Bloomsbury", "website": "https://www.thegymgroup.com/find-a-gym/north-london-gyms/bloomsbury/", "opening_hours": "24/7", "brand": "The Gym Group", "brand:wikidata": "Q48815022", "nsi_id": "thegym-2770cb"}, "geometry": {"type": "Point", "coordinates": [-0.124868, 51.52425]}},
{"type": "Feature", "id": "T5hd5aWCLRpjOLKErYPsiUCdtps=", "properties": {"ref": "b64bb47c-2aca-4792-9855-6469eda443d2", "@spider": "the_gym_group_gb", "leisure": "fitness_centre", "addr:street_address": "Palmer Road, London", "addr:city": "Greater London", "addr:postcode": "SW11 4FA", "addr:country": "GB", "name": "London Battersea", "website": "https://www.thegymgroup.com/find-a-gym/south-london-gyms/battersea/", "opening_hours": "24/7", "brand": "The Gym Group", "brand:wikidata": "Q48815022", "nsi_id": "thegym-2770cb"}, "geometry": {"type": "Point", "coordinates": [-0.146451, 51.479182]}},
{"type": "Feature", "id": "Cynr2SwVw71PN-qatgxY7cdW1Nw=", "properties": {"ref": "5325c802-8951-4743-8d61-e4339076b142", "@spider": "the_gym_group_gb", "leisure": "fitness_centre", "addr:street_address": "The Broadway Shopping Centre, Bexleyheath", "addr:postcode": "DA6 7JN", "addr:country": "GB", "name": "Bexleyheath", "website": "https://www.thegymgroup.com/find-a-gym/south-london-gyms/bexleyheath/", "opening_hours": "24/7", "brand": "The Gym Group", "brand:wikidata": "Q48815022", "nsi_id": "thegym-2770cb"}, "geometry": {"type": "Point", "coordinates": [0.14643346, 51.4561392]}},
{"type": "Feature", "id": "o7kIwg3fLfnIgSU8nC08r5u8iDE=", "properties": {"ref": "d888486f-2270-4d9f-a6f4-b90791e593c2", "@spider": "the_gym_group_gb", "leisure": "fitness_centre", "addr:street_address": "145-147 High North Street, East Ham", "addr:postcode": "E6 1HZ", "addr:country": "GB", "name": "London East Ham High Street", "website": "https://www.thegymgroup.com/find-a-gym/east-london-gyms/london-east-ham-high-street/", "opening_hours": "Mo-Fr 06:00-22:00; Sa-Su 08:00-20:00", "brand": "The Gym Group", "brand:wikidata": "Q48815022", "nsi_id": "thegym-2770cb"}, "geometry": {"type": "Point", "coordinates": [0.050943352708104926, 51.537435991053066]}},
{"type": "Feature", "id": "EAGAKrZYXi_gG10_3_A1pvCIikA=", "properties": {"ref": "b39d8306-e997-4e03-a1b2-4dc4bf8dd884", "@spider": "the_gym_group_gb", "leisure": "fitness_centre", "addr:street_address": "The Clock House, East Street, Barking", "addr:city": "Essex", "addr:postcode": "IG11 8EQ", "addr:country": "GB", "name": "London Barking", "website": "https://www.thegymgroup.com/find-a-gym/east-london-gyms/barking/", "opening_hours": "24/7", "brand": "The Gym Group", "brand:wikidata": "Q48815022", "nsi_id": "thegym-2770cb"}, "geometry": {"type": "Point", "coordinates": [0.079049, 51.537322]}},
{"type": "Feature", "id": "RNiNAK1h3mANakxmdw19U2AahpU=", "properties": {"ref": "7181c692-0ce8-4454-9780-d4a70167e40f", "@spider": "the_gym_group_gb", "leisure": "fitness_centre", "addr:street_address": "265-269 Goswell Road, London", "addr:city": "Greater London", "addr:postcode": "EC1V 7AH", "addr:country": "GB", "name": "London Angel", "website": "https://www.thegymgroup.com/find-a-gym/north-london-gyms/angel/", "opening_hours": "24/7", "brand": "The Gym Group", "brand:wikidata": "Q48815022", "nsi_id": "thegym-2770cb"}, "geometry": {"type": "Point", "coordinates": [-0.103289, 51.530136]}},
{"type": "Feature", "id": "CJN73dcZUPildF1TB5eL_D5w618=", "properties": {"ref": "9b3bec9c-60ed-4cfa-b308-05ddcf7996da", "@spider": "the_gym_group_gb", "leisure": "fitness_centre", "addr:street_address": "254 \u2013 258 North End Road, Fulham", "addr:city": "London", "addr:postcode": "SW6 1NJ", "addr:country": "GB", "name": "London Fulham", "website": "https://www.thegymgroup.com/find-a-gym/south-london-gyms/london-fulham/", "opening_hours": "24/7", "brand": "The Gym Group", "brand:wikidata": "Q48815022", "nsi_id": "thegym-2770cb"}, "geometry": {"type": "Point", "coordinates": [-0.201799, 51.484297]}},
{"type": "Feature", "id": "K9MSIh20FvneJmqLkGsjNcZp6Rc=", "properties": {"ref": "2dbc8daa-b67b-4976-8da4-c1ff20f7d450", "@spider": "the_gym_group_gb", "leisure": "fitness_centre", "addr:street_address": "2 Mariners Parade, Creek Road, Greenwich", "addr:city": "London", "addr:postcode": "SE10 9SW", "addr:country": "GB", "name": "London Greenwich", "website": "https://www.thegymgroup.com/find-a-gym/south-london-gyms/london-greenwich/", "opening_hours": "24/7", "brand": "The Gym Group", "brand:wikidata": "Q48815022", "nsi_id": "thegym-2770cb"}, "geometry": {"type": "Point", "coordinates": [-0.012761, 51.481487]}},
{"type": "Feature", "id": "vE77ioDeqvzXt3Hzx1ZBhoQZbbw=", "properties": {"ref": "ab0d5a3b-cf95-43da-a5a6-02130f164e98", "@spider": "the_gym_group_gb", "leisure": "fitness_centre", "addr:street_address": "Unit 2 Priory Road Retail Park, Colliers Wood", "addr:postcode": "SW19 2PP", "addr:country": "GB", "name": "London Colliers Wood", "website": "https://www.thegymgroup.com/find-a-gym/south-london-gyms/london-colliers-wood/", "opening_hours": "24/7", "brand": "The Gym Group", "brand:wikidata": "Q48815022", "nsi_id": "thegym-2770cb"}, "geometry": {"type": "Point", "coordinates": [-0.178757, 51.415655]}},
{"type": "Feature", "id": "ao_SX5l9Tq3LS2Co8f_s4zsv7qA=", "properties": {"ref": "c313b6b4-d33c-4e08-8b1d-d660baefbb01", "@spider": "the_gym_group_gb", "leisure": "fitness_centre", "addr:street_address": "The Oaks Shopping Centre, Acton", "addr:city": "London", "addr:postcode": "W3 6RE", "addr:country": "GB", "name": "London Acton", "website": "https://www.thegymgroup.com/find-a-gym/west-london-gyms/london-acton/", "opening_hours": "24/7", "brand": "The Gym Group", "brand:wikidata": "Q48815022", "nsi_id": "thegym-2770cb"}, "geometry": {"type": "Point", "coordinates": [-0.27008, 51.50695]}},
{"type": "Feature", "id": "kmU_1bae__zRiLAwQwHaaRRc2M0=", "properties": {"ref": "d2e90d6b-246d-48da-a209-da621b1221d1", "@spider": "the_gym_group_gb", "leisure": "fitness_centre", "addr:street_address": "Bromley Road Retail Park, Catford", "addr:city": "London", "addr:postcode": "SE6 2NZ", "addr:country": "GB", "name": "London Catford", "website": "https://www.thegymgroup.com/find-a-gym/south-london-gyms/london-catford/", "opening_hours": "24/7", "brand": "The Gym Group", "brand:wikidata": "Q48815022", "nsi_id": "thegym-2770cb"}, "geometry": {"type": "Point", "coordinates": [-0.020567, 51.436406]}},
{"type": "Feature", "id": "ODq4OOLr0sGp9fiehmpjAjOM6OQ=", "properties": {"ref": "176b851f-8778-4638-ad4e-124351d223fc", "@spider": "the_gym_group_gb", "leisure": "fitness_centre", "addr:street_address": "Hallsville Quarter, Minnie Baldock Street", "addr:city": "London", "addr:postcode": "E16 1ED", "addr:country": "GB", "name": "London Canning Town", "website": "https://www.thegymgroup.com/find-a-gym/east-london-gyms/london-canning-town/", "opening_hours": "24/7", "brand": "The Gym Group", "brand:wikidata": "Q48815022", "nsi_id": "thegym-2770cb"}, "geometry": {"type": "Point", "coordinates": [0.009368, 51.515574]}},
{"type": "Feature", "id": "BLghjBPAKtVf9-e1In3MBMiJ1gk=", "properties": {"ref": "8e95599b-411d-4117-a741-e61c3d292042", "@spider": "the_gym_group_gb", "leisure": "fitness_centre", "addr:street_address": "7 Sterling Way, London\n", "addr:postcode": "N7 9HJ", "addr:country": "GB", "name": "London Caledonian Road", "website": "https://www.thegymgroup.com/find-a-gym/north-london-gyms/london-caledonian-road/", "opening_hours": "Mo-Fr 06:30-23:00; Sa-Su 08:00-21:00", "brand": "The Gym Group", "brand:wikidata": "Q48815022", "nsi_id": "thegym-2770cb"}, "geometry": {"type": "Point", "coordinates": [-0.118437, 51.546484]}},
{"type": "Feature", "id": "pZR997LqhYtyj2JvqXCaBls-t0o=", "properties": {"ref": "516568dd-33d7-4598-ab82-7106e121f8e1", "@spider": "the_gym_group_gb", "leisure": "fitness_centre", "addr:street_address": "Eve House, Adams Walk Eden Street, Kingston", "addr:city": "Greater London", "addr:postcode": "KT1 1DF", "addr:country": "GB", "name": "London Kingston", "website": "https://www.thegymgroup.com/find-a-gym/south-london-gyms/kingston/", "opening_hours": "24/7", "brand": "The Gym Group", "brand:wikidata": "Q48815022", "nsi_id": "thegym-2770cb"}, "geometry": {"type": "Point", "coordinates": [-0.302123, 51.410281]}},
{"type": "Feature", "id": "t9WCnsMK0RMxB_CsdaRRDiI0Rsk=", "properties": {"ref": "114446e2-17eb-4d6e-a9d1-45e619dcdbff", "@spider": "the_gym_group_gb", "leisure": "fitness_centre", "addr:street_address": "Abington Square, Kettering Road", "addr:city": "Northampton", "addr:postcode": " \nNN1 4AJ", "addr:country": "GB", "name": "Northampton Central", "website": "https://www.thegymgroup.com/find-a-gym/northampton-gyms/northampton-east/", "opening_hours": "24/7", "brand": "The Gym Group", "brand:wikidata": "Q48815022", "nsi_id": "thegym-2770cb"}, "geometry": {"type": "Point", "coordinates": [-0.887035298881057, 52.24090481928793]}},
{"type": "Feature", "id": "YwFnB8-6iNtKpvmpdB5k2b6KX4I=", "properties": {"ref": "9140f7e6-2c48-4269-875c-7ff965c0caa0", "@spider": "the_gym_group_gb", "leisure": "fitness_centre", "addr:street_address": "36 Harborough Road", "addr:city": "Oadby", "addr:postcode": "LE2 4LA", "addr:country": "GB", "name": "Oadby", "website": "https://www.thegymgroup.com/find-a-gym/leicester-gyms/oadby/", "opening_hours": "24/7", "brand": "The Gym Group", "brand:wikidata": "Q48815022", "nsi_id": "thegym-2770cb"}, "geometry": {"type": "Point", "coordinates": [-1.0799662593513129, 52.59973454803977]}},
{"type": "Feature", "id": "x9N5wsWvjdUG00qmMfeBJwrp9Aw=", "properties": {"ref": "ac098f99-f5e2-45bb-8a70-4d780f2b5774", "@spider": "the_gym_group_gb", "leisure": "fitness_centre", "addr:street_address": "Unit 8, Thurston Central Thurston Road, Lewisham", "addr:city": "Lewisham", "addr:postcode": "SE13 7SN", "addr:country": "GB", "name": "London Lewisham", "website": "https://www.thegymgroup.com/find-a-gym/south-london-gyms/lewisham/", "opening_hours": "24/7", "brand": "The Gym Group", "brand:wikidata": "Q48815022", "nsi_id": "thegym-2770cb"}, "geometry": {"type": "Point", "coordinates": [-0.0176949, 51.4655585]}},
{"type": "Feature", "id": "d92pkEM9WdbpGZgGAwjV6D2x27Y=", "properties": {"ref": "31d0fc17-592e-4c7d-98e1-3668413e6952", "@spider": "the_gym_group_gb", "leisure": "fitness_centre", "addr:street_address": "160 Southampton Rd, Titchfield \r\nPark Gate", "addr:city": "Fareham", "addr:postcode": "PO14 4PP", "addr:country": "GB", "name": "Fareham Locks Heath", "website": "https://www.thegymgroup.com/find-a-gym/fareham-gyms/fareham-locks-heath/", "opening_hours": "24/7", "brand": "The Gym Group", "brand:wikidata": "Q48815022", "nsi_id": "thegym-2770cb"}, "geometry": {"type": "Point", "coordinates": [-1.254892017115252, 50.862481129361385]}},
{"type": "Feature", "id": "mpt53hEsYnVNvOh6bbYIleEZEQY=", "properties": {"ref": "03b0a0bd-39ba-40ac-a727-116650263bc5", "@spider": "the_gym_group_gb", "leisure": "fitness_centre", "addr:street_address": "Atlanta Boulevard", "addr:city": "Romford", "addr:postcode": "RM1 1TB", "addr:country": "GB", "name": "Romford", "website": "https://www.thegymgroup.com/find-a-gym/north-london-gyms/romford/", "opening_hours": "24/7", "brand": "The Gym Group", "brand:wikidata": "Q48815022", "nsi_id": "thegym-2770cb"}, "geometry": {"type": "Point", "coordinates": [0.18358679951241244, 51.574081391396795]}},
{"type": "Feature", "id": "FXqnA5wBH7TvYbXsv1iLi6pfBfI=", "properties": {"ref": "e6ef98d6-fa11-4975-8e2f-8bf75be27778", "@spider": "the_gym_group_gb", "leisure": "fitness_centre", "addr:street_address": "Toll Bar Road, Toll Bar Retail Park\r\nRyhope", "addr:city": "Sunderland", "addr:postcode": "\nSR2 9TH", "addr:country": "GB", "name": "Sunderland South", "website": "https://www.thegymgroup.com/find-a-gym/sunderland-gyms/south-sunderland/", "opening_hours": "24/7", "brand": "The Gym Group", "brand:wikidata": "Q48815022", "nsi_id": "thegym-2770cb"}, "geometry": {"type": "Point", "coordinates": [-1.3648735847397275, 54.87817626710905]}},
{"type": "Feature", "id": "yCqo3Eb8aCvloVZWBwEQIRe8XrA=", "properties": {"ref": "7fae4c12-cac5-453e-be79-678d5a0bfcd8", "@spider": "the_gym_group_gb", "leisure": "fitness_centre", "addr:street_address": "Victoria Road, Centurion Point\r\nUnits 1 & 2 plus basement", "addr:city": "Chester", "addr:postcode": "\nCH2 2AX", "addr:country": "GB", "name": "Chester City Centre", "website": "https://www.thegymgroup.com/find-a-gym/chester-gyms/chester-city-centre/", "opening_hours": "24/7", "brand": "The Gym Group", "brand:wikidata": "Q48815022", "nsi_id": "thegym-2770cb"}, "geometry": {"type": "Point", "coordinates": [-2.8931447345990633, 53.195675620156635]}},
{"type": "Feature", "id": "-vIJF5A1ABud85AZ9ISndCnaT4c=", "properties": {"ref": "667ffe62-cc7e-4bc2-92c7-0a9487f8318f", "@spider": "the_gym_group_gb", "leisure": "fitness_centre", "addr:street_address": "Victoria Street North\nUnit D2 Victoria Retail Park", "addr:city": "Grimsby", "addr:postcode": "\nDN31 1PJ", "addr:country": "GB", "name": "Grimsby", "website": "https://www.thegymgroup.com/find-a-gym/grimsby-gyms/grimsby/", "opening_hours": "24/7", "brand": "The Gym Group", "brand:wikidata": "Q48815022", "nsi_id": "thegym-2770cb"}, "geometry": {"type": "Point", "coordinates": [-0.0804590834561793, 53.571562474284086]}},
{"type": "Feature", "id": "GQozG3XCFzZN0wfSXNxk4WbY53U=", "properties": {"ref": "5a0c9586-4063-4865-9cd3-a836a29a7e3f", "@spider": "the_gym_group_gb", "leisure": "fitness_centre", "addr:street_address": "Unit 2, Pasteur Road", "addr:city": "Great Yarmouth", "addr:postcode": "NR31 0DW", "addr:country": "GB", "name": "Great Yarmouth", "website": "https://www.thegymgroup.com/find-a-gym/great-yarmouth-gyms/great-yarmouth/", "opening_hours": "24/7", "brand": "The Gym Group", "brand:wikidata": "Q48815022", "nsi_id": "thegym-2770cb"}, "geometry": {"type": "Point", "coordinates": [1.718353218272279, 52.60477465322897]}},
{"type": "Feature", "id": "Hh92usC0w0LvwkDBVAvoRjflbRQ=", "properties": {"ref": "8564270b-6ce9-4f7e-906b-97eacb2b9f43", "@spider": "the_gym_group_gb", "leisure": "fitness_centre", "addr:street_address": "Straiton Mains, Unit 2 Straiton Retail park", "addr:city": "Edinburgh", "addr:postcode": "EH20 9PW", "addr:country": "GB", "name": "Edinburgh Straiton", "website": "https://www.thegymgroup.com/find-a-gym/edinburgh-gyms/edinburgh-straiton/", "opening_hours": "24/7", "brand": "The Gym Group", "brand:wikidata": "Q48815022", "nsi_id": "thegym-2770cb"}, "geometry": {"type": "Point", "coordinates": [-3.1606971663221355, 55.88549502287912]}},
{"type": "Feature", "id": "lST7ATBYgAsbbHe4zjlt5GrpeXs=", "properties": {"ref": "a1f6dec4-62bb-43d2-a24a-0baf591421e7", "@spider": "the_gym_group_gb", "leisure": "fitness_centre", "addr:street_address": "32 High Street", "addr:city": "Midsomer Norton", "addr:postcode": "BA3 2DW", "addr:country": "GB", "name": "Midsomer Norton", "website": "https://www.thegymgroup.com/find-a-gym/midsomer-norton-gyms/midsomer-norton/", "opening_hours": "24/7", "brand": "The Gym Group", "brand:wikidata": "Q48815022", "nsi_id": "thegym-2770cb"}, "geometry": {"type": "Point", "coordinates": [-2.4800132407291335, 51.28762885458688]}},
{"type": "Feature", "id": "4zCCbfKaQkQ9mAA-aHy3fPfII7I=", "properties": {"ref": "7cc0310c-5a1f-4f1d-8e7a-3d2e99be81cb", "@spider": "the_gym_group_gb", "leisure": "fitness_centre", "addr:street_address": "Holyhead Rd, Unit 8A\r\n\nAlvis Retail Park", "addr:city": "Coventry", "addr:postcode": "CV5 8BW", "addr:country": "GB", "name": "Coventry", "website": "https://www.thegymgroup.com/find-a-gym/coventry-gyms/coventry/", "opening_hours": "24/7", "brand": "The Gym Group", "brand:wikidata": "Q48815022", "nsi_id": "thegym-2770cb"}, "geometry": {"type": "Point", "coordinates": [-1.5267882512320063, 52.41173849677114]}},
{"type": "Feature", "id": "cJp_fERV87tHumGQnZrOM64clvI=", "properties": {"ref": "f57d4379-778d-4173-87ab-05dea9debda6", "@spider": "the_gym_group_gb", "leisure": "fitness_centre", "addr:street_address": "Green Lane, The Arena Shopping Park\r\nUnit 4C\r\nHarringay", "addr:city": "London", "addr:postcode": "N4 1DT", "addr:country": "GB", "name": "London Harringay", "website": "https://www.thegymgroup.com/find-a-gym/north-london-gyms/harringay/", "opening_hours": "24/7", "brand": "The Gym Group", "brand:wikidata": "Q48815022", "nsi_id": "thegym-2770cb"}, "geometry": {"type": "Point", "coordinates": [-0.09769288802771996, 51.57636176013273]}},
{"type": "Feature", "id": "YoEtA4PGH0y3x-AtoKkNRJ267uo=", "properties": {"ref": "1a800b72-e512-4ae1-9223-4fdfbcb8354f", "@spider": "the_gym_group_gb", "leisure": "fitness_centre", "addr:street_address": "Marshall Road, Leyton Mills Retail Park\r\nUnit 6\r\n1st Floor\r\nLeyton", "addr:city": "London", "addr:postcode": "E10 5NH", "addr:country": "GB", "name": "London Leyton", "website": "https://www.thegymgroup.com/find-a-gym/east-london-gyms/leyton/", "opening_hours": "24/7", "brand": "The Gym Group", "brand:wikidata": "Q48815022", "nsi_id": "thegym-2770cb"}, "geometry": {"type": "Point", "coordinates": [-0.0071786150826258725, 51.55646512068616]}},
{"type": "Feature", "id": "bw92RjPyYi1oHOzazAPlFhOXFtg=", "properties": {"ref": "65ce3eef-6886-4b27-909f-1ecb8f0e7e26", "@spider": "the_gym_group_gb", "leisure": "fitness_centre", "addr:street_address": "Stanley Street, Eastgate Retail Park\r\nUnit 4", "addr:city": "Accrington", "addr:postcode": "BB5 6RQ", "addr:country": "GB", "name": "Accrington", "website": "https://www.thegymgroup.com/find-a-gym/accrington-gyms/accrington/", "opening_hours": "24/7", "brand": "The Gym Group", "brand:wikidata": "Q48815022", "nsi_id": "thegym-2770cb"}, "geometry": {"type": "Point", "coordinates": [-2.359698051464282, 53.75310886624187]}},
{"type": "Feature", "id": "tI1VEKFLqVMmI70WzCmw_OlRJYw=", "properties": {"ref": "8c254fc1-f587-4cbf-84fc-abde79c9d045", "@spider": "the_gym_group_gb", "leisure": "fitness_centre", "addr:street_address": "60 Vine Street", "addr:city": "\nUxbridge", "addr:postcode": "\nUB8 1TD", "addr:country": "GB", "name": "Uxbridge", "website": "https://www.thegymgroup.com/find-a-gym/west-london-gyms/uxbridge/", "opening_hours": "24/7", "brand": "The Gym Group", "brand:wikidata": "Q48815022", "nsi_id": "thegym-2770cb"}, "geometry": {"type": "Point", "coordinates": [-0.47819576197971875, 51.54478487485336]}},
{"type": "Feature", "id": "eKrGXICChyzSMamYB6Bcw4hcVxc=", "properties": {"ref": "ef451bcb-5902-4367-aab9-3cdda55ced66", "@spider": "the_gym_group_gb", "leisure": "fitness_centre", "addr:street_address": "25  Hawley Road", "addr:city": "Hinckley", "addr:postcode": "\n LE10 0PR", "addr:country": "GB", "name": "Hinckley", "website": "https://www.thegymgroup.com/find-a-gym/hinckley-gyms/hinckley/", "opening_hours": "24/7", "brand": "The Gym Group", "brand:wikidata": "Q48815022", "nsi_id": "thegym-2770cb"}, "geometry": {"type": "Point", "coordinates": [-1.3759303294355547, 52.534861448752146]}},
{"type": "Feature", "id": "S7DmPYaE9iGP6szUDp9TEoFmleo=", "properties": {"ref": "862d471a-4ae7-4c2c-ab69-06787a35d6de", "@spider": "the_gym_group_gb", "leisure": "fitness_centre", "addr:street_address": "Unit 4 Cleveland Retail Park,, Trunk Road", "addr:city": "Middlesbrough", "addr:postcode": "TS6 6UX", "addr:country": "GB", "name": "Middlesbrough", "website": "https://www.thegymgroup.com/find-a-gym/middlesbrough-gyms/middlesbrough/", "opening_hours": "24/7", "brand": "The Gym Group", "brand:wikidata": "Q48815022", "nsi_id": "thegym-2770cb"}, "geometry": {"type": "Point", "coordinates": [-1.1830336993477313, 54.57076536493971]}},
{"type": "Feature", "id": "HtsDnAhlGl_sy880tEJMFgklyFI=", "properties": {"ref": "bfc143ab-6b95-404b-9e69-8078627ca4f9", "@spider": "the_gym_group_gb", "leisure": "fitness_centre", "addr:street_address": "122 The Broadway, \nLondon", "addr:postcode": "\nSW19 1RH", "addr:country": "GB", "name": "Wimbledon", "website": "https://www.thegymgroup.com/find-a-gym/west-london-gyms/wimbledon/", "opening_hours": "24/7", "brand": "The Gym Group", "brand:wikidata": "Q48815022", "nsi_id": "thegym-2770cb"}, "geometry": {"type": "Point", "coordinates": [-0.19991557309674177, 51.4192645434188]}},
{"type": "Feature", "id": "V3sYjvDtgKOvl__ZO0j9H7r5Yf8=", "properties": {"ref": "52a73282-2c27-4d89-b1c8-4b971ac49090", "@spider": "the_gym_group_gb", "leisure": "fitness_centre", "addr:street_address": "Unit 1, Friary Retail Park, Wolverhampton Rd", "addr:city": "Stafford ", "addr:postcode": "ST17 4AH", "addr:country": "GB", "name": "Stafford", "website": "https://www.thegymgroup.com/find-a-gym/stafford-gyms/stafford/", "opening_hours": "24/7", "brand": "The Gym Group", "brand:wikidata": "Q48815022", "nsi_id": "thegym-2770cb"}, "geometry": {"type": "Point", "coordinates": [-2.1145538209736663, 52.80238611115239]}},
{"type": "Feature", "id": "rbUjm1kBi6JqwdfbDDqsDa7qCO4=", "properties": {"ref": "c9b979d8-d814-4419-9346-f74d029072fa", "@spider": "the_gym_group_gb", "leisure": "fitness_centre", "addr:street_address": "1 Triton Square, Regents Place, London", "addr:postcode": "NW1 3AN", "addr:country": "GB", "name": "London Euston Road", "website": "https://www.thegymgroup.com/find-a-gym/north-london-gyms/euston-road/", "opening_hours": "24/7", "brand": "The Gym Group", "brand:wikidata": "Q48815022", "nsi_id": "thegym-2770cb"}, "geometry": {"type": "Point", "coordinates": [-0.1404245875175925, 51.52543040870707]}},
{"type": "Feature", "id": "mlN14HColwK8jar5bfd04I1NAV4=", "properties": {"ref": "68e9501a-ef31-4290-abbf-88a6c857aae1", "@spider": "the_gym_group_gb", "leisure": "fitness_centre", "addr:street_address": "Unit 4, St Nicholas Gate Retail Park\r\nLondon Road", "addr:city": "Carlisle", "addr:postcode": "CA1 2EA", "addr:country": "GB", "name": "Carlisle", "website": "https://www.thegymgroup.com/find-a-gym/carlisle-gyms/carlisle/", "opening_hours": "24/7", "brand": "The Gym Group", "brand:wikidata": "Q48815022", "nsi_id": "thegym-2770cb"}, "geometry": {"type": "Point", "coordinates": [-2.92366, 54.88683]}},
{"type": "Feature", "id": "kZ3lWWEjhLPdfJLDdHvAB1OO-_E=", "properties": {"ref": "41cc2b07-7c0f-4a01-8660-3ccd72b12a7b", "@spider": "the_gym_group_gb", "leisure": "fitness_centre", "addr:street_address": "Alexandra Street, Wolverhampton", "addr:city": "Wolverhampton", "addr:postcode": "WV3 0TE", "addr:country": "GB", "name": "Wolverhampton", "website": "https://www.thegymgroup.com/find-a-gym/wolverhampton-gyms/wolverhampton/", "opening_hours": "24/7", "brand": "The Gym Group", "brand:wikidata": "Q48815022", "nsi_id": "thegym-2770cb"}, "geometry": {"type": "Point", "coordinates": [-2.134242, 52.582273]}},
{"type": "Feature", "id": "MHd60uHVcE8P5ai8EPLEgCabgcA=", "properties": {"ref": "23becc48-441d-454e-b995-69a88b4853f4", "@spider": "the_gym_group_gb", "leisure": "fitness_centre", "addr:street_address": "Unit 2, Lyons Farm Retail Park, Worthing", "addr:postcode": "BN14 9LA", "addr:country": "GB", "name": "Worthing", "website": "https://www.thegymgroup.com/find-a-gym/worthing-gyms/worthing/", "opening_hours": "24/7", "brand": "The Gym Group", "brand:wikidata": "Q48815022", "nsi_id": "thegym-2770cb"}, "geometry": {"type": "Point", "coordinates": [-0.365667, 50.834813]}},
{"type": "Feature", "id": "OMSjfi6LZaxYl5F5FFRROxXLuSo=", "properties": {"ref": "942ccf8b-b855-4e9a-928a-99a2513a329a", "@spider": "the_gym_group_gb", "leisure": "fitness_centre", "addr:street_address": "Foss Islands Road, Layerthorpe", "addr:city": "York", "addr:postcode": "YO31 7UP", "addr:country": "GB", "name": "York Foss Island", "website": "https://www.thegymgroup.com/find-a-gym/york-gyms/york-foss-island/", "opening_hours": "24/7", "brand": "The Gym Group", "brand:wikidata": "Q48815022", "nsi_id": "thegym-2770cb"}, "geometry": {"type": "Point", "coordinates": [-1.072398, 53.960681]}},
{"type": "Feature", "id": "SaZQJQtQQ49LRjTFMFXNzQ5flmU=", "properties": {"ref": "37b56029-d40d-4782-843f-7b6d53b51425", "@spider": "the_gym_group_gb", "leisure": "fitness_centre", "addr:street_address": "24-27 Bandstand Mall, Victoria Shopping Centre", "addr:city": "Woking", "addr:postcode": "GU21 6GB", "addr:country": "GB", "name": "Woking", "website": "https://www.thegymgroup.com/find-a-gym/woking-gyms/woking/", "opening_hours": "24/7", "brand": "The Gym Group", "brand:wikidata": "Q48815022", "nsi_id": "thegym-2770cb"}, "geometry": {"type": "Point", "coordinates": [-0.5613440153677501, 51.31989723766638]}},
{"type": "Feature", "id": "1YJ9R8vqmZGIgBgSgu2go3xKPDM=", "properties": {"ref": "1ecd9059-8d2d-47fe-8152-099ed5274489", "@spider": "the_gym_group_gb", "leisure": "fitness_centre", "addr:street_address": "Epsom Avenue, Handforth", "addr:city": "Wilmslow", "addr:postcode": "SK9 3PW", "addr:country": "GB", "name": "Handforth Wilmslow", "website": "https://www.thegymgroup.com/find-a-gym/wilmslow-gyms/handforth-wilmslow/", "opening_hours": "24/7", "brand": "The Gym Group", "brand:wikidata": "Q48815022", "nsi_id": "thegym-2770cb"}, "geometry": {"type": "Point", "coordinates": [-2.2095649, 53.3501138]}},
{"type": "Feature", "id": "kmJwr_5rIOSHpE-745MiTuJUbEw=", "properties": {"ref": "cba9ffbf-9f89-4fde-8817-4e2bd2326f3c", "@spider": "the_gym_group_gb", "leisure": "fitness_centre", "addr:street_address": "Namco Station, Castle Grounds, Tamworth", "addr:city": "Staffordshire", "addr:postcode": "B79 7ND", "addr:country": "GB", "name": "Tamworth", "website": "https://www.thegymgroup.com/find-a-gym/tamworth-gyms/tamworth/", "opening_hours": "24/7", "brand": "The Gym Group", "brand:wikidata": "Q48815022", "nsi_id": "thegym-2770cb"}, "geometry": {"type": "Point", "coordinates": [-1.695741, 52.629487]}},
{"type": "Feature", "id": "TdvKbQoTcMwDmSjh6aEyeZXz9ys=", "properties": {"ref": "56aba154-3ee6-4958-a144-eef84556f405", "@spider": "the_gym_group_gb", "leisure": "fitness_centre", "addr:street_address": "Unit 2, Rampart Court Retail Park\r\nRampart Way, Telford", "addr:postcode": "TF3 4AS", "addr:country": "GB", "name": "Telford", "website": "https://www.thegymgroup.com/find-a-gym/telford-gyms/telford/", "opening_hours": "24/7", "brand": "The Gym Group", "brand:wikidata": "Q48815022", "nsi_id": "thegym-2770cb"}, "geometry": {"type": "Point", "coordinates": [-2.441191, 52.679488]}},
{"type": "Feature", "id": "3WLPrsR1fJT3QqZO84ymZCYf2K8=", "properties": {"ref": "983635dd-ed8c-438c-af1c-bcafbdb26c6d", "@spider": "the_gym_group_gb", "leisure": "fitness_centre", "addr:street_address": "Unit 3, Antel Development\r\nDewsbury Road, Wakefield", "addr:city": "West Yorkshire", "addr:postcode": "WF2 9BL", "addr:country": "GB", "name": "Wakefield", "website": "https://www.thegymgroup.com/find-a-gym/wakefield-gyms/wakefield/", "opening_hours": "24/7", "brand": "The Gym Group", "brand:wikidata": "Q48815022", "nsi_id": "thegym-2770cb"}, "geometry": {"type": "Point", "coordinates": [-1.516547, 53.678701]}},
{"type": "Feature", "id": "7EcWXDkvSBCRmQur-1reVFotYpY=", "properties": {"ref": "a3ec4b6b-57bc-4af0-9068-89361c0325fc", "@spider": "the_gym_group_gb", "leisure": "fitness_centre", "addr:street_address": "Greenbridge Retail Park", "addr:postcode": "SN3 3SQ", "addr:country": "GB", "name": "Swindon", "website": "https://www.thegymgroup.com/find-a-gym/swindon-gyms/swindon/", "opening_hours": "24/7", "brand": "The Gym Group", "brand:wikidata": "Q48815022", "nsi_id": "thegym-2770cb"}, "geometry": {"type": "Point", "coordinates": [-1.7525567, 51.5697719]}},
{"type": "Feature", "id": "zQZRgpJVUFufZTvpc1Vm4VDdoyg=", "properties": {"ref": "a65a67e3-7df8-487d-959c-69961d78a99e", "@spider": "the_gym_group_gb", "leisure": "fitness_centre", "addr:street_address": "Unit C6, Strood Retail Park, Rochester", "addr:city": "Rochester", "addr:postcode": "ME2 2AD", "addr:country": "GB", "name": "Strood", "website": "https://www.thegymgroup.com/find-a-gym/strood-gyms/strood/", "opening_hours": "24/7", "brand": "The Gym Group", "brand:wikidata": "Q48815022", "nsi_id": "thegym-2770cb"}, "geometry": {"type": "Point", "coordinates": [0.494779, 51.394254]}},
{"type": "Feature", "id": "p-MRO1pjRlY3_W5LoFak4Rz52wY=", "properties": {"ref": "c4916b4c-926c-49d7-a870-eb507c42dd31", "@spider": "the_gym_group_gb", "leisure": "fitness_centre", "addr:street_address": "36a Princess Way, Swansea", "addr:city": "Swansea", "addr:postcode": "SA1 5HE", "addr:country": "GB", "name": "Swansea", "website": "https://www.thegymgroup.com/find-a-gym/swansea-gyms/swansea/", "opening_hours": "24/7", "brand": "The Gym Group", "brand:wikidata": "Q48815022", "nsi_id": "thegym-2770cb"}, "geometry": {"type": "Point", "coordinates": [-3.943212, 51.621056]}},
{"type": "Feature", "id": "uAyE4R37UMHxOd4-2LVqpTwKp_0=", "properties": {"ref": "5dff5bba-12d1-42ca-b76c-de8a4616cec7", "@spider": "the_gym_group_gb", "leisure": "fitness_centre", "addr:street_address": "Unit 1, Redrock, Bridgefield Street, Stockport", "addr:city": "Cheshire", "addr:postcode": "SK1 1SA", "addr:country": "GB", "name": "Stockport", "website": "https://www.thegymgroup.com/find-a-gym/stockport-gyms/stockport/", "opening_hours": "24/7", "brand": "The Gym Group", "brand:wikidata": "Q48815022", "nsi_id": "thegym-2770cb"}, "geometry": {"type": "Point", "coordinates": [-2.1613944, 53.411768]}},
{"type": "Feature", "id": "uAQFBsZjdvj-tFh7V90TtQ3CffA=", "properties": {"ref": "dcc1a19b-87ea-4a90-a3a5-7afe56a2df24", "@spider": "the_gym_group_gb", "leisure": "fitness_centre", "addr:street_address": "Crossgate, South Shields", "addr:city": "Tyne & Wear", "addr:postcode": "NE33 5QX", "addr:country": "GB", "name": "South Shields", "website": "https://www.thegymgroup.com/find-a-gym/south-shields-gyms/south-shields/", "opening_hours": "24/7", "brand": "The Gym Group", "brand:wikidata": "Q48815022", "nsi_id": "thegym-2770cb"}, "geometry": {"type": "Point", "coordinates": [-1.43224, 54.99391]}},
{"type": "Feature", "id": "gHw01XNX0Tw-kJU47IdKJUSN_VY=", "properties": {"ref": "2e098b60-a7f2-44e2-9ebe-90b31a3d061b", "@spider": "the_gym_group_gb", "leisure": "fitness_centre", "addr:street_address": "Unit 3 \nLondon Road Retail Park", "addr:postcode": "SS1 1PA", "addr:country": "GB", "name": "Southend", "website": "https://www.thegymgroup.com/find-a-gym/southend-gyms/southend/", "opening_hours": "24/7", "brand": "The Gym Group", "brand:wikidata": "Q48815022", "nsi_id": "thegym-2770cb"}, "geometry": {"type": "Point", "coordinates": [0.705174, 51.541837]}},
{"type": "Feature", "id": "u039MgDpToCJ2k5FUv0pgZbHeJA=", "properties": {"ref": "34c6d8f4-3853-4bd0-9ec6-c9daea8d2692", "@spider": "the_gym_group_gb", "leisure": "fitness_centre", "addr:street_address": "366 \u2013 368 Shirley Road, Southampton", "addr:postcode": "SO15 3HY", "addr:country": "GB", "name": "Southampton Shirley", "website": "https://www.thegymgroup.com/find-a-gym/southampton-gyms/southampton-shirley/", "opening_hours": "24/7", "brand": "The Gym Group", "brand:wikidata": "Q48815022", "nsi_id": "thegym-2770cb"}, "geometry": {"type": "Point", "coordinates": [-1.430587, 50.919278]}},
{"type": "Feature", "id": "s2Vosg5vgFGCaOnjGjX1EDKaAJk=", "properties": {"ref": "03cde92f-3852-4ec8-985c-1645d90d33ab", "@spider": "the_gym_group_gb", "leisure": "fitness_centre", "addr:street_address": "224 Portswood Road", "addr:city": "Southampton", "addr:postcode": "SO17 2LB", "addr:country": "GB", "name": "Southampton Portswood", "website": "https://www.thegymgroup.com/find-a-gym/southampton-gyms/southampton-portswood/", "opening_hours": "24/7", "brand": "The Gym Group", "brand:wikidata": "Q48815022", "nsi_id": "thegym-2770cb"}, "geometry": {"type": "Point", "coordinates": [-1.3892463848601313, 50.92712865903534]}},
{"type": "Feature", "id": "u-x396rf32lzT7KFYyaujeIBbeM=", "properties": {"ref": "165694d8-8bc4-41df-9924-cc81c3236a51", "@spider": "the_gym_group_gb", "leisure": "fitness_centre", "addr:street_address": "Antelope Park, Bursledon Road, Southampton", "addr:city": "Hampshire", "addr:postcode": "SO19 8NE", "addr:country": "GB", "name": "Southampton East", "website": "https://www.thegymgroup.com/find-a-gym/southampton-gyms/southampton-east/", "opening_hours": "24/7", "brand": "The Gym Group", "brand:wikidata": "Q48815022", "nsi_id": "thegym-2770cb"}, "geometry": {"type": "Point", "coordinates": [-1.337661, 50.906655]}},
{"type": "Feature", "id": "ArutFnDdS4W10YC9adKC74m8BpM=", "properties": {"ref": "2f9d98a2-a5f7-4cd9-a2ed-030129218fef", "@spider": "the_gym_group_gb", "leisure": "fitness_centre", "addr:street_address": "First Floor, 176-178 High Street, Southampton", "addr:city": "Southampton", "addr:postcode": "SO14 2BY", "addr:country": "GB", "name": "Southampton Central", "website": "https://www.thegymgroup.com/find-a-gym/southampton-gyms/southampton/", "opening_hours": "24/7", "brand": "The Gym Group", "brand:wikidata": "Q48815022", "nsi_id": "thegym-2770cb"}, "geometry": {"type": "Point", "coordinates": [-1.404359, 50.901995]}},
{"type": "Feature", "id": "o9v9wUfo93drAgLmClgY3f8SlX4=", "properties": {"ref": "625f4962-6654-485e-a474-1531a73c38de", "@spider": "the_gym_group_gb", "leisure": "fitness_centre", "addr:street_address": "117-119 Whitby Road", "addr:city": "Slough", "addr:postcode": "SL1 3DR", "addr:country": "GB", "name": "Slough", "website": "https://www.thegymgroup.com/find-a-gym/slough-gyms/slough/", "opening_hours": "24/7", "brand": "The Gym Group", "brand:wikidata": "Q48815022", "nsi_id": "thegym-2770cb"}, "geometry": {"type": "Point", "coordinates": [-0.612973, 51.518043]}},
{"type": "Feature", "id": "RD8acqc0XR652sglFaPVw6Ao9XA=", "properties": {"ref": "47324457-50ab-4e2f-ba67-d3db0241b4c2", "@spider": "the_gym_group_gb", "leisure": "fitness_centre", "addr:street_address": "23 Parkgate Shopping Centre, Stratford Road, Shirley", "addr:city": "Solihull", "addr:postcode": "B90 2EL", "addr:country": "GB", "name": "Shirley Solihull", "website": "https://www.thegymgroup.com/find-a-gym/shirley-gyms/shirley/", "opening_hours": "24/7", "brand": "The Gym Group", "brand:wikidata": "Q48815022", "nsi_id": "thegym-2770cb"}, "geometry": {"type": "Point", "coordinates": [-1.829376, 52.413764]}},
{"type": "Feature", "id": "EhOS-WNnDNUg3eibmjbA7WkAOzI=", "properties": {"ref": "29a42b51-d7c9-40d0-8665-5f1039e33694", "@spider": "the_gym_group_gb", "leisure": "fitness_centre", "addr:street_address": "Units J&K, Brookshaw Park Gibraltar Street, Sheffield", "addr:city": "Sheffield", "addr:postcode": "S3 8RW", "addr:country": "GB", "name": "Sheffield Kelham Island", "website": "https://www.thegymgroup.com/find-a-gym/sheffield-gyms/sheffield-kelham-island/", "opening_hours": "24/7", "brand": "The Gym Group", "brand:wikidata": "Q48815022", "nsi_id": "thegym-2770cb"}, "geometry": {"type": "Point", "coordinates": [-1.473117, 53.387573]}},
{"type": "Feature", "id": "b8A9q4MXEhSGvW1pWc6hx7Z4yoU=", "properties": {"ref": "0828df3c-0893-441c-9651-7f49d4f22aa6", "@spider": "the_gym_group_gb", "leisure": "fitness_centre", "addr:street_address": "81a The Moor", "addr:city": "Sheffield", "addr:postcode": "S1 4PF", "addr:country": "GB", "name": "Sheffield The Moor", "website": "https://www.thegymgroup.com/find-a-gym/sheffield-gyms/sheffield-the-moor/", "opening_hours": "24/7", "brand": "The Gym Group", "brand:wikidata": "Q48815022", "nsi_id": "thegym-2770cb"}, "geometry": {"type": "Point", "coordinates": [-1.473805, 53.375593]}},
{"type": "Feature", "id": "6kt6elw5OFu-4GzRqhy5AnKpCuU=", "properties": {"ref": "e35b2593-aae4-46d9-84e9-4ca70fe93ae3", "@spider": "the_gym_group_gb", "leisure": "fitness_centre", "addr:street_address": "Lakeside Parkway, Unit 2, Lakeside Retail Park", "addr:city": "Scunthorpe", "addr:postcode": "DN16 3UA", "addr:country": "GB", "name": "Scunthorpe Lakeside", "website": "https://www.thegymgroup.com/find-a-gym/scunthorpe-gyms/scunthorpe-lakeside/", "opening_hours": "24/7", "brand": "The Gym Group", "brand:wikidata": "Q48815022", "nsi_id": "thegym-2770cb"}, "geometry": {"type": "Point", "coordinates": [-0.6175001122284356, 53.56366463054344]}},
{"type": "Feature", "id": "IT6W1Tv3WyLPVFCt8_XktUm8YOE=", "properties": {"ref": "ac60c7b6-e385-460a-aa8f-77df5251e6f6", "@spider": "the_gym_group_gb", "leisure": "fitness_centre", "addr:street_address": "Rotherham Rd, Rotherham", "addr:city": "South Yorkshire", "addr:postcode": "S62 6JL", "addr:country": "GB", "name": "Rotherham", "website": "https://www.thegymgroup.com/find-a-gym/rotherham-gyms/rotherham/", "opening_hours": "24/7", "brand": "The Gym Group", "brand:wikidata": "Q48815022", "nsi_id": "thegym-2770cb"}, "geometry": {"type": "Point", "coordinates": [-1.348943, 53.446161]}},
{"type": "Feature", "id": "LsWdOW7HGijRS7XkFHR_OLE7dFU=", "properties": {"ref": "e7054bd2-f434-45bf-a659-0be63e2ca71e", "@spider": "the_gym_group_gb", "leisure": "fitness_centre", "addr:street_address": "Warwick Quadrant, Redhill", "addr:city": "Surrey", "addr:postcode": "RH1 1NN", "addr:country": "GB", "name": "Redhill", "website": "https://www.thegymgroup.com/find-a-gym/redhill-gyms/redhill/", "opening_hours": "24/7", "brand": "The Gym Group", "brand:wikidata": "Q48815022", "nsi_id": "thegym-2770cb"}, "geometry": {"type": "Point", "coordinates": [-0.167577, 51.24116]}},
{"type": "Feature", "id": "6ZhhmN6VARtVWvhDVJdWEQ8DpwY=", "properties": {"ref": "526e76ad-bf45-4c6a-a006-a20a029af4db", "@spider": "the_gym_group_gb", "leisure": "fitness_centre", "addr:street_address": "Reading Retail Park, Oxford Road, Reading", "addr:city": "Berkshire", "addr:postcode": "RG30 1PR", "addr:country": "GB", "name": "Reading West", "website": "https://www.thegymgroup.com/find-a-gym/reading-gyms/reading-west/", "opening_hours": "24/7", "brand": "The Gym Group", "brand:wikidata": "Q48815022", "nsi_id": "thegym-2770cb"}, "geometry": {"type": "Point", "coordinates": [-1.0133572055983642, 51.46066400995341]}},
{"type": "Feature", "id": "WbUWmDPIGZ2k5jTKt6GfvJ9qSc8=", "properties": {"ref": "af16a24d-5285-4068-b822-596ad0996f04", "@spider": "the_gym_group_gb", "leisure": "fitness_centre", "addr:street_address": "Broad Street Mall, 3 St. Marys Butts, Reading", "addr:city": "Reading", "addr:postcode": "RG1 2LN", "addr:country": "GB", "name": "Reading Central", "website": "https://www.thegymgroup.com/find-a-gym/reading-gyms/reading-central/", "opening_hours": "24/7", "brand": "The Gym Group", "brand:wikidata": "Q48815022", "nsi_id": "thegym-2770cb"}, "geometry": {"type": "Point", "coordinates": [-0.97529, 51.454949]}},
{"type": "Feature", "id": "ox0XdHtoRPP-tI6s1X6FkMJqUwY=", "properties": {"ref": "40a3df79-a08a-4eb2-a49f-cad66bb3ccbb", "@spider": "the_gym_group_gb", "leisure": "fitness_centre", "addr:street_address": "The Gym, Holmes Way, Ramsgate", "addr:city": "Kent", "addr:postcode": "CT12 5FP", "addr:country": "GB", "name": "Thanet", "website": "https://www.thegymgroup.com/find-a-gym/ramsgate-gyms/thanet/", "opening_hours": "24/7", "brand": "The Gym Group", "brand:wikidata": "Q48815022", "nsi_id": "thegym-2770cb"}, "geometry": {"type": "Point", "coordinates": [1.389633, 51.356012]}},
{"type": "Feature", "id": "uN2kCbTBt70GA_BdPWpsyVB77kc=", "properties": {"ref": "058247e2-17da-4258-9a6a-7de65957699f", "@spider": "the_gym_group_gb", "leisure": "fitness_centre", "addr:street_address": "Unit 1C,\n 5-9, Nuffield Road\r\nNuffield Industrial Estate", "addr:city": "Poole\n", "addr:postcode": "BH17 0SS", "addr:country": "GB", "name": "Poole", "website": "https://www.thegymgroup.com/find-a-gym/poole-gyms/poole/", "opening_hours": "24/7", "brand": "The Gym Group", "brand:wikidata": "Q48815022", "nsi_id": "thegym-2770cb"}, "geometry": {"type": "Point", "coordinates": [-1.981579, 50.740207]}},
{"type": "Feature", "id": "ZSvUEL4IjiIoTedc7iBOBy25EXA=", "properties": {"ref": "4578dd12-0d17-41ba-b8aa-1ec21c32698c", "@spider": "the_gym_group_gb", "leisure": "fitness_centre", "addr:street_address": "Rodney Road, Southsea ", "addr:city": "Portsmouth", "addr:postcode": "PO4 8SX", "addr:country": "GB", "name": "Portsmouth Fratton", "website": "https://www.thegymgroup.com/find-a-gym/portsmouth-gyms/portsmouth-fratton/", "opening_hours": "24/7", "brand": "The Gym Group", "brand:wikidata": "Q48815022", "nsi_id": "thegym-2770cb"}, "geometry": {"type": "Point", "coordinates": [-1.064775, 50.7985]}},
{"type": "Feature", "id": "nCO7DQ2YWH9lfPAliqo3be2WTK4=", "properties": {"ref": "8c83651d-cdb4-4fb9-a004-f7885ff15125", "@spider": "the_gym_group_gb", "leisure": "fitness_centre", "addr:street_address": "Unit 1, Cattewater Road", "addr:city": "Plymouth", "addr:postcode": "PL4 0SE", "addr:country": "GB", "name": "Plymouth Laira Bridge", "website": "https://www.thegymgroup.com/find-a-gym/plymouth-gyms/plymouth-laira-bridge/", "opening_hours": "24/7", "brand": "The Gym Group", "brand:wikidata": "Q48815022", "nsi_id": "thegym-2770cb"}, "geometry": {"type": "Point", "coordinates": [-4.112427, 50.369872]}},
{"type": "Feature", "id": "vkFASQKipExzNc0oQIFysppXkgQ=", "properties": {"ref": "dabbd13d-f7d5-4fe6-a526-6f68b44a3165", "@spider": "the_gym_group_gb", "leisure": "fitness_centre", "addr:street_address": "31 Derrys Cross, Plymouth", "addr:city": "Devon", "addr:postcode": "PL1 2SW", "addr:country": "GB", "name": "Plymouth", "website": "https://www.thegymgroup.com/find-a-gym/plymouth-gyms/plymouth/", "opening_hours": "24/7", "brand": "The Gym Group", "brand:wikidata": "Q48815022", "nsi_id": "thegym-2770cb"}, "geometry": {"type": "Point", "coordinates": [-4.145468, 50.369308]}},
{"type": "Feature", "id": "G5HwJEGpBgO0se_BMnsC_NNxUhM=", "properties": {"ref": "9e26608e-eff3-4418-bfce-4502e213cddb", "@spider": "the_gym_group_gb", "leisure": "fitness_centre", "addr:street_address": "Unit 2 Westfield Leisure Park, Lime Kiln Close Westwood, Peterborough", "addr:city": "Cambridgeshire", "addr:postcode": "PE3 9TA", "addr:country": "GB", "name": "Peterborough", "website": "https://www.thegymgroup.com/find-a-gym/peterborough-gyms/peterborough/", "opening_hours": "24/7", "brand": "The Gym Group", "brand:wikidata": "Q48815022", "nsi_id": "thegym-2770cb"}, "geometry": {"type": "Point", "coordinates": [-0.258026, 52.582065]}},
{"type": "Feature", "id": "rUmgwXqPX0s82PP3HNSNCpKD0mM=", "properties": {"ref": "0dd8bdfb-9448-4e95-a1e8-0b1a34d2bd80", "@spider": "the_gym_group_gb", "leisure": "fitness_centre", "addr:street_address": "St Catherines Retail Park", "addr:city": "Perth", "addr:postcode": "PH1 5XA", "addr:country": "GB", "name": "Perth", "website": "https://www.thegymgroup.com/find-a-gym/perth-gyms/perth/", "opening_hours": "24/7", "brand": "The Gym Group", "brand:wikidata": "Q48815022", "nsi_id": "thegym-2770cb"}, "geometry": {"type": "Point", "coordinates": [-3.44113, 56.400211]}},
{"type": "Feature", "id": "20RHyJ0qhpwiTuTLEeAJtByqv48=", "properties": {"ref": "ee277849-55e8-4ec3-846d-e6f7c94d6f0f", "@spider": "the_gym_group_gb", "leisure": "fitness_centre", "addr:street_address": "Unit 2, Devonshire Retail Park", "addr:city": "Long Road", "addr:postcode": "TQ4 7AZ", "addr:country": "GB", "name": "Paignton", "website": "https://www.thegymgroup.com/find-a-gym/paignton-gyms/paignton/", "opening_hours": "24/7", "brand": "The Gym Group", "brand:wikidata": "Q48815022", "nsi_id": "thegym-2770cb"}, "geometry": {"type": "Point", "coordinates": [-3.581792, 50.414966]}},
{"type": "Feature", "id": "sPlBFXmShaO7EaPphOP1PU5raVw=", "properties": {"ref": "047d4ffb-19b0-42db-b72a-fd66a3f1d59f", "@spider": "the_gym_group_gb", "leisure": "fitness_centre", "addr:street_address": "Unit 3, Headington Retail Park\r\nHorspath Driftway", "addr:postcode": "OX3 7JN", "addr:country": "GB", "name": "Oxford Headington", "website": "https://www.thegymgroup.com/find-a-gym/oxford-gyms/oxford-headington/", "opening_hours": "24/7", "brand": "The Gym Group", "brand:wikidata": "Q48815022", "nsi_id": "thegym-2770cb"}, "geometry": {"type": "Point", "coordinates": [-1.2000829, 51.7406969]}},
{"type": "Feature", "id": "U13KZcs1Z-rhAth5enpYmgTtUiY=", "properties": {"ref": "856100e0-c0e3-4ded-bd4c-8ed2e88fb721", "@spider": "the_gym_group_gb", "leisure": "fitness_centre", "addr:street_address": "The Gym, Fairacres Retail Park", "addr:city": "Marcham Road", "addr:postcode": "OX14 1BS", "addr:country": "GB", "name": "Oxford Abingdon", "website": "https://www.thegymgroup.com/find-a-gym/oxford-gyms/oxford-abingdon/", "opening_hours": "24/7", "brand": "The Gym Group", "brand:wikidata": "Q48815022", "nsi_id": "thegym-2770cb"}, "geometry": {"type": "Point", "coordinates": [-1.3075112, 51.6695091]}},
{"type": "Feature", "id": "vPGUwQkY5TCk6mKGrqAftGEjwOI=", "properties": {"ref": "8a2d9772-268f-4d62-8291-f7bb28f10302", "@spider": "the_gym_group_gb", "leisure": "fitness_centre", "addr:street_address": "684 Mansfield Road, Sherwood", "addr:city": "Nottingham", "addr:postcode": "NG5 2GE", "addr:country": "GB", "name": "Nottingham Sherwood", "website": "https://www.thegymgroup.com/find-a-gym/nottingham-gyms/nottingham-sherwood/", "opening_hours": "24/7", "brand": "The Gym Group", "brand:wikidata": "Q48815022", "nsi_id": "thegym-2770cb"}, "geometry": {"type": "Point", "coordinates": [-1.143988, 52.984096]}},
{"type": "Feature", "id": "M5QIvL-RCcoXhxsY_LsS8gX8we0=", "properties": {"ref": "c510054e-9bce-4307-9b6b-2aa0615f4f37", "@spider": "the_gym_group_gb", "leisure": "fitness_centre", "addr:street_address": "Corner of Manchester Road and Drury Lane, Oldham", "addr:city": "Greater Manchester", "addr:postcode": "OL9 7NG", "addr:country": "GB", "name": "Oldham", "website": "https://www.thegymgroup.com/find-a-gym/oldham-gyms/oldham/", "opening_hours": "24/7", "brand": "The Gym Group", "brand:wikidata": "Q48815022", "nsi_id": "thegym-2770cb"}, "geometry": {"type": "Point", "coordinates": [-2.139745, 53.524473]}},
{"type": "Feature", "id": "ejp5T0f0WE2wyH9zAC3kKge5q78=", "properties": {"ref": "74119221-9dac-49e2-bc8c-6e59b1023eb1", "@spider": "the_gym_group_gb", "leisure": "fitness_centre", "addr:street_address": "Castle Retail Park, 2 Radford Boulevard", "addr:city": "Nottingham", "addr:postcode": "NG7 5PQ", "addr:country": "GB", "name": "Nottingham Radford", "website": "https://www.thegymgroup.com/find-a-gym/nottingham-gyms/nottingham-radford/", "opening_hours": "24/7", "brand": "The Gym Group", "brand:wikidata": "Q48815022", "nsi_id": "thegym-2770cb"}, "geometry": {"type": "Point", "coordinates": [-1.178206, 52.960711]}},
{"type": "Feature", "id": "PFWG0RHYxnt5O950uoiAFW7zHRk=", "properties": {"ref": "8b039a0a-6456-4c2a-b863-358b9f197894", "@spider": "the_gym_group_gb", "leisure": "fitness_centre", "addr:street_address": "14 Trinity Square, Nottingham", "addr:city": "Nottingham", "addr:postcode": "NG1 4AF", "addr:country": "GB", "name": "Nottingham City", "website": "https://www.thegymgroup.com/find-a-gym/nottingham-gyms/nottingham-city/", "opening_hours": "24/7", "brand": "The Gym Group", "brand:wikidata": "Q48815022", "nsi_id": "thegym-2770cb"}, "geometry": {"type": "Point", "coordinates": [-1.149049, 52.956332]}},
{"type": "Feature", "id": "LtZx6Df_c0M0A7H2MGddjgvxy8M=", "properties": {"ref": "32724c66-4b3d-4759-8633-05fe51f40de7", "@spider": "the_gym_group_gb", "leisure": "fitness_centre", "addr:street_address": "Barton Lane, Chilwell Retail Park\r\nBeeston", "addr:city": "Nottingham", "addr:postcode": "NG9 6DS", "addr:country": "GB", "name": "Nottingham Chilwell", "website": "https://www.thegymgroup.com/find-a-gym/nottingham-gyms/nottingham-chilwell/", "opening_hours": "24/7", "brand": "The Gym Group", "brand:wikidata": "Q48815022", "nsi_id": "thegym-2770cb"}, "geometry": {"type": "Point", "coordinates": [-1.2430425416592172, 52.902986826706865]}},
{"type": "Feature", "id": "4EZeruYR06WwbqUnVr-k66i0l04=", "properties": {"ref": "a8122d16-4418-45ed-9de2-d2c837fff956", "@spider": "the_gym_group_gb", "leisure": "fitness_centre", "addr:street_address": "Harford Place, Hall Road, Norwich", "addr:city": "Norfolk", "addr:postcode": "NR4 6DP", "addr:country": "GB", "name": "Norwich Hall Road", "website": "https://www.thegymgroup.com/find-a-gym/norwich-gyms/norwich-hall-road/", "opening_hours": "24/7", "brand": "The Gym Group", "brand:wikidata": "Q48815022", "nsi_id": "thegym-2770cb"}, "geometry": {"type": "Point", "coordinates": [1.289186, 52.604183]}},
{"type": "Feature", "id": "h2MdQHJoM9Ueekj8z1p83-UG6LM=", "properties": {"ref": "9826a718-8d0b-4e5e-8793-0f17cf60c174", "@spider": "the_gym_group_gb", "leisure": "fitness_centre", "addr:street_address": "6-8 Little London Street, Norwich", "addr:city": "Norfolk", "addr:postcode": "NR2 1EA", "addr:country": "GB", "name": "Norwich City", "website": "https://www.thegymgroup.com/find-a-gym/norwich-gyms/norwich-city/", "opening_hours": "24/7", "brand": "The Gym Group", "brand:wikidata": "Q48815022", "nsi_id": "thegym-2770cb"}, "geometry": {"type": "Point", "coordinates": [1.294321, 52.629344]}},
{"type": "Feature", "id": "Ae7Q_jRXokOHyIGp88_qzjGm7lU=", "properties": {"ref": "105f3cb6-d0c2-4eb7-ace1-b115b9d9863f", "@spider": "the_gym_group_gb", "leisure": "fitness_centre", "addr:street_address": "Sixfields Retail Park, Gambrel Road", "addr:postcode": "NN5 5DG", "addr:country": "GB", "name": "Northampton", "website": "https://www.thegymgroup.com/find-a-gym/northampton-gyms/northampton/", "opening_hours": "24/7", "brand": "The Gym Group", "brand:wikidata": "Q48815022", "nsi_id": "thegym-2770cb"}, "geometry": {"type": "Point", "coordinates": [-0.9350179, 52.2393854]}},
{"type": "Feature", "id": "RDHArzh_YIhAHOkoT5VZDqtt-hU=", "properties": {"ref": "f69879bc-d3e4-4b6f-b059-bf99783982f8", "@spider": "the_gym_group_gb", "leisure": "fitness_centre", "addr:street_address": "74-90 Wolborough Street, Devon\n", "addr:city": "Newton Abbot", "addr:postcode": "TQ12 1LJ", "addr:country": "GB", "name": "Newton Abbot", "website": "https://www.thegymgroup.com/find-a-gym/newton-abbot-gyms/newton-abbot/", "opening_hours": "24/7", "brand": "The Gym Group", "brand:wikidata": "Q48815022", "nsi_id": "thegym-2770cb"}, "geometry": {"type": "Point", "coordinates": [-3.616, 50.528161]}},
{"type": "Feature", "id": "tcolbzKe54SG1ciXCctboyivrY0=", "properties": {"ref": "a314d796-82bc-4438-8cea-cf03986b13f4", "@spider": "the_gym_group_gb", "leisure": "fitness_centre", "addr:street_address": "169-171 High Street, Gosforth, Newcastle", "addr:city": "Newcastle", "addr:postcode": "NE3 1HE", "addr:country": "GB", "name": "Newcastle Gosforth", "website": "https://www.thegymgroup.com/find-a-gym/newcastle-gyms/newcastle-gosforth/", "opening_hours": "Mo-Su 07:00-23:00", "brand": "The Gym Group", "brand:wikidata": "Q48815022", "nsi_id": "thegym-2770cb"}, "geometry": {"type": "Point", "coordinates": [-1.620126, 55.006077]}},
{"type": "Feature", "id": "AVj0dej6h40R2xWIY2LKWj0HylM=", "properties": {"ref": "b3f72abc-4ab7-4025-8b0b-dae0c0e491e0", "@spider": "the_gym_group_gb", "leisure": "fitness_centre", "addr:street_address": "24 Benton Road, Newcastle", "addr:city": "Newcastle upon Tyne", "addr:postcode": "NE7 7DT", "addr:country": "GB", "name": "Newcastle East", "website": "https://www.thegymgroup.com/find-a-gym/newcastle-gyms/newcastle-east/", "opening_hours": "Mo-Su 06:30-23:00", "brand": "The Gym Group", "brand:wikidata": "Q48815022", "nsi_id": "thegym-2770cb"}, "geometry": {"type": "Point", "coordinates": [-1.580079, 54.9977]}},
{"type": "Feature", "id": "tz3eYq2pznXLHqGPahlz9L6ktSQ=", "properties": {"ref": "621af9cc-64b4-4042-8919-c2f9259eb2fc", "@spider": "the_gym_group_gb", "leisure": "fitness_centre", "addr:street_address": "Basement Floor former Co-Op Store, South Tower Entrance Newgate Street, Newcastle", "addr:city": "Tyne and Wear", "addr:postcode": "NE1 5RF", "addr:country": "GB", "name": "Newcastle City", "website": "https://www.thegymgroup.com/find-a-gym/newcastle-gyms/newcastle-city/", "opening_hours": "24/7", "brand": "The Gym Group", "brand:wikidata": "Q48815022", "nsi_id": "thegym-2770cb"}, "geometry": {"type": "Point", "coordinates": [-1.618147, 54.972908]}},
{"type": "Feature", "id": "hoBIWMVo392mzZ_W2J7XYCffZHc=", "properties": {"ref": "dc1da419-eed7-4a75-b000-25090f7b030d", "@spider": "the_gym_group_gb", "leisure": "fitness_centre", "addr:street_address": "Unit 5, Beacon Hill Retail Park, Northern Road", "addr:city": "Newark", "addr:postcode": "NG24 2EJ", "addr:country": "GB", "name": "Newark", "website": "https://www.thegymgroup.com/find-a-gym/newark-gyms/newark/", "opening_hours": "24/7", "brand": "The Gym Group", "brand:wikidata": "Q48815022", "nsi_id": "thegym-2770cb"}, "geometry": {"type": "Point", "coordinates": [-0.794647, 53.076597]}},
{"type": "Feature", "id": "lkZtODxI7Vv9G0ugUxCN9Hw7amE=", "properties": {"ref": "768648f0-0e36-4fa3-be75-1fdab9480491", "@spider": "the_gym_group_gb", "leisure": "fitness_centre", "addr:street_address": "Phoenix House, Elder Gate, Milton Keynes", "addr:city": "Milton Keynes", "addr:postcode": "MK9 1AW", "addr:country": "GB", "name": "Milton Keynes", "website": "https://www.thegymgroup.com/find-a-gym/milton-keynes-gyms/milton-keynes/", "opening_hours": "24/7", "brand": "The Gym Group", "brand:wikidata": "Q48815022", "nsi_id": "thegym-2770cb"}, "geometry": {"type": "Point", "coordinates": [-0.773271, 52.035863]}},
{"type": "Feature", "id": "X9QNUcHU1gbN1tGciEfkokzhMYM=", "properties": {"ref": "a93ef8ce-6a5a-435b-928c-e8bd9dcd9b0b", "@spider": "the_gym_group_gb", "leisure": "fitness_centre", "addr:street_address": "Moss Lane, Whitefield", "addr:city": "Lancashire", "addr:postcode": "M45 8EL", "addr:country": "GB", "name": "Manchester Whitefield", "website": "https://www.thegymgroup.com/find-a-gym/manchester-gyms/manchester-whitefield/", "opening_hours": "24/7", "brand": "The Gym Group", "brand:wikidata": "Q48815022", "nsi_id": "thegym-2770cb"}, "geometry": {"type": "Point", "coordinates": [-2.286559, 53.551915]}},
{"type": "Feature", "id": "yx7WcoxLsxbOaQHvxz122Tm0iv0=", "properties": {"ref": "3895da21-3e16-43af-a02a-3f056e93d8b2", "@spider": "the_gym_group_gb", "leisure": "fitness_centre", "addr:street_address": "Floor 2, Bank Chambers Faulkner Street, Manchester", "addr:city": "Greater Manchester", "addr:postcode": "M1 4EH", "addr:country": "GB", "name": "Manchester Portland Street", "website": "https://www.thegymgroup.com/find-a-gym/manchester-gyms/manchester-portland-street/", "opening_hours": "24/7", "brand": "The Gym Group", "brand:wikidata": "Q48815022", "nsi_id": "thegym-2770cb"}, "geometry": {"type": "Point", "coordinates": [-2.238167, 53.479258]}},
{"type": "Feature", "id": "lDj0yUPf3_kgw4ooPT0WaxvMgdo=", "properties": {"ref": "80548795-71b3-4787-9ff1-4eb2629b132a", "@spider": "the_gym_group_gb", "leisure": "fitness_centre", "addr:street_address": "Unit 5, White City Retail Park\n\r\nChester Road, Old Trafford\n", "addr:city": "Manchester\n", "addr:postcode": "M16 0RP", "addr:country": "GB", "name": "Manchester Old Trafford", "website": "https://www.thegymgroup.com/find-a-gym/manchester-gyms/manchester-old-trafford/", "opening_hours": "24/7", "brand": "The Gym Group", "brand:wikidata": "Q48815022", "nsi_id": "thegym-2770cb"}, "geometry": {"type": "Point", "coordinates": [-2.2829730921736, 53.46180231577825]}},
{"type": "Feature", "id": "7_hJfpf81we8yEq7JWMzkL2jCoI=", "properties": {"ref": "61ce9880-1d3e-42b7-8418-ad83547699c9", "@spider": "the_gym_group_gb", "leisure": "fitness_centre", "addr:street_address": "The Toast Rack, Old Hall Lane, Fallowfield", "addr:city": "Manchester", "addr:postcode": "M14 6HR", "addr:country": "GB", "name": "Manchester Fallowfield", "website": "https://www.thegymgroup.com/find-a-gym/manchester-gyms/manchester-fallowfield/", "opening_hours": "24/7", "brand": "The Gym Group", "brand:wikidata": "Q48815022", "nsi_id": "thegym-2770cb"}, "geometry": {"type": "Point", "coordinates": [-2.217399, 53.447228]}},
{"type": "Feature", "id": "MCbXVWNzSmrlKT2asSpuIY00SQQ=", "properties": {"ref": "50b672bc-dff7-4b76-a45e-c70910e0fa8d", "@spider": "the_gym_group_gb", "leisure": "fitness_centre", "addr:street_address": "The Great Northern, 253 Deansgate, Manchester", "addr:city": "Lancashire", "addr:postcode": "M3 4EN", "addr:country": "GB", "name": "Manchester Deansgate", "website": "https://www.thegymgroup.com/find-a-gym/manchester-gyms/manchester-deansgate/", "opening_hours": "Mo-Th 06:00-22:00; Fr 06:00-21:00; Sa-Su 08:00-20:00", "brand": "The Gym Group", "brand:wikidata": "Q48815022", "nsi_id": "thegym-2770cb"}, "geometry": {"type": "Point", "coordinates": [-2.249774, 53.47662]}},
{"type": "Feature", "id": "RvUDYklGHdyH-SbqDycArnaAllI=", "properties": {"ref": "0465dd4d-f39e-4765-8b96-6d9ec237bdcf", "@spider": "the_gym_group_gb", "leisure": "fitness_centre", "addr:street_address": "Unit 22 Lime Square, Ashton Old Road, Openshaw", "addr:city": "Manchester", "addr:postcode": "M11 1DA", "addr:country": "GB", "name": "Manchester Ashton Old Road", "website": "https://www.thegymgroup.com/find-a-gym/manchester-gyms/manchester-ashton-old-road/", "opening_hours": "24/7", "brand": "The Gym Group", "brand:wikidata": "Q48815022", "nsi_id": "thegym-2770cb"}, "geometry": {"type": "Point", "coordinates": [-2.163955, 53.473083]}},
{"type": "Feature", "id": "MHGC8BENVfbVpTst8JN3W5uLLuE=", "properties": {"ref": "f4a60bf0-8dcf-4260-aec2-0c37f705c881", "@spider": "the_gym_group_gb", "leisure": "fitness_centre", "addr:street_address": "C1 - C2 The Galaxy, Bridge Street, Luton", "addr:city": "Bedfordshire", "addr:postcode": "LU1 2NB", "addr:country": "GB", "name": "Luton", "website": "https://www.thegymgroup.com/find-a-gym/luton-gyms/luton/", "opening_hours": "24/7", "brand": "The Gym Group", "brand:wikidata": "Q48815022", "nsi_id": "thegym-2770cb"}, "geometry": {"type": "Point", "coordinates": [-0.418496, 51.881586]}},
{"type": "Feature", "id": "jNoMUbMKedpFzHFjF9Q9iZbb9CI=", "properties": {"ref": "057d7a7c-a61a-423f-b21f-54adedc1cd0d", "@spider": "the_gym_group_gb", "leisure": "fitness_centre", "addr:street_address": "Units 2&3, Atlantic Street Broadheath, Altrincham", "addr:city": "Greater Manchester", "addr:postcode": "WA14 5FA", "addr:country": "GB", "name": "Altrincham", "website": "https://www.thegymgroup.com/find-a-gym/manchester-gyms/altrincham/", "opening_hours": "24/7", "brand": "The Gym Group", "brand:wikidata": "Q48815022", "nsi_id": "thegym-2770cb"}, "geometry": {"type": "Point", "coordinates": [-2.357247, 53.398786]}},
{"type": "Feature", "id": "hqq-wTA-xEGZrDfl6p1jvuFAitU=", "properties": {"ref": "48cf6af6-6b01-43bc-88bd-ccc230827d3c", "@spider": "the_gym_group_gb", "leisure": "fitness_centre", "addr:street_address": "Gateway Retail Park, Tower Road, Lowestoft", "addr:postcode": "NR33 7ND", "addr:country": "GB", "name": "Lowestoft", "website": "https://www.thegymgroup.com/find-a-gym/lowestoft-gyms/lowestoft/", "opening_hours": "24/7", "brand": "The Gym Group", "brand:wikidata": "Q48815022", "nsi_id": "thegym-2770cb"}, "geometry": {"type": "Point", "coordinates": [1.723595, 52.446025]}},
{"type": "Feature", "id": "an_7YjqniYg4u_kXMII2mAJawbk=", "properties": {"ref": "84953db3-d23f-49bc-a8c1-269dcafdd293", "@spider": "the_gym_group_gb", "leisure": "fitness_centre", "addr:street_address": "One Park West, 39 Strand Street, Liverpool", "addr:city": "Merseyside", "addr:postcode": "L1 8LT", "addr:country": "GB", "name": "Liverpool One", "website": "https://www.thegymgroup.com/find-a-gym/liverpool-gyms/liverpool-one/", "opening_hours": "24/7", "brand": "The Gym Group", "brand:wikidata": "Q48815022", "nsi_id": "thegym-2770cb"}, "geometry": {"type": "Point", "coordinates": [-2.990016, 53.402917]}},
{"type": "Feature", "id": "AWx8dht89p91gFv4XYr8U0wRPPA=", "properties": {"ref": "63bdc88b-e09d-44eb-bdcc-3426545a7819", "@spider": "the_gym_group_gb", "leisure": "fitness_centre", "addr:street_address": "Unit 1A, Great Homer Street, Liverpool", "addr:city": "Merseyside", "addr:postcode": "L5 5PH", "addr:country": "GB", "name": "Liverpool Great Homer Street", "website": "https://www.thegymgroup.com/find-a-gym/liverpool-gyms/liverpool-great-homer-street/", "opening_hours": "24/7", "brand": "The Gym Group", "brand:wikidata": "Q48815022", "nsi_id": "thegym-2770cb"}, "geometry": {"type": "Point", "coordinates": [-2.978414, 53.423556]}},
{"type": "Feature", "id": "CDQ_xg4urvQbFyes7vfNDRasHGg=", "properties": {"ref": "a17f0824-14f5-4935-bea2-fa4fc69db2b4", "@spider": "the_gym_group_gb", "leisure": "fitness_centre", "addr:street_address": "Unit 3, Raw Dykes Road, Leicester", "addr:city": "Leicestershire", "addr:postcode": "LE2 7JZ", "addr:country": "GB", "name": "Leicester Aylestone Road", "website": "https://www.thegymgroup.com/find-a-gym/leicester-gyms/leicester-aylestone-road/", "opening_hours": "24/7", "brand": "The Gym Group", "brand:wikidata": "Q48815022", "nsi_id": "thegym-2770cb"}, "geometry": {"type": "Point", "coordinates": [-1.13851, 52.61976]}},
{"type": "Feature", "id": "ejVqSt0Sm4_nFbA4gc1EoFDbxYk=", "properties": {"ref": "ff1ed9f3-8768-4266-9f76-ac34f118d091", "@spider": "the_gym_group_gb", "leisure": "fitness_centre", "addr:street_address": "Clayton Square, (Entrance 18/20 Great Charlotte St)", "addr:city": "Liverpool", "addr:postcode": "L1 1QR", "addr:country": "GB", "name": "Liverpool Central", "website": "https://www.thegymgroup.com/find-a-gym/liverpool-gyms/liverpool-central/", "opening_hours": "24/7", "brand": "The Gym Group", "brand:wikidata": "Q48815022", "nsi_id": "thegym-2770cb"}, "geometry": {"type": "Point", "coordinates": [-2.980134, 53.405869]}},
{"type": "Feature", "id": "bPeX7bPVgOzYwrt3SjpAedHRk54=", "properties": {"ref": "07650eaa-67c7-4fab-9b04-e52aa409ea22", "@spider": "the_gym_group_gb", "leisure": "fitness_centre", "addr:street_address": "Unit 2 Olympian Way, Golden Hill Lane, \nLeyland ", "addr:postcode": "PR25 3UR", "addr:country": "GB", "name": "Leyland", "website": "https://www.thegymgroup.com/find-a-gym/leyland-gyms/leyland/", "opening_hours": "24/7", "brand": "The Gym Group", "brand:wikidata": "Q48815022", "nsi_id": "thegym-2770cb"}, "geometry": {"type": "Point", "coordinates": [-2.6954274757447014, 53.69871267551614]}},
{"type": "Feature", "id": "BeSApksQpbm1U4CALOK_5LALvQE=", "properties": {"ref": "0512a671-44ec-487a-8af1-28fb7e32d491", "@spider": "the_gym_group_gb", "leisure": "fitness_centre", "addr:street_address": "4A Causeway Lane, Leicester", "addr:city": "Leicestershire", "addr:postcode": "LE1 4AP", "addr:country": "GB", "name": "Leicester Highcross", "website": "https://www.thegymgroup.com/find-a-gym/leicester-gyms/leicester/", "opening_hours": "24/7", "brand": "The Gym Group", "brand:wikidata": "Q48815022", "nsi_id": "thegym-2770cb"}, "geometry": {"type": "Point", "coordinates": [-1.137321, 52.637751]}},
{"type": "Feature", "id": "vEeeJ5Nny4uIgmA12QyaNan7Dko=", "properties": {"ref": "45eba642-7fae-465d-a0b0-ffb4a6ebe24b", "@spider": "the_gym_group_gb", "leisure": "fitness_centre", "addr:street_address": "York Road, Leeds", "addr:postcode": "LS9 9AH", "addr:country": "GB", "name": "Leeds York Road", "website": "https://www.thegymgroup.com/find-a-gym/leeds-gyms/leeds-york-road/", "opening_hours": "24/7", "brand": "The Gym Group", "brand:wikidata": "Q48815022", "nsi_id": "thegym-2770cb"}, "geometry": {"type": "Point", "coordinates": [-1.520089, 53.797905]}},
{"type": "Feature", "id": "polc3ALz8bYwwTPsE1IxWaBOnTk=", "properties": {"ref": "846e0759-1c90-447b-b617-c31163a581af", "@spider": "the_gym_group_gb", "leisure": "fitness_centre", "addr:street_address": "Former Magnet Unit, Meanwood Road, Leeds", "addr:city": "West Yorkshire", "addr:postcode": "LS7 2RB", "addr:country": "GB", "name": "Leeds Meanwood", "website": "https://www.thegymgroup.com/find-a-gym/leeds-gyms/leeds-meanwood/", "opening_hours": "24/7", "brand": "The Gym Group", "brand:wikidata": "Q48815022", "nsi_id": "thegym-2770cb"}, "geometry": {"type": "Point", "coordinates": [-1.537867, 53.809336]}},
{"type": "Feature", "id": "yP6_UaIEmFMj6-I9pxIr9lMJuvo=", "properties": {"ref": "a6f93593-f12e-4718-9213-47da81c5304e", "@spider": "the_gym_group_gb", "leisure": "fitness_centre", "addr:street_address": "Arndale House, Otley Road, Headingley", "addr:city": "Leeds", "addr:postcode": "LS6 2UJ", "addr:country": "GB", "name": "Leeds Headingley", "website": "https://www.thegymgroup.com/find-a-gym/leeds-gyms/leeds-headingley/", "opening_hours": "24/7", "brand": "The Gym Group", "brand:wikidata": "Q48815022", "nsi_id": "thegym-2770cb"}, "geometry": {"type": "Point", "coordinates": [-1.578229, 53.822599]}},
{"type": "Feature", "id": "H6XI4oH4NBkpaFjn_zMfigag9bI=", "properties": {"ref": "0affc98d-e1c4-478e-b791-874ce2704e10", "@spider": "the_gym_group_gb", "leisure": "fitness_centre", "addr:street_address": "SU4 2 Level 3, The Core The Headrow, Leeds", "addr:city": "Leeds", "addr:postcode": "LS1 6JD", "addr:country": "GB", "name": "Leeds Headrow", "website": "https://www.thegymgroup.com/find-a-gym/leeds-gyms/leeds-headrow/", "opening_hours": "24/7", "brand": "The Gym Group", "brand:wikidata": "Q48815022", "nsi_id": "thegym-2770cb"}, "geometry": {"type": "Point", "coordinates": [-1.543796, 53.799166]}},
{"type": "Feature", "id": "BnapmLsvvv_UJ-JATh6xFinNPMA=", "properties": {"ref": "3e92d12e-ce36-40ac-a3c7-46b74d694aed", "@spider": "the_gym_group_gb", "leisure": "fitness_centre", "addr:street_address": "Hardwick Road, Unit 4, Campbells Meadow Retail Park", "addr:city": "Kings Lynn", "addr:postcode": "PE30 4YN", "addr:country": "GB", "name": "Kings Lynn", "website": "https://www.thegymgroup.com/find-a-gym/kings-lynn-gyms/kings-lynn/", "opening_hours": "24/7", "brand": "The Gym Group", "brand:wikidata": "Q48815022", "nsi_id": "thegym-2770cb"}, "geometry": {"type": "Point", "coordinates": [0.4075165665466023, 52.73978282739782]}},
{"type": "Feature", "id": "MKvDToGf2itCr0QQvP1z-Zs3UJE=", "properties": {"ref": "f0a7f901-f4d9-47b1-89c6-b655c47c2f1d", "@spider": "the_gym_group_gb", "leisure": "fitness_centre", "addr:street_address": "Queens Drive, Kilmarnock", "addr:city": "Ayrshire", "addr:postcode": "KA1 3XB", "addr:country": "GB", "name": "Kilmarnock", "website": "https://www.thegymgroup.com/find-a-gym/kilmarnock-gyms/kilmarnock/", "opening_hours": "24/7", "brand": "The Gym Group", "brand:wikidata": "Q48815022", "nsi_id": "thegym-2770cb"}, "geometry": {"type": "Point", "coordinates": [-4.49035, 55.600715]}},
{"type": "Feature", "id": "V_rekMGuAGSYHtTCvqCAs427okc=", "properties": {"ref": "e477565d-74a4-41a1-a76f-c3b9d5a827f2", "@spider": "the_gym_group_gb", "leisure": "fitness_centre", "addr:street_address": "Unit D, Crossley Retail Park, Carpet Trades Way", "addr:city": "Kidderminster", "addr:postcode": "DY11 6DY", "addr:country": "GB", "name": "Kidderminster", "website": "https://www.thegymgroup.com/find-a-gym/kidderminster-gyms/kidderminster/", "opening_hours": "24/7", "brand": "The Gym Group", "brand:wikidata": "Q48815022", "nsi_id": "thegym-2770cb"}, "geometry": {"type": "Point", "coordinates": [-2.255927, 52.390589]}},
{"type": "Feature", "id": "-du-A3zMEukMzbzIv9QfCz396_I=", "properties": {"ref": "c43586d9-27d1-4aaa-9245-2f599fa0c940", "@spider": "the_gym_group_gb", "leisure": "fitness_centre", "addr:street_address": "Unit 4, Riverway Retail Park, Irvine, Ayrshire", "addr:city": "Scotland\n", "addr:postcode": "KA12 8AY", "addr:country": "GB", "name": "Irvine", "website": "https://www.thegymgroup.com/find-a-gym/irvine-gyms/irvine/", "opening_hours": "24/7", "brand": "The Gym Group", "brand:wikidata": "Q48815022", "nsi_id": "thegym-2770cb"}, "geometry": {"type": "Point", "coordinates": [-4.672008593341773, 55.607822723977335]}},
{"type": "Feature", "id": "2Qmg9PwSDgywlw_ohxd3vpbPTPc=", "properties": {"ref": "bf161a8d-65a1-45e7-a6de-afd0c1055e8d", "@spider": "the_gym_group_gb", "leisure": "fitness_centre", "addr:street_address": "Unit 4C, Coppins Bridge Leisure Park", "addr:postcode": "PO30 2TA", "addr:country": "GB", "name": "Isle of Wight", "website": "https://www.thegymgroup.com/find-a-gym/isle-of-wight-gyms/isle-of-wight/", "opening_hours": "24/7", "brand": "The Gym Group", "brand:wikidata": "Q48815022", "nsi_id": "thegym-2770cb"}, "geometry": {"type": "Point", "coordinates": [-1.289346, 50.698809]}},
{"type": "Feature", "id": "A5wadkhyTbIZeD6baYSn3HIKenA=", "properties": {"ref": "8e22edc4-2df5-4012-8fc9-8b622bef1a25", "@spider": "the_gym_group_gb", "leisure": "fitness_centre", "addr:street_address": "Ipswich, Grafton Way\r\nCardinal Park", "addr:postcode": "IP1 1AX", "addr:country": "GB", "name": "Ipswich", "website": "https://www.thegymgroup.com/find-a-gym/ipswich-gyms/ipswich/", "opening_hours": "24/7", "brand": "The Gym Group", "brand:wikidata": "Q48815022", "nsi_id": "thegym-2770cb"}, "geometry": {"type": "Point", "coordinates": [1.150938, 52.053234]}},
{"type": "Feature", "id": "6l3pq27_YevqEkjiiyGF7wXc-GE=", "properties": {"ref": "76b28e66-4e0e-4bc7-a665-1a59c88438dc", "@spider": "the_gym_group_gb", "leisure": "fitness_centre", "addr:street_address": "St Peters Rd, Unit 2, Huntingdon Retail Park, Huntingdon", "addr:postcode": "PE29 7DZ", "addr:country": "GB", "name": "Huntingdon", "website": "https://www.thegymgroup.com/find-a-gym/huntingdon-gyms/huntingdon/", "opening_hours": "24/7", "brand": "The Gym Group", "brand:wikidata": "Q48815022", "nsi_id": "thegym-2770cb"}, "geometry": {"type": "Point", "coordinates": [-0.18421717950338773, 52.35283432387381]}},
{"type": "Feature", "id": "Gea4RttJ6o09WTWBvAClEbuoYGg=", "properties": {"ref": "a1ebdfea-c62b-4b19-9888-760ad839dc41", "@spider": "the_gym_group_gb", "leisure": "fitness_centre", "addr:street_address": "Ringway industrial Estate, Beck Road, Huddersfield", "addr:city": "West Yorkshire", "addr:postcode": "HD1 5DG", "addr:country": "GB", "name": "Huddersfield", "website": "https://www.thegymgroup.com/find-a-gym/huddersfield-gyms/huddersfield/", "opening_hours": "24/7", "brand": "The Gym Group", "brand:wikidata": "Q48815022", "nsi_id": "thegym-2770cb"}, "geometry": {"type": "Point", "coordinates": [-1.784775, 53.654928]}},
{"type": "Feature", "id": "Nr4FyOsnaJclqaaeaSrBacAfTKw=", "properties": {"ref": "03214322-8a9f-465c-8710-a4a9f43f1eb3", "@spider": "the_gym_group_gb", "leisure": "fitness_centre", "addr:street_address": "Bishops Weald House, Albion Way", "addr:city": "Horsham", "addr:postcode": "RH12 1AH", "addr:country": "GB", "name": "Horsham", "website": "https://www.thegymgroup.com/find-a-gym/horsham-gyms/horsham/", "opening_hours": "24/7", "brand": "The Gym Group", "brand:wikidata": "Q48815022", "nsi_id": "thegym-2770cb"}, "geometry": {"type": "Point", "coordinates": [-0.332728, 51.063303]}},
{"type": "Feature", "id": "f9A1ig3-CshCKaGCHQbEIKIkqaM=", "properties": {"ref": "b6d0f807-69e9-44ef-ab1b-62c294978346", "@spider": "the_gym_group_gb", "leisure": "fitness_centre", "addr:street_address": "Red Lion House, Castle Street, High Wycombe", "addr:city": "Buckinghamshire", "addr:postcode": "HP13 6RF", "addr:country": "GB", "name": "High Wycombe", "website": "https://www.thegymgroup.com/find-a-gym/high-wycombe-gyms/high-wycombe/", "opening_hours": "24/7", "brand": "The Gym Group", "brand:wikidata": "Q48815022", "nsi_id": "thegym-2770cb"}, "geometry": {"type": "Point", "coordinates": [-0.749376, 51.629845]}},
{"type": "Feature", "id": "Mk1qFZXasxmLV1pSuJxGreXSu6M=", "properties": {"ref": "c4023bd7-9399-47a2-b0be-a3737e348cb3", "@spider": "the_gym_group_gb", "leisure": "fitness_centre", "addr:street_address": "Queens Square, Priory Shopping Centre", "addr:city": "Hastings", "addr:postcode": "TN34 1PQ", "addr:country": "GB", "name": "Hastings", "website": "https://www.thegymgroup.com/find-a-gym/hastings-gyms/hastings/", "opening_hours": "24/7", "brand": "The Gym Group", "brand:wikidata": "Q48815022", "nsi_id": "thegym-2770cb"}, "geometry": {"type": "Point", "coordinates": [0.5791514529957487, 50.856783124331386]}},
{"type": "Feature", "id": "VBYlq47W9m7UDIMUQeiiieniX5A=", "properties": {"ref": "6dfc96ab-90ba-4d65-905f-f16f84d45812", "@spider": "the_gym_group_gb", "leisure": "fitness_centre", "addr:street_address": "Unit 3, Leisure World Jarman Way, Hemel Hempstead", "addr:city": "Hemel Hempstead", "addr:postcode": "HP2 4JS", "addr:country": "GB", "name": "Hemel Hempstead", "website": "https://www.thegymgroup.com/find-a-gym/hemel-hempstead-gyms/hemel-hempstead/", "opening_hours": "24/7", "brand": "The Gym Group", "brand:wikidata": "Q48815022", "nsi_id": "thegym-2770cb"}, "geometry": {"type": "Point", "coordinates": [-0.455408, 51.747561]}},
{"type": "Feature", "id": "NFe-_pTcp9pBi-UK4NgDlcl3liI=", "properties": {"ref": "f88635d8-bdfd-42ef-a7b8-09ad3c4c7545", "@spider": "the_gym_group_gb", "leisure": "fitness_centre", "addr:street_address": "Harbour Walk, Hartlepool", "addr:postcode": "TS24 0YA", "addr:country": "GB", "name": "Hartlepool", "website": "https://www.thegymgroup.com/find-a-gym/hartlepool-gyms/hartlepool/", "opening_hours": "24/7", "brand": "The Gym Group", "brand:wikidata": "Q48815022", "nsi_id": "thegym-2770cb"}, "geometry": {"type": "Point", "coordinates": [-1.207521, 54.6915]}},
{"type": "Feature", "id": "YcAPZLuOQFASABPlLh8J33Yv0pw=", "properties": {"ref": "0c7a51a7-3720-410a-990d-2eca2606b432", "@spider": "the_gym_group_gb", "leisure": "fitness_centre", "addr:street_address": "Unit 3, Palace Grounds Retail Park Palace Grounds Road, Hamilton", "addr:city": "Hamilton", "addr:postcode": "ML3 6AD", "addr:country": "GB", "name": "Hamilton", "website": "https://www.thegymgroup.com/find-a-gym/hamilton-gyms/hamilton/", "opening_hours": "24/7", "brand": "The Gym Group", "brand:wikidata": "Q48815022", "nsi_id": "thegym-2770cb"}, "geometry": {"type": "Point", "coordinates": [-4.027356, 55.778095]}},
{"type": "Feature", "id": "xFOhnVzozEhMBxVclnPhdEsZ2q8=", "properties": {"ref": "a6f472f4-1533-4d6f-ad7c-767e1fc7ebf2", "@spider": "the_gym_group_gb", "leisure": "fitness_centre", "addr:street_address": "Unit 111 Gloucester Quays Outlet, Gloucester", "addr:city": "Gloucestershire", "addr:postcode": "GL1 5SH", "addr:country": "GB", "name": "Gloucester", "website": "https://www.thegymgroup.com/find-a-gym/gloucester-gyms/gloucester/", "opening_hours": "24/7", "brand": "The Gym Group", "brand:wikidata": "Q48815022", "nsi_id": "thegym-2770cb"}, "geometry": {"type": "Point", "coordinates": [-2.253329, 51.86136]}},
{"type": "Feature", "id": "psPOgOnZy590bFUi7veIiiiIdI8=", "properties": {"ref": "d754e0ed-3a6a-45cf-8e38-bc1ce6c30736", "@spider": "the_gym_group_gb", "leisure": "fitness_centre", "addr:street_address": "Woodbridge Meadows, Guildford", "addr:city": "Surrey", "addr:postcode": "GU1 1BA", "addr:country": "GB", "name": "Guildford", "website": "https://www.thegymgroup.com/find-a-gym/guildford-gyms/guildford/", "opening_hours": "24/7", "brand": "The Gym Group", "brand:wikidata": "Q48815022", "nsi_id": "thegym-2770cb"}, "geometry": {"type": "Point", "coordinates": [-0.5832, 51.247359]}},
{"type": "Feature", "id": "Xct0JQ-uGBuHfJIVT1k0-f2rsag=", "properties": {"ref": "63ee1724-caed-4b31-b2fc-a2e58e79b146", "@spider": "the_gym_group_gb", "leisure": "fitness_centre", "addr:street_address": "Rothesay Pl, Units 2, 3 & 4 North Street Retail Park", "addr:city": "Glenrothes", "addr:postcode": "KY7 5NA", "addr:country": "GB", "name": "Glenrothes", "website": "https://www.thegymgroup.com/find-a-gym/glenrothes-gyms/glenrothes/", "opening_hours": "24/7", "brand": "The Gym Group", "brand:wikidata": "Q48815022", "nsi_id": "thegym-2770cb"}, "geometry": {"type": "Point", "coordinates": [-3.176309, 56.19685]}},
{"type": "Feature", "id": "IJeblv68OFkbwtM12U1TTTeBlug=", "properties": {"ref": "831d1edc-e896-466f-9698-294e2d6ac657", "@spider": "the_gym_group_gb", "leisure": "fitness_centre", "addr:street_address": "501 Cathcart Road, Glasgow", "addr:city": "Glasgow", "addr:postcode": "G42 8SG", "addr:country": "GB", "name": "Glasgow South", "website": "https://www.thegymgroup.com/find-a-gym/glasgow-gyms/glasgow-south/", "opening_hours": "24/7", "brand": "The Gym Group", "brand:wikidata": "Q48815022", "nsi_id": "thegym-2770cb"}, "geometry": {"type": "Point", "coordinates": [-4.256545, 55.837248]}},
{"type": "Feature", "id": "a9DD0OCC8EpvK1cg6renxxKfwQU=", "properties": {"ref": "8eb664ef-748a-42dc-8f57-ec50abe825aa", "@spider": "the_gym_group_gb", "leisure": "fitness_centre", "addr:street_address": "Vinicombe Street, Just off Byres Road, Glasgow", "addr:postcode": "G12 8BE", "addr:country": "GB", "name": "Glasgow West End", "website": "https://www.thegymgroup.com/find-a-gym/glasgow-gyms/glasgow-west-end/", "opening_hours": "24/7", "brand": "The Gym Group", "brand:wikidata": "Q48815022", "nsi_id": "thegym-2770cb"}, "geometry": {"type": "Point", "coordinates": [-4.290401, 55.877145]}},
{"type": "Feature", "id": "4NFfF2RK0Rm1kaPJz_PHsvyMFUA=", "properties": {"ref": "121cc749-d03c-4118-8639-318c0b733e52", "@spider": "the_gym_group_gb", "leisure": "fitness_centre", "addr:street_address": "Springfield Quay Leisure Park, Paisley Road, Glasgow", "addr:city": "Glasgow", "addr:postcode": "G5 8NP", "addr:country": "GB", "name": "Glasgow Quay", "website": "https://www.thegymgroup.com/find-a-gym/glasgow-gyms/glasgow-quay/", "opening_hours": "24/7", "brand": "The Gym Group", "brand:wikidata": "Q48815022", "nsi_id": "thegym-2770cb"}, "geometry": {"type": "Point", "coordinates": [-4.274552, 55.855105]}},
{"type": "Feature", "id": "0_-lL0ra1W_Oyy6mXnf9Wfg-xvM=", "properties": {"ref": "8ea3e6f8-4e0e-4902-bc45-4ad8196f20b5", "@spider": "the_gym_group_gb", "leisure": "fitness_centre", "addr:street_address": "Entrance on Jamaica Street, Second Floor Unit 9 167-201 Argyle Street, Glasgow", "addr:city": "Glasgow", "addr:postcode": "G2 8BU", "addr:country": "GB", "name": "Glasgow City", "website": "https://www.thegymgroup.com/find-a-gym/glasgow-gyms/glasgow-city/", "opening_hours": "24/7", "brand": "The Gym Group", "brand:wikidata": "Q48815022", "nsi_id": "thegym-2770cb"}, "geometry": {"type": "Point", "coordinates": [-4.256751, 55.857911]}},
{"type": "Feature", "id": "FMA2puS5L_v_1WybeoZ148dnAng=", "properties": {"ref": "648e0e15-9f67-4bdd-9580-d15b5e6027e0", "@spider": "the_gym_group_gb", "leisure": "fitness_centre", "addr:street_address": "The Forge Retail Park, Biggar Street, Parkhead", "addr:city": "East Glasgow\n", "addr:postcode": "G31 4BH", "addr:country": "GB", "name": "Glasgow Forge", "website": "https://www.thegymgroup.com/find-a-gym/glasgow-gyms/glasgow-forge/", "opening_hours": "24/7", "brand": "The Gym Group", "brand:wikidata": "Q48815022", "nsi_id": "thegym-2770cb"}, "geometry": {"type": "Point", "coordinates": [-4.20783, 55.85437]}},
{"type": "Feature", "id": "A05HzrZPUKCftmoozPi7Rz5w2bg=", "properties": {"ref": "8c8b716d-67cf-476e-b6e9-9220ff0e86ae", "@spider": "the_gym_group_gb", "leisure": "fitness_centre", "addr:street_address": "Unit C, Crow Road, Anniesland Retail Park, Glasgow", "addr:postcode": "G13 1HU", "addr:country": "GB", "name": "Glasgow Anniesland", "website": "https://www.thegymgroup.com/find-a-gym/glasgow-gyms/glasgow-anniesland/", "opening_hours": "24/7", "brand": "The Gym Group", "brand:wikidata": "Q48815022", "nsi_id": "thegym-2770cb"}, "geometry": {"type": "Point", "coordinates": [-4.323398, 55.890662]}},
{"type": "Feature", "id": "EREXNUnSw-FbdlDQa8smN2hs5rs=", "properties": {"ref": "f4b961f7-6664-401d-804b-70b746783b03", "@spider": "the_gym_group_gb", "leisure": "fitness_centre", "addr:street_address": "164 Bothwell Street, Glasgow", "addr:city": "Glasgow", "addr:postcode": "G2 7EL", "addr:country": "GB", "name": "Glasgow Bothwell Street", "website": "https://www.thegymgroup.com/find-a-gym/glasgow-gyms/glasgow-bothwell-street/", "opening_hours": "24/7", "brand": "The Gym Group", "brand:wikidata": "Q48815022", "nsi_id": "thegym-2770cb"}, "geometry": {"type": "Point", "coordinates": [-4.265699, 55.861896]}},
{"type": "Feature", "id": "xmZGSer0largsduQiR4iwURhVOk=", "properties": {"ref": "ef524864-9f68-4c0b-9347-b4078ceb4e3d", "@spider": "the_gym_group_gb", "leisure": "fitness_centre", "addr:street_address": "Retail Park Close, Marsh Barton Road Marsh Barton Trading Estate, Exeter", "addr:city": "Devon", "addr:postcode": "EX2 8LG", "addr:country": "GB", "name": "Exeter Marsh Barton", "website": "https://www.thegymgroup.com/find-a-gym/exeter-marsh-barton-gyms/exeter-marsh-barton/", "opening_hours": "24/7", "brand": "The Gym Group", "brand:wikidata": "Q48815022", "nsi_id": "thegym-2770cb"}, "geometry": {"type": "Point", "coordinates": [-3.53324, 50.710129]}},
{"type": "Feature", "id": "1MjrcLPtMxTEkZUXlYbSLxj2Zn4=", "properties": {"ref": "a7a83557-39be-474c-b1f9-c7e9af54b8ba", "@spider": "the_gym_group_gb", "leisure": "fitness_centre", "addr:street_address": "Unit 14a, The Meads Shopping Centre 12 Queensmead, Farnborough", "addr:city": "Hampshire", "addr:postcode": "GU14 7RT", "addr:country": "GB", "name": "Farnborough", "website": "https://www.thegymgroup.com/find-a-gym/farnborough-gyms/farnborough/", "opening_hours": "24/7", "brand": "The Gym Group", "brand:wikidata": "Q48815022", "nsi_id": "thegym-2770cb"}, "geometry": {"type": "Point", "coordinates": [-0.756123, 51.292592]}},
{"type": "Feature", "id": "p6s8TxKGKsQmDs0VxfqitihlDIc=", "properties": {"ref": "16567ae4-cf21-4bf2-8b94-c52303e752ba", "@spider": "the_gym_group_gb", "leisure": "fitness_centre", "addr:street_address": "First floor unit within Sainsburys, 39 Westfield Rd, Edinburgh", "addr:city": "Edinburgh", "addr:postcode": "EH11 2QW", "addr:country": "GB", "name": "Edinburgh Murrayfield", "website": "https://www.thegymgroup.com/find-a-gym/edinburgh-gyms/edinburgh-murrayfield/", "opening_hours": "24/7", "brand": "The Gym Group", "brand:wikidata": "Q48815022", "nsi_id": "thegym-2770cb"}, "geometry": {"type": "Point", "coordinates": [-3.24135, 55.938071]}},
{"type": "Feature", "id": "dYF0Kw6hl6QsXJzGGUwWElZUawM=", "properties": {"ref": "39dd3a3a-4db7-41e0-a3b1-80561003facc", "@spider": "the_gym_group_gb", "leisure": "fitness_centre", "addr:street_address": "1-17 Glasgow Road, Corstorphine Retail Park", "addr:city": "Edinburgh", "addr:postcode": "EH12 8HW", "addr:country": "GB", "name": "Edinburgh Corstorphine", "website": "https://www.thegymgroup.com/find-a-gym/edinburgh-gyms/edinburgh-corstorphine/", "opening_hours": "24/7", "brand": "The Gym Group", "brand:wikidata": "Q48815022", "nsi_id": "thegym-2770cb"}, "geometry": {"type": "Point", "coordinates": [-3.293951592857853, 55.942108233268264]}},
{"type": "Feature", "id": "COSmgN-SFwR5fc4KavfnSBT8QTU=", "properties": {"ref": "295ea0e3-5f8d-4eef-aa0b-fb1df38a96d0", "@spider": "the_gym_group_gb", "leisure": "fitness_centre", "addr:street_address": "2-4 Waterloo Place, Waverley Gate Building, Edinburgh", "addr:city": "Edinburgh", "addr:postcode": "EH1 3EG", "addr:country": "GB", "name": "Edinburgh City", "website": "https://www.thegymgroup.com/find-a-gym/edinburgh-gyms/edinburgh-city/", "opening_hours": "24/7", "brand": "The Gym Group", "brand:wikidata": "Q48815022", "nsi_id": "thegym-2770cb"}, "geometry": {"type": "Point", "coordinates": [-3.1887, 55.953136]}},
{"type": "Feature", "id": "v2S431yn5_Ii4nvSLmC9NP6hCsU=", "properties": {"ref": "6e1a7efd-6694-4efe-b0b5-92e67e4aa22b", "@spider": "the_gym_group_gb", "leisure": "fitness_centre", "addr:street_address": "Cameron Toll Shopping Centre, Lady Road, Edinburgh", "addr:city": "Midlothian", "addr:postcode": "EH16 5PB", "addr:country": "GB", "name": "Edinburgh Cameron Toll", "website": "https://www.thegymgroup.com/find-a-gym/edinburgh-gyms/edinburgh-cameron-toll/", "opening_hours": "24/7", "brand": "The Gym Group", "brand:wikidata": "Q48815022", "nsi_id": "thegym-2770cb"}, "geometry": {"type": "Point", "coordinates": [-3.163765, 55.927329]}},
{"type": "Feature", "id": "X--veHAJsTm--og4HwWV4bxU0To=", "properties": {"ref": "6af4678c-2641-462f-bad7-82d1f8bcb37d", "@spider": "the_gym_group_gb", "leisure": "fitness_centre", "addr:street_address": "Unit 4C Sovereign Harbour Retail Park, Eastbourne", "addr:city": "East Sussex", "addr:postcode": "BN23 6JH", "addr:country": "GB", "name": "Eastbourne", "website": "https://www.thegymgroup.com/find-a-gym/eastbourne-gyms/eastbourne/", "opening_hours": "24/7", "brand": "The Gym Group", "brand:wikidata": "Q48815022", "nsi_id": "thegym-2770cb"}, "geometry": {"type": "Point", "coordinates": [0.323427, 50.794621]}},
{"type": "Feature", "id": "b86HRqxtKyqBP7FDZc3nH1rdFNw=", "properties": {"ref": "6873c429-598e-4b46-bc4a-d53ff17cfcb0", "@spider": "the_gym_group_gb", "leisure": "fitness_centre", "addr:street_address": "The Stack Leisure Park, Harefield Rd", "addr:city": "Dundee ", "addr:postcode": "DD2 3XN", "addr:country": "GB", "name": "Dundee", "website": "https://www.thegymgroup.com/find-a-gym/dundee-gyms/dundee/", "opening_hours": "24/7", "brand": "The Gym Group", "brand:wikidata": "Q48815022", "nsi_id": "thegym-2770cb"}, "geometry": {"type": "Point", "coordinates": [-3.006089, 56.473688]}},
{"type": "Feature", "id": "gP_hDufJ1AdT3ZBDZh8oNXH7-m0=", "properties": {"ref": "f520b7aa-9af8-4ed3-9ded-122f11d3c6d5", "@spider": "the_gym_group_gb", "leisure": "fitness_centre", "addr:street_address": "The Forum Centre, Trinity Street", "addr:postcode": "DT1 1TT", "addr:country": "GB", "name": "Dorchester", "website": "https://www.thegymgroup.com/find-a-gym/dorchester-gyms/dorchester/", "opening_hours": "24/7", "brand": "The Gym Group", "brand:wikidata": "Q48815022", "nsi_id": "thegym-2770cb"}, "geometry": {"type": "Point", "coordinates": [-2.4385888161414035, 50.713405565087655]}},
{"type": "Feature", "id": "q3u38zOFM2jzPoB8uckhYenVeR8=", "properties": {"ref": "1e1b7a2b-6cc7-4a27-bbd4-bf6e27962062", "@spider": "the_gym_group_gb", "leisure": "fitness_centre", "addr:street_address": "Ground floor entrance adjacent to Poundland, Frenchgate Shopping Centre St Sepulchre Gate, Doncaster", "addr:city": "South Yorkshire", "addr:postcode": "DN1 1SW", "addr:country": "GB", "name": "Doncaster", "website": "https://www.thegymgroup.com/find-a-gym/doncaster-gyms/doncaster/", "opening_hours": "24/7", "brand": "The Gym Group", "brand:wikidata": "Q48815022", "nsi_id": "thegym-2770cb"}, "geometry": {"type": "Point", "coordinates": [-1.137038, 53.523066]}},
{"type": "Feature", "id": "i3q_lw2zSwYnSr5hEaMQ9j8EqXQ=", "properties": {"ref": "d0efda92-1845-4dd5-a60c-8bbc749cb2dc", "@spider": "the_gym_group_gb", "leisure": "fitness_centre", "addr:street_address": "Units 5a&5b, Southgate Retail Park Normanton Road, Derby", "addr:city": "Derbyshire", "addr:postcode": "DE23 6UQ", "addr:country": "GB", "name": "Derby", "website": "https://www.thegymgroup.com/find-a-gym/derby-gyms/derby/", "opening_hours": "24/7", "brand": "The Gym Group", "brand:wikidata": "Q48815022", "nsi_id": "thegym-2770cb"}, "geometry": {"type": "Point", "coordinates": [-1.478063, 52.914184]}},
{"type": "Feature", "id": "ga5u1tiEkSmKEMem2zKsflTFaBg=", "properties": {"ref": "c3c8b119-8662-4647-8850-06d4eb1efb13", "@spider": "the_gym_group_gb", "leisure": "fitness_centre", "addr:street_address": "East Mount Road, Darlington", "addr:city": "Durham", "addr:postcode": "DL1 1LA", "addr:country": "GB", "name": "Darlington", "website": "https://www.thegymgroup.com/find-a-gym/darlington-gyms/darlington/", "opening_hours": "24/7", "brand": "The Gym Group", "brand:wikidata": "Q48815022", "nsi_id": "thegym-2770cb"}, "geometry": {"type": "Point", "coordinates": [-1.546506, 54.53149]}},
{"type": "Feature", "id": "-zl29tLZkyCiR8NTecSF9n5ISqA=", "properties": {"ref": "24822839-1b85-408f-9659-62890cf365f7", "@spider": "the_gym_group_gb", "leisure": "fitness_centre", "addr:street_address": "First Floor, Unit 2-3, The Pavilions Queens Square, Crawley", "addr:city": "West Sussex", "addr:postcode": "RH10 1DE", "addr:country": "GB", "name": "Crawley", "website": "https://www.thegymgroup.com/find-a-gym/crawley-gyms/crawley/", "opening_hours": "24/7", "brand": "The Gym Group", "brand:wikidata": "Q48815022", "nsi_id": "thegym-2770cb"}, "geometry": {"type": "Point", "coordinates": [-0.187645, 51.115532]}},
{"type": "Feature", "id": "qjyXCTfznLWZB-sCiZGgyhpoRsQ=", "properties": {"ref": "f22d3fd1-9bb8-4dd8-81ef-8d8f83165700", "@spider": "the_gym_group_gb", "leisure": "fitness_centre", "addr:street_address": "20-28 Queen Street, Colchester", "addr:city": "Essex", "addr:postcode": "CO1 2PJ", "addr:country": "GB", "name": "Colchester", "website": "https://www.thegymgroup.com/find-a-gym/colchester-gyms/colchester/", "opening_hours": "24/7", "brand": "The Gym Group", "brand:wikidata": "Q48815022", "nsi_id": "thegym-2770cb"}, "geometry": {"type": "Point", "coordinates": [0.903388, 51.88838]}},
{"type": "Feature", "id": "eMDqylqZLD5THEQ5Gn5vPSZCULI=", "properties": {"ref": "4cb0ca11-d5a4-4051-9e7d-176ffae3bf9b", "@spider": "the_gym_group_gb", "leisure": "fitness_centre", "addr:street_address": "Portfield Way", "addr:city": "Chichester", "addr:postcode": "PO19 7YH", "addr:country": "GB", "name": "Chichester", "website": "https://www.thegymgroup.com/find-a-gym/chichester-gyms/chichester/", "opening_hours": "24/7", "brand": "The Gym Group", "brand:wikidata": "Q48815022", "nsi_id": "thegym-2770cb"}, "geometry": {"type": "Point", "coordinates": [-0.758186, 50.842669]}},
{"type": "Feature", "id": "RuRptJmC2UpwkgmnV07g3pkriY4=", "properties": {"ref": "d0b8c067-e6b6-432b-8099-57dd5253eaf3", "@spider": "the_gym_group_gb", "leisure": "fitness_centre", "addr:street_address": "Derby Road, Chesterfield", "addr:city": "Derbyshire", "addr:postcode": "S40 2EZ", "addr:country": "GB", "name": "Chesterfield", "website": "https://www.thegymgroup.com/find-a-gym/chesterfield-gyms/chesterfield/", "opening_hours": "24/7", "brand": "The Gym Group", "brand:wikidata": "Q48815022", "nsi_id": "thegym-2770cb"}, "geometry": {"type": "Point", "coordinates": [-1.423723, 53.227818]}},
{"type": "Feature", "id": "WLcNg2zG5HimllYZRZEcq7YAkps=", "properties": {"ref": "548bed8a-83f6-4692-a096-2c1aa42031f0", "@spider": "the_gym_group_gb", "leisure": "fitness_centre", "addr:street_address": "Tewkesbury Road, Cheltenham\n", "addr:postcode": "GL51 9DS", "addr:country": "GB", "name": "Cheltenham", "website": "https://www.thegymgroup.com/find-a-gym/cheltenham-gyms/cheltenham/", "opening_hours": "24/7", "brand": "The Gym Group", "brand:wikidata": "Q48815022", "nsi_id": "thegym-2770cb"}, "geometry": {"type": "Point", "coordinates": [-2.09511, 51.91113]}},
{"type": "Feature", "id": "F0hqYda3Qy9cAHZ3h07chApn410=", "properties": {"ref": "40ed0b9d-22fd-4a14-a095-6cfb5e3d057d", "@spider": "the_gym_group_gb", "leisure": "fitness_centre", "addr:street_address": "Unit 2, 360 Newport Road Penylan, Cardiff", "addr:city": "Cardiff", "addr:postcode": "CF23 9AE", "addr:country": "GB", "name": "Cardiff Newport Road", "website": "https://www.thegymgroup.com/find-a-gym/cardiff-gyms/cardiff-newport-road/", "opening_hours": "24/7", "brand": "The Gym Group", "brand:wikidata": "Q48815022", "nsi_id": "thegym-2770cb"}, "geometry": {"type": "Point", "coordinates": [-3.1418, 51.49525]}},
{"type": "Feature", "id": "N_6xnK2B2vthFRmAMSNq5b_5Ybg=", "properties": {"ref": "389a7e4b-5c68-4989-b830-a682f70bbdd9", "@spider": "the_gym_group_gb", "leisure": "fitness_centre", "addr:street_address": "35 New London Road, Chelmsford", "addr:city": "Essex", "addr:postcode": "CM2 0ND", "addr:country": "GB", "name": "Chelmsford", "website": "https://www.thegymgroup.com/find-a-gym/chelmsford-gyms/chelmsford/", "opening_hours": "24/7", "brand": "The Gym Group", "brand:wikidata": "Q48815022", "nsi_id": "thegym-2770cb"}, "geometry": {"type": "Point", "coordinates": [0.472931, 51.731766]}},
{"type": "Feature", "id": "q3hGcLX5SYkkmGSE2DkLaiu0dH4=", "properties": {"ref": "fbd4eb1b-c2c5-4661-b261-f69f9b2a578a", "@spider": "the_gym_group_gb", "leisure": "fitness_centre", "addr:street_address": "Capitol Shopping Centre, Cardiff", "addr:city": "South Glamorgan", "addr:postcode": "CF10 2HQ", "addr:country": "GB", "name": "Cardiff City Centre", "website": "https://www.thegymgroup.com/find-a-gym/cardiff-gyms/cardiff-city-centre/", "opening_hours": "24/7", "brand": "The Gym Group", "brand:wikidata": "Q48815022", "nsi_id": "thegym-2770cb"}, "geometry": {"type": "Point", "coordinates": [-3.17513, 51.48214]}},
{"type": "Feature", "id": "QNEnPg3f7v4SsExmHC2NpkDns9Y=", "properties": {"ref": "3b7858b1-ddf9-4133-b313-bf57bb324576", "@spider": "the_gym_group_gb", "leisure": "fitness_centre", "addr:street_address": "Robert Boby Retail Park", "addr:postcode": "IP33 3DH", "addr:country": "GB", "name": "Bury St Edmunds", "website": "https://www.thegymgroup.com/find-a-gym/bury-st-edmunds-gyms/bury-st-edmunds/", "opening_hours": "24/7", "brand": "The Gym Group", "brand:wikidata": "Q48815022", "nsi_id": "thegym-2770cb"}, "geometry": {"type": "Point", "coordinates": [0.7083693215868683, 52.243966563772695]}},
{"type": "Feature", "id": "3eCEWMm_I8HCRiwPNmhH5j2pGNk=", "properties": {"ref": "f2cd28de-8615-4dbc-925c-3aecb894fcaf", "@spider": "the_gym_group_gb", "leisure": "fitness_centre", "addr:street_address": "Cambridge Retail Park, Henley Road, Cambridge", "addr:postcode": "CB5 8JL", "addr:country": "GB", "name": "Cambridge", "website": "https://www.thegymgroup.com/find-a-gym/cambridge-gyms/cambridge/", "opening_hours": "24/7", "brand": "The Gym Group", "brand:wikidata": "Q48815022", "nsi_id": "thegym-2770cb"}, "geometry": {"type": "Point", "coordinates": [0.14556, 52.20815]}},
{"type": "Feature", "id": "OoMggwmt48grocBmVzHHksWmQMs=", "properties": {"ref": "ab1b68c1-ad68-48ec-ab72-b987fe8dad42", "@spider": "the_gym_group_gb", "leisure": "fitness_centre", "addr:street_address": "Unit 1 Phase 3, Middleway Retail & Leisure Park Guild Street, Burton upon Trent", "addr:city": "Staffordshire", "addr:postcode": "DE14 1NB", "addr:country": "GB", "name": "Burton upon Trent", "website": "https://www.thegymgroup.com/find-a-gym/burton-upon-trent-gyms/burton-upon-trent/", "opening_hours": "24/7", "brand": "The Gym Group", "brand:wikidata": "Q48815022", "nsi_id": "thegym-2770cb"}, "geometry": {"type": "Point", "coordinates": [-1.633321, 52.805277]}},
{"type": "Feature", "id": "vyf-nQtuIn3Tv1C2jQXWYjTeXcI=", "properties": {"ref": "fb88d1d8-61d1-4c56-a265-21b5cbe61824", "@spider": "the_gym_group_gb", "leisure": "fitness_centre", "addr:street_address": "Accrington Road, Burnley", "addr:city": "Lancashire", "addr:postcode": "BB11 4AS", "addr:country": "GB", "name": "Burnley", "website": "https://www.thegymgroup.com/find-a-gym/burnley-gyms/burnley/", "opening_hours": "24/7", "brand": "The Gym Group", "brand:wikidata": "Q48815022", "nsi_id": "thegym-2770cb"}, "geometry": {"type": "Point", "coordinates": [-2.2605786, 53.789002]}},
{"type": "Feature", "id": "HYcud2iTM0m0KN24yyidP3oSGPE=", "properties": {"ref": "0e2371de-5246-4bb5-ae38-bad17de3b6a3", "@spider": "the_gym_group_gb", "leisure": "fitness_centre", "addr:street_address": "The Gym Longwell Green, Aspects Retail Park Kingswood, Bristol", "addr:city": "Avon", "addr:postcode": "BS15 9LA", "addr:country": "GB", "name": "Bristol Longwell Green", "website": "https://www.thegymgroup.com/find-a-gym/bristol-gyms/bristol-longwell-green/", "opening_hours": "24/7", "brand": "The Gym Group", "brand:wikidata": "Q48815022", "nsi_id": "thegym-2770cb"}, "geometry": {"type": "Point", "coordinates": [-2.498574, 51.44962]}},
{"type": "Feature", "id": "ELxi26ndmGj01ewWhgAmO5Av4CM=", "properties": {"ref": "d90399cd-abd3-4489-864b-0e3802db1ec7", "@spider": "the_gym_group_gb", "leisure": "fitness_centre", "addr:street_address": "Unit 2a, Avonmeads Retail Park\r\nSt Phillips", "addr:city": "Bristol", "addr:postcode": "BS2 0SP", "addr:country": "GB", "name": "Bristol Avonmeads", "website": "https://www.thegymgroup.com/find-a-gym/bristol-gyms/bristol-avonmeads/", "opening_hours": "24/7", "brand": "The Gym Group", "brand:wikidata": "Q48815022", "nsi_id": "thegym-2770cb"}, "geometry": {"type": "Point", "coordinates": [-2.560481, 51.448209]}},
{"type": "Feature", "id": "DwKR1qxW1wzt52soL79BrYPq9Ig=", "properties": {"ref": "cad95696-7e91-48e8-a2e1-c0181df0f5c0", "@spider": "the_gym_group_gb", "leisure": "fitness_centre", "addr:street_address": "Unit LS4A LS4B , Quakers Friars Cabot Circus, Bristol", "addr:city": "Avon", "addr:postcode": "BS1 3BU", "addr:country": "GB", "name": "Bristol City Centre", "website": "https://www.thegymgroup.com/find-a-gym/bristol-gyms/bristol/", "opening_hours": "24/7", "brand": "The Gym Group", "brand:wikidata": "Q48815022", "nsi_id": "thegym-2770cb"}, "geometry": {"type": "Point", "coordinates": [-2.588228, 51.456874]}},
{"type": "Feature", "id": "1CdekuGZ6EuQpxIqwU2N_TMs9WA=", "properties": {"ref": "2b2dd869-51e9-4048-9432-c15437ab6f69", "@spider": "the_gym_group_gb", "leisure": "fitness_centre", "addr:street_address": "94 London Road, Brighton", "addr:city": "East Sussex", "addr:postcode": "BN1 4JF", "addr:country": "GB", "name": "Brighton London Road", "website": "https://www.thegymgroup.com/find-a-gym/brighton-gyms/brighton-london-road/", "opening_hours": "24/7", "brand": "The Gym Group", "brand:wikidata": "Q48815022", "nsi_id": "thegym-2770cb"}, "geometry": {"type": "Point", "coordinates": [-0.136912, 50.832168]}},
{"type": "Feature", "id": "EjU3i2cjql0De6c7gLjDQAtya8U=", "properties": {"ref": "f587e673-85f5-4b53-bf6b-6893452837ab", "@spider": "the_gym_group_gb", "leisure": "fitness_centre", "addr:street_address": "84 - 88 Blatchington Road", "addr:city": "Hove", "addr:postcode": "BN3 3YF", "addr:country": "GB", "name": "Hove", "website": "https://www.thegymgroup.com/find-a-gym/brighton-gyms/hove/", "opening_hours": "24/7", "brand": "The Gym Group", "brand:wikidata": "Q48815022", "nsi_id": "thegym-2770cb"}, "geometry": {"type": "Point", "coordinates": [-0.173382, 50.830972]}},
{"type": "Feature", "id": "VEg4is-zdb7mPn_FW7WQZTkx7eA=", "properties": {"ref": "df3806dc-458f-4e83-96d3-7e0b1a4b726a", "@spider": "the_gym_group_gb", "leisure": "fitness_centre", "addr:street_address": "Unit 9, The Terraces Madeira Drive, Brighton", "addr:city": "East Sussex", "addr:postcode": "BN2 1AY", "addr:country": "GB", "name": "Brighton Madeira Drive", "website": "https://www.thegymgroup.com/find-a-gym/brighton-gyms/brighton-madeira-drive/", "opening_hours": "24/7", "brand": "The Gym Group", "brand:wikidata": "Q48815022", "nsi_id": "thegym-2770cb"}, "geometry": {"type": "Point", "coordinates": [-0.13356, 50.819763]}},
{"type": "Feature", "id": "WK4KM1Eqw40eg8RES0XKiDbX6Hg=", "properties": {"ref": "10dc7d65-30be-47e6-940c-540572212b8e", "@spider": "the_gym_group_gb", "leisure": "fitness_centre", "addr:street_address": "Beneficial House, Easthampstead Road, Bracknell", "addr:city": "Bracknell", "addr:postcode": "RG12 1NS", "addr:country": "GB", "name": "Bracknell", "website": "https://www.thegymgroup.com/find-a-gym/bracknell-gyms/bracknell/", "opening_hours": "24/7", "brand": "The Gym Group", "brand:wikidata": "Q48815022", "nsi_id": "thegym-2770cb"}, "geometry": {"type": "Point", "coordinates": [-0.761105, 51.414564]}},
{"type": "Feature", "id": "MUKfLbwFQqrMe01ND4zplAuXDTc=", "properties": {"ref": "c28642ee-92a6-4aa5-9cbb-524b43753106", "@spider": "the_gym_group_gb", "leisure": "fitness_centre", "addr:street_address": "First Floor, 29-36 Westover Road, Bournemouth", "addr:city": "Bournemouth", "addr:postcode": "BH1 2BZ", "addr:country": "GB", "name": "Bournemouth", "website": "https://www.thegymgroup.com/find-a-gym/bournemouth-gyms/bournemouth/", "opening_hours": "24/7", "brand": "The Gym Group", "brand:wikidata": "Q48815022", "nsi_id": "thegym-2770cb"}, "geometry": {"type": "Point", "coordinates": [-1.875151, 50.718769]}},
{"type": "Feature", "id": "VEGm8UiikL323HjfeU2POkR0z24=", "properties": {"ref": "114e4d25-7d30-45b5-873a-5d6cfbf7f6c8", "@spider": "the_gym_group_gb", "leisure": "fitness_centre", "addr:street_address": "Unit 9, Bolton Gate Retail Park, Turton Street, Bolton", "addr:city": "Lancashire", "addr:postcode": "BL1 2SL", "addr:country": "GB", "name": "Bolton", "website": "https://www.thegymgroup.com/find-a-gym/bolton-gyms/bolton/", "opening_hours": "24/7", "brand": "The Gym Group", "brand:wikidata": "Q48815022", "nsi_id": "thegym-2770cb"}, "geometry": {"type": "Point", "coordinates": [-2.425366, 53.585811]}},
{"type": "Feature", "id": "lQX7ijGhHOmPYnNZOn26vEqj3II=", "properties": {"ref": "2e88a5d2-90dc-4a3b-bf32-f915c6f06045", "@spider": "the_gym_group_gb", "leisure": "fitness_centre", "addr:street_address": "Units 2, 3, 4, & 5, Ground floor, Talbot Road Multi Storey Car Park Cookson Street, Blackpool", "addr:city": "Lancashire", "addr:postcode": "FY1 3AJ", "addr:country": "GB", "name": "Blackpool", "website": "https://www.thegymgroup.com/find-a-gym/blackpool-gyms/blackpool/", "opening_hours": "24/7", "brand": "The Gym Group", "brand:wikidata": "Q48815022", "nsi_id": "thegym-2770cb"}, "geometry": {"type": "Point", "coordinates": [-3.047443, 53.821294]}},
{"type": "Feature", "id": "GFBGX_aAWDxE_sdB1YxHh9t6gTw=", "properties": {"ref": "b52af81b-fab0-4311-a233-a92f14670d5c", "@spider": "the_gym_group_gb", "leisure": "fitness_centre", "addr:street_address": "10A, The Parade, Sutton Coldfield", "addr:city": "Birmingham", "addr:postcode": "B72 1PA", "addr:country": "GB", "name": "Sutton Coldfield", "website": "https://www.thegymgroup.com/find-a-gym/birmingham-gyms/sutton-coldfield/", "opening_hours": "24/7", "brand": "The Gym Group", "brand:wikidata": "Q48815022", "nsi_id": "thegym-2770cb"}, "geometry": {"type": "Point", "coordinates": [-1.8236788, 52.5631878]}},
{"type": "Feature", "id": "IHGmVJ0WqjceN95D-Upm1uDxzIk=", "properties": {"ref": "7194c170-a44e-485e-8b8a-2ad119d0f2a5", "@spider": "the_gym_group_gb", "leisure": "fitness_centre", "addr:street_address": "103 Birmingham Street, Stourbridge", "addr:city": "West Midlands", "addr:postcode": "DY8 1JR", "addr:country": "GB", "name": "Stourbridge", "website": "https://www.thegymgroup.com/find-a-gym/birmingham-gyms/stourbridge/", "opening_hours": "24/7", "brand": "The Gym Group", "brand:wikidata": "Q48815022", "nsi_id": "thegym-2770cb"}, "geometry": {"type": "Point", "coordinates": [-2.139914, 52.457629]}},
{"type": "Feature", "id": "vX513bI1n618T_pkUSNgvVTm9Sk=", "properties": {"ref": "cb7d1d3e-1e99-48a0-9bb2-a26de2de522a", "@spider": "the_gym_group_gb", "leisure": "fitness_centre", "addr:street_address": "Unit 4, Birmingham Stechford Retail Park", "addr:postcode": "B33 9AN", "addr:country": "GB", "name": "Birmingham Stechford", "website": "https://www.thegymgroup.com/find-a-gym/birmingham-gyms/birmingham-stechford/", "opening_hours": "24/7", "brand": "The Gym Group", "brand:wikidata": "Q48815022", "nsi_id": "thegym-2770cb"}, "geometry": {"type": "Point", "coordinates": [-1.8089884, 52.4865158]}},
{"type": "Feature", "id": "NOY45xl0BvdHRTS6qMbNZaYNsj0=", "properties": {"ref": "abc70abc-1953-4bc5-a2d2-e0bd94075f56", "@spider": "the_gym_group_gb", "leisure": "fitness_centre", "addr:street_address": "Sheldon Retail Park, Coventry Road, Sheldon", "addr:city": "Birmingham", "addr:postcode": "B26 3NX", "addr:country": "GB", "name": "Birmingham Sheldon", "website": "https://www.thegymgroup.com/find-a-gym/birmingham-gyms/birmingham-sheldon/", "opening_hours": "24/7", "brand": "The Gym Group", "brand:wikidata": "Q48815022", "nsi_id": "thegym-2770cb"}, "geometry": {"type": "Point", "coordinates": [-1.78057, 52.451378]}},
{"type": "Feature", "id": "r3C8NDmo_FLikkBXv87Gli0tPLU=", "properties": {"ref": "a5cf5be4-7e32-4616-8c3d-dc7bfe642d9e", "@spider": "the_gym_group_gb", "leisure": "fitness_centre", "addr:street_address": "Chapel Ln, Unit 1c, Battery Retail Park\r\nSelly Oak", "addr:city": "Birmingham", "addr:postcode": "B29 6SJ", "addr:country": "GB", "name": "Birmingham Selly Oak", "website": "https://www.thegymgroup.com/find-a-gym/birmingham-gyms/birmingham-selly-oak/", "opening_hours": "24/7", "brand": "The Gym Group", "brand:wikidata": "Q48815022", "nsi_id": "thegym-2770cb"}, "geometry": {"type": "Point", "coordinates": [-1.9399168484563143, 52.44212413446685]}},
{"type": "Feature", "id": "8oqeQd-ZMKTRh4XVKxEqJI1N4Og=", "properties": {"ref": "bef686ad-9705-4e39-ad03-9907c9a2dfd3", "@spider": "the_gym_group_gb", "leisure": "fitness_centre", "addr:street_address": "Unit 7B, One Stop Shopping Park\r\nPerry Barr, Birmingham", "addr:postcode": "B42 1AA", "addr:country": "GB", "name": "Birmingham Perry Barr", "website": "https://www.thegymgroup.com/find-a-gym/birmingham-gyms/birmingham-perry-barr/", "opening_hours": "24/7", "brand": "The Gym Group", "brand:wikidata": "Q48815022", "nsi_id": "thegym-2770cb"}, "geometry": {"type": "Point", "coordinates": [-1.90546, 52.517487]}},
{"type": "Feature", "id": "Q1iJrjNKcTD0ZANYD_jmPJZqCtU=", "properties": {"ref": "a5f0bbe2-cda9-45ad-89ba-365d7c0709a8", "@spider": "the_gym_group_gb", "leisure": "fitness_centre", "addr:street_address": "Unit 1A Findlay Road, High Street, Kings Heath", "addr:city": "Birmingham", "addr:postcode": "B14 7SN", "addr:country": "GB", "name": "Birmingham Kings Heath", "website": "https://www.thegymgroup.com/find-a-gym/birmingham-gyms/birmingham-kings-heath/", "opening_hours": "24/7", "brand": "The Gym Group", "brand:wikidata": "Q48815022", "nsi_id": "thegym-2770cb"}, "geometry": {"type": "Point", "coordinates": [-1.892947, 52.438601]}},
{"type": "Feature", "id": "SW7hwyEovcuFCBS4LsoO0KZp-ho=", "properties": {"ref": "5308d452-f8b2-405b-85df-5c9118cc8933", "@spider": "the_gym_group_gb", "leisure": "fitness_centre", "addr:street_address": "973 Kingsbury Road, Erdington, Birmingham", "addr:city": "West Midlands", "addr:postcode": "B24 9QB", "addr:country": "GB", "name": "Birmingham Kingsbury Road", "website": "https://www.thegymgroup.com/find-a-gym/birmingham-gyms/birmingham-kingsbury-road/", "opening_hours": "24/7", "brand": "The Gym Group", "brand:wikidata": "Q48815022", "nsi_id": "thegym-2770cb"}, "geometry": {"type": "Point", "coordinates": [-1.805362, 52.517323]}},
{"type": "Feature", "id": "2kJAk02mPJ4y94a5IJONT_xaq14=", "properties": {"ref": "4936eab8-d5c5-4924-bfb4-18b86f0a3cbe", "@spider": "the_gym_group_gb", "leisure": "fitness_centre", "addr:street_address": "Trident Retail Park, Westley Street", "addr:city": "Birmingham", "addr:postcode": "B9 4EH", "addr:country": "GB", "name": "Birmingham Digbeth", "website": "https://www.thegymgroup.com/find-a-gym/birmingham-gyms/birmingham-digbeth/", "opening_hours": "24/7", "brand": "The Gym Group", "brand:wikidata": "Q48815022", "nsi_id": "thegym-2770cb"}, "geometry": {"type": "Point", "coordinates": [-1.876773, 52.477017]}},
{"type": "Feature", "id": "3an_TrD7ALr_cawVwFSpGERf1WQ=", "properties": {"ref": "f795f104-5597-462a-9bdd-f766cb5594ed", "@spider": "the_gym_group_gb", "leisure": "fitness_centre", "addr:street_address": "Hagley Road West, Halesowen", "addr:city": "Birmingham", "addr:postcode": "B62 9AS", "addr:country": "GB", "name": "Birmingham Hagley Road", "website": "https://www.thegymgroup.com/find-a-gym/birmingham-gyms/birmingham-hagley-road/", "opening_hours": "24/7", "brand": "The Gym Group", "brand:wikidata": "Q48815022", "nsi_id": "thegym-2770cb"}, "geometry": {"type": "Point", "coordinates": [-2.014895, 52.46263]}},
{"type": "Feature", "id": "qVvPRqR0mNfSisMBDcRbQvVXfg0=", "properties": {"ref": "314ca93f-86d2-4c94-9e58-76dac78675eb", "@spider": "the_gym_group_gb", "leisure": "fitness_centre", "addr:street_address": "79-84 High Street, Birmingham", "addr:city": "West Midlands", "addr:postcode": "B4 7TE", "addr:country": "GB", "name": "Birmingham City Centre", "website": "https://www.thegymgroup.com/find-a-gym/birmingham-gyms/birmingham-city-centre/", "opening_hours": "24/7", "brand": "The Gym Group", "brand:wikidata": "Q48815022", "nsi_id": "thegym-2770cb"}, "geometry": {"type": "Point", "coordinates": [-1.895072, 52.479111]}},
{"type": "Feature", "id": "n3BOGCne-Y30caRxcj3ZkV4F56M=", "properties": {"ref": "df354800-5fd0-4510-b9b8-3d4a39c61146", "@spider": "the_gym_group_gb", "leisure": "fitness_centre", "addr:street_address": "Broadway, Ladywood Middleway, Birmingham", "addr:city": "West Midlands", "addr:postcode": "B16 8HA", "addr:country": "GB", "name": "Birmingham Broad Street", "website": "https://www.thegymgroup.com/find-a-gym/birmingham-gyms/birmingham-broad-street/", "opening_hours": "24/7", "brand": "The Gym Group", "brand:wikidata": "Q48815022", "nsi_id": "thegym-2770cb"}, "geometry": {"type": "Point", "coordinates": [-1.9186161, 52.4745165]}},
{"type": "Feature", "id": "-fU3SPoSO5Wqus5OAzIEhOCUiUQ=", "properties": {"ref": "6938011a-fb34-4661-aa2c-da524f932ed6", "@spider": "the_gym_group_gb", "leisure": "fitness_centre", "addr:street_address": "Unit 2 Victoria Retail Park, Beverley", "addr:city": "Yorkshire", "addr:postcode": "HU17 8XE", "addr:country": "GB", "name": "Beverley", "website": "https://www.thegymgroup.com/find-a-gym/beverley-gyms/beverley/", "opening_hours": "24/7", "brand": "The Gym Group", "brand:wikidata": "Q48815022", "nsi_id": "thegym-2770cb"}, "geometry": {"type": "Point", "coordinates": [-0.443374, 53.824316]}},
{"type": "Feature", "id": "VCXlpQcyvWxkdSStevcw5AtCxJw=", "properties": {"ref": "111c97c0-2145-444a-870e-7e1c48970e5d", "@spider": "the_gym_group_gb", "leisure": "fitness_centre", "addr:street_address": "Southgate St, Southgate Shopping Mall", "addr:city": "Bath", "addr:postcode": "BA1 1TG", "addr:country": "GB", "name": "Bath City", "website": "https://www.thegymgroup.com/find-a-gym/bath-gyms/bath-city/", "opening_hours": "24/7", "brand": "The Gym Group", "brand:wikidata": "Q48815022", "nsi_id": "thegym-2770cb"}, "geometry": {"type": "Point", "coordinates": [-2.3596104110920373, 51.37854853186573]}},
{"type": "Feature", "id": "NmvEhkexyeAeDDfqf1Iig2BQWFw=", "properties": {"ref": "c819380d-97a6-413d-8ab5-808fd76ef485", "@spider": "the_gym_group_gb", "leisure": "fitness_centre", "addr:street_address": "Unit 2A, Alban Retail Park, London Rd, Bedford", "addr:city": "Bedfordshire", "addr:postcode": "MK42 0NW", "addr:country": "GB", "name": "Bedford", "website": "https://www.thegymgroup.com/find-a-gym/bedford-gyms/bedford/", "opening_hours": "24/7", "brand": "The Gym Group", "brand:wikidata": "Q48815022", "nsi_id": "thegym-2770cb"}, "geometry": {"type": "Point", "coordinates": [-0.461162, 52.12869]}},
{"type": "Feature", "id": "jpXcPJDl8uTKcWGO3CW5gHN7bZs=", "properties": {"ref": "d8a9135d-fa45-4ab9-b7f6-aaaa7cab5450", "@spider": "the_gym_group_gb", "leisure": "fitness_centre", "addr:street_address": "Unit 3a, St Michaels Retail Park, Winchester Road", "addr:city": "Basingstoke", "addr:postcode": "RG22 4AN", "addr:country": "GB", "name": "Basingstoke", "website": "https://www.thegymgroup.com/find-a-gym/basingstoke-gyms/basingstoke/", "opening_hours": "24/7", "brand": "The Gym Group", "brand:wikidata": "Q48815022", "nsi_id": "thegym-2770cb"}, "geometry": {"type": "Point", "coordinates": [-1.106717, 51.251112]}},
{"type": "Feature", "id": "oaPhkC8GaXsP-Hgy3O5J9YfDN14=", "properties": {"ref": "db2b6344-7482-49c8-a7a1-b712e8c9c66f", "@spider": "the_gym_group_gb", "leisure": "fitness_centre", "addr:street_address": "The Gym Group, Cornerhouse Retail Park\r\nHindpool Road", "addr:city": "Barrow-in-Furness\n", "addr:postcode": "LA14 2NE", "addr:country": "GB", "name": "Barrow-in-Furness", "website": "https://www.thegymgroup.com/find-a-gym/barrow-in-furness-gyms/barrow-in-furness/", "opening_hours": "24/7", "brand": "The Gym Group", "brand:wikidata": "Q48815022", "nsi_id": "thegym-2770cb"}, "geometry": {"type": "Point", "coordinates": [-3.2351171015882216, 54.11249530889151]}},
{"type": "Feature", "id": "NA6qhtcgIp142T6ENPXY0-5MOsE=", "properties": {"ref": "386d2068-ba5f-4b25-bb48-ce546c56c09f", "@spider": "the_gym_group_gb", "leisure": "fitness_centre", "addr:street_address": "Miles Gray Rd, Unit E3, Pipps Hill Retail Park", "addr:city": "Basildon", "addr:postcode": "SS14 3AF", "addr:country": "GB", "name": "Basildon", "website": "https://www.thegymgroup.com/find-a-gym/basildon-gyms/basildon/", "opening_hours": "24/7", "brand": "The Gym Group", "brand:wikidata": "Q48815022", "nsi_id": "thegym-2770cb"}, "geometry": {"type": "Point", "coordinates": [0.4440445204514515, 51.58038149172277]}},
{"type": "Feature", "id": "pJqkPi2vP7KgORXdJguSLPERKLw=", "properties": {"ref": "ded7f226-41d2-47c2-8a50-63683e7cfa59", "@spider": "the_gym_group_gb", "leisure": "fitness_centre", "addr:street_address": "33 Peel Parade, Barnsley", "addr:city": "South Yorkshire", "addr:postcode": "S70 2RN", "addr:country": "GB", "name": "Barnsley", "website": "https://www.thegymgroup.com/find-a-gym/barnsley-gyms/barnsley/", "opening_hours": "24/7", "brand": "The Gym Group", "brand:wikidata": "Q48815022", "nsi_id": "thegym-2770cb"}, "geometry": {"type": "Point", "coordinates": [-1.484777, 53.55306]}},
{"type": "Feature", "id": "AnH42fhp4jt0WRpJGeHLRmT3jBE=", "properties": {"ref": "1da982fc-d7d7-4067-b6c2-d4bafc6527c3", "@spider": "the_gym_group_gb", "leisure": "fitness_centre", "addr:street_address": "Heathfield Retail Park, Liberator Drive, Ayr", "addr:postcode": "KA8 9BF", "addr:country": "GB", "name": "Ayr", "website": "https://www.thegymgroup.com/find-a-gym/ayr-gyms/ayr/", "opening_hours": "24/7", "brand": "The Gym Group", "brand:wikidata": "Q48815022", "nsi_id": "thegym-2770cb"}, "geometry": {"type": "Point", "coordinates": [-4.593997, 55.48011]}},
{"type": "Feature", "id": "y_3mxBiq4OkXOEViSn_b_fZvixM=", "properties": {"ref": "e78d673c-e92e-49e6-b8c2-5757aa73d2fc", "@spider": "the_gym_group_gb", "leisure": "fitness_centre", "addr:street_address": "6-8 Great Western Street, Friars Square Shopping Centre", "addr:city": "Aylesbury", "addr:postcode": "HP20 2PU", "addr:country": "GB", "name": "Aylesbury", "website": "https://www.thegymgroup.com/find-a-gym/aylesbury-gyms/aylesbury/", "opening_hours": "24/7", "brand": "The Gym Group", "brand:wikidata": "Q48815022", "nsi_id": "thegym-2770cb"}, "geometry": {"type": "Point", "coordinates": [-0.812945, 51.81571]}},
{"type": "Feature", "id": "Kg5_Efe--Gfw-lD3B4gcXy7suGY=", "properties": {"ref": "8e0bf6b9-c81c-44da-99aa-747956dbe212", "@spider": "the_gym_group_gb", "leisure": "fitness_centre", "addr:street_address": "The Atlip Centre, 197 Ealing Road, Alperton", "addr:city": "Alperton", "addr:postcode": "HA0 4LW", "addr:country": "GB", "name": "London Alperton", "website": "https://www.thegymgroup.com/find-a-gym/north-london-gyms/alperton/", "opening_hours": "24/7", "brand": "The Gym Group", "brand:wikidata": "Q48815022", "nsi_id": "thegym-2770cb"}, "geometry": {"type": "Point", "coordinates": [-0.29824, 51.540443]}},
{"type": "Feature", "id": "EVWA2MLm7U2w-vWjIy3QjrPY3RU=", "properties": {"ref": "5cc9b50b-c049-49d2-a929-b9e9ec34f9ba", "@spider": "the_gym_group_gb", "leisure": "fitness_centre", "addr:street_address": "Unit 1 New Street Retail Park, New Street, Ashford", "addr:city": "Kent", "addr:postcode": "TN24 8TN", "addr:country": "GB", "name": "Ashford", "website": "https://www.thegymgroup.com/find-a-gym/ashford-gyms/ashford/", "opening_hours": "24/7", "brand": "The Gym Group", "brand:wikidata": "Q48815022", "nsi_id": "thegym-2770cb"}, "geometry": {"type": "Point", "coordinates": [0.869004, 51.150945]}},
{"type": "Feature", "id": "v0ApqFUtOp9pgq9VPY-u5pmUWYM=", "properties": {"ref": "a064de2a-d675-4b3b-a129-74d4271163da", "@spider": "the_gym_group_gb", "leisure": "fitness_centre", "addr:street_address": "74-78 Sydenham Road, Sydenham", "addr:city": "London", "addr:postcode": "SE26 5QE", "addr:country": "GB", "name": "London Sydenham", "website": "https://www.thegymgroup.com/find-a-gym/south-london-gyms/sydenham/", "opening_hours": "24/7", "brand": "The Gym Group", "brand:wikidata": "Q48815022", "nsi_id": "thegym-2770cb"}, "geometry": {"type": "Point", "coordinates": [-0.04968, 51.42575]}},
{"type": "Feature", "id": "BM-sXBma0U2Ec8HnP0a0a9cBCUo=", "properties": {"ref": "2720ab96-44d0-449d-a17a-30dcce03d6cb", "@spider": "the_gym_group_gb", "leisure": "fitness_centre", "addr:street_address": "The Mall, 98-100 High Road, Wood Green", "addr:city": "London", "addr:postcode": "N22 6YQ", "addr:country": "GB", "name": "London Wood Green The Mall", "website": "https://www.thegymgroup.com/find-a-gym/north-london-gyms/wood-green-the-mall/", "opening_hours": "24/7", "brand": "The Gym Group", "brand:wikidata": "Q48815022", "nsi_id": "thegym-2770cb"}, "geometry": {"type": "Point", "coordinates": [-0.11024, 51.59757]}},
{"type": "Feature", "id": "gMsi2z_wkLti7ler3u-O7J1nNOI=", "properties": {"ref": "b444a729-553f-4138-a815-9fdfefc45245", "@spider": "the_gym_group_gb", "leisure": "fitness_centre", "addr:street_address": "725 - 731 Lordship Lane, Wood Green", "addr:city": "London", "addr:postcode": "N22 5JX", "addr:country": "GB", "name": "London Wood Green Lordship Lane", "website": "https://www.thegymgroup.com/find-a-gym/north-london-gyms/wood-green-lordship-lane/", "opening_hours": "24/7", "brand": "The Gym Group", "brand:wikidata": "Q48815022", "nsi_id": "thegym-2770cb"}, "geometry": {"type": "Point", "coordinates": [-0.107943, 51.597207]}},
{"type": "Feature", "id": "1KOkkqGkiHYOxuKqrw8yKoS-vik=", "properties": {"ref": "127f50b8-63eb-4244-aa57-24e119f2a220", "@spider": "the_gym_group_gb", "leisure": "fitness_centre", "addr:street_address": "Empire Way", "addr:city": "Wembley", "addr:postcode": "HA9 0NH", "addr:country": "GB", "name": "London Wembley Park", "website": "https://www.thegymgroup.com/find-a-gym/north-london-gyms/wembley-park/", "opening_hours": "24/7", "brand": "The Gym Group", "brand:wikidata": "Q48815022", "nsi_id": "thegym-2770cb"}, "geometry": {"type": "Point", "coordinates": [-0.285601, 51.557441]}},
{"type": "Feature", "id": "yigWKvEpr-dNzgGhtDvHzF9rrVg=", "properties": {"ref": "652869c6-f30e-4046-9334-0a460f3615e7", "@spider": "the_gym_group_gb", "leisure": "fitness_centre", "addr:street_address": "Unit D2, 41 Fortune Green Road, West Hampstead", "addr:city": "London", "addr:postcode": "NW6 1DR", "addr:country": "GB", "name": "London West Hampstead", "website": "https://www.thegymgroup.com/find-a-gym/north-london-gyms/west-hampstead/", "opening_hours": "24/7", "brand": "The Gym Group", "brand:wikidata": "Q48815022", "nsi_id": "thegym-2770cb"}, "geometry": {"type": "Point", "coordinates": [-0.197009, 51.555123]}},
{"type": "Feature", "id": "aJKEoPArVglZ2NjvWcNIPX1zsVA=", "properties": {"ref": "91d7d37a-26b8-46e6-89df-211a1298c3f2", "@spider": "the_gym_group_gb", "leisure": "fitness_centre", "addr:street_address": "99 - 101 London Road, Croydon", "addr:postcode": "CR0 2RF", "addr:country": "GB", "name": "London West Croydon", "website": "https://www.thegymgroup.com/find-a-gym/south-london-gyms/west-croydon/", "opening_hours": "24/7", "brand": "The Gym Group", "brand:wikidata": "Q48815022", "nsi_id": "thegym-2770cb"}, "geometry": {"type": "Point", "coordinates": [-0.105384, 51.380543]}},
{"type": "Feature", "id": "x96Wom84favx2qxVjc8xtaJvFbY=", "properties": {"ref": "d83ef319-8bf1-4760-82c1-52fff2bac628", "@spider": "the_gym_group_gb", "leisure": "fitness_centre", "addr:street_address": "Unit 11 & 12 Central Square, High Road, Wembley", "addr:city": "Wembley", "addr:postcode": "HA9 7AJ", "addr:country": "GB", "name": "London Wembley Central", "website": "https://www.thegymgroup.com/find-a-gym/north-london-gyms/wembley/", "opening_hours": "24/7", "brand": "The Gym Group", "brand:wikidata": "Q48815022", "nsi_id": "thegym-2770cb"}, "geometry": {"type": "Point", "coordinates": [-0.296136, 51.551729]}},
{"type": "Feature", "id": "tOl39ddhsm3zb_EPuDVxVpZ02DQ=", "properties": {"ref": "14541e1e-bb62-450f-895e-f20ad0109cfb", "@spider": "the_gym_group_gb", "leisure": "fitness_centre", "addr:street_address": "35-43 High Street, Wealdstone", "addr:city": "Harrow", "addr:postcode": "HA3 5DE", "addr:country": "GB", "name": "London Wealdstone", "website": "https://www.thegymgroup.com/find-a-gym/north-london-gyms/wealdstone/", "opening_hours": "24/7", "brand": "The Gym Group", "brand:wikidata": "Q48815022", "nsi_id": "thegym-2770cb"}, "geometry": {"type": "Point", "coordinates": [-0.335426, 51.594973]}},
{"type": "Feature", "id": "ksV0W8TUABt1QOeIwZFGbAj2WDw=", "properties": {"ref": "5c4dd238-3936-482e-8dd9-610e8964a051", "@spider": "the_gym_group_gb", "leisure": "fitness_centre", "addr:street_address": "Unit 15, Imperial Park Imperial Way, Watford", "addr:city": "Hertfordshire", "addr:postcode": "WD24 4JF", "addr:country": "GB", "name": "Watford", "website": "https://www.thegymgroup.com/find-a-gym/north-london-gyms/watford/", "opening_hours": "24/7", "brand": "The Gym Group", "brand:wikidata": "Q48815022", "nsi_id": "thegym-2770cb"}, "geometry": {"type": "Point", "coordinates": [-0.392489, 51.671306]}},
{"type": "Feature", "id": "EJ-TnBAVnSaRk0mPboW_XBn1ewo=", "properties": {"ref": "1c47389d-47bd-4d69-b076-5572dd135b42", "@spider": "the_gym_group_gb", "leisure": "fitness_centre", "addr:street_address": "Southside Shopping Centre, Garratt Lane, Wandsworth", "addr:city": "London", "addr:postcode": "SW18 4TF", "addr:country": "GB", "name": "London Wandsworth", "website": "https://www.thegymgroup.com/find-a-gym/south-london-gyms/wandsworth/", "opening_hours": "24/7", "brand": "The Gym Group", "brand:wikidata": "Q48815022", "nsi_id": "thegym-2770cb"}, "geometry": {"type": "Point", "coordinates": [-0.194192798, 51.45540248]}},
{"type": "Feature", "id": "aiw96BgJwlkyEcdKkYFGT5J2ZcU=", "properties": {"ref": "50d150e6-7fc7-49b2-961a-67d20198e23e", "@spider": "the_gym_group_gb", "leisure": "fitness_centre", "addr:street_address": "Barons Place, 195-203 Waterloo Road, Waterloo", "addr:city": "London", "addr:postcode": "SE1 8UX", "addr:country": "GB", "name": "London Waterloo", "website": "https://www.thegymgroup.com/find-a-gym/south-london-gyms/waterloo/", "opening_hours": "24/7", "brand": "The Gym Group", "brand:wikidata": "Q48815022", "nsi_id": "thegym-2770cb"}, "geometry": {"type": "Point", "coordinates": [-0.107087, 51.500846]}},
{"type": "Feature", "id": "ztD7iKiaKGtcF1g4E5jnk8p_YcU=", "properties": {"ref": "97ee8f12-3dcd-4c27-b418-c42797576878", "@spider": "the_gym_group_gb", "leisure": "fitness_centre", "addr:street_address": "332-334 Walworth Road, Newington, London", "addr:city": "Greater London", "addr:postcode": "SE17 2NA", "addr:country": "GB", "name": "London Walworth Road", "website": "https://www.thegymgroup.com/find-a-gym/south-london-gyms/walworth-road/", "opening_hours": "Mo-Sa 00:00-24:00; Su 08:00-24:00", "brand": "The Gym Group", "brand:wikidata": "Q48815022", "nsi_id": "thegym-2770cb"}, "geometry": {"type": "Point", "coordinates": [-0.094585, 51.485784]}},
{"type": "Feature", "id": "mrO0tUnK6tHeJc50bGNC2bz8izE=", "properties": {"ref": "dca3dd05-6780-4f2f-b333-b2d496aed4af", "@spider": "the_gym_group_gb", "leisure": "fitness_centre", "addr:street_address": "The Mall, Unit 56  Selborne Walk, Walthamstow", "addr:city": "Greater London", "addr:postcode": "E17 7JR", "addr:country": "GB", "name": "London Walthamstow", "website": "https://www.thegymgroup.com/find-a-gym/east-london-gyms/walthamstow/", "opening_hours": "24/7", "brand": "The Gym Group", "brand:wikidata": "Q48815022", "nsi_id": "thegym-2770cb"}, "geometry": {"type": "Point", "coordinates": [-0.022333, 51.584242]}},
{"type": "Feature", "id": "87nBcXrB8iRDAOugi8K-x_CyvK8=", "properties": {"ref": "de73a8c0-4884-4c54-b0fa-12dcb252d6be", "@spider": "the_gym_group_gb", "leisure": "fitness_centre", "addr:street_address": "6a St George Wharf, Vauxhall", "addr:city": "London", "addr:postcode": "SW8 2LE", "addr:country": "GB", "name": "London Vauxhall", "website": "https://www.thegymgroup.com/find-a-gym/south-london-gyms/vauxhall/", "opening_hours": "24/7", "brand": "The Gym Group", "brand:wikidata": "Q48815022", "nsi_id": "thegym-2770cb"}, "geometry": {"type": "Point", "coordinates": [-0.126199, 51.485293]}},
{"type": "Feature", "id": "NYgD6BmJXCSmyixZorPWZ779g6s=", "properties": {"ref": "f8296870-7456-4626-8720-fe4d0a92528a", "@spider": "the_gym_group_gb", "leisure": "fitness_centre", "addr:street_address": "780 High Road, London, Tottenham", "addr:postcode": "N17 0BX", "addr:country": "GB", "name": "London Tottenham White Hart Lane", "website": "https://www.thegymgroup.com/find-a-gym/north-london-gyms/tottenham-white-hart-lane/", "opening_hours": "24/7", "brand": "The Gym Group", "brand:wikidata": "Q48815022", "nsi_id": "thegym-2770cb"}, "geometry": {"type": "Point", "coordinates": [-0.065886, 51.605762]}},
{"type": "Feature", "id": "bMrTmT92Pf-chjShdvhXsfusZ-k=", "properties": {"ref": "a846a523-0b33-4567-9357-fb7588f1f56a", "@spider": "the_gym_group_gb", "leisure": "fitness_centre", "addr:street_address": "570-590 High Road, Tottenham", "addr:city": "London", "addr:postcode": "N17 9TA", "addr:country": "GB", "name": "London Tottenham High Road", "website": "https://www.thegymgroup.com/find-a-gym/north-london-gyms/tottenham-high-road/", "opening_hours": "24/7", "brand": "The Gym Group", "brand:wikidata": "Q48815022", "nsi_id": "thegym-2770cb"}, "geometry": {"type": "Point", "coordinates": [-0.0679709999999996, 51.59599905]}},
{"type": "Feature", "id": "Gc0kh2rQ5OUSSwh4Ev5Nj2o25dQ=", "properties": {"ref": "51c31185-7fef-48fb-bc50-b429e2e64925", "@spider": "the_gym_group_gb", "leisure": "fitness_centre", "addr:street_address": "Part Ground Floor, Emily Bowes Court Lebus Street, Tottenham", "addr:city": "London", "addr:postcode": "N17 9FD", "addr:country": "GB", "name": "London Tottenham Hale", "website": "https://www.thegymgroup.com/find-a-gym/north-london-gyms/tottenham/", "opening_hours": "24/7", "brand": "The Gym Group", "brand:wikidata": "Q48815022", "nsi_id": "thegym-2770cb"}, "geometry": {"type": "Point", "coordinates": [-0.059103, 51.588519]}},
{"type": "Feature", "id": "XXk6gntwhDaqXexVpaskRh6yE5U=", "properties": {"ref": "ef56cfc2-fd19-4baa-9f5e-fca377594eb7", "@spider": "the_gym_group_gb", "leisure": "fitness_centre", "addr:street_address": "15 Lett Road, Stockwell", "addr:city": "London", "addr:postcode": "SW9 0HP", "addr:country": "GB", "name": "London Stockwell", "website": "https://www.thegymgroup.com/find-a-gym/south-london-gyms/stockwell/", "opening_hours": "24/7", "brand": "The Gym Group", "brand:wikidata": "Q48815022", "nsi_id": "thegym-2770cb"}, "geometry": {"type": "Point", "coordinates": [-0.116993, 51.476432]}},
{"type": "Feature", "id": "4tGFF-8v9WZHrB_2GYfzglg8VEg=", "properties": {"ref": "67b2e30f-c971-49cc-90c5-ed047adc5167", "@spider": "the_gym_group_gb", "leisure": "fitness_centre", "addr:street_address": "953-959 Garratt Lane, Tooting", "addr:city": "Greater London", "addr:postcode": "SW17 0LR", "addr:country": "GB", "name": "London Tooting", "website": "https://www.thegymgroup.com/find-a-gym/south-london-gyms/tooting/", "opening_hours": "24/7", "brand": "The Gym Group", "brand:wikidata": "Q48815022", "nsi_id": "thegym-2770cb"}, "geometry": {"type": "Point", "coordinates": [-0.174322, 51.430432]}},
{"type": "Feature", "id": "viK1AztS1496soMRtyzMjqVEayQ=", "properties": {"ref": "332c4183-ec53-4d29-852d-cd3e44924b88", "@spider": "the_gym_group_gb", "leisure": "fitness_centre", "addr:street_address": "7 Streatham Station Approach, Streatham", "addr:city": "Greater London", "addr:postcode": "SW16 6HW", "addr:country": "GB", "name": "London Streatham", "website": "https://www.thegymgroup.com/find-a-gym/south-london-gyms/streatham/", "opening_hours": "24/7", "brand": "The Gym Group", "brand:wikidata": "Q48815022", "nsi_id": "thegym-2770cb"}, "geometry": {"type": "Point", "coordinates": [-0.131284, 51.425762]}},
{"type": "Feature", "id": "Y1LZT3OvrCbNL7R4VXeTGz9_u0I=", "properties": {"ref": "d02b8aa1-8dc2-4db5-92e4-9a5d1b428b51", "@spider": "the_gym_group_gb", "leisure": "fitness_centre", "addr:street_address": "Sunbury Cross, Staines Road West, Sunbury-on-Thames", "addr:city": "Surrey", "addr:postcode": "TW16 7BB", "addr:country": "GB", "name": "London Sunbury", "website": "https://www.thegymgroup.com/find-a-gym/south-london-gyms/sunbury/", "opening_hours": "24/7", "brand": "The Gym Group", "brand:wikidata": "Q48815022", "nsi_id": "thegym-2770cb"}, "geometry": {"type": "Point", "coordinates": [-0.421144, 51.418883]}},
{"type": "Feature", "id": "2hFf6M2iqCVc-F3WOBtfG3QXjps=", "properties": {"ref": "aa238fe7-ddec-4046-b855-7a2336cfb0f3", "@spider": "the_gym_group_gb", "leisure": "fitness_centre", "addr:street_address": "231 Wimbledon Park Road, Southfields, London", "addr:city": "Greater London", "addr:postcode": "SW18 5RJ", "addr:country": "GB", "name": "London Southfields", "website": "https://www.thegymgroup.com/find-a-gym/south-london-gyms/southfields/", "opening_hours": "24/7", "brand": "The Gym Group", "brand:wikidata": "Q48815022", "nsi_id": "thegym-2770cb"}, "geometry": {"type": "Point", "coordinates": [-0.205862, 51.445301]}},
{"type": "Feature", "id": "p2pgfk2r6LU_yohJZ2oUCqAEkEM=", "properties": {"ref": "0643401c-f83d-4515-bdee-ccbd80f7afeb", "@spider": "the_gym_group_gb", "leisure": "fitness_centre", "addr:street_address": "Units 2 & 3 The Old Dairy, Victoria Road,", "addr:postcode": "HA4 0FY", "addr:country": "GB", "name": "London South Ruislip", "website": "https://www.thegymgroup.com/find-a-gym/west-london-gyms/south-ruislip/", "opening_hours": "24/7", "brand": "The Gym Group", "brand:wikidata": "Q48815022", "nsi_id": "thegym-2770cb"}, "geometry": {"type": "Point", "coordinates": [-0.399641, 51.559274]}},
{"type": "Feature", "id": "mCkV-U63wiKebtIRkPVaAD_emHo=", "properties": {"ref": "cd5438b4-c809-4fc0-a59b-f01cebe03f11", "@spider": "the_gym_group_gb", "leisure": "fitness_centre", "addr:street_address": "Ground Floor, TRS Apartments The Green, Southall", "addr:city": "Greater London", "addr:postcode": "UB2 4FE", "addr:country": "GB", "name": "London Southall", "website": "https://www.thegymgroup.com/find-a-gym/west-london-gyms/southall/", "opening_hours": "24/7", "brand": "The Gym Group", "brand:wikidata": "Q48815022", "nsi_id": "thegym-2770cb"}, "geometry": {"type": "Point", "coordinates": [-0.379974, 51.504556]}},
{"type": "Feature", "id": "e22Ainurxbxm7pQl6d4s8XQpiZY=", "properties": {"ref": "1c041208-4aa7-4bd0-981a-fc8afc51998f", "@spider": "the_gym_group_gb", "leisure": "fitness_centre", "addr:street_address": "Units 1,2 & 3, 354-366 Pinner Road North Harrow, Middlesex", "addr:city": "Middlesex", "addr:postcode": "HA2 6DZ", "addr:country": "GB", "name": "London North Harrow", "website": "https://www.thegymgroup.com/find-a-gym/north-london-gyms/north-harrow/", "opening_hours": "24/7", "brand": "The Gym Group", "brand:wikidata": "Q48815022", "nsi_id": "thegym-2770cb"}, "geometry": {"type": "Point", "coordinates": [-0.36111, 51.586324]}},
{"type": "Feature", "id": "TgbPONRsO6jpuSJTDsoRcakqt3c=", "properties": {"ref": "3dc83ec8-a429-474a-bff5-6d4485c3e2e9", "@spider": "the_gym_group_gb", "leisure": "fitness_centre", "addr:street_address": "87 - 95 Rye Lane, Peckham", "addr:city": "Greater London", "addr:postcode": "SE15 5EX", "addr:country": "GB", "name": "London Peckham Rye", "website": "https://www.thegymgroup.com/find-a-gym/south-london-gyms/peckham-rye/", "opening_hours": "24/7", "brand": "The Gym Group", "brand:wikidata": "Q48815022", "nsi_id": "thegym-2770cb"}, "geometry": {"type": "Point", "coordinates": [-0.069269, 51.47136]}},
{"type": "Feature", "id": "HkE65M4iLn5O6WHdejelCh9gYKk=", "properties": {"ref": "f91758d3-1802-4364-8e37-a291adda86fc", "@spider": "the_gym_group_gb", "leisure": "fitness_centre", "addr:street_address": "Woodberry Down, Manor House", "addr:city": "Greater London", "addr:postcode": "N4 2TG", "addr:country": "GB", "name": "London Manor House", "website": "https://www.thegymgroup.com/find-a-gym/north-london-gyms/manor-house/", "opening_hours": "24/7", "brand": "The Gym Group", "brand:wikidata": "Q48815022", "nsi_id": "thegym-2770cb"}, "geometry": {"type": "Point", "coordinates": [-0.093663, 51.570868]}},
{"type": "Feature", "id": "LTNNm9ByK4XqwQyfMXfU90t9I3M=", "properties": {"ref": "66a96d56-f43d-403d-a41e-893fba902b23", "@spider": "the_gym_group_gb", "leisure": "fitness_centre", "addr:street_address": "83-89 Mile End Road, Tower Hamlets", "addr:city": "London", "addr:postcode": "E1 4UJ", "addr:country": "GB", "name": "London Stepney Green", "website": "https://www.thegymgroup.com/find-a-gym/east-london-gyms/london-stepney-green/", "opening_hours": "24/7", "brand": "The Gym Group", "brand:wikidata": "Q48815022", "nsi_id": "thegym-2770cb"}, "geometry": {"type": "Point", "coordinates": [-0.05208, 51.520947]}},
{"type": "Feature", "id": "jbAugdmMPlQSI-z2lKJ4kyMKorc=", "properties": {"ref": "85ac6543-2b8c-4a45-b0ab-df27810d28cc", "@spider": "the_gym_group_gb", "leisure": "fitness_centre", "addr:street_address": "Unit B3 \u2013 B5, 291-297 High Street, Sutton", "addr:postcode": "SM1 1DL", "addr:country": "GB", "name": "London Sutton", "website": "https://www.thegymgroup.com/find-a-gym/south-london-gyms/london-sutton/", "opening_hours": "24/7", "brand": "The Gym Group", "brand:wikidata": "Q48815022", "nsi_id": "thegym-2770cb"}, "geometry": {"type": "Point", "coordinates": [-0.195143, 51.368606]}},
{"type": "Feature", "id": "dOCa1K9v4EtSccRSSZvRJfu8XV8=", "properties": {"ref": "f5a5b1d2-b3c6-460a-9c37-f575717d33e9", "@spider": "the_gym_group_gb", "leisure": "fitness_centre", "addr:street_address": "Staples Corner, Brent Cross, London", "addr:postcode": "NW2 6LW", "addr:country": "GB", "name": "London Staples Corner", "website": "https://www.thegymgroup.com/find-a-gym/north-london-gyms/london-staples-corner/", "opening_hours": "24/7", "brand": "The Gym Group", "brand:wikidata": "Q48815022", "nsi_id": "thegym-2770cb"}, "geometry": {"type": "Point", "coordinates": [-0.23005734231097277, 51.5703956567832]}},
{"type": "Feature", "id": "NIKWcXEqFvKVN_r11zuoMvR6M3o=", "properties": {"ref": "551a84cb-8d7f-4953-95ed-527d9da6cb95", "@spider": "the_gym_group_gb", "leisure": "fitness_centre", "addr:street_address": "The Gym Group Paddington, 33 North Wharf Road\r\nMerchant Square", "addr:postcode": "W2 1LA", "addr:country": "GB", "name": "London Paddington", "website": "https://www.thegymgroup.com/find-a-gym/west-london-gyms/london-paddington/", "opening_hours": "24/7", "brand": "The Gym Group", "brand:wikidata": "Q48815022", "nsi_id": "thegym-2770cb"}, "geometry": {"type": "Point", "coordinates": [-0.17575, 51.51878]}},
{"type": "Feature", "id": "8EfM2-7yZOeQzGBvGTCfCbn-bhM=", "properties": {"ref": "d5ab1c79-7206-4d51-b38d-f0fd380b1cd7", "@spider": "the_gym_group_gb", "leisure": "fitness_centre", "addr:street_address": "The Gym Group Norbury, Fairview Road", "addr:city": "Norbury\n", "addr:postcode": "SW16 5PY", "addr:country": "GB", "name": "London Norbury", "website": "https://www.thegymgroup.com/find-a-gym/south-london-gyms/london-norbury/", "opening_hours": "24/7", "brand": "The Gym Group", "brand:wikidata": "Q48815022", "nsi_id": "thegym-2770cb"}, "geometry": {"type": "Point", "coordinates": [-0.12349, 51.4101]}},
{"type": "Feature", "id": "S0mTb4W0sOLGxzDITiHxbhMpC-o=", "properties": {"ref": "9b43165e-34c9-436b-aeaa-be5b0a6092fa", "@spider": "the_gym_group_gb", "leisure": "fitness_centre", "addr:street_address": "120 Oxford Street, Entrance on Wells Street", "addr:city": "London", "addr:postcode": "W1D 1LT", "addr:country": "GB", "name": "London Oxford Street", "website": "https://www.thegymgroup.com/find-a-gym/north-london-gyms/london-oxford-street/", "opening_hours": "Mo-Fr 06:00-22:00; Sa-Su 08:00-20:00", "brand": "The Gym Group", "brand:wikidata": "Q48815022", "nsi_id": "thegym-2770cb"}, "geometry": {"type": "Point", "coordinates": [-0.136987, 51.51631]}},
{"type": "Feature", "id": "cXth90CRBq9xGyh8lPaECKbsOqE=", "properties": {"ref": "828bfcf1-2c65-4bab-8ee9-38fb1bbc524a", "@spider": "the_gym_group_gb", "leisure": "fitness_centre", "addr:street_address": "Northern and Shell Building, 10 Lower Thames Street, London", "addr:postcode": "EC3R 6EN", "addr:country": "GB", "name": "London Monument", "website": "https://www.thegymgroup.com/find-a-gym/north-london-gyms/london-monument/", "opening_hours": "24/7", "brand": "The Gym Group", "brand:wikidata": "Q48815022", "nsi_id": "thegym-2770cb"}, "geometry": {"type": "Point", "coordinates": [-0.084987, 51.509046]}},
{"type": "Feature", "id": "J96wUnFtaYk2ZaRsSrxHvFB61Mo=", "properties": {"ref": "7b759b56-709c-4dd2-aa42-efec3a53c242", "@spider": "the_gym_group_gb", "leisure": "fitness_centre", "addr:street_address": "First Floor, 632-640 Kingsbury Road, London", "addr:city": "Greater London", "addr:postcode": "NW9 9HN", "addr:country": "GB", "name": "London Kingsbury", "website": "https://www.thegymgroup.com/find-a-gym/north-london-gyms/kingsbury/", "opening_hours": "24/7", "brand": "The Gym Group", "brand:wikidata": "Q48815022", "nsi_id": "thegym-2770cb"}, "geometry": {"type": "Point", "coordinates": [-0.279899, 51.585055]}},
{"type": "Feature", "id": "Krow2lA9jXbi_EAxxHVs9P2JaEY=", "properties": {"ref": "bfeb2e58-43a0-435d-be35-7af972bc65a3", "@spider": "the_gym_group_gb", "leisure": "fitness_centre", "addr:street_address": "Pioneer Point Building, 3-5 Winston Way, Ilford", "addr:city": "Ilford", "addr:postcode": "IG1 2ZG", "addr:country": "GB", "name": "London Ilford Pioneer Point", "website": "https://www.thegymgroup.com/find-a-gym/east-london-gyms/london-ilford-pioneer-point/", "opening_hours": "24/7", "brand": "The Gym Group", "brand:wikidata": "Q48815022", "nsi_id": "thegym-2770cb"}, "geometry": {"type": "Point", "coordinates": [0.070885, 51.556894]}},
{"type": "Feature", "id": "bvbol03Quk-C2Gmi4VkofcrPong=", "properties": {"ref": "e8de82e5-f400-42dd-a253-ac3e3954aaef", "@spider": "the_gym_group_gb", "leisure": "fitness_centre", "addr:street_address": "The Blenheim Centre, Prince Regent Road, Hounslow", "addr:city": "Middlesex", "addr:postcode": "TW3 1NL", "addr:country": "GB", "name": "London Hounslow", "website": "https://www.thegymgroup.com/find-a-gym/west-london-gyms/hounslow/", "opening_hours": "24/7", "brand": "The Gym Group", "brand:wikidata": "Q48815022", "nsi_id": "thegym-2770cb"}, "geometry": {"type": "Point", "coordinates": [-0.362633, 51.47075]}},
{"type": "Feature", "id": "147a2mkzFe-LUwSh5YRFSyhK6IQ=", "properties": {"ref": "1661e71f-ca90-4199-bea5-39de60ea60ca", "@spider": "the_gym_group_gb", "leisure": "fitness_centre", "addr:street_address": "Roding House, 970 Romford Road, Ilford", "addr:city": "Essex", "addr:postcode": "E12 5LP", "addr:country": "GB", "name": "London Ilford Romford Road", "website": "https://www.thegymgroup.com/find-a-gym/east-london-gyms/ilford-romford-road/", "opening_hours": "24/7", "brand": "The Gym Group", "brand:wikidata": "Q48815022", "nsi_id": "thegym-2770cb"}, "geometry": {"type": "Point", "coordinates": [0.065367, 51.555447]}},
{"type": "Feature", "id": "o7867vqyFsklhFF74wmmzBOapFY=", "properties": {"ref": "acb9b27e-e142-43dc-81b9-8c5e80fe2d67", "@spider": "the_gym_group_gb", "leisure": "fitness_centre", "addr:street_address": "1 Thavies Inn, Holborn, London", "addr:city": "Greater London", "addr:postcode": "EC4A 1AN", "addr:country": "GB", "name": "London Holborn Circus", "website": "https://www.thegymgroup.com/find-a-gym/north-london-gyms/holborn-circus/", "opening_hours": "24/7", "brand": "The Gym Group", "brand:wikidata": "Q48815022", "nsi_id": "thegym-2770cb"}, "geometry": {"type": "Point", "coordinates": [-0.107496, 51.51698]}},
{"type": "Feature", "id": "1L8MnNIRPlZzPTz5jIYUSQHXb2o=", "properties": {"ref": "cc15d962-1bab-439f-8599-566a12e971bc", "@spider": "the_gym_group_gb", "leisure": "fitness_centre", "addr:street_address": "Bradstowe House, Junction Road, Harrow", "addr:city": "Greater London", "addr:postcode": "HA1 1NL", "addr:country": "GB", "name": "London Harrow on the Hill", "website": "https://www.thegymgroup.com/find-a-gym/north-london-gyms/harrow-on-the-hill/", "opening_hours": "24/7", "brand": "The Gym Group", "brand:wikidata": "Q48815022", "nsi_id": "thegym-2770cb"}, "geometry": {"type": "Point", "coordinates": [-0.341093, 51.580896]}},
{"type": "Feature", "id": "gxqF52Lo7SU9oDkaFp22LIyUQtU=", "properties": {"ref": "c48353e0-e63e-4de2-bcfc-bfb4fe41905b", "@spider": "the_gym_group_gb", "leisure": "fitness_centre", "addr:street_address": "Leisure West Complex, Browells Ln, Feltham", "addr:city": "Middlesex", "addr:postcode": "TW13 7EQ", "addr:country": "GB", "name": "London Feltham", "website": "https://www.thegymgroup.com/find-a-gym/west-london-gyms/feltham/", "opening_hours": "24/7", "brand": "The Gym Group", "brand:wikidata": "Q48815022", "nsi_id": "thegym-2770cb"}, "geometry": {"type": "Point", "coordinates": [-0.405717, 51.443836]}},
{"type": "Feature", "id": "ZxrVLR6Air8kPvyUdvETNgcM1pM=", "properties": {"ref": "7140c7c6-5ad8-4e47-9a98-74b458f6f2d6", "@spider": "the_gym_group_gb", "leisure": "fitness_centre", "addr:street_address": "6 Suffolk House, George Street, Croydon", "addr:city": "Surrey", "addr:postcode": "CR0 1PE", "addr:country": "GB", "name": "London East Croydon", "website": "https://www.thegymgroup.com/find-a-gym/south-london-gyms/east-croydon/", "opening_hours": "24/7", "brand": "The Gym Group", "brand:wikidata": "Q48815022", "nsi_id": "thegym-2770cb"}, "geometry": {"type": "Point", "coordinates": [-0.095858, 51.374148]}},
{"type": "Feature", "id": "yVL22GJl0JsxNYsqiZBobtQh5AM=", "properties": {"ref": "56a053a5-9a19-4e94-95ec-707f870c505e", "@spider": "the_gym_group_gb", "leisure": "fitness_centre", "addr:street_address": "34 - 44 The North Mall, Edmonton Green", "addr:city": "Enfield", "addr:postcode": "N9 0EJ", "addr:country": "GB", "name": "London Edmonton Green", "website": "https://www.thegymgroup.com/find-a-gym/north-london-gyms/edmonton-green/", "opening_hours": "24/7", "brand": "The Gym Group", "brand:wikidata": "Q48815022", "nsi_id": "thegym-2770cb"}, "geometry": {"type": "Point", "coordinates": [-0.056454, 51.625425]}},
{"type": "Feature", "id": "pOI5ytbj9Iom2M3UUUJDkh7dJs0=", "properties": {"ref": "9ddfb7e3-629f-417d-a4bc-171ee0daff6f", "@spider": "the_gym_group_gb", "leisure": "fitness_centre", "addr:street_address": "Unit 13A The Orchards Shopping Centre, High Street, Dartford", "addr:city": "Kent", "addr:postcode": "DA1 1DN", "addr:country": "GB", "name": "Dartford", "website": "https://www.thegymgroup.com/find-a-gym/south-london-gyms/dartford/", "opening_hours": "24/7", "brand": "The Gym Group", "brand:wikidata": "Q48815022", "nsi_id": "thegym-2770cb"}, "geometry": {"type": "Point", "coordinates": [0.218945, 51.444986]}},
{"type": "Feature", "id": "KOEH5Lo1QIUXBZi0bKc3XUgwC2I=", "properties": {"ref": "d9b48278-4b74-41b5-b153-fe9fb172c368", "@spider": "the_gym_group_gb", "leisure": "fitness_centre", "addr:street_address": "Dagenham Leisure Park, Cook Road, Dagenham", "addr:city": "Greater London", "addr:postcode": "RM9 6UQ", "addr:country": "GB", "name": "Dagenham", "website": "https://www.thegymgroup.com/find-a-gym/east-london-gyms/dagenham/", "opening_hours": "24/7", "brand": "The Gym Group", "brand:wikidata": "Q48815022", "nsi_id": "thegym-2770cb"}, "geometry": {"type": "Point", "coordinates": [0.135741, 51.532487]}},
{"type": "Feature", "id": "vCVKvdorRVsi4GnFy0IKGwyjtbc=", "properties": {"ref": "d05f12fc-924a-4940-b35a-6be0266a077d", "@spider": "the_gym_group_gb", "leisure": "fitness_centre", "addr:street_address": "96-122 Uxbridge Road, Ealing", "addr:city": "London", "addr:postcode": "W13 8RA", "addr:country": "GB", "name": "London Ealing", "website": "https://www.thegymgroup.com/find-a-gym/west-london-gyms/ealing/", "opening_hours": "24/7", "brand": "The Gym Group", "brand:wikidata": "Q48815022", "nsi_id": "thegym-2770cb"}, "geometry": {"type": "Point", "coordinates": [-0.316718, 51.511593]}},
{"type": "Feature", "id": "U-RY4Z3264J1_SpZKxRZyaJb2sQ=", "properties": {"ref": "4881b3d1-c36d-4f65-94ab-09c8eb7fce03", "@spider": "the_gym_group_gb", "leisure": "fitness_centre", "addr:street_address": "6D Valley Leisure Park, Hesterman Way, Croydon", "addr:city": "Surrey", "addr:postcode": "CR0 4YA", "addr:country": "GB", "name": "London Croydon Purley Way", "website": "https://www.thegymgroup.com/find-a-gym/south-london-gyms/croydon-purley-way/", "opening_hours": "24/7", "brand": "The Gym Group", "brand:wikidata": "Q48815022", "nsi_id": "thegym-2770cb"}, "geometry": {"type": "Point", "coordinates": [-0.125661, 51.37733]}},
{"type": "Feature", "id": "BaUirTFuosfAbtb-vDN7E0hisXA=", "properties": {"ref": "4b44b191-7490-490c-b1d2-77a743056116", "@spider": "the_gym_group_gb", "leisure": "fitness_centre", "addr:street_address": "17-21 Northumberland Avenue, London", "addr:city": "Greater London", "addr:postcode": "WC2N 5EA", "addr:country": "GB", "name": "London Charing Cross", "website": "https://www.thegymgroup.com/find-a-gym/north-london-gyms/charing-cross/", "opening_hours": "Mo-Fr 06:00-22:00; Sa-Su 10:00-17:00", "brand": "The Gym Group", "brand:wikidata": "Q48815022", "nsi_id": "thegym-2770cb"}, "geometry": {"type": "Point", "coordinates": [-0.124959, 51.507152]}},
{"type": "Feature", "id": "4wpmmnGM1O1B4kiwpA4JaJG9hfU=", "properties": {"ref": "394f6a4c-cce8-473b-aad9-56fe9eb26954", "@spider": "the_gym_group_gb", "leisure": "fitness_centre", "addr:street_address": "Zenith House, Colindale", "addr:city": "Colindale", "addr:postcode": "NW9 6DB", "addr:country": "GB", "name": "London Colindale", "website": "https://www.thegymgroup.com/find-a-gym/north-london-gyms/colindale/", "opening_hours": "24/7", "brand": "The Gym Group", "brand:wikidata": "Q48815022", "nsi_id": "thegym-2770cb"}, "geometry": {"type": "Point", "coordinates": [-0.256613, 51.591733]}}]}