{"type":"FeatureCollection","features":[{"type": "Feature", "id": "KcqObUQ6iQLKrgSSXEzjHJHfayo=", "properties": {"ref": "1563", "@spider": "the_food_warehouse_gb", "shop": "supermarket", "addr:full": "Christchurch Road, Aberavon, Port Talbot, Wales, SA12 7BZ", "addr:postcode": "SA12 7BZ", "addr:country": "GB", "name": "Aberavon, Port Talbot", "phone": "01639 812480", "website": "https://www.thefoodwarehouse.com//store-locator/aberavon-port-talbot", "image": "https://assets.iceland.co.uk/i/iceland/tfw-storefront-image", "brand": "The Food Warehouse", "brand:wikidata": "Q87263899", "nsi_id": "thefoodwarehouse-a8278b"}, "geometry": {"type": "Point", "coordinates": [-3.804738, 51.605693]}},
{"type": "Feature", "id": "1iglN6zHoNmOa5KTOuDdkI1JLQo=", "properties": {"ref": "1495", "@spider": "the_food_warehouse_gb", "shop": "supermarket", "addr:full": "Unit 3, Eastgate Retail Park, Stanley Street, Accrington, Lancashire, BB5 6PW", "addr:postcode": "BB5 6PW", "addr:country": "GB", "name": "Accrington", "phone": "01254 372 679", "website": "https://www.thefoodwarehouse.com//store-locator/accrington", "image": "https://assets.iceland.co.uk/i/iceland/tfw-storefront-image", "brand": "The Food Warehouse", "brand:wikidata": "Q87263899", "nsi_id": "thefoodwarehouse-a8278b"}, "geometry": {"type": "Point", "coordinates": [-2.360716, 53.753971]}},
{"type": "Feature", "id": "Xr5UWv4RVj0SKc01gdxgJwVNPz0=", "properties": {"ref": "1573", "@spider": "the_food_warehouse_gb", "shop": "supermarket", "addr:full": "Unit BPortal Way, East Lancashire Road, Gillmoss, Liverpool, MerseysideL11 0JA", "addr:postcode": "EL11 0JA", "addr:country": "GB", "name": "Aintree, Liverpool", "phone": "0151 548 4840", "website": "https://www.thefoodwarehouse.com//store-locator/aintree-liverpool", "image": "https://assets.iceland.co.uk/i/iceland/tfw-storefront-image", "brand": "The Food Warehouse", "brand:wikidata": "Q87263899", "nsi_id": "thefoodwarehouse-a8278b"}, "geometry": {"type": "Point", "coordinates": [-2.895966, 53.464794]}},
{"type": "Feature", "id": "pmHPaiIegNr6LwhKL2bv088yW_g=", "properties": {"ref": "1636", "@spider": "the_food_warehouse_gb", "shop": "supermarket", "addr:full": "Airdrie Retail Park, Gartlea Road, Airdrie, Scotland, ML6 9JB", "addr:postcode": "ML6 9JB", "addr:country": "GB", "name": "Airdrie", "phone": "01236 769 751", "website": "https://www.thefoodwarehouse.com//store-locator/airdrie", "image": "https://assets.iceland.co.uk/i/iceland/tfw-storefront-image", "brand": "The Food Warehouse", "brand:wikidata": "Q87263899", "nsi_id": "thefoodwarehouse-a8278b"}, "geometry": {"type": "Point", "coordinates": [-3.978118, 55.863471]}},
{"type": "Feature", "id": "u7Esjw_eG-JuyUSOuo-N5XE20Dk=", "properties": {"ref": "1519", "@spider": "the_food_warehouse_gb", "shop": "supermarket", "addr:full": "Unit 17, Anlaby Retail Park, Springfield Way, Anlaby, Hull, Yorkshire, HU10 6RJ", "addr:postcode": "HU10 6RJ", "addr:country": "GB", "name": "Anlaby", "phone": "01482 504 647", "website": "https://www.thefoodwarehouse.com//store-locator/anlaby", "image": "https://assets.iceland.co.uk/i/iceland/tfw-storefront-image", "brand": "The Food Warehouse", "brand:wikidata": "Q87263899", "nsi_id": "thefoodwarehouse-a8278b"}, "geometry": {"type": "Point", "coordinates": [-0.424643, 53.748256]}},
{"type": "Feature", "id": "TnwPDbro4UVXPLdtmLUEGQ6io4g=", "properties": {"ref": "1514", "@spider": "the_food_warehouse_gb", "shop": "supermarket", "addr:full": "Unit 10, The Gerard Centre, Gerard Street, Ashton in Makerfield, Wigan, Greater Manchester, WN4 9AG", "addr:postcode": "WN4 9AG", "addr:country": "GB", "name": "Ashton in Makerfield", "phone": "01942 719 610", "website": "https://www.thefoodwarehouse.com//store-locator/ashton-in-makerfield", "image": "https://assets.iceland.co.uk/i/iceland/tfw-storefront-image", "brand": "The Food Warehouse", "brand:wikidata": "Q87263899", "nsi_id": "thefoodwarehouse-a8278b"}, "geometry": {"type": "Point", "coordinates": [-2.6393597, 53.4864679]}},
{"type": "Feature", "id": "87k-SP3CR5ieKQWunThxV7_Mqa4=", "properties": {"ref": "1560", "@spider": "the_food_warehouse_gb", "shop": "supermarket", "addr:full": "Unit B, South Bristol Retail Park, Winterstoke Road, Ashton Gate, Bristol, BS3 2LQ", "addr:postcode": "BS3 2LQ", "addr:country": "GB", "name": "Ashton Gate, South Bristol", "phone": "0117 9532 606", "website": "https://www.thefoodwarehouse.com//store-locator/ashton-gate-south-bristol", "image": "https://assets.iceland.co.uk/i/iceland/tfw-storefront-image", "brand": "The Food Warehouse", "brand:wikidata": "Q87263899", "nsi_id": "thefoodwarehouse-a8278b"}, "geometry": {"type": "Point", "coordinates": [-2.620596, 51.43847]}},
{"type": "Feature", "id": "spiLpi_fX7MaNRw-KXXXCbvuzss=", "properties": {"ref": "1521", "@spider": "the_food_warehouse_gb", "shop": "supermarket", "addr:full": "Auldhouse Retail Park, Glasgow, G43 1AP", "addr:postcode": "G43 1AP", "addr:country": "GB", "name": "Auldhouse", "phone": "0141 632 4806", "website": "https://www.thefoodwarehouse.com//store-locator/auldhouse", "image": "https://assets.iceland.co.uk/i/iceland/tfw-storefront-image", "brand": "The Food Warehouse", "brand:wikidata": "Q87263899", "nsi_id": "thefoodwarehouse-a8278b"}, "geometry": {"type": "Point", "coordinates": [-4.29876, 55.8215]}},
{"type": "Feature", "id": "3SE_vDLSrJWjOiILtNfQIGFxZzE=", "properties": {"ref": "1677", "@spider": "the_food_warehouse_gb", "shop": "supermarket", "addr:full": "Heathfield Retail Park, Liberator Drive, Ayr, KA8 9BF", "addr:postcode": "KA8 9BF", "addr:country": "GB", "name": "Ayr", "phone": "01292 282152", "website": "https://www.thefoodwarehouse.com//store-locator/ayr", "image": "https://assets.iceland.co.uk/i/iceland/tfw-storefront-image", "brand": "The Food Warehouse", "brand:wikidata": "Q87263899", "nsi_id": "thefoodwarehouse-a8278b"}, "geometry": {"type": "Point", "coordinates": [-4.594141, 55.480144]}},
{"type": "Feature", "id": "JJ1r9CQpULoaCAhn3ec-qpm00w0=", "properties": {"ref": "1582", "@spider": "the_food_warehouse_gb", "shop": "supermarket", "addr:full": "Station Road, Bamber Bridge, Preston, Lancashire, PR5 6LA", "addr:postcode": "PR5 6LA", "addr:country": "GB", "name": "Bamber Bridge", "phone": "01772 698 427", "website": "https://www.thefoodwarehouse.com//store-locator/bamber-bridge", "image": "https://assets.iceland.co.uk/i/iceland/tfw-storefront-image", "brand": "The Food Warehouse", "brand:wikidata": "Q87263899", "nsi_id": "thefoodwarehouse-a8278b"}, "geometry": {"type": "Point", "coordinates": [-2.660124, 53.728837]}},
{"type": "Feature", "id": "NKDFGeefBtldjvqVWHV68USYLAc=", "properties": {"ref": "1489", "@spider": "the_food_warehouse_gb", "shop": "supermarket", "addr:full": "Unit 3, Banbury Cross Retail Park, Banbury, Oxfordshire, OX16 1LX", "addr:postcode": "OX16 1LX", "addr:country": "GB", "name": "Banbury", "phone": "01295 265 297", "website": "https://www.thefoodwarehouse.com//store-locator/banbury", "image": "https://assets.iceland.co.uk/i/iceland/tfw-storefront-image", "brand": "The Food Warehouse", "brand:wikidata": "Q87263899", "nsi_id": "thefoodwarehouse-a8278b"}, "geometry": {"type": "Point", "coordinates": [-1.3452672, 52.0734987]}},
{"type": "Feature", "id": "5npkFPqMQlFy0fA4eBsB6Xc8oi0=", "properties": {"ref": "1537", "@spider": "the_food_warehouse_gb", "shop": "supermarket", "addr:full": "Unit 5The Peel CentreHarborough Hill Rd, BarnsleySouth Yorkshire, S71 1JE", "addr:postcode": "S71 1JE", "addr:country": "GB", "name": "Barnsley", "phone": "01226 296997", "website": "https://www.thefoodwarehouse.com//store-locator/barnsley", "image": "https://assets.iceland.co.uk/i/iceland/tfw-storefront-image", "brand": "The Food Warehouse", "brand:wikidata": "Q87263899", "nsi_id": "thefoodwarehouse-a8278b"}, "geometry": {"type": "Point", "coordinates": [-1.469893, 53.557963]}},
{"type": "Feature", "id": "9WpBm0ei_XxfbTNup3xNT3blCOQ=", "properties": {"ref": "1589", "@spider": "the_food_warehouse_gb", "shop": "supermarket", "addr:full": "Unit 3Anchor Wood Retail ParkAnchorwood Bank, Barnstaple, North Devon, EX31 2AA", "addr:postcode": "EX31 2AA", "addr:country": "GB", "name": "Barnstaple", "phone": "01271 326169", "website": "https://www.thefoodwarehouse.com//store-locator/barnstaple", "image": "https://assets.iceland.co.uk/i/iceland/tfw-storefront-image", "brand": "The Food Warehouse", "brand:wikidata": "Q87263899", "nsi_id": "thefoodwarehouse-a8278b"}, "geometry": {"type": "Point", "coordinates": [-4.062795, 51.077273]}},
{"type": "Feature", "id": "a2AKDJ6o5afm-xXwquGDmOKx1Sc=", "properties": {"ref": "1665", "@spider": "the_food_warehouse_gb", "shop": "supermarket", "addr:full": "Unit 4, St Michael's Retail Park, Basingstoke, Hampshire, RG22 4AN", "addr:postcode": "RG22 4AN", "addr:country": "GB", "name": "Basingstoke", "phone": "01256327930", "website": "https://www.thefoodwarehouse.com//store-locator/basingstoke", "image": "https://assets.iceland.co.uk/i/iceland/tfw-storefront-image", "brand": "The Food Warehouse", "brand:wikidata": "Q87263899", "nsi_id": "thefoodwarehouse-a8278b"}, "geometry": {"type": "Point", "coordinates": [-1.1091235, 51.2506048]}},
{"type": "Feature", "id": "VrIBji7p3cVHWkz73qaaR8bciq0=", "properties": {"ref": "1513", "@spider": "the_food_warehouse_gb", "shop": "supermarket", "addr:full": "Unit 6, Rock Retail Park, Birkenhead, Wirral, Merseyside, CH41 9DF<a href=\"https://www.google.co.uk/maps/@53.3871781, -3.0159361, 3a, 75y, 275.73h, 60.32t/data=!3m6!1e1!3m4!1sJC8eVpSjOq4AAAQvxYcW9w!2e0!7i13312!8i6656\" target=\"_blank\">Click here</a> for Google Street View from inside our store", "addr:postcode": "CH41 9DF", "addr:country": "GB", "name": "Birkenhead", "phone": "0151 666 2036", "website": "https://www.thefoodwarehouse.com//store-locator/birkenhead", "image": "https://assets.iceland.co.uk/i/iceland/tfw-storefront-image", "brand": "The Food Warehouse", "brand:wikidata": "Q87263899", "nsi_id": "thefoodwarehouse-a8278b"}, "geometry": {"type": "Point", "coordinates": [-3.0169052, 53.38626]}},
{"type": "Feature", "id": "hoKLFvHEpM7UFqwT8C6aL3vsiiQ=", "properties": {"ref": "1640", "@spider": "the_food_warehouse_gb", "shop": "supermarket", "addr:full": "Unit H, Blackpool Retail Park, Squires Gate Lane, Blackpool, FY4 3AW", "addr:postcode": "FY4 3AW", "addr:country": "GB", "name": "Blackpool", "phone": "01253 408844", "website": "https://www.thefoodwarehouse.com//store-locator/blackpool", "image": "https://assets.iceland.co.uk/i/iceland/tfw-storefront-image", "brand": "The Food Warehouse", "brand:wikidata": "Q87263899", "nsi_id": "thefoodwarehouse-a8278b"}, "geometry": {"type": "Point", "coordinates": [-3.031565, 53.780072]}},
{"type": "Feature", "id": "CmOBIS58xTa6EcmPm_QqXpnRdB4=", "properties": {"ref": "1539", "@spider": "the_food_warehouse_gb", "shop": "supermarket", "addr:full": "Unit B, Watling Street, Bletchley, Milton Keynes, Buckinghamshire, MK1 1YY.", "addr:postcode": "MK1 1YY", "addr:country": "GB", "name": "Bletchley", "phone": "01908 376 929", "website": "https://www.thefoodwarehouse.com//store-locator/bletchley", "image": "https://assets.iceland.co.uk/i/iceland/tfw-storefront-image", "brand": "The Food Warehouse", "brand:wikidata": "Q87263899", "nsi_id": "thefoodwarehouse-a8278b"}, "geometry": {"type": "Point", "coordinates": [-0.723973, 52.001789]}},
{"type": "Feature", "id": "zvs9DaeV4Tbec8gSS0pd_w09pMo=", "properties": {"ref": "1500", "@spider": "the_food_warehouse_gb", "shop": "supermarket", "addr:full": "Unit B, Breightmet Retail Park, 884 Bury Rd, Bolton, Lancashire, BL2 6PP", "addr:postcode": "BL2 6PP", "addr:country": "GB", "name": "Bolton", "phone": "01204 523 678 ", "website": "https://www.thefoodwarehouse.com//store-locator/bolton", "image": "https://assets.iceland.co.uk/i/iceland/tfw-storefront-image", "brand": "The Food Warehouse", "brand:wikidata": "Q87263899", "nsi_id": "thefoodwarehouse-a8278b"}, "geometry": {"type": "Point", "coordinates": [-2.423412, 53.572893]}},
{"type": "Feature", "id": "NFjuTvX2e6MQ9IGcmP5CY2e7AcM=", "properties": {"ref": "1518", "@spider": "the_food_warehouse_gb", "shop": "supermarket", "addr:full": "Unit 1, Boston Shopping Park, Horncastle Road, Boston, Lincolnshire, PE21 9BD", "addr:postcode": "PE21 9BD", "addr:country": "GB", "name": "Boston", "phone": "01205 317 458", "website": "https://www.thefoodwarehouse.com//store-locator/boston", "image": "https://assets.iceland.co.uk/i/iceland/tfw-storefront-image", "brand": "The Food Warehouse", "brand:wikidata": "Q87263899", "nsi_id": "thefoodwarehouse-a8278b"}, "geometry": {"type": "Point", "coordinates": [-0.0226737, 52.9809752]}},
{"type": "Feature", "id": "F9KY23ctB8jq_iAxVkji0pr-jjE=", "properties": {"ref": "1604", "@spider": "the_food_warehouse_gb", "shop": "supermarket", "addr:full": "Units 3-4Manningham Lane Retail Park, Manningham Lane, Bradford, West Yorkshire, BD1 3AH", "addr:postcode": "BD1 3AH", "addr:country": "GB", "name": "Bradford", "phone": "01274 304139", "website": "https://www.thefoodwarehouse.com//store-locator/bradford", "image": "https://assets.iceland.co.uk/i/iceland/tfw-storefront-image", "brand": "The Food Warehouse", "brand:wikidata": "Q87263899", "nsi_id": "thefoodwarehouse-a8278b"}, "geometry": {"type": "Point", "coordinates": [-1.75861, 53.798285]}},
{"type": "Feature", "id": "FgdTwUiAI_W6UKUEblAXae3lJTE=", "properties": {"ref": "1526", "@spider": "the_food_warehouse_gb", "shop": "supermarket", "addr:full": "Unit 2, Willow Brook Centre, Savages Wood Road, Bradley Stoke, Bristol, BS32 8BS", "addr:postcode": "BS32 8BS", "addr:country": "GB", "name": "Bradley Stoke", "phone": "01454 430 028", "website": "https://www.thefoodwarehouse.com//store-locator/bradley-stoke", "image": "https://assets.iceland.co.uk/i/iceland/tfw-storefront-image", "brand": "The Food Warehouse", "brand:wikidata": "Q87263899", "nsi_id": "thefoodwarehouse-a8278b"}, "geometry": {"type": "Point", "coordinates": [-2.549387, 51.535652]}},
{"type": "Feature", "id": "mFeIkGCVZtFLybJPyL0qxfiYNH4=", "properties": {"ref": "1590", "@spider": "the_food_warehouse_gb", "shop": "supermarket", "addr:full": "Units 1-4, Leggar Retail Park, Bridgwater, TA6 4AB", "addr:postcode": "TA6 4AB", "addr:country": "GB", "name": "Bridgwater", "phone": "01278 457376", "website": "https://www.thefoodwarehouse.com//store-locator/bridgwater", "image": "https://assets.iceland.co.uk/i/iceland/tfw-storefront-image", "brand": "The Food Warehouse", "brand:wikidata": "Q87263899", "nsi_id": "thefoodwarehouse-a8278b"}, "geometry": {"type": "Point", "coordinates": [-2.999126, 51.132835]}},
{"type": "Feature", "id": "rFGk2JSkshqjSJxcUErnqYlhqqg=", "properties": {"ref": "1529", "@spider": "the_food_warehouse_gb", "shop": "supermarket", "addr:full": "Unit B3Westwood Retail Park, Westwood Rd, Broadstairs, Thanet, Kent, CT10 2RQ", "addr:postcode": "CT10 2RQ", "addr:country": "GB", "name": "Broadstairs, Thanet", "phone": "01843 603 674", "website": "https://www.thefoodwarehouse.com//store-locator/broadstairs-thanet", "image": "https://assets.iceland.co.uk/i/iceland/tfw-storefront-image", "brand": "The Food Warehouse", "brand:wikidata": "Q87263899", "nsi_id": "thefoodwarehouse-a8278b"}, "geometry": {"type": "Point", "coordinates": [1.395537, 51.361852]}},
{"type": "Feature", "id": "ybrWBptjhGG6Phl2a8Zh_LmP0QM=", "properties": {"ref": "1611", "@spider": "the_food_warehouse_gb", "shop": "supermarket", "addr:full": "Unit 2, Bromsgrove Retail Park, Birmingham Road, Bromsgrove, Worcestershire, B61 0DD", "addr:postcode": "B61 0DD", "addr:country": "GB", "name": "Bromsgrove", "phone": "01527 871208", "website": "https://www.thefoodwarehouse.com//store-locator/bromsgrove", "image": "https://assets.iceland.co.uk/i/iceland/tfw-storefront-image", "brand": "The Food Warehouse", "brand:wikidata": "Q87263899", "nsi_id": "thefoodwarehouse-a8278b"}, "geometry": {"type": "Point", "coordinates": [-2.054657, 52.338706]}},
{"type": "Feature", "id": "7x_xFR5vWyYUiReKdzdh-IKJ3MY=", "properties": {"ref": "1658", "@spider": "the_food_warehouse_gb", "shop": "supermarket", "addr:full": "Park 66, Pilsworth, BL9 8RS", "addr:postcode": "BL9 8RS", "addr:country": "GB", "name": "Bury", "phone": "0161 767 8376", "website": "https://www.thefoodwarehouse.com//store-locator/bury", "image": "https://assets.iceland.co.uk/i/iceland/tfw-storefront-image", "brand": "The Food Warehouse", "brand:wikidata": "Q87263899", "nsi_id": "thefoodwarehouse-a8278b"}, "geometry": {"type": "Point", "coordinates": [-2.275871, 53.576358]}},
{"type": "Feature", "id": "S3GLAPkORE-xYGzRvNEwA__y1Fs=", "properties": {"ref": "1674", "@spider": "the_food_warehouse_gb", "shop": "supermarket", "addr:full": "Unit 5B, Newcastle Shopping Park, Byker, NE6 2UJ", "addr:postcode": "NE6 2UJ", "addr:country": "GB", "name": "Byker", "phone": "0191 228 9656", "website": "https://www.thefoodwarehouse.com//store-locator/byker", "image": "https://assets.iceland.co.uk/i/iceland/tfw-storefront-image", "brand": "The Food Warehouse", "brand:wikidata": "Q87263899", "nsi_id": "thefoodwarehouse-a8278b"}, "geometry": {"type": "Point", "coordinates": [-1.572582, 54.979095]}},
{"type": "Feature", "id": "vyATznHOnlHfkqoAWFbLGRPZtho=", "properties": {"ref": "1479", "@spider": "the_food_warehouse_gb", "shop": "supermarket", "addr:full": "Unit 5A, Linkway Ret Park, Watling Street, Cannock, Staffordshire, WS11 1TD", "addr:postcode": "WS11 1TD", "addr:country": "GB", "name": "Cannock", "phone": "01543 642 349", "website": "https://www.thefoodwarehouse.com//store-locator/cannock", "image": "https://assets.iceland.co.uk/i/iceland/tfw-storefront-image", "brand": "The Food Warehouse", "brand:wikidata": "Q87263899", "nsi_id": "thefoodwarehouse-a8278b"}, "geometry": {"type": "Point", "coordinates": [-2.0502103, 52.6784428]}},
{"type": "Feature", "id": "4MVmm2ZrSSs7gFFHnQ22-NWLQwU=", "properties": {"ref": "1547", "@spider": "the_food_warehouse_gb", "shop": "supermarket", "addr:full": "Cardiff Bay Retail Park, Ferry Road, Cardiff, Wales, CF11 0JR", "addr:postcode": "CF11 0JR", "addr:country": "GB", "name": "Cardiff Bay, Cardiff", "phone": "0292 0345 365", "website": "https://www.thefoodwarehouse.com//store-locator/cardiff-bay-cardiff", "image": "https://assets.iceland.co.uk/i/iceland/tfw-storefront-image", "brand": "The Food Warehouse", "brand:wikidata": "Q87263899", "nsi_id": "thefoodwarehouse-a8278b"}, "geometry": {"type": "Point", "coordinates": [-3.185985, 51.457867]}},
{"type": "Feature", "id": "fjFIHj3fyh2N5YnVsz2iP9I4JKo=", "properties": {"ref": "1605", "@spider": "the_food_warehouse_gb", "shop": "supermarket", "addr:full": "Unit L Gallagher Retail Park, Tewkesbury Road, Cheltenham, Gloucestershire, GL51 9RR", "addr:postcode": "GL51 9RR", "addr:country": "GB", "name": "Cheltenham", "phone": "01242 239 380", "website": "https://www.thefoodwarehouse.com//store-locator/cheltenham", "image": "https://assets.iceland.co.uk/i/iceland/tfw-storefront-image", "brand": "The Food Warehouse", "brand:wikidata": "Q87263899", "nsi_id": "thefoodwarehouse-a8278b"}, "geometry": {"type": "Point", "coordinates": [-2.103864, 51.916827]}},
{"type": "Feature", "id": "AYTIi-zdE1DCc3ueyVimxxaxbNA=", "properties": {"ref": "1525", "@spider": "the_food_warehouse_gb", "shop": "supermarket", "addr:full": "Unit A2 Barnfield Drive, Chichester, West Sussex, PO19 6UX", "addr:postcode": "PO19 6UX", "addr:country": "GB", "name": "Chichester", "phone": "01243 773 954", "website": "https://www.thefoodwarehouse.com//store-locator/chichester", "image": "https://assets.iceland.co.uk/i/iceland/tfw-storefront-image", "brand": "The Food Warehouse", "brand:wikidata": "Q87263899", "nsi_id": "thefoodwarehouse-a8278b"}, "geometry": {"type": "Point", "coordinates": [-0.762663, 50.846365]}},
{"type": "Feature", "id": "4RlKxQJop2lnyYkgCYHAvZLTj_g=", "properties": {"ref": "1572", "@spider": "the_food_warehouse_gb", "shop": "supermarket", "addr:full": "Unit A1, Stone Lake Retail Park, Woolwich Rd, Greenwich, London, SE7 8LU", "addr:postcode": "SE7 8LU", "addr:country": "GB", "name": "Charlton", "phone": "0208 853 2541", "website": "https://www.thefoodwarehouse.com//store-locator/charlton", "image": "https://assets.iceland.co.uk/i/iceland/tfw-storefront-image", "brand": "The Food Warehouse", "brand:wikidata": "Q87263899", "nsi_id": "thefoodwarehouse-a8278b"}, "geometry": {"type": "Point", "coordinates": [0.034124, 51.489566]}},
{"type": "Feature", "id": "20dVKbfwffgUbCtYZ2bMesOF_K8=", "properties": {"ref": "1501", "@spider": "the_food_warehouse_gb", "shop": "supermarket", "addr:full": "City Link Retail Park, Newport Road, Cardiff, Wales, CF24 1PQ", "addr:postcode": "CF24 1PQ", "addr:country": "GB", "name": "City Link, Cardiff", "phone": "02921 320 433", "website": "https://www.thefoodwarehouse.com//store-locator/city-link-cardiff", "image": "https://assets.iceland.co.uk/i/iceland/tfw-storefront-image", "brand": "The Food Warehouse", "brand:wikidata": "Q87263899", "nsi_id": "thefoodwarehouse-a8278b"}, "geometry": {"type": "Point", "coordinates": [-3.1474647, 51.4926118]}},
{"type": "Feature", "id": "NZfsPslIl79Uxn2aNC-MuWkbnQI=", "properties": {"ref": "1528", "@spider": "the_food_warehouse_gb", "shop": "supermarket", "addr:full": "Unit 6 Clydebank Retail Park, Livingstone St, Clydebank, Glasgow, G81 2XA", "addr:postcode": "G81 2XA", "addr:country": "GB", "name": "Clydebank", "phone": "0141 9527 840", "website": "https://www.thefoodwarehouse.com//store-locator/clydebank", "image": "https://assets.iceland.co.uk/i/iceland/tfw-storefront-image", "brand": "The Food Warehouse", "brand:wikidata": "Q87263899", "nsi_id": "thefoodwarehouse-a8278b"}, "geometry": {"type": "Point", "coordinates": [-4.395917, 55.903929]}},
{"type": "Feature", "id": "9lcM2j-NtabgQg-qcDR7jUQVgyc=", "properties": {"ref": "1561", "@spider": "the_food_warehouse_gb", "shop": "supermarket", "addr:full": "Unit 3, Faraday Retail Park, Oxford Street, Coatbridge, Glasgow, Scotland, ML5 3SQ", "addr:postcode": "ML5 3SQ", "addr:country": "GB", "name": "Coatbridge", "phone": "01236 426 296", "website": "https://www.thefoodwarehouse.com//store-locator/coatbridge", "image": "https://assets.iceland.co.uk/i/iceland/tfw-storefront-image", "brand": "The Food Warehouse", "brand:wikidata": "Q87263899", "nsi_id": "thefoodwarehouse-a8278b"}, "geometry": {"type": "Point", "coordinates": [-4.022411, 55.858453]}},
{"type": "Feature", "id": "CH_hwsuWMa_Vo7Px6phdAvFL7ps=", "properties": {"ref": "1545", "@spider": "the_food_warehouse_gb", "shop": "supermarket", "addr:full": "Unit 1, Peel Retail Park, Phoenix Park Way, Corby, Northampton, NN17 5DT", "addr:postcode": "NN17 5DT", "addr:country": "GB", "name": "Corby", "phone": "01536 268 086", "website": "https://www.thefoodwarehouse.com//store-locator/corby", "image": "https://assets.iceland.co.uk/i/iceland/tfw-storefront-image", "brand": "The Food Warehouse", "brand:wikidata": "Q87263899", "nsi_id": "thefoodwarehouse-a8278b"}, "geometry": {"type": "Point", "coordinates": [-0.682188, 52.495557]}},
{"type": "Feature", "id": "n4PhFrjixA661wIW3lJRX3LjVaM=", "properties": {"ref": "1542", "@spider": "the_food_warehouse_gb", "shop": "supermarket", "addr:full": "Unit 3, Cross Hands Retail Park, Llandeilo Road, Cross Hands (Village) - Llanelli, Carmarthenshire, SA14 6NB", "addr:postcode": "SA14 6NB", "addr:country": "GB", "name": "Cross Hands, Llanelli", "phone": "01269 083 1546", "website": "https://www.thefoodwarehouse.com//store-locator/cross-hands-llanelli", "image": "https://assets.iceland.co.uk/i/iceland/tfw-storefront-image", "brand": "The Food Warehouse", "brand:wikidata": "Q87263899", "nsi_id": "thefoodwarehouse-a8278b"}, "geometry": {"type": "Point", "coordinates": [-4.084643, 51.79632]}},
{"type": "Feature", "id": "3oq0MBJeNpcT9FAwERTjZY561NY=", "properties": {"ref": "1670", "@spider": "the_food_warehouse_gb", "shop": "supermarket", "addr:full": "Unit 2, Crown Street Retail Park, Glasgow, G5 0DP", "addr:postcode": "G5 0DP", "addr:country": "GB", "name": "Crown Street Glasgow", "phone": "01414 297396", "website": "https://www.thefoodwarehouse.com//store-locator/crown-street-glasgow", "image": "https://assets.iceland.co.uk/i/iceland/tfw-storefront-image", "brand": "The Food Warehouse", "brand:wikidata": "Q87263899", "nsi_id": "thefoodwarehouse-a8278b"}, "geometry": {"type": "Point", "coordinates": [-4.24793, 55.85194]}},
{"type": "Feature", "id": "PHYiE7T7iZSJ79G36yBokpahGnc=", "properties": {"ref": "1663", "@spider": "the_food_warehouse_gb", "shop": "supermarket", "addr:full": "Cumbernauld Retail Park, Westfield Road, North Lanarkshire, G68 9NE", "addr:postcode": "G68 9NE", "addr:country": "GB", "name": "Cumbernauld", "phone": "07719 956139", "website": "https://www.thefoodwarehouse.com//store-locator/cumbernauld", "image": "https://assets.iceland.co.uk/i/iceland/tfw-storefront-image", "brand": "The Food Warehouse", "brand:wikidata": "Q87263899", "nsi_id": "thefoodwarehouse-a8278b"}, "geometry": {"type": "Point", "coordinates": [-4.032297, 55.942216]}},
{"type": "Feature", "id": "-t7RSkKVkFf6vNBC9n1kPqgQl70=", "properties": {"ref": "1435", "@spider": "the_food_warehouse_gb", "shop": "supermarket", "addr:full": "Unit 5 Centurion Retail Park, York Road, Doncaster, Yorkshire, DN5 9TP", "addr:postcode": "DN5 9TP", "addr:country": "GB", "name": "Doncaster", "phone": "01302 215 357", "website": "https://www.thefoodwarehouse.com//store-locator/doncaster", "image": "https://assets.iceland.co.uk/i/iceland/tfw-storefront-image", "brand": "The Food Warehouse", "brand:wikidata": "Q87263899", "nsi_id": "thefoodwarehouse-a8278b"}, "geometry": {"type": "Point", "coordinates": [-1.1484829, 53.5314775]}},
{"type": "Feature", "id": "3qNiY1mVmCAu9-1arIy5L-ZCDMg=", "properties": {"ref": "1566", "@spider": "the_food_warehouse_gb", "shop": "supermarket", "addr:full": "St. James Retail Park, Dover, Kent (County), CT16 1JR", "addr:postcode": "CT16 1JR", "addr:country": "GB", "name": "Dover", "phone": "01304 207172", "website": "https://www.thefoodwarehouse.com//store-locator/dover", "image": "https://assets.iceland.co.uk/i/iceland/tfw-storefront-image", "brand": "The Food Warehouse", "brand:wikidata": "Q87263899", "nsi_id": "thefoodwarehouse-a8278b"}, "geometry": {"type": "Point", "coordinates": [1.315769, 51.124698]}},
{"type": "Feature", "id": "HogLjhNNaCBvozMPuw8RzFbadXk=", "properties": {"ref": "1557", "@spider": "the_food_warehouse_gb", "shop": "supermarket", "addr:full": "Unit 2 Peel Retail Park, Stafford Street, Wolverhampton, West Midlands, WV1 1NT", "addr:postcode": "WV1 1NT", "addr:country": "GB", "name": "Dunstall Hill, Wolverhampton", "phone": "01902 423961", "website": "https://www.thefoodwarehouse.com//store-locator/dunstall-hill-wolverhampton", "image": "https://assets.iceland.co.uk/i/iceland/tfw-storefront-image", "brand": "The Food Warehouse", "brand:wikidata": "Q87263899", "nsi_id": "thefoodwarehouse-a8278b"}, "geometry": {"type": "Point", "coordinates": [-2.125406, 52.593851]}},
{"type": "Feature", "id": "GGKFSZiSTjEyZUzYZV_cUTbBQIc=", "properties": {"ref": "1548", "@spider": "the_food_warehouse_gb", "shop": "supermarket", "addr:full": "Unit 10, West One Retail Park, Eccles New Rd, Eccles, Salford, Greater Manchester, M50 1ZD", "addr:postcode": "M50 1ZD", "addr:country": "GB", "name": "Eccles", "phone": "01617 073 944", "website": "https://www.thefoodwarehouse.com//store-locator/eccles", "image": "https://assets.iceland.co.uk/i/iceland/tfw-storefront-image", "brand": "The Food Warehouse", "brand:wikidata": "Q87263899", "nsi_id": "thefoodwarehouse-a8278b"}, "geometry": {"type": "Point", "coordinates": [-2.328031, 53.483356]}},
{"type": "Feature", "id": "mYZto2kVo1s68rewkm4bgycXeQw=", "properties": {"ref": "1675", "@spider": "the_food_warehouse_gb", "shop": "supermarket", "addr:full": "Unit 3, Elgin Retail Park, Elgin, Moray, IV30 6WQ", "addr:postcode": "IV30 6WQ", "addr:country": "GB", "name": "Elgin", "phone": "01343 555231", "website": "https://www.thefoodwarehouse.com//store-locator/elgin", "image": "https://assets.iceland.co.uk/i/iceland/tfw-storefront-image", "brand": "The Food Warehouse", "brand:wikidata": "Q87263899", "nsi_id": "thefoodwarehouse-a8278b"}, "geometry": {"type": "Point", "coordinates": [-3.3118092, 57.6405097]}},
{"type": "Feature", "id": "CdFFNx6rLW0frN_rUooafhLaZCY=", "properties": {"ref": "1540", "@spider": "the_food_warehouse_gb", "shop": "supermarket", "addr:full": "56-58 Mercer Walk The Port Arcades, Mercer Walk, Cheshire CH65 OAP", "addr:postcode": "CH65 0AP", "addr:country": "GB", "name": "Ellesmere Port", "phone": "01513 556 992", "website": "https://www.thefoodwarehouse.com//store-locator/ellesmere-port", "image": "https://assets.iceland.co.uk/i/iceland/tfw-storefront-image", "brand": "The Food Warehouse", "brand:wikidata": "Q87263899", "nsi_id": "thefoodwarehouse-a8278b"}, "geometry": {"type": "Point", "coordinates": [-2.900088, 53.277786]}},
{"type": "Feature", "id": "Pz7a2Wtc7xYFXXQlrW8-RGTvlcA=", "properties": {"ref": "1607", "@spider": "the_food_warehouse_gb", "shop": "supermarket", "addr:full": "Flintshire Retail Park, Holywell Road, Flint, Flintshire, CH6 5GB", "addr:postcode": "CH6 5GB", "addr:country": "GB", "name": "Flint", "phone": "01352731286", "website": "https://www.thefoodwarehouse.com//store-locator/flint", "image": "https://assets.iceland.co.uk/i/iceland/tfw-storefront-image", "brand": "The Food Warehouse", "brand:wikidata": "Q87263899", "nsi_id": "thefoodwarehouse-a8278b"}, "geometry": {"type": "Point", "coordinates": [-3.1390648, 53.2507096]}},
{"type": "Feature", "id": "URgmr_rvD-WQyIzqW3P3Tlf1VMM=", "properties": {"ref": "1599", "@spider": "the_food_warehouse_gb", "shop": "supermarket", "addr:full": "Unit 5, The Henge Retail & Leisure Park, North Street, Glenrothes, Fife, Scotland, KY7 5PP", "addr:postcode": "KY7 5PP", "addr:country": "GB", "name": "Glenrothes", "phone": "01592 752323", "website": "https://www.thefoodwarehouse.com//store-locator/glenrothes", "image": "https://assets.iceland.co.uk/i/iceland/tfw-storefront-image", "brand": "The Food Warehouse", "brand:wikidata": "Q87263899", "nsi_id": "thefoodwarehouse-a8278b"}, "geometry": {"type": "Point", "coordinates": [-3.172629, 56.197413]}},
{"type": "Feature", "id": "lMNeutdDubnI_PkgEbYzzo-mzTI=", "properties": {"ref": "1556", "@spider": "the_food_warehouse_gb", "shop": "supermarket", "addr:full": "3A The Peel Centre, St Ann Way, Gloucester, GL1 5SF", "addr:postcode": "GL1 5SF", "addr:country": "GB", "name": "Gloucester Quays, Gloucester", "phone": "01452 505 762", "website": "https://www.thefoodwarehouse.com//store-locator/gloucester-quays-gloucester", "image": "https://assets.iceland.co.uk/i/iceland/tfw-storefront-image", "brand": "The Food Warehouse", "brand:wikidata": "Q87263899", "nsi_id": "thefoodwarehouse-a8278b"}, "geometry": {"type": "Point", "coordinates": [-2.251817, 51.858505]}},
{"type": "Feature", "id": "1PbktuSPhhTeT1e-Y9pie_ewxY0=", "properties": {"ref": "1588", "@spider": "the_food_warehouse_gb", "shop": "supermarket", "addr:full": "Unit 4, Edinburgh West Retail Park, Chesser Ave, Edinburgh, EH14 1RJ", "addr:postcode": "EH14 1RJ", "addr:country": "GB", "name": "Gorgie, Edinburgh", "phone": "0131 443 8927", "website": "https://www.thefoodwarehouse.com//store-locator/gorgie-edinburgh", "image": "https://assets.iceland.co.uk/i/iceland/tfw-storefront-image", "brand": "The Food Warehouse", "brand:wikidata": "Q87263899", "nsi_id": "thefoodwarehouse-a8278b"}, "geometry": {"type": "Point", "coordinates": [-3.247295, 55.929295]}},
{"type": "Feature", "id": "ZZsRgnA2titSZfrdRUkLXBHE2D4=", "properties": {"ref": "1568", "@spider": "the_food_warehouse_gb", "shop": "supermarket", "addr:full": "Unit 6, Brockhurst Gate Retail Park, Hampshire, PO13 0AF", "addr:postcode": "PO13 0AF", "addr:country": "GB", "name": "Gosport", "phone": "02392 523 410", "website": "https://www.thefoodwarehouse.com//store-locator/gosport", "image": "https://assets.iceland.co.uk/i/iceland/tfw-storefront-image", "brand": "The Food Warehouse", "brand:wikidata": "Q87263899", "nsi_id": "thefoodwarehouse-a8278b"}, "geometry": {"type": "Point", "coordinates": [-1.156913, 50.81697]}},
{"type": "Feature", "id": "tdLGnAJbAh70fqy77RsNdUi6K5A=", "properties": {"ref": "1516", "@spider": "the_food_warehouse_gb", "shop": "supermarket", "addr:full": "Unit C1, Gapton Hall Shopping Park, Gapton Hall Rd, Great Yarmouth, Norfolk, NR31 0LZ", "addr:postcode": "NR31 0LZ", "addr:country": "GB", "name": "Great Yarmouth", "phone": "01493 657 499", "website": "https://www.thefoodwarehouse.com//store-locator/great-yarmouth", "image": "https://assets.iceland.co.uk/i/iceland/tfw-storefront-image", "brand": "The Food Warehouse", "brand:wikidata": "Q87263899", "nsi_id": "thefoodwarehouse-a8278b"}, "geometry": {"type": "Point", "coordinates": [1.710918, 52.593804]}},
{"type": "Feature", "id": "k9LcPLnUEqsClIslDUs51aKXJVY=", "properties": {"ref": "1517", "@spider": "the_food_warehouse_gb", "shop": "supermarket", "addr:full": "Unit D, Alexandra Dock Retail Park, Alexandra Road, Grimsby, South Humberside, DN31 1SG", "addr:postcode": "DN31 1SG", "addr:country": "GB", "name": "Grimsby", "phone": "01472 362 618", "website": "https://www.thefoodwarehouse.com//store-locator/grimsby", "image": "https://assets.iceland.co.uk/i/iceland/tfw-storefront-image", "brand": "The Food Warehouse", "brand:wikidata": "Q87263899", "nsi_id": "thefoodwarehouse-a8278b"}, "geometry": {"type": "Point", "coordinates": [-0.085246, 53.572093]}},
{"type": "Feature", "id": "NEjhOLNHYtWG7ag_K6Z53uGLQ7E=", "properties": {"ref": "1660", "@spider": "the_food_warehouse_gb", "shop": "supermarket", "addr:full": "Unit 1, Century Retail Park, Hanley, Staffordshire, ST1 5QQ", "addr:postcode": "ST1 5QQ", "addr:country": "GB", "name": "Hanley", "phone": "01782 287433", "website": "https://www.thefoodwarehouse.com//store-locator/hanley", "image": "https://assets.iceland.co.uk/i/iceland/tfw-storefront-image", "brand": "The Food Warehouse", "brand:wikidata": "Q87263899", "nsi_id": "thefoodwarehouse-a8278b"}, "geometry": {"type": "Point", "coordinates": [-2.185954, 53.026102]}},
{"type": "Feature", "id": "oFQJ7mvUKfV8TvbQMqyqjRYpbD0=", "properties": {"ref": "1661", "@spider": "the_food_warehouse_gb", "shop": "supermarket", "addr:full": "The Oaks Retail Park, Harlow, Essex, CM20 2AB", "addr:postcode": "CM20 2AB", "addr:country": "GB", "name": "Harlow", "phone": "01279412511", "website": "https://www.thefoodwarehouse.com//store-locator/harlow", "image": "https://assets.iceland.co.uk/i/iceland/tfw-storefront-image", "brand": "The Food Warehouse", "brand:wikidata": "Q87263899", "nsi_id": "thefoodwarehouse-a8278b"}, "geometry": {"type": "Point", "coordinates": [0.109486, 51.782077]}},
{"type": "Feature", "id": "Gp1u8_MekT0CMlzBKWLWH9lws-8=", "properties": {"ref": "1684", "@spider": "the_food_warehouse_gb", "shop": "supermarket", "addr:full": "Heanor Retail Park, Heanor, Derbyshire, DE75 7EX", "addr:postcode": "DE75 7EX", "addr:country": "GB", "name": "Heanor", "phone": "01773 718909", "website": "https://www.thefoodwarehouse.com//store-locator/heanor", "image": "https://assets.iceland.co.uk/i/iceland/tfw-storefront-image", "brand": "The Food Warehouse", "brand:wikidata": "Q87263899", "nsi_id": "thefoodwarehouse-a8278b"}, "geometry": {"type": "Point", "coordinates": [-1.356957, 53.015789]}},
{"type": "Feature", "id": "dEyr6NJ0a-delCtmBvEZsKUe_q8=", "properties": {"ref": "1647", "@spider": "the_food_warehouse_gb", "shop": "supermarket", "addr:full": "Unit 4, Great Northern Retail Park, Leeds Road, Huddersfield, HD1 6ND.", "addr:postcode": "HD1 6ND", "addr:country": "GB", "name": "Huddersfield", "phone": "01484 435137", "website": "https://www.thefoodwarehouse.com//store-locator/huddersfield", "image": "https://assets.iceland.co.uk/i/iceland/tfw-storefront-image", "brand": "The Food Warehouse", "brand:wikidata": "Q87263899", "nsi_id": "thefoodwarehouse-a8278b"}, "geometry": {"type": "Point", "coordinates": [-1.777912, 53.653082]}},
{"type": "Feature", "id": "QhcgCw67fzCOxrAECwllh92kzc4=", "properties": {"ref": "1672", "@spider": "the_food_warehouse_gb", "shop": "supermarket", "addr:full": "Units 5B & 5C Kingston Retail Park, Humberside, HU1 2QQ", "addr:postcode": "HU1 2QQ", "addr:country": "GB", "name": "Hull", "phone": "01482 327386", "website": "https://www.thefoodwarehouse.com//store-locator/hull", "image": "https://assets.iceland.co.uk/i/iceland/tfw-storefront-image", "brand": "The Food Warehouse", "brand:wikidata": "Q87263899", "nsi_id": "thefoodwarehouse-a8278b"}, "geometry": {"type": "Point", "coordinates": [-0.343885, 53.739018]}},
{"type": "Feature", "id": "5Jxy_iHypzrK1GQDU4a1BQ3c3As=", "properties": {"ref": "1552", "@spider": "the_food_warehouse_gb", "shop": "supermarket", "addr:full": "Unit 2, Manchester Road Retail Park, Manchester Road, Hyde, Stockport, SK14 2BD.", "addr:postcode": "SK14 2BD", "addr:country": "GB", "name": "Hyde", "phone": "0161 3661 292", "website": "https://www.thefoodwarehouse.com//store-locator/hyde", "image": "https://assets.iceland.co.uk/i/iceland/tfw-storefront-image", "brand": "The Food Warehouse", "brand:wikidata": "Q87263899", "nsi_id": "thefoodwarehouse-a8278b"}, "geometry": {"type": "Point", "coordinates": [-2.083795, 53.452199]}},
{"type": "Feature", "id": "X-YyyrySN3FdFGlVtOk8oka1UyU=", "properties": {"ref": "1594", "@spider": "the_food_warehouse_gb", "shop": "supermarket", "addr:full": "Unit 68, The Peel Centre, Whitebirk Dr, Hyndburn, Blackburn, Lancashire, BB1 3HT.", "addr:postcode": "BB1 3HT", "addr:country": "GB", "name": "Hyndburn", "phone": "01254 699554", "website": "https://www.thefoodwarehouse.com//store-locator/hyndburn", "image": "https://assets.iceland.co.uk/i/iceland/tfw-storefront-image", "brand": "The Food Warehouse", "brand:wikidata": "Q87263899", "nsi_id": "thefoodwarehouse-a8278b"}, "geometry": {"type": "Point", "coordinates": [-2.445672, 53.759103]}},
{"type": "Feature", "id": "9PMmnCW2LtLk_eiLrVwbluzlfjA=", "properties": {"ref": "1654", "@spider": "the_food_warehouse_gb", "shop": "supermarket", "addr:full": "Unit 18, Euro Retail Park, Ipswich, IP3 9SN", "addr:postcode": "IP3 9SN", "addr:country": "GB", "name": "Ipswich Euro", "phone": "01473 712128", "website": "https://www.thefoodwarehouse.com//store-locator/ipswich-euro", "image": "https://assets.iceland.co.uk/i/iceland/tfw-storefront-image", "brand": "The Food Warehouse", "brand:wikidata": "Q87263899", "nsi_id": "thefoodwarehouse-a8278b"}, "geometry": {"type": "Point", "coordinates": [1.205321, 52.03325]}},
{"type": "Feature", "id": "uTfHGHfGbbOwR6aP45Th9Tgc5Cs=", "properties": {"ref": "1659", "@spider": "the_food_warehouse_gb", "shop": "supermarket", "addr:full": "Suffolk Retail Park, London Road, Ipswich, IP1 2EJ", "addr:postcode": "IP1 2EJ", "addr:country": "GB", "name": "Ipswich Suffolk", "phone": "01473 230585", "website": "https://www.thefoodwarehouse.com//store-locator/ipswich-suffolk", "image": "https://assets.iceland.co.uk/i/iceland/tfw-storefront-image", "brand": "The Food Warehouse", "brand:wikidata": "Q87263899", "nsi_id": "thefoodwarehouse-a8278b"}, "geometry": {"type": "Point", "coordinates": [1.136336, 52.060375]}},
{"type": "Feature", "id": "Ae6nwt0RQEC6h5N5_g2L56NkaE0=", "properties": {"ref": "1648", "@spider": "the_food_warehouse_gb", "shop": "supermarket", "addr:full": "Unit 3, Riverway Retail Park, Irvine, KA12 8AY", "addr:postcode": "KA12 8AY", "addr:country": "GB", "name": "Irvine", "phone": "01294 272948", "website": "https://www.thefoodwarehouse.com//store-locator/irvine", "image": "https://assets.iceland.co.uk/i/iceland/tfw-storefront-image", "brand": "The Food Warehouse", "brand:wikidata": "Q87263899", "nsi_id": "thefoodwarehouse-a8278b"}, "geometry": {"type": "Point", "coordinates": [-4.671864, 55.610134]}},
{"type": "Feature", "id": "bWzzzkpTMVmjF0_3J6uyAiQ6das=", "properties": {"ref": "1657", "@spider": "the_food_warehouse_gb", "shop": "supermarket", "addr:full": "Units 1&2 Belgrave Retail Park, <br/>Kettering, <br/>NN16 9TS", "addr:postcode": "NN16 9TS", "addr:country": "GB", "name": "Kettering", "phone": "01536 512787", "website": "https://www.thefoodwarehouse.com//store-locator/kettering", "image": "https://assets.iceland.co.uk/i/iceland/tfw-storefront-image", "brand": "The Food Warehouse", "brand:wikidata": "Q87263899", "nsi_id": "thefoodwarehouse-a8278b"}, "geometry": {"type": "Point", "coordinates": [-0.736206, 52.402578]}},
{"type": "Feature", "id": "pLxgMeR7WyKuH7M1B8i25QkiK4E=", "properties": {"ref": "1698", "@spider": "the_food_warehouse_gb", "shop": "supermarket", "addr:full": "Unit 6, Glencairn Retail Park, Kilmarnock, KA1 4AY", "addr:postcode": "KA1 4AY", "addr:country": "GB", "name": "Kilmarnock", "phone": "01563522980", "website": "https://www.thefoodwarehouse.com//store-locator/kilmarnock", "image": "https://assets.iceland.co.uk/i/iceland/tfw-storefront-image", "brand": "The Food Warehouse", "brand:wikidata": "Q87263899", "nsi_id": "thefoodwarehouse-a8278b"}, "geometry": {"type": "Point", "coordinates": [-4.5010435, 55.5989646]}},
{"type": "Feature", "id": "0cG1tZKkqpoVOnJpOazxkMoH7ks=", "properties": {"ref": "1645", "@spider": "the_food_warehouse_gb", "shop": "supermarket", "addr:full": "Unit 4Hardwick Retail Park, Kings Lynn, PE30 4NA", "addr:postcode": "PE30 4NA", "addr:country": "GB", "name": "Kings Lynn", "phone": "01553 775436", "website": "https://www.thefoodwarehouse.com//store-locator/kings-lynn", "image": "https://assets.iceland.co.uk/i/iceland/tfw-storefront-image", "brand": "The Food Warehouse", "brand:wikidata": "Q87263899", "nsi_id": "thefoodwarehouse-a8278b"}, "geometry": {"type": "Point", "coordinates": [0.41346, 52.737162]}},
{"type": "Feature", "id": "NYJp6VGGLV1OYj-YQcFHllXy_Xc=", "properties": {"ref": "1535", "@spider": "the_food_warehouse_gb", "shop": "supermarket", "addr:full": "Unit 4Kingston Retail Park, Brunton Ln, Kingston Park, Newcastle upon Tyne, Tyne and Wear, NE3 2ES", "addr:postcode": "NE3 2ES", "addr:country": "GB", "name": "Kingston Park, Newcastle", "phone": "01912 862 394", "website": "https://www.thefoodwarehouse.com//store-locator/kingston-park-newcastle", "image": "https://assets.iceland.co.uk/i/iceland/tfw-storefront-image", "brand": "The Food Warehouse", "brand:wikidata": "Q87263899", "nsi_id": "thefoodwarehouse-a8278b"}, "geometry": {"type": "Point", "coordinates": [-1.66744, 55.01093]}},
{"type": "Feature", "id": "HnBQ-btK7MIKQvJ-Z0sm_X8FsKU=", "properties": {"ref": "1484", "@spider": "the_food_warehouse_gb", "shop": "supermarket", "addr:full": "Unit 5 Kingsway Ret Park, Wallhead Rd, Rochdale, Greater Manchester, OL16 5AF", "addr:postcode": "OL16 5AF", "addr:country": "GB", "name": "Kingsway Park, Rochdale", "phone": "01706 559 152", "website": "https://www.thefoodwarehouse.com//store-locator/kingsway-park-rochdale", "image": "https://assets.iceland.co.uk/i/iceland/tfw-storefront-image", "brand": "The Food Warehouse", "brand:wikidata": "Q87263899", "nsi_id": "thefoodwarehouse-a8278b"}, "geometry": {"type": "Point", "coordinates": [-2.1315119, 53.6152065]}},
{"type": "Feature", "id": "WUOc8-U_ZnT2wcwD1I9bcRb3vb8=", "properties": {"ref": "1508", "@spider": "the_food_warehouse_gb", "shop": "supermarket", "addr:full": "Unit 6, Kirkstall Shopping Park, Bridge Road, Kirkstall, Leeds, Yorkshire, LS5 3BL", "addr:postcode": "LS5 3BL", "addr:country": "GB", "name": "Kirkstall", "phone": "0113 274 3500", "website": "https://www.thefoodwarehouse.com//store-locator/kirkstall", "image": "https://assets.iceland.co.uk/i/iceland/tfw-storefront-image", "brand": "The Food Warehouse", "brand:wikidata": "Q87263899", "nsi_id": "thefoodwarehouse-a8278b"}, "geometry": {"type": "Point", "coordinates": [-1.607786, 53.8171438]}},
{"type": "Feature", "id": "W_NGxYSqvjnKj0B34x2EYaS3TSo=", "properties": {"ref": "1673", "@spider": "the_food_warehouse_gb", "shop": "supermarket", "addr:full": "Junction One Retail Park, Beeston Ring Road, Leeds, LS11 0BD", "addr:postcode": "LS11 0BD", "addr:country": "GB", "name": "Leeds", "phone": "07719 956137", "website": "https://www.thefoodwarehouse.com//store-locator/leeds", "image": "https://assets.iceland.co.uk/i/iceland/tfw-storefront-image", "brand": "The Food Warehouse", "brand:wikidata": "Q87263899", "nsi_id": "thefoodwarehouse-a8278b"}, "geometry": {"type": "Point", "coordinates": [-1.58262, 53.77331]}},
{"type": "Feature", "id": "cQSraqYr4_V2140HBSOa-sqHNBY=", "properties": {"ref": "1667", "@spider": "the_food_warehouse_gb", "shop": "supermarket", "addr:full": "Parsonage Retail Park, Leigh, Greater Manchester, WN7 5SJ", "addr:postcode": "WN7 5SJ", "addr:country": "GB", "name": "Leigh", "phone": "01942 262646", "website": "https://www.thefoodwarehouse.com//store-locator/leigh", "image": "https://assets.iceland.co.uk/i/iceland/tfw-storefront-image", "brand": "The Food Warehouse", "brand:wikidata": "Q87263899", "nsi_id": "thefoodwarehouse-a8278b"}, "geometry": {"type": "Point", "coordinates": [-2.527767, 53.499533]}},
{"type": "Feature", "id": "JWuZb-7sX063kKdClfjZ4jkpWPk=", "properties": {"ref": "1507", "@spider": "the_food_warehouse_gb", "shop": "supermarket", "addr:full": "Unit 6BNorth Quay Retail ParkPeto Way, LowestoftSuffolk, Cambridgeshire, NR32 2ED", "addr:postcode": "NR32 2ED", "addr:country": "GB", "name": "Lowestoft", "phone": "01502 521814", "website": "https://www.thefoodwarehouse.com//store-locator/lowestoft", "image": "https://assets.iceland.co.uk/i/iceland/tfw-storefront-image", "brand": "The Food Warehouse", "brand:wikidata": "Q87263899", "nsi_id": "thefoodwarehouse-a8278b"}, "geometry": {"type": "Point", "coordinates": [1.733373, 52.477838]}},
{"type": "Feature", "id": "UcdHDZ1yuOikPgBoolwMweH4kQ4=", "properties": {"ref": "1576", "@spider": "the_food_warehouse_gb", "shop": "supermarket", "addr:full": "Luton Retail ParkGipsy Ln, LutonBedfordshire, LU1 3JH", "addr:postcode": "LU1 3JH", "addr:country": "GB", "name": "Luton", "phone": "01582 731 468", "website": "https://www.thefoodwarehouse.com//store-locator/luton", "image": "https://assets.iceland.co.uk/i/iceland/tfw-storefront-image", "brand": "The Food Warehouse", "brand:wikidata": "Q87263899", "nsi_id": "thefoodwarehouse-a8278b"}, "geometry": {"type": "Point", "coordinates": [-0.398141, 51.873429]}},
{"type": "Feature", "id": "gjCUmQXuq7g720Y1cknmoDMW3J8=", "properties": {"ref": "1538", "@spider": "the_food_warehouse_gb", "shop": "supermarket", "addr:full": "Unit 1B London Road Retail Park, London Rd, Maidstone, Kent, Canterbury, ME16 ODT", "addr:postcode": "ME16 0DT", "addr:country": "GB", "name": "Maidstone", "phone": "01622 673659", "website": "https://www.thefoodwarehouse.com//store-locator/maidstone", "image": "https://assets.iceland.co.uk/i/iceland/tfw-storefront-image", "brand": "The Food Warehouse", "brand:wikidata": "Q87263899", "nsi_id": "thefoodwarehouse-a8278b"}, "geometry": {"type": "Point", "coordinates": [0.509143, 51.278763]}},
{"type": "Feature", "id": "w2V1RBDYwErbWDj1HzvCG8hZb1I=", "properties": {"ref": "1504", "@spider": "the_food_warehouse_gb", "shop": "supermarket", "addr:full": "Unit F, Meadowhall Retail Park, Attercliffe Common, Meadowhall, Sheffield, South Yorkshire, S9 2YZ", "addr:postcode": "S9 2YZ", "addr:country": "GB", "name": "Meadowhall", "phone": "01142 617 343", "website": "https://www.thefoodwarehouse.com//store-locator/meadowhall", "image": "https://assets.iceland.co.uk/i/iceland/tfw-storefront-image", "brand": "The Food Warehouse", "brand:wikidata": "Q87263899", "nsi_id": "thefoodwarehouse-a8278b"}, "geometry": {"type": "Point", "coordinates": [-1.4137461, 53.4046891]}},
{"type": "Feature", "id": "j2JcTF09T1SfxpiSmvF3-g5TqF8=", "properties": {"ref": "1527", "@spider": "the_food_warehouse_gb", "shop": "supermarket", "addr:full": "Unit A2Havenshead Retail Park, Milford Haven, PembrokeshireSA73 3AU", "addr:postcode": "SA73 3AU", "addr:country": "GB", "name": "Milford Haven", "phone": "01646 698 982", "website": "https://www.thefoodwarehouse.com//store-locator/milford-haven", "image": "https://assets.iceland.co.uk/i/iceland/tfw-storefront-image", "brand": "The Food Warehouse", "brand:wikidata": "Q87263899", "nsi_id": "thefoodwarehouse-a8278b"}, "geometry": {"type": "Point", "coordinates": [-5.04262, 51.715892]}},
{"type": "Feature", "id": "icKl1zCPWC8WWgz81_KhJ0y7C_0=", "properties": {"ref": "1689", "@spider": "the_food_warehouse_gb", "shop": "supermarket", "addr:full": "Chester Road, Flintshire, CH7 1UF", "addr:postcode": "CH7 1UF", "addr:country": "GB", "name": "Mold", "phone": "01352 755177", "website": "https://www.thefoodwarehouse.com//store-locator/mold", "image": "https://assets.iceland.co.uk/i/iceland/tfw-storefront-image", "brand": "The Food Warehouse", "brand:wikidata": "Q87263899", "nsi_id": "thefoodwarehouse-a8278b"}, "geometry": {"type": "Point", "coordinates": [-3.13347, 53.167158]}},
{"type": "Feature", "id": "SBcWJo8uzf6DcGzeMnLzB7MFB7w=", "properties": {"ref": "1617", "@spider": "the_food_warehouse_gb", "shop": "supermarket", "addr:full": "Unit 228 East Retail ParkNewportNP20 2NN", "addr:postcode": "NP20 2NN", "addr:country": "GB", "name": "Newport", "phone": "01633 244958", "website": "https://www.thefoodwarehouse.com//store-locator/newport", "image": "https://assets.iceland.co.uk/i/iceland/tfw-storefront-image", "brand": "The Food Warehouse", "brand:wikidata": "Q87263899", "nsi_id": "thefoodwarehouse-a8278b"}, "geometry": {"type": "Point", "coordinates": [-2.998867, 51.568662]}},
{"type": "Feature", "id": "Jhn6WLNIaSinCHDvIqpxEl7QHG4=", "properties": {"ref": "1666", "@spider": "the_food_warehouse_gb", "shop": "supermarket", "addr:full": "Unit 3Longwood Retail ParkCounty AntrimBT37 9UF", "addr:postcode": "BT37 9UF", "addr:country": "GB", "name": "Newtownabbey", "phone": "02890 365 933", "website": "https://www.thefoodwarehouse.com//store-locator/newtownabbey", "image": "https://assets.iceland.co.uk/i/iceland/tfw-storefront-image", "brand": "The Food Warehouse", "brand:wikidata": "Q87263899", "nsi_id": "thefoodwarehouse-a8278b"}, "geometry": {"type": "Point", "coordinates": [-5.91836, 54.65239]}},
{"type": "Feature", "id": "_FU6XNKecCr-0JKLQSdSE0oxu38=", "properties": {"ref": "1531", "@spider": "the_food_warehouse_gb", "shop": "supermarket", "addr:full": "Unit 2, Lindis Retail Park, Tritton Road, Lincoln, East Midlands, LN6 7JL", "addr:postcode": "LN6 7JL", "addr:country": "GB", "name": "North Hykeham, Lincoln", "phone": "01522 696 904", "website": "https://www.thefoodwarehouse.com//store-locator/north-hykeham-lincoln", "image": "https://assets.iceland.co.uk/i/iceland/tfw-storefront-image", "brand": "The Food Warehouse", "brand:wikidata": "Q87263899", "nsi_id": "thefoodwarehouse-a8278b"}, "geometry": {"type": "Point", "coordinates": [-0.581094, 53.203247]}},
{"type": "Feature", "id": "k8Kq7oJGSUI-fs4q9ITkWIu1Gm4=", "properties": {"ref": "1581", "@spider": "the_food_warehouse_gb", "shop": "supermarket", "addr:full": "Unit 6Coast Road Retail Park, Norham Rd, North Shields, Newcastle upon Tyne, Tyne and Wear, NE29 7UJ", "addr:postcode": "NE29 7UJ", "addr:country": "GB", "name": "North Shields, Newcastle", "phone": "0191 259 1098", "website": "https://www.thefoodwarehouse.com//store-locator/north-shields-newcastle", "image": "https://assets.iceland.co.uk/i/iceland/tfw-storefront-image", "brand": "The Food Warehouse", "brand:wikidata": "Q87263899", "nsi_id": "thefoodwarehouse-a8278b"}, "geometry": {"type": "Point", "coordinates": [-1.483679, 55.011327]}},
{"type": "Feature", "id": "e-U0TQFUCcKQhqoRZtlb9J7l-0c=", "properties": {"ref": "1603", "@spider": "the_food_warehouse_gb", "shop": "supermarket", "addr:full": "Unit 9, Oldbury Green Retail Park, Oldbury Ringway, Oldbury, Sandwell, West Midlands, B69 3DD", "addr:postcode": "B69 3DD", "addr:country": "GB", "name": "Oldbury", "phone": "0121 544 6391", "website": "https://www.thefoodwarehouse.com//store-locator/oldbury", "image": "https://assets.iceland.co.uk/i/iceland/tfw-storefront-image", "brand": "The Food Warehouse", "brand:wikidata": "Q87263899", "nsi_id": "thefoodwarehouse-a8278b"}, "geometry": {"type": "Point", "coordinates": [-2.021008, 52.504697]}},
{"type": "Feature", "id": "eredhqx20vOTk6ajWSwOlXnKhsU=", "properties": {"ref": "1499", "@spider": "the_food_warehouse_gb", "shop": "supermarket", "addr:full": "Unit B2, Alexandra Centre Ret Park, Park Road, Oldham, Sunbury upon Thames, Greater Manchester, OL4 1SA", "addr:postcode": "OL4 1SA", "addr:country": "GB", "name": "Oldham", "phone": "0161 6220 815", "website": "https://www.thefoodwarehouse.com//store-locator/oldham", "image": "https://assets.iceland.co.uk/i/iceland/tfw-storefront-image", "brand": "The Food Warehouse", "brand:wikidata": "Q87263899", "nsi_id": "thefoodwarehouse-a8278b"}, "geometry": {"type": "Point", "coordinates": [-2.1131233, 53.5373487]}},
{"type": "Feature", "id": "Mm8iJy4EgDAEXcN-AYst9gX8ZIc=", "properties": {"ref": "1477", "@spider": "the_food_warehouse_gb", "shop": "supermarket", "addr:full": "789/799 Old Kent Road, Old Kent Road, London, Greater London, SE15 1NZ", "addr:postcode": "SE15 1NZ", "addr:country": "GB", "name": "Old Kent Road", "phone": "02036 329 018", "website": "https://www.thefoodwarehouse.com//store-locator/old-kent-road", "image": "https://assets.iceland.co.uk/i/iceland/tfw-storefront-image", "brand": "The Food Warehouse", "brand:wikidata": "Q87263899", "nsi_id": "thefoodwarehouse-a8278b"}, "geometry": {"type": "Point", "coordinates": [-0.0596724, 51.4801957]}},
{"type": "Feature", "id": "1haXmBqzvhZu7wPaAFxNwRLAw3c=", "properties": {"ref": "1532", "@spider": "the_food_warehouse_gb", "shop": "supermarket", "addr:full": "Hattersley Retail Park, Hattersley Way, Ormskirk, West Lancashire, L39 2XF", "addr:postcode": "L39 2XF", "addr:country": "GB", "name": "Ormskirk", "phone": "01695 575 118", "website": "https://www.thefoodwarehouse.com//store-locator/ormskirk", "image": "https://assets.iceland.co.uk/i/iceland/tfw-storefront-image", "brand": "The Food Warehouse", "brand:wikidata": "Q87263899", "nsi_id": "thefoodwarehouse-a8278b"}, "geometry": {"type": "Point", "coordinates": [-2.879169, 53.572368]}},
{"type": "Feature", "id": "mNUFP690Q-49yP-zhdj-G8OI6ew=", "properties": {"ref": "1554", "@spider": "the_food_warehouse_gb", "shop": "supermarket", "addr:full": "Ortongate Shopping Centre, Orton Goldhay, Peterborough, Cambridgeshire, PE2 5TD", "addr:postcode": "PE2 5TD", "addr:country": "GB", "name": "Orton", "phone": "01733 231 947", "website": "https://www.thefoodwarehouse.com//store-locator/orton", "image": "https://assets.iceland.co.uk/i/iceland/tfw-storefront-image", "brand": "The Food Warehouse", "brand:wikidata": "Q87263899", "nsi_id": "thefoodwarehouse-a8278b"}, "geometry": {"type": "Point", "coordinates": [-0.30173, 52.543139]}},
{"type": "Feature", "id": "Oyfpd6QzBTsZjrzYPHUddWUCjCo=", "properties": {"ref": "1685", "@spider": "the_food_warehouse_gb", "shop": "supermarket", "addr:full": "Devonshire Retail Park, Long Road, Paignton, Devon, TQ4 7TQ", "addr:postcode": "TQ4 7TQ", "addr:country": "GB", "name": "Paignton", "phone": "01803 557367", "website": "https://www.thefoodwarehouse.com//store-locator/paignton", "image": "https://assets.iceland.co.uk/i/iceland/tfw-storefront-image", "brand": "The Food Warehouse", "brand:wikidata": "Q87263899", "nsi_id": "thefoodwarehouse-a8278b"}, "geometry": {"type": "Point", "coordinates": [-3.583291, 50.416087]}},
{"type": "Feature", "id": "CkR8_5Kk9KG8iinfVDkp_zK-kkU=", "properties": {"ref": "1565", "@spider": "the_food_warehouse_gb", "shop": "supermarket", "addr:full": "Unit 5C Parc Tawe Retail Park, Swansea, Wales, SA1 2AL", "addr:postcode": "SA1 2AL", "addr:country": "GB", "name": "Parc Tawe, Swansea", "phone": "01792 480 478", "website": "https://www.thefoodwarehouse.com//store-locator/parc-tawe-swansea", "image": "https://assets.iceland.co.uk/i/iceland/tfw-storefront-image", "brand": "The Food Warehouse", "brand:wikidata": "Q87263899", "nsi_id": "thefoodwarehouse-a8278b"}, "geometry": {"type": "Point", "coordinates": [-3.9410898, 51.6220039]}},
{"type": "Feature", "id": "Y4nsj3Oxo0wM7UJlNmtCoJWfpgI=", "properties": {"ref": "1584", "@spider": "the_food_warehouse_gb", "shop": "supermarket", "addr:full": "Unit 4, One Stop Shopping Centre, Walsall Road, Perry Barr, Birmingham, West Midlands, B42 1AA", "addr:postcode": "B42 1AA", "addr:country": "GB", "name": "Perry Barr, Birmingham", "phone": "0121 356 1264", "website": "https://www.thefoodwarehouse.com//store-locator/perry-barr-birmingham", "image": "https://assets.iceland.co.uk/i/iceland/tfw-storefront-image", "brand": "The Food Warehouse", "brand:wikidata": "Q87263899", "nsi_id": "thefoodwarehouse-a8278b"}, "geometry": {"type": "Point", "coordinates": [-1.906233, 52.518195]}},
{"type": "Feature", "id": "ZNu3EPA2Dgqug9PGw2prPjr-0w0=", "properties": {"ref": "1646", "@spider": "the_food_warehouse_gb", "shop": "supermarket", "addr:full": "Unit 9 St Catherines Retail Park, Perth, PH1 5XA", "addr:postcode": "PH1 5XA", "addr:country": "GB", "name": "Perth", "phone": "01738 638976", "website": "https://www.thefoodwarehouse.com//store-locator/perth", "image": "https://assets.iceland.co.uk/i/iceland/tfw-storefront-image", "brand": "The Food Warehouse", "brand:wikidata": "Q87263899", "nsi_id": "thefoodwarehouse-a8278b"}, "geometry": {"type": "Point", "coordinates": [-3.442629, 56.40005]}},
{"type": "Feature", "id": "ZdeVwA42XJkG3kwKebA6dE1fvcg=", "properties": {"ref": "1461", "@spider": "the_food_warehouse_gb", "shop": "supermarket", "addr:full": "Unit 4b, Midway Retail Park, Upper Boat, Pontypridd, Wales, CF37 5BL", "addr:postcode": "CF37 5BL", "addr:country": "GB", "name": "Pontypridd", "phone": "01443 844 353", "website": "https://www.thefoodwarehouse.com//store-locator/pontypridd", "image": "https://assets.iceland.co.uk/i/iceland/tfw-storefront-image", "brand": "The Food Warehouse", "brand:wikidata": "Q87263899", "nsi_id": "thefoodwarehouse-a8278b"}, "geometry": {"type": "Point", "coordinates": [-3.2925347, 51.5786513]}},
{"type": "Feature", "id": "oNiVINMDc5HM6zmrvOLdgozW5ts=", "properties": {"ref": "1680", "@spider": "the_food_warehouse_gb", "shop": "supermarket", "addr:full": "Tower Retail Park, Yarrow Road, Poole, BH12 4QY", "addr:postcode": "BH12 4QY", "addr:country": "GB", "name": "Poole", "phone": "01202 742097", "website": "https://www.thefoodwarehouse.com//store-locator/poole", "image": "https://assets.iceland.co.uk/i/iceland/tfw-storefront-image", "brand": "The Food Warehouse", "brand:wikidata": "Q87263899", "nsi_id": "thefoodwarehouse-a8278b"}, "geometry": {"type": "Point", "coordinates": [-1.954311, 50.744157]}},
{"type": "Feature", "id": "s4PKC3rNzW2sQ_EYXQrPbJAENfg=", "properties": {"ref": "1597", "@spider": "the_food_warehouse_gb", "shop": "supermarket", "addr:full": "Unit 6, Gallagher Retail Park, Port Glasgow, Inverclyde, Renfrewshire, PA14 5DX", "addr:postcode": "PA14 5DX", "addr:country": "GB", "name": "Port Glasgow", "phone": "01475 742129", "website": "https://www.thefoodwarehouse.com//store-locator/port-glasgow", "image": "https://assets.iceland.co.uk/i/iceland/tfw-storefront-image", "brand": "The Food Warehouse", "brand:wikidata": "Q87263899", "nsi_id": "thefoodwarehouse-a8278b"}, "geometry": {"type": "Point", "coordinates": [-4.697713, 55.935826]}},
{"type": "Feature", "id": "3l5GvKFNvyyponjzii5ZZcwwLJk=", "properties": {"ref": "1595", "@spider": "the_food_warehouse_gb", "shop": "supermarket", "addr:full": "Queens Park Shopping Centre, Queen Street, Preston, PR1 4HZ", "addr:postcode": "PR1 4HZ", "addr:country": "GB", "name": "Preston", "phone": "01772 563 835", "website": "https://www.thefoodwarehouse.com//store-locator/preston", "image": "https://assets.iceland.co.uk/i/iceland/tfw-storefront-image", "brand": "The Food Warehouse", "brand:wikidata": "Q87263899", "nsi_id": "thefoodwarehouse-a8278b"}, "geometry": {"type": "Point", "coordinates": [-2.690467, 53.760142]}},
{"type": "Feature", "id": "a53rZyZ76wz9Xl1OU-VuWrSliXg=", "properties": {"ref": "1503", "@spider": "the_food_warehouse_gb", "shop": "supermarket", "addr:full": "Unit C1, Reading Link Retail Park, Rose Kiln Ln, Reading, Berkshire, RG2 0SN", "addr:postcode": "RG2 0SN", "addr:country": "GB", "name": "Reading Link", "phone": "01189 590 072", "website": "https://www.thefoodwarehouse.com//store-locator/reading-link", "image": "https://assets.iceland.co.uk/i/iceland/tfw-storefront-image", "brand": "The Food Warehouse", "brand:wikidata": "Q87263899", "nsi_id": "thefoodwarehouse-a8278b"}, "geometry": {"type": "Point", "coordinates": [-0.9791095, 51.4437201]}},
{"type": "Feature", "id": "5UzG9N2Ftj6Szx5jENT4_VNe_wo=", "properties": {"ref": "1510", "@spider": "the_food_warehouse_gb", "shop": "supermarket", "addr:full": "Unit 4, Avonmead Retail Park, St Philips Causeway, Redcliffe, Bristol, BS2 0SP", "addr:postcode": "BS2 0SP", "addr:country": "GB", "name": "Redcliffe", "phone": "01173 296 287", "website": "https://www.thefoodwarehouse.com//store-locator/redcliffe", "image": "https://assets.iceland.co.uk/i/iceland/tfw-storefront-image", "brand": "The Food Warehouse", "brand:wikidata": "Q87263899", "nsi_id": "thefoodwarehouse-a8278b"}, "geometry": {"type": "Point", "coordinates": [-2.5876208, 51.4556513]}},
{"type": "Feature", "id": "Nv8RjtjBeRuYZl6BFAnrwKqmYI8=", "properties": {"ref": "1613", "@spider": "the_food_warehouse_gb", "shop": "supermarket", "addr:full": "Robroyston Retail Park, Glasgow, G33 1AD", "addr:postcode": "G33 1AD", "addr:country": "GB", "name": "Robroyston", "phone": "0141 557 0363", "website": "https://www.thefoodwarehouse.com//store-locator/robroyston", "image": "https://assets.iceland.co.uk/i/iceland/tfw-storefront-image", "brand": "The Food Warehouse", "brand:wikidata": "Q87263899", "nsi_id": "thefoodwarehouse-a8278b"}, "geometry": {"type": "Point", "coordinates": [-4.182812, 55.891114]}},
{"type": "Feature", "id": "wL0jbewpCnh0kkYG3YffT7KYbc8=", "properties": {"ref": "1536", "@spider": "the_food_warehouse_gb", "shop": "supermarket", "addr:full": "Junction One Retail Park, Leicester Road, Rugby, Warwickshire, CV21 1RW", "addr:postcode": "CV21 1RW", "addr:country": "GB", "name": "Rugby", "phone": "01788 562 706", "website": "https://www.thefoodwarehouse.com//store-locator/rugby", "image": "https://assets.iceland.co.uk/i/iceland/tfw-storefront-image", "brand": "The Food Warehouse", "brand:wikidata": "Q87263899", "nsi_id": "thefoodwarehouse-a8278b"}, "geometry": {"type": "Point", "coordinates": [-1.2591074, 52.3851216]}},
{"type": "Feature", "id": "9LuC2yrmPFnIy7tx-bJykIGkNsc=", "properties": {"ref": "1574", "@spider": "the_food_warehouse_gb", "shop": "supermarket", "addr:full": "Gilston Road, Saltash, Cornwall.PL12 6TW.", "addr:postcode": "PL12 6TW", "addr:country": "GB", "name": "Saltash", "phone": "01752 847623", "website": "https://www.thefoodwarehouse.com//store-locator/saltash", "image": "https://assets.iceland.co.uk/i/iceland/tfw-storefront-image", "brand": "The Food Warehouse", "brand:wikidata": "Q87263899", "nsi_id": "thefoodwarehouse-a8278b"}, "geometry": {"type": "Point", "coordinates": [-4.23396, 50.417338]}},
{"type": "Feature", "id": "eSlky0REgDngIdQyfa9t0RTBC7c=", "properties": {"ref": "1693", "@spider": "the_food_warehouse_gb", "shop": "supermarket", "addr:full": "Lakeside Retail Park, Lakeside Parkway, North Lincolnshire, DN16 3UA", "addr:postcode": "DN16 3UA", "addr:country": "GB", "name": "Scunthorpe", "phone": "01724852187", "website": "https://www.thefoodwarehouse.com//store-locator/scunthorpe", "image": "https://assets.iceland.co.uk/i/iceland/tfw-storefront-image", "brand": "The Food Warehouse", "brand:wikidata": "Q87263899", "nsi_id": "thefoodwarehouse-a8278b"}, "geometry": {"type": "Point", "coordinates": [-0.616751, 53.564793]}},
{"type": "Feature", "id": "I0OZ5TjKNCYKBIAYuBC97bUOV_k=", "properties": {"ref": "1555", "@spider": "the_food_warehouse_gb", "shop": "supermarket", "addr:full": "Battery Retail Park, Chapel Lane, Selly Oak, Birmingham, West Midlands, B29 6SJ", "addr:postcode": "B29 6SJ", "addr:country": "GB", "name": "Selly Oak", "phone": "01214 727 636", "website": "https://www.thefoodwarehouse.com//store-locator/selly-oak", "image": "https://assets.iceland.co.uk/i/iceland/tfw-storefront-image", "brand": "The Food Warehouse", "brand:wikidata": "Q87263899", "nsi_id": "thefoodwarehouse-a8278b"}, "geometry": {"type": "Point", "coordinates": [-1.939525, 52.441562]}},
{"type": "Feature", "id": "Suys4ht7rm-xC8-4d9jfqx9wdmk=", "properties": {"ref": "1615", "@spider": "the_food_warehouse_gb", "shop": "supermarket", "addr:full": "Unit 5Heeley Retail ParkSheffieldS8 0RG", "addr:postcode": "DS8 0RG", "addr:country": "GB", "name": "Sheffield", "phone": "01142 588789", "website": "https://www.thefoodwarehouse.com//store-locator/sheffield", "image": "https://assets.iceland.co.uk/i/iceland/tfw-storefront-image", "brand": "The Food Warehouse", "brand:wikidata": "Q87263899", "nsi_id": "thefoodwarehouse-a8278b"}, "geometry": {"type": "Point", "coordinates": [-1.479632, 53.356254]}},
{"type": "Feature", "id": "VczLXWBjNHXQq1AIBuzR573p1Ng=", "properties": {"ref": "1575", "@spider": "the_food_warehouse_gb", "shop": "supermarket", "addr:full": "Unit 2Spring Retail Park, Eurolink Way, Sittingbourne, Kent, ME10 3HH", "addr:postcode": "ME10 3HH", "addr:country": "GB", "name": "Sittingbourne", "phone": "01795 410021", "website": "https://www.thefoodwarehouse.com//store-locator/sittingbourne", "image": "https://assets.iceland.co.uk/i/iceland/tfw-storefront-image", "brand": "The Food Warehouse", "brand:wikidata": "Q87263899", "nsi_id": "thefoodwarehouse-a8278b"}, "geometry": {"type": "Point", "coordinates": [0.740843, 51.343108]}},
{"type": "Feature", "id": "Lxwn9WOSFyLfq0qns88R0794Jxs=", "properties": {"ref": "1681", "@spider": "the_food_warehouse_gb", "shop": "supermarket", "addr:full": "Harbour Parade, West Quay Retail Park, Hampshire, SO15 1BA", "addr:postcode": "SO15 1BA", "addr:country": "GB", "name": "Southampton", "phone": "02380 230702", "website": "https://www.thefoodwarehouse.com//store-locator/southampton", "image": "https://assets.iceland.co.uk/i/iceland/tfw-storefront-image", "brand": "The Food Warehouse", "brand:wikidata": "Q87263899", "nsi_id": "thefoodwarehouse-a8278b"}, "geometry": {"type": "Point", "coordinates": [-1.40992, 50.903921]}},
{"type": "Feature", "id": "dqPhXhaI0lmr6rS5RkZnwWEnXGE=", "properties": {"ref": "1669", "@spider": "the_food_warehouse_gb", "shop": "supermarket", "addr:full": "Boulevard Retail Park, Speke, Merseyside, L24 9PQ", "addr:postcode": "L24 9PQ", "addr:country": "GB", "name": "Speke", "phone": "0151 486 2062", "website": "https://www.thefoodwarehouse.com//store-locator/speke", "image": "https://assets.iceland.co.uk/i/iceland/tfw-storefront-image", "brand": "The Food Warehouse", "brand:wikidata": "Q87263899", "nsi_id": "thefoodwarehouse-a8278b"}, "geometry": {"type": "Point", "coordinates": [-2.8623677, 53.3497023]}},
{"type": "Feature", "id": "Ts3uZwxEN3odlyypW5G806eNmfQ=", "properties": {"ref": "1530", "@spider": "the_food_warehouse_gb", "shop": "supermarket", "addr:full": "Unit EStechford Retail Park, Flaxley Pkwy, Stechford, BirminghamB33 9AN", "addr:postcode": "MB33 9AN", "addr:country": "GB", "name": "Stechford", "phone": "01217 842 668", "website": "https://www.thefoodwarehouse.com//store-locator/stechford", "image": "https://assets.iceland.co.uk/i/iceland/tfw-storefront-image", "brand": "The Food Warehouse", "brand:wikidata": "Q87263899", "nsi_id": "thefoodwarehouse-a8278b"}, "geometry": {"type": "Point", "coordinates": [-1.809684, 52.486632]}},
{"type": "Feature", "id": "OXrGpSWMoCapzvHHGZjga9T9Q8Y=", "properties": {"ref": "1639", "@spider": "the_food_warehouse_gb", "shop": "supermarket", "addr:full": "Unit 2A, Straiton Retail Park, Straiton Road, Loanhead, Straiton, EH20 9PW", "addr:postcode": "EH20 9PW", "addr:country": "GB", "name": "Straiton", "phone": "0131 440 0240", "website": "https://www.thefoodwarehouse.com//store-locator/Straiton", "image": "https://assets.iceland.co.uk/i/iceland/tfw-storefront-image", "brand": "The Food Warehouse", "brand:wikidata": "Q87263899", "nsi_id": "thefoodwarehouse-a8278b"}, "geometry": {"type": "Point", "coordinates": [-3.162863, 55.884632]}},
{"type": "Feature", "id": "a06GGDpihmG4bwc8a5nPJtSlfLI=", "properties": {"ref": "1498", "@spider": "the_food_warehouse_gb", "shop": "supermarket", "addr:full": "Unit 4, St. Georges Retail Park, St George's Way, Leicester, East Midlands, LE1 1SH", "addr:postcode": "LE1 1SH", "addr:country": "GB", "name": "St. George's Park, Leicester", "phone": "01162 511 659", "website": "https://www.thefoodwarehouse.com//store-locator/st-georges-park-leicester", "image": "https://assets.iceland.co.uk/i/iceland/tfw-storefront-image", "brand": "The Food Warehouse", "brand:wikidata": "Q87263899", "nsi_id": "thefoodwarehouse-a8278b"}, "geometry": {"type": "Point", "coordinates": [-1.1586777, 52.6254822]}},
{"type": "Feature", "id": "UFkY1-lG4S_5yCCUIdm6l51SFvA=", "properties": {"ref": "1579", "@spider": "the_food_warehouse_gb", "shop": "supermarket", "addr:full": "Street Retail Park, Gravenchon Way, Street, Glastonbury, Somerset, BA16 0HS", "addr:postcode": "BA16 0HS", "addr:country": "GB", "name": "Street, Glastonbury", "phone": "01458 446283", "website": "https://www.thefoodwarehouse.com//store-locator/street-glastonbury", "image": "https://assets.iceland.co.uk/i/iceland/tfw-storefront-image", "brand": "The Food Warehouse", "brand:wikidata": "Q87263899", "nsi_id": "thefoodwarehouse-a8278b"}, "geometry": {"type": "Point", "coordinates": [-2.756694, 51.126517]}},
{"type": "Feature", "id": "zzCUdSRvMjOzOXVRGuGfCs0Gjoo=", "properties": {"ref": "1583", "@spider": "the_food_warehouse_gb", "shop": "supermarket", "addr:full": "Unit 5, Hylton Riverside Business Park, Timber Beach Road, Sunderland, Tyne and Wear, SR5 3XG", "addr:postcode": "SR5 3XG", "addr:country": "GB", "name": "Sunderland", "phone": "0191 549 0983", "website": "https://www.thefoodwarehouse.com//store-locator/sunderland", "image": "https://assets.iceland.co.uk/i/iceland/tfw-storefront-image", "brand": "The Food Warehouse", "brand:wikidata": "Q87263899", "nsi_id": "thefoodwarehouse-a8278b"}, "geometry": {"type": "Point", "coordinates": [-1.431313, 54.918278]}},
{"type": "Feature", "id": "7r-dJlBOiBXMuWEDx_lLAJPqJ4o=", "properties": {"ref": "1570", "@spider": "the_food_warehouse_gb", "shop": "supermarket", "addr:full": "Barnfield Road Retail Park, Great Western Way, Swindon, Wiltshire, SN2 2DJ", "addr:postcode": "SN2 2DJ", "addr:country": "GB", "name": "Swindon", "phone": "01793 480346", "website": "https://www.thefoodwarehouse.com//store-locator/swindon", "image": "https://assets.iceland.co.uk/i/iceland/tfw-storefront-image", "brand": "The Food Warehouse", "brand:wikidata": "Q87263899", "nsi_id": "thefoodwarehouse-a8278b"}, "geometry": {"type": "Point", "coordinates": [-1.809948, 51.567175]}},
{"type": "Feature", "id": "tKuPK0YuhDJpKwgFO8bJZPZjhp0=", "properties": {"ref": "1690", "@spider": "the_food_warehouse_gb", "shop": "supermarket", "addr:full": "Unit D, Breckland Retail Park, London Road, IP24 3RY", "addr:postcode": "IP24 3RY", "addr:country": "GB", "name": "Thetford", "phone": "01842 765481", "website": "https://www.thefoodwarehouse.com//store-locator/thetford", "image": "https://assets.iceland.co.uk/i/iceland/tfw-storefront-image", "brand": "The Food Warehouse", "brand:wikidata": "Q87263899", "nsi_id": "thefoodwarehouse-a8278b"}, "geometry": {"type": "Point", "coordinates": [0.72839, 52.40752]}},
{"type": "Feature", "id": "7I5gHxiBpG1D2tiYWMmXFFCaRuo=", "properties": {"ref": "1569", "@spider": "the_food_warehouse_gb", "shop": "supermarket", "addr:full": "Thurrock Shopping Park, Weston Ave, Thurrock, EssexRM20 3LP", "addr:postcode": "RM20 3LP", "addr:country": "GB", "name": "Thurrock", "phone": "01708 866581", "website": "https://www.thefoodwarehouse.com//store-locator/thurrock", "image": "https://assets.iceland.co.uk/i/iceland/tfw-storefront-image", "brand": "The Food Warehouse", "brand:wikidata": "Q87263899", "nsi_id": "thefoodwarehouse-a8278b"}, "geometry": {"type": "Point", "coordinates": [0.269487, 51.485817]}},
{"type": "Feature", "id": "TUEV1hUlmIt5-DCOGaGSed49GVM=", "properties": {"ref": "1558", "@spider": "the_food_warehouse_gb", "shop": "supermarket", "addr:full": "Unit 8Tottenham Hale Retail Park, Broad Lane, Tottenham, London, Greater London, N15 4QD", "addr:postcode": "N15 4QD", "addr:country": "GB", "name": "Tottenham", "phone": "0208 801 2114", "website": "https://www.thefoodwarehouse.com//store-locator/tottenham", "image": "https://assets.iceland.co.uk/i/iceland/tfw-storefront-image", "brand": "The Food Warehouse", "brand:wikidata": "Q87263899", "nsi_id": "thefoodwarehouse-a8278b"}, "geometry": {"type": "Point", "coordinates": [-0.0610255, 51.587068]}},
{"type": "Feature", "id": "G9a1oLST1i_pGWT138NPQOEKeaY=", "properties": {"ref": "1506", "@spider": "the_food_warehouse_gb", "shop": "supermarket", "addr:full": "Unit 5, Trafford Retail Park, Barton Road, Urmston, Manchester, Greater Manchester, M41 7FN", "addr:postcode": "M41 7FN", "addr:country": "GB", "name": "Trafford Park", "phone": "0161 258 1916", "website": "https://www.thefoodwarehouse.com//store-locator/trafford-park", "image": "https://assets.iceland.co.uk/i/iceland/tfw-storefront-image", "brand": "The Food Warehouse", "brand:wikidata": "Q87263899", "nsi_id": "thefoodwarehouse-a8278b"}, "geometry": {"type": "Point", "coordinates": [-2.3638039, 53.4640213]}},
{"type": "Feature", "id": "XtGPrckd-kvSUmnmIwi7cCO15RE=", "properties": {"ref": "1463", "@spider": "the_food_warehouse_gb", "shop": "supermarket", "addr:full": "Springfields Retail Park, Newcastle Road, Trent Vale, Stoke-on-Trent, ST4 6PD", "addr:postcode": "ST4 6PD", "addr:country": "GB", "name": "Trent Vale", "phone": "01782 937 054", "website": "https://www.thefoodwarehouse.com//store-locator/trent-vale", "image": "https://assets.iceland.co.uk/i/iceland/tfw-storefront-image", "brand": "The Food Warehouse", "brand:wikidata": "Q87263899", "nsi_id": "thefoodwarehouse-a8278b"}, "geometry": {"type": "Point", "coordinates": [-2.2109864, 52.9960068]}},
{"type": "Feature", "id": "OZE54ir1rfcKwteitr9l0jzmw0s=", "properties": {"ref": "1544", "@spider": "the_food_warehouse_gb", "shop": "supermarket", "addr:full": "Unit 2Snowhill Retail ParkWakefield, West Yorkshire, WF1 3JN", "addr:postcode": "WF1 3JN", "addr:country": "GB", "name": "Wakefield", "phone": "01924 375 884", "website": "https://www.thefoodwarehouse.com//store-locator/wakefield", "image": "https://assets.iceland.co.uk/i/iceland/tfw-storefront-image", "brand": "The Food Warehouse", "brand:wikidata": "Q87263899", "nsi_id": "thefoodwarehouse-a8278b"}, "geometry": {"type": "Point", "coordinates": [-1.506537, 53.697101]}},
{"type": "Feature", "id": "NgT4zUOl6GpgEWJbVK3JpLZOGss=", "properties": {"ref": "1692", "@spider": "the_food_warehouse_gb", "shop": "supermarket", "addr:full": "Walkden Retail Park, Walkden, M28 3EE", "addr:postcode": "M28 3EE", "addr:country": "GB", "name": "Walkden", "phone": "0161799 4419", "website": "https://www.thefoodwarehouse.com//store-locator/walkden", "image": "https://assets.iceland.co.uk/i/iceland/tfw-storefront-image", "brand": "The Food Warehouse", "brand:wikidata": "Q87263899", "nsi_id": "thefoodwarehouse-a8278b"}, "geometry": {"type": "Point", "coordinates": [-2.40216, 53.528246]}},
{"type": "Feature", "id": "oyO7jGbqK-Q7gtiXDv9rRfAu1Rw=", "properties": {"ref": "1520", "@spider": "the_food_warehouse_gb", "shop": "supermarket", "addr:full": "Unit 5, Bescot Retail Park, Bescot Cres, Walsall, West Midlands, WS1 4SB", "addr:postcode": "WS1 4SB", "addr:country": "GB", "name": "Walsall", "phone": "01922 635 018", "website": "https://www.thefoodwarehouse.com//store-locator/walsall", "image": "https://assets.iceland.co.uk/i/iceland/tfw-storefront-image", "brand": "The Food Warehouse", "brand:wikidata": "Q87263899", "nsi_id": "thefoodwarehouse-a8278b"}, "geometry": {"type": "Point", "coordinates": [-1.992334, 52.567346]}},
{"type": "Feature", "id": "s-jMJTcPtMas9CQqQMxOW8rQkto=", "properties": {"ref": "1634", "@spider": "the_food_warehouse_gb", "shop": "supermarket", "addr:full": "Unit B4, Walsall Retail Park, Reedswood Way, West Midlands, WS2 8XA", "addr:postcode": "WS2 8XA", "addr:country": "GB", "name": "Walsall Reedswood", "phone": "01922 625 494", "website": "https://www.thefoodwarehouse.com//store-locator/walsall-reedswood", "image": "https://assets.iceland.co.uk/i/iceland/tfw-storefront-image", "brand": "The Food Warehouse", "brand:wikidata": "Q87263899", "nsi_id": "thefoodwarehouse-a8278b"}, "geometry": {"type": "Point", "coordinates": [-2.0014741, 52.595792]}},
{"type": "Feature", "id": "q7QCYgAEnvJiRoZcAOvLbzOMR50=", "properties": {"ref": "1509", "@spider": "the_food_warehouse_gb", "shop": "supermarket", "addr:full": "Unit 6 F&G, Junction 9 Retail Park, Winwick Road, Warrington, Cheshire, WA2 8TW", "addr:postcode": "WA2 8TW", "addr:country": "GB", "name": "Warrington", "phone": "01925 652 124", "website": "https://www.thefoodwarehouse.com//store-locator/warrington", "image": "https://assets.iceland.co.uk/i/iceland/tfw-storefront-image", "brand": "The Food Warehouse", "brand:wikidata": "Q87263899", "nsi_id": "thefoodwarehouse-a8278b"}, "geometry": {"type": "Point", "coordinates": [-2.5985259, 53.408921]}},
{"type": "Feature", "id": "wMLSPK7mGWWA0zZFpOs5pTifpWo=", "properties": {"ref": "1664", "@spider": "the_food_warehouse_gb", "shop": "supermarket", "addr:full": "Unit 2, The Peel Centre, Washington, NE37 2PA", "addr:postcode": "NE37 2PA", "addr:country": "GB", "name": "Washington", "phone": "0191 419 2476", "website": "https://www.thefoodwarehouse.com//store-locator/washington", "image": "https://assets.iceland.co.uk/i/iceland/tfw-storefront-image", "brand": "The Food Warehouse", "brand:wikidata": "Q87263899", "nsi_id": "thefoodwarehouse-a8278b"}, "geometry": {"type": "Point", "coordinates": [-1.500946, 54.906489]}},
{"type": "Feature", "id": "6c5ZI8ZRcP-XBT9NFWMjbmCDpOM=", "properties": {"ref": "1618", "@spider": "the_food_warehouse_gb", "shop": "supermarket", "addr:full": "Unit 12, White City Retail Park, Chester Road, Stretford, Trafford, Manchester, M16 0RP", "addr:postcode": "M16 0RP", "addr:country": "GB", "name": "White City, Stretford", "phone": "0161 8774302", "website": "https://www.thefoodwarehouse.com//store-locator/white-city-stretford", "image": "https://assets.iceland.co.uk/i/iceland/tfw-storefront-image", "brand": "The Food Warehouse", "brand:wikidata": "Q87263899", "nsi_id": "thefoodwarehouse-a8278b"}, "geometry": {"type": "Point", "coordinates": [-2.284328, 53.461774]}},
{"type": "Feature", "id": "FES4drJOaj40s6RWvkOunPMHtwg=", "properties": {"ref": "1543", "@spider": "the_food_warehouse_gb", "shop": "supermarket", "addr:full": "Unit A Haynes Street, Whitworth Road, Rochdale, Greater Manchester, OL12 OUW", "addr:postcode": "OL12 0UW", "addr:country": "GB", "name": "Whitworth Road, Rochdale", "phone": "01706 646 616", "website": "https://www.thefoodwarehouse.com//store-locator/whitworth-road-rochdale", "image": "https://assets.iceland.co.uk/i/iceland/tfw-storefront-image", "brand": "The Food Warehouse", "brand:wikidata": "Q87263899", "nsi_id": "thefoodwarehouse-a8278b"}, "geometry": {"type": "Point", "coordinates": [-2.152126, 53.622894]}},
{"type": "Feature", "id": "dzwX7veJleq4I_QFBhqagSNXAaY=", "properties": {"ref": "1601", "@spider": "the_food_warehouse_gb", "shop": "supermarket", "addr:full": "Unit 3, Marus Bridge Retail Park, Worthington Way, Wigan, Greater Manchester, WN3 6XE", "addr:postcode": "WN3 6XE", "addr:country": "GB", "name": "Wigan", "phone": "01942 820945", "website": "https://www.thefoodwarehouse.com//store-locator/wigan", "image": "https://assets.iceland.co.uk/i/iceland/tfw-storefront-image", "brand": "The Food Warehouse", "brand:wikidata": "Q87263899", "nsi_id": "thefoodwarehouse-a8278b"}, "geometry": {"type": "Point", "coordinates": [-2.654059, 53.521539]}},
{"type": "Feature", "id": "jEEfUHX1ItVxeh6pDL2ME1keTfI=", "properties": {"ref": "1580", "@spider": "the_food_warehouse_gb", "shop": "supermarket", "addr:full": "Unit 3, Caledonian Retail Park, Glasgow Road, Wishaw, North Lanarkshire, ML2 7UR", "addr:postcode": "ML2 7UR", "addr:country": "GB", "name": "Wishaw", "phone": "01698 374920", "website": "https://www.thefoodwarehouse.com//store-locator/wishaw", "image": "https://assets.iceland.co.uk/i/iceland/tfw-storefront-image", "brand": "The Food Warehouse", "brand:wikidata": "Q87263899", "nsi_id": "thefoodwarehouse-a8278b"}, "geometry": {"type": "Point", "coordinates": [-3.948554, 55.775443]}},
{"type": "Feature", "id": "lQCs1cElAQx9Qv0MdWUQXyUGbZY=", "properties": {"ref": "1462", "@spider": "the_food_warehouse_gb", "shop": "supermarket", "addr:full": "Unit 12, Island Green Shopping Centre, Wrexham, Wales, LL13 7LW", "addr:postcode": "LL13 7LW", "addr:country": "GB", "name": "Wrexham", "phone": "01978 501 361", "website": "https://www.thefoodwarehouse.com//store-locator/wrexham", "image": "https://assets.iceland.co.uk/i/iceland/tfw-storefront-image", "brand": "The Food Warehouse", "brand:wikidata": "Q87263899", "nsi_id": "thefoodwarehouse-a8278b"}, "geometry": {"type": "Point", "coordinates": [-2.9986157, 53.0454879]}},
{"type": "Feature", "id": "HTPPggunTOC0Oz-XgqUIuRg4kKc=", "properties": {"ref": "1744", "@spider": "the_food_warehouse_gb", "shop": "supermarket", "addr:full": "Unit 3, Clifton Moor Centre, York, YO30 4XU", "addr:postcode": "YO30 4XU", "addr:country": "GB", "name": "York, Clifton Moor", "phone": "01904 690717", "website": "https://www.thefoodwarehouse.com//store-locator/cliftonmoor", "image": "https://assets.iceland.co.uk/i/iceland/store", "brand": "The Food Warehouse", "brand:wikidata": "Q87263899", "nsi_id": "thefoodwarehouse-a8278b"}, "geometry": {"type": "Point", "coordinates": [-1.10863, 53.990528]}},
{"type": "Feature", "id": "cchf0wDUzEdyXLlmaHIYJPnr2C0=", "properties": {"ref": "1748", "@spider": "the_food_warehouse_gb", "shop": "supermarket", "addr:full": "Unit 6, Aylesbury Shopping Park, Aylesbury HP20 1DG", "addr:postcode": "HP20 1DG", "addr:country": "GB", "name": "Aylesbury", "phone": "01296 485631", "website": "https://www.thefoodwarehouse.com//store-locator/aylesbury", "image": "https://assets.iceland.co.uk/i/iceland/store", "brand": "The Food Warehouse", "brand:wikidata": "Q87263899", "nsi_id": "thefoodwarehouse-a8278b"}, "geometry": {"type": "Point", "coordinates": [-0.80864, 51.819931]}},
{"type": "Feature", "id": "G8Mpr-VknPRbSwbZ62uyCatxPeQ=", "properties": {"ref": "1701", "@spider": "the_food_warehouse_gb", "shop": "supermarket", "addr:full": "Unit A, Palmerston Road, Barry, CF63 2PE", "addr:postcode": "CF63 2PE", "addr:country": "GB", "name": "Barry", "phone": "01446 721160", "website": "https://www.thefoodwarehouse.com//store-locator/barry", "image": "https://assets.iceland.co.uk/i/iceland/store", "brand": "The Food Warehouse", "brand:wikidata": "Q87263899", "nsi_id": "thefoodwarehouse-a8278b"}, "geometry": {"type": "Point", "coordinates": [-3.242139, 51.4136905]}},
{"type": "Feature", "id": "-2xMFwtfVsqy3gY3QLgFdGlv49s=", "properties": {"ref": "1768", "@spider": "the_food_warehouse_gb", "shop": "supermarket", "addr:full": "Westwood Retail Park, Kennedy Way, Belfast BT11 9AP", "addr:postcode": "BT11 9AP", "addr:country": "GB", "name": "Belfast", "phone": "02890 603962", "website": "https://www.thefoodwarehouse.com//store-locator/belfast", "image": "https://assets.iceland.co.uk/i/iceland/store", "brand": "The Food Warehouse", "brand:wikidata": "Q87263899", "nsi_id": "thefoodwarehouse-a8278b"}, "geometry": {"type": "Point", "coordinates": [-5.977296, 54.5775]}},
{"type": "Feature", "id": "X2LOjEZ_Gt8p7MxuaMQ5nK2fca4=", "properties": {"ref": "1733", "@spider": "the_food_warehouse_gb", "shop": "supermarket", "addr:full": "Unit 2, Loaning Meadows Retail Park, Berwick Upon Tweed, Northumberland, TD15 1UQ", "addr:postcode": "TD15 1UQ", "addr:country": "GB", "name": "Berwick - Now Open", "phone": "01289 330341", "website": "https://www.thefoodwarehouse.com//store-locator/Berwick", "image": "https://assets.iceland.co.uk/i/iceland/store", "brand": "The Food Warehouse", "brand:wikidata": "Q87263899", "nsi_id": "thefoodwarehouse-a8278b"}, "geometry": {"type": "Point", "coordinates": [-2.018774, 55.783136]}},
{"type": "Feature", "id": "o2tBOz7ab_H846soFVL2Z4PJlDo=", "properties": {"ref": "1765", "@spider": "the_food_warehouse_gb", "shop": "supermarket", "addr:full": "Unit 3, High Point Retail Park, County Durham DL14 9AH", "addr:postcode": "DL14 9AH", "addr:country": "GB", "name": "Bishop Auckland - Coming Soon", "website": "https://www.thefoodwarehouse.com//store-locator/Bishop-Auckland", "image": "https://assets.iceland.co.uk/i/iceland/store", "brand": "The Food Warehouse", "brand:wikidata": "Q87263899", "nsi_id": "thefoodwarehouse-a8278b"}, "geometry": {"type": "Point", "coordinates": [-1.684764, 54.641003]}},
{"type": "Feature", "id": "WmjRYDZIZIQ5bynk-1O3JQqAYIw=", "properties": {"ref": "1738", "@spider": "the_food_warehouse_gb", "shop": "supermarket", "addr:full": "Unit 1A, The Bognor Regis Retail Park, Bognor Regis, Sussex PO22 9TR", "addr:postcode": "PO22 9TR", "addr:country": "GB", "name": "Bognor Regis", "phone": "01243 862572", "website": "https://www.thefoodwarehouse.com//store-locator/bognorregis", "image": "https://assets.iceland.co.uk/i/iceland/store", "brand": "The Food Warehouse", "brand:wikidata": "Q87263899", "nsi_id": "thefoodwarehouse-a8278b"}, "geometry": {"type": "Point", "coordinates": [-0.66765, 50.80326]}},
{"type": "Feature", "id": "uEfnilhX34N8F3nQwtXMka483AY=", "properties": {"ref": "1727", "@spider": "the_food_warehouse_gb", "shop": "supermarket", "addr:full": "Unit 2 &amp; 4, Canvey Island Retail Park, Canvey Island, SS8 0PT", "addr:postcode": "SS8 0PT", "addr:country": "GB", "name": "Canvey Island", "phone": "01268 697990", "website": "https://www.thefoodwarehouse.com//store-locator/canvey-island", "image": "https://assets.iceland.co.uk/i/iceland/store", "brand": "The Food Warehouse", "brand:wikidata": "Q87263899", "nsi_id": "thefoodwarehouse-a8278b"}, "geometry": {"type": "Point", "coordinates": [0.61532, 51.51828]}},
{"type": "Feature", "id": "kqbg4nDgrXGcMfqM1gzaBcEo810=", "properties": {"ref": "1767", "@spider": "the_food_warehouse_gb", "shop": "supermarket", "addr:full": "2 Stephen's Way, Carmarthen, Carmarthenshire SA31 2BG", "addr:postcode": "SA31 2BG", "addr:country": "GB", "name": "Carmarthen", "phone": "01267 237956", "website": "https://www.thefoodwarehouse.com//store-locator/Carmarthen", "image": "https://assets.iceland.co.uk/i/iceland/store", "brand": "The Food Warehouse", "brand:wikidata": "Q87263899", "nsi_id": "thefoodwarehouse-a8278b"}, "geometry": {"type": "Point", "coordinates": [-4.30888, 51.850061]}},
{"type": "Feature", "id": "Yc01_7wTKw4dLpzzm3fI6LN-G8k=", "properties": {"ref": "1732", "@spider": "the_food_warehouse_gb", "shop": "supermarket", "addr:full": "Units 3A &amp; 3B, Riverside Retail Park, Essex CM1 1AN", "addr:postcode": "CM1 1AN", "addr:country": "GB", "name": "Chelmsford - Coming Soon", "website": "https://www.thefoodwarehouse.com//store-locator/Chelmsford", "image": "https://assets.iceland.co.uk/i/iceland/store", "brand": "The Food Warehouse", "brand:wikidata": "Q87263899", "nsi_id": "thefoodwarehouse-a8278b"}, "geometry": {"type": "Point", "coordinates": [0.478701, 51.737965]}},
{"type": "Feature", "id": "bTtIXm--v2TNz3hjRsF7cyDaszk=", "properties": {"ref": "1717", "@spider": "the_food_warehouse_gb", "shop": "supermarket", "addr:full": "Unit 4, Old Seal's Way, Chester, CH1 4RY", "addr:postcode": "CH1 4RY", "addr:country": "GB", "name": "Chester", "phone": "01244 381320", "website": "https://www.thefoodwarehouse.com//store-locator/chester", "image": "https://assets.iceland.co.uk/i/iceland/store", "brand": "The Food Warehouse", "brand:wikidata": "Q87263899", "nsi_id": "thefoodwarehouse-a8278b"}, "geometry": {"type": "Point", "coordinates": [-2.90985, 53.19753]}},
{"type": "Feature", "id": "AXT8YJQKB6BsIPQollOg3fP94oM=", "properties": {"ref": "1234", "@spider": "the_food_warehouse_gb", "shop": "supermarket", "addr:full": "Unit 6, Westmorland Retail Park, Cramlington NE23 6UY", "addr:postcode": "NE23 6UY", "addr:country": "GB", "name": "Cramlington", "phone": "01670 707889", "website": "https://www.thefoodwarehouse.com//store-locator/Cramlington", "image": "https://assets.iceland.co.uk/i/iceland/store", "brand": "The Food Warehouse", "brand:wikidata": "Q87263899", "nsi_id": "thefoodwarehouse-a8278b"}, "geometry": {"type": "Point", "coordinates": [-1.593514, 55.086737]}},
{"type": "Feature", "id": "Kdv5XmJnk3YKwXx04xY7bNr0jx0=", "properties": {"ref": "1716", "@spider": "the_food_warehouse_gb", "shop": "supermarket", "addr:full": "Unit 10, Grand Junction Retail Park, Crewe, CW1 2RP", "addr:postcode": "CW1 2RP", "addr:country": "GB", "name": "Crewe", "phone": "01270 258952", "website": "https://www.thefoodwarehouse.com//store-locator/crewe", "image": "https://assets.iceland.co.uk/i/iceland/store", "brand": "The Food Warehouse", "brand:wikidata": "Q87263899", "nsi_id": "thefoodwarehouse-a8278b"}, "geometry": {"type": "Point", "coordinates": [-2.4341, 53.09703]}},
{"type": "Feature", "id": "_exYEFG3pcbWGkBSQiSncictPu4=", "properties": {"ref": "1712", "@spider": "the_food_warehouse_gb", "shop": "supermarket", "addr:full": "Unit 6, </br>, Wyvern Retail Park, </br>, Derby, </br>, Derbyshire, </br>, DE21 6NZ", "addr:postcode": "DE21 6NZ", "addr:country": "GB", "name": "Derby", "phone": "01332 280010", "website": "https://www.thefoodwarehouse.com//store-locator/derby", "image": "https://assets.iceland.co.uk/i/iceland/store", "brand": "The Food Warehouse", "brand:wikidata": "Q87263899", "nsi_id": "thefoodwarehouse-a8278b"}, "geometry": {"type": "Point", "coordinates": [-1.436, 52.91655]}},
{"type": "Feature", "id": "WRtnDZz4vyDRb6jBNUOAc_D8tjc=", "properties": {"ref": "1776", "@spider": "the_food_warehouse_gb", "shop": "supermarket", "addr:full": "Kingsway Retail Park, Derby DE22 3FA", "addr:postcode": "DE22 3FA", "addr:country": "GB", "name": "Derby 2 - Coming Soon ", "website": "https://www.thefoodwarehouse.com//store-locator/derby", "image": "https://assets.iceland.co.uk/i/iceland/store", "brand": "The Food Warehouse", "brand:wikidata": "Q87263899", "nsi_id": "thefoodwarehouse-a8278b"}, "geometry": {"type": "Point", "coordinates": [-1.504576, 52.921109]}},
{"type": "Feature", "id": "cD4qE_IVEv1ilTF8dnBY2bbAhP0=", "properties": {"ref": "1742", "@spider": "the_food_warehouse_gb", "shop": "supermarket", "addr:full": "North Durham Retail Park, Old Pit Lane, County Durham DH1 5ST", "addr:postcode": "DH1 5ST", "addr:country": "GB", "name": "Durham - Coming Soon", "website": "https://www.thefoodwarehouse.com//store-locator/durham", "image": "https://assets.iceland.co.uk/i/iceland/store", "brand": "The Food Warehouse", "brand:wikidata": "Q87263899", "nsi_id": "thefoodwarehouse-a8278b"}, "geometry": {"type": "Point", "coordinates": [-1.580349, 54.804145]}},
{"type": "Feature", "id": "pTOMFqXAq3_p-oUEnp6IwAMKZB0=", "properties": {"ref": "1702", "@spider": "the_food_warehouse_gb", "shop": "supermarket", "addr:full": "Unit 3, Haddington Retail Park, Haddington, East Lothian EH41 3FW", "addr:postcode": "EH41 3FW", "addr:country": "GB", "name": "Haddington", "phone": "01620 823672", "website": "https://www.thefoodwarehouse.com//store-locator/haddington", "image": "https://assets.iceland.co.uk/i/iceland/store", "brand": "The Food Warehouse", "brand:wikidata": "Q87263899", "nsi_id": "thefoodwarehouse-a8278b"}, "geometry": {"type": "Point", "coordinates": [-2.811041, 55.954486]}},
{"type": "Feature", "id": "AKIklqiMQiakGZ5AJkdzvLZhUd0=", "properties": {"ref": "1752", "@spider": "the_food_warehouse_gb", "shop": "supermarket", "addr:full": "Unit 3, Salmon Retail Park, Holmer Road, Herefordshire, HR4 9SB", "addr:postcode": "HR4 9SB", "addr:country": "GB", "name": "Hereford", "phone": "01432 359030", "website": "https://www.thefoodwarehouse.com//store-locator/Hereford", "image": "https://assets.iceland.co.uk/i/iceland/store", "brand": "The Food Warehouse", "brand:wikidata": "Q87263899", "nsi_id": "thefoodwarehouse-a8278b"}, "geometry": {"type": "Point", "coordinates": [-2.720903, 52.068492]}},
{"type": "Feature", "id": "sqrm9-uViJEsjkAnrn63OhM_YVo=", "properties": {"ref": "1713", "@spider": "the_food_warehouse_gb", "shop": "supermarket", "addr:full": "Unit A, </br>, Heybarnes Circus, </br>, Yardley, </br>, Birmingham, </br>, B25 8DL", "addr:postcode": "B25 8DL", "addr:country": "GB", "name": "Heybarnes", "phone": "0121 753 2121", "website": "https://www.thefoodwarehouse.com//store-locator/heybarnes", "image": "https://assets.iceland.co.uk/i/iceland/store", "brand": "The Food Warehouse", "brand:wikidata": "Q87263899", "nsi_id": "thefoodwarehouse-a8278b"}, "geometry": {"type": "Point", "coordinates": [-1.8410089, 52.4632103]}},
{"type": "Feature", "id": "ZmapQm_b1TfqwEY-_4Nj2Xdx0HM=", "properties": {"ref": "1774", "@spider": "the_food_warehouse_gb", "shop": "supermarket", "addr:full": "Telford Retail Park, Telford, Inverness IV3 5LU", "addr:postcode": "IV3 5LU", "addr:country": "GB", "name": "Inverness - Coming Soon", "website": "https://www.thefoodwarehouse.com//store-locator/inverness", "image": "https://assets.iceland.co.uk/i/iceland/store", "brand": "The Food Warehouse", "brand:wikidata": "Q87263899", "nsi_id": "thefoodwarehouse-a8278b"}, "geometry": {"type": "Point", "coordinates": [-4.246941, 57.481453]}},
{"type": "Feature", "id": "YlKBXeXQvzDNr6NQ4ICiJ9jJHs4=", "properties": {"ref": "1746", "@spider": "the_food_warehouse_gb", "shop": "supermarket", "addr:full": "Units 1-3, The Esplanade, Kirkcaldy, Fife KY1 1RF", "addr:postcode": "KY1 1RF", "addr:country": "GB", "name": "Kirkcaldy", "phone": "01592 641859", "website": "https://www.thefoodwarehouse.com//store-locator/kirkcaldy", "image": "https://assets.iceland.co.uk/i/iceland/store", "brand": "The Food Warehouse", "brand:wikidata": "Q87263899", "nsi_id": "thefoodwarehouse-a8278b"}, "geometry": {"type": "Point", "coordinates": [-3.15812, 56.10582]}},
{"type": "Feature", "id": "OikntZCAQAMtYY9nsaDPIV9NtSY=", "properties": {"ref": "1694", "@spider": "the_food_warehouse_gb", "shop": "supermarket", "addr:full": "Unit A Imperial Retail Park, Eastern Avenue, Lichfield, Staffordshire, WS13 6RL", "addr:postcode": "WS13 6RL", "addr:country": "GB", "name": "Lichfield", "phone": "01543 257 817", "website": "https://www.thefoodwarehouse.com//store-locator/lichfield", "image": "https://assets.iceland.co.uk/i/iceland/store", "brand": "The Food Warehouse", "brand:wikidata": "Q87263899", "nsi_id": "thefoodwarehouse-a8278b"}, "geometry": {"type": "Point", "coordinates": [-1.80729, 52.675827]}},
{"type": "Feature", "id": "tHRePiLxWhdTXedZ4RbS_JKMOJk=", "properties": {"ref": "1735", "@spider": "the_food_warehouse_gb", "shop": "supermarket", "addr:full": "Unit 4, Almondvale Retail Park, Livingston, West Lothian EH54 6XG", "addr:postcode": "EH54 6XG", "addr:country": "GB", "name": "Livingston", "phone": "01506 410966", "website": "https://www.thefoodwarehouse.com//store-locator/livingston", "image": "https://assets.iceland.co.uk/i/iceland/store", "brand": "The Food Warehouse", "brand:wikidata": "Q87263899", "nsi_id": "thefoodwarehouse-a8278b"}, "geometry": {"type": "Point", "coordinates": [-3.521248, 55.878746]}},
{"type": "Feature", "id": "ETTpDMVxp-yFl89MunVTA4iz7g0=", "properties": {"ref": "1703", "@spider": "the_food_warehouse_gb", "shop": "supermarket", "addr:full": "Unit 6, Parc Pemberton Retail Park, Llanelli SA14 9UZ", "addr:postcode": "SA14 9UZ", "addr:country": "GB", "name": "Llanelli", "phone": "01554 776877", "website": "https://www.thefoodwarehouse.com//store-locator/llanelli", "image": "https://assets.iceland.co.uk/i/iceland/store", "brand": "The Food Warehouse", "brand:wikidata": "Q87263899", "nsi_id": "thefoodwarehouse-a8278b"}, "geometry": {"type": "Point", "coordinates": [-4.12898, 51.680931]}},
{"type": "Feature", "id": "8uDUmM1ZEDcM3yS0ePiIdRM7RsQ=", "properties": {"ref": "1737", "@spider": "the_food_warehouse_gb", "shop": "supermarket", "addr:full": "Lyme Green Retail Park, Macclesfield, Cheshire, SK11 OTB", "addr:postcode": "SK11 0TB", "addr:country": "GB", "name": "Macclesfield", "phone": "01625 420972", "website": "https://www.thefoodwarehouse.com//store-locator/default-store", "image": "https://assets.iceland.co.uk/i/iceland/store", "brand": "The Food Warehouse", "brand:wikidata": "Q87263899", "nsi_id": "thefoodwarehouse-a8278b"}, "geometry": {"type": "Point", "coordinates": [-2.12609, 53.25939]}},
{"type": "Feature", "id": "4nAUOBhQOvKN06d_kiqm5DXc4QA=", "properties": {"ref": "1730", "@spider": "the_food_warehouse_gb", "shop": "supermarket", "addr:full": "Unit 5 &amp; 6 St Peters Retail Park, Station Street, Mansfield, Nottinghamshire NG18 1BE", "addr:postcode": "NG18 1BE", "addr:country": "GB", "name": "Mansfield", "phone": "01623 651213", "website": "https://www.thefoodwarehouse.com//store-locator/mansfield", "image": "https://assets.iceland.co.uk/i/iceland/store", "brand": "The Food Warehouse", "brand:wikidata": "Q87263899", "nsi_id": "thefoodwarehouse-a8278b"}, "geometry": {"type": "Point", "coordinates": [-1.198459, 53.141587]}},
{"type": "Feature", "id": "I5hj2wdfvWaEpG5KeKIkj27AN1g=", "properties": {"ref": "1662", "@spider": "the_food_warehouse_gb", "shop": "supermarket", "addr:full": "Unit B, Gateway Retail Park, Middlesbrough, TS3 6AT", "addr:postcode": "TS3 6AT", "addr:country": "GB", "name": "Middlesbrough", "phone": "01642 241661", "website": "https://www.thefoodwarehouse.com//store-locator/middlesbrough", "image": "https://assets.iceland.co.uk/i/iceland/store", "brand": "The Food Warehouse", "brand:wikidata": "Q87263899", "nsi_id": "thefoodwarehouse-a8278b"}, "geometry": {"type": "Point", "coordinates": [-1.215271, 54.574994]}},
{"type": "Feature", "id": "26LAT1sq1LNUueDniXTUuqZDAvg=", "properties": {"ref": "1704", "@spider": "the_food_warehouse_gb", "shop": "supermarket", "addr:full": "Unit 4A, Studlands Shopping Park, Newmarket, Suffolk, CB8 7SX", "addr:postcode": "CB8 7SX", "addr:country": "GB", "name": "Newmarket", "phone": "01638 667837", "website": "https://www.thefoodwarehouse.com//store-locator/newmarket", "image": "https://assets.iceland.co.uk/i/iceland/store", "brand": "The Food Warehouse", "brand:wikidata": "Q87263899", "nsi_id": "thefoodwarehouse-a8278b"}, "geometry": {"type": "Point", "coordinates": [0.38596, 52.25805]}},
{"type": "Feature", "id": "J9T4XAkxV-bTwkUIHH09ro4pyY4=", "properties": {"ref": "1705", "@spider": "the_food_warehouse_gb", "shop": "supermarket", "addr:full": "Unit B Wakes Retail Park, Newport, Isle of Wight, PO30 5UZ", "addr:postcode": "PO30 5UZ", "addr:country": "GB", "name": "Newport IOW", "phone": "01983 527864", "website": "https://www.thefoodwarehouse.com//store-locator/newport-isle-of-wight", "image": "https://assets.iceland.co.uk/i/iceland/store", "brand": "The Food Warehouse", "brand:wikidata": "Q87263899", "nsi_id": "thefoodwarehouse-a8278b"}, "geometry": {"type": "Point", "coordinates": [-1.29412, 50.70531]}},
{"type": "Feature", "id": "atdvBwYKhdYfzd9TbEXxuCVdouk=", "properties": {"ref": "1725", "@spider": "the_food_warehouse_gb", "shop": "supermarket", "addr:full": "Newport Retail Park, Spytty Road NP19 4QQ", "addr:postcode": "NP19 4QQ", "addr:country": "GB", "name": "Newport Spytty", "phone": "01633 278740", "website": "https://www.thefoodwarehouse.com//store-locator/newport-spytty", "image": "https://assets.iceland.co.uk/i/iceland/store", "brand": "The Food Warehouse", "brand:wikidata": "Q87263899", "nsi_id": "thefoodwarehouse-a8278b"}, "geometry": {"type": "Point", "coordinates": [-2.95918, 51.57505]}},
{"type": "Feature", "id": "HRoSKP3_QThSE4bHLfHPiLKQy7M=", "properties": {"ref": "1691", "@spider": "the_food_warehouse_gb", "shop": "supermarket", "addr:full": "Unit C, Hall Road Retail Park, Norwich, NR4 6DH", "addr:postcode": "NR4 6DH", "addr:country": "GB", "name": "Norwich", "phone": "01638 667837", "website": "https://www.thefoodwarehouse.com//store-locator/norwich", "image": "https://assets.iceland.co.uk/i/iceland/store", "brand": "The Food Warehouse", "brand:wikidata": "Q87263899", "nsi_id": "thefoodwarehouse-a8278b"}, "geometry": {"type": "Point", "coordinates": [1.2903, 52.61033]}},
{"type": "Feature", "id": "GccGsWOgUtTGD1__Ich8TT0ojeQ=", "properties": {"ref": "1754", "@spider": "the_food_warehouse_gb", "shop": "supermarket", "addr:full": "Unit G, Riverside Retail Park, Electric Avenue, Nottinghamshire NG2 1RU", "addr:postcode": "NG2 1RU", "addr:country": "GB", "name": "Nottingham 2", "website": "https://www.thefoodwarehouse.com//store-locator/Nottingham", "image": "https://assets.iceland.co.uk/i/iceland/store", "brand": "The Food Warehouse", "brand:wikidata": "Q87263899", "nsi_id": "thefoodwarehouse-a8278b"}, "geometry": {"type": "Point", "coordinates": [-1.166105, 52.93257]}},
{"type": "Feature", "id": "v-JmE9LWOwOpicUGKLUgxHBtjDs=", "properties": {"ref": "1706", "@spider": "the_food_warehouse_gb", "shop": "supermarket", "addr:full": "Unit 4a Lady Bay Retail Park, Meadow Lane, Nottingham, Nottinghamshire, NG2 3GZ", "addr:postcode": "NG2 3GZ", "addr:country": "GB", "name": "Nottingham", "phone": "0115 0869925", "website": "https://www.thefoodwarehouse.com//store-locator/nottingham", "image": "https://assets.iceland.co.uk/i/iceland/store", "brand": "The Food Warehouse", "brand:wikidata": "Q87263899", "nsi_id": "thefoodwarehouse-a8278b"}, "geometry": {"type": "Point", "coordinates": [-1.13287, 52.94431]}},
{"type": "Feature", "id": "LwpjIDygui4Fpq0ZwgxCdO7Rv34=", "properties": {"ref": "1708", "@spider": "the_food_warehouse_gb", "shop": "supermarket", "addr:full": "Bourges Boulevard, Peterborough, Cambridgeshire, PE1 2AF", "addr:postcode": "PE1 2AF", "addr:country": "GB", "name": "Peterborough", "phone": "01733 340709", "website": "https://www.thefoodwarehouse.com//store-locator/peterborough", "image": "https://assets.iceland.co.uk/i/iceland/store", "brand": "The Food Warehouse", "brand:wikidata": "Q87263899", "nsi_id": "thefoodwarehouse-a8278b"}, "geometry": {"type": "Point", "coordinates": [-0.25249, 52.58374]}},
{"type": "Feature", "id": "HPs8co7EMi-vq3IaF3kwIY3knaE=", "properties": {"ref": "1709", "@spider": "the_food_warehouse_gb", "shop": "supermarket", "addr:full": "Monkswood Retail Park, Elder Way, Stevenage, Hertfordshire, SG1 1TL", "addr:postcode": "SG1 1TL", "addr:country": "GB", "name": "Stevenage", "phone": "01438 367409", "website": "https://www.thefoodwarehouse.com//store-locator/stevenage", "image": "https://assets.iceland.co.uk/i/iceland/store", "brand": "The Food Warehouse", "brand:wikidata": "Q87263899", "nsi_id": "thefoodwarehouse-a8278b"}, "geometry": {"type": "Point", "coordinates": [-0.19672, 51.89329]}},
{"type": "Feature", "id": "6LqiSobLPj4r8Y-2CVFe8pIb4C4=", "properties": {"ref": "1686", "@spider": "the_food_warehouse_gb", "shop": "supermarket", "addr:full": "Unit C, Portrack Shopping Park, Stockton-on-Tees, TS18 2PA", "addr:postcode": "TS18 2PA", "addr:country": "GB", "name": "Stockton-on-Tees", "phone": "01642 612093", "website": "https://www.thefoodwarehouse.com//store-locator/stockton-on-tees", "image": "https://assets.iceland.co.uk/i/iceland/store", "brand": "The Food Warehouse", "brand:wikidata": "Q87263899", "nsi_id": "thefoodwarehouse-a8278b"}, "geometry": {"type": "Point", "coordinates": [-1.29355, 54.57133]}},
{"type": "Feature", "id": "CIBFO9ckSTphXbR1uYSK9md9RJA=", "properties": {"ref": "1764", "@spider": "the_food_warehouse_gb", "shop": "supermarket", "addr:full": "Unit D, Ventura Retail Park, Staffordshire B78 3JD", "addr:postcode": "B78 3JD", "addr:country": "GB", "name": "Tamworth", "phone": "01827769940", "website": "https://www.thefoodwarehouse.com//store-locator/Tamworth", "image": "https://assets.iceland.co.uk/i/iceland/store", "brand": "The Food Warehouse", "brand:wikidata": "Q87263899", "nsi_id": "thefoodwarehouse-a8278b"}, "geometry": {"type": "Point", "coordinates": [-1.700575, 52.626892]}},
{"type": "Feature", "id": "TU3AU61FQMQKrNf2ZVs0WoNFrpc=", "properties": {"ref": "1760", "@spider": "the_food_warehouse_gb", "shop": "supermarket", "addr:full": "Unit 1C, Tonbridge Retail Park, Tonbridge, Kent TN9 1FX", "addr:postcode": "TN9 1FX", "addr:country": "GB", "name": "Tonbridge", "phone": "01732 353173", "website": "https://www.thefoodwarehouse.com//store-locator/Tonbridge", "image": "https://assets.iceland.co.uk/i/iceland/store", "brand": "The Food Warehouse", "brand:wikidata": "Q87263899", "nsi_id": "thefoodwarehouse-a8278b"}, "geometry": {"type": "Point", "coordinates": [0.28253, 51.196695]}},
{"type": "Feature", "id": "-nXynG6YtoYfqIvUNE3jh-s44wg=", "properties": {"ref": "1759", "@spider": "the_food_warehouse_gb", "shop": "supermarket", "addr:full": "Highertown, Truro, Cornwall TR1 3PZ", "addr:postcode": "TR1 3PZ", "addr:country": "GB", "name": "Truro", "phone": "01872271444", "website": "https://www.thefoodwarehouse.com//store-locator/Truro", "image": "https://assets.iceland.co.uk/i/iceland/store", "brand": "The Food Warehouse", "brand:wikidata": "Q87263899", "nsi_id": "thefoodwarehouse-a8278b"}, "geometry": {"type": "Point", "coordinates": [-5.071659, 50.261797]}},
{"type": "Feature", "id": "hrEVFrR1pgHc03Mk8oCLT1KAiMY=", "properties": {"ref": "1766", "@spider": "the_food_warehouse_gb", "shop": "supermarket", "addr:full": "Unit 1B, Wellington Retail Park, Portsmouth, Hampshire PO7 7FG", "addr:postcode": "PO7 7FG", "addr:country": "GB", "name": "Waterlooville", "phone": "02392 265536", "website": "https://www.thefoodwarehouse.com//store-locator/waterlooville", "image": "https://assets.iceland.co.uk/i/iceland/store", "brand": "The Food Warehouse", "brand:wikidata": "Q87263899", "nsi_id": "thefoodwarehouse-a8278b"}, "geometry": {"type": "Point", "coordinates": [-1.035557, 50.881651]}},
{"type": "Feature", "id": "HGuMTX2WB1kMpaBjDcruqpJkxmU=", "properties": {"ref": "None", "@spider": "the_food_warehouse_gb", "shop": "supermarket", "addr:full": "Unit 1 Jubilee Retail Park, Weymouth, Dorset, DT4 7BG", "addr:postcode": "DT4 7BG", "addr:country": "GB", "name": "Weymouth", "phone": "01234 567890897", "website": "https://www.thefoodwarehouse.com//store-locator/default-store", "image": "https://assets.iceland.co.uk/i/iceland/store", "brand": "The Food Warehouse", "brand:wikidata": "Q87263899", "nsi_id": "thefoodwarehouse-a8278b"}, "geometry": {"type": "Point", "coordinates": [-2.45728, 50.61598]}},
{"type": "Feature", "id": "aOQ8Ede7wwajCN2sEs2DtvOSrl4=", "properties": {"ref": "1728", "@spider": "the_food_warehouse_gb", "shop": "supermarket", "addr:full": "Unit B, Whitby Retail Park, Whitby, YO22 4PU", "addr:postcode": "YO22 4PU", "addr:country": "GB", "name": "Whitby", "phone": "01947 821607", "website": "https://www.thefoodwarehouse.com//store-locator/default-store", "image": "https://assets.iceland.co.uk/i/iceland/store", "brand": "The Food Warehouse", "brand:wikidata": "Q87263899", "nsi_id": "thefoodwarehouse-a8278b"}, "geometry": {"type": "Point", "coordinates": [-0.59632, 54.47077]}},
{"type": "Feature", "id": "o4WBQO2w3PTpMVGCRUDYzDXrm7o=", "properties": {"ref": "1687", "@spider": "the_food_warehouse_gb", "shop": "supermarket", "addr:full": "Queensway District Centre, Weston-super-Mare, Somerset BS22 6BT", "addr:postcode": "BS22 6BT", "addr:country": "GB", "name": "Worle", "phone": "01934 249383", "website": "https://www.thefoodwarehouse.com//store-locator/worle", "image": "https://assets.iceland.co.uk/i/iceland/store", "brand": "The Food Warehouse", "brand:wikidata": "Q87263899", "nsi_id": "thefoodwarehouse-a8278b"}, "geometry": {"type": "Point", "coordinates": [-2.9203, 51.36405]}}]}