{"type":"FeatureCollection","features":[{"type": "Feature", "id": "FEG4sve0HNeaz_4MkX4GdLuyT_M=", "properties": {"ref": "1030", "@spider": "thebigbiscuit", "addr:street": "530 North West Highway 7", "addr:city": "Blue Springs", "addr:state": "Missouri MO", "addr:postcode": "64014", "name": "Blue Springs, Missouri", "phone": "(816) 229-3108", "website": "https://bigbiscuit.com/location/bluesprings/", "brand": "The Big Biscuit"}},
{"type": "Feature", "id": "GpncsJXvTqJs2ytCWF3jRVRL-lo=", "properties": {"ref": "30214", "@spider": "thebigbiscuit", "addr:street": "1134 North 9th Street", "addr:city": "Broken Arrow", "addr:state": "Oklahoma OK", "addr:postcode": "74012", "name": "Broken Arrow, Oklahoma", "phone": "918-957-5187", "website": "https://bigbiscuit.com/location/brokenarrow/", "brand": "The Big Biscuit"}},
{"type": "Feature", "id": "D9Gxh-RPFn3IWZEUtyCGu3WUcMI=", "properties": {"ref": "123769", "@spider": "thebigbiscuit", "addr:street": "1333 N Santa Fe Avenue", "addr:city": "Edmond", "addr:state": "Oklahoma OK", "addr:postcode": "73003", "name": "Edmond, Oklahoma", "phone": "(405) 920-6284", "website": "https://bigbiscuit.com/location/edmond/", "brand": "The Big Biscuit"}},
{"type": "Feature", "id": "X7s1dfkLFWMGI6UmbseldpcNcaE=", "properties": {"ref": "1032", "@spider": "thebigbiscuit", "addr:street": "5502 Northeast Antioch Road", "addr:city": "Kansas City", "addr:state": "Missouri MO", "addr:postcode": "64119", "name": "Gladstone, Missouri", "phone": "(816) 321-2955", "website": "https://bigbiscuit.com/location/northkc/", "brand": "The Big Biscuit"}},
{"type": "Feature", "id": "C-1hwZv8WfxByNCGkVSPVADnZ84=", "properties": {"ref": "1033", "@spider": "thebigbiscuit", "addr:street": "16506 East US Highway 40", "addr:city": "Independence", "addr:state": "Missouri MO", "addr:postcode": "64055", "name": "Independence, Missouri", "phone": "(816) 478-6958", "website": "https://bigbiscuit.com/location/independence/", "brand": "The Big Biscuit"}},
{"type": "Feature", "id": "T9YYgcHYuaty-stQS-ms-wMLCyA=", "properties": {"ref": "595", "@spider": "thebigbiscuit", "addr:street": "6332 Northwest Barry Rd", "addr:city": "Kansas City", "addr:state": "Missouri MO", "addr:postcode": "64154", "name": "Kansas City, Missouri (Barry Rd.)", "phone": "(816) 326-8838", "website": "https://bigbiscuit.com/location/kansascity/", "brand": "The Big Biscuit"}},
{"type": "Feature", "id": "0-MXqswjqopDPc5bgFf1vd--ieA=", "properties": {"ref": "1034", "@spider": "thebigbiscuit", "addr:street": "4821 West 6th St", "addr:city": "Lawrence", "addr:state": "Kansas KS", "addr:postcode": "66049", "name": "Lawrence, Kansas", "phone": "(785) 856-0496", "website": "https://bigbiscuit.com/location/lawrence/", "brand": "The Big Biscuit"}},
{"type": "Feature", "id": "tCyzP_P5nWxWlw7-jwtzkzvH5i4=", "properties": {"ref": "1042", "@spider": "thebigbiscuit", "addr:street": "1640 Southeast Blue Parkway", "addr:city": "Lee's Summit", "addr:state": "Missouri MO", "addr:postcode": "64063", "name": "Lee's Summit, Missouri", "phone": "(816) 600-2636", "brand": "The Big Biscuit"}},
{"type": "Feature", "id": "F2D-Y7887tdzxagXjv1-XAR12Cs=", "properties": {"ref": "35676", "@spider": "thebigbiscuit", "addr:street": "16111 West 87th Terrace", "addr:city": "Lenexa", "addr:state": "Kansas KS", "addr:postcode": "66219", "name": "Lenexa, Kansas", "phone": "913-912-7051", "website": "https://bigbiscuit.com/location/lenexa/", "brand": "The Big Biscuit"}},
{"type": "Feature", "id": "5Mg9tw8X9x4NeV3vDjlHg01IE4A=", "properties": {"ref": "1035", "@spider": "thebigbiscuit", "addr:street": "840 South Missouri 291", "addr:city": "Liberty", "addr:state": "Missouri MO", "addr:postcode": "64068", "name": "Liberty, Missouri", "phone": "(816) 429-5314", "website": "https://bigbiscuit.com/location/liberty/", "brand": "The Big Biscuit"}},
{"type": "Feature", "id": "soc_r5FWVatvXZNBuk66fPZLRjg=", "properties": {"ref": "1039", "@spider": "thebigbiscuit", "addr:street": "13505 South Mur-Len Road, Suite 107", "addr:city": "Olathe", "addr:state": "Kansas KS", "addr:postcode": "66062", "name": "Olathe, Kansas", "phone": "(913) 397-0047", "website": "https://bigbiscuit.com/location/olathe/", "brand": "The Big Biscuit"}},
{"type": "Feature", "id": "-_H1R_qgfuL70-2WnA6yJ3tPpXc=", "properties": {"ref": "1036", "@spider": "thebigbiscuit", "addr:street": "8520 W 135th Street", "addr:city": "Overland Park", "addr:state": "Kansas KS", "addr:postcode": "66223", "name": "Overland Park, Kansas (135th & Antioch)", "phone": "(913) 544-1707", "website": "https://bigbiscuit.com/location/overlandpark-135/", "brand": "The Big Biscuit"}},
{"type": "Feature", "id": "na3vqMsm7MK4SbfZhFWfC2gUIbs=", "properties": {"ref": "1031", "@spider": "thebigbiscuit", "addr:street": "11148 Antioch Rd.", "addr:city": "Overland Park", "addr:state": "Kansas KS", "addr:postcode": "66210", "name": "Overland Park, Kansas (College & Antioch)", "phone": "(913) 258-5797", "website": "https://bigbiscuit.com/location/overlandpark/", "brand": "The Big Biscuit"}},
{"type": "Feature", "id": "W_OpfUHZQVW3smHnVYDaM7E7BFg=", "properties": {"ref": "1037", "@spider": "thebigbiscuit", "addr:street": "5400 West 95th Street", "addr:city": "Prairie Village", "addr:state": "Kansas KS", "addr:postcode": "66207", "name": "Prairie Village, Kansas", "phone": "(913) 648-6848", "website": "https://bigbiscuit.com/location/prairievillage/", "brand": "The Big Biscuit"}},
{"type": "Feature", "id": "8SXMSovR_MudhcwQ2qKo4D04VZ0=", "properties": {"ref": "1038", "@spider": "thebigbiscuit", "addr:street": "311 N Dean Ave", "addr:city": "Raymore", "addr:state": "Missouri MO", "addr:postcode": "64083", "name": "Raymore, Missouri", "phone": "(816) 318-9480", "website": "https://bigbiscuit.com/location/raymore/", "brand": "The Big Biscuit"}},
{"type": "Feature", "id": "2xYGtFj2e5d948-KbJ5C31Y0PXU=", "properties": {"ref": "1040", "@spider": "thebigbiscuit", "addr:street": "12276 Shawnee Mission Pkwy ", "addr:city": "Shawnee", "addr:state": "Kansas KS", "addr:postcode": "66216", "name": "Shawnee, Kansas", "phone": "(913) 912-7350", "website": "https://bigbiscuit.com/location/shawnee/", "brand": "The Big Biscuit"}},
{"type": "Feature", "id": "hB_qqKXzcCI2eHVjoNSB23eRfhs=", "properties": {"ref": "1043", "@spider": "thebigbiscuit", "addr:street": "2920 S Glenstone Avenue", "addr:city": "Springfield", "addr:state": "Missouri MO", "addr:postcode": "65804", "name": "Springfield, Missouri (Battlefield & Glenstone)", "phone": "(417) 360-1298", "website": "https://bigbiscuit.com/location/brentwood-springfield/", "brand": "The Big Biscuit"}},
{"type": "Feature", "id": "BnwsT5BnooQy4RZhm8q6aOP4bu8=", "properties": {"ref": "1045", "@spider": "thebigbiscuit", "addr:street": "3620 S Campbell", "addr:city": "Springfield", "addr:state": "Missouri MO", "addr:postcode": "65807", "name": "Springfield, MO (S Campbell & W Powell)", "phone": "(417) 360-1294", "website": "https://bigbiscuit.com/location/kickapoo-springfield/", "brand": "The Big Biscuit"}},
{"type": "Feature", "id": "TUvNZDsfyZMclo7LUwI4kmqgYVQ=", "properties": {"ref": "1041", "@spider": "thebigbiscuit", "addr:street": "139 N Belt Highway", "addr:city": "St. Joseph", "addr:state": "Missouri MO", "addr:postcode": "64506", "name": "St. Joseph, Missouri", "phone": "(816) 273-0633", "website": "https://bigbiscuit.com/location/stjoseph/", "brand": "The Big Biscuit"}},
{"type": "Feature", "id": "V_TQxarj3spzizkfrf8RHFhmXfQ=", "properties": {"ref": "1047", "@spider": "thebigbiscuit", "addr:street": "2815 SW Wanamaker Rd", "addr:city": "Topeka", "addr:state": "Kansas KS", "addr:postcode": "66614", "name": "Topeka, Kansas", "phone": "(785) 215-8130", "website": "https://bigbiscuit.com/location/topeka/", "brand": "The Big Biscuit"}},
{"type": "Feature", "id": "LEzuH_FhYMukjKMhBResjX_QdIo=", "properties": {"ref": "3923", "@spider": "thebigbiscuit", "addr:street": "8920 Memorial Dr", "addr:city": "Tulsa", "addr:state": "Oklahoma OK", "addr:postcode": "74133", "name": "Tulsa, Oklahoma", "phone": "918-957-5163", "website": "https://bigbiscuit.com/location/tulsa/", "brand": "The Big Biscuit"}},
{"type": "Feature", "id": "3hUv0bX6oS3elEhUZRO7m2Z1XfE=", "properties": {"ref": "1049", "@spider": "thebigbiscuit", "addr:street": "4039 Mill Street", "addr:city": "Kansas City", "addr:state": "Missouri MO", "addr:postcode": "64111", "name": "Westport, Kansas City, MO", "phone": "(816) 886-9300", "website": "https://bigbiscuit.com/location/westport/", "brand": "The Big Biscuit"}}]}