{"type":"FeatureCollection","features":[{"type": "Feature", "id": "AXWmVnPhL_xRfs2K9qs3AiS4oT4=", "properties": {"ref": "https://locations.thecheesecakefactory.com/ca/arcadia-124.html", "@spider": "thecheesecakefactory", "alt_name": "Cheesecake Factory", "amenity": "restaurant", "cuisine": "american", "addr:street_address": "903-L 400 S. Baldwin Avenue", "addr:city": "Arcadia", "addr:state": "CA", "addr:postcode": "91007", "addr:country": "US", "name": "The Cheesecake Factory", "phone": "626-447-2800", "website": "https://locations.thecheesecakefactory.com/ca/arcadia-124.html", "opening_hours": "Mo-Th 11:00-22:00; Fr-Sa 11:00-23:00; Su 10:00-22:00", "image": "http://www.thecheesecakefactory.com/media/locationImages/locations_SantaAnita.jpg", "brand": "The Cheesecake Factory", "brand:wikidata": "Q1045842", "nsi_id": "thecheesecakefactory-96af40"}, "geometry": {"type": "Point", "coordinates": [-118.051589, 34.1347003]}},
{"type": "Feature", "id": "SEU5bJ6i6ENzOKXA9nbRHPqQQkM=", "properties": {"ref": "https://locations.thecheesecakefactory.com/ca/anaheim-127.html", "@spider": "thecheesecakefactory", "alt_name": "Cheesecake Factory", "amenity": "restaurant", "cuisine": "american", "addr:street_address": "321 W Katella Avenue", "addr:city": "Anaheim", "addr:state": "CA", "addr:postcode": "92802", "addr:country": "US", "name": "The Cheesecake Factory", "phone": "714-533-7500", "website": "https://locations.thecheesecakefactory.com/ca/anaheim-127.html", "opening_hours": "Mo-Th 11:30-22:00; Fr-Sa 11:30-23:00; Su 10:00-22:00", "image": "http://www.thecheesecakefactory.com/media/locationImages/locations_Default.jpg", "brand": "The Cheesecake Factory", "brand:wikidata": "Q1045842", "nsi_id": "thecheesecakefactory-96af40"}, "geometry": {"type": "Point", "coordinates": [-117.9119473, 33.8036758]}},
{"type": "Feature", "id": "AO-3kzIevEXYeKEUVOKJEcCOe1E=", "properties": {"ref": "https://locations.thecheesecakefactory.com/az/tucson-150.html", "@spider": "thecheesecakefactory", "alt_name": "Cheesecake Factory", "amenity": "restaurant", "cuisine": "american", "addr:street_address": "60 West Wetmore Road", "addr:city": "Tucson", "addr:state": "AZ", "addr:postcode": "85705", "addr:country": "US", "name": "The Cheesecake Factory", "phone": "520-408-0033", "website": "https://locations.thecheesecakefactory.com/az/tucson-150.html", "opening_hours": "Mo-Th 11:00-22:00; Fr-Sa 11:00-23:00; Su 10:00-22:00", "image": "http://www.thecheesecakefactory.com/media/locationImages/locations_Default.jpg", "brand": "The Cheesecake Factory", "brand:wikidata": "Q1045842", "nsi_id": "thecheesecakefactory-96af40"}, "geometry": {"type": "Point", "coordinates": [-110.9727843, 32.2877607]}},
{"type": "Feature", "id": "VT1mFnmnp25h95Kecn0ckCPajlE=", "properties": {"ref": "https://locations.thecheesecakefactory.com/az/scottsdale-36.html", "@spider": "thecheesecakefactory", "alt_name": "Cheesecake Factory", "amenity": "restaurant", "cuisine": "american", "addr:street_address": "15230 North Scottsdale Road", "addr:city": "Scottsdale", "addr:state": "AZ", "addr:postcode": "85254", "addr:country": "US", "name": "The Cheesecake Factory", "phone": "480-607-0083", "website": "https://locations.thecheesecakefactory.com/az/scottsdale-36.html", "opening_hours": "Mo-Th 11:00-22:00; Fr-Sa 11:00-23:00; Su 10:00-22:00", "image": "http://www.thecheesecakefactory.com/media/locationImages/locations_Default.jpg", "brand": "The Cheesecake Factory", "brand:wikidata": "Q1045842", "nsi_id": "thecheesecakefactory-96af40"}, "geometry": {"type": "Point", "coordinates": [-111.9263989, 33.6249492]}},
{"type": "Feature", "id": "vM5hmXXL9BAnQV31zI3t1islkec=", "properties": {"ref": "https://locations.thecheesecakefactory.com/az/peoria-76.html", "@spider": "thecheesecakefactory", "alt_name": "Cheesecake Factory", "amenity": "restaurant", "cuisine": "american", "addr:street_address": "16134 North 83rd Avenue", "addr:city": "Peoria", "addr:state": "AZ", "addr:postcode": "85382", "addr:country": "US", "name": "The Cheesecake Factory", "phone": "623-773-2233", "website": "https://locations.thecheesecakefactory.com/az/peoria-76.html", "opening_hours": "Mo-Th 11:00-22:00; Fr-Sa 11:00-23:00; Su 10:00-22:00", "image": "http://www.thecheesecakefactory.com/media/locationImages/locations_Default.jpg", "brand": "The Cheesecake Factory", "brand:wikidata": "Q1045842", "nsi_id": "thecheesecakefactory-96af40"}, "geometry": {"type": "Point", "coordinates": [-112.2361197, 33.6332521]}},
{"type": "Feature", "id": "_lWaUOy1I7RJjcs3AU34ExwzDOM=", "properties": {"ref": "https://locations.thecheesecakefactory.com/az/phoenix-42.html", "@spider": "thecheesecakefactory", "alt_name": "Cheesecake Factory", "amenity": "restaurant", "cuisine": "american", "addr:street_address": "2402 East Camelback", "addr:city": "Phoenix", "addr:state": "AZ", "addr:postcode": "85016", "addr:country": "US", "name": "The Cheesecake Factory", "phone": "602-778-6501", "website": "https://locations.thecheesecakefactory.com/az/phoenix-42.html", "opening_hours": "Mo-Th 11:00-22:00; Fr-Sa 11:00-23:00; Su 10:00-22:00", "image": "http://www.thecheesecakefactory.com/media/locationImages/locations_Default.jpg", "brand": "The Cheesecake Factory", "brand:wikidata": "Q1045842", "nsi_id": "thecheesecakefactory-96af40"}, "geometry": {"type": "Point", "coordinates": [-112.0296123, 33.5103199]}},
{"type": "Feature", "id": "5nlf5UxO4YxLDw5SHv4gEwFt7L4=", "properties": {"ref": "https://locations.thecheesecakefactory.com/az/mesa-138.html", "@spider": "thecheesecakefactory", "alt_name": "Cheesecake Factory", "amenity": "restaurant", "cuisine": "american", "addr:street_address": "6613 E Southern Avenue", "addr:city": "Mesa", "addr:state": "AZ", "addr:postcode": "85206", "addr:country": "US", "name": "The Cheesecake Factory", "phone": "480-641-7300", "website": "https://locations.thecheesecakefactory.com/az/mesa-138.html", "opening_hours": "Mo-Th 11:00-22:00; Fr-Sa 11:00-23:00; Su 10:00-22:00", "image": "http://www.thecheesecakefactory.com/media/locationImages/locations_Default.jpg", "brand": "The Cheesecake Factory", "brand:wikidata": "Q1045842", "nsi_id": "thecheesecakefactory-96af40"}, "geometry": {"type": "Point", "coordinates": [-111.689036, 33.3913686]}},
{"type": "Feature", "id": "cvc5r9hYvDJ-IuWfCukzw8I9AkI=", "properties": {"ref": "https://locations.thecheesecakefactory.com/az/chandler-49.html", "@spider": "thecheesecakefactory", "alt_name": "Cheesecake Factory", "amenity": "restaurant", "cuisine": "american", "addr:street_address": "3111 W Chandler Boulevard", "addr:city": "Chandler", "addr:state": "AZ", "addr:postcode": "85226", "addr:country": "US", "name": "The Cheesecake Factory", "phone": "480-792-1300", "website": "https://locations.thecheesecakefactory.com/az/chandler-49.html", "opening_hours": "Mo-Th 11:00-22:00; Fr-Sa 11:00-23:00; Su 10:00-22:00", "image": "http://www.thecheesecakefactory.com/media/locationImages/locations_Default.jpg", "brand": "The Cheesecake Factory", "brand:wikidata": "Q1045842", "nsi_id": "thecheesecakefactory-96af40"}, "geometry": {"type": "Point", "coordinates": [-111.8984059, 33.3014704]}},
{"type": "Feature", "id": "9kJ20_eOWvnIswPP4vKhJBKNFaA=", "properties": {"ref": "https://locations.thecheesecakefactory.com/al/huntsville-217.html", "@spider": "thecheesecakefactory", "alt_name": "Cheesecake Factory", "amenity": "restaurant", "cuisine": "american", "addr:street_address": "300 The Bridge Northwest", "addr:city": "Huntsville", "addr:state": "AL", "addr:postcode": "35806", "addr:country": "US", "name": "The Cheesecake Factory", "phone": "256-836-7266", "website": "https://locations.thecheesecakefactory.com/al/huntsville-217.html", "opening_hours": "Mo-Th 11:00-22:00; Fr-Sa 11:00-23:00; Su 10:00-22:00", "image": "https://www.thecheesecakefactory.com/media/locationImages/locations_Default.jpg", "brand": "The Cheesecake Factory", "brand:wikidata": "Q1045842", "nsi_id": "thecheesecakefactory-96af40"}, "geometry": {"type": "Point", "coordinates": [-86.672822, 34.715261]}},
{"type": "Feature", "id": "nOa3s6JkMdM4NvAEizu1tgRCxK0=", "properties": {"ref": "https://locations.thecheesecakefactory.com/al/birmingham-77.html", "@spider": "thecheesecakefactory", "alt_name": "Cheesecake Factory", "amenity": "restaurant", "cuisine": "american", "addr:street_address": "236 Summit Boulevard", "addr:city": "Birmingham", "addr:state": "AL", "addr:postcode": "35243", "addr:country": "US", "name": "The Cheesecake Factory", "phone": "205-262-1800", "website": "https://locations.thecheesecakefactory.com/al/birmingham-77.html", "opening_hours": "Mo-Th 11:00-22:00; Fr-Sa 11:00-23:00; Su 10:00-22:00", "image": "http://www.thecheesecakefactory.com/media/locationImages/locations_Birmingham.jpg", "brand": "The Cheesecake Factory", "brand:wikidata": "Q1045842", "nsi_id": "thecheesecakefactory-96af40"}, "geometry": {"type": "Point", "coordinates": [-86.7311855, 33.4480622]}},
{"type": "Feature", "id": "axjLfk6EIm6bhwM6z-M_J8D6kQM=", "properties": {"ref": "https://locations.thecheesecakefactory.com/ca/roseville-140.html", "@spider": "thecheesecakefactory", "alt_name": "Cheesecake Factory", "amenity": "restaurant", "cuisine": "american", "addr:street_address": "1127 Galleria Boulevard", "addr:city": "Roseville", "addr:state": "CA", "addr:postcode": "95678", "addr:country": "US", "name": "The Cheesecake Factory", "phone": "916-781-3399", "website": "https://locations.thecheesecakefactory.com/ca/roseville-140.html", "opening_hours": "Mo-Th 11:00-22:00; Fr-Sa 11:00-23:00; Su 10:00-22:00", "image": "http://www.thecheesecakefactory.com/media/locationImages/locations_Default.jpg", "brand": "The Cheesecake Factory", "brand:wikidata": "Q1045842", "nsi_id": "thecheesecakefactory-96af40"}, "geometry": {"type": "Point", "coordinates": [-121.2684932, 38.772858]}},
{"type": "Feature", "id": "i2j_ZPkiObIf5ypg4vMyzeI4Lqk=", "properties": {"ref": "https://locations.thecheesecakefactory.com/ca/riverside-123.html", "@spider": "thecheesecakefactory", "alt_name": "Cheesecake Factory", "amenity": "restaurant", "cuisine": "american", "addr:street_address": "3525 Tyler Street", "addr:city": "Riverside", "addr:state": "CA", "addr:postcode": "92503", "addr:country": "US", "name": "The Cheesecake Factory", "phone": "951-352-4600", "website": "https://locations.thecheesecakefactory.com/ca/riverside-123.html", "opening_hours": "Mo-Th 11:00-22:00; Fr-Sa 11:00-23:00; Su 10:00-22:00", "image": "http://www.thecheesecakefactory.com/media/locationImages/locations_Riverside.jpg", "brand": "The Cheesecake Factory", "brand:wikidata": "Q1045842", "nsi_id": "thecheesecakefactory-96af40"}, "geometry": {"type": "Point", "coordinates": [-117.4565483, 33.9084392]}},
{"type": "Feature", "id": "2lid6LW6AW4PzskzvAVczGe2wxE=", "properties": {"ref": "https://locations.thecheesecakefactory.com/ca/redondo-beach-3.html", "@spider": "thecheesecakefactory", "alt_name": "Cheesecake Factory", "amenity": "restaurant", "cuisine": "american", "addr:street_address": "605 North Harbor Drive", "addr:city": "Redondo Beach", "addr:state": "CA", "addr:postcode": "90277", "addr:country": "US", "name": "The Cheesecake Factory", "phone": "310-376-0466", "website": "https://locations.thecheesecakefactory.com/ca/redondo-beach-3.html", "opening_hours": "Mo-Th 11:30-22:00; Fr-Sa 11:30-23:00; Su 10:00-22:00", "image": "http://www.thecheesecakefactory.com/media/locationImages/locations_redondo_beach.jpg", "brand": "The Cheesecake Factory", "brand:wikidata": "Q1045842", "nsi_id": "thecheesecakefactory-96af40"}, "geometry": {"type": "Point", "coordinates": [-118.395087, 33.8468486]}},
{"type": "Feature", "id": "xAhJPYBDjf-XHvHsEsr3selzFzM=", "properties": {"ref": "https://locations.thecheesecakefactory.com/ca/rancho-mirage-81.html", "@spider": "thecheesecakefactory", "alt_name": "Cheesecake Factory", "amenity": "restaurant", "cuisine": "american", "addr:street_address": "71800 Highway 111", "addr:city": "Rancho Mirage", "addr:state": "CA", "addr:postcode": "92270", "addr:country": "US", "name": "The Cheesecake Factory", "phone": "760-404-1400", "website": "https://locations.thecheesecakefactory.com/ca/rancho-mirage-81.html", "opening_hours": "Mo-Th 11:00-22:00; Fr-Sa 11:00-23:00; Su 10:00-22:00", "image": "http://www.thecheesecakefactory.com/media/locationImages/locations_rancho_mirage.jpg", "brand": "The Cheesecake Factory", "brand:wikidata": "Q1045842", "nsi_id": "thecheesecakefactory-96af40"}, "geometry": {"type": "Point", "coordinates": [-116.4103623, 33.7396142]}},
{"type": "Feature", "id": "rwrnV_BkQ4Q-lJMlnzs9aQukpqg=", "properties": {"ref": "https://locations.thecheesecakefactory.com/ca/rancho-cucamonga-91.html", "@spider": "thecheesecakefactory", "alt_name": "Cheesecake Factory", "amenity": "restaurant", "cuisine": "american", "addr:street_address": "12379 North Mainstreet", "addr:city": "Rancho Cucamonga", "addr:state": "CA", "addr:postcode": "91739", "addr:country": "US", "name": "The Cheesecake Factory", "phone": "909-463-3011", "website": "https://locations.thecheesecakefactory.com/ca/rancho-cucamonga-91.html", "opening_hours": "Mo-Th 11:00-22:00; Fr-Sa 11:00-23:00; Su 10:00-22:00", "image": "http://www.thecheesecakefactory.com/media/locationImages/locations_Default.jpg", "brand": "The Cheesecake Factory", "brand:wikidata": "Q1045842", "nsi_id": "thecheesecakefactory-96af40"}, "geometry": {"type": "Point", "coordinates": [-117.5353673, 34.1118035]}},
{"type": "Feature", "id": "6yE0dUxBOAdOtzfF04xtMS94q5Q=", "properties": {"ref": "https://locations.thecheesecakefactory.com/ca/pleasanton-109.html", "@spider": "thecheesecakefactory", "alt_name": "Cheesecake Factory", "amenity": "restaurant", "cuisine": "american", "addr:street_address": "1350 Stoneridge Mall Road", "addr:city": "Pleasanton", "addr:state": "CA", "addr:postcode": "94588", "addr:country": "US", "name": "The Cheesecake Factory", "phone": "925-463-1311", "website": "https://locations.thecheesecakefactory.com/ca/pleasanton-109.html", "opening_hours": "Mo-Th 11:00-22:00; Fr-Sa 11:00-23:00; Su 10:00-22:00", "image": "http://www.thecheesecakefactory.com/media/locationImages/locations_Pleasanton.jpg", "brand": "The Cheesecake Factory", "brand:wikidata": "Q1045842", "nsi_id": "thecheesecakefactory-96af40"}, "geometry": {"type": "Point", "coordinates": [-121.9290448, 37.6940889]}},
{"type": "Feature", "id": "uE8zFujkAASiWXtbLo7RwqLLLrc=", "properties": {"ref": "https://locations.thecheesecakefactory.com/tn/chattanooga-208.html", "@spider": "thecheesecakefactory", "alt_name": "Cheesecake Factory", "amenity": "restaurant", "cuisine": "american", "addr:street_address": "2084 Hamilton Place Boulevard", "addr:city": "Chattanooga", "addr:state": "TN", "addr:postcode": "37421", "addr:country": "US", "name": "The Cheesecake Factory", "phone": "423-499-4447", "website": "https://locations.thecheesecakefactory.com/tn/chattanooga-208.html", "opening_hours": "Mo-Th 11:30-22:00; Fr-Sa 11:30-23:00; Su 10:00-22:00", "image": "https://www.thecheesecakefactory.com/media/locationImages/locations_Default.jpg", "brand": "The Cheesecake Factory", "brand:wikidata": "Q1045842", "nsi_id": "thecheesecakefactory-96af40"}, "geometry": {"type": "Point", "coordinates": [-85.1611415, 35.0328102]}},
{"type": "Feature", "id": "LEtClkuU77rDeqan2HKDBbccjLU=", "properties": {"ref": "https://locations.thecheesecakefactory.com/wi/wauwatosa-85.html", "@spider": "thecheesecakefactory", "alt_name": "Cheesecake Factory", "amenity": "restaurant", "cuisine": "american", "addr:street_address": "2350 North Mayfair Road", "addr:city": "Wauwatosa", "addr:state": "WI", "addr:postcode": "53226", "addr:country": "US", "name": "The Cheesecake Factory", "phone": "414-257-2300", "website": "https://locations.thecheesecakefactory.com/wi/wauwatosa-85.html", "opening_hours": "Mo-Th 11:00-22:00; Fr-Sa 11:00-23:00; Su 10:00-22:00", "image": "http://www.thecheesecakefactory.com/media/locationImages/locations_Default.jpg", "brand": "The Cheesecake Factory", "brand:wikidata": "Q1045842", "nsi_id": "thecheesecakefactory-96af40"}, "geometry": {"type": "Point", "coordinates": [-88.0467665, 43.0616417]}},
{"type": "Feature", "id": "WOjRGTDtfI0Qi7PrYODHXMEVNVc=", "properties": {"ref": "https://locations.thecheesecakefactory.com/wi/madison-190.html", "@spider": "thecheesecakefactory", "alt_name": "Cheesecake Factory", "amenity": "restaurant", "cuisine": "american", "addr:street_address": "1 West Towne Mall", "addr:city": "Madison", "addr:state": "WI", "addr:postcode": "53719", "addr:country": "US", "name": "The Cheesecake Factory", "phone": "608-824-2370", "website": "https://locations.thecheesecakefactory.com/wi/madison-190.html", "opening_hours": "Mo-Th 11:00-22:00; Fr-Sa 11:00-23:00; Su 10:00-22:00", "image": "https://www.thecheesecakefactory.com/media/locationImages/locations_Default.jpg", "brand": "The Cheesecake Factory", "brand:wikidata": "Q1045842", "nsi_id": "thecheesecakefactory-96af40"}, "geometry": {"type": "Point", "coordinates": [-89.5054669, 43.0571911]}},
{"type": "Feature", "id": "Qe-fFRfXDBwIHIrK7f_WGYYCCOI=", "properties": {"ref": "https://locations.thecheesecakefactory.com/wi/glendale-119.html", "@spider": "thecheesecakefactory", "alt_name": "Cheesecake Factory", "amenity": "restaurant", "cuisine": "american", "addr:street_address": "5799 N Bayshore Drive", "addr:city": "Glendale", "addr:state": "WI", "addr:postcode": "53217", "addr:country": "US", "name": "The Cheesecake Factory", "phone": "414-906-8550", "website": "https://locations.thecheesecakefactory.com/wi/glendale-119.html", "opening_hours": "Mo-Th 11:00-22:00; Fr-Sa 11:00-23:00; Su 10:00-22:00", "image": "http://www.thecheesecakefactory.com/media/locationImages/locations_Default.jpg", "brand": "The Cheesecake Factory", "brand:wikidata": "Q1045842", "nsi_id": "thecheesecakefactory-96af40"}, "geometry": {"type": "Point", "coordinates": [-87.9147482, 43.1228109]}},
{"type": "Feature", "id": "lEOzeMEqkGwY-5EwxqKMWKz5KZA=", "properties": {"ref": "https://locations.thecheesecakefactory.com/wa/tukwila-131.html", "@spider": "thecheesecakefactory", "alt_name": "Cheesecake Factory", "amenity": "restaurant", "cuisine": "american", "addr:street_address": "230 Strander Boulevard", "addr:city": "Tukwila", "addr:state": "WA", "addr:postcode": "98188", "addr:country": "US", "name": "The Cheesecake Factory", "phone": "206-246-7300", "website": "https://locations.thecheesecakefactory.com/wa/tukwila-131.html", "opening_hours": "Mo-Th 11:00-22:00; Fr-Sa 11:00-23:00; Su 10:00-22:00", "image": "http://www.thecheesecakefactory.com/media/locationImages/locations_SouthCenter.jpg", "brand": "The Cheesecake Factory", "brand:wikidata": "Q1045842", "nsi_id": "thecheesecakefactory-96af40"}, "geometry": {"type": "Point", "coordinates": [-122.2603496, 47.4563281]}},
{"type": "Feature", "id": "i8LuKAo5CguqIVo8aaNsUwN_JcA=", "properties": {"ref": "https://locations.thecheesecakefactory.com/wa/tacoma-199.html", "@spider": "thecheesecakefactory", "alt_name": "Cheesecake Factory", "amenity": "restaurant", "cuisine": "american", "addr:street_address": "4502 S Steele Street", "addr:city": "Tacoma", "addr:state": "WA", "addr:postcode": "98409", "addr:country": "US", "name": "The Cheesecake Factory", "phone": "253-474-1112", "website": "https://locations.thecheesecakefactory.com/wa/tacoma-199.html", "opening_hours": "Mo-Th 11:30-22:00; Fr-Sa 11:30-23:00; Su 10:00-22:00", "image": "https://www.thecheesecakefactory.com/media/locationImages/locations_Default.jpg", "brand": "The Cheesecake Factory", "brand:wikidata": "Q1045842", "nsi_id": "thecheesecakefactory-96af40"}, "geometry": {"type": "Point", "coordinates": [-122.4687123, 47.2181187]}},
{"type": "Feature", "id": "_h-UMIC6N7ztOSi5i88XEvS8I8c=", "properties": {"ref": "https://locations.thecheesecakefactory.com/wa/seattle-43.html", "@spider": "thecheesecakefactory", "alt_name": "Cheesecake Factory", "amenity": "restaurant", "cuisine": "american", "addr:street_address": "700 Pike Street", "addr:city": "Seattle", "addr:state": "WA", "addr:postcode": "98101", "addr:country": "US", "name": "The Cheesecake Factory", "phone": "206-652-5400", "website": "https://locations.thecheesecakefactory.com/wa/seattle-43.html", "opening_hours": "Mo-Th 11:00-22:00; Fr-Sa 11:00-23:00; Su 10:00-22:00", "image": "http://www.thecheesecakefactory.com/media/locationImages/locations_Seattle.jpg", "brand": "The Cheesecake Factory", "brand:wikidata": "Q1045842", "nsi_id": "thecheesecakefactory-96af40"}, "geometry": {"type": "Point", "coordinates": [-122.333289, 47.6118674]}},
{"type": "Feature", "id": "uy5dT1QmM0Ywkr7Ncix0JeQj5BM=", "properties": {"ref": "https://locations.thecheesecakefactory.com/wa/lynnwood-206.html", "@spider": "thecheesecakefactory", "alt_name": "Cheesecake Factory", "amenity": "restaurant", "cuisine": "american", "addr:street_address": "3000 184th Street SW", "addr:city": "Lynnwood", "addr:state": "WA", "addr:postcode": "98037", "addr:country": "US", "name": "The Cheesecake Factory", "phone": "425-412-1376", "website": "https://locations.thecheesecakefactory.com/wa/lynnwood-206.html", "opening_hours": "Mo-Th 11:30-22:00; Fr-Sa 11:30-23:00; Su 10:00-22:00", "image": "https://www.thecheesecakefactory.com/media/locationImages/locations_Default.jpg", "brand": "The Cheesecake Factory", "brand:wikidata": "Q1045842", "nsi_id": "thecheesecakefactory-96af40"}, "geometry": {"type": "Point", "coordinates": [-122.2741425, 47.8276689]}},
{"type": "Feature", "id": "qNtzIc8HBu9JzfMLanxyMN_Akzg=", "properties": {"ref": "https://locations.thecheesecakefactory.com/wa/bellevue-47.html", "@spider": "thecheesecakefactory", "alt_name": "Cheesecake Factory", "amenity": "restaurant", "cuisine": "american", "addr:street_address": "401 Bellevue Square", "addr:city": "Bellevue", "addr:state": "WA", "addr:postcode": "98004", "addr:country": "US", "name": "The Cheesecake Factory", "phone": "425-450-6000", "website": "https://locations.thecheesecakefactory.com/wa/bellevue-47.html", "opening_hours": "Mo-Th 11:00-22:00; Fr-Sa 11:00-23:00; Su 10:00-22:00", "image": "http://www.thecheesecakefactory.com/media/locationImages/locations_Default.jpg", "brand": "The Cheesecake Factory", "brand:wikidata": "Q1045842", "nsi_id": "thecheesecakefactory-96af40"}, "geometry": {"type": "Point", "coordinates": [-122.2020893, 47.615931]}},
{"type": "Feature", "id": "DEsVjS2kq0smVO8tCn4hXZkfxCM=", "properties": {"ref": "https://locations.thecheesecakefactory.com/va/woodbridge-161.html", "@spider": "thecheesecakefactory", "alt_name": "Cheesecake Factory", "amenity": "restaurant", "cuisine": "american", "addr:street_address": "2708 Potomac Mills Circle", "addr:city": "Woodbridge", "addr:state": "VA", "addr:postcode": "22192", "addr:country": "US", "name": "The Cheesecake Factory", "phone": "703-490-8155", "website": "https://locations.thecheesecakefactory.com/va/woodbridge-161.html", "opening_hours": "Mo-Th 11:30-22:00; Fr-Sa 11:30-23:00; Su 10:00-22:00", "image": "http://www.thecheesecakefactory.com/media/locationImages/locations_Default.jpg", "brand": "The Cheesecake Factory", "brand:wikidata": "Q1045842", "nsi_id": "thecheesecakefactory-96af40"}, "geometry": {"type": "Point", "coordinates": [-77.2947916, 38.6425237]}},
{"type": "Feature", "id": "zSjerIdJV5ddHSv8UKdcRMZltBM=", "properties": {"ref": "https://locations.thecheesecakefactory.com/va/virginia-beach-82.html", "@spider": "thecheesecakefactory", "alt_name": "Cheesecake Factory", "amenity": "restaurant", "cuisine": "american", "addr:street_address": "265 Central Park Avenue", "addr:city": "Virginia Beach", "addr:state": "VA", "addr:postcode": "23462", "addr:country": "US", "name": "The Cheesecake Factory", "phone": "757-473-2900", "website": "https://locations.thecheesecakefactory.com/va/virginia-beach-82.html", "opening_hours": "Mo-Th 11:00-22:00; Fr-Sa 11:00-23:00; Su 10:00-22:00", "image": "http://hosted.where2getit.com/cheesecake/images/locations/virginia-beach.png", "brand": "The Cheesecake Factory", "brand:wikidata": "Q1045842", "nsi_id": "thecheesecakefactory-96af40"}, "geometry": {"type": "Point", "coordinates": [-76.1341244, 36.843186]}},
{"type": "Feature", "id": "F09rvrMW4bmuhv9VfWbKkx0MeBc=", "properties": {"ref": "https://locations.thecheesecakefactory.com/va/richmond-87.html", "@spider": "thecheesecakefactory", "alt_name": "Cheesecake Factory", "amenity": "restaurant", "cuisine": "american", "addr:street_address": "11800 W Broad Street", "addr:city": "Richmond", "addr:state": "VA", "addr:postcode": "23233", "addr:country": "US", "name": "The Cheesecake Factory", "phone": "804-364-4300", "website": "https://locations.thecheesecakefactory.com/va/richmond-87.html", "opening_hours": "Mo-Th 11:30-22:00; Fr-Sa 11:00-23:00; Su 10:00-22:00", "image": "http://www.thecheesecakefactory.com/media/locationImages/locations_Default.jpg", "brand": "The Cheesecake Factory", "brand:wikidata": "Q1045842", "nsi_id": "thecheesecakefactory-96af40"}, "geometry": {"type": "Point", "coordinates": [-77.6211245, 37.6559808]}},
{"type": "Feature", "id": "qRYfN0wM90h0qKTgvSiFEv09H7E=", "properties": {"ref": "https://locations.thecheesecakefactory.com/va/mclean-66.html", "@spider": "thecheesecakefactory", "alt_name": "Cheesecake Factory", "amenity": "restaurant", "cuisine": "american", "addr:street_address": "1796U International Drive", "addr:city": "McLean", "addr:state": "VA", "addr:postcode": "22102", "addr:country": "US", "name": "The Cheesecake Factory", "phone": "703-506-9311", "website": "https://locations.thecheesecakefactory.com/va/mclean-66.html", "opening_hours": "Mo-Th 11:30-22:00; Fr-Sa 11:30-23:00; Su 10:00-22:00", "image": "http://www.thecheesecakefactory.com/media/locationImages/locations_TysonsCorner.jpg", "brand": "The Cheesecake Factory", "brand:wikidata": "Q1045842", "nsi_id": "thecheesecakefactory-96af40"}, "geometry": {"type": "Point", "coordinates": [-77.2246007, 38.9236397]}},
{"type": "Feature", "id": "aoLy5EaIVEnZ4BPer0CJ4K-miu4=", "properties": {"ref": "https://locations.thecheesecakefactory.com/va/fairfax-114.html", "@spider": "thecheesecakefactory", "alt_name": "Cheesecake Factory", "amenity": "restaurant", "cuisine": "american", "addr:street_address": "11778 U Fair Oaks", "addr:city": "Fairfax", "addr:state": "VA", "addr:postcode": "22033", "addr:country": "US", "name": "The Cheesecake Factory", "phone": "703-273-6600", "website": "https://locations.thecheesecakefactory.com/va/fairfax-114.html", "opening_hours": "Mo-Th 11:00-22:00; Fr-Sa 11:00-23:00; Su 10:00-22:00", "image": "http://www.thecheesecakefactory.com/media/locationImages/locations_Default.jpg", "brand": "The Cheesecake Factory", "brand:wikidata": "Q1045842", "nsi_id": "thecheesecakefactory-96af40"}, "geometry": {"type": "Point", "coordinates": [-77.3898602, 38.8735614]}},
{"type": "Feature", "id": "TEiVh7NS9DT9nQLYEJ9fYkU2K3c=", "properties": {"ref": "https://locations.thecheesecakefactory.com/va/dulles-118.html", "@spider": "thecheesecakefactory", "alt_name": "Cheesecake Factory", "amenity": "restaurant", "cuisine": "american", "addr:street_address": "21076 Dulles Town Circle", "addr:city": "Dulles", "addr:state": "VA", "addr:postcode": "20166", "addr:country": "US", "name": "The Cheesecake Factory", "phone": "703-444-9002", "website": "https://locations.thecheesecakefactory.com/va/dulles-118.html", "opening_hours": "Mo-Th 11:30-22:00; Fr 11:30-23:00; Sa 11:00-23:00; Su 10:00-22:00", "image": "http://www.thecheesecakefactory.com/media/locationImages/locations_Default.jpg", "brand": "The Cheesecake Factory", "brand:wikidata": "Q1045842", "nsi_id": "thecheesecakefactory-96af40"}, "geometry": {"type": "Point", "coordinates": [-77.422728, 39.0330818]}},
{"type": "Feature", "id": "TJJnwteQSgvmnp2lxmWa3MM1z2I=", "properties": {"ref": "https://locations.thecheesecakefactory.com/va/arlington-72.html", "@spider": "thecheesecakefactory", "alt_name": "Cheesecake Factory", "amenity": "restaurant", "cuisine": "american", "addr:street_address": "2900 Clarendon Boulevard", "addr:city": "Arlington", "addr:state": "VA", "addr:postcode": "22201", "addr:country": "US", "name": "The Cheesecake Factory", "phone": "703-294-9966", "website": "https://locations.thecheesecakefactory.com/va/arlington-72.html", "opening_hours": "Mo-Th 11:30-22:00; Fr-Sa 11:30-23:00; Su 10:00-22:00", "image": "http://www.thecheesecakefactory.com/media/locationImages/locations_Default.jpg", "brand": "The Cheesecake Factory", "brand:wikidata": "Q1045842", "nsi_id": "thecheesecakefactory-96af40"}, "geometry": {"type": "Point", "coordinates": [-77.0934087, 38.8880754]}},
{"type": "Feature", "id": "OfFc1nW1yteR_yydA59Rr2Dd8N4=", "properties": {"ref": "https://locations.thecheesecakefactory.com/ut/salt-lake-city-157.html", "@spider": "thecheesecakefactory", "alt_name": "Cheesecake Factory", "amenity": "restaurant", "cuisine": "american", "addr:street_address": "65 Regent Street", "addr:city": "Salt Lake City", "addr:state": "UT", "addr:postcode": "84111", "addr:country": "US", "name": "The Cheesecake Factory", "phone": "801-521-1732", "website": "https://locations.thecheesecakefactory.com/ut/salt-lake-city-157.html", "opening_hours": "Mo-Th 11:00-22:00; Fr-Sa 11:00-23:00; Su 10:00-22:00", "image": "http://www.thecheesecakefactory.com/media/locationImages/locations_CityCreek.jpg", "brand": "The Cheesecake Factory", "brand:wikidata": "Q1045842", "nsi_id": "thecheesecakefactory-96af40"}, "geometry": {"type": "Point", "coordinates": [-111.8895096, 40.7675939]}},
{"type": "Feature", "id": "06wqwweVb2e6-VbO_kjeP2ieLd8=", "properties": {"ref": "https://locations.thecheesecakefactory.com/ut/murray-135.html", "@spider": "thecheesecakefactory", "alt_name": "Cheesecake Factory", "amenity": "restaurant", "cuisine": "american", "addr:street_address": "6223 S. State Street", "addr:city": "Murray", "addr:state": "UT", "addr:postcode": "84107", "addr:country": "US", "name": "The Cheesecake Factory", "phone": "801-266-9100", "website": "https://locations.thecheesecakefactory.com/ut/murray-135.html", "opening_hours": "Mo-Th 11:00-22:00; Fr-Sa 11:00-23:00; Su 10:00-22:00", "image": "http://www.thecheesecakefactory.com/media/locationImages/locations_Default.jpg", "brand": "The Cheesecake Factory", "brand:wikidata": "Q1045842", "nsi_id": "thecheesecakefactory-96af40"}, "geometry": {"type": "Point", "coordinates": [-111.8891896, 40.6351163]}},
{"type": "Feature", "id": "rbWhNdmRJFOTrkDxDdZ13hupNs0=", "properties": {"ref": "https://locations.thecheesecakefactory.com/tx/the-woodlands-71.html", "@spider": "thecheesecakefactory", "alt_name": "Cheesecake Factory", "amenity": "restaurant", "cuisine": "american", "addr:street_address": "1201 Lake Woodlands Drive", "addr:city": "The Woodlands", "addr:state": "TX", "addr:postcode": "77380", "addr:country": "US", "name": "The Cheesecake Factory", "phone": "281-419-3400", "website": "https://locations.thecheesecakefactory.com/tx/the-woodlands-71.html", "opening_hours": "Mo-Th 11:00-22:00; Fr-Sa 11:00-23:00; Su 10:00-22:00", "image": "http://www.thecheesecakefactory.com/media/locationImages/locations_Default.jpg", "brand": "The Cheesecake Factory", "brand:wikidata": "Q1045842", "nsi_id": "thecheesecakefactory-96af40"}, "geometry": {"type": "Point", "coordinates": [-95.4532646, 30.1643257]}},
{"type": "Feature", "id": "6WpYGbfuY_86gdPbjlMBUJeJ7l0=", "properties": {"ref": "https://locations.thecheesecakefactory.com/tx/sugar-land-64.html", "@spider": "thecheesecakefactory", "alt_name": "Cheesecake Factory", "amenity": "restaurant", "cuisine": "american", "addr:street_address": "16535 SW Freeway", "addr:city": "Sugar Land", "addr:state": "TX", "addr:postcode": "77479", "addr:country": "US", "name": "The Cheesecake Factory", "phone": "281-313-9500", "website": "https://locations.thecheesecakefactory.com/tx/sugar-land-64.html", "opening_hours": "Mo-Th 11:00-22:00; Fr-Sa 11:00-23:00; Su 10:00-22:00", "image": "http://www.thecheesecakefactory.com/media/locationImages/locations_Default.jpg", "brand": "The Cheesecake Factory", "brand:wikidata": "Q1045842", "nsi_id": "thecheesecakefactory-96af40"}, "geometry": {"type": "Point", "coordinates": [-95.6237405, 29.592937]}},
{"type": "Feature", "id": "0Qa4CrPnCZZWhwnGkkGBFtOgjTY=", "properties": {"ref": "https://locations.thecheesecakefactory.com/tx/southlake-104.html", "@spider": "thecheesecakefactory", "alt_name": "Cheesecake Factory", "amenity": "restaurant", "cuisine": "american", "addr:street_address": "1440 Plaza Place", "addr:city": "Southlake", "addr:state": "TX", "addr:postcode": "76092", "addr:country": "US", "name": "The Cheesecake Factory", "phone": "817-310-0050", "website": "https://locations.thecheesecakefactory.com/tx/southlake-104.html", "opening_hours": "Mo-Th 11:00-22:00; Fr-Sa 11:00-23:00; Su 10:00-22:00", "image": "http://www.thecheesecakefactory.com/media/locationImages/locations_Default.jpg", "brand": "The Cheesecake Factory", "brand:wikidata": "Q1045842", "nsi_id": "thecheesecakefactory-96af40"}, "geometry": {"type": "Point", "coordinates": [-97.1287449, 32.9453103]}},
{"type": "Feature", "id": "Ss-Iz6BfIgEpq17Yaug7xloa2ZE=", "properties": {"ref": "https://locations.thecheesecakefactory.com/tx/san-antonio-51.html", "@spider": "thecheesecakefactory", "alt_name": "Cheesecake Factory", "amenity": "restaurant", "cuisine": "american", "addr:street_address": "7400 San Pedro", "addr:city": "San Antonio", "addr:state": "TX", "addr:postcode": "78216", "addr:country": "US", "name": "The Cheesecake Factory", "phone": "210-798-2222", "website": "https://locations.thecheesecakefactory.com/tx/san-antonio-51.html", "opening_hours": "Mo-Th 11:00-22:00; Fr-Sa 11:00-23:00; Su 10:00-22:00", "image": "http://www.thecheesecakefactory.com/media/locationImages/locations_SanAntonio.jpg", "brand": "The Cheesecake Factory", "brand:wikidata": "Q1045842", "nsi_id": "thecheesecakefactory-96af40"}, "geometry": {"type": "Point", "coordinates": [-98.4962322, 29.5183652]}},
{"type": "Feature", "id": "KCwfq6G5UA3uo7c0D4fyVg4FYEU=", "properties": {"ref": "https://locations.thecheesecakefactory.com/tx/san-antonio-158.html", "@spider": "thecheesecakefactory", "alt_name": "Cheesecake Factory", "amenity": "restaurant", "cuisine": "american", "addr:street_address": "15900 La Cantera Parkway", "addr:city": "San Antonio", "addr:state": "TX", "addr:postcode": "78256", "addr:country": "US", "name": "The Cheesecake Factory", "phone": "210-558-1900", "website": "https://locations.thecheesecakefactory.com/tx/san-antonio-158.html", "opening_hours": "Mo-Th 11:00-22:00; Fr-Sa 11:00-23:00; Su 10:00-22:00", "image": "http://www.thecheesecakefactory.com/media/locationImages/locations_brea.jpg", "brand": "The Cheesecake Factory", "brand:wikidata": "Q1045842", "nsi_id": "thecheesecakefactory-96af40"}, "geometry": {"type": "Point", "coordinates": [-98.614716, 29.5915628]}},
{"type": "Feature", "id": "HiRDsNNKtjK1RWWiygjeJz0zNeI=", "properties": {"ref": "https://locations.thecheesecakefactory.com/tx/lubbock-209.html", "@spider": "thecheesecakefactory", "alt_name": "Cheesecake Factory", "amenity": "restaurant", "cuisine": "american", "addr:street_address": "6014 Slide Road", "addr:city": "Lubbock", "addr:state": "TX", "addr:postcode": "79414", "addr:country": "US", "name": "The Cheesecake Factory", "phone": "806-785-8636", "website": "https://locations.thecheesecakefactory.com/tx/lubbock-209.html", "opening_hours": "Mo-Th 11:30-22:00; Fr 11:30-23:00; Sa 11:00-23:00; Su 10:00-22:00", "image": "https://www.thecheesecakefactory.com/media/locationImages/locations_Default.jpg", "brand": "The Cheesecake Factory", "brand:wikidata": "Q1045842", "nsi_id": "thecheesecakefactory-96af40"}, "geometry": {"type": "Point", "coordinates": [-101.9229507, 33.5388879]}},
{"type": "Feature", "id": "g4W9D3kMVlcQAAab9rE2ywkH5Fk=", "properties": {"ref": "https://locations.thecheesecakefactory.com/tx/katy-221.html", "@spider": "thecheesecakefactory", "alt_name": "Cheesecake Factory", "amenity": "restaurant", "cuisine": "american", "addr:street_address": "5000 Katy Mills Circle", "addr:city": "Katy", "addr:state": "TX", "addr:postcode": "77494", "addr:country": "US", "name": "The Cheesecake Factory", "phone": "281-845-9317", "website": "https://locations.thecheesecakefactory.com/tx/katy-221.html", "opening_hours": "Mo-Th 11:30-22:00; Fr-Sa 11:30-23:00; Su 10:00-22:00", "image": "https://www.thecheesecakefactory.com/media/locationImages/locations_Default.jpg", "brand": "The Cheesecake Factory", "brand:wikidata": "Q1045842", "nsi_id": "thecheesecakefactory-96af40"}, "geometry": {"type": "Point", "coordinates": [-95.8093454, 29.7755219]}},
{"type": "Feature", "id": "PkjkENfwpW99Qu5dSY0Ll-wS20k=", "properties": {"ref": "https://locations.thecheesecakefactory.com/tx/houston-153.html", "@spider": "thecheesecakefactory", "alt_name": "Cheesecake Factory", "amenity": "restaurant", "cuisine": "american", "addr:street_address": "600 Memorial City", "addr:city": "Houston", "addr:state": "TX", "addr:postcode": "77024", "addr:country": "US", "name": "The Cheesecake Factory", "phone": "713-932-6344", "website": "https://locations.thecheesecakefactory.com/tx/houston-153.html", "opening_hours": "Mo-Th 11:00-22:00; Fr-Sa 11:00-23:00; Su 10:00-22:00", "image": "http://www.thecheesecakefactory.com/media/locationImages/locations_MemorialCity.jpg", "brand": "The Cheesecake Factory", "brand:wikidata": "Q1045842", "nsi_id": "thecheesecakefactory-96af40"}, "geometry": {"type": "Point", "coordinates": [-95.5537787, 29.7838192]}},
{"type": "Feature", "id": "LDum8n-Vbvrf22iRCX4Zc3wwAPY=", "properties": {"ref": "https://locations.thecheesecakefactory.com/tx/houston-13.html", "@spider": "thecheesecakefactory", "alt_name": "Cheesecake Factory", "amenity": "restaurant", "cuisine": "american", "addr:street_address": "5015 Westheimer Road", "addr:city": "Houston", "addr:state": "TX", "addr:postcode": "77056", "addr:country": "US", "name": "The Cheesecake Factory", "phone": "713-840-0600", "website": "https://locations.thecheesecakefactory.com/tx/houston-13.html", "opening_hours": "Mo-Th 11:00-22:00; Fr-Sa 11:00-23:00; Su 10:00-22:00", "image": "http://www.thecheesecakefactory.com/media/locationImages/locations_brea.jpg", "brand": "The Cheesecake Factory", "brand:wikidata": "Q1045842", "nsi_id": "thecheesecakefactory-96af40"}, "geometry": {"type": "Point", "coordinates": [-95.4631205, 29.7389671]}},
{"type": "Feature", "id": "u7b1RAdmMVGPWeGVSlF8aEbqs3A=", "properties": {"ref": "https://locations.thecheesecakefactory.com/tx/frisco-39.html", "@spider": "thecheesecakefactory", "alt_name": "Cheesecake Factory", "amenity": "restaurant", "cuisine": "american", "addr:street_address": "2601 Preston Road", "addr:city": "Frisco", "addr:state": "TX", "addr:postcode": "75034", "addr:country": "US", "name": "The Cheesecake Factory", "phone": "972-731-7799", "website": "https://locations.thecheesecakefactory.com/tx/frisco-39.html", "opening_hours": "Mo-Th 11:00-22:00; Fr-Sa 11:00-23:00; Su 10:00-22:00", "image": "http://www.thecheesecakefactory.com/media/locationImages/locations_StoneBriar.jpg", "brand": "The Cheesecake Factory", "brand:wikidata": "Q1045842", "nsi_id": "thecheesecakefactory-96af40"}, "geometry": {"type": "Point", "coordinates": [-96.81132, 33.0991992]}},
{"type": "Feature", "id": "bTOrdwZk6KT5BHhvq83LF4pevAg=", "properties": {"ref": "https://locations.thecheesecakefactory.com/tx/friendswood-162.html", "@spider": "thecheesecakefactory", "alt_name": "Cheesecake Factory", "amenity": "restaurant", "cuisine": "american", "addr:street_address": "1450 West Bay Area Boulevard", "addr:city": "Friendswood", "addr:state": "TX", "addr:postcode": "77546", "addr:country": "US", "name": "The Cheesecake Factory", "phone": "281-488-0822", "website": "https://locations.thecheesecakefactory.com/tx/friendswood-162.html", "opening_hours": "Mo-Th 11:00-22:00; Fr-Sa 11:00-23:00; Su 10:00-22:00", "image": "http://www.thecheesecakefactory.com/media/locationImages/locations_Default.jpg", "brand": "The Cheesecake Factory", "brand:wikidata": "Q1045842", "nsi_id": "thecheesecakefactory-96af40"}, "geometry": {"type": "Point", "coordinates": [-95.1466373, 29.539088]}},
{"type": "Feature", "id": "pdHuVRKiN_XYUWt15mtvE5dgOcI=", "properties": {"ref": "https://locations.thecheesecakefactory.com/tx/fort-worth-184.html", "@spider": "thecheesecakefactory", "alt_name": "Cheesecake Factory", "amenity": "restaurant", "cuisine": "american", "addr:street_address": "455 Commerce Street", "addr:city": "Fort Worth", "addr:state": "TX", "addr:postcode": "76102", "addr:country": "US", "name": "The Cheesecake Factory", "phone": "817-348-0810", "website": "https://locations.thecheesecakefactory.com/tx/fort-worth-184.html", "opening_hours": "Mo-Th 11:00-22:00; Fr-Sa 11:00-23:00; Su 10:00-22:00", "image": "http://cdn.thecheesecakefactory.com/images/locations_Default.jpg", "brand": "The Cheesecake Factory", "brand:wikidata": "Q1045842", "nsi_id": "thecheesecakefactory-96af40"}, "geometry": {"type": "Point", "coordinates": [-97.3302827, 32.7550573]}},
{"type": "Feature", "id": "CRXsbY0pGIjbMMuz-jX0XnEDtlo=", "properties": {"ref": "https://locations.thecheesecakefactory.com/tx/dallas-26.html", "@spider": "thecheesecakefactory", "alt_name": "Cheesecake Factory", "amenity": "restaurant", "cuisine": "american", "addr:street_address": "7700 West Northwest Highway", "addr:city": "Dallas", "addr:state": "TX", "addr:postcode": "75225", "addr:country": "US", "name": "The Cheesecake Factory", "phone": "214-373-4844", "website": "https://locations.thecheesecakefactory.com/tx/dallas-26.html", "opening_hours": "Mo-Th 11:00-22:00; Fr-Sa 11:00-23:00; Su 10:00-22:00", "image": "http://www.thecheesecakefactory.com/media/locationImages/locations_Default.jpg", "brand": "The Cheesecake Factory", "brand:wikidata": "Q1045842", "nsi_id": "thecheesecakefactory-96af40"}, "geometry": {"type": "Point", "coordinates": [-96.7745196, 32.8642534]}},
{"type": "Feature", "id": "E0brfZZC_BYW3dBN2tXchCBKFNw=", "properties": {"ref": "https://locations.thecheesecakefactory.com/tx/austin-48.html", "@spider": "thecheesecakefactory", "alt_name": "Cheesecake Factory", "amenity": "restaurant", "cuisine": "american", "addr:street_address": "10000 Research Boulevard", "addr:city": "Austin", "addr:state": "TX", "addr:postcode": "78759", "addr:country": "US", "name": "The Cheesecake Factory", "phone": "512-241-0777", "website": "https://locations.thecheesecakefactory.com/tx/austin-48.html", "opening_hours": "Mo-Th 11:00-22:00; Fr-Sa 11:00-23:00; Su 10:00-22:00", "image": "http://www.thecheesecakefactory.com/media/locationImages/locations_Default.jpg", "brand": "The Cheesecake Factory", "brand:wikidata": "Q1045842", "nsi_id": "thecheesecakefactory-96af40"}, "geometry": {"type": "Point", "coordinates": [-97.7482079, 30.3922628]}},
{"type": "Feature", "id": "NhgvLdHWiRzanYbg6MhZs84A8a8=", "properties": {"ref": "https://locations.thecheesecakefactory.com/tx/austin-188.html", "@spider": "thecheesecakefactory", "alt_name": "Cheesecake Factory", "amenity": "restaurant", "cuisine": "american", "addr:street_address": "2901 S Capital of Texas Highway", "addr:city": "Austin", "addr:state": "TX", "addr:postcode": "78746", "addr:country": "US", "name": "The Cheesecake Factory", "phone": "512-330-9315", "website": "https://locations.thecheesecakefactory.com/tx/austin-188.html", "opening_hours": "Mo-Th 11:00-22:00; Fr-Sa 11:00-23:00; Su 10:00-22:00", "image": "https://www.thecheesecakefactory.com/media/locationImages/locations_Default.jpg", "brand": "The Cheesecake Factory", "brand:wikidata": "Q1045842", "nsi_id": "thecheesecakefactory-96af40"}, "geometry": {"type": "Point", "coordinates": [-97.8072249, 30.2573622]}},
{"type": "Feature", "id": "Y3QFI9jYxkEvwgOgkA7SAnccQ0g=", "properties": {"ref": "https://locations.thecheesecakefactory.com/tx/arlington-133.html", "@spider": "thecheesecakefactory", "alt_name": "Cheesecake Factory", "amenity": "restaurant", "cuisine": "american", "addr:street_address": "3811 S Cooper Street", "addr:city": "Arlington", "addr:state": "TX", "addr:postcode": "76015", "addr:country": "US", "name": "The Cheesecake Factory", "phone": "817-465-2211", "website": "https://locations.thecheesecakefactory.com/tx/arlington-133.html", "opening_hours": "Mo-Th 11:00-22:00; Fr-Sa 11:00-23:00; Su 10:00-22:00", "image": "http://www.thecheesecakefactory.com/media/locationImages/locations_Default.jpg", "brand": "The Cheesecake Factory", "brand:wikidata": "Q1045842", "nsi_id": "thecheesecakefactory-96af40"}, "geometry": {"type": "Point", "coordinates": [-97.1298581, 32.680856]}},
{"type": "Feature", "id": "U-LDhA9qVy7lM9hg2l1K67ilbjg=", "properties": {"ref": "https://locations.thecheesecakefactory.com/tx/allen-142.html", "@spider": "thecheesecakefactory", "alt_name": "Cheesecake Factory", "amenity": "restaurant", "cuisine": "american", "addr:street_address": "820 Central Expressway", "addr:city": "Allen", "addr:state": "TX", "addr:postcode": "75013", "addr:country": "US", "name": "The Cheesecake Factory", "phone": "972-908-3900", "website": "https://locations.thecheesecakefactory.com/tx/allen-142.html", "opening_hours": "Mo-Th 11:00-22:00; Fr-Sa 11:00-23:00; Su 10:00-22:00", "image": "http://www.thecheesecakefactory.com/media/locationImages/locations_Default.jpg", "brand": "The Cheesecake Factory", "brand:wikidata": "Q1045842", "nsi_id": "thecheesecakefactory-96af40"}, "geometry": {"type": "Point", "coordinates": [-96.6828169, 33.0891353]}},
{"type": "Feature", "id": "HO0FBlS_l6zsLWspuwQ6JZETeic=", "properties": {"ref": "https://locations.thecheesecakefactory.com/tn/nashville-98.html", "@spider": "thecheesecakefactory", "alt_name": "Cheesecake Factory", "amenity": "restaurant", "cuisine": "american", "addr:street_address": "2133 Green Hills Village Drive", "addr:city": "Nashville", "addr:state": "TN", "addr:postcode": "37215", "addr:country": "US", "name": "The Cheesecake Factory", "phone": "615-463-2400", "website": "https://locations.thecheesecakefactory.com/tn/nashville-98.html", "opening_hours": "Mo-Th 11:00-22:00; Fr-Sa 11:00-23:00; Su 10:00-22:00", "image": "http://www.thecheesecakefactory.com/media/locationImages/locations_Nashville.jpg", "brand": "The Cheesecake Factory", "brand:wikidata": "Q1045842", "nsi_id": "thecheesecakefactory-96af40"}, "geometry": {"type": "Point", "coordinates": [-86.8149341, 36.1078195]}},
{"type": "Feature", "id": "Y_uWr4mo3UYUIG2dSIhNCQ441hQ=", "properties": {"ref": "https://locations.thecheesecakefactory.com/tn/nashville-220.html", "@spider": "thecheesecakefactory", "alt_name": "Cheesecake Factory", "amenity": "restaurant", "cuisine": "american", "addr:street_address": "253 Opry Mills Dr.", "addr:city": "Nashville", "addr:state": "TN", "addr:postcode": "37214", "addr:country": "US", "name": "The Cheesecake Factory", "phone": "615-747-6930", "website": "https://locations.thecheesecakefactory.com/tn/nashville-220.html", "opening_hours": "Mo-Th 11:30-22:00; Fr-Sa 11:30-23:00; Su 10:00-22:00", "image": "https://contentstatic.com/411d7e52-1f76-4894-9c8d-ce1b8b33c8ed.jpeg", "brand": "The Cheesecake Factory", "brand:wikidata": "Q1045842", "nsi_id": "thecheesecakefactory-96af40"}, "geometry": {"type": "Point", "coordinates": [-86.694795, 36.2034822]}},
{"type": "Feature", "id": "PL-grE3cq6BA-WBa0kW_DiKCtp8=", "properties": {"ref": "https://locations.thecheesecakefactory.com/tn/memphis-191.html", "@spider": "thecheesecakefactory", "alt_name": "Cheesecake Factory", "amenity": "restaurant", "cuisine": "american", "addr:street_address": "2760 N Germantown Parkway", "addr:city": "Memphis", "addr:state": "TN", "addr:postcode": "38133", "addr:country": "US", "name": "The Cheesecake Factory", "phone": "901-937-1613", "website": "https://locations.thecheesecakefactory.com/tn/memphis-191.html", "opening_hours": "Mo-Th 11:00-22:00; Fr-Sa 11:00-23:00; Su 10:00-22:00", "image": "https://www.thecheesecakefactory.com/media/locationImages/locations_Default.jpg", "brand": "The Cheesecake Factory", "brand:wikidata": "Q1045842", "nsi_id": "thecheesecakefactory-96af40"}, "geometry": {"type": "Point", "coordinates": [-89.7882436, 35.2001807]}},
{"type": "Feature", "id": "c-3nBoEkrRe1L_wyFTh2tCHqQh0=", "properties": {"ref": "https://locations.thecheesecakefactory.com/tn/franklin-182.html", "@spider": "thecheesecakefactory", "alt_name": "Cheesecake Factory", "amenity": "restaurant", "cuisine": "american", "addr:street_address": "1800 Galleria Boulevard", "addr:city": "Franklin", "addr:state": "TN", "addr:postcode": "37067", "addr:country": "US", "name": "The Cheesecake Factory", "phone": "615- 503-9726", "website": "https://locations.thecheesecakefactory.com/tn/franklin-182.html", "opening_hours": "Mo-Th 11:00-22:00; Fr-Sa 11:00-23:00; Su 10:00-22:00", "image": "http://www.thecheesecakefactory.com/media/locationImages/locations_Default.jpg", "brand": "The Cheesecake Factory", "brand:wikidata": "Q1045842", "nsi_id": "thecheesecakefactory-96af40"}, "geometry": {"type": "Point", "coordinates": [-86.813561, 35.957116]}},
{"type": "Feature", "id": "-DCSeDfaaSlwfDZzXFJPPs-KduQ=", "properties": {"ref": "https://locations.thecheesecakefactory.com/tn/knoxville-166.html", "@spider": "thecheesecakefactory", "alt_name": "Cheesecake Factory", "amenity": "restaurant", "cuisine": "american", "addr:street_address": "201 Morrell Road", "addr:city": "Knoxville", "addr:state": "TN", "addr:postcode": "37919", "addr:country": "US", "name": "The Cheesecake Factory", "phone": "865-670-7443", "website": "https://locations.thecheesecakefactory.com/tn/knoxville-166.html", "opening_hours": "Mo-Th 11:00-22:00; Fr-Sa 11:00-23:00; Su 10:00-22:00", "image": "http://www.thecheesecakefactory.com/media/locationImages/locations_Default.jpg", "brand": "The Cheesecake Factory", "brand:wikidata": "Q1045842", "nsi_id": "thecheesecakefactory-96af40"}, "geometry": {"type": "Point", "coordinates": [-84.0365266, 35.9256548]}},
{"type": "Feature", "id": "sT2NxN9MWdHPtPXFYvomogYGPME=", "properties": {"ref": "https://locations.thecheesecakefactory.com/sc/greenville-195.html", "@spider": "thecheesecakefactory", "alt_name": "Cheesecake Factory", "amenity": "restaurant", "cuisine": "american", "addr:street_address": "700 Haywood Mall", "addr:city": "Greenville", "addr:state": "SC", "addr:postcode": "29607", "addr:country": "US", "name": "The Cheesecake Factory", "phone": "864-288-4444", "website": "https://locations.thecheesecakefactory.com/sc/greenville-195.html", "opening_hours": "Mo-Th 11:30-22:00; Fr-Sa 11:30-23:00; Su 10:00-22:00", "image": "https://www.thecheesecakefactory.com/media/locationImages/locations_Default.jpg", "brand": "The Cheesecake Factory", "brand:wikidata": "Q1045842", "nsi_id": "thecheesecakefactory-96af40"}, "geometry": {"type": "Point", "coordinates": [-82.3335929, 34.8499166]}},
{"type": "Feature", "id": "wVa0Jp1iMCldjpQ99Az7ujB1YQY=", "properties": {"ref": "https://locations.thecheesecakefactory.com/san-juan/san-juan-165.html", "@spider": "thecheesecakefactory", "alt_name": "Cheesecake Factory", "amenity": "restaurant", "cuisine": "american", "addr:street_address": "525 F.D. Roosevelt Avenue", "addr:city": "San Juan", "addr:postcode": "00918", "addr:country": "PR", "name": "The Cheesecake Factory", "phone": "787-756-6200", "website": "https://locations.thecheesecakefactory.com/san-juan/san-juan-165.html", "opening_hours": "Mo-Th 11:00-22:00; Fr-Sa 11:00-23:00; Su 10:00-22:00", "image": "http://www.thecheesecakefactory.com/media/locationImages/locations_Default.jpg", "brand": "The Cheesecake Factory", "brand:wikidata": "Q1045842", "nsi_id": "thecheesecakefactory-96af40"}, "geometry": {"type": "Point", "coordinates": [-66.0742342, 18.4220743]}},
{"type": "Feature", "id": "-RrYkZchbOWKZsrJu1F2NGGW9TE=", "properties": {"ref": "https://locations.thecheesecakefactory.com/ri/providence-32.html", "@spider": "thecheesecakefactory", "alt_name": "Cheesecake Factory", "amenity": "restaurant", "cuisine": "american", "addr:street_address": "94 Providence Place", "addr:city": "Providence", "addr:state": "RI", "addr:postcode": "02903", "addr:country": "US", "name": "The Cheesecake Factory", "phone": "401-270-4010", "website": "https://locations.thecheesecakefactory.com/ri/providence-32.html", "opening_hours": "Mo-Th 11:30-22:00; Fr-Sa 11:30-23:00; Su 10:00-22:00", "image": "http://www.thecheesecakefactory.com/media/locationImages/locations_Providence.jpg", "brand": "The Cheesecake Factory", "brand:wikidata": "Q1045842", "nsi_id": "thecheesecakefactory-96af40"}, "geometry": {"type": "Point", "coordinates": [-71.4157034, 41.8289942]}},
{"type": "Feature", "id": "v2dVXsdnsi6Wky5E_CcCzJKzsA4=", "properties": {"ref": "https://locations.thecheesecakefactory.com/pa/willow-grove-128.html", "@spider": "thecheesecakefactory", "alt_name": "Cheesecake Factory", "amenity": "restaurant", "cuisine": "american", "addr:street_address": "2500 West Moreland Road", "addr:city": "Willow Grove", "addr:state": "PA", "addr:postcode": "19090", "addr:country": "US", "name": "The Cheesecake Factory", "phone": "215-659-0270", "website": "https://locations.thecheesecakefactory.com/pa/willow-grove-128.html", "opening_hours": "Mo-Th 11:30-22:00; Fr-Sa 11:30-23:00; Su 10:00-22:00", "image": "http://www.thecheesecakefactory.com/media/locationImages/locations_WillowGrove.jpg", "brand": "The Cheesecake Factory", "brand:wikidata": "Q1045842", "nsi_id": "thecheesecakefactory-96af40"}, "geometry": {"type": "Point", "coordinates": [-75.123453, 40.1401173]}},
{"type": "Feature", "id": "dKFv9RKziXEmZUj9zK_IK0nGW9Y=", "properties": {"ref": "https://locations.thecheesecakefactory.com/pa/ross-township-122.html", "@spider": "thecheesecakefactory", "alt_name": "Cheesecake Factory", "amenity": "restaurant", "cuisine": "american", "addr:street_address": "1000 Ross Park Mall Drive", "addr:city": "Ross Township", "addr:state": "PA", "addr:postcode": "15237", "addr:country": "US", "name": "The Cheesecake Factory", "phone": "412-358-9730", "website": "https://locations.thecheesecakefactory.com/pa/ross-township-122.html", "opening_hours": "Mo-Th 11:00-22:00; Fr-Sa 11:00-23:00; Su 10:00-22:00", "image": "http://www.thecheesecakefactory.com/media/locationImages/locations_RossPark.jpg", "brand": "The Cheesecake Factory", "brand:wikidata": "Q1045842", "nsi_id": "thecheesecakefactory-96af40"}, "geometry": {"type": "Point", "coordinates": [-80.0071943, 40.5441932]}},
{"type": "Feature", "id": "nHHLvfXyArXJINLGyRNQ8bQANm8=", "properties": {"ref": "https://locations.thecheesecakefactory.com/pa/pittsburgh-75.html", "@spider": "thecheesecakefactory", "alt_name": "Cheesecake Factory", "amenity": "restaurant", "cuisine": "american", "addr:street_address": "415 South 27th Street", "addr:city": "Pittsburgh", "addr:state": "PA", "addr:postcode": "15203", "addr:country": "US", "name": "The Cheesecake Factory", "phone": "412-431-7800", "website": "https://locations.thecheesecakefactory.com/pa/pittsburgh-75.html", "opening_hours": "Mo-Th 11:00-22:00; Fr-Sa 11:00-23:00; Su 10:00-22:00", "image": "http://www.thecheesecakefactory.com/media/locationImages/locations_pittsburgh.jpg", "brand": "The Cheesecake Factory", "brand:wikidata": "Q1045842", "nsi_id": "thecheesecakefactory-96af40"}, "geometry": {"type": "Point", "coordinates": [-79.9653013, 40.4282479]}},
{"type": "Feature", "id": "dQPFzT5TsETlIs8Bn31gG23SYAg=", "properties": {"ref": "https://locations.thecheesecakefactory.com/pa/philadelphia-181.html", "@spider": "thecheesecakefactory", "alt_name": "Cheesecake Factory", "amenity": "restaurant", "cuisine": "american", "addr:street_address": "1430 Walnut Street", "addr:city": "Philadelphia", "addr:state": "PA", "addr:postcode": "19102", "addr:country": "US", "name": "The Cheesecake Factory", "phone": "267-457-2203", "website": "https://locations.thecheesecakefactory.com/pa/philadelphia-181.html", "opening_hours": "Mo-Th 11:30-22:00; Fr-Sa 11:30-23:00; Su 10:00-22:00", "image": "https://www.thecheesecakefactory.com/media/locationImages/locations_Default.jpg", "brand": "The Cheesecake Factory", "brand:wikidata": "Q1045842", "nsi_id": "thecheesecakefactory-96af40"}, "geometry": {"type": "Point", "coordinates": [-75.1658813, 39.9491039]}},
{"type": "Feature", "id": "2jYmOFhcNpvC9STCAKz148Tazl8=", "properties": {"ref": "https://locations.thecheesecakefactory.com/pa/king-of-prussia-46.html", "@spider": "thecheesecakefactory", "alt_name": "Cheesecake Factory", "amenity": "restaurant", "cuisine": "american", "addr:street_address": "640 W. Dekalb Pike", "addr:city": "King of Prussia", "addr:state": "PA", "addr:postcode": "19406", "addr:country": "US", "name": "The Cheesecake Factory", "phone": "610-337-2200", "website": "https://locations.thecheesecakefactory.com/pa/king-of-prussia-46.html", "opening_hours": "Mo-Th 11:00-22:00; Fr-Sa 11:00-23:00; Su 10:00-22:00", "image": "http://www.thecheesecakefactory.com/media/locationImages/locations_Default.jpg", "brand": "The Cheesecake Factory", "brand:wikidata": "Q1045842", "nsi_id": "thecheesecakefactory-96af40"}, "geometry": {"type": "Point", "coordinates": [-75.3843108, 40.0902596]}},
{"type": "Feature", "id": "ecVB7bdFVCj_LwGuJ-VCKrBw_8Q=", "properties": {"ref": "https://locations.thecheesecakefactory.com/or/tigard-101.html", "@spider": "thecheesecakefactory", "alt_name": "Cheesecake Factory", "amenity": "restaurant", "cuisine": "american", "addr:street_address": "9309 Washington Square Rd", "addr:city": "Tigard", "addr:state": "OR", "addr:postcode": "97223", "addr:country": "US", "name": "The Cheesecake Factory", "phone": "503-620-1100", "website": "https://locations.thecheesecakefactory.com/or/tigard-101.html", "opening_hours": "Mo-Th 11:00-22:00; Fr-Sa 11:00-23:00; Su 10:00-22:00", "image": "http://www.thecheesecakefactory.com/media/locationImages/locations_Tigard.jpg", "brand": "The Cheesecake Factory", "brand:wikidata": "Q1045842", "nsi_id": "thecheesecakefactory-96af40"}, "geometry": {"type": "Point", "coordinates": [-122.7823563, 45.4509883]}},
{"type": "Feature", "id": "O_8mQI7rYm7i-SV0b_-wS4HnvLM=", "properties": {"ref": "https://locations.thecheesecakefactory.com/on/north-york-1501.html", "@spider": "thecheesecakefactory", "alt_name": "Cheesecake Factory", "amenity": "restaurant", "cuisine": "american", "addr:street_address": "3401 Dufferin Street", "addr:city": "North York", "addr:postcode": "M6A 2T9", "addr:country": "CA", "name": "The Cheesecake Factory", "phone": "416-781-4477", "website": "https://locations.thecheesecakefactory.com/on/north-york-1501.html", "opening_hours": "Mo-Th 11:00-22:00; Fr 11:00-23:00; Sa 10:00-23:00; Su 10:00-22:00", "image": "https://www.thecheesecakefactory.com/media/locationImages/locations_Default.jpg", "brand": "The Cheesecake Factory", "brand:wikidata": "Q1045842", "nsi_id": "thecheesecakefactory-96af40"}, "geometry": {"type": "Point", "coordinates": [-79.4528087, 43.7251083]}},
{"type": "Feature", "id": "lAqy0M6uEqBN8L51BDnlhbB7a5I=", "properties": {"ref": "https://locations.thecheesecakefactory.com/or/happy-valley-204.html", "@spider": "thecheesecakefactory", "alt_name": "Cheesecake Factory", "amenity": "restaurant", "cuisine": "american", "addr:street_address": "12000 SE 82nd Avenue", "addr:city": "Happy Valley", "addr:state": "OR", "addr:postcode": "97086", "addr:country": "US", "name": "The Cheesecake Factory", "phone": "503-653-1353", "website": "https://locations.thecheesecakefactory.com/or/happy-valley-204.html", "opening_hours": "Mo-Th 11:30-22:00; Fr-Sa 11:30-23:00; Su 10:00-22:00", "image": "https://www.thecheesecakefactory.com/media/locationImages/locations_Default.jpg", "brand": "The Cheesecake Factory", "brand:wikidata": "Q1045842", "nsi_id": "thecheesecakefactory-96af40"}, "geometry": {"type": "Point", "coordinates": [-122.5722181, 45.4341677]}},
{"type": "Feature", "id": "16w9VsvFLPbma79bLM3fB6TWJuM=", "properties": {"ref": "https://locations.thecheesecakefactory.com/ok/tulsa-130.html", "@spider": "thecheesecakefactory", "alt_name": "Cheesecake Factory", "amenity": "restaurant", "cuisine": "american", "addr:street_address": "8711 E 71st Street S", "addr:city": "Tulsa", "addr:state": "OK", "addr:postcode": "74133", "addr:country": "US", "name": "The Cheesecake Factory", "phone": "918-249-2300", "website": "https://locations.thecheesecakefactory.com/ok/tulsa-130.html", "opening_hours": "Mo-Th 11:00-22:00; Fr-Sa 11:00-23:00; Su 10:00-22:00", "image": "http://www.thecheesecakefactory.com/media/locationImages/locations_Default.jpg", "brand": "The Cheesecake Factory", "brand:wikidata": "Q1045842", "nsi_id": "thecheesecakefactory-96af40"}, "geometry": {"type": "Point", "coordinates": [-95.8795591, 36.0614349]}},
{"type": "Feature", "id": "M8qv34hSM_ZNSLbkxh6QwxYCc9s=", "properties": {"ref": "https://locations.thecheesecakefactory.com/ok/oklahoma-city-117.html", "@spider": "thecheesecakefactory", "alt_name": "Cheesecake Factory", "amenity": "restaurant", "cuisine": "american", "addr:street_address": "5600 N Penn Avenue", "addr:city": "Oklahoma City", "addr:state": "OK", "addr:postcode": "73112", "addr:country": "US", "name": "The Cheesecake Factory", "phone": "405-843-6111", "website": "https://locations.thecheesecakefactory.com/ok/oklahoma-city-117.html", "opening_hours": "Mo-Th 11:00-22:00; Fr-Sa 11:00-23:00; Su 10:00-22:00", "image": "http://www.thecheesecakefactory.com/media/locationImages/locations_OklahomaCity.jpg", "brand": "The Cheesecake Factory", "brand:wikidata": "Q1045842", "nsi_id": "thecheesecakefactory-96af40"}, "geometry": {"type": "Point", "coordinates": [-97.5471502, 35.5260185]}},
{"type": "Feature", "id": "rA-Y9FqTCPt0Bzb63NM-M8SjPwU=", "properties": {"ref": "https://locations.thecheesecakefactory.com/oh/westlake-93.html", "@spider": "thecheesecakefactory", "alt_name": "Cheesecake Factory", "amenity": "restaurant", "cuisine": "american", "addr:street_address": "148 Crocker Park Boulevard", "addr:city": "Westlake", "addr:state": "OH", "addr:postcode": "44145", "addr:country": "US", "name": "The Cheesecake Factory", "phone": "440-808-1818", "website": "https://locations.thecheesecakefactory.com/oh/westlake-93.html", "opening_hours": "Mo-Th 11:00-22:00; Fr-Sa 11:00-23:00; Su 10:00-22:00", "image": "http://www.thecheesecakefactory.com/media/locationImages/locations_Default.jpg", "brand": "The Cheesecake Factory", "brand:wikidata": "Q1045842", "nsi_id": "thecheesecakefactory-96af40"}, "geometry": {"type": "Point", "coordinates": [-81.95088, 41.4601318]}},
{"type": "Feature", "id": "FOowwI0tWvnhBlmwevTNS7NfQ0A=", "properties": {"ref": "https://locations.thecheesecakefactory.com/oh/lyndhurst-70.html", "@spider": "thecheesecakefactory", "alt_name": "Cheesecake Factory", "amenity": "restaurant", "cuisine": "american", "addr:street_address": "24265 Cedar Road", "addr:city": "Lyndhurst", "addr:state": "OH", "addr:postcode": "44124", "addr:country": "US", "name": "The Cheesecake Factory", "phone": "216-691-3387", "website": "https://locations.thecheesecakefactory.com/oh/lyndhurst-70.html", "opening_hours": "Mo-Th 11:00-22:00; Fr-Sa 11:00-23:00; Su 10:00-22:00", "image": "http://www.thecheesecakefactory.com/media/locationImages/locations_Cleveland.jpg", "brand": "The Cheesecake Factory", "brand:wikidata": "Q1045842", "nsi_id": "thecheesecakefactory-96af40"}, "geometry": {"type": "Point", "coordinates": [-81.5022393, 41.5023818]}},
{"type": "Feature", "id": "-I6YA9K9skvL7_V6fy0w49ov_pc=", "properties": {"ref": "https://locations.thecheesecakefactory.com/oh/liberty-township-185.html", "@spider": "thecheesecakefactory", "alt_name": "Cheesecake Factory", "amenity": "restaurant", "cuisine": "american", "addr:street_address": "7612 Blake Street", "addr:city": "Liberty Township", "addr:state": "OH", "addr:postcode": "45069", "addr:country": "US", "name": "The Cheesecake Factory", "phone": "513-755-2761", "website": "https://locations.thecheesecakefactory.com/oh/liberty-township-185.html", "opening_hours": "Mo-Th 11:00-22:00; Fr-Sa 11:00-23:00; Su 10:00-22:00", "image": "https://www.thecheesecakefactory.com/media/locationImages/locations_Default.jpg", "brand": "The Cheesecake Factory", "brand:wikidata": "Q1045842", "nsi_id": "thecheesecakefactory-96af40"}, "geometry": {"type": "Point", "coordinates": [-84.3715782, 39.3709248]}},
{"type": "Feature", "id": "Zf_33G2kN8qNgtbsmA_r6LRC_64=", "properties": {"ref": "https://locations.thecheesecakefactory.com/oh/columbus-30.html", "@spider": "thecheesecakefactory", "alt_name": "Cheesecake Factory", "amenity": "restaurant", "cuisine": "american", "addr:street_address": "3975 Townsfair Way", "addr:city": "Columbus", "addr:state": "OH", "addr:postcode": "43219", "addr:country": "US", "name": "The Cheesecake Factory", "phone": "614-418-7600", "website": "https://locations.thecheesecakefactory.com/oh/columbus-30.html", "opening_hours": "Mo-Th 11:00-22:00; Fr-Sa 11:00-23:00; Su 10:00-22:00", "image": "http://www.thecheesecakefactory.com/media/locationImages/locations_Default.jpg", "brand": "The Cheesecake Factory", "brand:wikidata": "Q1045842", "nsi_id": "thecheesecakefactory-96af40"}, "geometry": {"type": "Point", "coordinates": [-82.9156561, 40.0486779]}},
{"type": "Feature", "id": "bPnyv6t0w9fNJEFtXy5RbgKAWUQ=", "properties": {"ref": "https://locations.thecheesecakefactory.com/oh/columbus-144.html", "@spider": "thecheesecakefactory", "alt_name": "Cheesecake Factory", "amenity": "restaurant", "cuisine": "american", "addr:street_address": "1566 Polaris Parkway", "addr:city": "Columbus", "addr:state": "OH", "addr:postcode": "43240", "addr:country": "US", "name": "The Cheesecake Factory", "phone": "614-848-6700", "website": "https://locations.thecheesecakefactory.com/oh/columbus-144.html", "opening_hours": "Mo-Th 11:00-22:00; Fr-Sa 11:00-23:00; Su 10:00-22:00", "image": "http://www.thecheesecakefactory.com/media/locationImages/locations_Default.jpg", "brand": "The Cheesecake Factory", "brand:wikidata": "Q1045842", "nsi_id": "thecheesecakefactory-96af40"}, "geometry": {"type": "Point", "coordinates": [-82.9779609, 40.1453231]}},
{"type": "Feature", "id": "juiV13WudEcW5WLgAHFucaO1LLY=", "properties": {"ref": "https://locations.thecheesecakefactory.com/oh/cincinnati-74.html", "@spider": "thecheesecakefactory", "alt_name": "Cheesecake Factory", "amenity": "restaurant", "cuisine": "american", "addr:street_address": "7875 Montgomery Road", "addr:city": "Cincinnati", "addr:state": "OH", "addr:postcode": "45236", "addr:country": "US", "name": "The Cheesecake Factory", "phone": "513-984-6911", "website": "https://locations.thecheesecakefactory.com/oh/cincinnati-74.html", "opening_hours": "Mo-Th 11:00-22:00; Fr-Sa 11:00-23:00; Su 10:00-22:00", "image": "http://www.thecheesecakefactory.com/media/locationImages/locations_Default.jpg", "brand": "The Cheesecake Factory", "brand:wikidata": "Q1045842", "nsi_id": "thecheesecakefactory-96af40"}, "geometry": {"type": "Point", "coordinates": [-84.3784769, 39.2008741]}},
{"type": "Feature", "id": "Eqn2R6qQ-IER1bEZKSq5RO6uTV8=", "properties": {"ref": "https://locations.thecheesecakefactory.com/oh/beavercreek-112.html", "@spider": "thecheesecakefactory", "alt_name": "Cheesecake Factory", "amenity": "restaurant", "cuisine": "american", "addr:street_address": "56 Greene Boulevard", "addr:city": "Beavercreek", "addr:state": "OH", "addr:postcode": "45440", "addr:country": "US", "name": "The Cheesecake Factory", "phone": "937-320-9901", "website": "https://locations.thecheesecakefactory.com/oh/beavercreek-112.html", "opening_hours": "Mo-Th 11:00-22:00; Fr-Sa 11:00-23:00; Su 10:00-22:00", "image": "http://www.thecheesecakefactory.com/media/locationImages/locations_dayton.jpg", "brand": "The Cheesecake Factory", "brand:wikidata": "Q1045842", "nsi_id": "thecheesecakefactory-96af40"}, "geometry": {"type": "Point", "coordinates": [-84.1021937, 39.6946512]}},
{"type": "Feature", "id": "ptjfJ04YdFfUrQWKwLzzaGSb0Kc=", "properties": {"ref": "https://locations.thecheesecakefactory.com/ny/yonkers-152.html", "@spider": "thecheesecakefactory", "alt_name": "Cheesecake Factory", "amenity": "restaurant", "cuisine": "american", "addr:street_address": "140 Market Street", "addr:city": "Yonkers", "addr:state": "NY", "addr:postcode": "10710", "addr:country": "US", "name": "The Cheesecake Factory", "phone": "914-709-9240", "website": "https://locations.thecheesecakefactory.com/ny/yonkers-152.html", "opening_hours": "Mo-Th 11:00-22:00; Fr-Sa 11:00-23:00; Su 10:00-22:00", "image": "http://www.thecheesecakefactory.com/media/locationImages/locations_RidgeHill.jpg", "brand": "The Cheesecake Factory", "brand:wikidata": "Q1045842", "nsi_id": "thecheesecakefactory-96af40"}, "geometry": {"type": "Point", "coordinates": [-73.8560114, 40.9638827]}},
{"type": "Feature", "id": "RGyzNcgBYHC0ZMqxxEfUilwfz3U=", "properties": {"ref": "https://locations.thecheesecakefactory.com/ny/white-plains-69.html", "@spider": "thecheesecakefactory", "alt_name": "Cheesecake Factory", "amenity": "restaurant", "cuisine": "american", "addr:street_address": "1 Maple Avenue", "addr:city": "White Plains", "addr:state": "NY", "addr:postcode": "10601", "addr:country": "US", "name": "The Cheesecake Factory", "phone": "914-683-5253", "website": "https://locations.thecheesecakefactory.com/ny/white-plains-69.html", "opening_hours": "Mo-Th 11:30-22:00; Fr-Sa 11:30-23:00; Su 10:00-22:00", "image": "http://www.thecheesecakefactory.com/media/locationImages/locations_Default.jpg", "brand": "The Cheesecake Factory", "brand:wikidata": "Q1045842", "nsi_id": "thecheesecakefactory-96af40"}, "geometry": {"type": "Point", "coordinates": [-73.7593551, 41.0291651]}},
{"type": "Feature", "id": "d26rXuAaxVkwIgfwNUVjIi5uKNI=", "properties": {"ref": "https://locations.thecheesecakefactory.com/ny/west-nyack-62.html", "@spider": "thecheesecakefactory", "alt_name": "Cheesecake Factory", "amenity": "restaurant", "cuisine": "american", "addr:street_address": "1612 Palisades Center Drive", "addr:city": "West Nyack", "addr:state": "NY", "addr:postcode": "10994", "addr:country": "US", "name": "The Cheesecake Factory", "phone": "845-727-1000", "website": "https://locations.thecheesecakefactory.com/ny/west-nyack-62.html", "opening_hours": "Mo-Th 11:30-22:00; Fr-Sa 11:30-23:00; Su 10:00-22:00", "image": "http://www.thecheesecakefactory.com/media/locationImages/locations_Default.jpg", "brand": "The Cheesecake Factory", "brand:wikidata": "Q1045842", "nsi_id": "thecheesecakefactory-96af40"}, "geometry": {"type": "Point", "coordinates": [-73.9555908, 41.0965365]}},
{"type": "Feature", "id": "PJELPGSd4nEsKSzNMSbyGPFjLAI=", "properties": {"ref": "https://locations.thecheesecakefactory.com/ny/westbury-20.html", "@spider": "thecheesecakefactory", "alt_name": "Cheesecake Factory", "amenity": "restaurant", "cuisine": "american", "addr:street_address": "1504 Old Country Road", "addr:city": "Westbury", "addr:state": "NY", "addr:postcode": "11590", "addr:country": "US", "name": "The Cheesecake Factory", "phone": "516-222-5500", "website": "https://locations.thecheesecakefactory.com/ny/westbury-20.html", "opening_hours": "Mo-Th 11:30-22:00; Fr-Sa 11:30-23:00; Su 10:00-22:00", "image": "http://www.thecheesecakefactory.com/media/locationImages/locations_Westbury.jpg", "brand": "The Cheesecake Factory", "brand:wikidata": "Q1045842", "nsi_id": "thecheesecakefactory-96af40"}, "geometry": {"type": "Point", "coordinates": [-73.5951139, 40.7440752]}},
{"type": "Feature", "id": "o3oNI1pHGhUHn4Z61I_NjWjMR0o=", "properties": {"ref": "https://locations.thecheesecakefactory.com/ny/syracuse-174.html", "@spider": "thecheesecakefactory", "alt_name": "Cheesecake Factory", "amenity": "restaurant", "cuisine": "american", "addr:street_address": "306 Hiawatha Boulevard West Space J-112", "addr:city": "Syracuse", "addr:state": "NY", "addr:postcode": "13290", "addr:country": "US", "name": "The Cheesecake Factory", "phone": "315-422-2559", "website": "https://locations.thecheesecakefactory.com/ny/syracuse-174.html", "opening_hours": "Mo-Th 11:30-22:00; Fr-Sa 11:30-23:00; Su 10:00-22:00", "image": "http://www.thecheesecakefactory.com/media/locationImages/locations_Default.jpg", "brand": "The Cheesecake Factory", "brand:wikidata": "Q1045842", "nsi_id": "thecheesecakefactory-96af40"}, "geometry": {"type": "Point", "coordinates": [-76.1709924, 43.0686991]}},
{"type": "Feature", "id": "6qWp5r-XDEzeMvbuLGYlrBoyDb0=", "properties": {"ref": "https://locations.thecheesecakefactory.com/ny/pittsford-129.html", "@spider": "thecheesecakefactory", "alt_name": "Cheesecake Factory", "amenity": "restaurant", "cuisine": "american", "addr:street_address": "3349 Monroe Avenue", "addr:city": "Pittsford", "addr:state": "NY", "addr:postcode": "14618", "addr:country": "US", "name": "The Cheesecake Factory", "phone": "585-381-8681", "website": "https://locations.thecheesecakefactory.com/ny/pittsford-129.html", "opening_hours": "Mo-Th 11:30-22:00; Fr-Sa 11:30-23:00; Su 10:00-22:00", "image": "http://www.thecheesecakefactory.com/media/locationImages/locations_Rochester.jpg", "brand": "The Cheesecake Factory", "brand:wikidata": "Q1045842", "nsi_id": "thecheesecakefactory-96af40"}, "geometry": {"type": "Point", "coordinates": [-77.5383647, 43.1012884]}},
{"type": "Feature", "id": "CgzY2rm3BFZi0taT62NEnmLWuXI=", "properties": {"ref": "https://locations.thecheesecakefactory.com/ny/lake-grove-111.html", "@spider": "thecheesecakefactory", "alt_name": "Cheesecake Factory", "amenity": "restaurant", "cuisine": "american", "addr:street_address": "610 Smith Haven Mall", "addr:city": "Lake Grove", "addr:state": "NY", "addr:postcode": "11755", "addr:country": "US", "name": "The Cheesecake Factory", "phone": "631-361-6600", "website": "https://locations.thecheesecakefactory.com/ny/lake-grove-111.html", "opening_hours": "Mo-Th 11:30-22:00; Fr-Sa 11:30-23:00; Su 10:00-22:00", "image": "http://www.thecheesecakefactory.com/media/locationImages/locations_Default.jpg", "brand": "The Cheesecake Factory", "brand:wikidata": "Q1045842", "nsi_id": "thecheesecakefactory-96af40"}, "geometry": {"type": "Point", "coordinates": [-73.1326555, 40.8642138]}},
{"type": "Feature", "id": "BgL_FxA6w7fuJuu1Iq74TyufS6U=", "properties": {"ref": "https://locations.thecheesecakefactory.com/ny/huntington-136.html", "@spider": "thecheesecakefactory", "alt_name": "Cheesecake Factory", "amenity": "restaurant", "cuisine": "american", "addr:street_address": "160 Walt Whitman Road", "addr:city": "Huntington", "addr:state": "NY", "addr:postcode": "11746", "addr:country": "US", "name": "The Cheesecake Factory", "phone": "631-271-8200", "website": "https://locations.thecheesecakefactory.com/ny/huntington-136.html", "opening_hours": "Mo-Th 11:30-22:00; Fr-Sa 11:30-23:00; Su 10:00-22:00", "image": "http://www.thecheesecakefactory.com/media/locationImages/locations_Default.jpg", "brand": "The Cheesecake Factory", "brand:wikidata": "Q1045842", "nsi_id": "thecheesecakefactory-96af40"}, "geometry": {"type": "Point", "coordinates": [-73.4093651, 40.8202417]}},
{"type": "Feature", "id": "n5-q6N19LrwC1luLVstDhkH_WvU=", "properties": {"ref": "https://locations.thecheesecakefactory.com/ny/elmhurst-196.html", "@spider": "thecheesecakefactory", "alt_name": "Cheesecake Factory", "amenity": "restaurant", "cuisine": "american", "addr:street_address": "90-15 Queens Boulevard", "addr:city": "Elmhurst", "addr:state": "NY", "addr:postcode": "11373", "addr:country": "US", "name": "The Cheesecake Factory", "phone": "718-699-1212", "website": "https://locations.thecheesecakefactory.com/ny/elmhurst-196.html", "opening_hours": "Mo-Th 11:30-22:00; Fr-Sa 11:30-23:00; Su 10:00-22:00", "image": "https://www.thecheesecakefactory.com/media/locationImages/locations_Default.jpg", "brand": "The Cheesecake Factory", "brand:wikidata": "Q1045842", "nsi_id": "thecheesecakefactory-96af40"}, "geometry": {"type": "Point", "coordinates": [-73.8699596, 40.7344368]}},
{"type": "Feature", "id": "B_ZXvYf1VBbTXv40oALBivw3CkQ=", "properties": {"ref": "https://locations.thecheesecakefactory.com/ny/cheektowaga-116.html", "@spider": "thecheesecakefactory", "alt_name": "Cheesecake Factory", "amenity": "restaurant", "cuisine": "american", "addr:street_address": "1 Walden Galleria Drive", "addr:city": "Cheektowaga", "addr:state": "NY", "addr:postcode": "14225", "addr:country": "US", "name": "The Cheesecake Factory", "phone": "716-685-2600", "website": "https://locations.thecheesecakefactory.com/ny/cheektowaga-116.html", "opening_hours": "Mo-Th 11:00-22:00; Fr-Sa 11:00-23:00; Su 10:00-22:00", "image": "http://www.thecheesecakefactory.com/media/locationImages/locations_Default.jpg", "brand": "The Cheesecake Factory", "brand:wikidata": "Q1045842", "nsi_id": "thecheesecakefactory-96af40"}, "geometry": {"type": "Point", "coordinates": [-78.7627887, 42.9140339]}},
{"type": "Feature", "id": "KiRnN0SSMGT6YzOAxYfU4bwWWIg=", "properties": {"ref": "https://locations.thecheesecakefactory.com/ny/bay-shore-183.html", "@spider": "thecheesecakefactory", "alt_name": "Cheesecake Factory", "amenity": "restaurant", "cuisine": "american", "addr:street_address": "1701 Sunrise Highway", "addr:city": "Bay Shore", "addr:state": "NY", "addr:postcode": "11706", "addr:country": "US", "name": "The Cheesecake Factory", "phone": "631-969-5780", "website": "https://locations.thecheesecakefactory.com/ny/bay-shore-183.html", "opening_hours": "Mo-Th 11:30-22:00; Fr-Sa 11:30-23:00; Su 10:00-22:00", "image": "http://cdn.thecheesecakefactory.com/images/locations_Default.jpg", "brand": "The Cheesecake Factory", "brand:wikidata": "Q1045842", "nsi_id": "thecheesecakefactory-96af40"}, "geometry": {"type": "Point", "coordinates": [-73.24668, 40.7396345]}},
{"type": "Feature", "id": "oMBskIiW3A0tB520AeaXJPK46SI=", "properties": {"ref": "https://locations.thecheesecakefactory.com/ny/albany-113.html", "@spider": "thecheesecakefactory", "alt_name": "Cheesecake Factory", "amenity": "restaurant", "cuisine": "american", "addr:street_address": "131 Wolf Road", "addr:city": "Albany", "addr:state": "NY", "addr:postcode": "12205", "addr:country": "US", "name": "The Cheesecake Factory", "phone": "518-453-2500", "website": "https://locations.thecheesecakefactory.com/ny/albany-113.html", "opening_hours": "Mo-Th 11:00-22:00; Fr-Sa 11:00-23:00; Su 10:00-22:00", "image": "http://www.thecheesecakefactory.com/media/locationImages/locations_albany.jpg", "brand": "The Cheesecake Factory", "brand:wikidata": "Q1045842", "nsi_id": "thecheesecakefactory-96af40"}, "geometry": {"type": "Point", "coordinates": [-73.8167531, 42.7111337]}},
{"type": "Feature", "id": "fXThTGmEgFqBMwHHMVG_y33Hv9M=", "properties": {"ref": "https://locations.thecheesecakefactory.com/nv/reno-178.html", "@spider": "thecheesecakefactory", "alt_name": "Cheesecake Factory", "amenity": "restaurant", "cuisine": "american", "addr:street_address": "5162 Meadowood Mall Circle", "addr:city": "Reno", "addr:state": "NV", "addr:postcode": "89502", "addr:country": "US", "name": "The Cheesecake Factory", "phone": "775-826-4107", "website": "https://locations.thecheesecakefactory.com/nv/reno-178.html", "opening_hours": "Mo-Th 11:00-22:00; Fr-Sa 11:00-23:00; Su 10:00-22:00", "image": "http://www.thecheesecakefactory.com/media/locationImages/locations_Default.jpg", "brand": "The Cheesecake Factory", "brand:wikidata": "Q1045842", "nsi_id": "thecheesecakefactory-96af40"}, "geometry": {"type": "Point", "coordinates": [-119.7839949, 39.4736904]}},
{"type": "Feature", "id": "uCfx5QfcD9RDhFSaVF8IUEmfUOk=", "properties": {"ref": "https://locations.thecheesecakefactory.com/nv/las-vegas-55.html", "@spider": "thecheesecakefactory", "alt_name": "Cheesecake Factory", "amenity": "restaurant", "cuisine": "american", "addr:street_address": "750 S Rampart Boulevard", "addr:city": "Las Vegas", "addr:state": "NV", "addr:postcode": "89145", "addr:country": "US", "name": "The Cheesecake Factory", "phone": "702-951-3800", "website": "https://locations.thecheesecakefactory.com/nv/las-vegas-55.html", "opening_hours": "Mo-Th 11:00-22:00; Fr-Sa 11:00-23:00; Su 10:00-22:00", "image": "http://www.thecheesecakefactory.com/media/locationImages/locations_Summerlin.jpg", "brand": "The Cheesecake Factory", "brand:wikidata": "Q1045842", "nsi_id": "thecheesecakefactory-96af40"}, "geometry": {"type": "Point", "coordinates": [-115.2897778, 36.1643413]}},
{"type": "Feature", "id": "jh20UB5_tNt2LprawAO61Gk0lI0=", "properties": {"ref": "https://locations.thecheesecakefactory.com/nv/las-vegas-187.html", "@spider": "thecheesecakefactory", "alt_name": "Cheesecake Factory", "amenity": "restaurant", "cuisine": "american", "addr:street_address": "505 S Grand Central Parkway", "addr:city": "Las Vegas", "addr:state": "NV", "addr:postcode": "89106", "addr:country": "US", "name": "The Cheesecake Factory", "phone": "702-471-0029", "website": "https://locations.thecheesecakefactory.com/nv/las-vegas-187.html", "opening_hours": "Mo-Th 11:00-22:00; Fr-Sa 11:00-23:00; Su 10:00-22:00", "image": "http://cdn.thecheesecakefactory.com/images/locations_Default.jpg", "brand": "The Cheesecake Factory", "brand:wikidata": "Q1045842", "nsi_id": "thecheesecakefactory-96af40"}, "geometry": {"type": "Point", "coordinates": [-115.1563999, 36.1661349]}},
{"type": "Feature", "id": "80WB7WM1orijkdDjgqVovxCjBGo=", "properties": {"ref": "https://locations.thecheesecakefactory.com/nv/henderson-100.html", "@spider": "thecheesecakefactory", "alt_name": "Cheesecake Factory", "amenity": "restaurant", "cuisine": "american", "addr:street_address": "160 S Green Valley Parkway", "addr:city": "Henderson", "addr:state": "NV", "addr:postcode": "89052", "addr:country": "US", "name": "The Cheesecake Factory", "phone": "702-207-6372", "website": "https://locations.thecheesecakefactory.com/nv/henderson-100.html", "opening_hours": "Mo-Th 11:00-22:00; Fr-Sa 11:00-23:00; Su 10:00-22:00", "image": "http://www.thecheesecakefactory.com/media/locationImages/locations_Default.jpg", "brand": "The Cheesecake Factory", "brand:wikidata": "Q1045842", "nsi_id": "thecheesecakefactory-96af40"}, "geometry": {"type": "Point", "coordinates": [-115.0831571, 36.0218845]}},
{"type": "Feature", "id": "ArMDl3lsNSDHZunguS0B2Xtzy7g=", "properties": {"ref": "https://locations.thecheesecakefactory.com/nm/albuquerque-193.html", "@spider": "thecheesecakefactory", "alt_name": "Cheesecake Factory", "amenity": "restaurant", "cuisine": "american", "addr:street_address": "6600 Menaul Boulevard NE", "addr:city": "Albuquerque", "addr:state": "NM", "addr:postcode": "87110", "addr:country": "US", "name": "The Cheesecake Factory", "phone": "505-883-2539", "website": "https://locations.thecheesecakefactory.com/nm/albuquerque-193.html", "opening_hours": "Mo-Th 11:00-22:00; Fr-Sa 11:00-23:00; Su 10:00-22:00", "image": "https://www.thecheesecakefactory.com/media/locationImages/locations_Default.jpg", "brand": "The Cheesecake Factory", "brand:wikidata": "Q1045842", "nsi_id": "thecheesecakefactory-96af40"}, "geometry": {"type": "Point", "coordinates": [-106.5693718, 35.105509]}},
{"type": "Feature", "id": "xbC2BxkQh4HelxejMn42fDeILbQ=", "properties": {"ref": "https://locations.thecheesecakefactory.com/nj/wayne-80.html", "@spider": "thecheesecakefactory", "alt_name": "Cheesecake Factory", "amenity": "restaurant", "cuisine": "american", "addr:street_address": "1700 Willowbrook Boulevard", "addr:city": "Wayne", "addr:state": "NJ", "addr:postcode": "07470", "addr:country": "US", "name": "The Cheesecake Factory", "phone": "973-890-1400", "website": "https://locations.thecheesecakefactory.com/nj/wayne-80.html", "opening_hours": "Mo-Th 11:30-22:00; Fr-Sa 11:30-23:00; Su 10:00-22:00", "image": "http://www.thecheesecakefactory.com/media/locationImages/locations_Default.jpg", "brand": "The Cheesecake Factory", "brand:wikidata": "Q1045842", "nsi_id": "thecheesecakefactory-96af40"}, "geometry": {"type": "Point", "coordinates": [-74.2586022, 40.8888679]}},
{"type": "Feature", "id": "19oH8VJ1OX2QHc7YI4-xYubHd_g=", "properties": {"ref": "https://locations.thecheesecakefactory.com/nj/short-hills-154.html", "@spider": "thecheesecakefactory", "alt_name": "Cheesecake Factory", "amenity": "restaurant", "cuisine": "american", "addr:street_address": "1200 Morris Turnpike", "addr:city": "Short Hills", "addr:state": "NJ", "addr:postcode": "07078", "addr:country": "US", "name": "The Cheesecake Factory", "phone": "973-921-0930", "website": "https://locations.thecheesecakefactory.com/nj/short-hills-154.html", "opening_hours": "Mo-Th 11:00-22:00; Fr-Sa 11:00-23:00; Su 10:00-22:00", "image": "http://www.thecheesecakefactory.com/media/locationImages/locations_Default.jpg", "brand": "The Cheesecake Factory", "brand:wikidata": "Q1045842", "nsi_id": "thecheesecakefactory-96af40"}, "geometry": {"type": "Point", "coordinates": [-74.3642457, 40.7408743]}},
{"type": "Feature", "id": "P0YFS8kJTCTCiSc0vUhG5yNCRZI=", "properties": {"ref": "https://locations.thecheesecakefactory.com/nj/rockaway-205.html", "@spider": "thecheesecakefactory", "alt_name": "Cheesecake Factory", "amenity": "restaurant", "cuisine": "american", "addr:street_address": "301 Mount Hope Avenue", "addr:city": "Rockaway", "addr:state": "NJ", "addr:postcode": "07866", "addr:country": "US", "name": "The Cheesecake Factory", "phone": "973-366-1011", "website": "https://locations.thecheesecakefactory.com/nj/rockaway-205.html", "opening_hours": "Mo-Th 11:30-22:00; Fr-Sa 11:30-23:00; Su 10:00-22:00", "image": "https://www.thecheesecakefactory.com/media/locationImages/locations_Default.jpg", "brand": "The Cheesecake Factory", "brand:wikidata": "Q1045842", "nsi_id": "thecheesecakefactory-96af40"}, "geometry": {"type": "Point", "coordinates": [-74.5534227, 40.9070752]}},
{"type": "Feature", "id": "S4myVD6OVKU8sS5c7FQ-W7Nsh6Y=", "properties": {"ref": "https://locations.thecheesecakefactory.com/nj/lawrenceville-159.html", "@spider": "thecheesecakefactory", "alt_name": "Cheesecake Factory", "amenity": "restaurant", "cuisine": "american", "addr:street_address": "3320 US Highway 1", "addr:city": "Lawrenceville", "addr:state": "NJ", "addr:postcode": "08648", "addr:country": "US", "name": "The Cheesecake Factory", "phone": "609-275-5887", "website": "https://locations.thecheesecakefactory.com/nj/lawrenceville-159.html", "opening_hours": "Mo-Th 11:00-22:00; Fr-Sa 11:00-23:00; Su 10:00-22:00", "image": "http://www.thecheesecakefactory.com/media/locationImages/locations_Default.jpg", "brand": "The Cheesecake Factory", "brand:wikidata": "Q1045842", "nsi_id": "thecheesecakefactory-96af40"}, "geometry": {"type": "Point", "coordinates": [-74.6831046, 40.2911121]}},
{"type": "Feature", "id": "Ha7_WlXuo2I6vNxrMFF4stGyjAM=", "properties": {"ref": "https://locations.thecheesecakefactory.com/nj/jersey-city-194.html", "@spider": "thecheesecakefactory", "alt_name": "Cheesecake Factory", "amenity": "restaurant", "cuisine": "american", "addr:street_address": "30 Mall Drive West", "addr:city": "Jersey City", "addr:state": "NJ", "addr:postcode": "07310", "addr:country": "US", "name": "The Cheesecake Factory", "phone": "201-876-5810", "website": "https://locations.thecheesecakefactory.com/nj/jersey-city-194.html", "opening_hours": "Mo-Th 11:00-22:00; Fr-Sa 11:00-23:00; Su 10:00-22:00", "image": "https://www.thecheesecakefactory.com/media/locationImages/locations_Default.jpg", "brand": "The Cheesecake Factory", "brand:wikidata": "Q1045842", "nsi_id": "thecheesecakefactory-96af40"}, "geometry": {"type": "Point", "coordinates": [-74.0379931, 40.7268406]}},
{"type": "Feature", "id": "emYgFoatrr82grn-8POvlhNE_14=", "properties": {"ref": "https://locations.thecheesecakefactory.com/nj/hackensack-200.html", "@spider": "thecheesecakefactory", "alt_name": "Cheesecake Factory", "amenity": "restaurant", "cuisine": "american", "addr:street_address": "390 Hackensack Avenue", "addr:city": "Hackensack", "addr:state": "NJ", "addr:postcode": "07601", "addr:country": "US", "name": "The Cheesecake Factory", "phone": "201-488-0330", "website": "https://locations.thecheesecakefactory.com/nj/hackensack-200.html", "opening_hours": "Mo-Th 11:00-22:00; Fr-Sa 11:00-23:00; Su 10:00-22:00", "image": "http://www.thecheesecakefactory.com/media/locationImages/locations_Hackensack.jpg", "brand": "The Cheesecake Factory", "brand:wikidata": "Q1045842", "nsi_id": "thecheesecakefactory-96af40"}, "geometry": {"type": "Point", "coordinates": [-74.03094, 40.907768]}},
{"type": "Feature", "id": "8Va2C6jkXBsidS5f2W6Dg44h9x4=", "properties": {"ref": "https://locations.thecheesecakefactory.com/nj/freehold-132.html", "@spider": "thecheesecakefactory", "alt_name": "Cheesecake Factory", "amenity": "restaurant", "cuisine": "american", "addr:street_address": "3710 US Highway 9", "addr:city": "Freehold", "addr:state": "NJ", "addr:postcode": "07728", "addr:country": "US", "name": "The Cheesecake Factory", "phone": "732-462-6544", "website": "https://locations.thecheesecakefactory.com/nj/freehold-132.html", "opening_hours": "Mo-Th 11:00-22:00; Fr-Sa 11:00-23:00; Su 10:00-22:00", "image": "http://www.thecheesecakefactory.com/media/locationImages/locations_Default.jpg", "brand": "The Cheesecake Factory", "brand:wikidata": "Q1045842", "nsi_id": "thecheesecakefactory-96af40"}, "geometry": {"type": "Point", "coordinates": [-74.298621, 40.2546296]}},
{"type": "Feature", "id": "AFxP00o0PI43yQpFWiKeOrgn3js=", "properties": {"ref": "https://locations.thecheesecakefactory.com/nj/edison-59.html", "@spider": "thecheesecakefactory", "alt_name": "Cheesecake Factory", "amenity": "restaurant", "cuisine": "american", "addr:street_address": "455 Menlo Park Drive", "addr:city": "Edison", "addr:state": "NJ", "addr:postcode": "08837", "addr:country": "US", "name": "The Cheesecake Factory", "phone": "732-494-7000", "website": "https://locations.thecheesecakefactory.com/nj/edison-59.html", "opening_hours": "Mo-Th 11:00-22:00; Fr-Sa 11:00-23:00; Su 10:00-22:00", "image": "http://www.thecheesecakefactory.com/media/locationImages/locations_Default.jpg", "brand": "The Cheesecake Factory", "brand:wikidata": "Q1045842", "nsi_id": "thecheesecakefactory-96af40"}, "geometry": {"type": "Point", "coordinates": [-74.3355149, 40.5491865]}},
{"type": "Feature", "id": "aZumPFtjhLSPbVXdbv1KCo7zVEo=", "properties": {"ref": "https://locations.thecheesecakefactory.com/nj/cherry-hill-110.html", "@spider": "thecheesecakefactory", "alt_name": "Cheesecake Factory", "amenity": "restaurant", "cuisine": "american", "addr:street_address": "931 Haddonfield Road", "addr:city": "Cherry Hill", "addr:state": "NJ", "addr:postcode": "08002", "addr:country": "US", "name": "The Cheesecake Factory", "phone": "856-665-7550", "website": "https://locations.thecheesecakefactory.com/nj/cherry-hill-110.html", "opening_hours": "Mo-Th 11:00-22:00; Fr-Sa 11:00-23:00; Su 10:00-22:00", "image": "http://www.thecheesecakefactory.com/media/locationImages/locations_Default.jpg", "brand": "The Cheesecake Factory", "brand:wikidata": "Q1045842", "nsi_id": "thecheesecakefactory-96af40"}, "geometry": {"type": "Point", "coordinates": [-75.0339623, 39.9253414]}},
{"type": "Feature", "id": "zrOUuhYeVTfuVdrENKCBicc0ScM=", "properties": {"ref": "https://locations.thecheesecakefactory.com/nj/bridgewater-148.html", "@spider": "thecheesecakefactory", "alt_name": "Cheesecake Factory", "amenity": "restaurant", "cuisine": "american", "addr:street_address": "400 Commons Way", "addr:city": "Bridgewater", "addr:state": "NJ", "addr:postcode": "08807", "addr:country": "US", "name": "The Cheesecake Factory", "phone": "908-252-0399", "website": "https://locations.thecheesecakefactory.com/nj/bridgewater-148.html", "opening_hours": "Mo-Th 11:00-22:00; Fr-Sa 11:00-23:00; Su 10:00-22:00", "image": "http://www.thecheesecakefactory.com/media/locationImages/locations_Default.jpg", "brand": "The Cheesecake Factory", "brand:wikidata": "Q1045842", "nsi_id": "thecheesecakefactory-96af40"}, "geometry": {"type": "Point", "coordinates": [-74.6199134, 40.5863872]}},
{"type": "Feature", "id": "XsthM7bmXagGzrpljDm7fayyHjI=", "properties": {"ref": "https://locations.thecheesecakefactory.com/ne/omaha-106.html", "@spider": "thecheesecakefactory", "alt_name": "Cheesecake Factory", "amenity": "restaurant", "cuisine": "american", "addr:street_address": "10120 California Street", "addr:city": "Omaha", "addr:state": "NE", "addr:postcode": "68114", "addr:country": "US", "name": "The Cheesecake Factory", "phone": "402-393-1166", "website": "https://locations.thecheesecakefactory.com/ne/omaha-106.html", "opening_hours": "Mo-Th 11:00-22:00; Fr-Sa 11:00-23:00; Su 10:00-22:00", "image": "http://www.thecheesecakefactory.com/media/locationImages/locations_Omaha.jpg", "brand": "The Cheesecake Factory", "brand:wikidata": "Q1045842", "nsi_id": "thecheesecakefactory-96af40"}, "geometry": {"type": "Point", "coordinates": [-96.0694849, 41.2644974]}},
{"type": "Feature", "id": "RzWVrGAlZhVo0vY4k-i_BDETIP8=", "properties": {"ref": "https://locations.thecheesecakefactory.com/nc/raleigh-67.html", "@spider": "thecheesecakefactory", "alt_name": "Cheesecake Factory", "amenity": "restaurant", "cuisine": "american", "addr:street_address": "4325 Glenwood Avenue", "addr:city": "Raleigh", "addr:state": "NC", "addr:postcode": "27612", "addr:country": "US", "name": "The Cheesecake Factory", "phone": "919-781-0050", "website": "https://locations.thecheesecakefactory.com/nc/raleigh-67.html", "opening_hours": "Mo-Th 11:00-22:00; Fr-Sa 11:00-23:00; Su 10:00-22:00", "image": "http://www.thecheesecakefactory.com/media/locationImages/locations_Default.jpg", "brand": "The Cheesecake Factory", "brand:wikidata": "Q1045842", "nsi_id": "thecheesecakefactory-96af40"}, "geometry": {"type": "Point", "coordinates": [-78.6764823, 35.8380868]}},
{"type": "Feature", "id": "0MXV9eBX6HwVnbm_a057N8D_Pr8=", "properties": {"ref": "https://locations.thecheesecakefactory.com/nc/greensboro-197.html", "@spider": "thecheesecakefactory", "alt_name": "Cheesecake Factory", "amenity": "restaurant", "cuisine": "american", "addr:street_address": "3124 W Friendly Avenue", "addr:city": "Greensboro", "addr:state": "NC", "addr:postcode": "27408", "addr:country": "US", "name": "The Cheesecake Factory", "phone": "336-323-1211", "website": "https://locations.thecheesecakefactory.com/nc/greensboro-197.html", "opening_hours": "Mo-Th 11:30-22:00; Fr-Sa 11:30-23:00; Su 11:00-22:00", "image": "https://www.thecheesecakefactory.com/media/locationImages/locations_Default.jpg", "brand": "The Cheesecake Factory", "brand:wikidata": "Q1045842", "nsi_id": "thecheesecakefactory-96af40"}, "geometry": {"type": "Point", "coordinates": [-79.8327819, 36.0844948]}},
{"type": "Feature", "id": "9mMyae7NO7YrQFEwn3d6RAu-LKw=", "properties": {"ref": "https://locations.thecheesecakefactory.com/nc/durham-102.html", "@spider": "thecheesecakefactory", "alt_name": "Cheesecake Factory", "amenity": "restaurant", "cuisine": "american", "addr:street_address": "8030 Renaissance Parkway", "addr:city": "Durham", "addr:state": "NC", "addr:postcode": "27713", "addr:country": "US", "name": "The Cheesecake Factory", "phone": "919-206-4082", "website": "https://locations.thecheesecakefactory.com/nc/durham-102.html", "opening_hours": "Mo-Th 11:00-22:00; Fr-Sa 11:00-23:00; Su 10:00-22:00", "image": "http://www.thecheesecakefactory.com/media/locationImages/locations_Default.jpg", "brand": "The Cheesecake Factory", "brand:wikidata": "Q1045842", "nsi_id": "thecheesecakefactory-96af40"}, "geometry": {"type": "Point", "coordinates": [-78.944265, 35.9046811]}},
{"type": "Feature", "id": "Xvm6i2qxRFVUkBd8SdON_dsm2Mw=", "properties": {"ref": "https://locations.thecheesecakefactory.com/nc/charlotte-60.html", "@spider": "thecheesecakefactory", "alt_name": "Cheesecake Factory", "amenity": "restaurant", "cuisine": "american", "addr:street_address": "4400 Sharon Road", "addr:city": "Charlotte", "addr:state": "NC", "addr:postcode": "28211", "addr:country": "US", "name": "The Cheesecake Factory", "phone": "704-770-0076", "website": "https://locations.thecheesecakefactory.com/nc/charlotte-60.html", "opening_hours": "Mo-Th 11:00-22:00; Fr-Sa 11:00-23:00; Su 10:00-22:00", "image": "http://www.thecheesecakefactory.com/media/locationImages/locations_Charlotte.jpg", "brand": "The Cheesecake Factory", "brand:wikidata": "Q1045842", "nsi_id": "thecheesecakefactory-96af40"}, "geometry": {"type": "Point", "coordinates": [-80.8317325, 35.1506524]}},
{"type": "Feature", "id": "40A3oFQD1mKSnb9iUPWNewWyqtk=", "properties": {"ref": "https://locations.thecheesecakefactory.com/mo/st.-louis-57.html", "@spider": "thecheesecakefactory", "alt_name": "Cheesecake Factory", "amenity": "restaurant", "cuisine": "american", "addr:street_address": "1062 St. Louis Galleria Parkway", "addr:city": "St. Louis", "addr:state": "MO", "addr:postcode": "63117", "addr:country": "US", "name": "The Cheesecake Factory", "phone": "314-721-0505", "website": "https://locations.thecheesecakefactory.com/mo/st.-louis-57.html", "opening_hours": "Mo-Th 11:00-22:00; Fr-Sa 11:00-23:00; Su 10:00-22:00", "image": "http://www.thecheesecakefactory.com/media/locationImages/locations_Default.jpg", "brand": "The Cheesecake Factory", "brand:wikidata": "Q1045842", "nsi_id": "thecheesecakefactory-96af40"}, "geometry": {"type": "Point", "coordinates": [-90.3477894, 38.6361547]}},
{"type": "Feature", "id": "2kpagQXIL4TokqoQ4PFDicoiFgI=", "properties": {"ref": "https://locations.thecheesecakefactory.com/mo/kansas-city-17.html", "@spider": "thecheesecakefactory", "alt_name": "Cheesecake Factory", "amenity": "restaurant", "cuisine": "american", "addr:street_address": "4701 Wyandotte Street", "addr:city": "Kansas City", "addr:state": "MO", "addr:postcode": "64112", "addr:country": "US", "name": "The Cheesecake Factory", "phone": "816-960-1919", "website": "https://locations.thecheesecakefactory.com/mo/kansas-city-17.html", "opening_hours": "Mo-Th 11:00-22:00; Fr-Sa 11:00-23:00; Su 10:00-22:00", "image": "http://www.thecheesecakefactory.com/media/locationImages/locations_kansas_city.jpg", "brand": "The Cheesecake Factory", "brand:wikidata": "Q1045842", "nsi_id": "thecheesecakefactory-96af40"}, "geometry": {"type": "Point", "coordinates": [-94.5886311, 39.0420207]}},
{"type": "Feature", "id": "VRcvtV_8Elbnbl50nlrVT0ZO7Q4=", "properties": {"ref": "https://locations.thecheesecakefactory.com/mo/chesterfield-107.html", "@spider": "thecheesecakefactory", "alt_name": "Cheesecake Factory", "amenity": "restaurant", "cuisine": "american", "addr:street_address": "2028 Chesterfield Mall", "addr:city": "Chesterfield", "addr:state": "MO", "addr:postcode": "63017", "addr:country": "US", "name": "The Cheesecake Factory", "phone": "636-536-9662", "website": "https://locations.thecheesecakefactory.com/mo/chesterfield-107.html", "opening_hours": "Mo-Th 11:00-22:00; Fr-Sa 11:00-23:00; Su 10:00-22:00", "image": "http://www.thecheesecakefactory.com/media/locationImages/locations_Default.jpg", "brand": "The Cheesecake Factory", "brand:wikidata": "Q1045842", "nsi_id": "thecheesecakefactory-96af40"}, "geometry": {"type": "Point", "coordinates": [-90.5649999, 38.6511932]}},
{"type": "Feature", "id": "Li_-Pque5rEq_57JlroqrQ74Oo0=", "properties": {"ref": "https://locations.thecheesecakefactory.com/mn/minnetonka-203.html", "@spider": "thecheesecakefactory", "alt_name": "Cheesecake Factory", "amenity": "restaurant", "cuisine": "american", "addr:street_address": "12735 Wayzata Boulevard", "addr:city": "Minnetonka", "addr:state": "MN", "addr:postcode": "55305", "addr:country": "US", "name": "The Cheesecake Factory", "phone": "952-546-5400", "website": "https://locations.thecheesecakefactory.com/mn/minnetonka-203.html", "opening_hours": "Mo-Th 11:30-22:00; Fr-Sa 11:30-23:00; Su 10:00-22:00", "image": "https://www.thecheesecakefactory.com/media/locationImages/locations_Default.jpg", "brand": "The Cheesecake Factory", "brand:wikidata": "Q1045842", "nsi_id": "thecheesecakefactory-96af40"}, "geometry": {"type": "Point", "coordinates": [-93.4364758, 44.9676424]}},
{"type": "Feature", "id": "rh711xdyWpFJpoBByx5WWb7oa_o=", "properties": {"ref": "https://locations.thecheesecakefactory.com/mn/edina-53.html", "@spider": "thecheesecakefactory", "alt_name": "Cheesecake Factory", "amenity": "restaurant", "cuisine": "american", "addr:street_address": "2715 Southdale Center", "addr:city": "Edina", "addr:state": "MN", "addr:postcode": "55435", "addr:country": "US", "name": "The Cheesecake Factory", "phone": "952-653-3333", "website": "https://locations.thecheesecakefactory.com/mn/edina-53.html", "opening_hours": "Mo-Th 11:00-22:00; Fr-Sa 11:00-23:00; Su 10:00-22:00", "image": "http://www.thecheesecakefactory.com/media/locationImages/locations_Default.jpg", "brand": "The Cheesecake Factory", "brand:wikidata": "Q1045842", "nsi_id": "thecheesecakefactory-96af40"}, "geometry": {"type": "Point", "coordinates": [-93.3250752, 44.8798194]}},
{"type": "Feature", "id": "v-wuenylntUhRHASzQgUBu5bU40=", "properties": {"ref": "https://locations.thecheesecakefactory.com/mi/novi-167.html", "@spider": "thecheesecakefactory", "alt_name": "Cheesecake Factory", "amenity": "restaurant", "cuisine": "american", "addr:street_address": "27500 Novi Road", "addr:city": "Novi", "addr:state": "MI", "addr:postcode": "48377", "addr:country": "US", "name": "The Cheesecake Factory", "phone": "248-305-7500", "website": "https://locations.thecheesecakefactory.com/mi/novi-167.html", "opening_hours": "Mo-Th 11:00-22:00; Fr-Sa 11:00-23:00; Su 10:00-22:00", "image": "http://www.thecheesecakefactory.com/media/locationImages/locations_Default.jpg", "brand": "The Cheesecake Factory", "brand:wikidata": "Q1045842", "nsi_id": "thecheesecakefactory-96af40"}, "geometry": {"type": "Point", "coordinates": [-83.4707205, 42.4923278]}},
{"type": "Feature", "id": "67MY0bm4rdZYbViEuGqmgrkMxMg=", "properties": {"ref": "https://locations.thecheesecakefactory.com/mi/kentwood-212.html", "@spider": "thecheesecakefactory", "alt_name": "Cheesecake Factory", "amenity": "restaurant", "cuisine": "american", "addr:street_address": "3195 28th Street SE", "addr:city": "Kentwood", "addr:state": "MI", "addr:postcode": "49512", "addr:country": "US", "name": "The Cheesecake Factory", "phone": "616-956-6580", "website": "https://locations.thecheesecakefactory.com/mi/kentwood-212.html", "opening_hours": "Mo-Th 11:00-22:00; Fr-Sa 11:00-23:00; Su 10:00-22:00", "image": "https://www.thecheesecakefactory.com/media/locationImages/locations_Default.jpg", "brand": "The Cheesecake Factory", "brand:wikidata": "Q1045842", "nsi_id": "thecheesecakefactory-96af40"}, "geometry": {"type": "Point", "coordinates": [-85.5882943, 42.9159791]}},
{"type": "Feature", "id": "HfyJpt8ZgrB83baDfK_i5svdXq0=", "properties": {"ref": "https://locations.thecheesecakefactory.com/md/towson-145.html", "@spider": "thecheesecakefactory", "alt_name": "Cheesecake Factory", "amenity": "restaurant", "cuisine": "american", "addr:street_address": "825 Dulaney Valley Road", "addr:city": "Towson", "addr:state": "MD", "addr:postcode": "21204", "addr:country": "US", "name": "The Cheesecake Factory", "phone": "410-337-7411", "website": "https://locations.thecheesecakefactory.com/md/towson-145.html", "opening_hours": "Mo-Th 11:00-22:00; Fr-Sa 11:00-23:00; Su 10:00-22:00", "image": "http://www.thecheesecakefactory.com/media/locationImages/locations_Default.jpg", "brand": "The Cheesecake Factory", "brand:wikidata": "Q1045842", "nsi_id": "thecheesecakefactory-96af40"}, "geometry": {"type": "Point", "coordinates": [-76.5990278, 39.4042658]}},
{"type": "Feature", "id": "F5lnjRIuq3H3TmBWm2F3rT5TdZg=", "properties": {"ref": "https://locations.thecheesecakefactory.com/md/hanover-160.html", "@spider": "thecheesecakefactory", "alt_name": "Cheesecake Factory", "amenity": "restaurant", "cuisine": "american", "addr:street_address": "7002 Arundel Mills Circle", "addr:city": "Hanover", "addr:state": "MD", "addr:postcode": "21076", "addr:country": "US", "name": "The Cheesecake Factory", "phone": "410-579-5867", "website": "https://locations.thecheesecakefactory.com/md/hanover-160.html", "opening_hours": "Mo-Th 11:00-22:00; Fr-Sa 11:00-23:00; Su 10:00-22:00", "image": "http://www.thecheesecakefactory.com/media/locationImages/locations_Default.jpg", "brand": "The Cheesecake Factory", "brand:wikidata": "Q1045842", "nsi_id": "thecheesecakefactory-96af40"}, "geometry": {"type": "Point", "coordinates": [-76.7278052, 39.1568492]}},
{"type": "Feature", "id": "dCAh32usI2-9D6kVc6lrm8fwDKw=", "properties": {"ref": "https://locations.thecheesecakefactory.com/md/columbia-103.html", "@spider": "thecheesecakefactory", "alt_name": "Cheesecake Factory", "amenity": "restaurant", "cuisine": "american", "addr:street_address": "10300 Little Patuxent Parkway", "addr:city": "Columbia", "addr:state": "MD", "addr:postcode": "21044", "addr:country": "US", "name": "The Cheesecake Factory", "phone": "410-997-9311", "website": "https://locations.thecheesecakefactory.com/md/columbia-103.html", "opening_hours": "Mo-Th 11:00-22:00; Fr-Sa 11:00-23:00; Su 10:00-22:00", "image": "http://www.thecheesecakefactory.com/media/locationImages/locations_Default.jpg", "brand": "The Cheesecake Factory", "brand:wikidata": "Q1045842", "nsi_id": "thecheesecakefactory-96af40"}, "geometry": {"type": "Point", "coordinates": [-76.8614814, 39.2157036]}},
{"type": "Feature", "id": "W5UOfvXkGafPLp5tlWFV3PsoJ34=", "properties": {"ref": "https://locations.thecheesecakefactory.com/md/bethesda-173.html", "@spider": "thecheesecakefactory", "alt_name": "Cheesecake Factory", "amenity": "restaurant", "cuisine": "american", "addr:street_address": "7101 Democracy Boulevard", "addr:city": "Bethesda", "addr:state": "MD", "addr:postcode": "20817", "addr:country": "US", "name": "The Cheesecake Factory", "phone": "301-469-5166", "website": "https://locations.thecheesecakefactory.com/md/bethesda-173.html", "opening_hours": "Mo-Th 11:30-22:00; Fr-Sa 11:30-23:00; Su 10:00-22:00", "image": "http://www.thecheesecakefactory.com/media/locationImages/locations_Default.jpg", "brand": "The Cheesecake Factory", "brand:wikidata": "Q1045842", "nsi_id": "thecheesecakefactory-96af40"}, "geometry": {"type": "Point", "coordinates": [-77.1459998, 39.0241378]}},
{"type": "Feature", "id": "lZfiq3Kftut7QDV14yJ1ypwCDr0=", "properties": {"ref": "https://locations.thecheesecakefactory.com/md/baltimore-16.html", "@spider": "thecheesecakefactory", "alt_name": "Cheesecake Factory", "amenity": "restaurant", "cuisine": "american", "addr:street_address": "201 East Pratt Street", "addr:city": "Baltimore", "addr:state": "MD", "addr:postcode": "21202", "addr:country": "US", "name": "The Cheesecake Factory", "phone": "410-234-3990", "website": "https://locations.thecheesecakefactory.com/md/baltimore-16.html", "opening_hours": "Mo-Th 11:00-22:00; Fr-Sa 11:00-23:00; Su 10:00-22:00", "image": "http://www.thecheesecakefactory.com/media/locationImages/locations_Baltimore.jpg", "brand": "The Cheesecake Factory", "brand:wikidata": "Q1045842", "nsi_id": "thecheesecakefactory-96af40"}, "geometry": {"type": "Point", "coordinates": [-76.6109665, 39.286212]}},
{"type": "Feature", "id": "QwvorqJYIALWnVwfjxKMsg_V92w=", "properties": {"ref": "https://locations.thecheesecakefactory.com/md/annapolis-149.html", "@spider": "thecheesecakefactory", "alt_name": "Cheesecake Factory", "amenity": "restaurant", "cuisine": "american", "addr:street_address": "1872 Annapolis Mall Road", "addr:city": "Annapolis", "addr:state": "MD", "addr:postcode": "21401", "addr:country": "US", "name": "The Cheesecake Factory", "phone": "410-224-0565", "website": "https://locations.thecheesecakefactory.com/md/annapolis-149.html", "opening_hours": "Mo-Th 11:00-22:00; Fr-Sa 11:00-23:00; Su 10:00-22:00", "image": "http://www.thecheesecakefactory.com/media/locationImages/locations_Annapolis.jpg", "brand": "The Cheesecake Factory", "brand:wikidata": "Q1045842", "nsi_id": "thecheesecakefactory-96af40"}, "geometry": {"type": "Point", "coordinates": [-76.5430881, 38.9901737]}},
{"type": "Feature", "id": "Mo9tVHVRXX_PSO9OE_dGLNtHo9A=", "properties": {"ref": "https://locations.thecheesecakefactory.com/ma/natick-134.html", "@spider": "thecheesecakefactory", "alt_name": "Cheesecake Factory", "amenity": "restaurant", "cuisine": "american", "addr:street_address": "1245 Worcester Street", "addr:city": "Natick", "addr:state": "MA", "addr:postcode": "01760", "addr:country": "US", "name": "The Cheesecake Factory", "phone": "508-653-0011", "website": "https://locations.thecheesecakefactory.com/ma/natick-134.html", "opening_hours": "Mo-Th 11:00-22:00; Fr-Sa 11:00-23:00; Su 10:00-22:00", "image": "http://www.thecheesecakefactory.com/media/locationImages/locations_Default.jpg", "brand": "The Cheesecake Factory", "brand:wikidata": "Q1045842", "nsi_id": "thecheesecakefactory-96af40"}, "geometry": {"type": "Point", "coordinates": [-71.3833326, 42.300674]}},
{"type": "Feature", "id": "HOm0RpJrx7ajc_LMfnqsZ5_YTEk=", "properties": {"ref": "https://locations.thecheesecakefactory.com/ma/peabody-137.html", "@spider": "thecheesecakefactory", "alt_name": "Cheesecake Factory", "amenity": "restaurant", "cuisine": "american", "addr:street_address": "210 Andover Street", "addr:city": "Peabody", "addr:state": "MA", "addr:postcode": "01960", "addr:country": "US", "name": "The Cheesecake Factory", "phone": "978-538-7599", "website": "https://locations.thecheesecakefactory.com/ma/peabody-137.html", "opening_hours": "Mo-Th 11:00-22:00; Fr-Sa 11:00-23:00; Su 10:00-22:00", "image": "http://www.thecheesecakefactory.com/media/locationImages/locations_Default.jpg", "brand": "The Cheesecake Factory", "brand:wikidata": "Q1045842", "nsi_id": "thecheesecakefactory-96af40"}, "geometry": {"type": "Point", "coordinates": [-70.9445901, 42.5414196]}},
{"type": "Feature", "id": "v25nInv5Lzk04145CYETBFVyJBM=", "properties": {"ref": "https://locations.thecheesecakefactory.com/ma/chestnut-hill-171.html", "@spider": "thecheesecakefactory", "alt_name": "Cheesecake Factory", "amenity": "restaurant", "cuisine": "american", "addr:street_address": "199 Boylston Street", "addr:city": "Chestnut Hill", "addr:state": "MA", "addr:postcode": "02467", "addr:country": "US", "name": "The Cheesecake Factory", "phone": "617-964-3001", "website": "https://locations.thecheesecakefactory.com/ma/chestnut-hill-171.html", "opening_hours": "Mo-Th 11:00-22:00; Fr-Sa 11:00-23:00; Su 10:00-22:00", "image": "http://www.thecheesecakefactory.com/media/locationImages/locations_Chestnut_Hill.jpg", "brand": "The Cheesecake Factory", "brand:wikidata": "Q1045842", "nsi_id": "thecheesecakefactory-96af40"}, "geometry": {"type": "Point", "coordinates": [-71.1756718, 42.3215125]}},
{"type": "Feature", "id": "PCv_Cp8Pp2rV-IGZgG-eNQH9AxY=", "properties": {"ref": "https://locations.thecheesecakefactory.com/ma/cambridge-23.html", "@spider": "thecheesecakefactory", "alt_name": "Cheesecake Factory", "amenity": "restaurant", "cuisine": "american", "addr:street_address": "100 CambridgeSide Place", "addr:city": "Cambridge", "addr:state": "MA", "addr:postcode": "02141", "addr:country": "US", "name": "The Cheesecake Factory", "phone": "617-252-3810", "website": "https://locations.thecheesecakefactory.com/ma/cambridge-23.html", "opening_hours": "Mo-Th 11:00-22:00; Fr-Sa 11:00-23:00; Su 10:00-22:00", "image": "http://www.thecheesecakefactory.com/media/locationImages/locations_Default.jpg", "brand": "The Cheesecake Factory", "brand:wikidata": "Q1045842", "nsi_id": "thecheesecakefactory-96af40"}, "geometry": {"type": "Point", "coordinates": [-71.0772793, 42.36708]}},
{"type": "Feature", "id": "wQkkvvQ24LY_nqkpXhslUDB3Qls=", "properties": {"ref": "https://locations.thecheesecakefactory.com/ma/burlington-94.html", "@spider": "thecheesecakefactory", "alt_name": "Cheesecake Factory", "amenity": "restaurant", "cuisine": "american", "addr:street_address": "75 Middlesex Turnpike", "addr:city": "Burlington", "addr:state": "MA", "addr:postcode": "01803", "addr:country": "US", "name": "The Cheesecake Factory", "phone": "781-273-0060", "website": "https://locations.thecheesecakefactory.com/ma/burlington-94.html", "opening_hours": "Mo-Th 11:00-22:00; Fr-Sa 11:00-23:00; Su 10:00-22:00", "image": "http://www.thecheesecakefactory.com/media/locationImages/locations_Burlington.jpg", "brand": "The Cheesecake Factory", "brand:wikidata": "Q1045842", "nsi_id": "thecheesecakefactory-96af40"}, "geometry": {"type": "Point", "coordinates": [-71.2136759, 42.482391]}},
{"type": "Feature", "id": "DqjuWDAV9ADG6hptL-bkffHcrqg=", "properties": {"ref": "https://locations.thecheesecakefactory.com/ma/braintree-95.html", "@spider": "thecheesecakefactory", "alt_name": "Cheesecake Factory", "amenity": "restaurant", "cuisine": "american", "addr:street_address": "250 Granite Street", "addr:city": "Braintree", "addr:state": "MA", "addr:postcode": "02184", "addr:country": "US", "name": "The Cheesecake Factory", "phone": "781-849-1001", "website": "https://locations.thecheesecakefactory.com/ma/braintree-95.html", "opening_hours": "Mo-Th 11:00-22:00; Fr-Sa 11:00-23:00; Su 10:00-22:00", "image": "http://www.thecheesecakefactory.com/media/locationImages/locations_Braintree.jpg", "brand": "The Cheesecake Factory", "brand:wikidata": "Q1045842", "nsi_id": "thecheesecakefactory-96af40"}, "geometry": {"type": "Point", "coordinates": [-71.0228696, 42.221735]}},
{"type": "Feature", "id": "kiTaQ8uRKAKYkigWhngJGWDeAtk=", "properties": {"ref": "https://locations.thecheesecakefactory.com/ma/boston-52.html", "@spider": "thecheesecakefactory", "alt_name": "Cheesecake Factory", "amenity": "restaurant", "cuisine": "american", "addr:street_address": "115 Huntington Avenue", "addr:city": "Boston", "addr:state": "MA", "addr:postcode": "02199", "addr:country": "US", "name": "The Cheesecake Factory", "phone": "617-399-7777", "website": "https://locations.thecheesecakefactory.com/ma/boston-52.html", "opening_hours": "Mo-Th 11:00-22:00; Fr-Sa 11:00-23:00; Su 10:00-22:00", "image": "http://www.thecheesecakefactory.com/media/locationImages/locations_Default.jpg", "brand": "The Cheesecake Factory", "brand:wikidata": "Q1045842", "nsi_id": "thecheesecakefactory-96af40"}, "geometry": {"type": "Point", "coordinates": [-71.0818779, 42.3459167]}},
{"type": "Feature", "id": "w2U_tkDomBxU9XE6flctKyTkIfU=", "properties": {"ref": "https://locations.thecheesecakefactory.com/la/metairie-177.html", "@spider": "thecheesecakefactory", "alt_name": "Cheesecake Factory", "amenity": "restaurant", "cuisine": "american", "addr:street_address": "3301 Veterans Memorial Blvd, Suite 15", "addr:city": "Metairie", "addr:state": "LA", "addr:postcode": "70002", "addr:country": "US", "name": "The Cheesecake Factory", "phone": "504-837-1818", "website": "https://locations.thecheesecakefactory.com/la/metairie-177.html", "opening_hours": "Mo-Th 11:00-22:00; Fr-Sa 11:00-23:00; Su 10:00-22:00", "image": "http://www.thecheesecakefactory.com/media/locationImages/locations_Default.jpg", "brand": "The Cheesecake Factory", "brand:wikidata": "Q1045842", "nsi_id": "thecheesecakefactory-96af40"}, "geometry": {"type": "Point", "coordinates": [-90.1566678, 30.0063657]}},
{"type": "Feature", "id": "8PPikTcCL9dwJZIPhIs_0uoYXuM=", "properties": {"ref": "https://locations.thecheesecakefactory.com/ky/louisville-97.html", "@spider": "thecheesecakefactory", "alt_name": "Cheesecake Factory", "amenity": "restaurant", "cuisine": "american", "addr:street_address": "5000 Shelbyville Road", "addr:city": "Louisville", "addr:state": "KY", "addr:postcode": "40207", "addr:country": "US", "name": "The Cheesecake Factory", "phone": "502-897-3933", "website": "https://locations.thecheesecakefactory.com/ky/louisville-97.html", "opening_hours": "Mo-Th 11:00-22:00; Fr-Sa 11:00-23:00; Su 10:00-22:00", "image": "http://www.thecheesecakefactory.com/media/locationImages/locations_Default.jpg", "brand": "The Cheesecake Factory", "brand:wikidata": "Q1045842", "nsi_id": "thecheesecakefactory-96af40"}, "geometry": {"type": "Point", "coordinates": [-85.6232509, 38.2467204]}},
{"type": "Feature", "id": "JmXnSUvnYBC5nwh9J-rFQ8EkEp8=", "properties": {"ref": "https://locations.thecheesecakefactory.com/ky/lexington-179.html", "@spider": "thecheesecakefactory", "alt_name": "Cheesecake Factory", "amenity": "restaurant", "cuisine": "american", "addr:street_address": "3545 Nicholasville Road", "addr:city": "Lexington", "addr:state": "KY", "addr:postcode": "40503", "addr:country": "US", "name": "The Cheesecake Factory", "phone": "859-245-1519", "website": "https://locations.thecheesecakefactory.com/ky/lexington-179.html", "opening_hours": "Mo-Th 11:00-22:00; Fr-Sa 11:00-23:00; Su 10:00-22:00", "image": "http://www.thecheesecakefactory.com/media/locationImages/locations_Default.jpg", "brand": "The Cheesecake Factory", "brand:wikidata": "Q1045842", "nsi_id": "thecheesecakefactory-96af40"}, "geometry": {"type": "Point", "coordinates": [-84.5273387, 37.9882693]}},
{"type": "Feature", "id": "LLFr9_hKsGbUyBne54wLLTtf5-Q=", "properties": {"ref": "https://locations.thecheesecakefactory.com/ks/overland-park-63.html", "@spider": "thecheesecakefactory", "alt_name": "Cheesecake Factory", "amenity": "restaurant", "cuisine": "american", "addr:street_address": "6675 West 119th Street", "addr:city": "Overland Park", "addr:state": "KS", "addr:postcode": "66209", "addr:country": "US", "name": "The Cheesecake Factory", "phone": "913-451-6272", "website": "https://locations.thecheesecakefactory.com/ks/overland-park-63.html", "opening_hours": "Mo-Th 11:00-22:00; Fr-Sa 11:00-23:00; Su 10:00-22:00", "image": "http://www.thecheesecakefactory.com/media/locationImages/locations_Default.jpg", "brand": "The Cheesecake Factory", "brand:wikidata": "Q1045842", "nsi_id": "thecheesecakefactory-96af40"}, "geometry": {"type": "Point", "coordinates": [-94.6621744, 38.9123661]}},
{"type": "Feature", "id": "FiSRXTNlpukCiWa46ZxhdqpnPhA=", "properties": {"ref": "https://locations.thecheesecakefactory.com/in/indianapolis-37.html", "@spider": "thecheesecakefactory", "alt_name": "Cheesecake Factory", "amenity": "restaurant", "cuisine": "american", "addr:street_address": "8701 Keystone Crossing", "addr:city": "Indianapolis", "addr:state": "IN", "addr:postcode": "46240", "addr:country": "US", "name": "The Cheesecake Factory", "phone": "317-566-0100", "website": "https://locations.thecheesecakefactory.com/in/indianapolis-37.html", "opening_hours": "Mo-Th 11:00-22:00; Fr-Sa 11:00-23:00; Su 10:00-22:00", "image": "http://www.thecheesecakefactory.com/media/locationImages/locations_Default.jpg", "brand": "The Cheesecake Factory", "brand:wikidata": "Q1045842", "nsi_id": "thecheesecakefactory-96af40"}, "geometry": {"type": "Point", "coordinates": [-86.108717, 39.9138858]}},
{"type": "Feature", "id": "bheR5VaDv25IFmbi9B5dCn622h8=", "properties": {"ref": "https://locations.thecheesecakefactory.com/in/greenwood-139.html", "@spider": "thecheesecakefactory", "alt_name": "Cheesecake Factory", "amenity": "restaurant", "cuisine": "american", "addr:street_address": "1251 US Highway 31 N", "addr:city": "Greenwood", "addr:state": "IN", "addr:postcode": "46142", "addr:country": "US", "name": "The Cheesecake Factory", "phone": "317-887-8440", "website": "https://locations.thecheesecakefactory.com/in/greenwood-139.html", "opening_hours": "Mo-Th 11:00-22:00; Fr-Sa 11:00-23:00; Su 10:00-22:00", "image": "http://www.thecheesecakefactory.com/media/locationImages/locations_greenwoodIN.jpg", "brand": "The Cheesecake Factory", "brand:wikidata": "Q1045842", "nsi_id": "thecheesecakefactory-96af40"}, "geometry": {"type": "Point", "coordinates": [-86.1235722, 39.6330413]}},
{"type": "Feature", "id": "Yxr182jdqqxqjaECvNDOiAu9cWo=", "properties": {"ref": "https://locations.thecheesecakefactory.com/il/skokie-15.html", "@spider": "thecheesecakefactory", "alt_name": "Cheesecake Factory", "amenity": "restaurant", "cuisine": "american", "addr:street_address": "4999 Old Orchard Center", "addr:city": "Skokie", "addr:state": "IL", "addr:postcode": "60077", "addr:country": "US", "name": "The Cheesecake Factory", "phone": "847-329-8077", "website": "https://locations.thecheesecakefactory.com/il/skokie-15.html", "opening_hours": "Mo-Th 11:30-22:00; Fr-Sa 11:30-23:00; Su 10:00-22:00", "image": "http://www.thecheesecakefactory.com/media/locationImages/locations_Old_Orchard.jpg", "brand": "The Cheesecake Factory", "brand:wikidata": "Q1045842", "nsi_id": "thecheesecakefactory-96af40"}, "geometry": {"type": "Point", "coordinates": [-87.7490376, 42.0615141]}},
{"type": "Feature", "id": "L0EpvmpEy2m1_KgSzU3s7LHBq1Y=", "properties": {"ref": "https://locations.thecheesecakefactory.com/il/schaumburg-40.html", "@spider": "thecheesecakefactory", "alt_name": "Cheesecake Factory", "amenity": "restaurant", "cuisine": "american", "addr:street_address": "53 Woodfield Road", "addr:city": "Schaumburg", "addr:state": "IL", "addr:postcode": "60173", "addr:country": "US", "name": "The Cheesecake Factory", "phone": "847-619-1090", "website": "https://locations.thecheesecakefactory.com/il/schaumburg-40.html", "opening_hours": "Mo-Th 11:00-22:00; Fr-Sa 11:00-23:00; Su 10:00-22:00", "image": "http://www.thecheesecakefactory.com/media/locationImages/locations_Schaumburg.jpg", "brand": "The Cheesecake Factory", "brand:wikidata": "Q1045842", "nsi_id": "thecheesecakefactory-96af40"}, "geometry": {"type": "Point", "coordinates": [-88.0448536, 42.0431626]}},
{"type": "Feature", "id": "xGBMWEsxZicdBTTqEYLQRZVtLcA=", "properties": {"ref": "https://locations.thecheesecakefactory.com/il/orland-park-163.html", "@spider": "thecheesecakefactory", "alt_name": "Cheesecake Factory", "amenity": "restaurant", "cuisine": "american", "addr:street_address": "304 Orland Square Drive", "addr:city": "Orland Park", "addr:state": "IL", "addr:postcode": "60462", "addr:country": "US", "name": "The Cheesecake Factory", "phone": "708-873-3747", "website": "https://locations.thecheesecakefactory.com/il/orland-park-163.html", "opening_hours": "Mo-Th 11:00-22:00; Fr-Sa 11:00-23:00; Su 10:00-22:00", "image": "http://www.thecheesecakefactory.com/media/locationImages/locations_Default.jpg", "brand": "The Cheesecake Factory", "brand:wikidata": "Q1045842", "nsi_id": "thecheesecakefactory-96af40"}, "geometry": {"type": "Point", "coordinates": [-87.8494888, 41.620151]}},
{"type": "Feature", "id": "x28Qm2ojZmJsFZ2Q9hBcBblVFnA=", "properties": {"ref": "https://locations.thecheesecakefactory.com/il/oak-brook-79.html", "@spider": "thecheesecakefactory", "alt_name": "Cheesecake Factory", "amenity": "restaurant", "cuisine": "american", "addr:street_address": "2020 Spring Road", "addr:city": "Oak Brook", "addr:state": "IL", "addr:postcode": "60523", "addr:country": "US", "name": "The Cheesecake Factory", "phone": "630-573-1800", "website": "https://locations.thecheesecakefactory.com/il/oak-brook-79.html", "opening_hours": "Mo-Th 11:00-22:00; Fr-Sa 11:00-23:00; Su 10:00-22:00", "image": "http://www.thecheesecakefactory.com/media/locationImages/locations_Oakbrook.jpg", "brand": "The Cheesecake Factory", "brand:wikidata": "Q1045842", "nsi_id": "thecheesecakefactory-96af40"}, "geometry": {"type": "Point", "coordinates": [-87.9496394, 41.8498328]}},
{"type": "Feature", "id": "RrJxC7P2WSPLmOnRdq9Dn2CfTJA=", "properties": {"ref": "https://locations.thecheesecakefactory.com/il/lincolnshire-99.html", "@spider": "thecheesecakefactory", "alt_name": "Cheesecake Factory", "amenity": "restaurant", "cuisine": "american", "addr:street_address": "930 Milwaukee Avenue", "addr:city": "Lincolnshire", "addr:state": "IL", "addr:postcode": "60069", "addr:country": "US", "name": "The Cheesecake Factory", "phone": "847-955-2350", "website": "https://locations.thecheesecakefactory.com/il/lincolnshire-99.html", "opening_hours": "Mo-Th 11:00-22:00; Fr-Sa 11:00-23:00; Su 10:00-22:00", "image": "http://www.thecheesecakefactory.com/media/locationImages/locations_Default.jpg", "brand": "The Cheesecake Factory", "brand:wikidata": "Q1045842", "nsi_id": "thecheesecakefactory-96af40"}, "geometry": {"type": "Point", "coordinates": [-87.9285011, 42.1828381]}},
{"type": "Feature", "id": "VnZueToPXqGm9cIshfytEZsacIQ=", "properties": {"ref": "https://locations.thecheesecakefactory.com/il/chicago-12.html", "@spider": "thecheesecakefactory", "alt_name": "Cheesecake Factory", "amenity": "restaurant", "cuisine": "american", "addr:street_address": "875 North Michigan Avenue", "addr:city": "Chicago", "addr:state": "IL", "addr:postcode": "60611", "addr:country": "US", "name": "The Cheesecake Factory", "phone": "312-337-1101", "website": "https://locations.thecheesecakefactory.com/il/chicago-12.html", "opening_hours": "Mo-Th 11:00-22:00; Fr-Sa 11:00-23:00; Su 10:00-22:00", "image": "http://www.thecheesecakefactory.com/media/locationImages/locations_Chicago.jpg", "brand": "The Cheesecake Factory", "brand:wikidata": "Q1045842", "nsi_id": "thecheesecakefactory-96af40"}, "geometry": {"type": "Point", "coordinates": [-87.6230821, 41.8988085]}},
{"type": "Feature", "id": "C9xmkDJtdF6tQDnEeYc8FcaKSSo=", "properties": {"ref": "https://locations.thecheesecakefactory.com/id/boise-120.html", "@spider": "thecheesecakefactory", "alt_name": "Cheesecake Factory", "amenity": "restaurant", "cuisine": "american", "addr:street_address": "330 North Milwaukee", "addr:city": "Boise", "addr:state": "ID", "addr:postcode": "83704", "addr:country": "US", "name": "The Cheesecake Factory", "phone": "208-377-4466", "website": "https://locations.thecheesecakefactory.com/id/boise-120.html", "opening_hours": "Mo-Th 11:00-22:00; Fr-Sa 11:00-23:00; Su 10:00-22:00", "image": "http://www.thecheesecakefactory.com/media/locationImages/locations_Default.jpg", "brand": "The Cheesecake Factory", "brand:wikidata": "Q1045842", "nsi_id": "thecheesecakefactory-96af40"}, "geometry": {"type": "Point", "coordinates": [-116.2785646, 43.6071435]}},
{"type": "Feature", "id": "fEo85L9e9iaq3i-Vvr8g157cru8=", "properties": {"ref": "https://locations.thecheesecakefactory.com/ia/des-moines-86.html", "@spider": "thecheesecakefactory", "alt_name": "Cheesecake Factory", "amenity": "restaurant", "cuisine": "american", "addr:street_address": "101 Jordan Creek Parkway", "addr:city": "Des Moines", "addr:state": "IA", "addr:postcode": "50266", "addr:country": "US", "name": "The Cheesecake Factory", "phone": "515-457-9888", "website": "https://locations.thecheesecakefactory.com/ia/des-moines-86.html", "opening_hours": "Mo-Th 11:00-22:00; Fr-Sa 11:00-23:00; Su 10:00-22:00", "image": "http://www.thecheesecakefactory.com/media/locationImages/locations_des_moines.jpg", "brand": "The Cheesecake Factory", "brand:wikidata": "Q1045842", "nsi_id": "thecheesecakefactory-96af40"}, "geometry": {"type": "Point", "coordinates": [-93.8041654, 41.5699285]}},
{"type": "Feature", "id": "z-7V7a5hVNkBDimDiuFUmACCE90=", "properties": {"ref": "https://locations.thecheesecakefactory.com/hi/kapolei-202.html", "@spider": "thecheesecakefactory", "alt_name": "Cheesecake Factory", "amenity": "restaurant", "cuisine": "american", "addr:street_address": "91-5431 Kapolei Parkway", "addr:city": "Kapolei", "addr:state": "HI", "addr:postcode": "96707", "addr:country": "US", "name": "The Cheesecake Factory", "phone": "808-670-2666", "website": "https://locations.thecheesecakefactory.com/hi/kapolei-202.html", "opening_hours": "Mo-Fr 11:30-23:00; Sa-Su 10:00-23:00", "image": "https://www.thecheesecakefactory.com/media/locationImages/locations_Default.jpg", "brand": "The Cheesecake Factory", "brand:wikidata": "Q1045842", "nsi_id": "thecheesecakefactory-96af40"}, "geometry": {"type": "Point", "coordinates": [-158.0546675, 21.3351103]}},
{"type": "Feature", "id": "Ym61Ju6nFsT9os1PSemKfUUhCjU=", "properties": {"ref": "https://locations.thecheesecakefactory.com/hi/honolulu-68.html", "@spider": "thecheesecakefactory", "alt_name": "Cheesecake Factory", "amenity": "restaurant", "cuisine": "american", "addr:street_address": "2301 Kalakaua Avenue", "addr:city": "Honolulu", "addr:state": "HI", "addr:postcode": "96815", "addr:country": "US", "name": "The Cheesecake Factory", "phone": "808-924-5001", "website": "https://locations.thecheesecakefactory.com/hi/honolulu-68.html", "opening_hours": "Mo-Fr 11:00-23:00; Sa-Su 10:00-23:00", "image": "http://www.thecheesecakefactory.com/media/locationImages/locations_honolulu.jpg", "brand": "The Cheesecake Factory", "brand:wikidata": "Q1045842", "nsi_id": "thecheesecakefactory-96af40"}, "geometry": {"type": "Point", "coordinates": [-157.828336, 21.2781681]}},
{"type": "Feature", "id": "ViHLz86cvrKNJcvAAYBQi3vFRAI=", "properties": {"ref": "https://locations.thecheesecakefactory.com/ga/buford-172.html", "@spider": "thecheesecakefactory", "alt_name": "Cheesecake Factory", "amenity": "restaurant", "cuisine": "american", "addr:street_address": "3333 Buford Drive", "addr:city": "Buford", "addr:state": "GA", "addr:postcode": "30519", "addr:country": "US", "name": "The Cheesecake Factory", "phone": "770-831-4710", "website": "https://locations.thecheesecakefactory.com/ga/buford-172.html", "opening_hours": "Mo-Th 11:00-22:00; Fr-Sa 11:00-23:00; Su 10:00-22:00", "image": "http://www.thecheesecakefactory.com/media/locationImages/locations_Default.jpg", "brand": "The Cheesecake Factory", "brand:wikidata": "Q1045842", "nsi_id": "thecheesecakefactory-96af40"}, "geometry": {"type": "Point", "coordinates": [-83.9841992, 34.064828]}},
{"type": "Feature", "id": "DAkXgYje3vR-7hfDLjH8g1anegk=", "properties": {"ref": "https://locations.thecheesecakefactory.com/ga/atlanta-35.html", "@spider": "thecheesecakefactory", "alt_name": "Cheesecake Factory", "amenity": "restaurant", "cuisine": "american", "addr:street_address": "4400 Ashford-Dunwoody Road", "addr:city": "Atlanta", "addr:state": "GA", "addr:postcode": "30346", "addr:country": "US", "name": "The Cheesecake Factory", "phone": "678-320-0201", "website": "https://locations.thecheesecakefactory.com/ga/atlanta-35.html", "opening_hours": "Mo-Th 11:00-22:00; Fr-Sa 11:00-23:00; Su 10:00-22:00", "image": "http://www.thecheesecakefactory.com/media/locationImages/locations_Perimeter.jpg", "brand": "The Cheesecake Factory", "brand:wikidata": "Q1045842", "nsi_id": "thecheesecakefactory-96af40"}, "geometry": {"type": "Point", "coordinates": [-84.3409764, 33.9245591]}},
{"type": "Feature", "id": "pX1TkOxGD9mTN4xFvyRrBuE47QU=", "properties": {"ref": "https://locations.thecheesecakefactory.com/ga/atlanta-176.html", "@spider": "thecheesecakefactory", "alt_name": "Cheesecake Factory", "amenity": "restaurant", "cuisine": "american", "addr:street_address": "3393 Peachtree Road NE, Suite 3076A", "addr:city": "Atlanta", "addr:state": "GA", "addr:postcode": "30326", "addr:country": "US", "name": "The Cheesecake Factory", "phone": "404-816-2555", "website": "https://locations.thecheesecakefactory.com/ga/atlanta-176.html", "opening_hours": "Mo-Th 11:00-22:00; Fr-Sa 11:00-23:00; Su 10:00-22:00", "image": "http://www.thecheesecakefactory.com/media/locationImages/locations_Default.jpg", "brand": "The Cheesecake Factory", "brand:wikidata": "Q1045842", "nsi_id": "thecheesecakefactory-96af40"}, "geometry": {"type": "Point", "coordinates": [-84.3624199, 33.8467259]}},
{"type": "Feature", "id": "ROppTyCAlM9FANGQdfXb7cQ3OIQ=", "properties": {"ref": "https://locations.thecheesecakefactory.com/ga/atlanta-121.html", "@spider": "thecheesecakefactory", "alt_name": "Cheesecake Factory", "amenity": "restaurant", "cuisine": "american", "addr:street_address": "1609 Cumberland Mall", "addr:city": "Atlanta", "addr:state": "GA", "addr:postcode": "30339", "addr:country": "US", "name": "The Cheesecake Factory", "phone": "770-319-5515", "website": "https://locations.thecheesecakefactory.com/ga/atlanta-121.html", "opening_hours": "Mo-Th 11:00-22:00; Fr-Sa 11:00-23:00; Su 10:00-22:00", "image": "http://www.thecheesecakefactory.com/media/locationImages/locations_Default.jpg", "brand": "The Cheesecake Factory", "brand:wikidata": "Q1045842", "nsi_id": "thecheesecakefactory-96af40"}, "geometry": {"type": "Point", "coordinates": [-84.4679175, 33.8808193]}},
{"type": "Feature", "id": "J5bsQOAcO7XpZ_XRE3xVqTpocE8=", "properties": {"ref": "https://locations.thecheesecakefactory.com/ga/alpharetta-83.html", "@spider": "thecheesecakefactory", "alt_name": "Cheesecake Factory", "amenity": "restaurant", "cuisine": "american", "addr:street_address": "2075 North Point Circle", "addr:city": "Alpharetta", "addr:state": "GA", "addr:postcode": "30022", "addr:country": "US", "name": "The Cheesecake Factory", "phone": "770-751-7011", "website": "https://locations.thecheesecakefactory.com/ga/alpharetta-83.html", "opening_hours": "Mo-Th 11:00-22:00; Fr-Sa 11:00-23:00; Su 10:00-22:00", "image": "http://www.thecheesecakefactory.com/media/locationImages/locations_Default.jpg", "brand": "The Cheesecake Factory", "brand:wikidata": "Q1045842", "nsi_id": "thecheesecakefactory-96af40"}, "geometry": {"type": "Point", "coordinates": [-84.2936665, 34.0468025]}},
{"type": "Feature", "id": "EF58Oipvxn98pHmJhqJ5_FWEp9Y=", "properties": {"ref": "https://locations.thecheesecakefactory.com/fl/winter-park-45.html", "@spider": "thecheesecakefactory", "alt_name": "Cheesecake Factory", "amenity": "restaurant", "cuisine": "american", "addr:street_address": "520 N. Orlando Ave", "addr:city": "Winter Park", "addr:state": "FL", "addr:postcode": "32789", "addr:country": "US", "name": "The Cheesecake Factory", "phone": "407-644-4220", "website": "https://locations.thecheesecakefactory.com/fl/winter-park-45.html", "opening_hours": "Mo-Th 11:30-22:00; Fr 11:30-23:00; Sa 11:00-23:00; Su 10:00-22:00", "image": "http://www.thecheesecakefactory.com/media/locationImages/locations_WinterPark.jpg", "brand": "The Cheesecake Factory", "brand:wikidata": "Q1045842", "nsi_id": "thecheesecakefactory-96af40"}, "geometry": {"type": "Point", "coordinates": [-81.3627208, 28.6022091]}},
{"type": "Feature", "id": "g0q78yTCMo32OeSRjCVnjC00W9s=", "properties": {"ref": "https://locations.thecheesecakefactory.com/fl/west-palm-beach-41.html", "@spider": "thecheesecakefactory", "alt_name": "Cheesecake Factory", "amenity": "restaurant", "cuisine": "american", "addr:street_address": "701 South Rosemary Avenue", "addr:city": "West Palm Beach", "addr:state": "FL", "addr:postcode": "33401", "addr:country": "US", "name": "The Cheesecake Factory", "phone": "561-802-3838", "website": "https://locations.thecheesecakefactory.com/fl/west-palm-beach-41.html", "opening_hours": "Mo-Th 11:00-22:00; Fr-Sa 11:00-23:00; Su 10:00-22:00", "image": "http://www.thecheesecakefactory.com/media/locationImages/locations_WestPalmBeach.jpg", "brand": "The Cheesecake Factory", "brand:wikidata": "Q1045842", "nsi_id": "thecheesecakefactory-96af40"}, "geometry": {"type": "Point", "coordinates": [-80.0574215, 26.7073975]}},
{"type": "Feature", "id": "qM19oICPDnHCQFY_XhOFleWEvwc=", "properties": {"ref": "https://locations.thecheesecakefactory.com/fl/tampa-50.html", "@spider": "thecheesecakefactory", "alt_name": "Cheesecake Factory", "amenity": "restaurant", "cuisine": "american", "addr:street_address": "2223 North West Shore Boulevard", "addr:city": "Tampa", "addr:state": "FL", "addr:postcode": "33607", "addr:country": "US", "name": "The Cheesecake Factory", "phone": "813-353-4200", "website": "https://locations.thecheesecakefactory.com/fl/tampa-50.html", "opening_hours": "Mo-Th 11:00-22:00; Fr-Sa 11:00-23:00; Su 10:00-22:00", "image": "http://www.thecheesecakefactory.com/media/locationImages/locations_tampa.jpg", "brand": "The Cheesecake Factory", "brand:wikidata": "Q1045842", "nsi_id": "thecheesecakefactory-96af40"}, "geometry": {"type": "Point", "coordinates": [-82.5239807, 27.9744947]}},
{"type": "Feature", "id": "vhPhvXOS4hNnldjLAj-MjN9qfek=", "properties": {"ref": "https://locations.thecheesecakefactory.com/fl/sunrise-27.html", "@spider": "thecheesecakefactory", "alt_name": "Cheesecake Factory", "amenity": "restaurant", "cuisine": "american", "addr:street_address": "2612 Sawgrass Mills Circle", "addr:city": "Sunrise", "addr:state": "FL", "addr:postcode": "33323", "addr:country": "US", "name": "The Cheesecake Factory", "phone": "954-835-0966", "website": "https://locations.thecheesecakefactory.com/fl/sunrise-27.html", "opening_hours": "Mo-Th 11:30-22:00; Fr-Sa 11:30-23:00; Su 10:00-22:00", "image": "http://www.thecheesecakefactory.com/media/locationImages/locations_Default.jpg", "brand": "The Cheesecake Factory", "brand:wikidata": "Q1045842", "nsi_id": "thecheesecakefactory-96af40"}, "geometry": {"type": "Point", "coordinates": [-80.3215718, 26.1530248]}},
{"type": "Feature", "id": "c5b6utgZpitUOViJg0GAsAPYD78=", "properties": {"ref": "https://locations.thecheesecakefactory.com/fl/sarasota-175.html", "@spider": "thecheesecakefactory", "alt_name": "Cheesecake Factory", "amenity": "restaurant", "cuisine": "american", "addr:street_address": "130 University Town Center Drive", "addr:city": "Sarasota", "addr:state": "FL", "addr:postcode": "34243", "addr:country": "US", "name": "The Cheesecake Factory", "phone": "941-256-3760", "website": "https://locations.thecheesecakefactory.com/fl/sarasota-175.html", "opening_hours": "Mo-Th 11:00-22:00; Fr-Sa 11:00-23:00; Su 10:00-22:00", "image": "http://www.thecheesecakefactory.com/media/locationImages/locations_Default.jpg", "brand": "The Cheesecake Factory", "brand:wikidata": "Q1045842", "nsi_id": "thecheesecakefactory-96af40"}, "geometry": {"type": "Point", "coordinates": [-82.4531109, 27.3845419]}},
{"type": "Feature", "id": "a5oQ3zjSSOglVCaXdevPmtQy5ZE=", "properties": {"ref": "https://locations.thecheesecakefactory.com/fl/pembroke-pines-143.html", "@spider": "thecheesecakefactory", "alt_name": "Cheesecake Factory", "amenity": "restaurant", "cuisine": "american", "addr:street_address": "14559 SW 5th Street", "addr:city": "Pembroke Pines", "addr:state": "FL", "addr:postcode": "33027", "addr:country": "US", "name": "The Cheesecake Factory", "phone": "954-438-7311", "website": "https://locations.thecheesecakefactory.com/fl/pembroke-pines-143.html", "opening_hours": "Mo-Th 11:30-22:00; Fr-Sa 11:30-23:00; Su 10:00-22:00", "image": "http://www.thecheesecakefactory.com/media/locationImages/locations_PembrokePines.jpg", "brand": "The Cheesecake Factory", "brand:wikidata": "Q1045842", "nsi_id": "thecheesecakefactory-96af40"}, "geometry": {"type": "Point", "coordinates": [-80.3365853, 26.0043366]}},
{"type": "Feature", "id": "H5c29LyO8WQ7TrOk026gnF2_0Fo=", "properties": {"ref": "https://locations.thecheesecakefactory.com/fl/palm-beach-gardens-96.html", "@spider": "thecheesecakefactory", "alt_name": "Cheesecake Factory", "amenity": "restaurant", "cuisine": "american", "addr:street_address": "11800 Lake Victoria Gardens Avenue", "addr:city": "Palm Beach Gardens", "addr:state": "FL", "addr:postcode": "33410", "addr:country": "US", "name": "The Cheesecake Factory", "phone": "561-776-3711", "website": "https://locations.thecheesecakefactory.com/fl/palm-beach-gardens-96.html", "opening_hours": "Mo-Th 11:30-22:00; Fr-Sa 11:30-23:00; Su 10:00-22:00", "image": "http://www.thecheesecakefactory.com/media/locationImages/locations_PalmBeachGardens.jpg", "brand": "The Cheesecake Factory", "brand:wikidata": "Q1045842", "nsi_id": "thecheesecakefactory-96af40"}, "geometry": {"type": "Point", "coordinates": [-80.0929068, 26.8496939]}},
{"type": "Feature", "id": "nh0r_TNhxf3n30mw2LXC_Ns4jg8=", "properties": {"ref": "https://locations.thecheesecakefactory.com/fl/orlando-56.html", "@spider": "thecheesecakefactory", "alt_name": "Cheesecake Factory", "amenity": "restaurant", "cuisine": "american", "addr:street_address": "4200 Conroy Road", "addr:city": "Orlando", "addr:state": "FL", "addr:postcode": "32839", "addr:country": "US", "name": "The Cheesecake Factory", "phone": "407-226-0333", "website": "https://locations.thecheesecakefactory.com/fl/orlando-56.html", "opening_hours": "Mo-Th 11:00-22:00; Fr-Sa 11:00-23:00; Su 10:00-22:00", "image": "http://www.thecheesecakefactory.com/media/locationImages/locations_Default.jpg", "brand": "The Cheesecake Factory", "brand:wikidata": "Q1045842", "nsi_id": "thecheesecakefactory-96af40"}, "geometry": {"type": "Point", "coordinates": [-81.4315048, 28.4855369]}},
{"type": "Feature", "id": "AcBOgwSv6w77ZWL-khhPAKwiQ8c=", "properties": {"ref": "https://locations.thecheesecakefactory.com/fl/orlando-213.html", "@spider": "thecheesecakefactory", "alt_name": "Cheesecake Factory", "amenity": "restaurant", "cuisine": "american", "addr:street_address": "11602 Regency Village Drive", "addr:city": "Orlando", "addr:state": "FL", "addr:postcode": "32821", "addr:country": "US", "name": "The Cheesecake Factory", "phone": "407-390-7071", "website": "https://locations.thecheesecakefactory.com/fl/orlando-213.html", "opening_hours": "Mo-Th 11:00-22:00; Fr-Sa 11:00-23:00; Su 10:00-22:00", "image": "https://www.thecheesecakefactory.com/media/locationImages/locations_Default.jpg", "brand": "The Cheesecake Factory", "brand:wikidata": "Q1045842", "nsi_id": "thecheesecakefactory-96af40"}, "geometry": {"type": "Point", "coordinates": [-81.4882558, 28.3931099]}},
{"type": "Feature", "id": "fWrYuchROt0V90TnCkm2yXrt0rs=", "properties": {"ref": "https://locations.thecheesecakefactory.com/fl/naples-89.html", "@spider": "thecheesecakefactory", "alt_name": "Cheesecake Factory", "amenity": "restaurant", "cuisine": "american", "addr:street_address": "2090 North Tamiami Trail", "addr:city": "Naples", "addr:state": "FL", "addr:postcode": "34102", "addr:country": "US", "name": "The Cheesecake Factory", "phone": "239-435-1580", "website": "https://locations.thecheesecakefactory.com/fl/naples-89.html", "opening_hours": "Mo-Th 11:00-22:00; Fr-Sa 11:00-23:00; Su 10:00-22:00", "image": "http://www.thecheesecakefactory.com/media/locationImages/locations_Default.jpg", "brand": "The Cheesecake Factory", "brand:wikidata": "Q1045842", "nsi_id": "thecheesecakefactory-96af40"}, "geometry": {"type": "Point", "coordinates": [-81.7829314, 26.1381043]}},
{"type": "Feature", "id": "1CkLI-YNnXBRlCpVt_AnstZRX5w=", "properties": {"ref": "https://locations.thecheesecakefactory.com/fl/miami-22.html", "@spider": "thecheesecakefactory", "alt_name": "Cheesecake Factory", "amenity": "restaurant", "cuisine": "american", "addr:street_address": "7497 Dadeland Mall", "addr:city": "Miami", "addr:state": "FL", "addr:postcode": "33156", "addr:country": "US", "name": "The Cheesecake Factory", "phone": "305-665-5400", "website": "https://locations.thecheesecakefactory.com/fl/miami-22.html", "opening_hours": "Mo-Th 11:00-22:00; Fr-Sa 11:00-23:00; Su 10:00-22:00", "image": "http://www.thecheesecakefactory.com/media/locationImages/locations_Default.jpg", "brand": "The Cheesecake Factory", "brand:wikidata": "Q1045842", "nsi_id": "thecheesecakefactory-96af40"}, "geometry": {"type": "Point", "coordinates": [-80.312504, 25.6905361]}},
{"type": "Feature", "id": "TmAr532GtBZBwgKKomsPyg1YTxE=", "properties": {"ref": "https://locations.thecheesecakefactory.com/fl/jacksonville-90.html", "@spider": "thecheesecakefactory", "alt_name": "Cheesecake Factory", "amenity": "restaurant", "cuisine": "american", "addr:street_address": "10260 Midtown Parkway", "addr:city": "Jacksonville", "addr:state": "FL", "addr:postcode": "32246", "addr:country": "US", "name": "The Cheesecake Factory", "phone": "904-998-9511", "website": "https://locations.thecheesecakefactory.com/fl/jacksonville-90.html", "opening_hours": "Mo-Th 11:00-22:00; Fr-Sa 11:00-23:00; Su 10:00-22:00", "image": "http://www.thecheesecakefactory.com/media/locationImages/locations_Default.jpg", "brand": "The Cheesecake Factory", "brand:wikidata": "Q1045842", "nsi_id": "thecheesecakefactory-96af40"}, "geometry": {"type": "Point", "coordinates": [-81.5268568, 30.2576664]}},
{"type": "Feature", "id": "_de9eznf6BQ3D58YMsdTdfqRdmQ=", "properties": {"ref": "https://locations.thecheesecakefactory.com/fl/miami-164.html", "@spider": "thecheesecakefactory", "alt_name": "Cheesecake Factory", "amenity": "restaurant", "cuisine": "american", "addr:street_address": "11401 NW 12th Street, Space E512", "addr:city": "Miami", "addr:state": "FL", "addr:postcode": "33172", "addr:country": "US", "name": "The Cheesecake Factory", "phone": "305-593-0803", "website": "https://locations.thecheesecakefactory.com/fl/miami-164.html", "opening_hours": "Mo-Th 11:00-22:00; Fr-Sa 11:00-23:00; Su 10:00-22:00", "image": "http://www.thecheesecakefactory.com/media/locationImages/locations_Default.jpg", "brand": "The Cheesecake Factory", "brand:wikidata": "Q1045842", "nsi_id": "thecheesecakefactory-96af40"}, "geometry": {"type": "Point", "coordinates": [-80.3815173, 25.7865022]}},
{"type": "Feature", "id": "BQ2UnGEIx1Qers4moG2Gb3254NI=", "properties": {"ref": "https://locations.thecheesecakefactory.com/fl/gainesville-211.html", "@spider": "thecheesecakefactory", "alt_name": "Cheesecake Factory", "amenity": "restaurant", "cuisine": "american", "addr:street_address": "2851 SW 35th Drive", "addr:city": "Gainesville", "addr:state": "FL", "addr:postcode": "32608", "addr:country": "US", "name": "The Cheesecake Factory", "phone": "352-377-7572", "website": "https://locations.thecheesecakefactory.com/fl/gainesville-211.html", "opening_hours": "Mo-Th 11:00-22:00; Fr-Sa 11:00-23:00; Su 10:00-22:00", "image": "https://www.thecheesecakefactory.com/media/locationImages/locations_Default.jpg", "brand": "The Cheesecake Factory", "brand:wikidata": "Q1045842", "nsi_id": "thecheesecakefactory-96af40"}, "geometry": {"type": "Point", "coordinates": [-82.3740904, 29.6074393]}},
{"type": "Feature", "id": "3TZPjf-QQjDkZPQM1Ryv7YCQtoI=", "properties": {"ref": "https://locations.thecheesecakefactory.com/fl/fort-lauderdale-54.html", "@spider": "thecheesecakefactory", "alt_name": "Cheesecake Factory", "amenity": "restaurant", "cuisine": "american", "addr:street_address": "600 E Las Olas Boulevard", "addr:city": "Fort Lauderdale", "addr:state": "FL", "addr:postcode": "33301", "addr:country": "US", "name": "The Cheesecake Factory", "phone": "954-463-1999", "website": "https://locations.thecheesecakefactory.com/fl/fort-lauderdale-54.html", "opening_hours": "Mo-Th 11:30-22:00; Fr-Sa 11:30-23:00; Su 10:00-22:00", "image": "http://www.thecheesecakefactory.com/media/locationImages/locations_Default.jpg", "brand": "The Cheesecake Factory", "brand:wikidata": "Q1045842", "nsi_id": "thecheesecakefactory-96af40"}, "geometry": {"type": "Point", "coordinates": [-80.1368395, 26.1186962]}},
{"type": "Feature", "id": "B1hKqLHMELWg5I24lXP92zSJPF8=", "properties": {"ref": "https://locations.thecheesecakefactory.com/fl/coral-gables-214.html", "@spider": "thecheesecakefactory", "alt_name": "Cheesecake Factory", "amenity": "restaurant", "cuisine": "american", "addr:street_address": "2418 Ponce De Leon Boulevard", "addr:city": "Coral Gables", "addr:state": "FL", "addr:postcode": "33134", "addr:country": "US", "name": "The Cheesecake Factory", "phone": "305-529-0703", "website": "https://locations.thecheesecakefactory.com/fl/coral-gables-214.html", "opening_hours": "Mo-Th 11:30-22:00; Fr-Sa 11:30-23:00; Su 10:00-22:00", "image": "https://www.thecheesecakefactory.com/media/locationImages/locations_Default.jpg", "brand": "The Cheesecake Factory", "brand:wikidata": "Q1045842", "nsi_id": "thecheesecakefactory-96af40"}, "geometry": {"type": "Point", "coordinates": [-80.2589211, 25.7488265]}},
{"type": "Feature", "id": "XsBJve9SmYHVBzhbONWkuc1Uj9U=", "properties": {"ref": "https://locations.thecheesecakefactory.com/fl/clearwater-216.html", "@spider": "thecheesecakefactory", "alt_name": "Cheesecake Factory", "amenity": "restaurant", "cuisine": "american", "addr:street_address": "27001 US Hwy 19 N", "addr:city": "Clearwater", "addr:state": "FL", "addr:postcode": "33761", "addr:country": "US", "name": "The Cheesecake Factory", "phone": "727-669-8193", "website": "https://locations.thecheesecakefactory.com/fl/clearwater-216.html", "opening_hours": "Mo-Th 11:30-22:00; Fr-Sa 11:30-23:00; Su 10:00-22:00", "image": "https://www.thecheesecakefactory.com/media/locationImages/locations_Default.jpg", "brand": "The Cheesecake Factory", "brand:wikidata": "Q1045842", "nsi_id": "thecheesecakefactory-96af40"}, "geometry": {"type": "Point", "coordinates": [-82.7355688, 28.0170595]}},
{"type": "Feature", "id": "neuG-YByiZMFz8WKR_53cPUrAro=", "properties": {"ref": "https://locations.thecheesecakefactory.com/fl/brandon-125.html", "@spider": "thecheesecakefactory", "alt_name": "Cheesecake Factory", "amenity": "restaurant", "cuisine": "american", "addr:street_address": "781 Brandon Town Center Mall", "addr:city": "Brandon", "addr:state": "FL", "addr:postcode": "33511", "addr:country": "US", "name": "The Cheesecake Factory", "phone": "813-571-5599", "website": "https://locations.thecheesecakefactory.com/fl/brandon-125.html", "opening_hours": "Mo-Th 11:00-22:00; Fr-Sa 11:00-23:00; Su 10:00-22:00", "image": "http://www.thecheesecakefactory.com/media/locationImages/locations_Brandon.jpg", "brand": "The Cheesecake Factory", "brand:wikidata": "Q1045842", "nsi_id": "thecheesecakefactory-96af40"}, "geometry": {"type": "Point", "coordinates": [-82.3266641, 27.9314979]}},
{"type": "Feature", "id": "S4jxrMiXvWgtWryyiRY8SXFBzUg=", "properties": {"ref": "https://locations.thecheesecakefactory.com/fl/boca-raton-11.html", "@spider": "thecheesecakefactory", "alt_name": "Cheesecake Factory", "amenity": "restaurant", "cuisine": "american", "addr:street_address": "5530 Glades Road", "addr:city": "Boca Raton", "addr:state": "FL", "addr:postcode": "33431", "addr:country": "US", "name": "The Cheesecake Factory", "phone": "561-393-0344", "website": "https://locations.thecheesecakefactory.com/fl/boca-raton-11.html", "opening_hours": "Mo-Th 11:00-22:00; Fr-Sa 11:00-23:00; Su 10:00-22:00", "image": "http://www.thecheesecakefactory.com/media/locationImages/locations_Boca.jpg", "brand": "The Cheesecake Factory", "brand:wikidata": "Q1045842", "nsi_id": "thecheesecakefactory-96af40"}, "geometry": {"type": "Point", "coordinates": [-80.1298607, 26.3673414]}},
{"type": "Feature", "id": "sfxNavEfIc072pfBdCvdwElLlh4=", "properties": {"ref": "https://locations.thecheesecakefactory.com/fl/aventura-24.html", "@spider": "thecheesecakefactory", "alt_name": "Cheesecake Factory", "amenity": "restaurant", "cuisine": "american", "addr:street_address": "19501 Biscayne Boulevard", "addr:city": "Aventura", "addr:state": "FL", "addr:postcode": "33180", "addr:country": "US", "name": "The Cheesecake Factory", "phone": "305-792-9696", "website": "https://locations.thecheesecakefactory.com/fl/aventura-24.html", "opening_hours": "Mo-Th 11:30-22:00; Fr-Sa 11:30-23:00; Su 10:00-22:00", "image": "http://www.thecheesecakefactory.com/media/locationImages/locations_Default.jpg", "brand": "The Cheesecake Factory", "brand:wikidata": "Q1045842", "nsi_id": "thecheesecakefactory-96af40"}, "geometry": {"type": "Point", "coordinates": [-80.145069, 25.9572966]}},
{"type": "Feature", "id": "-Vr-7hObgjC4YP5xAS_3mDWdvKg=", "properties": {"ref": "https://locations.thecheesecakefactory.com/de/newark-151.html", "@spider": "thecheesecakefactory", "alt_name": "Cheesecake Factory", "amenity": "restaurant", "cuisine": "american", "addr:street_address": "350 Christiana Mall", "addr:city": "Newark", "addr:state": "DE", "addr:postcode": "19702", "addr:country": "US", "name": "The Cheesecake Factory", "phone": "302-454-9444", "website": "https://locations.thecheesecakefactory.com/de/newark-151.html", "opening_hours": "Mo-Th 11:00-22:00; Fr-Sa 11:00-23:00; Su 10:00-22:00", "image": "http://www.thecheesecakefactory.com/media/locationImages/locations_Default.jpg", "brand": "The Cheesecake Factory", "brand:wikidata": "Q1045842", "nsi_id": "thecheesecakefactory-96af40"}, "geometry": {"type": "Point", "coordinates": [-75.6511111, 39.6787656]}},
{"type": "Feature", "id": "B-SJNOD1S7WPqrO0BuVy304Y46M=", "properties": {"ref": "https://locations.thecheesecakefactory.com/dc/washington-5.html", "@spider": "thecheesecakefactory", "alt_name": "Cheesecake Factory", "amenity": "restaurant", "cuisine": "american", "addr:street_address": "5335 Wisconsin Avenue NW", "addr:city": "Washington", "addr:state": "DC", "addr:postcode": "20015", "addr:country": "US", "name": "The Cheesecake Factory", "phone": "202-364-0500", "website": "https://locations.thecheesecakefactory.com/dc/washington-5.html", "opening_hours": "Mo-Th 11:30-22:00; Fr-Sa 11:30-23:00; Su 10:00-22:00", "image": "http://www.thecheesecakefactory.com/media/locationImages/locations_WashingtonDC.jpg", "brand": "The Cheesecake Factory", "brand:wikidata": "Q1045842", "nsi_id": "thecheesecakefactory-96af40"}, "geometry": {"type": "Point", "coordinates": [-77.085124, 38.9601468]}},
{"type": "Feature", "id": "Pdv2ZpEakKUbfK3rT1ws9EUpfCg=", "properties": {"ref": "https://locations.thecheesecakefactory.com/dc/washington-215.html", "@spider": "thecheesecakefactory", "alt_name": "Cheesecake Factory", "amenity": "restaurant", "cuisine": "american", "addr:street_address": "1426 H Street NW", "addr:city": "Washington", "addr:state": "DC", "addr:postcode": "20005", "addr:country": "US", "name": "The Cheesecake Factory", "phone": "(202) 312-5801", "website": "https://locations.thecheesecakefactory.com/dc/washington-215.html", "opening_hours": "Mo-Th 11:00-22:00; Fr-Sa 11:00-23:00; Su 10:00-22:00", "image": "https://www.thecheesecakefactory.com/media/locationImages/locations_Default.jpg", "brand": "The Cheesecake Factory", "brand:wikidata": "Q1045842", "nsi_id": "thecheesecakefactory-96af40"}, "geometry": {"type": "Point", "coordinates": [-77.0333302, 38.8999905]}},
{"type": "Feature", "id": "_vWYorsBIRn1J_rwUiz0XoEPeCQ=", "properties": {"ref": "https://locations.thecheesecakefactory.com/ct/west-hartford-126.html", "@spider": "thecheesecakefactory", "alt_name": "Cheesecake Factory", "amenity": "restaurant", "cuisine": "american", "addr:street_address": "71 Isham Road", "addr:city": "West Hartford", "addr:state": "CT", "addr:postcode": "06107", "addr:country": "US", "name": "The Cheesecake Factory", "phone": "860-233-5588", "website": "https://locations.thecheesecakefactory.com/ct/west-hartford-126.html", "opening_hours": "Mo-Th 11:30-22:00; Fr-Sa 11:30-23:00; Su 10:00-22:00", "image": "http://www.thecheesecakefactory.com/media/locationImages/locations_Default.jpg", "brand": "The Cheesecake Factory", "brand:wikidata": "Q1045842", "nsi_id": "thecheesecakefactory-96af40"}, "geometry": {"type": "Point", "coordinates": [-72.7401754, 41.7593953]}},
{"type": "Feature", "id": "Sj2lJvoKD0EjboHrYdezGAFJG-c=", "properties": {"ref": "https://locations.thecheesecakefactory.com/ct/trumbull-180.html", "@spider": "thecheesecakefactory", "alt_name": "Cheesecake Factory", "amenity": "restaurant", "cuisine": "american", "addr:street_address": "5065 Main Street Space #314", "addr:city": "Trumbull", "addr:state": "CT", "addr:postcode": "06611", "addr:country": "US", "name": "The Cheesecake Factory", "phone": "203-371-7205", "website": "https://locations.thecheesecakefactory.com/ct/trumbull-180.html", "opening_hours": "Mo-Th 11:30-22:00; Fr-Sa 11:30-23:00; Su 10:00-22:00", "image": "http://www.thecheesecakefactory.com/media/locationImages/locations_Default.jpg", "brand": "The Cheesecake Factory", "brand:wikidata": "Q1045842", "nsi_id": "thecheesecakefactory-96af40"}, "geometry": {"type": "Point", "coordinates": [-73.225285, 41.2292727]}},
{"type": "Feature", "id": "pZWAGn5LTLVKZbsDAsj_2ZY6DZE=", "properties": {"ref": "https://locations.thecheesecakefactory.com/ct/danbury-155.html", "@spider": "thecheesecakefactory", "alt_name": "Cheesecake Factory", "amenity": "restaurant", "cuisine": "american", "addr:street_address": "7 Backus Avenue", "addr:city": "Danbury", "addr:state": "CT", "addr:postcode": "06810", "addr:country": "US", "name": "The Cheesecake Factory", "phone": "203-743-6000", "website": "https://locations.thecheesecakefactory.com/ct/danbury-155.html", "opening_hours": "Mo-Th 11:00-22:00; Fr-Sa 11:00-23:00; Su 10:00-22:00", "image": "http://www.thecheesecakefactory.com/media/locationImages/locations_brea.jpg", "brand": "The Cheesecake Factory", "brand:wikidata": "Q1045842", "nsi_id": "thecheesecakefactory-96af40"}, "geometry": {"type": "Point", "coordinates": [-73.4809567, 41.3803181]}},
{"type": "Feature", "id": "PqCb79x8l62fwZqRh7ShatimH_Q=", "properties": {"ref": "https://locations.thecheesecakefactory.com/co/lone-tree-61.html", "@spider": "thecheesecakefactory", "alt_name": "Cheesecake Factory", "amenity": "restaurant", "cuisine": "american", "addr:street_address": "8405 Park Meadows Center Drive", "addr:city": "Lone Tree", "addr:state": "CO", "addr:postcode": "80124", "addr:country": "US", "name": "The Cheesecake Factory", "phone": "303-858-1111", "website": "https://locations.thecheesecakefactory.com/co/lone-tree-61.html", "opening_hours": "Mo-Th 11:00-22:00; Fr-Sa 11:00-23:00; Su 10:00-22:00", "image": "http://www.thecheesecakefactory.com/media/locationImages/locations_Default.jpg", "brand": "The Cheesecake Factory", "brand:wikidata": "Q1045842", "nsi_id": "thecheesecakefactory-96af40"}, "geometry": {"type": "Point", "coordinates": [-104.8765437, 39.5630173]}},
{"type": "Feature", "id": "hOpjgIQFj_uHbODaZ8iLnOEnH-8=", "properties": {"ref": "https://locations.thecheesecakefactory.com/co/littleton-192.html", "@spider": "thecheesecakefactory", "alt_name": "Cheesecake Factory", "amenity": "restaurant", "cuisine": "american", "addr:street_address": "8501 W Bowles Avenue", "addr:city": "Littleton", "addr:state": "CO", "addr:postcode": "80123", "addr:country": "US", "name": "The Cheesecake Factory", "phone": "303-948-3862", "website": "https://locations.thecheesecakefactory.com/co/littleton-192.html", "opening_hours": "Mo-Th 11:30-22:00; Fr-Sa 11:30-23:00; Su 10:00-22:00", "image": "https://www.thecheesecakefactory.com/media/locationImages/locations_Default.jpg", "brand": "The Cheesecake Factory", "brand:wikidata": "Q1045842", "nsi_id": "thecheesecakefactory-96af40"}, "geometry": {"type": "Point", "coordinates": [-105.0955648, 39.6119332]}},
{"type": "Feature", "id": "Ibsr1iTZjgablPqw4HoTZnbfukA=", "properties": {"ref": "https://locations.thecheesecakefactory.com/co/denver-19.html", "@spider": "thecheesecakefactory", "alt_name": "Cheesecake Factory", "amenity": "restaurant", "cuisine": "american", "addr:street_address": "1201 16th Street", "addr:city": "Denver", "addr:state": "CO", "addr:postcode": "80202", "addr:country": "US", "name": "The Cheesecake Factory", "phone": "303-595-0333", "website": "https://locations.thecheesecakefactory.com/co/denver-19.html", "opening_hours": "Mo-Th 11:00-22:00; Fr-Sa 11:00-23:00; Su 10:00-22:00", "image": "http://www.thecheesecakefactory.com/media/locationImages/locations_Denver.jpg", "brand": "The Cheesecake Factory", "brand:wikidata": "Q1045842", "nsi_id": "thecheesecakefactory-96af40"}, "geometry": {"type": "Point", "coordinates": [-104.996298, 39.7485735]}},
{"type": "Feature", "id": "ZWno69g-p2tdfjXibj96jp_JPY8=", "properties": {"ref": "https://locations.thecheesecakefactory.com/ca/walnut-creek-146.html", "@spider": "thecheesecakefactory", "alt_name": "Cheesecake Factory", "amenity": "restaurant", "cuisine": "american", "addr:street_address": "1181 Locust Street", "addr:city": "Walnut Creek", "addr:state": "CA", "addr:postcode": "94596", "addr:country": "US", "name": "The Cheesecake Factory", "phone": "925-952-8450", "website": "https://locations.thecheesecakefactory.com/ca/walnut-creek-146.html", "opening_hours": "Mo-Th 11:00-22:00; Fr-Sa 11:00-23:00; Su 10:00-22:00", "image": "http://www.thecheesecakefactory.com/media/locationImages/locations_WalnutCreek.jpg", "brand": "The Cheesecake Factory", "brand:wikidata": "Q1045842", "nsi_id": "thecheesecakefactory-96af40"}, "geometry": {"type": "Point", "coordinates": [-122.0619941, 37.8958355]}},
{"type": "Feature", "id": "7BLTAlvez_W7vriq3zyST23786k=", "properties": {"ref": "https://locations.thecheesecakefactory.com/ca/thousand-oaks-29.html", "@spider": "thecheesecakefactory", "alt_name": "Cheesecake Factory", "amenity": "restaurant", "cuisine": "american", "addr:street_address": "442 West Hillcrest Drive", "addr:city": "Thousand Oaks", "addr:state": "CA", "addr:postcode": "91360", "addr:country": "US", "name": "The Cheesecake Factory", "phone": "805-371-9705", "website": "https://locations.thecheesecakefactory.com/ca/thousand-oaks-29.html", "opening_hours": "Mo-Th 11:00-22:00; Fr-Sa 11:00-23:00; Su 10:00-22:00", "image": "http://www.thecheesecakefactory.com/media/locationImages/locations_Default.jpg", "brand": "The Cheesecake Factory", "brand:wikidata": "Q1045842", "nsi_id": "thecheesecakefactory-96af40"}, "geometry": {"type": "Point", "coordinates": [-118.8875724, 34.1842501]}},
{"type": "Feature", "id": "vfOvjckRiScD4srMUs8ik6k2aX0=", "properties": {"ref": "https://locations.thecheesecakefactory.com/ca/valencia-198.html", "@spider": "thecheesecakefactory", "alt_name": "Cheesecake Factory", "amenity": "restaurant", "cuisine": "american", "addr:street_address": "24250 Town Center Drive #110", "addr:city": "Valencia", "addr:state": "CA", "addr:postcode": "91355", "addr:country": "US", "name": "The Cheesecake Factory", "phone": "661-286-1232", "website": "https://locations.thecheesecakefactory.com/ca/valencia-198.html", "opening_hours": "Mo-Th 11:30-22:00; Fr-Sa 11:30-23:00; Su 10:00-22:00", "image": "https://www.thecheesecakefactory.com/media/locationImages/locations_Default.jpg", "brand": "The Cheesecake Factory", "brand:wikidata": "Q1045842", "nsi_id": "thecheesecakefactory-96af40"}, "geometry": {"type": "Point", "coordinates": [-118.559143, 34.4166099]}},
{"type": "Feature", "id": "x7Lz9XquDpwnde1QcmvIcNLZ7qk=", "properties": {"ref": "https://locations.thecheesecakefactory.com/ca/sherman-oaks-44.html", "@spider": "thecheesecakefactory", "alt_name": "Cheesecake Factory", "amenity": "restaurant", "cuisine": "american", "addr:street_address": "15301 Ventura Boulevard", "addr:city": "Sherman Oaks", "addr:state": "CA", "addr:postcode": "91403", "addr:country": "US", "name": "The Cheesecake Factory", "phone": "818-906-0700", "website": "https://locations.thecheesecakefactory.com/ca/sherman-oaks-44.html", "opening_hours": "Mo-Th 11:30-22:00; Fr-Sa 11:30-23:00; Su 10:00-22:00", "image": "http://www.thecheesecakefactory.com/media/locationImages/locations_Default.jpg", "brand": "The Cheesecake Factory", "brand:wikidata": "Q1045842", "nsi_id": "thecheesecakefactory-96af40"}, "geometry": {"type": "Point", "coordinates": [-118.4665507, 34.1549292]}},
{"type": "Feature", "id": "udXHayyDgGgkHLQpelMmvSXyrYI=", "properties": {"ref": "https://locations.thecheesecakefactory.com/ca/temecula-207.html", "@spider": "thecheesecakefactory", "alt_name": "Cheesecake Factory", "amenity": "restaurant", "cuisine": "american", "addr:street_address": "40820 Winchester Road", "addr:city": "Temecula", "addr:state": "CA", "addr:postcode": "92591", "addr:country": "US", "name": "The Cheesecake Factory", "phone": "951-296-0230", "website": "https://locations.thecheesecakefactory.com/ca/temecula-207.html", "opening_hours": "Mo-Th 11:30-22:00; Fr-Sa 11:30-23:00; Su 10:00-22:00", "image": "https://www.thecheesecakefactory.com/media/locationImages/locations_Default.jpg", "brand": "The Cheesecake Factory", "brand:wikidata": "Q1045842", "nsi_id": "thecheesecakefactory-96af40"}, "geometry": {"type": "Point", "coordinates": [-117.1546001, 33.5245692]}},
{"type": "Feature", "id": "KVC6OrF2xwdkvc3_On7ZHwt1XvA=", "properties": {"ref": "https://locations.thecheesecakefactory.com/ca/santa-monica-186.html", "@spider": "thecheesecakefactory", "alt_name": "Cheesecake Factory", "amenity": "restaurant", "cuisine": "american", "addr:street_address": "395 Santa Monica Place", "addr:city": "Santa Monica", "addr:state": "CA", "addr:postcode": "90401", "addr:country": "US", "name": "The Cheesecake Factory", "phone": "310-260-1296", "website": "https://locations.thecheesecakefactory.com/ca/santa-monica-186.html", "opening_hours": "Mo-Th 11:30-22:00; Fr-Sa 11:30-23:00; Su 10:00-22:00", "image": "https://www.thecheesecakefactory.com/media/locationImages/locations_Default.jpg", "brand": "The Cheesecake Factory", "brand:wikidata": "Q1045842", "nsi_id": "thecheesecakefactory-96af40"}, "geometry": {"type": "Point", "coordinates": [-118.4935128, 34.0141707]}},
{"type": "Feature", "id": "5Se86oTrr2wgCu29xB3YDmWUvJs=", "properties": {"ref": "https://locations.thecheesecakefactory.com/ca/santa-clara-58.html", "@spider": "thecheesecakefactory", "alt_name": "Cheesecake Factory", "amenity": "restaurant", "cuisine": "american", "addr:street_address": "3041 Stevens Creek Boulevard", "addr:city": "Santa Clara", "addr:state": "CA", "addr:postcode": "95050", "addr:country": "US", "name": "The Cheesecake Factory", "phone": "408-246-0092", "website": "https://locations.thecheesecakefactory.com/ca/santa-clara-58.html", "opening_hours": "Mo-Th 11:00-22:00; Fr-Sa 11:00-23:00; Su 10:00-22:00", "image": "http://www.thecheesecakefactory.com/media/locationImages/locations_Default.jpg", "brand": "The Cheesecake Factory", "brand:wikidata": "Q1045842", "nsi_id": "thecheesecakefactory-96af40"}, "geometry": {"type": "Point", "coordinates": [-121.9474954, 37.3242566]}},
{"type": "Feature", "id": "InXzMNo0ouv8uVgc_AUA7kJy8g8=", "properties": {"ref": "https://locations.thecheesecakefactory.com/ca/san-mateo-156.html", "@spider": "thecheesecakefactory", "alt_name": "Cheesecake Factory", "amenity": "restaurant", "cuisine": "american", "addr:street_address": "398 Hillsdale Shopping Center", "addr:city": "San Mateo", "addr:state": "CA", "addr:postcode": "94403", "addr:country": "US", "name": "The Cheesecake Factory", "phone": "650-638-0310", "website": "https://locations.thecheesecakefactory.com/ca/san-mateo-156.html", "opening_hours": "Mo-Th 11:00-22:00; Fr-Sa 11:00-23:00; Su 10:00-22:00", "image": "http://www.thecheesecakefactory.com/media/locationImages/locations_Hillsdale.jpg", "brand": "The Cheesecake Factory", "brand:wikidata": "Q1045842", "nsi_id": "thecheesecakefactory-96af40"}, "geometry": {"type": "Point", "coordinates": [-122.300907, 37.5378764]}},
{"type": "Feature", "id": "PqaBiWqmF_a0T4ZNWckqsqMXm2Q=", "properties": {"ref": "https://locations.thecheesecakefactory.com/ca/san-jose-73.html", "@spider": "thecheesecakefactory", "alt_name": "Cheesecake Factory", "amenity": "restaurant", "cuisine": "american", "addr:street_address": "925 Blossom Hill Road", "addr:city": "San Jose", "addr:state": "CA", "addr:postcode": "95123", "addr:country": "US", "name": "The Cheesecake Factory", "phone": "408-225-6948", "website": "https://locations.thecheesecakefactory.com/ca/san-jose-73.html", "opening_hours": "Mo-Th 11:00-22:00; Fr-Sa 11:00-23:00; Su 10:00-22:00", "image": "http://www.thecheesecakefactory.com/media/locationImages/locations_Default.jpg", "brand": "The Cheesecake Factory", "brand:wikidata": "Q1045842", "nsi_id": "thecheesecakefactory-96af40"}, "geometry": {"type": "Point", "coordinates": [-121.8657786, 37.2517892]}},
{"type": "Feature", "id": "TzRUMmpbU-5TGBZIM8V2OTzUDG4=", "properties": {"ref": "https://locations.thecheesecakefactory.com/ca/san-francisco-34.html", "@spider": "thecheesecakefactory", "alt_name": "Cheesecake Factory", "amenity": "restaurant", "cuisine": "american", "addr:street_address": "251 Geary Street", "addr:city": "San Francisco", "addr:state": "CA", "addr:postcode": "94102", "addr:country": "US", "name": "The Cheesecake Factory", "phone": "415-391-4444", "website": "https://locations.thecheesecakefactory.com/ca/san-francisco-34.html", "opening_hours": "Mo-Th 11:00-22:00; Fr-Sa 11:00-23:00; Su 10:00-22:00", "image": "http://www.thecheesecakefactory.com/media/locationImages/locations_SanFrancisco.jpg", "brand": "The Cheesecake Factory", "brand:wikidata": "Q1045842", "nsi_id": "thecheesecakefactory-96af40"}, "geometry": {"type": "Point", "coordinates": [-122.4074588, 37.7872434]}},
{"type": "Feature", "id": "OUjKcgR-BHiEr5eaP82UWf_b-0Q=", "properties": {"ref": "https://locations.thecheesecakefactory.com/ca/san-diego-169.html", "@spider": "thecheesecakefactory", "alt_name": "Cheesecake Factory", "amenity": "restaurant", "cuisine": "american", "addr:street_address": "789 W Harbor Drive", "addr:city": "San Diego", "addr:state": "CA", "addr:postcode": "92101", "addr:country": "US", "name": "The Cheesecake Factory", "phone": "619-231-0036", "website": "https://locations.thecheesecakefactory.com/ca/san-diego-169.html", "opening_hours": "Mo-Th 11:00-22:00; Fr-Sa 11:00-23:00; Su 10:00-22:00", "image": "http://www.thecheesecakefactory.com/media/locationImages/locations_Default.jpg", "brand": "The Cheesecake Factory", "brand:wikidata": "Q1045842", "nsi_id": "thecheesecakefactory-96af40"}, "geometry": {"type": "Point", "coordinates": [-117.1695804, 32.7109067]}},
{"type": "Feature", "id": "0753JYLgL2kTYtky4CmgTOt5BKE=", "properties": {"ref": "https://locations.thecheesecakefactory.com/ca/san-diego-28.html", "@spider": "thecheesecakefactory", "alt_name": "Cheesecake Factory", "amenity": "restaurant", "cuisine": "american", "addr:street_address": "7067 Friars Road", "addr:city": "San Diego", "addr:state": "CA", "addr:postcode": "92108", "addr:country": "US", "name": "The Cheesecake Factory", "phone": "619-683-2800", "website": "https://locations.thecheesecakefactory.com/ca/san-diego-28.html", "opening_hours": "Mo-Th 11:00-22:00; Fr-Sa 11:00-23:00; Su 10:00-22:00", "image": "http://www.thecheesecakefactory.com/media/locationImages/locations_SanDiego.jpg", "brand": "The Cheesecake Factory", "brand:wikidata": "Q1045842", "nsi_id": "thecheesecakefactory-96af40"}, "geometry": {"type": "Point", "coordinates": [-117.1655824, 32.7691647]}},
{"type": "Feature", "id": "5ScdA8EA7EIe8bEikCARLsFIdBE=", "properties": {"ref": "https://locations.thecheesecakefactory.com/ca/oxnard-210.html", "@spider": "thecheesecakefactory", "alt_name": "Cheesecake Factory", "amenity": "restaurant", "cuisine": "american", "addr:street_address": "600 Town Center Drive", "addr:city": "Oxnard", "addr:state": "CA", "addr:postcode": "93036", "addr:country": "US", "name": "The Cheesecake Factory", "phone": "805-278-8878", "website": "https://locations.thecheesecakefactory.com/ca/oxnard-210.html", "opening_hours": "Mo-Th 11:30-22:00; Fr-Sa 11:30-23:00; Su 10:00-22:00", "image": "https://www.thecheesecakefactory.com/media/locationImages/locations_Default.jpg", "brand": "The Cheesecake Factory", "brand:wikidata": "Q1045842", "nsi_id": "thecheesecakefactory-96af40"}, "geometry": {"type": "Point", "coordinates": [-119.1784479, 34.2397097]}},
{"type": "Feature", "id": "Cldvo3f_MANBS3cQG7vkvuDXBKA=", "properties": {"ref": "https://locations.thecheesecakefactory.com/ca/sacramento-78.html", "@spider": "thecheesecakefactory", "alt_name": "Cheesecake Factory", "amenity": "restaurant", "cuisine": "american", "addr:street_address": "1771 Arden Way", "addr:city": "Sacramento", "addr:state": "CA", "addr:postcode": "95815", "addr:country": "US", "name": "The Cheesecake Factory", "phone": "916-567-0606", "website": "https://locations.thecheesecakefactory.com/ca/sacramento-78.html", "opening_hours": "Mo-Th 11:00-22:00; Fr-Sa 11:00-23:00; Su 10:00-22:00", "image": "http://www.thecheesecakefactory.com/media/locationImages/locations_Default.jpg", "brand": "The Cheesecake Factory", "brand:wikidata": "Q1045842", "nsi_id": "thecheesecakefactory-96af40"}, "geometry": {"type": "Point", "coordinates": [-121.4226717, 38.5981168]}},
{"type": "Feature", "id": "qeEnhHhvgg0rMYxRrFrL9P-mRCM=", "properties": {"ref": "https://locations.thecheesecakefactory.com/ca/pasadena-18.html", "@spider": "thecheesecakefactory", "alt_name": "Cheesecake Factory", "amenity": "restaurant", "cuisine": "american", "addr:street_address": "2 West Colorado Boulevard", "addr:city": "Pasadena", "addr:state": "CA", "addr:postcode": "91101", "addr:country": "US", "name": "The Cheesecake Factory", "phone": "626-584-6000", "website": "https://locations.thecheesecakefactory.com/ca/pasadena-18.html", "opening_hours": "Mo-Th 11:00-22:00; Fr-Sa 11:00-23:00; Su 10:00-22:00", "image": "http://www.thecheesecakefactory.com/media/locationImages/locations_Pasadena.jpg", "brand": "The Cheesecake Factory", "brand:wikidata": "Q1045842", "nsi_id": "thecheesecakefactory-96af40"}, "geometry": {"type": "Point", "coordinates": [-118.1505962, 34.1456337]}},
{"type": "Feature", "id": "J1R2xDFsuLKib574Y0YJ9o1Z0cE=", "properties": {"ref": "https://locations.thecheesecakefactory.com/ca/newport-beach-6.html", "@spider": "thecheesecakefactory", "alt_name": "Cheesecake Factory", "amenity": "restaurant", "cuisine": "american", "addr:street_address": "1141 Newport Center Drive", "addr:city": "Newport Beach", "addr:state": "CA", "addr:postcode": "92660", "addr:country": "US", "name": "The Cheesecake Factory", "phone": "949-720-8333", "website": "https://locations.thecheesecakefactory.com/ca/newport-beach-6.html", "opening_hours": "Mo-Th 11:00-22:00; Fr-Sa 11:00-23:00; Su 10:00-22:00", "image": "http://www.thecheesecakefactory.com/media/locationImages/locations_Default.jpg", "brand": "The Cheesecake Factory", "brand:wikidata": "Q1045842", "nsi_id": "thecheesecakefactory-96af40"}, "geometry": {"type": "Point", "coordinates": [-117.877515, 33.615385]}},
{"type": "Feature", "id": "zsgrpcXvV-C9KZ-sH8tZqAzdLcc=", "properties": {"ref": "https://locations.thecheesecakefactory.com/ca/marina-del-rey-2.html", "@spider": "thecheesecakefactory", "alt_name": "Cheesecake Factory", "amenity": "restaurant", "cuisine": "american", "addr:street_address": "4142 Via Marina", "addr:city": "Marina Del Rey", "addr:state": "CA", "addr:postcode": "90292", "addr:country": "US", "name": "The Cheesecake Factory", "phone": "310-306-3344", "website": "https://locations.thecheesecakefactory.com/ca/marina-del-rey-2.html", "opening_hours": "Mo-Th 11:30-22:00; Fr-Sa 11:30-23:00; Su 10:00-22:00", "image": "http://www.thecheesecakefactory.com/media/locationImages/locations_MarinaDelRey.jpg", "brand": "The Cheesecake Factory", "brand:wikidata": "Q1045842", "nsi_id": "thecheesecakefactory-96af40"}, "geometry": {"type": "Point", "coordinates": [-118.458697, 33.9801706]}},
{"type": "Feature", "id": "E3zIgUteOJnnETdKKX1Feuvlunk=", "properties": {"ref": "https://locations.thecheesecakefactory.com/ca/mission-viejo-33.html", "@spider": "thecheesecakefactory", "alt_name": "Cheesecake Factory", "amenity": "restaurant", "cuisine": "american", "addr:street_address": "42 The Shops at Mission Viejo", "addr:city": "Mission Viejo", "addr:state": "CA", "addr:postcode": "92691", "addr:country": "US", "name": "The Cheesecake Factory", "phone": "949-364-6200", "website": "https://locations.thecheesecakefactory.com/ca/mission-viejo-33.html", "opening_hours": "Mo-Th 11:00-22:00; Fr-Sa 11:00-23:00; Su 10:00-22:00", "image": "http://www.thecheesecakefactory.com/media/locationImages/locations_Default.jpg", "brand": "The Cheesecake Factory", "brand:wikidata": "Q1045842", "nsi_id": "thecheesecakefactory-96af40"}, "geometry": {"type": "Point", "coordinates": [-117.6704608, 33.5572901]}},
{"type": "Feature", "id": "YWnLdbQbcbwXszk-VeaSKYOrOn0=", "properties": {"ref": "https://locations.thecheesecakefactory.com/ca/los-angeles-92.html", "@spider": "thecheesecakefactory", "alt_name": "Cheesecake Factory", "amenity": "restaurant", "cuisine": "american", "addr:street_address": "189 The Grove Drive", "addr:city": "Los Angeles", "addr:state": "CA", "addr:postcode": "90036", "addr:country": "US", "name": "The Cheesecake Factory", "phone": "323-634-0511", "website": "https://locations.thecheesecakefactory.com/ca/los-angeles-92.html", "opening_hours": "Mo-Th 11:30-22:00; Fr-Sa 11:30-23:00; Su 10:00-22:00", "image": "http://www.thecheesecakefactory.com/media/locationImages/locations_thegrove.jpg", "brand": "The Cheesecake Factory", "brand:wikidata": "Q1045842", "nsi_id": "thecheesecakefactory-96af40"}, "geometry": {"type": "Point", "coordinates": [-118.357336, 34.0713919]}},
{"type": "Feature", "id": "ZqWgXFYKBD_WEwQnWtIiFryK_yM=", "properties": {"ref": "https://locations.thecheesecakefactory.com/ca/irvine-25.html", "@spider": "thecheesecakefactory", "alt_name": "Cheesecake Factory", "amenity": "restaurant", "cuisine": "american", "addr:street_address": "600 Spectrum Center Drive", "addr:city": "Irvine", "addr:state": "CA", "addr:postcode": "92618", "addr:country": "US", "name": "The Cheesecake Factory", "phone": "949-788-9998", "website": "https://locations.thecheesecakefactory.com/ca/irvine-25.html", "opening_hours": "Mo-Th 11:00-22:00; Fr-Sa 11:00-23:00; Su 10:00-22:00", "image": "http://www.thecheesecakefactory.com/media/locationImages/locations_Irvine.jpg", "brand": "The Cheesecake Factory", "brand:wikidata": "Q1045842", "nsi_id": "thecheesecakefactory-96af40"}, "geometry": {"type": "Point", "coordinates": [-117.746271, 33.650965]}},
{"type": "Feature", "id": "OsES6aMQTlrr7FqnnJz7YKmZMpg=", "properties": {"ref": "https://locations.thecheesecakefactory.com/ca/huntington-beach-108.html", "@spider": "thecheesecakefactory", "alt_name": "Cheesecake Factory", "amenity": "restaurant", "cuisine": "american", "addr:street_address": "7871 Edinger Avenue", "addr:city": "Huntington Beach", "addr:state": "CA", "addr:postcode": "92647", "addr:country": "US", "name": "The Cheesecake Factory", "phone": "714-889-1500", "website": "https://locations.thecheesecakefactory.com/ca/huntington-beach-108.html", "opening_hours": "Mo-Th 11:00-22:00; Fr-Sa 11:00-23:00; Su 10:00-22:00", "image": "http://www.thecheesecakefactory.com/media/locationImages/locations_HuntingtonBeach.jpg", "brand": "The Cheesecake Factory", "brand:wikidata": "Q1045842", "nsi_id": "thecheesecakefactory-96af40"}, "geometry": {"type": "Point", "coordinates": [-117.9916177, 33.732545]}},
{"type": "Feature", "id": "oEpC2KJLsnq3zvL_qBJoSbQv93w=", "properties": {"ref": "https://locations.thecheesecakefactory.com/ca/glendale-141.html", "@spider": "thecheesecakefactory", "alt_name": "Cheesecake Factory", "amenity": "restaurant", "cuisine": "american", "addr:street_address": "511 Americana Way", "addr:city": "Glendale", "addr:state": "CA", "addr:postcode": "91210", "addr:country": "US", "name": "The Cheesecake Factory", "phone": "818-550-7505", "website": "https://locations.thecheesecakefactory.com/ca/glendale-141.html", "opening_hours": "Mo-Th 11:00-22:00; Fr-Sa 11:00-23:00; Su 10:00-22:00", "image": "http://www.thecheesecakefactory.com/media/locationImages/locations_brea.jpg", "brand": "The Cheesecake Factory", "brand:wikidata": "Q1045842", "nsi_id": "thecheesecakefactory-96af40"}, "geometry": {"type": "Point", "coordinates": [-118.2575363, 34.1440863]}},
{"type": "Feature", "id": "YujnzKlhhtsa6ztrDm5Dx2Y6038=", "properties": {"ref": "https://locations.thecheesecakefactory.com/ca/fresno-105.html", "@spider": "thecheesecakefactory", "alt_name": "Cheesecake Factory", "amenity": "restaurant", "cuisine": "american", "addr:street_address": "639 East Shaw Avenue", "addr:city": "Fresno", "addr:state": "CA", "addr:postcode": "93710", "addr:country": "US", "name": "The Cheesecake Factory", "phone": "559-228-1400", "website": "https://locations.thecheesecakefactory.com/ca/fresno-105.html", "opening_hours": "Mo-Th 11:00-22:00; Fr-Sa 11:00-23:00; Su 10:00-22:00", "image": "http://www.thecheesecakefactory.com/media/locationImages/locations_Fresno.jpg", "brand": "The Cheesecake Factory", "brand:wikidata": "Q1045842", "nsi_id": "thecheesecakefactory-96af40"}, "geometry": {"type": "Point", "coordinates": [-119.775582, 36.8080087]}},
{"type": "Feature", "id": "3vlWW2K6zxG7lPoECBTK6W3OuhY=", "properties": {"ref": "https://locations.thecheesecakefactory.com/ca/escondido-168.html", "@spider": "thecheesecakefactory", "alt_name": "Cheesecake Factory", "amenity": "restaurant", "cuisine": "american", "addr:street_address": "200 E. Via Rancho Parkway Suite 370", "addr:city": "Escondido", "addr:state": "CA", "addr:postcode": "92025", "addr:country": "US", "name": "The Cheesecake Factory", "phone": "760-743-2253", "website": "https://locations.thecheesecakefactory.com/ca/escondido-168.html", "opening_hours": "Mo-Th 11:00-22:00; Fr-Sa 11:00-23:00; Su 10:00-22:00", "image": "http://www.thecheesecakefactory.com/media/locationImages/locations_Default.jpg", "brand": "The Cheesecake Factory", "brand:wikidata": "Q1045842", "nsi_id": "thecheesecakefactory-96af40"}, "geometry": {"type": "Point", "coordinates": [-117.0662147, 33.07074]}},
{"type": "Feature", "id": "MuAqCZSnm2lOyIgRkGkOn8XX1tk=", "properties": {"ref": "https://locations.thecheesecakefactory.com/ca/chula-vista-115.html", "@spider": "thecheesecakefactory", "alt_name": "Cheesecake Factory", "amenity": "restaurant", "cuisine": "american", "addr:street_address": "2015 Birch Road", "addr:city": "Chula Vista", "addr:state": "CA", "addr:postcode": "91915", "addr:country": "US", "name": "The Cheesecake Factory", "phone": "619-421-2500", "website": "https://locations.thecheesecakefactory.com/ca/chula-vista-115.html", "opening_hours": "Mo-Th 11:30-22:00; Fr-Sa 11:30-23:00; Su 10:00-22:00", "image": "http://www.thecheesecakefactory.com/media/locationImages/locations_ChulaVista.jpg", "brand": "The Cheesecake Factory", "brand:wikidata": "Q1045842", "nsi_id": "thecheesecakefactory-96af40"}, "geometry": {"type": "Point", "coordinates": [-116.9669426, 32.6238096]}},
{"type": "Feature", "id": "YrHdYalm5rvUiavFf6hfzRnfQ8U=", "properties": {"ref": "https://locations.thecheesecakefactory.com/ca/corte-madera-84.html", "@spider": "thecheesecakefactory", "alt_name": "Cheesecake Factory", "amenity": "restaurant", "cuisine": "american", "addr:street_address": "1736 Redwood Highway", "addr:city": "Corte Madera", "addr:state": "CA", "addr:postcode": "94925", "addr:country": "US", "name": "The Cheesecake Factory", "phone": "415-945-0777", "website": "https://locations.thecheesecakefactory.com/ca/corte-madera-84.html", "opening_hours": "Mo-Th 11:00-22:00; Fr-Sa 11:00-23:00; Su 10:00-22:00", "image": "http://www.thecheesecakefactory.com/media/locationImages/locations_Default.jpg", "brand": "The Cheesecake Factory", "brand:wikidata": "Q1045842", "nsi_id": "thecheesecakefactory-96af40"}, "geometry": {"type": "Point", "coordinates": [-122.5140692, 37.9302352]}},
{"type": "Feature", "id": "VkEyJppSsWWdA40V8pwB9g8Exmc=", "properties": {"ref": "https://locations.thecheesecakefactory.com/ca/cerritos-189.html", "@spider": "thecheesecakefactory", "alt_name": "Cheesecake Factory", "amenity": "restaurant", "cuisine": "american", "addr:street_address": "201 Los Cerritos Center", "addr:city": "Cerritos", "addr:state": "CA", "addr:postcode": "90703", "addr:country": "US", "name": "The Cheesecake Factory", "phone": "562-402-2906", "website": "https://locations.thecheesecakefactory.com/ca/cerritos-189.html", "opening_hours": "Mo-Th 11:00-22:00; Fr-Sa 11:00-23:00; Su 10:00-22:00", "image": "https://www.thecheesecakefactory.com/media/locationImages/locations_Default.jpg", "brand": "The Cheesecake Factory", "brand:wikidata": "Q1045842", "nsi_id": "thecheesecakefactory-96af40"}, "geometry": {"type": "Point", "coordinates": [-118.0954096, 33.8617764]}},
{"type": "Feature", "id": "jFB_7KNeaCloIn8t141w5v6HBSc=", "properties": {"ref": "https://locations.thecheesecakefactory.com/ca/carlsbad-201.html", "@spider": "thecheesecakefactory", "alt_name": "Cheesecake Factory", "amenity": "restaurant", "cuisine": "american", "addr:street_address": "2525 El Camino Real", "addr:city": "Carlsbad", "addr:state": "CA", "addr:postcode": "92008", "addr:country": "US", "name": "The Cheesecake Factory", "phone": "760-730-9880", "website": "https://locations.thecheesecakefactory.com/ca/carlsbad-201.html", "opening_hours": "Mo-Th 11:30-22:00; Fr-Sa 11:30-23:00; Su 10:00-22:00", "image": "https://www.thecheesecakefactory.com/media/locationImages/locations_Default.jpg", "brand": "The Cheesecake Factory", "brand:wikidata": "Q1045842", "nsi_id": "thecheesecakefactory-96af40"}, "geometry": {"type": "Point", "coordinates": [-117.3324498, 33.1781877]}},
{"type": "Feature", "id": "B3oUD80KLfPdhiqwS92fVUt6dMU=", "properties": {"ref": "https://locations.thecheesecakefactory.com/ca/canoga-park-170.html", "@spider": "thecheesecakefactory", "alt_name": "Cheesecake Factory", "amenity": "restaurant", "cuisine": "american", "addr:street_address": "6600 Topanga Canyon Boulevard", "addr:city": "Canoga Park", "addr:state": "CA", "addr:postcode": "91303", "addr:country": "US", "name": "The Cheesecake Factory", "phone": "818-883-9900", "website": "https://locations.thecheesecakefactory.com/ca/canoga-park-170.html", "opening_hours": "Mo-Th 11:00-22:00; Fr-Sa 11:00-23:00; Su 10:00-22:00", "image": "http://www.thecheesecakefactory.com/media/locationImages/locations_Default.jpg", "brand": "The Cheesecake Factory", "brand:wikidata": "Q1045842", "nsi_id": "thecheesecakefactory-96af40"}, "geometry": {"type": "Point", "coordinates": [-118.6043711, 34.1892982]}},
{"type": "Feature", "id": "PCZ-vmwecCcfHMSSipsnBFm_3zA=", "properties": {"ref": "https://locations.thecheesecakefactory.com/ca/brea-88.html", "@spider": "thecheesecakefactory", "alt_name": "Cheesecake Factory", "amenity": "restaurant", "cuisine": "american", "addr:street_address": "120 Brea Mall Way", "addr:city": "Brea", "addr:state": "CA", "addr:postcode": "92821", "addr:country": "US", "name": "The Cheesecake Factory", "phone": "714-255-0115", "website": "https://locations.thecheesecakefactory.com/ca/brea-88.html", "opening_hours": "Mo-Th 11:00-22:00; Fr-Sa 11:00-23:00; Su 10:00-22:00", "image": "http://www.thecheesecakefactory.com/media/locationImages/locations_brea.jpg", "brand": "The Cheesecake Factory", "brand:wikidata": "Q1045842", "nsi_id": "thecheesecakefactory-96af40"}, "geometry": {"type": "Point", "coordinates": [-117.8881446, 33.9123964]}},
{"type": "Feature", "id": "IP1sR6GVy3nIyLHhjmE7t9d2Hcg=", "properties": {"ref": "https://locations.thecheesecakefactory.com/ca/beverly-hills-1.html", "@spider": "thecheesecakefactory", "alt_name": "Cheesecake Factory", "amenity": "restaurant", "cuisine": "american", "addr:street_address": "364 North Beverly Drive", "addr:city": "Beverly Hills", "addr:state": "CA", "addr:postcode": "90210", "addr:country": "US", "name": "The Cheesecake Factory", "phone": "310-278-7270", "website": "https://locations.thecheesecakefactory.com/ca/beverly-hills-1.html", "opening_hours": "Mo-Th 11:00-22:00; Fr-Sa 11:00-23:00; Su 10:00-22:00", "image": "http://www.thecheesecakefactory.com/media/locationImages/locations_BeverlyHills.jpg", "brand": "The Cheesecake Factory", "brand:wikidata": "Q1045842", "nsi_id": "thecheesecakefactory-96af40"}, "geometry": {"type": "Point", "coordinates": [-118.4014686, 34.0698712]}}]}