{"type":"FeatureCollection","features":[{"type": "Feature", "id": "uPrujtjSEJGgdTxdr3RrmnUabkE=", "properties": {"ref": "441", "@spider": "thefreshgrocer", "addr:full": "5301 Chew Ave", "addr:city": "Philadelphia", "addr:state": "PA", "addr:postcode": "19138", "name": "The Fresh Grocer of LaSalle", "phone": "(267) 323-3800", "website": "https://www.thefreshgrocer.com/sm/planning/rsid/441", "opening_hours": "Sunday - Saturday: 7 AM - 11 PM", "brand": "The Fresh Grocer", "brand:wikidata": "Q18389721"}, "geometry": {"type": "Point", "coordinates": [-75.159991, 40.043811]}},
{"type": "Feature", "id": "4IYJMCDlFZNwCiL6jlM34HCTXy4=", "properties": {"ref": "432", "@spider": "thefreshgrocer", "addr:full": "5601 Chestnut St", "addr:city": "Philadelphia", "addr:state": "PA", "addr:postcode": "19139", "name": "The Fresh Grocer of 56th & Chestnut", "phone": "(215) 474-2600", "website": "https://www.thefreshgrocer.com/sm/planning/rsid/432", "opening_hours": "Sunday - Saturday: 6 AM - 11 PM", "brand": "The Fresh Grocer", "brand:wikidata": "Q18389721"}, "geometry": {"type": "Point", "coordinates": [-75.234311, 39.960723]}},
{"type": "Feature", "id": "RxTrgkz8xGPJK_zkrDVDoA5iHhc=", "properties": {"ref": "448", "@spider": "thefreshgrocer", "addr:full": "1501 N Broad St", "addr:city": "Philadelphia", "addr:state": "PA", "addr:postcode": "19122", "name": "The Fresh Grocer of Progress Plaza", "phone": "(215) 531-9333", "website": "https://www.thefreshgrocer.com/sm/planning/rsid/448", "opening_hours": "Sunday - Saturday: 6 AM - 12 AM", "brand": "The Fresh Grocer", "brand:wikidata": "Q18389721"}, "geometry": {"type": "Point", "coordinates": [-75.157669, 39.976889]}},
{"type": "Feature", "id": "0dDQRkA-xy_d5FfVoTTLj0b2cy4=", "properties": {"ref": "456", "@spider": "thefreshgrocer", "addr:full": "4160 Monument Road", "addr:city": "Philadelphia", "addr:state": "PA", "addr:postcode": "19131-1726", "name": "The Fresh Grocer of Monument Road", "phone": "(215) 581-4990", "website": "https://www.thefreshgrocer.com/sm/planning/rsid/456", "opening_hours": "Sunday - Saturday: 7 AM - 11 PM", "brand": "The Fresh Grocer", "brand:wikidata": "Q18389721"}, "geometry": {"type": "Point", "coordinates": [-75.21359, 40.002758]}},
{"type": "Feature", "id": "-th3HD7hHbg_8Is1ogMdnDEWYag=", "properties": {"ref": "415", "@spider": "thefreshgrocer", "addr:full": "1000 Easton Rd.", "addr:city": "Wyncote", "addr:state": "PA", "addr:postcode": "19095-2918", "name": "The Fresh Grocer of Wyncote", "phone": "(215) 376-0111", "website": "https://www.thefreshgrocer.com/sm/planning/rsid/415", "opening_hours": "Sunday - Saturday: 7 AM - 11 PM", "brand": "The Fresh Grocer", "brand:wikidata": "Q18389721"}, "geometry": {"type": "Point", "coordinates": [-75.167934, 40.08243]}},
{"type": "Feature", "id": "yMgisiqKimTUt3upspGgmW-ec9M=", "properties": {"ref": "438", "@spider": "thefreshgrocer", "addr:full": "421 S. 69th St", "addr:city": "Upper Darby", "addr:state": "PA", "addr:postcode": "19082", "name": "The Fresh Grocer of Upper Darby", "phone": "(610) 352-1222", "website": "https://www.thefreshgrocer.com/sm/planning/rsid/438", "opening_hours": "Sunday - Saturday: 6 AM - 11 PM", "brand": "The Fresh Grocer", "brand:wikidata": "Q18389721"}, "geometry": {"type": "Point", "coordinates": [-75.257392, 39.953617]}},
{"type": "Feature", "id": "5HfRR71eg9ZOGqWxw-Tw4xhubgs=", "properties": {"ref": "459", "@spider": "thefreshgrocer", "addr:full": "3021 Grays Ferry Ave", "addr:city": "Philadelphia", "addr:state": "PA", "addr:postcode": "19146", "name": "The Fresh Grocer of Grays Ferry", "phone": "(215) 468-1550", "website": "https://www.thefreshgrocer.com/sm/planning/rsid/459", "opening_hours": "Sunday - Saturday: 6 AM - 11 PM", "brand": "The Fresh Grocer", "brand:wikidata": "Q18389721"}, "geometry": {"type": "Point", "coordinates": [-75.193305, 39.940413]}},
{"type": "Feature", "id": "hFpMi0FfBgmdjFGPiRrlvq3BC_w=", "properties": {"ref": "144", "@spider": "thefreshgrocer", "addr:full": "510 Inman Ave", "addr:city": "Colonia", "addr:state": "NJ", "addr:postcode": "07067", "name": "The Fresh Grocer of Inman Ave", "phone": "(732) 388-6363", "website": "https://www.thefreshgrocer.com/sm/planning/rsid/144", "opening_hours": "Monday - Saturday: 7 AM - 10 PM \nSunday: 7 AM - 9 PM\n", "brand": "The Fresh Grocer", "brand:wikidata": "Q18389721"}, "geometry": {"type": "Point", "coordinates": [-74.32518, 40.59941]}},
{"type": "Feature", "id": "d6JS-Fju1gDV17SARosFhsFu9JM=", "properties": {"ref": "147", "@spider": "thefreshgrocer", "addr:full": "315 Pascack Rd", "addr:city": "Washington Township", "addr:state": "NJ", "addr:postcode": "07676", "name": "The Fresh Grocer of Pascack Rd", "phone": "(201) 666-2185", "website": "https://www.thefreshgrocer.com/sm/planning/rsid/147", "opening_hours": "Monday - Saturday: 7 AM - 10 PM \nSunday: 7 AM - 9 PM", "brand": "The Fresh Grocer", "brand:wikidata": "Q18389721"}, "geometry": {"type": "Point", "coordinates": [-74.062806, 40.986667]}},
{"type": "Feature", "id": "bUqGQ23BsyOHopM85jB8qHwy8PA=", "properties": {"ref": "145", "@spider": "thefreshgrocer", "addr:full": "1068 High Mountain Rd", "addr:city": "North Haledon", "addr:state": "NJ", "addr:postcode": "07508", "name": "The Fresh Grocer of High Mountain Rd", "phone": "(973) 423-5506", "website": "https://www.thefreshgrocer.com/sm/planning/rsid/145", "opening_hours": "Monday - Saturday: 7 AM - 9 PM\nSunday: 7 AM - 8 PM", "brand": "The Fresh Grocer", "brand:wikidata": "Q18389721"}, "geometry": {"type": "Point", "coordinates": [-74.1915, 40.9723]}},
{"type": "Feature", "id": "UarIOEmOyg0DBwTfwMIfJPb6Dns=", "properties": {"ref": "146", "@spider": "thefreshgrocer", "addr:full": "597 Pompton Ave", "addr:city": "Cedar Grove", "addr:state": "NJ", "addr:postcode": "07009", "name": "The Fresh Grocer of Pompton Ave", "phone": "(973) 595-0655", "website": "https://www.thefreshgrocer.com/sm/planning/rsid/146", "opening_hours": "Monday - Saturday: 7 AM - 10 PM \nSunday: 7 AM - 9 PM", "brand": "The Fresh Grocer", "brand:wikidata": "Q18389721"}, "geometry": {"type": "Point", "coordinates": [-74.228889, 40.853561]}},
{"type": "Feature", "id": "LYTMZpD1gu0Ey7kr4MrT70F_Pl0=", "properties": {"ref": "484", "@spider": "thefreshgrocer", "addr:full": "320 Meadow Ave", "addr:city": "Scranton", "addr:state": "PA", "addr:postcode": "18505", "name": "The Fresh Grocer of Meadow Ave", "phone": "(570) 961-9030", "website": "https://www.thefreshgrocer.com/sm/planning/rsid/484", "opening_hours": "Sunday thru Saturday: 7am to 9pm", "brand": "The Fresh Grocer", "brand:wikidata": "Q18389721"}, "geometry": {"type": "Point", "coordinates": [-75.6550912, 41.3953182]}},
{"type": "Feature", "id": "9ggRLCyUtqsDxOIgQ6xviYaQaR0=", "properties": {"ref": "488", "@spider": "thefreshgrocer", "addr:full": "2280 San Souci Pkwy", "addr:city": "Hanover Township", "addr:state": "PA", "addr:postcode": "18706", "name": "The Fresh Grocer of Hanover Mall", "phone": "570-735-1316", "website": "https://www.thefreshgrocer.com/sm/planning/rsid/488", "opening_hours": "Now Open!\nSunday thru Saturday: 7am to 9pm\nRX phone - (570) 812-0016", "brand": "The Fresh Grocer", "brand:wikidata": "Q18389721"}, "geometry": {"type": "Point", "coordinates": [-75.971718, 41.2086269]}},
{"type": "Feature", "id": "z8W32W0dMyet4UQpaDO9Gr_CfM4=", "properties": {"ref": "494", "@spider": "thefreshgrocer", "addr:full": "1880 Stefko Blvd", "addr:city": "Bethlehem", "addr:state": "PA", "addr:postcode": "18017", "name": "The Fresh Grocer of Stefko Shopping Center", "phone": "(610) 867-4600", "website": "https://www.thefreshgrocer.com/sm/planning/rsid/494", "opening_hours": "Sunday thru Saturday: 7am to 9pm", "brand": "The Fresh Grocer", "brand:wikidata": "Q18389721"}, "geometry": {"type": "Point", "coordinates": [-75.3492695, 40.639265]}},
{"type": "Feature", "id": "-DU2-hBewf2Tn7N5mq-GLPgldFE=", "properties": {"ref": "490", "@spider": "thefreshgrocer", "addr:full": "552 Union Street", "addr:city": "Luzerne", "addr:state": "PA", "addr:postcode": "18709", "name": "The Fresh Grocer of Luzerne Shopping Center", "phone": "(570) 287-9677", "website": "https://www.thefreshgrocer.com/sm/planning/rsid/490", "opening_hours": "Sunday thru Saturday: 7am to 9pm", "brand": "The Fresh Grocer", "brand:wikidata": "Q18389721"}, "geometry": {"type": "Point", "coordinates": [-75.8996058, 41.2813463]}},
{"type": "Feature", "id": "K6jUF5tUE0-75RelOWJrOgm0RM8=", "properties": {"ref": "492", "@spider": "thefreshgrocer", "addr:full": "2020 Wyoming Ave", "addr:city": "Wyoming", "addr:state": "PA", "addr:postcode": "18644", "name": "The Fresh Grocer of Wyoming Ave", "phone": "570-283-5555", "website": "https://www.thefreshgrocer.com/sm/planning/rsid/492", "opening_hours": "Sunday thru Saturday: 7am to 9pm", "brand": "The Fresh Grocer", "brand:wikidata": "Q18389721"}, "geometry": {"type": "Point", "coordinates": [-75.8616663, 41.3002991]}},
{"type": "Feature", "id": "Ex20wYvvubroTeQs9r3WFZBatbs=", "properties": {"ref": "493", "@spider": "thefreshgrocer", "addr:full": "801 Wyoming Ave", "addr:city": "West Pittston", "addr:state": "PA", "addr:postcode": "18643", "name": "The Fresh Grocer of Insalco Shopping Center", "phone": "(570) 654-3444", "website": "https://www.thefreshgrocer.com/sm/planning/rsid/493", "opening_hours": "Sunday thru Saturday: 7am to 9pm", "brand": "The Fresh Grocer", "brand:wikidata": "Q18389721"}, "geometry": {"type": "Point", "coordinates": [-75.808098, 41.3246456]}},
{"type": "Feature", "id": "vIBaWgVxPV5Iohu5Ln9d2vaH1ik=", "properties": {"ref": "486", "@spider": "thefreshgrocer", "addr:full": "4015 Birney Ave", "addr:city": "Moosic", "addr:state": "PA", "addr:postcode": "18507", "name": "The Fresh Grocer of Moosic", "phone": "(570) 963-7436", "website": "https://www.thefreshgrocer.com/sm/planning/rsid/486", "opening_hours": "Sunday thru Saturday: 7am to 9pm", "brand": "The Fresh Grocer", "brand:wikidata": "Q18389721"}, "geometry": {"type": "Point", "coordinates": [-75.71089, 41.3691391]}},
{"type": "Feature", "id": "rlU0Jhl_4DvvBBx4vtSl6gqCht0=", "properties": {"ref": "491", "@spider": "thefreshgrocer", "addr:full": "100 Old Lackawanna Trail", "addr:city": "Clarks Summit", "addr:state": "PA", "addr:postcode": "18411", "name": "The Fresh Grocer of Summit Square", "phone": "(570) 587-3800", "website": "https://www.thefreshgrocer.com/sm/planning/rsid/491", "opening_hours": "Sunday thru Saturday: 7am to 9pm", "brand": "The Fresh Grocer", "brand:wikidata": "Q18389721"}, "geometry": {"type": "Point", "coordinates": [-75.7101705, 41.4954989]}},
{"type": "Feature", "id": "b4xJ5aV54cswVZN_9mjDlXWaHMU=", "properties": {"ref": "483", "@spider": "thefreshgrocer", "addr:full": "1782 North Keyser Ave", "addr:city": "Scranton", "addr:state": "PA", "addr:postcode": "18508", "name": "The Fresh Grocer of Keyser Oak Plaza", "phone": "570-347-0393", "website": "https://www.thefreshgrocer.com/sm/planning/rsid/483", "opening_hours": "Sunday thru Saturday: 7am to 9pm\nRX Phone:  (570) 207-4308", "brand": "The Fresh Grocer", "brand:wikidata": "Q18389721"}, "geometry": {"type": "Point", "coordinates": [-75.6701059, 41.445255]}},
{"type": "Feature", "id": "sUR_YdINjFRFFt8DWAQscsBkGf4=", "properties": {"ref": "481", "@spider": "thefreshgrocer", "addr:full": "702 South Main Ave", "addr:city": "Scranton", "addr:state": "PA", "addr:postcode": "18504", "name": "The Fresh Grocer of South Main Ave & Eynon", "phone": "(570) 342-7103", "website": "https://www.thefreshgrocer.com/sm/planning/rsid/481", "opening_hours": "Sunday thru Saturday: 7am to 9pm", "brand": "The Fresh Grocer", "brand:wikidata": "Q18389721"}, "geometry": {"type": "Point", "coordinates": [-75.6890865, 41.4056131]}}]}