{"type":"FeatureCollection","features":[{"type": "Feature", "id": "qsseOg3W0hyxywDumdhn085C7VA=", "properties": {"ref": "https://www.therapieclinic.com/our-clinics/somerset/bath/", "@spider": "therapie_clinic", "addr:street_address": "SU32, Block E/F", "addr:city": "Bath", "addr:postcode": "BA1 1AQ", "addr:country": "GB", "name": "Bath", "phone": "08000 121 565", "website": "https://www.therapieclinic.com/our-clinics/somerset/bath/", "brand": "Th\u00e9rapie Clinic"}, "geometry": {"type": "Point", "coordinates": [-2.359543765487275, 51.37848230616028]}},
{"type": "Feature", "id": "6418gTEgDSOENsUX_SOBvRVHVco=", "properties": {"ref": "https://www.therapieclinic.com/our-clinics/london/belgravia/", "@spider": "therapie_clinic", "addr:street_address": "Chantrey House, 4 Eccleston St, Belgravia", "addr:city": "London", "addr:postcode": "SW1W9LS", "addr:country": "GB", "name": "Belgravia", "phone": "08000 121 565", "website": "https://www.therapieclinic.com/our-clinics/london/belgravia/", "brand": "Th\u00e9rapie Clinic"}, "geometry": {"type": "Point", "coordinates": [-0.14712, 51.494381]}},
{"type": "Feature", "id": "ZgCQBZ4zFsdaUbbiQ9Ko8EnS00I=", "properties": {"ref": "https://www.therapieclinic.com/our-clinics/birmingham/merry-hill/", "@spider": "therapie_clinic", "addr:street_address": "L99b, Merry Hill, Brierley Hill", "addr:city": "Birmingham", "addr:postcode": "DY5 1QX", "addr:country": "GB", "name": "Birmingham", "phone": "08000 121 565", "website": "https://www.therapieclinic.com/our-clinics/birmingham/merry-hill/", "brand": "Th\u00e9rapie Clinic"}, "geometry": {"type": "Point", "coordinates": [-2.114733, 52.482982]}},
{"type": "Feature", "id": "46VOsHby6duFrfos-KTMeJW7nf8=", "properties": {"ref": "https://www.therapieclinic.com/our-clinics/london/brent-cross/", "@spider": "therapie_clinic", "addr:street_address": "Brent Cross Shopping Centre,", "addr:city": "London", "addr:postcode": "NW43FP", "addr:country": "GB", "name": "Brent Cross", "phone": "08000 121 565", "website": "https://www.therapieclinic.com/our-clinics/london/brent-cross/", "brand": "Th\u00e9rapie Clinic"}, "geometry": {"type": "Point", "coordinates": [-0.2258539, 51.5759816]}},
{"type": "Feature", "id": "v0dt8aAPIymCX605c4CKZ8YCJiU=", "properties": {"ref": "https://www.therapieclinic.com/our-clinics/bristol/cribbs-causeway/", "@spider": "therapie_clinic", "addr:street_address": "The Mall, Cribbs Causeway, South Gloucestershire,", "addr:city": "Bristol", "addr:postcode": "BS34 5DG", "addr:country": "GB", "name": "Bristol", "phone": "08000 121 565", "website": "https://www.therapieclinic.com/our-clinics/bristol/cribbs-causeway/", "brand": "Th\u00e9rapie Clinic"}, "geometry": {"type": "Point", "coordinates": [-2.596555, 51.524901]}},
{"type": "Feature", "id": "KDV0uZoK-EbgxoFQbKfvSt89gFA=", "properties": {"ref": "https://www.therapieclinic.com/our-clinics/london/bromley/", "@spider": "therapie_clinic", "addr:street_address": "The Glades Shopping Centre, High Street,", "addr:city": "London", "addr:postcode": "BR1 1DN", "addr:country": "GB", "name": "Bromley", "phone": "08000 121 565", "website": "https://www.therapieclinic.com/our-clinics/london/bromley/", "brand": "Th\u00e9rapie Clinic"}, "geometry": {"type": "Point", "coordinates": [0.014877, 51.404048]}},
{"type": "Feature", "id": "QUYea---fR1kv7AtdVlOOTXX3og=", "properties": {"ref": "https://www.therapieclinic.com/our-clinics/london/canary-wharf-cabot-place/", "@spider": "therapie_clinic", "addr:street_address": "Cabot Place, Canary Wharf", "addr:city": "London", "addr:postcode": "E14 4QS", "addr:country": "GB", "name": "Canary Wharf (Cabot)", "phone": "08000 121 565", "website": "https://www.therapieclinic.com/our-clinics/london/canary-wharf-cabot-place/", "brand": "Th\u00e9rapie Clinic"}, "geometry": {"type": "Point", "coordinates": [-0.020091, 51.505045]}},
{"type": "Feature", "id": "XPmLl5CeHn6_ptB-ctux97ywsgQ=", "properties": {"ref": "https://www.therapieclinic.com/our-clinics/london/canary-wharf/", "@spider": "therapie_clinic", "addr:street_address": "Jubilee Place, Canary Wharf,", "addr:city": "London", "addr:postcode": "E14 5NY", "addr:country": "GB", "name": "Canary Wharf (Jubilee)", "phone": "08000 121 565", "website": "https://www.therapieclinic.com/our-clinics/london/canary-wharf/", "brand": "Th\u00e9rapie Clinic"}, "geometry": {"type": "Point", "coordinates": [-0.018517, 51.503542]}},
{"type": "Feature", "id": "iCVcI2hvvOjDdOUdpOSnxqRKEb4=", "properties": {"ref": "https://www.therapieclinic.com/our-clinics/kent/whitefriars-canterbury/", "@spider": "therapie_clinic", "addr:street_address": "Unit 22, Whitefriars Centre", "addr:city": "Canterbury", "addr:postcode": "CT1 2TF", "addr:country": "GB", "name": "Canterbury", "phone": "08000 121 565", "website": "https://www.therapieclinic.com/our-clinics/kent/whitefriars-canterbury/", "brand": "Th\u00e9rapie Clinic"}, "geometry": {"type": "Point", "coordinates": [1.0814126631967587, 51.27717365056916]}},
{"type": "Feature", "id": "jDdK_UBgpDovJ89BAHiUCYQXZMg=", "properties": {"ref": "https://www.therapieclinic.com/our-clinics/london/clapham-junction/", "@spider": "therapie_clinic", "addr:street_address": "61/63 St Johns Road, Clapham", "addr:city": "London", "addr:postcode": "SW11 1QX", "addr:country": "GB", "name": "Clapham Junction", "phone": "08000 121 565", "website": "https://www.therapieclinic.com/our-clinics/london/clapham-junction/", "brand": "Th\u00e9rapie Clinic"}, "geometry": {"type": "Point", "coordinates": [-0.1694901, 51.4616381]}},
{"type": "Feature", "id": "p-9bEePsQFAedIGB_gGBX7XIl1A=", "properties": {"ref": "https://www.therapieclinic.com/our-clinics/london/clapham-south/", "@spider": "therapie_clinic", "addr:street_address": "34 Abbeville Rd, Clapham South", "addr:city": "London", "addr:postcode": "SW4 9NG", "addr:country": "GB", "name": "Clapham South", "phone": "08000 121 565", "website": "https://www.therapieclinic.com/our-clinics/london/clapham-south/", "brand": "Th\u00e9rapie Clinic"}, "geometry": {"type": "Point", "coordinates": [-0.13988, 51.45418]}},
{"type": "Feature", "id": "QiXcP-JQICOqNVswQwRksrriT_E=", "properties": {"ref": "https://www.therapieclinic.com/our-clinics/london/ealing-broadway/", "@spider": "therapie_clinic", "addr:street_address": "Unit 53A Ealing Broadway", "addr:city": "London", "addr:postcode": "W5 5JY", "addr:country": "GB", "name": "Ealing Broadway", "phone": "08000 121 565", "website": "https://www.therapieclinic.com/our-clinics/london/ealing-broadway/", "brand": "Th\u00e9rapie Clinic"}, "geometry": {"type": "Point", "coordinates": [-0.303368, 51.512981]}},
{"type": "Feature", "id": "rq-DyHkf-MApV9Mtelnxe7rQbyk=", "properties": {"ref": "https://www.therapieclinic.com/our-clinics/london/epsom/", "@spider": "therapie_clinic", "addr:street_address": "Unit 34, The Ashley Centre", "addr:city": "Epson", "addr:postcode": "KT18 5AB", "addr:country": "GB", "name": "Epsom", "phone": "08000 121 565", "website": "https://www.therapieclinic.com/our-clinics/london/epsom/", "brand": "Th\u00e9rapie Clinic"}, "geometry": {"type": "Point", "coordinates": [-0.2706442, 51.332298]}},
{"type": "Feature", "id": "N0KwzJs4T4mN7SGlyMQVHjaGuVI=", "properties": {"ref": "https://www.therapieclinic.com/our-clinics/surrey/esher/", "@spider": "therapie_clinic", "addr:street_address": "72 High St, Esher", "addr:city": "Surrey", "addr:postcode": "KT10 9QS", "addr:country": "GB", "name": "Esher", "phone": "08000 121 565", "website": "https://www.therapieclinic.com/our-clinics/surrey/esher/", "brand": "Th\u00e9rapie Clinic"}, "geometry": {"type": "Point", "coordinates": [-0.36425099429771063, 51.36998879819716]}},
{"type": "Feature", "id": "kKgxKJgP_ThQZJxjhV0ttryVtZM=", "properties": {"ref": "https://www.therapieclinic.com/our-clinics/essex/lakeside-shopping-centre/", "@spider": "therapie_clinic", "addr:street_address": "Lakeside Shopping Centre", "addr:city": "Essex", "addr:postcode": "RM20 2ZP", "addr:country": "GB", "name": "Essex", "phone": "08000 121 565", "website": "https://www.therapieclinic.com/our-clinics/essex/lakeside-shopping-centre/", "brand": "Th\u00e9rapie Clinic"}, "geometry": {"type": "Point", "coordinates": [0.2818704, 51.4875288]}},
{"type": "Feature", "id": "BrWrS9gPAgOUUdbkGF1X8xNRm54=", "properties": {"ref": "https://www.therapieclinic.com/our-clinics/london/fulham/", "@spider": "therapie_clinic", "addr:street_address": "18-20 Fulham High Street, Fulham", "addr:city": "London", "addr:postcode": "SW6 3LQ", "addr:country": "GB", "name": "Fulham", "phone": "08000 121 565", "website": "https://www.therapieclinic.com/our-clinics/london/fulham/", "brand": "Th\u00e9rapie Clinic"}, "geometry": {"type": "Point", "coordinates": [-0.21118, 51.47133]}},
{"type": "Feature", "id": "9VQsL2PvjGAI7pxq-XxpJMS4g6c=", "properties": {"ref": "https://www.therapieclinic.com/our-clinics/kent/blue-water-shopping-centre/", "@spider": "therapie_clinic", "addr:street_address": "Bluewater Shopping Centre, Kent", "addr:city": "Kent", "addr:postcode": "DA9 9ST", "addr:country": "GB", "name": "Kent", "phone": "08000 121 565", "website": "https://www.therapieclinic.com/our-clinics/kent/blue-water-shopping-centre/", "brand": "Th\u00e9rapie Clinic"}, "geometry": {"type": "Point", "coordinates": [0.2711211, 51.4394925]}},
{"type": "Feature", "id": "pkCvrIxMI7BK6BeL7ogH9Rnfk0o=", "properties": {"ref": "https://www.therapieclinic.com/our-clinics/london/kingston/", "@spider": "therapie_clinic", "addr:street_address": "Bentall Centre, Kingston Upon Thames,", "addr:city": "London", "addr:postcode": "KT1 1TP", "addr:country": "GB", "name": "Kingston", "phone": "08000 121 565", "website": "https://www.therapieclinic.com/our-clinics/london/kingston/", "brand": "Th\u00e9rapie Clinic"}, "geometry": {"type": "Point", "coordinates": [-0.304289, 51.411224]}},
{"type": "Feature", "id": "MWNCQUx78hKrb1sjHwuRvlyl7cw=", "properties": {"ref": "https://www.therapieclinic.com/our-clinics/leicester/highcross-shopping-centre/", "@spider": "therapie_clinic", "addr:street_address": "Highcross Shopping Centre", "addr:city": "Leicester", "addr:postcode": "LE1 4AN", "addr:country": "GB", "name": "Leicester", "phone": "08000 121 565", "website": "https://www.therapieclinic.com/our-clinics/leicester/highcross-shopping-centre/", "brand": "Th\u00e9rapie Clinic"}, "geometry": {"type": "Point", "coordinates": [-1.1369967, 52.6366196]}},
{"type": "Feature", "id": "4SYkalCo2ihYTMLmOTZDFbqNBAI=", "properties": {"ref": "https://www.therapieclinic.com/our-clinics/liverpool/south-john-street/", "@spider": "therapie_clinic", "addr:street_address": "46a South John Street, Liverpool", "addr:city": "Liverpool", "addr:postcode": "L1 8BJ", "addr:country": "GB", "name": "Liverpool", "phone": "08000 121 565", "website": "https://www.therapieclinic.com/our-clinics/liverpool/south-john-street/", "brand": "Th\u00e9rapie Clinic"}, "geometry": {"type": "Point", "coordinates": [-2.9885929, 53.4047767]}},
{"type": "Feature", "id": "5tGRu1E2ostWg3IVXYBn3Wr2_jE=", "properties": {"ref": "https://www.therapieclinic.com/our-clinics/london/liverpool-st/", "@spider": "therapie_clinic", "addr:street_address": "21 Leyden Street, Whitechapel", "addr:city": "London", "addr:postcode": "E1 7LE", "addr:country": "GB", "name": "Liverpool St", "phone": "08000 121 565", "website": "https://www.therapieclinic.com/our-clinics/london/liverpool-st/", "brand": "Th\u00e9rapie Clinic"}, "geometry": {"type": "Point", "coordinates": [-0.07638, 51.51724]}},
{"type": "Feature", "id": "ALUiGN9N5za72xpYhHzfna-JZMw=", "properties": {"ref": "https://www.therapieclinic.com/our-clinics/manchester/trafford-park/", "@spider": "therapie_clinic", "addr:street_address": "L81 Trafford Centre", "addr:city": "Manchester", "addr:postcode": "M17 8AA", "addr:country": "GB", "name": "Manchester", "phone": "08000 121 565", "website": "https://www.therapieclinic.com/our-clinics/manchester/trafford-park/", "brand": "Th\u00e9rapie Clinic"}, "geometry": {"type": "Point", "coordinates": [-2.3488395, 53.4648961]}},
{"type": "Feature", "id": "GpWzj3IKK10zt91JJexRmW_K6cM=", "properties": {"ref": "https://www.therapieclinic.com/our-clinics/london/marylebone/", "@spider": "therapie_clinic", "addr:street_address": "45-47 Wigmore Street, Marylebone", "addr:city": "London", "addr:postcode": "W1U 1PS", "addr:country": "GB", "name": "Marylebone", "phone": "08000 121 565", "website": "https://www.therapieclinic.com/our-clinics/london/marylebone/", "brand": "Th\u00e9rapie Clinic"}, "geometry": {"type": "Point", "coordinates": [-0.15026, 51.51612]}},
{"type": "Feature", "id": "SUhSoFoqCTCCQ1ONv-uIpFmiXl4=", "properties": {"ref": "https://www.therapieclinic.com/our-clinics/milton-keynes/the-centre-mk/", "@spider": "therapie_clinic", "addr:street_address": "Unit 30 Midsummer Arcade", "addr:city": "Milton Keynes", "addr:postcode": "MK9 3GB", "addr:country": "GB", "name": "Milton Keynes", "phone": "08000 121 565", "website": "https://www.therapieclinic.com/our-clinics/milton-keynes/the-centre-mk/", "brand": "Th\u00e9rapie Clinic"}, "geometry": {"type": "Point", "coordinates": [-0.7577847999999999, 52.04195499999999]}},
{"type": "Feature", "id": "rewGqJg7Xo1rGtWGj9QFSODS4lE=", "properties": {"ref": "https://www.therapieclinic.com/our-clinics/newcastle/metro-centre/", "@spider": "therapie_clinic", "addr:street_address": "Metro Centre, Gateshead,", "addr:city": "Newcastle", "addr:postcode": "NE11 9YG", "addr:country": "GB", "name": "Newcastle", "phone": "08000 121 565", "website": "https://www.therapieclinic.com/our-clinics/newcastle/metro-centre/", "brand": "Th\u00e9rapie Clinic"}, "geometry": {"type": "Point", "coordinates": [-1.668843, 54.956618]}},
{"type": "Feature", "id": "zdWSUvK8DJ4TtSioAQh_IhEDzuA=", "properties": {"ref": "https://www.therapieclinic.com/our-clinics/newcastle/eldon-square/", "@spider": "therapie_clinic", "addr:street_address": "Unit E7 Blackett Bridge", "addr:city": "Newcastle", "addr:postcode": "NE1 7JB", "addr:country": "GB", "name": "Newcastle (Eldon Sq)", "phone": "08000 121 565", "website": "https://www.therapieclinic.com/our-clinics/newcastle/eldon-square/", "brand": "Th\u00e9rapie Clinic"}, "geometry": {"type": "Point", "coordinates": [-1.6174051, 54.9754904]}},
{"type": "Feature", "id": "mzqhgzMKb0eqoG6Lval1UPAwPb8=", "properties": {"ref": "https://www.therapieclinic.com/our-clinics/london/richmond/", "@spider": "therapie_clinic", "addr:street_address": "The Quadrant, Richmond", "addr:city": "London", "addr:postcode": "TW9 1AR", "addr:country": "GB", "name": "Richmond", "phone": "08000 121 565", "website": "https://www.therapieclinic.com/our-clinics/london/richmond/", "brand": "Th\u00e9rapie Clinic"}, "geometry": {"type": "Point", "coordinates": [-0.3054843, 51.4618331]}},
{"type": "Feature", "id": "IzQAWSpBFmNEg50S93m-ICKLQIk=", "properties": {"ref": "https://www.therapieclinic.com/our-clinics/essex/romford/", "@spider": "therapie_clinic", "addr:street_address": "Liberty Shopping Centre, Romford, Essex", "addr:city": "Essex", "addr:postcode": "RM1 3RL", "addr:country": "GB", "name": "Romford", "phone": "08000 121 565", "website": "https://www.therapieclinic.com/our-clinics/essex/romford/", "brand": "Th\u00e9rapie Clinic"}, "geometry": {"type": "Point", "coordinates": [0.1819556, 51.5783716]}},
{"type": "Feature", "id": "FRh-7Rb39WEDBzokndl9Re7-gsA=", "properties": {"ref": "https://www.therapieclinic.com/our-clinics/sheffield/the-arcade/", "@spider": "therapie_clinic", "addr:street_address": "6 High Street", "addr:city": "Sheffield", "addr:postcode": "S9 1EP", "addr:country": "GB", "name": "Sheffield", "phone": "08000 121 565", "website": "https://www.therapieclinic.com/our-clinics/sheffield/the-arcade/", "brand": "Th\u00e9rapie Clinic"}, "geometry": {"type": "Point", "coordinates": [-1.411479, 53.414041]}},
{"type": "Feature", "id": "SHOaf5jGdVHnClhtFjQwYC-6_Ds=", "properties": {"ref": "https://www.therapieclinic.com/our-clinics/london/stratford/", "@spider": "therapie_clinic", "addr:street_address": "Westfield Stratford, Montfichet Road, Olympic Park, East London,", "addr:city": "London", "addr:postcode": "E20 1EJ", "addr:country": "GB", "name": "Stratford", "phone": "08000 121 565", "website": "https://www.therapieclinic.com/our-clinics/london/stratford/", "brand": "Th\u00e9rapie Clinic"}, "geometry": {"type": "Point", "coordinates": [-0.007019, 51.542484]}},
{"type": "Feature", "id": "eqKcDdXNTj15555YraKDaqTuzlE=", "properties": {"ref": "https://www.therapieclinic.com/our-clinics/london/tower-bridge/", "@spider": "therapie_clinic", "addr:street_address": "1A/2 Copper Row, Shad Thames", "addr:city": "London", "addr:postcode": "SE1 2LH", "addr:country": "GB", "name": "Tower Bridge", "phone": "08000 121 565", "website": "https://www.therapieclinic.com/our-clinics/london/tower-bridge/", "brand": "Th\u00e9rapie Clinic"}, "geometry": {"type": "Point", "coordinates": [-0.0753, 51.50342]}},
{"type": "Feature", "id": "lM7Kyjfp4rvFBk_oax1jsJeJ9yI=", "properties": {"ref": "https://www.therapieclinic.com/our-clinics/london/uxbridge/", "@spider": "therapie_clinic", "addr:street_address": "The Chimes, High Street, Uxbridge", "addr:city": "London", "addr:postcode": "UB8 1LA", "addr:country": "GB", "name": "Uxbridge", "phone": "08000 121 565", "website": "https://www.therapieclinic.com/our-clinics/london/uxbridge/", "brand": "Th\u00e9rapie Clinic"}, "geometry": {"type": "Point", "coordinates": [-0.4799527, 51.5454666]}},
{"type": "Feature", "id": "aiDny57CTNHCQ1CSv4mFquXLmyo=", "properties": {"ref": "https://www.therapieclinic.com/our-clinics/london/victoria/", "@spider": "therapie_clinic", "addr:street_address": "147 Victoria Street", "addr:city": "London", "addr:postcode": "SW1E 5NH", "addr:country": "GB", "name": "Victoria", "phone": "08000 121 565", "website": "https://www.therapieclinic.com/our-clinics/london/victoria/", "brand": "Th\u00e9rapie Clinic"}, "geometry": {"type": "Point", "coordinates": [-0.1417033, 51.4969273]}},
{"type": "Feature", "id": "0kRJIbCcPJnlWF_eTWYMmsyyvKA=", "properties": {"ref": "https://www.therapieclinic.com/our-clinics/watford/watford-shopping-centre/", "@spider": "therapie_clinic", "addr:street_address": "Watford Shopping Centre, Hertfordshire", "addr:city": "Watford", "addr:postcode": "WD17 2UB", "addr:country": "GB", "name": "Watford", "phone": "08000 121 565", "website": "https://www.therapieclinic.com/our-clinics/watford/watford-shopping-centre/", "brand": "Th\u00e9rapie Clinic"}, "geometry": {"type": "Point", "coordinates": [-0.3935189, 51.6553829]}},
{"type": "Feature", "id": "GIqR0kn5DXUPF2L0pDJfGfbsUck=", "properties": {"ref": "https://www.therapieclinic.com/our-clinics/london/westfield-white-city/", "@spider": "therapie_clinic", "addr:street_address": "Westfield White City, Aerial Way", "addr:city": "London", "addr:postcode": "W12 7GF", "addr:country": "GB", "name": "White City", "phone": "08000 121 565", "website": "https://www.therapieclinic.com/our-clinics/london/westfield-white-city/", "brand": "Th\u00e9rapie Clinic"}, "geometry": {"type": "Point", "coordinates": [-0.221997, 51.506621]}},
{"type": "Feature", "id": "DrTvoSRjW5y-WW1dwDMBJeMSrD4=", "properties": {"ref": "https://www.therapieclinic.com/our-clinics/london/wimbledon-village/", "@spider": "therapie_clinic", "addr:street_address": "16 The Ridgway, Wimbledon", "addr:city": "London", "addr:postcode": "SW19 4QN", "addr:country": "GB", "name": "Wimbledon", "phone": "08000 121 565", "website": "https://www.therapieclinic.com/our-clinics/london/wimbledon-village/", "brand": "Th\u00e9rapie Clinic"}, "geometry": {"type": "Point", "coordinates": [-0.2163, 51.42345]}},
{"type": "Feature", "id": "NABr5tM9ojs33iDhy7PDa4xlH18=", "properties": {"ref": "https://www.therapieclinic.com/our-clinics/somerset/wood-green", "@spider": "therapie_clinic", "addr:street_address": "Unit 34", "addr:city": "Wood Green", "addr:postcode": "N22 6YQ", "addr:country": "GB", "name": "Wood Green", "phone": "0800 0121 565", "website": "https://www.therapieclinic.com/our-clinics/somerset/wood-green", "brand": "Th\u00e9rapie Clinic"}, "geometry": {"type": "Point", "coordinates": [-0.1091896, 51.5944185]}},
{"type": "Feature", "id": "tYUJq8P2pAv0z7wUOg5Z8PBd1mY=", "properties": {"ref": "https://www.therapieclinic.com/our-clinics/dundee/overgate-shopping-centre/", "@spider": "therapie_clinic", "addr:street_address": "Overgate Shopping Centre", "addr:city": "Dundee", "addr:postcode": "DD1 1UQ", "addr:country": "GB", "name": "Dundee", "phone": "08000 121 565", "website": "https://www.therapieclinic.com/our-clinics/dundee/overgate-shopping-centre/", "brand": "Th\u00e9rapie Clinic"}, "geometry": {"type": "Point", "coordinates": [-2.973418, 56.458676]}},
{"type": "Feature", "id": "bSdSN1CLTzGq45uJiBFi7OHwwlc=", "properties": {"ref": "https://www.therapieclinic.com/our-clinics/edinburgh/lothian-road/", "@spider": "therapie_clinic", "addr:street_address": "77 Lothian Road", "addr:city": "Edinburgh", "addr:postcode": "EH3 9AW", "addr:country": "GB", "name": "Edinburgh", "phone": "08000 121 565", "website": "https://www.therapieclinic.com/our-clinics/edinburgh/lothian-road/", "brand": "Th\u00e9rapie Clinic"}, "geometry": {"type": "Point", "coordinates": [-3.205506, 55.946712]}},
{"type": "Feature", "id": "wut0Npjsh9CBukMh9BDqxiDzNMQ=", "properties": {"ref": "https://www.therapieclinic.com/our-clinics/glasgow/vincent-street/", "@spider": "therapie_clinic", "addr:street_address": "85 St Vincent Street", "addr:city": "Glasgow", "addr:postcode": "G2 5TF", "addr:country": "GB", "name": "Glasgow", "phone": "08000 121 565", "website": "https://www.therapieclinic.com/our-clinics/glasgow/vincent-street/", "brand": "Th\u00e9rapie Clinic"}, "geometry": {"type": "Point", "coordinates": [-4.256068, 55.861413]}},
{"type": "Feature", "id": "gw5lqEvHxfX_Zm0g5Uu762iZ8AQ=", "properties": {"ref": "https://www.therapieclinic.com/our-clinics/glasgow/braehead-shopping-centre/", "@spider": "therapie_clinic", "addr:street_address": "Unit 41, Braehead Shopping Centre", "addr:city": "Glasgow", "addr:postcode": "G51 4BN", "addr:country": "GB", "name": "Glasgow (Braehead SC)", "phone": "08000 121 565", "website": "https://www.therapieclinic.com/our-clinics/glasgow/braehead-shopping-centre/", "brand": "Th\u00e9rapie Clinic"}, "geometry": {"type": "Point", "coordinates": [-4.365029199999999, 55.8758902]}},
{"type": "Feature", "id": "Ikx3-o1a71Xq5D0_eEE-6QJNGys=", "properties": {"ref": "https://www.therapieclinic.com/our-clinics/edinburgh/therapie-clinic-st-james-quarter/", "@spider": "therapie_clinic", "addr:street_address": "Ground Floor", "addr:city": "Edinburgh", "addr:postcode": "EH1 3AD", "addr:country": "GB", "name": "St James Quarter", "phone": "0800 0121 565", "website": "https://www.therapieclinic.com/our-clinics/edinburgh/therapie-clinic-st-james-quarter/", "brand": "Th\u00e9rapie Clinic"}, "geometry": {"type": "Point", "coordinates": [-3.188942778513778, 55.95505064718135]}},
{"type": "Feature", "id": "SdYqzp5pIfuHjeLOdqpCEEffeSo=", "properties": {"ref": "https://www.therapieclinic.com/our-clinics/antrim/belfast/", "@spider": "therapie_clinic", "addr:street_address": "36-40 Ann Street, Belfast,", "addr:city": "Belfast", "addr:postcode": "BT1 4EG", "addr:country": "GB", "name": "Belfast", "phone": "08000 121 565", "website": "https://www.therapieclinic.com/our-clinics/antrim/belfast/", "brand": "Th\u00e9rapie Clinic"}, "geometry": {"type": "Point", "coordinates": [-5.926531, 54.599]}},
{"type": "Feature", "id": "PCE95Jc6Uv5qC6IDUgIbH4CUqDw=", "properties": {"ref": "https://www.therapieclinic.com/our-clinics/derry-londonderry/derry-londonderry/", "@spider": "therapie_clinic", "addr:street_address": "3 Carlisle Rd, Fountain St, Londonderry", "addr:city": "L/Derry", "addr:postcode": "BT48 6QX", "addr:country": "GB", "name": "L/Derry", "phone": "08000 121 565", "website": "https://www.therapieclinic.com/our-clinics/derry-londonderry/derry-londonderry/", "brand": "Th\u00e9rapie Clinic"}, "geometry": {"type": "Point", "coordinates": [-7.3222967, 54.994445]}},
{"type": "Feature", "id": "-CRu-cdGkCz75IyKXOGQxbhQ_QE=", "properties": {"ref": "https://www.therapieclinic.com/our-clinics/armagh-down/newry/", "@spider": "therapie_clinic", "addr:street_address": "1 Canal Court, 34 Merchants Quay, Newry", "addr:city": "Newry", "addr:postcode": "BT35 8HF", "addr:country": "GB", "name": "Newry", "phone": "08000 121 565", "website": "https://www.therapieclinic.com/our-clinics/armagh-down/newry/", "brand": "Th\u00e9rapie Clinic"}, "geometry": {"type": "Point", "coordinates": [-6.3414493, 54.1756276]}},
{"type": "Feature", "id": "3C8n6gcXTbKJ0QdBc4Ix381c6yo=", "properties": {"ref": "https://www.therapieclinic.com/our-clinics/tyrone/omagh/", "@spider": "therapie_clinic", "addr:street_address": "33 Market Street, Omagh", "addr:city": "Omagh", "addr:postcode": "BT78 1EE", "addr:country": "GB", "name": "Omagh", "phone": "08000 121 565", "website": "https://www.therapieclinic.com/our-clinics/tyrone/omagh/", "brand": "Th\u00e9rapie Clinic"}, "geometry": {"type": "Point", "coordinates": [-7.301219, 54.6001729]}},
{"type": "Feature", "id": "bHB9Ta439qRJMX2E7jIa3GCP0Ys=", "properties": {"ref": "https://www.therapieclinic.com/our-clinics/westmeath/athlone/", "@spider": "therapie_clinic", "addr:street_address": "4 Fairview Terrace, Garden Vale", "addr:city": "Athlone", "addr:country": "IE", "name": "Athlone", "phone": "090 643 3605", "website": "https://www.therapieclinic.com/our-clinics/westmeath/athlone/", "brand": "Th\u00e9rapie Clinic"}, "geometry": {"type": "Point", "coordinates": [-7.934882, 53.424667]}},
{"type": "Feature", "id": "XvoEzkP3QmUfbYQK636eovV8tig=", "properties": {"ref": "https://www.therapieclinic.com/our-clinics/dublin/blanchardstown-village/", "@spider": "therapie_clinic", "addr:street_address": "2 Main Street, Blanchardstown", "addr:city": "Dublin", "addr:country": "IE", "name": "Blanchardstown", "phone": "01 2238180", "website": "https://www.therapieclinic.com/our-clinics/dublin/blanchardstown-village/", "brand": "Th\u00e9rapie Clinic"}, "geometry": {"type": "Point", "coordinates": [-6.377421, 53.387071]}},
{"type": "Feature", "id": "swGwEz0E3TLVZq3VwKALWKJgHY8=", "properties": {"ref": "https://www.therapieclinic.com/our-clinics/dublin/blanchardstown-shopping-centre/", "@spider": "therapie_clinic", "addr:street_address": "Blanchardstown Shopping Centre", "addr:city": "Dublin", "addr:country": "IE", "name": "Blanchardstown SC", "phone": "01 2238180", "website": "https://www.therapieclinic.com/our-clinics/dublin/blanchardstown-shopping-centre/", "brand": "Th\u00e9rapie Clinic"}, "geometry": {"type": "Point", "coordinates": [-6.389535, 53.392789]}},
{"type": "Feature", "id": "yFyOb08PYwdvfKhEG-tOuK2WeaA=", "properties": {"ref": "https://www.therapieclinic.com/our-clinics/dublin/carrickmines/", "@spider": "therapie_clinic", "addr:street_address": "Holbourne Building, Block 60", "addr:city": "Dublin", "addr:postcode": "Dublin 18", "addr:country": "IE", "name": "Carrickmines", "phone": "01 223 8180", "website": "https://www.therapieclinic.com/our-clinics/dublin/carrickmines/", "brand": "Th\u00e9rapie Clinic"}, "geometry": {"type": "Point", "coordinates": [-6.1839369, 53.2507218]}},
{"type": "Feature", "id": "sna24JZWoeczLHmI03Ipr-xPzsU=", "properties": {"ref": "/our-clinics/cork/cork-city/", "@spider": "therapie_clinic", "addr:street_address": "17B Opera Lane", "addr:city": "Cork", "addr:country": "IE", "name": "Cork", "phone": "021 427 8736", "website": "https://www.therapieclinic.com/our-clinics/cork/cork-city/", "brand": "Th\u00e9rapie Clinic"}, "geometry": {"type": "Point", "coordinates": [-8.47226, 51.8987]}},
{"type": "Feature", "id": "B0m9DOiDF3LtqoN3U3m6osFfh2Q=", "properties": {"ref": "https://www.therapieclinic.com/our-clinics/louth/dundalk/", "@spider": "therapie_clinic", "addr:street_address": "Units B and C, Marshes Shopping Centre", "addr:city": "Dundalk", "addr:country": "IE", "name": "Dundalk", "phone": "01 223 8180", "website": "https://www.therapieclinic.com/our-clinics/louth/dundalk/", "brand": "Th\u00e9rapie Clinic"}, "geometry": {"type": "Point", "coordinates": [-6.3999857, 54.0002637]}},
{"type": "Feature", "id": "6CBHOe9eZalh8SMRrbVNbpJcdNQ=", "properties": {"ref": "https://www.therapieclinic.com/our-clinics/dublin/dundrum/", "@spider": "therapie_clinic", "addr:street_address": "Level 3, Dundrum Shopping Centre", "addr:city": "Dublin", "addr:country": "IE", "name": "Dundrum", "phone": "01 2238180", "website": "https://www.therapieclinic.com/our-clinics/dublin/dundrum/", "brand": "Th\u00e9rapie Clinic"}, "geometry": {"type": "Point", "coordinates": [-6.241076, 53.286448]}},
{"type": "Feature", "id": "8M9x_OTBvZALQ5RMwddu-QeIiMM=", "properties": {"ref": "https://www.therapieclinic.com/our-clinics/galway/galway-city/", "@spider": "therapie_clinic", "addr:street_address": "42 William Street", "addr:city": "Galway", "addr:country": "IE", "name": "Galway", "phone": "091 530773", "website": "https://www.therapieclinic.com/our-clinics/galway/galway-city/", "brand": "Th\u00e9rapie Clinic"}, "geometry": {"type": "Point", "coordinates": [-9.05205, 53.27315]}},
{"type": "Feature", "id": "KLmC_HCZ1OtrFUko8ijvqiZSQ0I=", "properties": {"ref": "https://www.therapieclinic.com/our-clinics/dublin/henry-street/", "@spider": "therapie_clinic", "addr:street_address": "52 Henry Street,", "addr:city": "Dublin", "addr:country": "IE", "name": "Henry St.", "phone": "01 2238180", "website": "https://www.therapieclinic.com/our-clinics/dublin/henry-street/", "brand": "Th\u00e9rapie Clinic"}, "geometry": {"type": "Point", "coordinates": [-6.26324, 53.349419]}},
{"type": "Feature", "id": "lyiJyTX7J72eSd7G8ZBe5C122O0=", "properties": {"ref": "https://www.therapieclinic.com/our-clinics/dublin/liffey-valley-centre/", "@spider": "therapie_clinic", "addr:street_address": "Liffey Valley Shopping Centre", "addr:city": "Dublin", "addr:country": "IE", "name": "Liffey Valley", "phone": "01 2238180", "website": "https://www.therapieclinic.com/our-clinics/dublin/liffey-valley-centre/", "brand": "Th\u00e9rapie Clinic"}, "geometry": {"type": "Point", "coordinates": [-6.390892, 53.353418]}},
{"type": "Feature", "id": "1tc0kYDZ8qAxuwmXO4VBBLkeU-w=", "properties": {"ref": "https://www.therapieclinic.com/our-clinics/limerick/crescent-shopping-centre/", "@spider": "therapie_clinic", "addr:street_address": "The Crescent Shopping Centre", "addr:city": "Limerick", "addr:country": "IE", "name": "Limerick - Crescent", "phone": "061788050", "website": "https://www.therapieclinic.com/our-clinics/limerick/crescent-shopping-centre/", "brand": "Th\u00e9rapie Clinic"}, "geometry": {"type": "Point", "coordinates": [-8.645656, 52.639957]}},
{"type": "Feature", "id": "PmzLZONoIUOUQMxWPwCcF3_T_nk=", "properties": {"ref": "https://www.therapieclinic.com/our-clinics/limerick/cruises-street/", "@spider": "therapie_clinic", "addr:street_address": "Cruises Street", "addr:city": "Limerick", "addr:country": "IE", "name": "Limerick - Cruises", "phone": "061788652", "website": "https://www.therapieclinic.com/our-clinics/limerick/cruises-street/", "brand": "Th\u00e9rapie Clinic"}, "geometry": {"type": "Point", "coordinates": [-8.6256, 52.66382]}},
{"type": "Feature", "id": "KwKCYxOrmD0UeAuQitGLVSnIX30=", "properties": {"ref": "https://www.therapieclinic.com/our-clinics/dublin/malahide/", "@spider": "therapie_clinic", "addr:street_address": "Main St, Malahide", "addr:city": "Dublin", "addr:country": "IE", "name": "Malahide", "phone": "01 8548000", "website": "https://www.therapieclinic.com/our-clinics/dublin/malahide/", "brand": "Th\u00e9rapie Clinic"}, "geometry": {"type": "Point", "coordinates": [-6.151418, 53.450982]}},
{"type": "Feature", "id": "gL2glnQqYvW5T_c2ssa8Jp0hjwQ=", "properties": {"ref": "https://www.therapieclinic.com/our-clinics/dublin/molesworth-street/", "@spider": "therapie_clinic", "addr:street_address": "8-9 Molesworth St", "addr:city": "Dublin", "addr:country": "IE", "name": "Molesworth St.", "phone": "01 2238180", "website": "https://www.therapieclinic.com/our-clinics/dublin/molesworth-street/", "brand": "Th\u00e9rapie Clinic"}, "geometry": {"type": "Point", "coordinates": [-6.25734, 53.34119]}},
{"type": "Feature", "id": "9qTFcP-0csPB_LNmHKFKhK9JfGg=", "properties": {"ref": "https://www.therapieclinic.com/our-clinics/kildare/naas/", "@spider": "therapie_clinic", "addr:street_address": "Burkes Pharmacy, 3 N Main St", "addr:city": "Naas", "addr:postcode": "W91 KV08", "addr:country": "IE", "name": "Naas", "phone": "01 223 8180", "website": "https://www.therapieclinic.com/our-clinics/kildare/naas/", "brand": "Th\u00e9rapie Clinic"}, "geometry": {"type": "Point", "coordinates": [-6.6644783, 53.2194037]}},
{"type": "Feature", "id": "zdVoofyj1Hzh52-HklbS8LKsc0A=", "properties": {"ref": "https://www.therapieclinic.com/our-clinics/kildare/newbridge/", "@spider": "therapie_clinic", "addr:street_address": "4 Moorefield Terrace, Edward Street", "addr:city": "Newbridge", "addr:country": "IE", "name": "Newbridge", "phone": "0909716201", "website": "https://www.therapieclinic.com/our-clinics/kildare/newbridge/", "brand": "Th\u00e9rapie Clinic"}, "geometry": {"type": "Point", "coordinates": [-6.80045, 53.17875]}},
{"type": "Feature", "id": "qX9DiqTkvaTjwGMBmMJ7FqEJ95I=", "properties": {"ref": "https://www.therapieclinic.com/our-clinics/sligo/sligo/", "@spider": "therapie_clinic", "addr:street_address": "40 O\u2019Connell Street", "addr:city": "Sligo", "addr:country": "IE", "name": "Sligo", "phone": "071 901 1107", "website": "https://www.therapieclinic.com/our-clinics/sligo/sligo/", "brand": "Th\u00e9rapie Clinic"}, "geometry": {"type": "Point", "coordinates": [-8.47513, 54.27117]}},
{"type": "Feature", "id": "amVxwwvoyT-Qocw1fwEmcTGOgM0=", "properties": {"ref": "https://www.therapieclinic.com/our-clinics/dublin/south-william-street/", "@spider": "therapie_clinic", "addr:street_address": "60A South William Street", "addr:city": "Dublin", "addr:country": "IE", "name": "South William St.", "phone": "01 2238180", "website": "https://www.therapieclinic.com/our-clinics/dublin/south-william-street/", "brand": "Th\u00e9rapie Clinic"}, "geometry": {"type": "Point", "coordinates": [-6.26211, 53.34254]}},
{"type": "Feature", "id": "7fbdqkAiQ6s1SODUB0BfYVSv9xA=", "properties": {"ref": "https://www.therapieclinic.com/our-clinics/dublin/tallaght/", "@spider": "therapie_clinic", "addr:street_address": "Level 1 Square Tallaght", "addr:city": "Dublin", "addr:country": "IE", "name": "Tallaght", "phone": "01 2238180", "website": "https://www.therapieclinic.com/our-clinics/dublin/tallaght/", "brand": "Th\u00e9rapie Clinic"}, "geometry": {"type": "Point", "coordinates": [-6.371649, 53.286603]}},
{"type": "Feature", "id": "NSyB5zLJ_Vv7zQVhWam1bNiP_Lo=", "properties": {"ref": "https://www.therapieclinic.com/our-clinics/kerry/tralee/", "@spider": "therapie_clinic", "addr:street_address": "Lower Castle Street", "addr:city": "Tralee", "addr:country": "IE", "name": "Tralee", "phone": "01 2238180", "website": "https://www.therapieclinic.com/our-clinics/kerry/tralee/", "brand": "Th\u00e9rapie Clinic"}, "geometry": {"type": "Point", "coordinates": [-9.7047119, 52.2692281]}},
{"type": "Feature", "id": "zOehNPXabdyJLUjE54vq4WPfGNM=", "properties": {"ref": "https://www.therapieclinic.com/our-clinics/waterford/waterford/", "@spider": "therapie_clinic", "addr:street_address": "31 Barronstrand Street", "addr:city": "Waterford", "addr:country": "IE", "name": "Waterford", "phone": "051 870 910", "website": "https://www.therapieclinic.com/our-clinics/waterford/waterford/", "brand": "Th\u00e9rapie Clinic"}, "geometry": {"type": "Point", "coordinates": [-7.11161, 52.2609]}},
{"type": "Feature", "id": "Lwq-vrzfOQlliv3t2Raa52una2M=", "properties": {"ref": "https://www.therapieclinic.com/our-clinics/wexford/wexford/", "@spider": "therapie_clinic", "addr:street_address": "19 North Main Street", "addr:city": "Wexford", "addr:country": "IE", "name": "Wexford", "phone": "0539017077", "website": "https://www.therapieclinic.com/our-clinics/wexford/wexford/", "brand": "Th\u00e9rapie Clinic"}, "geometry": {"type": "Point", "coordinates": [-6.461761, 52.338562]}}]}