{"type":"FeatureCollection","features":[{"type": "Feature", "id": "2cRUFJrgkazEWk-FNMaHDoj5DAM=", "properties": {"ref": "169", "@spider": "thorntons", "shop": "confectionery", "addr:full": "7101 Greenridge Farm Drive", "addr:city": "Louisville", "addr:state": "KY", "name": "Thorntons. #169", "phone": "502-658-1007", "website": "https://www.mythorntons.com/locations/", "brand": "Thorntons", "brand:wikidata": "Q683102", "nsi_id": "thorntons-bdbf63"}, "geometry": {"type": "Point", "coordinates": [38.15538, -85.66126]}},
{"type": "Feature", "id": "hSwangElNakCCJzboJfviPnsO-4=", "properties": {"ref": "617", "@spider": "thorntons", "shop": "confectionery", "addr:full": "559 Waldron Road", "addr:city": "La Vergne", "addr:state": "TN", "name": "Thorntons. #617", "phone": "615-927-2903", "website": "https://www.mythorntons.com/locations/", "brand": "Thorntons", "brand:wikidata": "Q683102", "nsi_id": "thorntons-bdbf63"}, "geometry": {"type": "Point", "coordinates": [35.9924291, -86.5969356]}},
{"type": "Feature", "id": "tKdmxsd6cpaRc69Umj39jMlaioU=", "properties": {"ref": "618", "@spider": "thorntons", "shop": "confectionery", "addr:full": "1785 New Salem Highway", "addr:city": "Murfreesboro", "addr:state": "TN", "name": "Thorntons. #618", "phone": "615-981-4212", "website": "https://www.mythorntons.com/locations/", "brand": "Thorntons", "brand:wikidata": "Q683102", "nsi_id": "thorntons-bdbf63"}, "geometry": {"type": "Point", "coordinates": [35.820089, -86.420672]}},
{"type": "Feature", "id": "58ntPUcNiY3Hk5iWIBtUxqDGZgY=", "properties": {"ref": "344", "@spider": "thorntons", "shop": "confectionery", "addr:full": "2108 West Route 120", "addr:city": "McHenry", "addr:state": "IL", "name": "Thorntons. #344", "phone": "815-529-4744", "website": "https://www.mythorntons.com/locations/", "brand": "Thorntons", "brand:wikidata": "Q683102", "nsi_id": "thorntons-bdbf63"}, "geometry": {"type": "Point", "coordinates": [42.342444, -88.2395932]}},
{"type": "Feature", "id": "du6Q0plR0xG9V7Wd4VhnOdYInaU=", "properties": {"ref": "343", "@spider": "thorntons", "shop": "confectionery", "addr:full": "911 Tek Drive", "addr:city": "Crystal Lake", "addr:state": "IL", "name": "Thorntons. #343", "phone": "815-529-4530", "website": "https://www.mythorntons.com/locations/", "brand": "Thorntons", "brand:wikidata": "Q683102", "nsi_id": "thorntons-bdbf63"}, "geometry": {"type": "Point", "coordinates": [42.214914, -88.287565]}},
{"type": "Feature", "id": "IUi6Rmtw6oXDfleTZoSJM1cY-ok=", "properties": {"ref": "335", "@spider": "thorntons", "shop": "confectionery", "addr:full": "1025 S. Weber Rd.", "addr:city": "Bolingbrook", "addr:state": "IL", "name": "Thorntons. #335", "phone": "630-780-0530", "website": "https://www.mythorntons.com/locations/", "brand": "Thorntons", "brand:wikidata": "Q683102", "nsi_id": "thorntons-bdbf63"}, "geometry": {"type": "Point", "coordinates": [41.6631, -88.125916]}},
{"type": "Feature", "id": "mjV9eGqjDQEc_QQn2EkrDaXahV4=", "properties": {"ref": "124", "@spider": "thorntons", "shop": "confectionery", "addr:full": "15918 S. Weber", "addr:city": "Lockport", "addr:state": "IL", "name": "Thorntons. #124", "phone": "(815) 254-3573", "website": "https://www.mythorntons.com/locations/", "brand": "Thorntons", "brand:wikidata": "Q683102", "nsi_id": "thorntons-bdbf63"}, "geometry": {"type": "Point", "coordinates": [-88.1231342, 41.5948891]}},
{"type": "Feature", "id": "2VRJcrglBX2avQpGOmx0jobFDzE=", "properties": {"ref": "125", "@spider": "thorntons", "shop": "confectionery", "addr:full": "2800 Ogden Ave.", "addr:city": "Aurora", "addr:state": "IL", "name": "Thorntons. #125", "phone": "(630) 820-6468", "website": "https://www.mythorntons.com/locations/", "brand": "Thorntons", "brand:wikidata": "Q683102", "nsi_id": "thorntons-bdbf63"}, "geometry": {"type": "Point", "coordinates": [-88.2462231, 41.7410189]}},
{"type": "Feature", "id": "7wlaUritfFgGXwQVhhR2nLvm6tI=", "properties": {"ref": "126", "@spider": "thorntons", "shop": "confectionery", "addr:full": "1532 N. Aurora Rd.", "addr:city": "Naperville", "addr:state": "IL", "name": "Thorntons. #126", "phone": "(630) 428-4323", "website": "https://www.mythorntons.com/locations/", "brand": "Thorntons", "brand:wikidata": "Q683102", "nsi_id": "thorntons-bdbf63"}, "geometry": {"type": "Point", "coordinates": [-88.1852708, 41.7795085]}},
{"type": "Feature", "id": "0fBWjB-nURvCYqFrZi7lcKID740=", "properties": {"ref": "127", "@spider": "thorntons", "shop": "confectionery", "addr:full": "300 W. 63rd St.", "addr:city": "Westmont", "addr:state": "IL", "name": "Thorntons. #127", "phone": "(630) 493-9812", "website": "https://www.mythorntons.com/locations/", "brand": "Thorntons", "brand:wikidata": "Q683102", "nsi_id": "thorntons-bdbf63"}, "geometry": {"type": "Point", "coordinates": [-87.9838321, 41.773852]}},
{"type": "Feature", "id": "Luc3ukEAj4hw2uSvSM2GYrKkb7k=", "properties": {"ref": "128", "@spider": "thorntons", "shop": "confectionery", "addr:full": "2171 S. 8th St.", "addr:city": "West Dundee", "addr:state": "IL", "name": "Thorntons. #128", "phone": "(847) 741-8154", "website": "https://www.mythorntons.com/locations/", "brand": "Thorntons", "brand:wikidata": "Q683102", "nsi_id": "thorntons-bdbf63"}, "geometry": {"type": "Point", "coordinates": [-88.289545, 42.07511]}},
{"type": "Feature", "id": "T6QVTAJGECXJIvWkGVKe8fbDBIg=", "properties": {"ref": "129", "@spider": "thorntons", "shop": "confectionery", "addr:full": "2201 N. Green Bay Rd.", "addr:city": "Waukegan", "addr:state": "IL", "name": "Thorntons. #129", "phone": "(847) 336-5167", "website": "https://www.mythorntons.com/locations/", "brand": "Thorntons", "brand:wikidata": "Q683102", "nsi_id": "thorntons-bdbf63"}, "geometry": {"type": "Point", "coordinates": [-87.883201, 42.392368]}},
{"type": "Feature", "id": "i0Si4F6u7DEL-nM5u7WgGb2fsDs=", "properties": {"ref": "137", "@spider": "thorntons", "shop": "confectionery", "addr:full": "10559 S. Harlem", "addr:city": "Chicago Ridge", "addr:state": "IL", "name": "Thorntons. #137", "phone": "(708) 671-9150", "website": "https://www.mythorntons.com/locations/", "brand": "Thorntons", "brand:wikidata": "Q683102", "nsi_id": "thorntons-bdbf63"}, "geometry": {"type": "Point", "coordinates": [-87.797391, 41.6989601]}},
{"type": "Feature", "id": "ysogJcOCZkwtZgHYzE0NNfM_fSw=", "properties": {"ref": "139", "@spider": "thorntons", "shop": "confectionery", "addr:full": "418 S. Lincolnway Street", "addr:city": "N. Aurora", "addr:state": "IL", "name": "Thorntons. #139", "phone": "(630) 906-1114", "website": "https://www.mythorntons.com/locations/", "brand": "Thorntons", "brand:wikidata": "Q683102", "nsi_id": "thorntons-bdbf63"}, "geometry": {"type": "Point", "coordinates": [-88.32231, 41.789377]}},
{"type": "Feature", "id": "4YnlnW8V20gnzymq7iWSXAFTYXE=", "properties": {"ref": "140", "@spider": "thorntons", "shop": "confectionery", "addr:full": "10901 Pendleton Pike", "addr:city": "Indianapolis", "addr:state": "IN", "name": "Thorntons. #140", "phone": "(317) 826-0832", "website": "https://www.mythorntons.com/locations/", "brand": "Thorntons", "brand:wikidata": "Q683102", "nsi_id": "thorntons-bdbf63"}, "geometry": {"type": "Point", "coordinates": [-85.973768, 39.861403]}},
{"type": "Feature", "id": "7LnM5-EEHnEaWBIvHkNT1RHzOWc=", "properties": {"ref": "141", "@spider": "thorntons", "shop": "confectionery", "addr:full": "2115 Hartford Ave.", "addr:city": "Plainfield", "addr:state": "IN", "name": "Thorntons. #141", "phone": "(317) 837-8940", "website": "https://www.mythorntons.com/locations/", "brand": "Thorntons", "brand:wikidata": "Q683102", "nsi_id": "thorntons-bdbf63"}, "geometry": {"type": "Point", "coordinates": [-86.370405, 39.678242]}},
{"type": "Feature", "id": "FnVYTJrPVzjkO5PaCZ1JIADkTic=", "properties": {"ref": "142", "@spider": "thorntons", "shop": "confectionery", "addr:full": "6880 W. Washington St.", "addr:city": "Indianapolis", "addr:state": "IN", "name": "Thorntons. #142", "phone": "(317) 227-0675", "website": "https://www.mythorntons.com/locations/", "brand": "Thorntons", "brand:wikidata": "Q683102", "nsi_id": "thorntons-bdbf63"}, "geometry": {"type": "Point", "coordinates": [-86.2818231, 39.743534]}},
{"type": "Feature", "id": "LhUsEv2glHlNDAZj4D_zkYXpppk=", "properties": {"ref": "151", "@spider": "thorntons", "shop": "confectionery", "addr:full": "7920 Bardstown Rd.", "addr:city": "Louisville", "addr:state": "KY", "name": "Thorntons. #151", "phone": "(502) 231-6319", "website": "https://www.mythorntons.com/locations/", "brand": "Thorntons", "brand:wikidata": "Q683102", "nsi_id": "thorntons-bdbf63"}, "geometry": {"type": "Point", "coordinates": [-85.579065, 38.131544]}},
{"type": "Feature", "id": "tRWeGfd8HPJIHDacMe89fvw_FD0=", "properties": {"ref": "153", "@spider": "thorntons", "shop": "confectionery", "addr:full": "13302 W. Hwy. 42", "addr:city": "Prospect", "addr:state": "KY", "name": "Thorntons. #153", "phone": "(502) 228-0350", "website": "https://www.mythorntons.com/locations/", "brand": "Thorntons", "brand:wikidata": "Q683102", "nsi_id": "thorntons-bdbf63"}, "geometry": {"type": "Point", "coordinates": [-85.6031849, 38.3643963]}},
{"type": "Feature", "id": "RCr_nH7Ob2R7kxvhc7a0FyKqosQ=", "properties": {"ref": "154", "@spider": "thorntons", "shop": "confectionery", "addr:full": "3300 Bardstown Rd.", "addr:city": "Louisville", "addr:state": "KY", "name": "Thorntons. #154", "phone": "(502) 451-9467", "website": "https://www.mythorntons.com/locations/", "brand": "Thorntons", "brand:wikidata": "Q683102", "nsi_id": "thorntons-bdbf63"}, "geometry": {"type": "Point", "coordinates": [-85.669112, 38.207938]}},
{"type": "Feature", "id": "v02CI-2Cv6yuTRIQphGCZIHsAhk=", "properties": {"ref": "155", "@spider": "thorntons", "shop": "confectionery", "addr:full": "8405 National Turnpike", "addr:city": "Louisville", "addr:state": "KY", "name": "Thorntons. #155", "phone": "(502) 375-5959", "website": "https://www.mythorntons.com/locations/", "brand": "Thorntons", "brand:wikidata": "Q683102", "nsi_id": "thorntons-bdbf63"}, "geometry": {"type": "Point", "coordinates": [-85.748549, 38.127501]}},
{"type": "Feature", "id": "pc3UeXW6WF7Mva6tP_-GRUgMdzU=", "properties": {"ref": "156", "@spider": "thorntons", "shop": "confectionery", "addr:full": "1401 State Route 111", "addr:city": "New Albany", "addr:state": "IN", "name": "Thorntons. #156", "phone": "(812) 542-1081", "website": "https://www.mythorntons.com/locations/", "brand": "Thorntons", "brand:wikidata": "Q683102", "nsi_id": "thorntons-bdbf63"}, "geometry": {"type": "Point", "coordinates": [-85.8375016, 38.2741746]}},
{"type": "Feature", "id": "GEO3HiBMAUwW_b-pYtYuA2pLCyQ=", "properties": {"ref": "157", "@spider": "thorntons", "shop": "confectionery", "addr:full": "1335 Hurstbourne Lane", "addr:city": "Louisville", "addr:state": "KY", "name": "Thorntons. #157", "phone": "(502) 423-1060", "website": "https://www.mythorntons.com/locations/", "brand": "Thorntons", "brand:wikidata": "Q683102", "nsi_id": "thorntons-bdbf63"}, "geometry": {"type": "Point", "coordinates": [-85.5775396, 38.2254418]}},
{"type": "Feature", "id": "lWiKCUQ3zOzH0bQSM2cSCdHkS4Q=", "properties": {"ref": "158", "@spider": "thorntons", "shop": "confectionery", "addr:full": "4900 Brownsboro Rd.", "addr:city": "Louisville", "addr:state": "KY", "name": "Thorntons. #158", "phone": "(502) 425-2536", "website": "https://www.mythorntons.com/locations/", "brand": "Thorntons", "brand:wikidata": "Q683102", "nsi_id": "thorntons-bdbf63"}, "geometry": {"type": "Point", "coordinates": [-85.6348059, 38.28098]}},
{"type": "Feature", "id": "eTPKcqXP-Dt0yr8zk0qtUjEk9h8=", "properties": {"ref": "159", "@spider": "thorntons", "shop": "confectionery", "addr:full": "4740 Chamberlain Lane", "addr:city": "Louisville", "addr:state": "KY", "name": "Thorntons. #159", "phone": "(502) 425-6135", "website": "https://www.mythorntons.com/locations/", "brand": "Thorntons", "brand:wikidata": "Q683102", "nsi_id": "thorntons-bdbf63"}, "geometry": {"type": "Point", "coordinates": [-85.567542, 38.31183]}},
{"type": "Feature", "id": "V0uvLVm03idU-rVcX4pVgNiwtoU=", "properties": {"ref": "160", "@spider": "thorntons", "shop": "confectionery", "addr:full": "9200 Preston Hwy.", "addr:city": "Louisville", "addr:state": "KY", "name": "Thorntons. #160", "phone": "(502) 969-2273", "website": "https://www.mythorntons.com/locations/", "brand": "Thorntons", "brand:wikidata": "Q683102", "nsi_id": "thorntons-bdbf63"}, "geometry": {"type": "Point", "coordinates": [-85.677761, 38.11775]}},
{"type": "Feature", "id": "g9XvMlQhIEy9Gx1gZGchSSiB2d8=", "properties": {"ref": "161", "@spider": "thorntons", "shop": "confectionery", "addr:full": "7515 Shelbyville Road", "addr:city": "Louisville", "addr:state": "KY", "name": "Thorntons. #161", "phone": "(502) 326-1407", "website": "https://www.mythorntons.com/locations/", "brand": "Thorntons", "brand:wikidata": "Q683102", "nsi_id": "thorntons-bdbf63"}, "geometry": {"type": "Point", "coordinates": [-85.614266, 38.249578]}},
{"type": "Feature", "id": "2fyo3nTCVDXQlqYyL8LLvlfsOSI=", "properties": {"ref": "162", "@spider": "thorntons", "shop": "confectionery", "addr:full": "9400 Westport Road", "addr:city": "Louisville", "addr:state": "KY", "name": "Thorntons. #162", "phone": "(502) 425-3200", "website": "https://www.mythorntons.com/locations/", "brand": "Thorntons", "brand:wikidata": "Q683102", "nsi_id": "thorntons-bdbf63"}, "geometry": {"type": "Point", "coordinates": [-85.5774141, 38.2858891]}},
{"type": "Feature", "id": "GopOxO4AztxCnOEHraMQkUiZ1rM=", "properties": {"ref": "163", "@spider": "thorntons", "shop": "confectionery", "addr:full": "3255 Bardstown Road", "addr:city": "Louisville", "addr:state": "KY", "name": "Thorntons. #163", "phone": "(502) 479-6072", "website": "https://www.mythorntons.com/locations/", "brand": "Thorntons", "brand:wikidata": "Q683102", "nsi_id": "thorntons-bdbf63"}, "geometry": {"type": "Point", "coordinates": [-85.6689, 38.2089]}},
{"type": "Feature", "id": "rwUTutLVwY4LyzD7y995ojWm-64=", "properties": {"ref": "164", "@spider": "thorntons", "shop": "confectionery", "addr:full": "13604 Blue Lick Road", "addr:city": "Memphis", "addr:state": "IN", "name": "Thorntons. #164", "phone": "(812) 294-1051", "website": "https://www.mythorntons.com/locations/", "brand": "Thorntons", "brand:wikidata": "Q683102", "nsi_id": "thorntons-bdbf63"}, "geometry": {"type": "Point", "coordinates": [-85.7698, 38.4888]}},
{"type": "Feature", "id": "c570PJksTPllYWJ3TXHfgUbJp8g=", "properties": {"ref": "165", "@spider": "thorntons", "shop": "confectionery", "addr:full": "4170 Taylor Blvd.", "addr:city": "Louisville", "addr:state": "KY", "name": "Thorntons. #165", "phone": "(502) 366-4928", "website": "https://www.mythorntons.com/locations/", "brand": "Thorntons", "brand:wikidata": "Q683102", "nsi_id": "thorntons-bdbf63"}, "geometry": {"type": "Point", "coordinates": [-85.78376, 38.179859]}},
{"type": "Feature", "id": "cd3kousNU75_h4RDzltM7TP4oes=", "properties": {"ref": "301", "@spider": "thorntons", "shop": "confectionery", "addr:full": "5900 S. Harlem Ave.", "addr:city": "Summit", "addr:state": "IL", "name": "Thorntons. #301", "phone": "(708) 458-3227", "website": "https://www.mythorntons.com/locations/", "brand": "Thorntons", "brand:wikidata": "Q683102", "nsi_id": "thorntons-bdbf63"}, "geometry": {"type": "Point", "coordinates": [-87.80161, 41.784177]}},
{"type": "Feature", "id": "wqaTmqouyQg5FzAmy-JkRoStYd4=", "properties": {"ref": "302", "@spider": "thorntons", "shop": "confectionery", "addr:full": "2798 W. Jefferson St.", "addr:city": "Joliet", "addr:state": "IL", "name": "Thorntons. #302", "phone": "(815) 773-9344", "website": "https://www.mythorntons.com/locations/", "brand": "Thorntons", "brand:wikidata": "Q683102", "nsi_id": "thorntons-bdbf63"}, "geometry": {"type": "Point", "coordinates": [-88.1498997, 41.5217651]}},
{"type": "Feature", "id": "DAOqAWFgnl-mVBv-Qxf0_N9HiUM=", "properties": {"ref": "304", "@spider": "thorntons", "shop": "confectionery", "addr:full": "598 Washington Street", "addr:city": "Round Lake Park", "addr:state": "IL", "name": "Thorntons. #304", "phone": "(847) 740-5637", "website": "https://www.mythorntons.com/locations/", "brand": "Thorntons", "brand:wikidata": "Q683102", "nsi_id": "thorntons-bdbf63"}, "geometry": {"type": "Point", "coordinates": [-88.0686097, 42.357402]}},
{"type": "Feature", "id": "NurPOVvoZS4ce7c9cwf1P9diIAs=", "properties": {"ref": "306", "@spider": "thorntons", "shop": "confectionery", "addr:full": "100 East Dundee Ave", "addr:city": "East Dundee", "addr:state": "IL", "name": "Thorntons. #306", "phone": "(847) 428-3217", "website": "https://www.mythorntons.com/locations/", "brand": "Thorntons", "brand:wikidata": "Q683102", "nsi_id": "thorntons-bdbf63"}, "geometry": {"type": "Point", "coordinates": [-88.2574294, 42.1040658]}},
{"type": "Feature", "id": "tCexnzmQn8YnXBDS116q73FB7s0=", "properties": {"ref": "307", "@spider": "thorntons", "shop": "confectionery", "addr:full": "110 W. Devon Ave.", "addr:city": "Wood Dale", "addr:state": "IL", "name": "Thorntons. #307", "phone": "(630) 616-0993", "website": "https://www.mythorntons.com/locations/", "brand": "Thorntons", "brand:wikidata": "Q683102", "nsi_id": "thorntons-bdbf63"}, "geometry": {"type": "Point", "coordinates": [-87.979975, 41.992415]}},
{"type": "Feature", "id": "S20sIbMkrIKC25Y9HeCSKXXvhgg=", "properties": {"ref": "308", "@spider": "thorntons", "shop": "confectionery", "addr:full": "34225 N. US 45", "addr:city": "Third Lake", "addr:state": "IL", "name": "Thorntons. #308", "phone": "(847) 543-4808", "website": "https://www.mythorntons.com/locations/", "brand": "Thorntons", "brand:wikidata": "Q683102", "nsi_id": "thorntons-bdbf63"}, "geometry": {"type": "Point", "coordinates": [-88.0003383, 42.3602908]}},
{"type": "Feature", "id": "tYA_6EBm6fsSrrR5dkW_Gzhiyj8=", "properties": {"ref": "309", "@spider": "thorntons", "shop": "confectionery", "addr:full": "28937 West Il Route 120", "addr:city": "Lakemoor", "addr:state": "IL", "name": "Thorntons. #309", "phone": "(815) 344-1502", "website": "https://www.mythorntons.com/locations/", "brand": "Thorntons", "brand:wikidata": "Q683102", "nsi_id": "thorntons-bdbf63"}, "geometry": {"type": "Point", "coordinates": [-88.1978518, 42.3279473]}},
{"type": "Feature", "id": "bgBYYfovCBP7SjXjXl_pzjiCMUk=", "properties": {"ref": "310", "@spider": "thorntons", "shop": "confectionery", "addr:full": "205 South US Highway 12", "addr:city": "Volo", "addr:state": "IL", "name": "Thorntons. #310", "phone": "(815) 578-9085", "website": "https://www.mythorntons.com/locations/", "brand": "Thorntons", "brand:wikidata": "Q683102", "nsi_id": "thorntons-bdbf63"}, "geometry": {"type": "Point", "coordinates": [-88.163631, 42.325475]}},
{"type": "Feature", "id": "MsxZWAVnrQw3IeJXOG7P5uXvxBk=", "properties": {"ref": "311", "@spider": "thorntons", "shop": "confectionery", "addr:full": "27905 W. Highway 176", "addr:city": "Island Lake", "addr:state": "IL", "name": "Thorntons. #311", "phone": "(847) 526-7568", "website": "https://www.mythorntons.com/locations/", "brand": "Thorntons", "brand:wikidata": "Q683102", "nsi_id": "thorntons-bdbf63"}, "geometry": {"type": "Point", "coordinates": [-88.179016, 42.26359]}},
{"type": "Feature", "id": "yr3eJlpVbyXNuuPGKe48MEWPrVg=", "properties": {"ref": "312", "@spider": "thorntons", "shop": "confectionery", "addr:full": "55 Skokie Valley Rd", "addr:city": "Highland Park", "addr:state": "IL", "name": "Thorntons. #312", "phone": "(847) 831-0118", "website": "https://www.mythorntons.com/locations/", "brand": "Thorntons", "brand:wikidata": "Q683102", "nsi_id": "thorntons-bdbf63"}, "geometry": {"type": "Point", "coordinates": [-87.802895, 42.152973]}},
{"type": "Feature", "id": "rwcA8DS2oggS1BkkbTjOaaF6nX4=", "properties": {"ref": "313", "@spider": "thorntons", "shop": "confectionery", "addr:full": "11 N. Route 12", "addr:city": "Fox Lake", "addr:state": "IL", "name": "Thorntons. #313", "phone": "(847) 587-0554", "website": "https://www.mythorntons.com/locations/", "brand": "Thorntons", "brand:wikidata": "Q683102", "nsi_id": "thorntons-bdbf63"}, "geometry": {"type": "Point", "coordinates": [-88.1835424, 42.3971251]}},
{"type": "Feature", "id": "2bkPf7ZuDGSnVv6mkCdBEBlA0IY=", "properties": {"ref": "314", "@spider": "thorntons", "shop": "confectionery", "addr:full": "601 Route 83", "addr:city": "Bensenville", "addr:state": "IL", "name": "Thorntons. #314", "phone": "(630) 766-0602", "website": "https://www.mythorntons.com/locations/", "brand": "Thorntons", "brand:wikidata": "Q683102", "nsi_id": "thorntons-bdbf63"}, "geometry": {"type": "Point", "coordinates": [-87.959093, 41.972904]}},
{"type": "Feature", "id": "rFS5bgqL2f65YoczzNxLb2eJcWk=", "properties": {"ref": "315", "@spider": "thorntons", "shop": "confectionery", "addr:full": "2609 Farnsworth Ave", "addr:city": "Aurora", "addr:state": "IL", "name": "Thorntons. #315", "phone": "(630) 820-2075", "website": "https://www.mythorntons.com/locations/", "brand": "Thorntons", "brand:wikidata": "Q683102", "nsi_id": "thorntons-bdbf63"}, "geometry": {"type": "Point", "coordinates": [-88.280954, 41.807651]}},
{"type": "Feature", "id": "HVA0Ba2x-IQeQRKaos_jmg4xmdU=", "properties": {"ref": "316", "@spider": "thorntons", "shop": "confectionery", "addr:full": "2095 East Algonquin Road", "addr:city": "Algonquin", "addr:state": "IL", "name": "Thorntons. #316", "phone": "(847) 658-2203", "website": "https://www.mythorntons.com/locations/", "brand": "Thorntons", "brand:wikidata": "Q683102", "nsi_id": "thorntons-bdbf63"}, "geometry": {"type": "Point", "coordinates": [-88.26415299, 42.15418187]}},
{"type": "Feature", "id": "slSUWeMrquKsH5UnU2-1AdrE7NI=", "properties": {"ref": "317", "@spider": "thorntons", "shop": "confectionery", "addr:full": "2330 127th Street", "addr:city": "Blue Island", "addr:state": "IL", "name": "Thorntons. #317", "phone": "(708) 239-0977", "website": "https://www.mythorntons.com/locations/", "brand": "Thorntons", "brand:wikidata": "Q683102", "nsi_id": "thorntons-bdbf63"}, "geometry": {"type": "Point", "coordinates": [-87.679283, 41.662715]}},
{"type": "Feature", "id": "ApJwT2pNQLs_n7qV36dhDmQOj0E=", "properties": {"ref": "318", "@spider": "thorntons", "shop": "confectionery", "addr:full": "1330 S. Neltnor Blvd.", "addr:city": "West Chicago", "addr:state": "IL", "name": "Thorntons. #318", "phone": "(630) 562-9110", "website": "https://www.mythorntons.com/locations/", "brand": "Thorntons", "brand:wikidata": "Q683102", "nsi_id": "thorntons-bdbf63"}, "geometry": {"type": "Point", "coordinates": [-88.19534, 41.863298]}},
{"type": "Feature", "id": "x6mljluTTwn9xlDB3bQIPgviT5o=", "properties": {"ref": "319", "@spider": "thorntons", "shop": "confectionery", "addr:full": "24144 W. Eames Street", "addr:city": "Channahon", "addr:state": "IL", "name": "Thorntons. #319", "phone": "(815) 521-3220", "website": "https://www.mythorntons.com/locations/", "brand": "Thorntons", "brand:wikidata": "Q683102", "nsi_id": "thorntons-bdbf63"}, "geometry": {"type": "Point", "coordinates": [-88.196933, 41.45398]}},
{"type": "Feature", "id": "EKri3r3Wk_TUX83v5Wd3pUf5Eac=", "properties": {"ref": "320", "@spider": "thorntons", "shop": "confectionery", "addr:full": "476 North York Road", "addr:city": "Elmhurst", "addr:state": "IL", "name": "Thorntons. #320", "phone": "(630) 415-3001", "website": "https://www.mythorntons.com/locations/", "brand": "Thorntons", "brand:wikidata": "Q683102", "nsi_id": "thorntons-bdbf63"}, "geometry": {"type": "Point", "coordinates": [-87.940334, 41.912391]}},
{"type": "Feature", "id": "ijb14P5iVYUikas-VH1Ti5ZeMow=", "properties": {"ref": "321", "@spider": "thorntons", "shop": "confectionery", "addr:full": "3233 Grand Ave", "addr:city": "Waukegan", "addr:state": "IL", "name": "Thorntons. #321", "phone": "(847) 336-0730", "website": "https://www.mythorntons.com/locations/", "brand": "Thorntons", "brand:wikidata": "Q683102", "nsi_id": "thorntons-bdbf63"}, "geometry": {"type": "Point", "coordinates": [-87.880558, 42.370006]}},
{"type": "Feature", "id": "MFYw1ixq7NiC1BMl94q0TkgtdOA=", "properties": {"ref": "322", "@spider": "thorntons", "shop": "confectionery", "addr:full": "3450 S. California Ave", "addr:city": "Chicago", "addr:state": "IL", "name": "Thorntons. #322", "phone": "(773) 523-2030", "website": "https://www.mythorntons.com/locations/", "brand": "Thorntons", "brand:wikidata": "Q683102", "nsi_id": "thorntons-bdbf63"}, "geometry": {"type": "Point", "coordinates": [-87.69553185, 41.83081647]}},
{"type": "Feature", "id": "0OFy9dLS0fYGnmtQO_Khpc9qf8w=", "properties": {"ref": "323", "@spider": "thorntons", "shop": "confectionery", "addr:full": "515 W North Ave", "addr:city": "Lombard", "addr:state": "IL", "name": "Thorntons. #323", "phone": "(630) 495-1739", "website": "https://www.mythorntons.com/locations/", "brand": "Thorntons", "brand:wikidata": "Q683102", "nsi_id": "thorntons-bdbf63"}, "geometry": {"type": "Point", "coordinates": [-88.0325477, 41.904042]}},
{"type": "Feature", "id": "dZOaIqwyqqfbFQs9gQbU4RGrgqs=", "properties": {"ref": "324", "@spider": "thorntons", "shop": "confectionery", "addr:full": "400 North Independence Blvd", "addr:city": "Romeoville", "addr:state": "IL", "name": "Thorntons. #324", "phone": "(815) 886-1441", "website": "https://www.mythorntons.com/locations/", "brand": "Thorntons", "brand:wikidata": "Q683102", "nsi_id": "thorntons-bdbf63"}, "geometry": {"type": "Point", "coordinates": [-88.0815262, 41.6408211]}},
{"type": "Feature", "id": "pWKSKck8hUmsCUndf3OfOO9pPsE=", "properties": {"ref": "325", "@spider": "thorntons", "shop": "confectionery", "addr:full": "1141 E. 162nd Street", "addr:city": "South Holland", "addr:state": "IL", "name": "Thorntons. #325", "phone": "(708) 331-2490", "website": "https://www.mythorntons.com/locations/", "brand": "Thorntons", "brand:wikidata": "Q683102", "nsi_id": "thorntons-bdbf63"}, "geometry": {"type": "Point", "coordinates": [-87.589553, 41.6003634]}},
{"type": "Feature", "id": "WPGUuj5SEY2PtQOs67WuocGWlw0=", "properties": {"ref": "327", "@spider": "thorntons", "shop": "confectionery", "addr:full": "1125 S. 25th Ave", "addr:city": "Bellwood", "addr:state": "IL", "name": "Thorntons. #327", "phone": "(708) 649-3090", "website": "https://www.mythorntons.com/locations/", "brand": "Thorntons", "brand:wikidata": "Q683102", "nsi_id": "thorntons-bdbf63"}, "geometry": {"type": "Point", "coordinates": [-87.8641453, 41.8710936]}},
{"type": "Feature", "id": "JnDPfO68CTI3V9ZP52wS86xGauw=", "properties": {"ref": "328", "@spider": "thorntons", "shop": "confectionery", "addr:full": "1600 Rand Road", "addr:city": "Prospect Heights", "addr:state": "IL", "name": "Thorntons. #328", "phone": "(847) 253-5407", "website": "https://www.mythorntons.com/locations/", "brand": "Thorntons", "brand:wikidata": "Q683102", "nsi_id": "thorntons-bdbf63"}, "geometry": {"type": "Point", "coordinates": [-87.9680478, 42.1027186]}},
{"type": "Feature", "id": "UWCFBb641rV3Mc0ezN5y4wYfxcs=", "properties": {"ref": "329", "@spider": "thorntons", "shop": "confectionery", "addr:full": "1321 North Joliet Road", "addr:city": "Romeoville", "addr:state": "IL", "name": "Thorntons. #329", "phone": "(630) 743-3605", "website": "https://www.mythorntons.com/locations/", "brand": "Thorntons", "brand:wikidata": "Q683102", "nsi_id": "thorntons-bdbf63"}, "geometry": {"type": "Point", "coordinates": [-88.0646895, 41.667557]}},
{"type": "Feature", "id": "q6aKdvAlck0v3NZp_Qa2nE2LsWY=", "properties": {"ref": "330", "@spider": "thorntons", "shop": "confectionery", "addr:full": "3503 S Cicero Ave", "addr:city": "Cicero", "addr:state": "IL", "name": "Thorntons. #330", "phone": "(708) 652-6539", "website": "https://www.mythorntons.com/locations/", "brand": "Thorntons", "brand:wikidata": "Q683102", "nsi_id": "thorntons-bdbf63"}, "geometry": {"type": "Point", "coordinates": [-87.7443163, 41.8278143]}},
{"type": "Feature", "id": "y4eOQ0O7A3hfhKv-6p4zdFEZxmk=", "properties": {"ref": "331", "@spider": "thorntons", "shop": "confectionery", "addr:full": "13555 Willowbrook Road", "addr:city": "Roscoe", "addr:state": "IL", "name": "Thorntons. #331", "phone": "815-389-0467", "website": "https://www.mythorntons.com/locations/", "brand": "Thorntons", "brand:wikidata": "Q683102", "nsi_id": "thorntons-bdbf63"}, "geometry": {"type": "Point", "coordinates": [-88.998906, 42.457273]}},
{"type": "Feature", "id": "6jxYGue8uQ8aatRM9TDI1l09fxs=", "properties": {"ref": "333", "@spider": "thorntons", "shop": "confectionery", "addr:full": "3S660 Route 59", "addr:city": "Warrenville", "addr:state": "IL", "name": "Thorntons. #333", "phone": "(630) 219-8054", "website": "https://www.mythorntons.com/locations/", "brand": "Thorntons", "brand:wikidata": "Q683102", "nsi_id": "thorntons-bdbf63"}, "geometry": {"type": "Point", "coordinates": [-88.2114127, 41.8178186]}},
{"type": "Feature", "id": "9bLBnm94UnR294lDrcpQs3pT8Zk=", "properties": {"ref": "334", "@spider": "thorntons", "shop": "confectionery", "addr:full": "14840 S Western Ave", "addr:city": "Posen", "addr:state": "IL", "name": "Thorntons. #334", "phone": "(708) 239-1447", "website": "https://www.mythorntons.com/locations/", "brand": "Thorntons", "brand:wikidata": "Q683102", "nsi_id": "thorntons-bdbf63"}, "geometry": {"type": "Point", "coordinates": [-87.6768314, 41.623655]}},
{"type": "Feature", "id": "DW_DeZlYwTOfOsudv70J2usPp34=", "properties": {"ref": "336", "@spider": "thorntons", "shop": "confectionery", "addr:full": "25461 S Ridgeland Ave", "addr:city": "Monee", "addr:state": "IL", "name": "Thorntons. #336", "phone": "(708) 982-0004", "website": "https://www.mythorntons.com/locations/", "brand": "Thorntons", "brand:wikidata": "Q683102", "nsi_id": "thorntons-bdbf63"}, "geometry": {"type": "Point", "coordinates": [-87.7691082, 41.4272149]}},
{"type": "Feature", "id": "zuSXO8yujZfMUVLFyc4NKWJ1VfQ=", "properties": {"ref": "337", "@spider": "thorntons", "shop": "confectionery", "addr:full": "8012 West 111th Street", "addr:city": "Palos Hills", "addr:state": "IL", "name": "Thorntons. #337", "phone": "(708) 522-4278", "website": "https://www.mythorntons.com/locations/", "brand": "Thorntons", "brand:wikidata": "Q683102", "nsi_id": "thorntons-bdbf63"}, "geometry": {"type": "Point", "coordinates": [-87.8180886, 41.6897257]}},
{"type": "Feature", "id": "Hz2MwIImqVp1eDZcmzwV0YSYSx0=", "properties": {"ref": "340", "@spider": "thorntons", "shop": "confectionery", "addr:full": "400 Collins Street", "addr:city": "Joliet", "addr:state": "IL", "name": "Thorntons. #340", "phone": "(815) 354-7869", "website": "https://www.mythorntons.com/locations/", "brand": "Thorntons", "brand:wikidata": "Q683102", "nsi_id": "thorntons-bdbf63"}, "geometry": {"type": "Point", "coordinates": [-88.0740725, 41.5316904]}},
{"type": "Feature", "id": "w_A1dpagbh9KG67QurwcygcbeGM=", "properties": {"ref": "341", "@spider": "thorntons", "shop": "confectionery", "addr:full": "11120 South Ridgeland Ave", "addr:city": "Worth", "addr:state": "IL", "name": "Thorntons. #341", "phone": "(708) 522-3532", "website": "https://www.mythorntons.com/locations/", "brand": "Thorntons", "brand:wikidata": "Q683102", "nsi_id": "thorntons-bdbf63"}, "geometry": {"type": "Point", "coordinates": [-87.7798293, 41.6900476]}},
{"type": "Feature", "id": "6VxXptEVooKGT1m9HO4rDy0rznU=", "properties": {"ref": "342", "@spider": "thorntons", "shop": "confectionery", "addr:full": "11975 Route 47", "addr:city": "Huntley", "addr:state": "IL", "name": "Thorntons. #342", "phone": "(847) 204-2898", "website": "https://www.mythorntons.com/locations/", "brand": "Thorntons", "brand:wikidata": "Q683102", "nsi_id": "thorntons-bdbf63"}, "geometry": {"type": "Point", "coordinates": [-88.4116947, 42.1737798]}},
{"type": "Feature", "id": "uq8lE4fu5PRPAHITqDrbNqqen-I=", "properties": {"ref": "349", "@spider": "thorntons", "shop": "confectionery", "addr:full": "1487 N. Henderson Street", "addr:city": "Galesburg", "addr:state": "IL", "name": "Thorntons. #349", "phone": "(309) 344-0192", "website": "https://www.mythorntons.com/locations/", "brand": "Thorntons", "brand:wikidata": "Q683102", "nsi_id": "thorntons-bdbf63"}, "geometry": {"type": "Point", "coordinates": [-90.383113, 40.965842]}},
{"type": "Feature", "id": "YHpvhoxAjg9WmqKB8jbkFAxdo-g=", "properties": {"ref": "350", "@spider": "thorntons", "shop": "confectionery", "addr:full": "457 S. Main Street", "addr:city": "Creve Coeur", "addr:state": "IL", "name": "Thorntons. #350", "phone": "(309) 699-3122", "website": "https://www.mythorntons.com/locations/", "brand": "Thorntons", "brand:wikidata": "Q683102", "nsi_id": "thorntons-bdbf63"}, "geometry": {"type": "Point", "coordinates": [-89.605424, 40.640363]}},
{"type": "Feature", "id": "0IqyOabVzPgNGNpeQ1jY9RPcJjQ=", "properties": {"ref": "351", "@spider": "thorntons", "shop": "confectionery", "addr:full": "107 W. Spring Creek Road", "addr:city": "East Peoria", "addr:state": "IL", "name": "Thorntons. #351", "phone": "(309) 694-1777", "website": "https://www.mythorntons.com/locations/", "brand": "Thorntons", "brand:wikidata": "Q683102", "nsi_id": "thorntons-bdbf63"}, "geometry": {"type": "Point", "coordinates": [-89.5202267, 40.7323168]}},
{"type": "Feature", "id": "nEK2wlDGNvA4NrcGQ9ls3CXvzoM=", "properties": {"ref": "352", "@spider": "thorntons", "shop": "confectionery", "addr:full": "2255 E. Washington", "addr:city": "E. Peoria", "addr:state": "IL", "name": "Thorntons. #352", "phone": "(309) 699-3399", "website": "https://www.mythorntons.com/locations/", "brand": "Thorntons", "brand:wikidata": "Q683102", "nsi_id": "thorntons-bdbf63"}, "geometry": {"type": "Point", "coordinates": [-89.541621, 40.674454]}},
{"type": "Feature", "id": "zz9EjdEh_Z6AdwHKdkQTYKIL1lw=", "properties": {"ref": "353", "@spider": "thorntons", "shop": "confectionery", "addr:full": "2820 Court Street", "addr:city": "Pekin", "addr:state": "IL", "name": "Thorntons. #353", "phone": "(309) 349-5727", "website": "https://www.mythorntons.com/locations/", "brand": "Thorntons", "brand:wikidata": "Q683102", "nsi_id": "thorntons-bdbf63"}, "geometry": {"type": "Point", "coordinates": [-89.60871, 40.55148]}},
{"type": "Feature", "id": "EbGNEIPaTgsL3Jo1Sz5QX23zNDg=", "properties": {"ref": "360", "@spider": "thorntons", "shop": "confectionery", "addr:full": "906 N. Main Street", "addr:city": "Bloomington", "addr:state": "IL", "name": "Thorntons. #360", "phone": "(309) 828-3622", "website": "https://www.mythorntons.com/locations/", "brand": "Thorntons", "brand:wikidata": "Q683102", "nsi_id": "thorntons-bdbf63"}, "geometry": {"type": "Point", "coordinates": [-88.994451, 40.487057]}},
{"type": "Feature", "id": "7zlqSVdKAj6NoawiUeVr0SxXzY4=", "properties": {"ref": "361", "@spider": "thorntons", "shop": "confectionery", "addr:full": "1011 N. Hershey Road", "addr:city": "Bloomington", "addr:state": "IL", "name": "Thorntons. #361", "phone": "(309) 662-3611", "website": "https://www.mythorntons.com/locations/", "brand": "Thorntons", "brand:wikidata": "Q683102", "nsi_id": "thorntons-bdbf63"}, "geometry": {"type": "Point", "coordinates": [-88.942695, 40.487758]}},
{"type": "Feature", "id": "jKKy-YFIIf2ksxzCy0-UDsUaO54=", "properties": {"ref": "364", "@spider": "thorntons", "shop": "confectionery", "addr:full": "102 West Etna Road", "addr:city": "Ottawa", "addr:state": "IL", "name": "Thorntons. #364", "phone": "(815) 433-4101", "website": "https://www.mythorntons.com/locations/", "brand": "Thorntons", "brand:wikidata": "Q683102", "nsi_id": "thorntons-bdbf63"}, "geometry": {"type": "Point", "coordinates": [-88.8368883, 41.3730925]}},
{"type": "Feature", "id": "wtoTOs4bWcHzS4le4BCywHBPjEk=", "properties": {"ref": "365", "@spider": "thorntons", "shop": "confectionery", "addr:full": "1810 N. Bloomington Street", "addr:city": "Streator", "addr:state": "IL", "name": "Thorntons. #365", "phone": "(815) 673-1123", "website": "https://www.mythorntons.com/locations/", "brand": "Thorntons", "brand:wikidata": "Q683102", "nsi_id": "thorntons-bdbf63"}, "geometry": {"type": "Point", "coordinates": [-88.8361219, 41.1407255]}},
{"type": "Feature", "id": "gmuxVdXCefKARbOgSj7hOjiyy2w=", "properties": {"ref": "366", "@spider": "thorntons", "shop": "confectionery", "addr:full": "948 W. Reynolds Street", "addr:city": "Pontiac", "addr:state": "IL", "name": "Thorntons. #366", "phone": "(815) 844-3672", "website": "https://www.mythorntons.com/locations/", "brand": "Thorntons", "brand:wikidata": "Q683102", "nsi_id": "thorntons-bdbf63"}, "geometry": {"type": "Point", "coordinates": [-88.6416366, 40.873443]}},
{"type": "Feature", "id": "yrfQxmPueJ84glT60_LcqVq4XLk=", "properties": {"ref": "367", "@spider": "thorntons", "shop": "confectionery", "addr:full": "420 W. Dearborn Street", "addr:city": "Havana", "addr:state": "IL", "name": "Thorntons. #367", "phone": "(309) 543-4482", "website": "https://www.mythorntons.com/locations/", "brand": "Thorntons", "brand:wikidata": "Q683102", "nsi_id": "thorntons-bdbf63"}, "geometry": {"type": "Point", "coordinates": [-90.065112, 40.294056]}},
{"type": "Feature", "id": "Iq5T97KNss87-J3zouJmssfoGrM=", "properties": {"ref": "368", "@spider": "thorntons", "shop": "confectionery", "addr:full": "511 Keokuk Street", "addr:city": "Lincoln", "addr:state": "IL", "name": "Thorntons. #368", "phone": "(217) 732-1993", "website": "https://www.mythorntons.com/locations/", "brand": "Thorntons", "brand:wikidata": "Q683102", "nsi_id": "thorntons-bdbf63"}, "geometry": {"type": "Point", "coordinates": [-89.360347, 40.153195]}},
{"type": "Feature", "id": "MlfcvxwJwMIqcPUDzg4wPRUVjRk=", "properties": {"ref": "369", "@spider": "thorntons", "shop": "confectionery", "addr:full": "2903 Woodlawn Road", "addr:city": "Lincoln", "addr:state": "IL", "name": "Thorntons. #369", "phone": "(217) 732-3915", "website": "https://www.mythorntons.com/locations/", "brand": "Thorntons", "brand:wikidata": "Q683102", "nsi_id": "thorntons-bdbf63"}, "geometry": {"type": "Point", "coordinates": [-89.4123818, 40.1585548]}},
{"type": "Feature", "id": "_xXx9V2-Uh8NMCExepFCW-IJp3o=", "properties": {"ref": "370", "@spider": "thorntons", "shop": "confectionery", "addr:full": "2208 Peoria Road", "addr:city": "Springfield", "addr:state": "IL", "name": "Thorntons. #370", "phone": "(217) 525-6613", "website": "https://www.mythorntons.com/locations/", "brand": "Thorntons", "brand:wikidata": "Q683102", "nsi_id": "thorntons-bdbf63"}, "geometry": {"type": "Point", "coordinates": [-89.635885, 39.83128]}},
{"type": "Feature", "id": "z_EelfNHt2ofcHGoKaXwmCgKR4A=", "properties": {"ref": "371", "@spider": "thorntons", "shop": "confectionery", "addr:full": "3001 Wabash Avenue", "addr:city": "Springfield", "addr:state": "IL", "name": "Thorntons. #371", "phone": "(217) 546-4744", "website": "https://www.mythorntons.com/locations/", "brand": "Thorntons", "brand:wikidata": "Q683102", "nsi_id": "thorntons-bdbf63"}, "geometry": {"type": "Point", "coordinates": [-89.7104737, 39.7636902]}},
{"type": "Feature", "id": "5NRR54JcPtfqiXFP5HvZGaXJdl0=", "properties": {"ref": "373", "@spider": "thorntons", "shop": "confectionery", "addr:full": "3005 S. 6th Strret", "addr:city": "Springfield", "addr:state": "IL", "name": "Thorntons. #373", "phone": "(217) 544-4143", "website": "https://www.mythorntons.com/locations/", "brand": "Thorntons", "brand:wikidata": "Q683102", "nsi_id": "thorntons-bdbf63"}, "geometry": {"type": "Point", "coordinates": [-89.648781, 39.760651]}},
{"type": "Feature", "id": "d9tHPCUa3We1U-G_L6RUe_uReuQ=", "properties": {"ref": "381", "@spider": "thorntons", "shop": "confectionery", "addr:full": "1707 E. Pershing Road", "addr:city": "Decatur", "addr:state": "IL", "name": "Thorntons. #381", "phone": "(217) 877-8646", "website": "https://www.mythorntons.com/locations/", "brand": "Thorntons", "brand:wikidata": "Q683102", "nsi_id": "thorntons-bdbf63"}, "geometry": {"type": "Point", "coordinates": [-88.932266, 39.877139]}},
{"type": "Feature", "id": "OU5Yzxd7yaRZfD8f4eVN6i9YyLg=", "properties": {"ref": "382", "@spider": "thorntons", "shop": "confectionery", "addr:full": "612 E. Mound Road", "addr:city": "Decatur", "addr:state": "IL", "name": "Thorntons. #382", "phone": "(217) 875-4204", "website": "https://www.mythorntons.com/locations/", "brand": "Thorntons", "brand:wikidata": "Q683102", "nsi_id": "thorntons-bdbf63"}, "geometry": {"type": "Point", "coordinates": [-88.9496474, 39.8919296]}},
{"type": "Feature", "id": "HfKwcT7fngreYKOu1Rh3Zcizj1E=", "properties": {"ref": "385", "@spider": "thorntons", "shop": "confectionery", "addr:full": "101 Burwash Avenue", "addr:city": "Savoy", "addr:state": "IL", "name": "Thorntons. #385", "phone": "(217) 352-0252", "website": "https://www.mythorntons.com/locations/", "brand": "Thorntons", "brand:wikidata": "Q683102", "nsi_id": "thorntons-bdbf63"}, "geometry": {"type": "Point", "coordinates": [-88.249269, 40.073854]}},
{"type": "Feature", "id": "vhC9C_PJ3AUGk3KzTDp9kUO4dEk=", "properties": {"ref": "386", "@spider": "thorntons", "shop": "confectionery", "addr:full": "101 S. Mattis Ave", "addr:city": "Champaign", "addr:state": "IL", "name": "Thorntons. #386", "phone": "(217) 359-3128", "website": "https://www.mythorntons.com/locations/", "brand": "Thorntons", "brand:wikidata": "Q683102", "nsi_id": "thorntons-bdbf63"}, "geometry": {"type": "Point", "coordinates": [-88.277327, 40.1158648]}},
{"type": "Feature", "id": "de29srq20dYwBUUctqGG9Xsd-ns=", "properties": {"ref": "400", "@spider": "thorntons", "shop": "confectionery", "addr:full": "1600 South US 31", "addr:city": "Greenwood", "addr:state": "IN", "name": "Thorntons. #400", "phone": "(317) 882-2869", "website": "https://www.mythorntons.com/locations/", "brand": "Thorntons", "brand:wikidata": "Q683102", "nsi_id": "thorntons-bdbf63"}, "geometry": {"type": "Point", "coordinates": [-86.10392, 39.593414]}},
{"type": "Feature", "id": "8oVeSh96w7nRS0Fo3_HTpcVGwoc=", "properties": {"ref": "401", "@spider": "thorntons", "shop": "confectionery", "addr:full": "7020 Pendleton Pike", "addr:city": "Lawrence", "addr:state": "IN", "name": "Thorntons. #401", "phone": "(317) 541-0854", "website": "https://www.mythorntons.com/locations/", "brand": "Thorntons", "brand:wikidata": "Q683102", "nsi_id": "thorntons-bdbf63"}, "geometry": {"type": "Point", "coordinates": [-86.0451249, 39.8281596]}},
{"type": "Feature", "id": "OP8D0tVsUPhNXcFTOlTTG4ldQCg=", "properties": {"ref": "402", "@spider": "thorntons", "shop": "confectionery", "addr:full": "5310 West 10th St", "addr:city": "Indianapolis", "addr:state": "IN", "name": "Thorntons. #402", "phone": "(317) 241-2982", "website": "https://www.mythorntons.com/locations/", "brand": "Thorntons", "brand:wikidata": "Q683102", "nsi_id": "thorntons-bdbf63"}, "geometry": {"type": "Point", "coordinates": [-86.251216, 39.780286]}},
{"type": "Feature", "id": "Uk6jDvg1sU9MVClC_4gVUafIyqQ=", "properties": {"ref": "450", "@spider": "thorntons", "shop": "confectionery", "addr:full": "3333 S. U.S. Rt. 41", "addr:city": "Terre Haute", "addr:state": "IN", "name": "Thorntons. #450", "phone": "(812) 478-1500", "website": "https://www.mythorntons.com/locations/", "brand": "Thorntons", "brand:wikidata": "Q683102", "nsi_id": "thorntons-bdbf63"}, "geometry": {"type": "Point", "coordinates": [-87.415359, 39.428602]}},
{"type": "Feature", "id": "ZoZ-j0WB1lB0OdtCoxmhj6z9mA0=", "properties": {"ref": "500", "@spider": "thorntons", "shop": "confectionery", "addr:full": "3898 Alum Creek Drive", "addr:city": "Columbus", "addr:state": "OH", "name": "Thorntons. #500", "phone": "(614) 409-2584", "website": "https://www.mythorntons.com/locations/", "brand": "Thorntons", "brand:wikidata": "Q683102", "nsi_id": "thorntons-bdbf63"}, "geometry": {"type": "Point", "coordinates": [-82.929354, 39.889587]}},
{"type": "Feature", "id": "ixuusUff-c9ii-btX6_1VuR4cFo=", "properties": {"ref": "501", "@spider": "thorntons", "shop": "confectionery", "addr:full": "2333 N. Wilson Rd.", "addr:city": "Columbus", "addr:state": "OH", "name": "Thorntons. #501", "phone": "(614) 527-8840", "website": "https://www.mythorntons.com/locations/", "brand": "Thorntons", "brand:wikidata": "Q683102", "nsi_id": "thorntons-bdbf63"}, "geometry": {"type": "Point", "coordinates": [-83.1147524, 40.00151]}},
{"type": "Feature", "id": "KGT6dqkyhggcnF7CUwIDwGxWxaA=", "properties": {"ref": "550", "@spider": "thorntons", "shop": "confectionery", "addr:full": "6347 Dixie Highway", "addr:city": "Fairfield", "addr:state": "OH", "name": "Thorntons. #550", "phone": "(513) 942-7603", "website": "https://www.mythorntons.com/locations/", "brand": "Thorntons", "brand:wikidata": "Q683102", "nsi_id": "thorntons-bdbf63"}, "geometry": {"type": "Point", "coordinates": [-84.50542, 39.323011]}},
{"type": "Feature", "id": "04HkgpLN2qXFqzrKLKbm0jAPfuA=", "properties": {"ref": "551", "@spider": "thorntons", "shop": "confectionery", "addr:full": "2225 Sharon Road", "addr:city": "Sharonville", "addr:state": "OH", "name": "Thorntons. #551", "phone": "(513) 771-0041", "website": "https://www.mythorntons.com/locations/", "brand": "Thorntons", "brand:wikidata": "Q683102", "nsi_id": "thorntons-bdbf63"}, "geometry": {"type": "Point", "coordinates": [-84.437925, 39.269628]}},
{"type": "Feature", "id": "0pYDibv94FHsjMF1AEtHwuEcxxk=", "properties": {"ref": "552", "@spider": "thorntons", "shop": "confectionery", "addr:full": "7301 Kingsgate Way", "addr:city": "West Chester", "addr:state": "OH", "name": "Thorntons. #552", "phone": "(513) 777-3514", "website": "https://www.mythorntons.com/locations/", "brand": "Thorntons", "brand:wikidata": "Q683102", "nsi_id": "thorntons-bdbf63"}, "geometry": {"type": "Point", "coordinates": [-84.370306, 39.353543]}},
{"type": "Feature", "id": "Mj-zX-Cg4m22DxxPUm5ix6Olxv4=", "properties": {"ref": "553", "@spider": "thorntons", "shop": "confectionery", "addr:full": "3590 Madison Ave", "addr:city": "Edgewood", "addr:state": "KY", "name": "Thorntons. #553", "phone": "(859) 331-5820", "website": "https://www.mythorntons.com/locations/", "brand": "Thorntons", "brand:wikidata": "Q683102", "nsi_id": "thorntons-bdbf63"}, "geometry": {"type": "Point", "coordinates": [-84.534988, 39.024385]}},
{"type": "Feature", "id": "FSqMQL5OM3ZJZB6uhn0iGN5FUv8=", "properties": {"ref": "554", "@spider": "thorntons", "shop": "confectionery", "addr:full": "798 State Route 28", "addr:city": "Milford", "addr:state": "OH", "name": "Thorntons. #554", "phone": "(513) 248-1394", "website": "https://www.mythorntons.com/locations/", "brand": "Thorntons", "brand:wikidata": "Q683102", "nsi_id": "thorntons-bdbf63"}, "geometry": {"type": "Point", "coordinates": [-84.2675276, 39.1851744]}},
{"type": "Feature", "id": "DnU2mg_oYmXjTzEfNe1v3Py3I6w=", "properties": {"ref": "555", "@spider": "thorntons", "shop": "confectionery", "addr:full": "1005 Town Drive", "addr:city": "Wilder", "addr:state": "KY", "name": "Thorntons. #555", "phone": "(859) 441-5501", "website": "https://www.mythorntons.com/locations/", "brand": "Thorntons", "brand:wikidata": "Q683102", "nsi_id": "thorntons-bdbf63"}, "geometry": {"type": "Point", "coordinates": [-84.4813535, 39.0181826]}},
{"type": "Feature", "id": "820bvxppz2np3L2RokKvWpgyeVs=", "properties": {"ref": "557", "@spider": "thorntons", "shop": "confectionery", "addr:full": "945 West Central Ave.", "addr:city": "Springboro", "addr:state": "OH", "name": "Thorntons. #557", "phone": "(937) 743-5625", "website": "https://www.mythorntons.com/locations/", "brand": "Thorntons", "brand:wikidata": "Q683102", "nsi_id": "thorntons-bdbf63"}, "geometry": {"type": "Point", "coordinates": [-84.265691, 39.562053]}},
{"type": "Feature", "id": "rMhx0-r8ppl8yxDyotkhnxqnxKs=", "properties": {"ref": "558", "@spider": "thorntons", "shop": "confectionery", "addr:full": "3203 W. Galbraith Road", "addr:city": "Cincinnati", "addr:state": "OH", "name": "Thorntons. #558", "phone": "(513) 352-1152", "website": "https://www.mythorntons.com/locations/", "brand": "Thorntons", "brand:wikidata": "Q683102", "nsi_id": "thorntons-bdbf63"}, "geometry": {"type": "Point", "coordinates": [-84.58698, 39.220124]}},
{"type": "Feature", "id": "4MtQAmX884MdwoXiJKWZqU-qRWs=", "properties": {"ref": "559", "@spider": "thorntons", "shop": "confectionery", "addr:full": "1550 Grand Blvd", "addr:city": "Hamilton", "addr:state": "OH", "name": "Thorntons. #559", "phone": "(513) 373-7119", "website": "https://www.mythorntons.com/locations/", "brand": "Thorntons", "brand:wikidata": "Q683102", "nsi_id": "thorntons-bdbf63"}, "geometry": {"type": "Point", "coordinates": [-84.548134, 39.382584]}},
{"type": "Feature", "id": "yRX87H6cgFBpTlrLTb3HOvhJceQ=", "properties": {"ref": "560", "@spider": "thorntons", "shop": "confectionery", "addr:full": "12185 Princeton Pike", "addr:city": "Springdale", "addr:state": "OH", "name": "Thorntons. #560", "phone": "(513) 367-1010", "website": "https://www.mythorntons.com/locations/", "brand": "Thorntons", "brand:wikidata": "Q683102", "nsi_id": "thorntons-bdbf63"}, "geometry": {"type": "Point", "coordinates": [-84.466257, 39.302252]}},
{"type": "Feature", "id": "v3HDHwDHoIbyfDUa1XWrs7JETM0=", "properties": {"ref": "600", "@spider": "thorntons", "shop": "confectionery", "addr:full": "300 Sam Ridley Parkway", "addr:city": "East Smyrna", "addr:state": "TN", "name": "Thorntons. #600", "phone": "(615) 459-6883", "website": "https://www.mythorntons.com/locations/", "brand": "Thorntons", "brand:wikidata": "Q683102", "nsi_id": "thorntons-bdbf63"}, "geometry": {"type": "Point", "coordinates": [-86.4966526, 35.9960383]}},
{"type": "Feature", "id": "2kDQJgR2auVOTRKsPZ_89ANngg0=", "properties": {"ref": "601", "@spider": "thorntons", "shop": "confectionery", "addr:full": "768 E. Main Street", "addr:city": "Hendersonville", "addr:state": "TN", "name": "Thorntons. #601", "phone": "(615) 264-0106", "website": "https://www.mythorntons.com/locations/", "brand": "Thorntons", "brand:wikidata": "Q683102", "nsi_id": "thorntons-bdbf63"}, "geometry": {"type": "Point", "coordinates": [-86.562095, 36.326846]}},
{"type": "Feature", "id": "L6rvYJEmQtyULWI4AE-yEA8ieO4=", "properties": {"ref": "602", "@spider": "thorntons", "shop": "confectionery", "addr:full": "714 Stewarts Ferry Pike", "addr:city": "Nashville", "addr:state": "TN", "name": "Thorntons. #602", "phone": "(615) 883-2250", "website": "https://www.mythorntons.com/locations/", "brand": "Thorntons", "brand:wikidata": "Q683102", "nsi_id": "thorntons-bdbf63"}, "geometry": {"type": "Point", "coordinates": [-86.625609, 36.152499]}},
{"type": "Feature", "id": "DJZzs-QunkHeKZtU-X1cAC01QWo=", "properties": {"ref": "603", "@spider": "thorntons", "shop": "confectionery", "addr:full": "4145 Lebanon Pike", "addr:city": "Hermitage", "addr:state": "TN", "name": "Thorntons. #603", "phone": "(615) 885-5554", "website": "https://www.mythorntons.com/locations/", "brand": "Thorntons", "brand:wikidata": "Q683102", "nsi_id": "thorntons-bdbf63"}, "geometry": {"type": "Point", "coordinates": [-86.617756, 36.200886]}},
{"type": "Feature", "id": "VvyteBKf9D-HVo-TUbddKwI9P2U=", "properties": {"ref": "604", "@spider": "thorntons", "shop": "confectionery", "addr:full": "317 Myatt Drive", "addr:city": "Madison", "addr:state": "TN", "name": "Thorntons. #604", "phone": "(615) 860-0443", "website": "https://www.mythorntons.com/locations/", "brand": "Thorntons", "brand:wikidata": "Q683102", "nsi_id": "thorntons-bdbf63"}, "geometry": {"type": "Point", "coordinates": [-86.689317, 36.271862]}},
{"type": "Feature", "id": "O0dZPdl4kfrPnvqA-htA6CXnZt8=", "properties": {"ref": "605", "@spider": "thorntons", "shop": "confectionery", "addr:full": "925 Old Fort Parkway", "addr:city": "Murfreesboro", "addr:state": "TN", "name": "Thorntons. #605", "phone": "(615) 893-5109", "website": "https://www.mythorntons.com/locations/", "brand": "Thorntons", "brand:wikidata": "Q683102", "nsi_id": "thorntons-bdbf63"}, "geometry": {"type": "Point", "coordinates": [-86.4072721, 35.8461828]}},
{"type": "Feature", "id": "bQbz5YQcnXkmMQQRh1tq2qmEaLY=", "properties": {"ref": "606", "@spider": "thorntons", "shop": "confectionery", "addr:full": "243 Highway 109 North", "addr:city": "Lebanon", "addr:state": "TN", "name": "Thorntons. #606", "phone": "(615) 443-2968", "website": "https://www.mythorntons.com/locations/", "brand": "Thorntons", "brand:wikidata": "Q683102", "nsi_id": "thorntons-bdbf63"}, "geometry": {"type": "Point", "coordinates": [-86.408458, 36.188235]}},
{"type": "Feature", "id": "1oaTbkdlWZeC3to9_t9xg7iJ1Tc=", "properties": {"ref": "607", "@spider": "thorntons", "shop": "confectionery", "addr:full": "13010 Old Hickory Blvd", "addr:city": "Antioch", "addr:state": "TN", "name": "Thorntons. #607", "phone": "(615) 641-2322", "website": "https://www.mythorntons.com/locations/", "brand": "Thorntons", "brand:wikidata": "Q683102", "nsi_id": "thorntons-bdbf63"}, "geometry": {"type": "Point", "coordinates": [-86.621681, 36.016763]}},
{"type": "Feature", "id": "pyWlePX_8KKmX1exC3zNGn-kUAk=", "properties": {"ref": "608", "@spider": "thorntons", "shop": "confectionery", "addr:full": "7102 Charlotte Pike", "addr:city": "Nashville", "addr:state": "TN", "name": "Thorntons. #608", "phone": "(615) 354-8744", "website": "https://www.mythorntons.com/locations/", "brand": "Thorntons", "brand:wikidata": "Q683102", "nsi_id": "thorntons-bdbf63"}, "geometry": {"type": "Point", "coordinates": [-86.907738, 36.128223]}},
{"type": "Feature", "id": "H8W1iMvZKgcfUz_jEQyD3xgAKM0=", "properties": {"ref": "609", "@spider": "thorntons", "shop": "confectionery", "addr:full": "1400 Eagle View Blvd", "addr:city": "Antioch", "addr:state": "TN", "name": "Thorntons. #609", "phone": "(615) 731-6610", "website": "https://www.mythorntons.com/locations/", "brand": "Thorntons", "brand:wikidata": "Q683102", "nsi_id": "thorntons-bdbf63"}, "geometry": {"type": "Point", "coordinates": [-86.6445659, 36.0518685]}},
{"type": "Feature", "id": "JIc5sYL9zEbMSPmXSlwUOYXvGXQ=", "properties": {"ref": "610", "@spider": "thorntons", "shop": "confectionery", "addr:full": "1049 Long Hollow Pike", "addr:city": "Gallatin", "addr:state": "TN", "name": "Thorntons. #610", "phone": "(615) 230-8133", "website": "https://www.mythorntons.com/locations/", "brand": "Thorntons", "brand:wikidata": "Q683102", "nsi_id": "thorntons-bdbf63"}, "geometry": {"type": "Point", "coordinates": [-86.4799923, 36.3866404]}},
{"type": "Feature", "id": "6wHQvfklhKJ4yYdXz3WiDytG4y8=", "properties": {"ref": "611", "@spider": "thorntons", "shop": "confectionery", "addr:full": "2815 Lebanon Pike", "addr:city": "Nashville", "addr:state": "TN", "name": "Thorntons. #611", "phone": "(615) 886-4250", "website": "https://www.mythorntons.com/locations/", "brand": "Thorntons", "brand:wikidata": "Q683102", "nsi_id": "thorntons-bdbf63"}, "geometry": {"type": "Point", "coordinates": [-86.6597646, 36.1672512]}},
{"type": "Feature", "id": "3sScT0ClCtqBQ8iwpeHMQHakZZQ=", "properties": {"ref": "612", "@spider": "thorntons", "shop": "confectionery", "addr:full": "2908 Medical Center Parkway", "addr:city": "Murfreesboro", "addr:state": "TN", "name": "Thorntons. #612", "phone": "(615) 895-6278", "website": "https://www.mythorntons.com/locations/", "brand": "Thorntons", "brand:wikidata": "Q683102", "nsi_id": "thorntons-bdbf63"}, "geometry": {"type": "Point", "coordinates": [-86.4472118, 35.8660765]}},
{"type": "Feature", "id": "SG83eri3vlX2v_E6OLxyit78GuM=", "properties": {"ref": "614", "@spider": "thorntons", "shop": "confectionery", "addr:full": "3500 Murfreesboro Pike", "addr:city": "Antioch", "addr:state": "TN", "name": "Thorntons. #614", "phone": "(615) 864-1541", "website": "https://www.mythorntons.com/locations/", "brand": "Thorntons", "brand:wikidata": "Q683102", "nsi_id": "thorntons-bdbf63"}, "geometry": {"type": "Point", "coordinates": [-86.6210898, 36.0550431]}},
{"type": "Feature", "id": "Ul-FQYBeFpvzWsJasNREPDNIypY=", "properties": {"ref": "615", "@spider": "thorntons", "shop": "confectionery", "addr:full": "120 Luyben Hills Road", "addr:city": "Kingston Springs", "addr:state": "TN", "name": "Thorntons. #615", "phone": "(615) 952-2122", "website": "https://www.mythorntons.com/locations/", "brand": "Thorntons", "brand:wikidata": "Q683102", "nsi_id": "thorntons-bdbf63"}, "geometry": {"type": "Point", "coordinates": [-87.099324, 36.084995]}},
{"type": "Feature", "id": "KX80Q42ag6hv1VouWdWikOB-vuM=", "properties": {"ref": "616", "@spider": "thorntons", "shop": "confectionery", "addr:full": "15025 Central Pike", "addr:city": "Lebanon", "addr:state": "TN", "name": "Thorntons. #616", "phone": "(615) 489-2990", "website": "https://www.mythorntons.com/locations/", "brand": "Thorntons", "brand:wikidata": "Q683102", "nsi_id": "thorntons-bdbf63"}, "geometry": {"type": "Point", "coordinates": [-86.4070426, 36.132699]}},
{"type": "Feature", "id": "18HiCL4SM8tJpHAzWPrVtBGhM4A=", "properties": {"ref": "700", "@spider": "thorntons", "shop": "confectionery", "addr:full": "1698 Gulf to Bay Blvd.", "addr:city": "Clearwater", "addr:state": "FL", "name": "Thorntons. #700", "phone": "(727) 441-1717", "website": "https://www.mythorntons.com/locations/", "brand": "Thorntons", "brand:wikidata": "Q683102", "nsi_id": "thorntons-bdbf63"}, "geometry": {"type": "Point", "coordinates": [-82.767314, 27.961167]}},
{"type": "Feature", "id": "p45KcY1fBdRj3CReq4NG7Lq3E1o=", "properties": {"ref": "701", "@spider": "thorntons", "shop": "confectionery", "addr:full": "8875 Ulmerton Road", "addr:city": "Largo", "addr:state": "FL", "name": "Thorntons. #701", "phone": "(727) 535-1302", "website": "https://www.mythorntons.com/locations/", "brand": "Thorntons", "brand:wikidata": "Q683102", "nsi_id": "thorntons-bdbf63"}, "geometry": {"type": "Point", "coordinates": [-82.761958, 27.894943]}},
{"type": "Feature", "id": "kNsh5I82QTtSwfWUcAAipw0PxA8=", "properties": {"ref": "702", "@spider": "thorntons", "shop": "confectionery", "addr:full": "425 East Brandon Blvd", "addr:city": "Brandon", "addr:state": "FL", "name": "Thorntons. #702", "phone": "(727) 689-7444", "website": "https://www.mythorntons.com/locations/", "brand": "Thorntons", "brand:wikidata": "Q683102", "nsi_id": "thorntons-bdbf63"}, "geometry": {"type": "Point", "coordinates": [-82.280917, 27.937557]}},
{"type": "Feature", "id": "u-b_Jx1yp6ZOtELJ-8G_q22e6w0=", "properties": {"ref": "703", "@spider": "thorntons", "shop": "confectionery", "addr:full": "4103 Gunn Highway", "addr:city": "Tampa", "addr:state": "FL", "name": "Thorntons. #703", "phone": "(813) 961-1399", "website": "https://www.mythorntons.com/locations/", "brand": "Thorntons", "brand:wikidata": "Q683102", "nsi_id": "thorntons-bdbf63"}, "geometry": {"type": "Point", "coordinates": [-82.5085517, 28.0404567]}},
{"type": "Feature", "id": "sxmh7ubHk_yLSYpYR0muYiZ3Pwg=", "properties": {"ref": "704", "@spider": "thorntons", "shop": "confectionery", "addr:full": "9979 Progress Blvd.", "addr:city": "Riverview", "addr:state": "FL", "name": "Thorntons. #704", "phone": "(813) 621-7222", "website": "https://www.mythorntons.com/locations/", "brand": "Thorntons", "brand:wikidata": "Q683102", "nsi_id": "thorntons-bdbf63"}, "geometry": {"type": "Point", "coordinates": [-82.338403, 27.893776]}},
{"type": "Feature", "id": "JZ-1z-PfRIUe3athNhrXutk-nCE=", "properties": {"ref": "705", "@spider": "thorntons", "shop": "confectionery", "addr:full": "6405 W. Hillsborough Ave", "addr:city": "Tampa", "addr:state": "FL", "name": "Thorntons. #705", "phone": "(813) 882-8444", "website": "https://www.mythorntons.com/locations/", "brand": "Thorntons", "brand:wikidata": "Q683102", "nsi_id": "thorntons-bdbf63"}, "geometry": {"type": "Point", "coordinates": [-82.550832, 27.9969455]}},
{"type": "Feature", "id": "YOlPWUDitoc9kCnjWN6xVQoxcXI=", "properties": {"ref": "706", "@spider": "thorntons", "shop": "confectionery", "addr:full": "4850 State Road 64 East", "addr:city": "Bradenton", "addr:state": "FL", "name": "Thorntons. #706", "phone": "(941) 748-1505", "website": "https://www.mythorntons.com/locations/", "brand": "Thorntons", "brand:wikidata": "Q683102", "nsi_id": "thorntons-bdbf63"}, "geometry": {"type": "Point", "coordinates": [-82.500908, 27.496198]}},
{"type": "Feature", "id": "EM28u6NtfdBsRHL1quc0JzBaC4c=", "properties": {"ref": "707", "@spider": "thorntons", "shop": "confectionery", "addr:full": "2356 West hillsborough Av", "addr:city": "Tampa", "addr:state": "FL", "name": "Thorntons. #707", "phone": "(813) 871-5940", "website": "https://www.mythorntons.com/locations/", "brand": "Thorntons", "brand:wikidata": "Q683102", "nsi_id": "thorntons-bdbf63"}, "geometry": {"type": "Point", "coordinates": [-82.483865, 27.995805]}},
{"type": "Feature", "id": "hJYemoTHDu_YT_c9Gc8wU5TM2fk=", "properties": {"ref": "708", "@spider": "thorntons", "shop": "confectionery", "addr:full": "32490 US HWY 19 North", "addr:city": "Palm Harbor", "addr:state": "FL", "name": "Thorntons. #708", "phone": "(727) 787-6479", "website": "https://www.mythorntons.com/locations/", "brand": "Thorntons", "brand:wikidata": "Q683102", "nsi_id": "thorntons-bdbf63"}, "geometry": {"type": "Point", "coordinates": [-82.739454, 28.066657]}},
{"type": "Feature", "id": "uSnyOl1_cYn55ymk-HIdxVuZ38s=", "properties": {"ref": "709", "@spider": "thorntons", "shop": "confectionery", "addr:full": "3780 Tampa Rd", "addr:city": "Oldsmar", "addr:state": "FL", "name": "Thorntons. #709", "phone": "(813) 855-2301", "website": "https://www.mythorntons.com/locations/", "brand": "Thorntons", "brand:wikidata": "Q683102", "nsi_id": "thorntons-bdbf63"}, "geometry": {"type": "Point", "coordinates": [-82.677209, 28.042392]}},
{"type": "Feature", "id": "-QMeFkSlJGEtVfdADKYNvN0XRKc=", "properties": {"ref": "710", "@spider": "thorntons", "shop": "confectionery", "addr:full": "1351 34th Street North", "addr:city": "St. Petersburg", "addr:state": "FL", "name": "Thorntons. #710", "phone": "(727) 321-0568", "website": "https://www.mythorntons.com/locations/", "brand": "Thorntons", "brand:wikidata": "Q683102", "nsi_id": "thorntons-bdbf63"}, "geometry": {"type": "Point", "coordinates": [-82.679584, 27.784512]}},
{"type": "Feature", "id": "Pt0DyDdJ4jVHr-9R-lUGYZuFw4Y=", "properties": {"ref": "711", "@spider": "thorntons", "shop": "confectionery", "addr:full": "10185 Big Bend Rd", "addr:city": "Riverview", "addr:state": "FL", "name": "Thorntons. #711", "phone": "(813) 672-8035", "website": "https://www.mythorntons.com/locations/", "brand": "Thorntons", "brand:wikidata": "Q683102", "nsi_id": "thorntons-bdbf63"}, "geometry": {"type": "Point", "coordinates": [-82.3420505, 27.7912906]}},
{"type": "Feature", "id": "Z4FsYsgQIKp02L0YoYuzN6DF9-A=", "properties": {"ref": "1", "@spider": "thorntons", "shop": "confectionery", "addr:full": "2250 State St.", "addr:city": "New Albany", "addr:state": "IN", "name": "Thorntons. #1", "phone": "(812) 949-2035", "website": "https://www.mythorntons.com/locations/", "brand": "Thorntons", "brand:wikidata": "Q683102", "nsi_id": "thorntons-bdbf63"}, "geometry": {"type": "Point", "coordinates": [-85.8422798, 38.3077027]}},
{"type": "Feature", "id": "CBxKnOdGKZ86-eIH9iwsaZPfmqw=", "properties": {"ref": "2", "@spider": "thorntons", "shop": "confectionery", "addr:full": "2 North Barrington Rd.", "addr:city": "Streamwood", "addr:state": "IL", "name": "Thorntons. #2", "phone": "(630) 289-5959", "website": "https://www.mythorntons.com/locations/", "brand": "Thorntons", "brand:wikidata": "Q683102", "nsi_id": "thorntons-bdbf63"}, "geometry": {"type": "Point", "coordinates": [-88.1450079, 42.0324009]}},
{"type": "Feature", "id": "Sy7oFtforv7dsDwZjwhDmQZBCNw=", "properties": {"ref": "3", "@spider": "thorntons", "shop": "confectionery", "addr:full": "7600 West 159th St.", "addr:city": "Orland Park", "addr:state": "IL", "name": "Thorntons. #3", "phone": "(708) 614-0377", "website": "https://www.mythorntons.com/locations/", "brand": "Thorntons", "brand:wikidata": "Q683102", "nsi_id": "thorntons-bdbf63"}, "geometry": {"type": "Point", "coordinates": [-87.8040657, 41.6022763]}},
{"type": "Feature", "id": "S7-Dn9ujVpTHJgDotzeI8K_w_xU=", "properties": {"ref": "5", "@spider": "thorntons", "shop": "confectionery", "addr:full": "2229 S Cicero Ave", "addr:city": "Cicero", "addr:state": "IL", "name": "Thorntons. #5", "phone": "(708) 222-2203", "website": "https://www.mythorntons.com/locations/", "brand": "Thorntons", "brand:wikidata": "Q683102", "nsi_id": "thorntons-bdbf63"}, "geometry": {"type": "Point", "coordinates": [-87.743732, 41.847561]}},
{"type": "Feature", "id": "vY19uNSggsoCluRKnFrqfcegZfo=", "properties": {"ref": "7", "@spider": "thorntons", "shop": "confectionery", "addr:full": "2640 Mannheim Rd.", "addr:city": "Franklin Park", "addr:state": "IL", "name": "Thorntons. #7", "phone": "(847) 455-3066", "website": "https://www.mythorntons.com/locations/", "brand": "Thorntons", "brand:wikidata": "Q683102", "nsi_id": "thorntons-bdbf63"}, "geometry": {"type": "Point", "coordinates": [-87.8849296, 41.9268215]}},
{"type": "Feature", "id": "zZwNXM_n30ntbxybWOQkgSvt4xg=", "properties": {"ref": "9", "@spider": "thorntons", "shop": "confectionery", "addr:full": "800 W. Lake St.", "addr:city": "Addison", "addr:state": "IL", "name": "Thorntons. #9", "phone": "(630) 543-7511", "website": "https://www.mythorntons.com/locations/", "brand": "Thorntons", "brand:wikidata": "Q683102", "nsi_id": "thorntons-bdbf63"}, "geometry": {"type": "Point", "coordinates": [-88.009461, 41.941426]}},
{"type": "Feature", "id": "Bj8fY3K_9tGM4Uk8t6-3c_rVyHM=", "properties": {"ref": "11", "@spider": "thorntons", "shop": "confectionery", "addr:full": "401 W. Court Ave.", "addr:city": "Jeffersonville", "addr:state": "IN", "name": "Thorntons. #11", "phone": "(812) 284-4796", "website": "https://www.mythorntons.com/locations/", "brand": "Thorntons", "brand:wikidata": "Q683102", "nsi_id": "thorntons-bdbf63"}, "geometry": {"type": "Point", "coordinates": [-85.7457796, 38.2722545]}},
{"type": "Feature", "id": "PmnrydjvUoZ4fR5tkyaBIatUVs4=", "properties": {"ref": "16", "@spider": "thorntons", "shop": "confectionery", "addr:full": "190 East Lake St.", "addr:city": "Bloomingdale", "addr:state": "IL", "name": "Thorntons. #16", "phone": "(630) 894-2546", "website": "https://www.mythorntons.com/locations/", "brand": "Thorntons", "brand:wikidata": "Q683102", "nsi_id": "thorntons-bdbf63"}, "geometry": {"type": "Point", "coordinates": [-88.071104, 41.9570017]}},
{"type": "Feature", "id": "kcqYmZuPxPZ5M3hY3_AVCW6l5Tc=", "properties": {"ref": "18", "@spider": "thorntons", "shop": "confectionery", "addr:full": "601 S. Harlem Ave.", "addr:city": "Forest Park", "addr:state": "IL", "name": "Thorntons. #18", "phone": "(708) 366-1213", "website": "https://www.mythorntons.com/locations/", "brand": "Thorntons", "brand:wikidata": "Q683102", "nsi_id": "thorntons-bdbf63"}, "geometry": {"type": "Point", "coordinates": [-87.804805, 41.875684]}},
{"type": "Feature", "id": "b0H-uPI_InSAOSgfdf0y2Kq62cI=", "properties": {"ref": "19", "@spider": "thorntons", "shop": "confectionery", "addr:full": "1118 Touhy", "addr:city": "Park Ridge", "addr:state": "IL", "name": "Thorntons. #19", "phone": "(847) 692-5559", "website": "https://www.mythorntons.com/locations/", "brand": "Thorntons", "brand:wikidata": "Q683102", "nsi_id": "thorntons-bdbf63"}, "geometry": {"type": "Point", "coordinates": [-87.8397926, 42.0110937]}},
{"type": "Feature", "id": "K97vND2ZLKkTdtmvXCzOxnbU1_Y=", "properties": {"ref": "20", "@spider": "thorntons", "shop": "confectionery", "addr:full": "4500 S. Third St.", "addr:city": "Louisville", "addr:state": "KY", "name": "Thorntons. #20", "phone": "(502) 361-1057", "website": "https://www.mythorntons.com/locations/", "brand": "Thorntons", "brand:wikidata": "Q683102", "nsi_id": "thorntons-bdbf63"}, "geometry": {"type": "Point", "coordinates": [-85.765378, 38.188875]}},
{"type": "Feature", "id": "ZCidIwepZcqw8mELD1XV1U0COIU=", "properties": {"ref": "21", "@spider": "thorntons", "shop": "confectionery", "addr:full": "2700 Fern Valley Rd.", "addr:city": "Louisville", "addr:state": "KY", "name": "Thorntons. #21", "phone": "(502) 966-8919", "website": "https://www.mythorntons.com/locations/", "brand": "Thorntons", "brand:wikidata": "Q683102", "nsi_id": "thorntons-bdbf63"}, "geometry": {"type": "Point", "coordinates": [-85.715496, 38.156906]}},
{"type": "Feature", "id": "ztZS-oBBiagOaY2g5bLN3MTlzto=", "properties": {"ref": "22", "@spider": "thorntons", "shop": "confectionery", "addr:full": "202 East 10th Street", "addr:city": "Jeffersonville", "addr:state": "IN", "name": "Thorntons. #22", "phone": "(812) 283-4650", "website": "https://www.mythorntons.com/locations/", "brand": "Thorntons", "brand:wikidata": "Q683102", "nsi_id": "thorntons-bdbf63"}, "geometry": {"type": "Point", "coordinates": [-85.7443363, 38.2798324]}},
{"type": "Feature", "id": "KmyDU1sovH3klbdexEdeF6jKrvM=", "properties": {"ref": "24", "@spider": "thorntons", "shop": "confectionery", "addr:full": "3726 Taylorsville Rd.", "addr:city": "Louisville", "addr:state": "KY", "name": "Thorntons. #24", "phone": "(502) 479-0067", "website": "https://www.mythorntons.com/locations/", "brand": "Thorntons", "brand:wikidata": "Q683102", "nsi_id": "thorntons-bdbf63"}, "geometry": {"type": "Point", "coordinates": [-85.6440191, 38.2206123]}},
{"type": "Feature", "id": "RjeU4wRfE0Tnn77FwHoWZV7b5-Q=", "properties": {"ref": "26", "@spider": "thorntons", "shop": "confectionery", "addr:full": "14101 Shelbyville Rd.", "addr:city": "Louisville", "addr:state": "KY", "name": "Thorntons. #26", "phone": "(502) 253-0950", "website": "https://www.mythorntons.com/locations/", "brand": "Thorntons", "brand:wikidata": "Q683102", "nsi_id": "thorntons-bdbf63"}, "geometry": {"type": "Point", "coordinates": [-85.487698, 38.239168]}},
{"type": "Feature", "id": "NuOrrfLx5RCDYIjlaWgYVsyH-NI=", "properties": {"ref": "27", "@spider": "thorntons", "shop": "confectionery", "addr:full": "2007 Brownsboro Rd.", "addr:city": "Louisville", "addr:state": "KY", "name": "Thorntons. #27", "phone": "(502) 897-2951", "website": "https://www.mythorntons.com/locations/", "brand": "Thorntons", "brand:wikidata": "Q683102", "nsi_id": "thorntons-bdbf63"}, "geometry": {"type": "Point", "coordinates": [-85.7069668, 38.2598073]}},
{"type": "Feature", "id": "_g0QMc5G7FAjeiT7OE9Erg2l_aw=", "properties": {"ref": "28", "@spider": "thorntons", "shop": "confectionery", "addr:full": "100 West Broadway", "addr:city": "Louisville", "addr:state": "KY", "name": "Thorntons. #28", "phone": "(502) 584-5355", "website": "https://www.mythorntons.com/locations/", "brand": "Thorntons", "brand:wikidata": "Q683102", "nsi_id": "thorntons-bdbf63"}, "geometry": {"type": "Point", "coordinates": [-85.7537814, 38.2455378]}},
{"type": "Feature", "id": "VCzO1xINAJvbD0BJQe-uUf0OquE=", "properties": {"ref": "31", "@spider": "thorntons", "shop": "confectionery", "addr:full": "12412 La Grange Rd.", "addr:city": "Louisville", "addr:state": "KY", "name": "Thorntons. #31", "phone": "(502) 241-4720", "website": "https://www.mythorntons.com/locations/", "brand": "Thorntons", "brand:wikidata": "Q683102", "nsi_id": "thorntons-bdbf63"}, "geometry": {"type": "Point", "coordinates": [-85.511504, 38.2896892]}},
{"type": "Feature", "id": "kBrk50ndOtUbCIvNXrMhuTXwayw=", "properties": {"ref": "34", "@spider": "thorntons", "shop": "confectionery", "addr:full": "605 Lyndon Ln.", "addr:city": "Louisville", "addr:state": "KY", "name": "Thorntons. #34", "phone": "(502) 327-6460", "website": "https://www.mythorntons.com/locations/", "brand": "Thorntons", "brand:wikidata": "Q683102", "nsi_id": "thorntons-bdbf63"}, "geometry": {"type": "Point", "coordinates": [-85.6038945, 38.2591635]}},
{"type": "Feature", "id": "0rnCCFL_ZlyaxWJ7Ul2jS_25IXA=", "properties": {"ref": "36", "@spider": "thorntons", "shop": "confectionery", "addr:full": "4600 Winchester Pike", "addr:city": "Columbus", "addr:state": "OH", "name": "Thorntons. #36", "phone": "(614) 837-3517", "website": "https://www.mythorntons.com/locations/", "brand": "Thorntons", "brand:wikidata": "Q683102", "nsi_id": "thorntons-bdbf63"}, "geometry": {"type": "Point", "coordinates": [-82.8815612, 39.9003318]}},
{"type": "Feature", "id": "wXhCxQ21clUk8Ice0yYsvAiox8M=", "properties": {"ref": "38", "@spider": "thorntons", "shop": "confectionery", "addr:full": "802 N. Broadway", "addr:city": "Lexington", "addr:state": "KY", "name": "Thorntons. #38", "phone": "(859) 255-1341", "website": "https://www.mythorntons.com/locations/", "brand": "Thorntons", "brand:wikidata": "Q683102", "nsi_id": "thorntons-bdbf63"}, "geometry": {"type": "Point", "coordinates": [-84.4837852, 38.0598331]}},
{"type": "Feature", "id": "ZLUYcuDBNNjxHXOSpSHHPSZWCMw=", "properties": {"ref": "39", "@spider": "thorntons", "shop": "confectionery", "addr:full": "524 Lexington Rd.", "addr:city": "Versailles", "addr:state": "KY", "name": "Thorntons. #39", "phone": "(859) 873-2138", "website": "https://www.mythorntons.com/locations/", "brand": "Thorntons", "brand:wikidata": "Q683102", "nsi_id": "thorntons-bdbf63"}, "geometry": {"type": "Point", "coordinates": [-84.7123676, 38.0503792]}},
{"type": "Feature", "id": "cHsqLBz_Z86vbne6qlnYpwTBwC4=", "properties": {"ref": "40", "@spider": "thorntons", "shop": "confectionery", "addr:full": "250 E. Roosevelt Rd.", "addr:city": "Villa Park", "addr:state": "IL", "name": "Thorntons. #40", "phone": "(630) 834-0093", "website": "https://www.mythorntons.com/locations/", "brand": "Thorntons", "brand:wikidata": "Q683102", "nsi_id": "thorntons-bdbf63"}, "geometry": {"type": "Point", "coordinates": [-87.9710335, 41.8609041]}},
{"type": "Feature", "id": "y9aVkH58pW83BzWyXqp7pJ-NWY8=", "properties": {"ref": "41", "@spider": "thorntons", "shop": "confectionery", "addr:full": "5318 Preston Highway", "addr:city": "Louisville", "addr:state": "KY", "name": "Thorntons. #41", "phone": "(502) 964-5211", "website": "https://www.mythorntons.com/locations/", "brand": "Thorntons", "brand:wikidata": "Q683102", "nsi_id": "thorntons-bdbf63"}, "geometry": {"type": "Point", "coordinates": [-85.7092776, 38.1709218]}},
{"type": "Feature", "id": "_d7Mdcj35_a7SWXEE2G_EDNYbRU=", "properties": {"ref": "46", "@spider": "thorntons", "shop": "confectionery", "addr:full": "4731 West Highway 146", "addr:city": "Buckner", "addr:state": "KY", "name": "Thorntons. #46", "phone": "(502) 222-7633", "website": "https://www.mythorntons.com/locations/", "brand": "Thorntons", "brand:wikidata": "Q683102", "nsi_id": "thorntons-bdbf63"}, "geometry": {"type": "Point", "coordinates": [-85.4435563, 38.3721065]}},
{"type": "Feature", "id": "1dV22BGpbB4EWwZQveUEGKzSFvM=", "properties": {"ref": "47", "@spider": "thorntons", "shop": "confectionery", "addr:full": "2980 Hwy 62 E", "addr:city": "Jeffersonville", "addr:state": "IN", "name": "Thorntons. #47", "phone": "(812) 284-0795", "website": "https://www.mythorntons.com/locations/", "brand": "Thorntons", "brand:wikidata": "Q683102", "nsi_id": "thorntons-bdbf63"}, "geometry": {"type": "Point", "coordinates": [-85.7129127, 38.3220068]}},
{"type": "Feature", "id": "JhZCfVlQ2jNmAjINYmIBNi4sCPI=", "properties": {"ref": "48", "@spider": "thorntons", "shop": "confectionery", "addr:full": "1311 Versailles Rd.", "addr:city": "Lexington", "addr:state": "KY", "name": "Thorntons. #48", "phone": "(859) 233-3734", "website": "https://www.mythorntons.com/locations/", "brand": "Thorntons", "brand:wikidata": "Q683102", "nsi_id": "thorntons-bdbf63"}, "geometry": {"type": "Point", "coordinates": [-84.5220185, 38.0502231]}},
{"type": "Feature", "id": "b7coQ52afYiOeewovJyaKuZ_PhM=", "properties": {"ref": "49", "@spider": "thorntons", "shop": "confectionery", "addr:full": "11700 S. Dixie Hwy.", "addr:city": "Louisville", "addr:state": "KY", "name": "Thorntons. #49", "phone": "(502) 933-2083", "website": "https://www.mythorntons.com/locations/", "brand": "Thorntons", "brand:wikidata": "Q683102", "nsi_id": "thorntons-bdbf63"}, "geometry": {"type": "Point", "coordinates": [-85.8806669, 38.0852213]}},
{"type": "Feature", "id": "OQKyAOjzYM5DjA-4eo2NND19W30=", "properties": {"ref": "50", "@spider": "thorntons", "shop": "confectionery", "addr:full": "4520 Dixie Highway", "addr:city": "Louisville", "addr:state": "KY", "name": "Thorntons. #50", "phone": "(502) 448-1050", "website": "https://www.mythorntons.com/locations/", "brand": "Thorntons", "brand:wikidata": "Q683102", "nsi_id": "thorntons-bdbf63"}, "geometry": {"type": "Point", "coordinates": [-85.8193217, 38.1782716]}},
{"type": "Feature", "id": "o4km3ZhbVqYq6R3DIhJC0fQDdDE=", "properties": {"ref": "51", "@spider": "thorntons", "shop": "confectionery", "addr:full": "2300 Woodhill Dr.", "addr:city": "Lexington", "addr:state": "KY", "name": "Thorntons. #51", "phone": "(859) 268-2619", "website": "https://www.mythorntons.com/locations/", "brand": "Thorntons", "brand:wikidata": "Q683102", "nsi_id": "thorntons-bdbf63"}, "geometry": {"type": "Point", "coordinates": [-84.455925, 38.0174575]}},
{"type": "Feature", "id": "aN6LytznoKnS0I5tdBvgmgPqSGM=", "properties": {"ref": "52", "@spider": "thorntons", "shop": "confectionery", "addr:full": "1040 Georgetown Rd.", "addr:city": "Lexington", "addr:state": "KY", "name": "Thorntons. #52", "phone": "(859) 255-5308", "website": "https://www.mythorntons.com/locations/", "brand": "Thorntons", "brand:wikidata": "Q683102", "nsi_id": "thorntons-bdbf63"}, "geometry": {"type": "Point", "coordinates": [-84.5067432, 38.0774326]}},
{"type": "Feature", "id": "CSpEPQzQ7CxhgRrZktyrnPUTlcY=", "properties": {"ref": "53", "@spider": "thorntons", "shop": "confectionery", "addr:full": "2291 Elkhorn Dr.", "addr:city": "Lexington", "addr:state": "KY", "name": "Thorntons. #53", "phone": "(859) 299-6707", "website": "https://www.mythorntons.com/locations/", "brand": "Thorntons", "brand:wikidata": "Q683102", "nsi_id": "thorntons-bdbf63"}, "geometry": {"type": "Point", "coordinates": [-84.4245027, 38.0419418]}},
{"type": "Feature", "id": "lhJqNlfdwFTVURG1EYkgSdQuf3w=", "properties": {"ref": "54", "@spider": "thorntons", "shop": "confectionery", "addr:full": "4154 Bardstown Rd.", "addr:city": "Louisville", "addr:state": "KY", "name": "Thorntons. #54", "phone": "(502) 499-0439", "website": "https://www.mythorntons.com/locations/", "brand": "Thorntons", "brand:wikidata": "Q683102", "nsi_id": "thorntons-bdbf63"}, "geometry": {"type": "Point", "coordinates": [-85.6431859, 38.1896823]}},
{"type": "Feature", "id": "La0poSQO1Ka981v1lWD5vjchP7g=", "properties": {"ref": "56", "@spider": "thorntons", "shop": "confectionery", "addr:full": "8400 Dixie Highway", "addr:city": "Louisville", "addr:state": "KY", "name": "Thorntons. #56", "phone": "(502) 933-5344", "website": "https://www.mythorntons.com/locations/", "brand": "Thorntons", "brand:wikidata": "Q683102", "nsi_id": "thorntons-bdbf63"}, "geometry": {"type": "Point", "coordinates": [-85.848573, 38.129865]}},
{"type": "Feature", "id": "HHxf4Yyc3Ugue3vT_znYiKe66e4=", "properties": {"ref": "57", "@spider": "thorntons", "shop": "confectionery", "addr:full": "10320 Westport Rd.", "addr:city": "Louisville", "addr:state": "KY", "name": "Thorntons. #57", "phone": "(502) 339-8639", "website": "https://www.mythorntons.com/locations/", "brand": "Thorntons", "brand:wikidata": "Q683102", "nsi_id": "thorntons-bdbf63"}, "geometry": {"type": "Point", "coordinates": [-85.5594436, 38.2932409]}},
{"type": "Feature", "id": "zkScSveWTtnRCuHj12XL6kLSPc8=", "properties": {"ref": "60", "@spider": "thorntons", "shop": "confectionery", "addr:full": "3320 Preston Highway", "addr:city": "Louisville", "addr:state": "KY", "name": "Thorntons. #60", "phone": "(502) 366-4047", "website": "https://www.mythorntons.com/locations/", "brand": "Thorntons", "brand:wikidata": "Q683102", "nsi_id": "thorntons-bdbf63"}, "geometry": {"type": "Point", "coordinates": [-85.7332693, 38.1996514]}},
{"type": "Feature", "id": "y16N1kXQ_kSOoRxd1O8DMPZFvk8=", "properties": {"ref": "61", "@spider": "thorntons", "shop": "confectionery", "addr:full": "2000 Seventh Street Rd.", "addr:city": "Louisville", "addr:state": "KY", "name": "Thorntons. #61", "phone": "(502) 634-5646", "website": "https://www.mythorntons.com/locations/", "brand": "Thorntons", "brand:wikidata": "Q683102", "nsi_id": "thorntons-bdbf63"}, "geometry": {"type": "Point", "coordinates": [-85.777911, 38.220059]}},
{"type": "Feature", "id": "l6aC7UyVEaEi8EBXyusIWHxf4zI=", "properties": {"ref": "63", "@spider": "thorntons", "shop": "confectionery", "addr:full": "2568 W. North Bend Rd.", "addr:city": "Cincinnati", "addr:state": "OH", "name": "Thorntons. #63", "phone": "(513) 542-2235", "website": "https://www.mythorntons.com/locations/", "brand": "Thorntons", "brand:wikidata": "Q683102", "nsi_id": "thorntons-bdbf63"}, "geometry": {"type": "Point", "coordinates": [-84.5704042, 39.1916304]}},
{"type": "Feature", "id": "CQc9eaVTfZinMwKl7SSGKZ06A4E=", "properties": {"ref": "64", "@spider": "thorntons", "shop": "confectionery", "addr:full": "3909 Highway 31E", "addr:city": "Clarksville", "addr:state": "IN", "name": "Thorntons. #64", "phone": "(812) 283-7881", "website": "https://www.mythorntons.com/locations/", "brand": "Thorntons", "brand:wikidata": "Q683102", "nsi_id": "thorntons-bdbf63"}, "geometry": {"type": "Point", "coordinates": [-85.7518619, 38.3214422]}},
{"type": "Feature", "id": "hrnek461J5GtQ9Gv8qIfV7ffRTU=", "properties": {"ref": "65", "@spider": "thorntons", "shop": "confectionery", "addr:full": "4530 Reading Rd.", "addr:city": "Cincinnati", "addr:state": "OH", "name": "Thorntons. #65", "phone": "(513) 242-3548", "website": "https://www.mythorntons.com/locations/", "brand": "Thorntons", "brand:wikidata": "Q683102", "nsi_id": "thorntons-bdbf63"}, "geometry": {"type": "Point", "coordinates": [-84.4700469, 39.1670447]}},
{"type": "Feature", "id": "7yGX65p5WjhpRb1vv1il0GGUPKI=", "properties": {"ref": "66", "@spider": "thorntons", "shop": "confectionery", "addr:full": "1771 Norton Rd.", "addr:city": "Galloway", "addr:state": "OH", "name": "Thorntons. #66", "phone": "(614) 878-5471", "website": "https://www.mythorntons.com/locations/", "brand": "Thorntons", "brand:wikidata": "Q683102", "nsi_id": "thorntons-bdbf63"}, "geometry": {"type": "Point", "coordinates": [-83.1444228, 39.9149215]}},
{"type": "Feature", "id": "OdFRZ-UV5RVst7SK8RYWcn9mIhc=", "properties": {"ref": "70", "@spider": "thorntons", "shop": "confectionery", "addr:full": "4990 W. Broad St.", "addr:city": "Columbus", "addr:state": "OH", "name": "Thorntons. #70", "phone": "(614) 870-1366", "website": "https://www.mythorntons.com/locations/", "brand": "Thorntons", "brand:wikidata": "Q683102", "nsi_id": "thorntons-bdbf63"}, "geometry": {"type": "Point", "coordinates": [-83.1337835, 39.9524385]}},
{"type": "Feature", "id": "CPshKUV0MpGpAE40XOhFUaPwuuc=", "properties": {"ref": "72", "@spider": "thorntons", "shop": "confectionery", "addr:full": "7601 Industrial Rd.", "addr:city": "Florence", "addr:state": "KY", "name": "Thorntons. #72", "phone": "(859) 283-0781", "website": "https://www.mythorntons.com/locations/", "brand": "Thorntons", "brand:wikidata": "Q683102", "nsi_id": "thorntons-bdbf63"}, "geometry": {"type": "Point", "coordinates": [-84.6358511, 38.985703]}},
{"type": "Feature", "id": "9cJTG9kHWeJ_cThTLUZKMZPjefY=", "properties": {"ref": "73", "@spider": "thorntons", "shop": "confectionery", "addr:full": "3045 Dixie Highway", "addr:city": "Erlanger", "addr:state": "KY", "name": "Thorntons. #73", "phone": "(859) 331-7931", "website": "https://www.mythorntons.com/locations/", "brand": "Thorntons", "brand:wikidata": "Q683102", "nsi_id": "thorntons-bdbf63"}, "geometry": {"type": "Point", "coordinates": [-84.58677, 39.0217096]}},
{"type": "Feature", "id": "1T4MwTG_rBqbHcBU4lyWAA1NizU=", "properties": {"ref": "74", "@spider": "thorntons", "shop": "confectionery", "addr:full": "1030 Reading Rd.", "addr:city": "Mason", "addr:state": "OH", "name": "Thorntons. #74", "phone": "(513) 398-2914", "website": "https://www.mythorntons.com/locations/", "brand": "Thorntons", "brand:wikidata": "Q683102", "nsi_id": "thorntons-bdbf63"}, "geometry": {"type": "Point", "coordinates": [-84.3394192, 39.3395387]}},
{"type": "Feature", "id": "tR7g-jDCe-iZQeE52EPhh4U5F4s=", "properties": {"ref": "75", "@spider": "thorntons", "shop": "confectionery", "addr:full": "664 Riverside Dr.", "addr:city": "Hamilton", "addr:state": "OH", "name": "Thorntons. #75", "phone": "(513) 863-0724", "website": "https://www.mythorntons.com/locations/", "brand": "Thorntons", "brand:wikidata": "Q683102", "nsi_id": "thorntons-bdbf63"}, "geometry": {"type": "Point", "coordinates": [-84.5349477, 39.4416967]}},
{"type": "Feature", "id": "-z3rEV0OF4ZgzAZk0ypwy02bnF0=", "properties": {"ref": "78", "@spider": "thorntons", "shop": "confectionery", "addr:full": "2265 S. State Rd. 46", "addr:city": "Terre Haute", "addr:state": "IN", "name": "Thorntons. #78", "phone": "(812) 877-6260", "website": "https://www.mythorntons.com/locations/", "brand": "Thorntons", "brand:wikidata": "Q683102", "nsi_id": "thorntons-bdbf63"}, "geometry": {"type": "Point", "coordinates": [-87.3332, 39.4345]}},
{"type": "Feature", "id": "BrVzBAjNVJgHQ6rikvxzlspmee8=", "properties": {"ref": "79", "@spider": "thorntons", "shop": "confectionery", "addr:full": "2855 Highway #41", "addr:city": "Henderson", "addr:state": "KY", "name": "Thorntons. #79", "phone": "(270) 827-5801", "website": "https://www.mythorntons.com/locations/", "brand": "Thorntons", "brand:wikidata": "Q683102", "nsi_id": "thorntons-bdbf63"}, "geometry": {"type": "Point", "coordinates": [-87.5661966, 37.8791219]}},
{"type": "Feature", "id": "DfVVySQKj5PSpa7qIRI8bi6eofE=", "properties": {"ref": "80", "@spider": "thorntons", "shop": "confectionery", "addr:full": "2330 South Third St.", "addr:city": "Terre Haute", "addr:state": "IN", "name": "Thorntons. #80", "phone": "(812) 234-3102", "website": "https://www.mythorntons.com/locations/", "brand": "Thorntons", "brand:wikidata": "Q683102", "nsi_id": "thorntons-bdbf63"}, "geometry": {"type": "Point", "coordinates": [-87.4133181, 39.4414647]}},
{"type": "Feature", "id": "b8HqrRuGi_EK2wlvPSX-r_W-UDE=", "properties": {"ref": "82", "@spider": "thorntons", "shop": "confectionery", "addr:full": "2401 Morgan Ave.", "addr:city": "Evansville", "addr:state": "IN", "name": "Thorntons. #82", "phone": "(812) 477-0669", "website": "https://www.mythorntons.com/locations/", "brand": "Thorntons", "brand:wikidata": "Q683102", "nsi_id": "thorntons-bdbf63"}, "geometry": {"type": "Point", "coordinates": [-87.5194264, 37.9913862]}},
{"type": "Feature", "id": "zCJbMWGYZUGR5F7L9xOz55GCH5M=", "properties": {"ref": "83", "@spider": "thorntons", "shop": "confectionery", "addr:full": "701 S. Green River Rd.", "addr:city": "Evansville", "addr:state": "IN", "name": "Thorntons. #83", "phone": "(812) 477-5464", "website": "https://www.mythorntons.com/locations/", "brand": "Thorntons", "brand:wikidata": "Q683102", "nsi_id": "thorntons-bdbf63"}, "geometry": {"type": "Point", "coordinates": [-87.4931418, 37.9677495]}},
{"type": "Feature", "id": "2iTA0NcxiU6AZUOmG2rwwsZaLSQ=", "properties": {"ref": "84", "@spider": "thorntons", "shop": "confectionery", "addr:full": "813 N. St. Joseph", "addr:city": "Evansville", "addr:state": "IN", "name": "Thorntons. #84", "phone": "(812) 425-0035", "website": "https://www.mythorntons.com/locations/", "brand": "Thorntons", "brand:wikidata": "Q683102", "nsi_id": "thorntons-bdbf63"}, "geometry": {"type": "Point", "coordinates": [-87.6001272, 37.9854928]}},
{"type": "Feature", "id": "6ifyUdpaW2ShIiK-njOb_AxJ0Gk=", "properties": {"ref": "85", "@spider": "thorntons", "shop": "confectionery", "addr:full": "114 Rosenberger Ave.", "addr:city": "Evansville", "addr:state": "IN", "name": "Thorntons. #85", "phone": "(812) 422-6251", "website": "https://www.mythorntons.com/locations/", "brand": "Thorntons", "brand:wikidata": "Q683102", "nsi_id": "thorntons-bdbf63"}, "geometry": {"type": "Point", "coordinates": [-87.6274923, 37.9783251]}},
{"type": "Feature", "id": "NEDlYFgkP4-Ylvm7tPCX53NfrxQ=", "properties": {"ref": "86", "@spider": "thorntons", "shop": "confectionery", "addr:full": "1000 N. Green St.", "addr:city": "Henderson", "addr:state": "KY", "name": "Thorntons. #86", "phone": "(270) 826-4256", "website": "https://www.mythorntons.com/locations/", "brand": "Thorntons", "brand:wikidata": "Q683102", "nsi_id": "thorntons-bdbf63"}, "geometry": {"type": "Point", "coordinates": [-87.581658, 37.849549]}},
{"type": "Feature", "id": "Lyk6DQQerUvICzgWwLzNpSmYLm0=", "properties": {"ref": "87", "@spider": "thorntons", "shop": "confectionery", "addr:full": "2000 U.S. 41 North", "addr:city": "Henderson", "addr:state": "KY", "name": "Thorntons. #87", "phone": "(270) 826-2848", "website": "https://www.mythorntons.com/locations/", "brand": "Thorntons", "brand:wikidata": "Q683102", "nsi_id": "thorntons-bdbf63"}, "geometry": {"type": "Point", "coordinates": [-87.573533, 37.8638796]}},
{"type": "Feature", "id": "B_RDbaojjTeysLDWPJN3-TEkYmM=", "properties": {"ref": "88", "@spider": "thorntons", "shop": "confectionery", "addr:full": "6300 Morgan Ave.", "addr:city": "Evansville", "addr:state": "IN", "name": "Thorntons. #88", "phone": "(812) 477-4886", "website": "https://www.mythorntons.com/locations/", "brand": "Thorntons", "brand:wikidata": "Q683102", "nsi_id": "thorntons-bdbf63"}, "geometry": {"type": "Point", "coordinates": [-87.4745035, 37.9952542]}},
{"type": "Feature", "id": "lEdhBDUC5Mqps2ccK3MHKdxXQzM=", "properties": {"ref": "89", "@spider": "thorntons", "shop": "confectionery", "addr:full": "441 Redding Rd.", "addr:city": "Lexington", "addr:state": "KY", "name": "Thorntons. #89", "phone": "(859) 273-2368", "website": "https://www.mythorntons.com/locations/", "brand": "Thorntons", "brand:wikidata": "Q683102", "nsi_id": "thorntons-bdbf63"}, "geometry": {"type": "Point", "coordinates": [-84.4952897, 37.9833204]}},
{"type": "Feature", "id": "7o_FDrFNPBJlbyHZ8T9ctM1Ac2w=", "properties": {"ref": "90", "@spider": "thorntons", "shop": "confectionery", "addr:full": "1120 Winchester Rd.", "addr:city": "Lexington", "addr:state": "KY", "name": "Thorntons. #90", "phone": "(859) 254-8407", "website": "https://www.mythorntons.com/locations/", "brand": "Thorntons", "brand:wikidata": "Q683102", "nsi_id": "thorntons-bdbf63"}, "geometry": {"type": "Point", "coordinates": [-84.4637381, 38.0420626]}},
{"type": "Feature", "id": "l7tg87w_7L4FE6p33bMw6SKORZs=", "properties": {"ref": "92", "@spider": "thorntons", "shop": "confectionery", "addr:full": "1830 Midland Trail Rd.", "addr:city": "Shelbyville", "addr:state": "KY", "name": "Thorntons. #92", "phone": "(502) 633-9415", "website": "https://www.mythorntons.com/locations/", "brand": "Thorntons", "brand:wikidata": "Q683102", "nsi_id": "thorntons-bdbf63"}, "geometry": {"type": "Point", "coordinates": [-85.2479937, 38.2123243]}},
{"type": "Feature", "id": "wSVoK9VB7qYUJ5-0CDsqhF776sg=", "properties": {"ref": "93", "@spider": "thorntons", "shop": "confectionery", "addr:full": "1501 Dixie Highway", "addr:city": "Louisville", "addr:state": "KY", "name": "Thorntons. #93", "phone": "(502) 775-5561", "website": "https://www.mythorntons.com/locations/", "brand": "Thorntons", "brand:wikidata": "Q683102", "nsi_id": "thorntons-bdbf63"}, "geometry": {"type": "Point", "coordinates": [-85.7903594, 38.2280494]}},
{"type": "Feature", "id": "MBgUt6hX5384IjuQVtfODFPaAiQ=", "properties": {"ref": "94", "@spider": "thorntons", "shop": "confectionery", "addr:full": "1804 New Blankenbaker", "addr:city": "Louisville", "addr:state": "KY", "name": "Thorntons. #94", "phone": "(502) 266-5098", "website": "https://www.mythorntons.com/locations/", "brand": "Thorntons", "brand:wikidata": "Q683102", "nsi_id": "thorntons-bdbf63"}, "geometry": {"type": "Point", "coordinates": [-85.5394191, 38.2159708]}},
{"type": "Feature", "id": "heGUBl_To5xUr62XcnU5hvMGwLk=", "properties": {"ref": "95", "@spider": "thorntons", "shop": "confectionery", "addr:full": "13314 Shelbyville Rd.", "addr:city": "Louisville", "addr:state": "KY", "name": "Thorntons. #95", "phone": "(502) 245-5180", "website": "https://www.mythorntons.com/locations/", "brand": "Thorntons", "brand:wikidata": "Q683102", "nsi_id": "thorntons-bdbf63"}, "geometry": {"type": "Point", "coordinates": [-85.5087425, 38.2421455]}},
{"type": "Feature", "id": "DSpTRNHpqEI9qhX6uMwn6Xyd4Cw=", "properties": {"ref": "96", "@spider": "thorntons", "shop": "confectionery", "addr:full": "4516 Poplar Level Rd.", "addr:city": "Louisville", "addr:state": "KY", "name": "Thorntons. #96", "phone": "(502) 964-6570", "website": "https://www.mythorntons.com/locations/", "brand": "Thorntons", "brand:wikidata": "Q683102", "nsi_id": "thorntons-bdbf63"}, "geometry": {"type": "Point", "coordinates": [-85.702229, 38.1872005]}},
{"type": "Feature", "id": "PerGCuT7F3WDSrCXmpLsoXg2xTo=", "properties": {"ref": "97", "@spider": "thorntons", "shop": "confectionery", "addr:full": "4500 Shelbyville Rd.", "addr:city": "Louisville", "addr:state": "KY", "name": "Thorntons. #97", "phone": "(502) 896-2654", "website": "https://www.mythorntons.com/locations/", "brand": "Thorntons", "brand:wikidata": "Q683102", "nsi_id": "thorntons-bdbf63"}, "geometry": {"type": "Point", "coordinates": [-85.6334332, 38.2508684]}},
{"type": "Feature", "id": "AU3X9p_Ac4kqFpBysQgQRN11drg=", "properties": {"ref": "98", "@spider": "thorntons", "shop": "confectionery", "addr:full": "4136 Cane Run Rd.", "addr:city": "Louisville", "addr:state": "KY", "name": "Thorntons. #98", "phone": "(502) 448-7426", "website": "https://www.mythorntons.com/locations/", "brand": "Thorntons", "brand:wikidata": "Q683102", "nsi_id": "thorntons-bdbf63"}, "geometry": {"type": "Point", "coordinates": [-85.8327608, 38.2033628]}},
{"type": "Feature", "id": "gMmUlq5JWqJNunl2Qp7X6kAGV7g=", "properties": {"ref": "102", "@spider": "thorntons", "shop": "confectionery", "addr:full": "3909 Taylorsville Rd.", "addr:city": "Louisville", "addr:state": "KY", "name": "Thorntons. #102", "phone": "(502) 459-6424", "website": "https://www.mythorntons.com/locations/", "brand": "Thorntons", "brand:wikidata": "Q683102", "nsi_id": "thorntons-bdbf63"}, "geometry": {"type": "Point", "coordinates": [-85.6289429, 38.220563]}},
{"type": "Feature", "id": "yBsQuNYSEFcnMFT_UggSfxAHfhc=", "properties": {"ref": "106", "@spider": "thorntons", "shop": "confectionery", "addr:full": "12001 N. US 31", "addr:city": "Edinburgh", "addr:state": "IN", "name": "Thorntons. #106", "phone": "(812) 526-2084", "website": "https://www.mythorntons.com/locations/", "brand": "Thorntons", "brand:wikidata": "Q683102", "nsi_id": "thorntons-bdbf63"}, "geometry": {"type": "Point", "coordinates": [-85.9652265, 39.3119418]}},
{"type": "Feature", "id": "xEs_rrtoFbnIT3Vw6GLI4lELSLE=", "properties": {"ref": "107", "@spider": "thorntons", "shop": "confectionery", "addr:full": "5760 Crawfordsville Rd.", "addr:city": "Speedway", "addr:state": "IN", "name": "Thorntons. #107", "phone": "(317) 247-5021", "website": "https://www.mythorntons.com/locations/", "brand": "Thorntons", "brand:wikidata": "Q683102", "nsi_id": "thorntons-bdbf63"}, "geometry": {"type": "Point", "coordinates": [-86.2615411, 39.7969942]}},
{"type": "Feature", "id": "bhAU5qzjiPYBl9wE_V34UPmSyQQ=", "properties": {"ref": "108", "@spider": "thorntons", "shop": "confectionery", "addr:full": "7425 E. Washington St.", "addr:city": "Indianapolis", "addr:state": "IN", "name": "Thorntons. #108", "phone": "(317) 359-2987", "website": "https://www.mythorntons.com/locations/", "brand": "Thorntons", "brand:wikidata": "Q683102", "nsi_id": "thorntons-bdbf63"}, "geometry": {"type": "Point", "coordinates": [-86.0366873, 39.7721491]}},
{"type": "Feature", "id": "wvAHvLrRt_tm11_ICbfCURllXgk=", "properties": {"ref": "110", "@spider": "thorntons", "shop": "confectionery", "addr:full": "4015 E. 82nd St.", "addr:city": "Indianapolis", "addr:state": "IN", "name": "Thorntons. #110", "phone": "(317) 578-3637", "website": "https://www.mythorntons.com/locations/", "brand": "Thorntons", "brand:wikidata": "Q683102", "nsi_id": "thorntons-bdbf63"}, "geometry": {"type": "Point", "coordinates": [-86.0977571, 39.9074095]}},
{"type": "Feature", "id": "JssX9kpHDBAsWwbR8TRyoGLT23Y=", "properties": {"ref": "111", "@spider": "thorntons", "shop": "confectionery", "addr:full": "12052 S. Western Ave.", "addr:city": "Blue Island", "addr:state": "IL", "name": "Thorntons. #111", "phone": "(708) 385-2255", "website": "https://www.mythorntons.com/locations/", "brand": "Thorntons", "brand:wikidata": "Q683102", "nsi_id": "thorntons-bdbf63"}, "geometry": {"type": "Point", "coordinates": [-87.6808937, 41.6741143]}},
{"type": "Feature", "id": "YoH5mis5saTxo3avCMPej3h20SU=", "properties": {"ref": "112", "@spider": "thorntons", "shop": "confectionery", "addr:full": "14805 S. Cicero Ave.", "addr:city": "Oak Forest", "addr:state": "IL", "name": "Thorntons. #112", "phone": "(708) 535-1348", "website": "https://www.mythorntons.com/locations/", "brand": "Thorntons", "brand:wikidata": "Q683102", "nsi_id": "thorntons-bdbf63"}, "geometry": {"type": "Point", "coordinates": [-87.7367506, 41.622872]}},
{"type": "Feature", "id": "8nUxNKRSoTrCiPcamjaWXjbrvdw=", "properties": {"ref": "113", "@spider": "thorntons", "shop": "confectionery", "addr:full": "9138 Cicero Ave. S.", "addr:city": "Oaklawn", "addr:state": "IL", "name": "Thorntons. #113", "phone": "(708) 229-0708", "website": "https://www.mythorntons.com/locations/", "brand": "Thorntons", "brand:wikidata": "Q683102", "nsi_id": "thorntons-bdbf63"}, "geometry": {"type": "Point", "coordinates": [-87.7413524, 41.7260563]}},
{"type": "Feature", "id": "sXyCgMHCBUMjlaYiZRfxst4gh4U=", "properties": {"ref": "114", "@spider": "thorntons", "shop": "confectionery", "addr:full": "180 E. Rollins Rd.", "addr:city": "Round Lake Beach", "addr:state": "IL", "name": "Thorntons. #114", "phone": "(847) 740-8021", "website": "https://www.mythorntons.com/locations/", "brand": "Thorntons", "brand:wikidata": "Q683102", "nsi_id": "thorntons-bdbf63"}, "geometry": {"type": "Point", "coordinates": [-88.078294, 42.379161]}},
{"type": "Feature", "id": "n7V8SvHuiNHDkWuh6z0cG4MJo04=", "properties": {"ref": "115", "@spider": "thorntons", "shop": "confectionery", "addr:full": "800 Northwest Highway", "addr:city": "Cary", "addr:state": "IL", "name": "Thorntons. #115", "phone": "(847) 516-2210", "website": "https://www.mythorntons.com/locations/", "brand": "Thorntons", "brand:wikidata": "Q683102", "nsi_id": "thorntons-bdbf63"}, "geometry": {"type": "Point", "coordinates": [-88.26092, 42.219667]}},
{"type": "Feature", "id": "NrmH78wFo0fy8QJq5auHLcvTIok=", "properties": {"ref": "116", "@spider": "thorntons", "shop": "confectionery", "addr:full": "1602 Essington Rd.", "addr:city": "Joliet", "addr:state": "IL", "name": "Thorntons. #116", "phone": "(815) 436-0633", "website": "https://www.mythorntons.com/locations/", "brand": "Thorntons", "brand:wikidata": "Q683102", "nsi_id": "thorntons-bdbf63"}, "geometry": {"type": "Point", "coordinates": [-88.160729, 41.55141]}},
{"type": "Feature", "id": "yYQwcmdZDsMq2Jz8RbqzmlUzJDw=", "properties": {"ref": "117", "@spider": "thorntons", "shop": "confectionery", "addr:full": "900 N. La Fox St.", "addr:city": "South Elgin", "addr:state": "IL", "name": "Thorntons. #117", "phone": "(847) 608-8295", "website": "https://www.mythorntons.com/locations/", "brand": "Thorntons", "brand:wikidata": "Q683102", "nsi_id": "thorntons-bdbf63"}, "geometry": {"type": "Point", "coordinates": [-88.2969217, 42.0035332]}},
{"type": "Feature", "id": "cMieH5nS6vucpDBg2RKyIOf2FpY=", "properties": {"ref": "118", "@spider": "thorntons", "shop": "confectionery", "addr:full": "15800 S Route 59", "addr:city": "Plainfield", "addr:state": "IL", "name": "Thorntons. #118", "phone": "(815) 439-9302", "website": "https://www.mythorntons.com/locations/", "brand": "Thorntons", "brand:wikidata": "Q683102", "nsi_id": "thorntons-bdbf63"}, "geometry": {"type": "Point", "coordinates": [-88.2021794, 41.5951641]}},
{"type": "Feature", "id": "j_4Qqf2V6UDNcXjhOhCGmRt2yoE=", "properties": {"ref": "119", "@spider": "thorntons", "shop": "confectionery", "addr:full": "2265 W. Algonquin", "addr:city": "Lake in the Hills", "addr:state": "IL", "name": "Thorntons. #119", "phone": "(847) 458-0470", "website": "https://www.mythorntons.com/locations/", "brand": "Thorntons", "brand:wikidata": "Q683102", "nsi_id": "thorntons-bdbf63"}, "geometry": {"type": "Point", "coordinates": [-88.3300652, 42.1753428]}},
{"type": "Feature", "id": "euvKNw3bHp4inuZxqeA0Lst5o9s=", "properties": {"ref": "121", "@spider": "thorntons", "shop": "confectionery", "addr:full": "2401 63rd St.", "addr:city": "Woodridge", "addr:state": "IL", "name": "Thorntons. #121", "phone": "(630) 271-0020", "website": "https://www.mythorntons.com/locations/", "brand": "Thorntons", "brand:wikidata": "Q683102", "nsi_id": "thorntons-bdbf63"}, "geometry": {"type": "Point", "coordinates": [-88.0421261, 41.7718441]}},
{"type": "Feature", "id": "Gn8c0UqWsMkVdicTybXKzVmqHjc=", "properties": {"ref": "122", "@spider": "thorntons", "shop": "confectionery", "addr:full": "2310 York Rd.", "addr:city": "Elk Grove Village", "addr:state": "IL", "name": "Thorntons. #122", "phone": "(847) 238-0106", "website": "https://www.mythorntons.com/locations/", "brand": "Thorntons", "brand:wikidata": "Q683102", "nsi_id": "thorntons-bdbf63"}, "geometry": {"type": "Point", "coordinates": [-87.940493, 41.992958]}},
{"type": "Feature", "id": "foZWCeuGOI8mg4pyDKh8AB_U7zw=", "properties": {"ref": "123", "@spider": "thorntons", "shop": "confectionery", "addr:full": "1330 W. Lake St.", "addr:city": "Roselle", "addr:state": "IL", "name": "Thorntons. #123", "phone": "(630) 893-5287", "website": "https://www.mythorntons.com/locations/", "brand": "Thorntons", "brand:wikidata": "Q683102", "nsi_id": "thorntons-bdbf63"}, "geometry": {"type": "Point", "coordinates": [-88.114386, 41.97018]}}]}