{"type":"FeatureCollection","features":[{"type": "Feature", "id": "7iYYU0-TkSTaAOnD8zT0Lp1vPkg=", "properties": {"ref": "aloma-lakemont-winter-park", "@spider": "tijuanaflats", "amenity": "restaurant", "cuisine": "mexican", "addr:full": "1955 Aloma Ave. ", "addr:city": "Winter Park", "addr:state": "FL", "addr:postcode": "32792", "name": "Aloma & Lakemont - Tijuana Flats", "phone": "(407) 679-2132", "website": "https://www.tijuanaflats.com/locations/aloma-lakemont-winter-park", "opening_hours": "Tues-Sat 11 AM - 10 PM; Sun-Mon 11 AM - 9 PM", "brand": "Tijuana Flats", "brand:wikidata": "Q7801833", "nsi_id": "tijuanaflats-96af40"}, "geometry": {"type": "Point", "coordinates": [-81.3262535, 28.6013201]}},
{"type": "Feature", "id": "2W-SLmrWCdvK4wssHKNjH_6th8k=", "properties": {"ref": "altamonte-springs", "@spider": "tijuanaflats", "amenity": "restaurant", "cuisine": "mexican", "addr:full": "895 E. Altamonte Dr.", "addr:city": " Altamonte Springs", "addr:state": "FL", "addr:postcode": "32701", "name": "Altamonte Springs - Tijuana Flats", "phone": "(407) 478-3461", "website": "https://www.tijuanaflats.com/locations/altamonte-springs", "opening_hours": "Tues-Sat 11 AM - 10 PM; Sun-Mon 11 AM - 9 PM", "brand": "Tijuana Flats", "brand:wikidata": "Q7801833", "nsi_id": "tijuanaflats-96af40"}, "geometry": {"type": "Point", "coordinates": [-81.36009869999998, 28.6636428]}},
{"type": "Feature", "id": "Ki1dPmhl8Wn8B57_RcSh_29otyU=", "properties": {"ref": "apopka-west-orange-blossom-trail", "@spider": "tijuanaflats", "amenity": "restaurant", "cuisine": "mexican", "addr:full": "1099 W. Orange Blossom Trail", "addr:city": "Apopka", "addr:state": "FL", "addr:postcode": "32712", "name": "Apopka - Tijuana Flats", "phone": "(321) 248-8698", "website": "https://www.tijuanaflats.com/locations/apopka-west-orange-blossom-trail", "opening_hours": "Tues-Sat 11 AM - 9:30 PM; Sun-Mon 11 AM - 9 PM", "brand": "Tijuana Flats", "brand:wikidata": "Q7801833", "nsi_id": "tijuanaflats-96af40"}, "geometry": {"type": "Point", "coordinates": [-81.5322792, 28.6853399]}},
{"type": "Feature", "id": "zzIxb3qpKrob_tYMdUnXd6HvAmY=", "properties": {"ref": "avalon-park-orlando", "@spider": "tijuanaflats", "amenity": "restaurant", "cuisine": "mexican", "addr:full": "1024 N. Avalon Park Blvd. #108", "addr:city": "Orlando", "addr:state": "FL", "addr:postcode": "32828", "name": "Avalon Park - Tijuana Flats", "phone": "(407) 373-0372", "website": "https://www.tijuanaflats.com/locations/avalon-park-orlando", "opening_hours": "Mon - Sat 11 AM - 10 PM; Sun 11 AM - 9 PM", "brand": "Tijuana Flats", "brand:wikidata": "Q7801833", "nsi_id": "tijuanaflats-96af40"}, "geometry": {"type": "Point", "coordinates": [-81.16421839999998, 28.5489907]}},
{"type": "Feature", "id": "drAn_KuviWb3QetysYedbqVHYSQ=", "properties": {"ref": "bartram-park-jacksonville", "@spider": "tijuanaflats", "amenity": "restaurant", "cuisine": "mexican", "addr:full": "13820 Old St. Augustine Rd. #125", "addr:city": "Jacksonville ", "addr:state": "FL", "addr:postcode": "32258", "name": "Tijuana Flats Bartram Park : Burritos, Tacos & Tex-Mex For All!", "phone": "(904) 262-0484", "website": "https://www.tijuanaflats.com/locations/bartram-park-jacksonville", "opening_hours": "Mon-Sun 11 AM - 9 PM", "brand": "Tijuana Flats", "brand:wikidata": "Q7801833", "nsi_id": "tijuanaflats-96af40"}, "geometry": {"type": "Point", "coordinates": [-81.54963550000002, 30.140491]}},
{"type": "Feature", "id": "4q9jlIh7Z9MGkJbmzY6hv_jiGPs=", "properties": {"ref": "jacksonville-old-baymeadows-rd", "@spider": "tijuanaflats", "amenity": "restaurant", "cuisine": "mexican", "addr:full": "9942 Old Baymeadows Rd. ", "addr:city": "Jacksonville", "addr:state": "FL", "addr:postcode": "32256", "name": "Baymeadows - Tijuana Flats", "phone": "(904) 641-1090", "website": "https://www.tijuanaflats.com/locations/jacksonville-old-baymeadows-rd", "opening_hours": "Tues-Sat 11 AM - 9:30 PM; Sun-Mon 11 AM - 9 PM", "brand": "Tijuana Flats", "brand:wikidata": "Q7801833", "nsi_id": "tijuanaflats-96af40"}, "geometry": {"type": "Point", "coordinates": [-81.55365589999997, 30.2196455]}},
{"type": "Feature", "id": "B2g4t1_K5NYRsl6wpmqzJxW6WrY=", "properties": {"ref": "jacksonville-beach-blvd", "@spider": "tijuanaflats", "amenity": "restaurant", "cuisine": "mexican", "addr:full": "13529 Beach Blvd. Ste. 201B", "addr:city": "Jacksonville ", "addr:state": "FL", "addr:postcode": "32224", "name": "Beach & Hodges - Tijuana Flats", "phone": "(904) 223-0041", "website": "https://www.tijuanaflats.com/locations/jacksonville-beach-blvd", "opening_hours": "Sun-Mon 11 AM - 9 PM; Tues-Sat 11 AM - 9:30 PM", "brand": "Tijuana Flats", "brand:wikidata": "Q7801833", "nsi_id": "tijuanaflats-96af40"}, "geometry": {"type": "Point", "coordinates": [-81.46084200000001, 30.288229]}},
{"type": "Feature", "id": "HW7dOiu7jQe29K0ToIberQsU_9E=", "properties": {"ref": "bloomingdale-valrico", "@spider": "tijuanaflats", "amenity": "restaurant", "cuisine": "mexican", "addr:full": "2050 Bloomingdale Ave", "addr:city": "Valrico", "addr:state": "FL", "addr:postcode": "33596", "name": "Bloomingdale - Tijuana Flats", "phone": "(813) 324-2009", "website": "https://www.tijuanaflats.com/locations/bloomingdale-valrico", "opening_hours": "Tues-Sat 11 AM - 9:30 PM; Sun-Mon 11 AM - 9 PM", "brand": "Tijuana Flats", "brand:wikidata": "Q7801833", "nsi_id": "tijuanaflats-96af40"}, "geometry": {"type": "Point", "coordinates": [-82.25011749999999, 27.8941205]}},
{"type": "Feature", "id": "Z6zZ8ua0mKp3K_ZD81y442W0W1s=", "properties": {"ref": "bradenton", "@spider": "tijuanaflats", "amenity": "restaurant", "cuisine": "mexican", "addr:full": "2127 Cortez Rd. W.", "addr:city": "Bradenton", "addr:state": "FL", "addr:postcode": "34207", "name": "Bradenton - Tijuana Flats", "phone": "(941) 756-7351", "website": "https://www.tijuanaflats.com/locations/bradenton", "opening_hours": "Tues-Sat 11 AM - 9:30 PM; Sun-Mon 11 AM - 9 PM", "brand": "Tijuana Flats", "brand:wikidata": "Q7801833", "nsi_id": "tijuanaflats-96af40"}, "geometry": {"type": "Point", "coordinates": [-82.58333770000002, 27.4617434]}},
{"type": "Feature", "id": "TBGE4pGuMTKgZrxKjdUjQLVJd6E=", "properties": {"ref": "brandon", "@spider": "tijuanaflats", "amenity": "restaurant", "cuisine": "mexican", "addr:full": "11007 Causeway Blvd.", "addr:city": "Brandon", "addr:state": "FL", "addr:postcode": "33511", "name": "Brandon - Tijuana Flats", "phone": "(813) 643-3020", "website": "https://www.tijuanaflats.com/locations/brandon", "opening_hours": "Tues-Sat 11 AM - 9:30 PM; Sun-Mon 11 AM - 9 PM", "brand": "Tijuana Flats", "brand:wikidata": "Q7801833", "nsi_id": "tijuanaflats-96af40"}, "geometry": {"type": "Point", "coordinates": [-82.3283075, 27.9222872]}},
{"type": "Feature", "id": "zt0iBgjWlf_Ofsq4F61pU6jYJX4=", "properties": {"ref": "brooksville", "@spider": "tijuanaflats", "amenity": "restaurant", "cuisine": "mexican", "addr:full": "12320 Cortez Blvd.", "addr:city": "Brooksville", "addr:state": "FL", "addr:postcode": "34613", "name": "Brooksville - Tijuana Flats", "phone": "(352) 678-3444", "website": "https://www.tijuanaflats.com/locations/brooksville", "opening_hours": "Tues-Sat 11 AM - 9:30 PM; Sun-Mon 11 AM - 9 PM", "brand": "Tijuana Flats", "brand:wikidata": "Q7801833", "nsi_id": "tijuanaflats-96af40"}, "geometry": {"type": "Point", "coordinates": [-82.51940819999999, 28.5326917]}},
{"type": "Feature", "id": "pclabjeVsd8RpLwSsksU51dvRg8=", "properties": {"ref": "carrollwood-tampa", "@spider": "tijuanaflats", "amenity": "restaurant", "cuisine": "mexican", "addr:full": "10019 N. Dale Mabry Hwy.", "addr:city": "Tampa", "addr:state": "FL", "addr:postcode": "33618", "name": "Carrollwood - Tijuana Flats", "phone": "(813) 849-6900", "website": "https://www.tijuanaflats.com/locations/carrollwood-tampa", "opening_hours": "Mon-Sat 11 AM - 10 PM; Sun 11 AM - 9 PM", "brand": "Tijuana Flats", "brand:wikidata": "Q7801833", "nsi_id": "tijuanaflats-96af40"}, "geometry": {"type": "Point", "coordinates": [-82.50410239999997, 28.0420473]}},
{"type": "Feature", "id": "l46-TbAXhwXEeLPKker3p31PS0I=", "properties": {"ref": "casselberry", "@spider": "tijuanaflats", "amenity": "restaurant", "cuisine": "mexican", "addr:full": "991 E. Semoran Blvd.", "addr:city": "Casselberry", "addr:state": "FL", "addr:postcode": "32707", "name": "Casselberry - Tijuana Flats", "phone": "(407) 331-3529", "website": "https://www.tijuanaflats.com/locations/casselberry", "opening_hours": "Tues-Sat 11 AM - 9:30 PM; Sun-Mon 11 AM - 9 PM", "brand": "Tijuana Flats", "brand:wikidata": "Q7801833", "nsi_id": "tijuanaflats-96af40"}, "geometry": {"type": "Point", "coordinates": [-81.32305600000001, 28.645304]}},
{"type": "Feature", "id": "05UsfGBK8RHbtZzo79UCO4NAyIo=", "properties": {"ref": "celebration-kissimmee", "@spider": "tijuanaflats", "amenity": "restaurant", "cuisine": "mexican", "addr:full": "6113 W. Irlo Bronson Memorial Hwy. Unit 101", "addr:city": "Kissimmee", "addr:state": "FL", "addr:postcode": "34747", "name": "Celebration - Tijuana Flats", "phone": "(407) 624-5750", "website": "https://www.tijuanaflats.com/locations/celebration-kissimmee", "opening_hours": "Tues-Sat 11 AM - 9:30 PM; Sun-Mon 11 AM - 9 PM", "brand": "Tijuana Flats", "brand:wikidata": "Q7801833", "nsi_id": "tijuanaflats-96af40"}, "geometry": {"type": "Point", "coordinates": [-81.52944059999999, 28.3335201]}},
{"type": "Feature", "id": "nclapcosF-UR-ZTrGaMSv93Wodg=", "properties": {"ref": "champions-gate", "@spider": "tijuanaflats", "amenity": "restaurant", "cuisine": "mexican", "addr:full": "8274 Champions Gate Blvd.", "addr:city": "Champions Gate", "addr:state": "FL", "addr:postcode": "33896", "name": "Champions Gate - Tijuana Flats", "phone": "(863) 588-1740", "website": "https://www.tijuanaflats.com/locations/champions-gate", "opening_hours": "Tues-Sat 11 AM - 10 PM; Sun-Mon 11 AM - 9 PM", "brand": "Tijuana Flats", "brand:wikidata": "Q7801833", "nsi_id": "tijuanaflats-96af40"}, "geometry": {"type": "Point", "coordinates": [-81.61822189999998, 28.2613342]}},
{"type": "Feature", "id": "8SkmHZ8vKpXygUU770KlzTF097I=", "properties": {"ref": "clearwater", "@spider": "tijuanaflats", "amenity": "restaurant", "cuisine": "mexican", "addr:full": "2518 SR 580 Ste. A ", "addr:city": "Clearwater", "addr:state": "FL", "addr:postcode": "33761", "name": "Clearwater - Tijuana Flats", "phone": "(727) 437-0915", "website": "https://www.tijuanaflats.com/locations/clearwater", "opening_hours": "Tues-Sat 11 AM - 9:30 PM; Sun-Mon 11 AM - 9 PM", "brand": "Tijuana Flats", "brand:wikidata": "Q7801833", "nsi_id": "tijuanaflats-96af40"}, "geometry": {"type": "Point", "coordinates": [-82.7329062, 28.0198862]}},
{"type": "Feature", "id": "Mw4bj4tnwdiMYImsYkHVlR9UIGs=", "properties": {"ref": "clermont", "@spider": "tijuanaflats", "amenity": "restaurant", "cuisine": "mexican", "addr:full": "2560 E. Highway 50 #101", "addr:city": "Clermont", "addr:state": "FL", "addr:postcode": "34711", "name": "Clermont - Tijuana Flats", "phone": "(352) 242-6561", "website": "https://www.tijuanaflats.com/locations/clermont", "opening_hours": "Tues-Sat 11 AM - 9:30 PM; Sun-Mon 11 AM - 9 PM", "brand": "Tijuana Flats", "brand:wikidata": "Q7801833", "nsi_id": "tijuanaflats-96af40"}, "geometry": {"type": "Point", "coordinates": [-81.70845939999998, 28.547992]}},
{"type": "Feature", "id": "j7eKdm30IAmyznACQ-gxv__-hHM=", "properties": {"ref": "coconut-creek", "@spider": "tijuanaflats", "amenity": "restaurant", "cuisine": "mexican", "addr:full": "6970 SR 7 Ste. 101 ", "addr:city": "Coconut Creek", "addr:state": "FL", "addr:postcode": "33073", "name": "Coconut Creek - Tijuana Flats", "phone": "(954) 481-9371", "website": "https://www.tijuanaflats.com/locations/coconut-creek", "opening_hours": "Tues-Sat 11 AM - 9:30 PM; Sun-Mon 11 AM - 9 PM", "brand": "Tijuana Flats", "brand:wikidata": "Q7801833", "nsi_id": "tijuanaflats-96af40"}, "geometry": {"type": "Point", "coordinates": [-80.20051719999998, 26.3169578]}},
{"type": "Feature", "id": "FdnsRijmsoGCGdWJ6ov9Gkk3OM8=", "properties": {"ref": "college-park-orlando", "@spider": "tijuanaflats", "amenity": "restaurant", "cuisine": "mexican", "addr:full": "2217 Edgewater Dr. ", "addr:city": "Orlando", "addr:state": "FL", "addr:postcode": "32804", "name": "College Park - Tijuana Flats", "phone": "(407) 425-4762", "website": "https://www.tijuanaflats.com/locations/college-park-orlando", "opening_hours": "Tues-Sat 11 AM - 9:30 PM; Sun-Mon 11 AM - 9 PM", "brand": "Tijuana Flats", "brand:wikidata": "Q7801833", "nsi_id": "tijuanaflats-96af40"}, "geometry": {"type": "Point", "coordinates": [-81.38923640000002, 28.5717785]}},
{"type": "Feature", "id": "PbTUkm1Gs8B3ubEZB352hUlp-Sw=", "properties": {"ref": "lutz-collier-pkwy", "@spider": "tijuanaflats", "amenity": "restaurant", "cuisine": "mexican", "addr:full": "23100 SR 54", "addr:city": "Lutz", "addr:state": "FL", "addr:postcode": "33549", "name": "Collier Pkwy - Tijuana Flats", "phone": "(813) 949-1155", "website": "https://www.tijuanaflats.com/locations/lutz-collier-pkwy", "opening_hours": "Tues-Sat 11 AM - 9:30 PM; Sun-Mon 11 AM - 9 PM", "brand": "Tijuana Flats", "brand:wikidata": "Q7801833", "nsi_id": "tijuanaflats-96af40"}, "geometry": {"type": "Point", "coordinates": [-82.43477949999999, 28.1852088]}},
{"type": "Feature", "id": "T4WzItHan36jBiNRDXg3frSH9dY=", "properties": {"ref": "lauderhill", "@spider": "tijuanaflats", "amenity": "restaurant", "cuisine": "mexican", "addr:full": "7942 W. Commercial Blvd. ", "addr:city": "Lauderhill", "addr:state": "FL", "addr:postcode": "33351", "name": "Commercial - Tijuana Flats", "phone": "(954) 749-3420", "website": "https://www.tijuanaflats.com/locations/lauderhill", "opening_hours": "Tues-Sat 11 AM - 9:30 PM; Sun-Mon 11 AM - 9 PM", "brand": "Tijuana Flats", "brand:wikidata": "Q7801833", "nsi_id": "tijuanaflats-96af40"}, "geometry": {"type": "Point", "coordinates": [-80.25689590000002, 26.1933044]}},
{"type": "Feature", "id": "unJY4jv0vgbn1eIe2ku5ium2nDI=", "properties": {"ref": "boynton-beach-congress", "@spider": "tijuanaflats", "amenity": "restaurant", "cuisine": "mexican", "addr:full": "390 N. Congress Ave. B", "addr:city": "Boynton Beach", "addr:state": "FL", "addr:postcode": "33426", "name": "Congress - Tijuana Flats", "phone": "(561) 370-6300", "website": "https://www.tijuanaflats.com/locations/boynton-beach-congress", "opening_hours": "Tues-Sat 11 AM - 9:30 PM; Sun-Mon 11 AM - 9 PM", "brand": "Tijuana Flats", "brand:wikidata": "Q7801833", "nsi_id": "tijuanaflats-96af40"}, "geometry": {"type": "Point", "coordinates": [-80.09006649999998, 26.5309281]}},
{"type": "Feature", "id": "O3VcbSWesFh3g-FVDfrgBnru4Ns=", "properties": {"ref": "cooper-city", "@spider": "tijuanaflats", "amenity": "restaurant", "cuisine": "mexican", "addr:full": "8703 Stirling Rd.  ", "addr:city": "Cooper City", "addr:state": "FL", "addr:postcode": "33328", "name": "Cooper City - Tijuana Flats", "phone": "(954) 318-0586", "website": "https://www.tijuanaflats.com/locations/cooper-city", "opening_hours": "Tues-Sat 11 AM - 9:30 PM; Sun-Mon 11 AM - 9 PM", "brand": "Tijuana Flats", "brand:wikidata": "Q7801833", "nsi_id": "tijuanaflats-96af40"}, "geometry": {"type": "Point", "coordinates": [-80.26144769999996, 26.0457686]}},
{"type": "Feature", "id": "Q82KKEokWgFNA0NugOE2AeVjvV4=", "properties": {"ref": "coral-springs-coconut-creek", "@spider": "tijuanaflats", "amenity": "restaurant", "cuisine": "mexican", "addr:full": "6204 W. Sample Rd.  ", "addr:city": "Coral Springs", "addr:state": "FL", "addr:postcode": "33076", "name": "Coral Springs - Tijuana Flats", "phone": "(954) 344-4445", "website": "https://www.tijuanaflats.com/locations/coral-springs-coconut-creek", "opening_hours": "Tues-Sat 11 AM - 9:30 PM; Sun-Mon 11 AM - 9 PM", "brand": "Tijuana Flats", "brand:wikidata": "Q7801833", "nsi_id": "tijuanaflats-96af40"}, "geometry": {"type": "Point", "coordinates": [-80.2056164, 26.2729276]}},
{"type": "Feature", "id": "2oQsU6QujiKQY-nsYNoiH3zPGAA=", "properties": {"ref": "cordova-pensacola", "@spider": "tijuanaflats", "amenity": "restaurant", "cuisine": "mexican", "addr:full": "4970 Bayou Blvd. Ste. 300", "addr:city": "Pensacola", "addr:state": "FL", "addr:postcode": "32503", "name": "Cordova - Tijuana Flats", "phone": "(850) 476-2200", "website": "https://www.tijuanaflats.com/locations/cordova-pensacola", "opening_hours": "Tues-Sat 11 AM - 9:30 PM; Sun-Mon 11 AM - 9 PM", "brand": "Tijuana Flats", "brand:wikidata": "Q7801833", "nsi_id": "tijuanaflats-96af40"}, "geometry": {"type": "Point", "coordinates": [-87.20766329999998, 30.4718352]}},
{"type": "Feature", "id": "rsErXyB1rrNoQ8tEMYti8rVZdgY=", "properties": {"ref": "deerfield-beach", "@spider": "tijuanaflats", "amenity": "restaurant", "cuisine": "mexican", "addr:full": "278 S. Federal Hwy. ", "addr:city": " Deerfield Beach", "addr:state": "FL", "addr:postcode": "33441", "name": "Deerfield - Tijuana Flats", "phone": "(954) 834-0227", "website": "https://www.tijuanaflats.com/locations/deerfield-beach", "opening_hours": "Tues-Sat 11 AM - 9:30 PM; Sun-Mon 11 AM - 9 PM", "brand": "Tijuana Flats", "brand:wikidata": "Q7801833", "nsi_id": "tijuanaflats-96af40"}, "geometry": {"type": "Point", "coordinates": [-80.09031120000003, 26.3148564]}},
{"type": "Feature", "id": "S3xJX1DzSocdWMKTaReasLEnxXg=", "properties": {"ref": "deland", "@spider": "tijuanaflats", "amenity": "restaurant", "cuisine": "mexican", "addr:full": "305-2 E International Speedway Blvd.", "addr:city": "DeLand", "addr:state": "FL", "addr:postcode": "32724", "name": "DeLand - Tijuana Flats", "phone": "(386) 624-7060", "website": "https://www.tijuanaflats.com/locations/deland", "opening_hours": "Tues-Sat 11 AM - 9:30 PM; Sun-Mon 11 AM - 9 PM", "brand": "Tijuana Flats", "brand:wikidata": "Q7801833", "nsi_id": "tijuanaflats-96af40"}, "geometry": {"type": "Point", "coordinates": [-81.2989813, 29.055742]}},
{"type": "Feature", "id": "MT2At4iNUtPSj-A9fuZFu0LfMuE=", "properties": {"ref": "downtown-east-colonial-orlando", "@spider": "tijuanaflats", "amenity": "restaurant", "cuisine": "mexican", "addr:full": "2914 East Colonial Dr.", "addr:city": "Orlando", "addr:state": "FL", "addr:postcode": "32803", "name": "Downtown E. Colonial - Tijuana Flats", "phone": "(407) 897-7121", "website": "https://www.tijuanaflats.com/locations/downtown-east-colonial-orlando", "opening_hours": "Tues-Sat 11 AM - 9:30 PM; Sun-Mon 11 AM - 9 PM", "brand": "Tijuana Flats", "brand:wikidata": "Q7801833", "nsi_id": "tijuanaflats-96af40"}, "geometry": {"type": "Point", "coordinates": [-81.34634410000001, 28.5527797]}},
{"type": "Feature", "id": "6MWzn3spPJpf7XnztJqg-UoatB0=", "properties": {"ref": "estero-bonita-springs", "@spider": "tijuanaflats", "amenity": "restaurant", "cuisine": "mexican", "addr:full": "8350 Hospital Drive Ste. 102", "addr:city": "Bonita Springs", "addr:state": "FL", "addr:postcode": "34135", "name": "Estero - Tijuana Flats", "phone": "(239) 948-8820 ", "website": "https://www.tijuanaflats.com/locations/estero-bonita-springs", "opening_hours": "Mon-Sat 11 AM - 9 PM; Sun 11 AM - 9 PM", "brand": "Tijuana Flats", "brand:wikidata": "Q7801833", "nsi_id": "tijuanaflats-96af40"}, "geometry": {"type": "Point", "coordinates": [-81.80958350000003, 26.3931162]}},
{"type": "Feature", "id": "7evzcf-mhZkh_ej-8WFrAYK9fK0=", "properties": {"ref": "fishers", "@spider": "tijuanaflats", "amenity": "restaurant", "cuisine": "mexican", "addr:full": "7834 E. 96th St.", "addr:city": "Fishers", "addr:state": "IN", "addr:postcode": "46037", "name": "Fishers - Tijuana Flats", "phone": "(317) 842-3528", "website": "https://www.tijuanaflats.com/locations/fishers", "opening_hours": "Mon-Sun 11 AM - 9 PM", "brand": "Tijuana Flats", "brand:wikidata": "Q7801833", "nsi_id": "tijuanaflats-96af40"}, "geometry": {"type": "Point", "coordinates": [-86.02495060000001, 39.9283033]}},
{"type": "Feature", "id": "rbzLsKUBFFUI2jyLfK-J6pz7l90=", "properties": {"ref": "fleming-island", "@spider": "tijuanaflats", "amenity": "restaurant", "cuisine": "mexican", "addr:full": "1647 CR 220 Ste. 103", "addr:city": "Fleming Island", "addr:state": "FL", "addr:postcode": "32003", "name": "Fleming Island - Tijuana Flats", "phone": "(904) 264-1766", "website": "https://www.tijuanaflats.com/locations/fleming-island", "opening_hours": "Mon-Sun 11 AM - 9 PM", "brand": "Tijuana Flats", "brand:wikidata": "Q7801833", "nsi_id": "tijuanaflats-96af40"}, "geometry": {"type": "Point", "coordinates": [-81.71883279999997, 30.1017057]}},
{"type": "Feature", "id": "Xy9XDsP7iFQG7lTZPhjq00Rtu5Y=", "properties": {"ref": "fowler-tampa", "@spider": "tijuanaflats", "amenity": "restaurant", "cuisine": "mexican", "addr:full": "2782 E. Fowler Ave. ", "addr:city": "Tampa", "addr:state": "FL", "addr:postcode": "33612", "name": "Fowler - Tijuana Flats", "phone": "(813) 975-0800", "website": "https://www.tijuanaflats.com/locations/fowler-tampa", "opening_hours": "Tues-Sat 11 AM - 10 PM; Sun-Mon 11 AM - 9 PM", "brand": "Tijuana Flats", "brand:wikidata": "Q7801833", "nsi_id": "tijuanaflats-96af40"}, "geometry": {"type": "Point", "coordinates": [-82.42756320000001, 28.0557124]}},
{"type": "Feature", "id": "hbJ4wpMH6EeRE2UEx8Yk4t0tJb0=", "properties": {"ref": "fort-lauderdale", "@spider": "tijuanaflats", "amenity": "restaurant", "cuisine": "mexican", "addr:full": "1619 E. Sunrise Blvd.", "addr:city": "Ft. Lauderdale", "addr:state": "FL", "addr:postcode": "33304", "name": "Ft. Lauderdale - Tijuana Flats", "phone": "(954) 463-3480", "website": "https://www.tijuanaflats.com/locations/fort-lauderdale", "opening_hours": "Tues-Sat 11 AM - 9:30 PM; Sun-Mon 11 AM - 9 PM", "brand": "Tijuana Flats", "brand:wikidata": "Q7801833", "nsi_id": "tijuanaflats-96af40"}, "geometry": {"type": "Point", "coordinates": [-80.12709080000002, 26.137783]}},
{"type": "Feature", "id": "mH4d34YlbWxnUb6FeT7zmxAKclw=", "properties": {"ref": "fort-myers", "@spider": "tijuanaflats", "amenity": "restaurant", "cuisine": "mexican", "addr:full": "12640 Cleveland Ave. #203", "addr:city": "Ft. Myers", "addr:state": "FL", "addr:postcode": "33907", "name": "Ft. Myers - Tijuana Flats", "phone": "(239) 204-9530", "website": "https://www.tijuanaflats.com/locations/fort-myers", "opening_hours": "Tues-Sat 11 AM - 9:30 PM; Sun-Mon 11 AM - 9 PM", "brand": "Tijuana Flats", "brand:wikidata": "Q7801833", "nsi_id": "tijuanaflats-96af40"}, "geometry": {"type": "Point", "coordinates": [-81.87233120000002, 26.5578115]}},
{"type": "Feature", "id": "UEUq8Q2x0upxBCZoqY_9xUSDLnw=", "properties": {"ref": "fort-walton-beach", "@spider": "tijuanaflats", "amenity": "restaurant", "cuisine": "mexican", "addr:full": "39 Eglin Parkway N.E.", "addr:city": "Ft. Walton Beach", "addr:state": "FL", "addr:postcode": "32548", "name": "Ft. Walton Beach - Tijuana Flats", "phone": "(850) 301-0002", "website": "https://www.tijuanaflats.com/locations/fort-walton-beach", "opening_hours": "Mon-Sat 11 AM - 9 PM; Sun 11 AM - 9 PM", "brand": "Tijuana Flats", "brand:wikidata": "Q7801833", "nsi_id": "tijuanaflats-96af40"}, "geometry": {"type": "Point", "coordinates": [-86.60537249999999, 30.4146102]}},
{"type": "Feature", "id": "pfUB2xEIKEhT1PFmaBP6B0vOHvw=", "properties": {"ref": "gainesville-w-university-ave", "@spider": "tijuanaflats", "amenity": "restaurant", "cuisine": "mexican", "addr:full": "1720 W. University Ave.", "addr:city": "Gainesville", "addr:state": "FL", "addr:postcode": "32603", "name": "Gainesville - Tijuana Flats", "phone": "(352) 692-3093", "website": "https://www.tijuanaflats.com/locations/gainesville-w-university-ave", "opening_hours": "Sun-Mon 11 AM - 9:00 PM; Tues-Sat 11 AM - 9:30 PM", "brand": "Tijuana Flats", "brand:wikidata": "Q7801833", "nsi_id": "tijuanaflats-96af40"}, "geometry": {"type": "Point", "coordinates": [-82.345415, 29.6522749]}},
{"type": "Feature", "id": "kPPndfWaEpIqYKD5Gd6DufBv3B4=", "properties": {"ref": "gainesville-clark-butler-blvd", "@spider": "tijuanaflats", "amenity": "restaurant", "cuisine": "mexican", "addr:full": "3205 Clark Butler Boulevard Unit #70", "addr:city": "Gainesville", "addr:state": "FL", "addr:postcode": "32608", "name": "Gainesville - Clark Butler Boulevard - Tijuana Flats", "phone": "(352) 373-8967", "website": "https://www.tijuanaflats.com/locations/gainesville-clark-butler-blvd", "opening_hours": "Tues-Sat 11 AM - 9:30 PM; Sun-Mon 11 AM - 9 PM", "brand": "Tijuana Flats", "brand:wikidata": "Q7801833", "nsi_id": "tijuanaflats-96af40"}, "geometry": {"type": "Point", "coordinates": [-82.38201229999999, 29.6242087]}},
{"type": "Feature", "id": "ycxcAKBE5CTdAQY2Svh4r6v1slk=", "properties": {"ref": "winter-park-university-blvd", "@spider": "tijuanaflats", "amenity": "restaurant", "cuisine": "mexican", "addr:full": "7608 University Blvd.", "addr:city": "Winter Park", "addr:state": "FL", "addr:postcode": "32792", "name": "Goldenrod & University - Tijuana Flats", "phone": "(407) 673-2456", "website": "https://www.tijuanaflats.com/locations/winter-park-university-blvd", "opening_hours": "Tues-Sat 11 AM - 9:30 PM; Sun-Mon 11 AM - 9 PM", "brand": "Tijuana Flats", "brand:wikidata": "Q7801833", "nsi_id": "tijuanaflats-96af40"}, "geometry": {"type": "Point", "coordinates": [-81.28479870000001, 28.5960666]}},
{"type": "Feature", "id": "MwtJ83SPk48RdzZkwTKkm6mb35g=", "properties": {"ref": "clearwater-gulf-to-bay-blvd", "@spider": "tijuanaflats", "amenity": "restaurant", "cuisine": "mexican", "addr:full": "2849 Gulf to Bay Blvd. Unit C", "addr:city": "Clearwater", "addr:state": "FL", "addr:postcode": "33759", "name": "Gulf to Bay - Tijuana Flats", "phone": "(727) 469-7933", "website": "https://www.tijuanaflats.com/locations/clearwater-gulf-to-bay-blvd", "opening_hours": "Tues-Sat 11 AM - 9:30 PM; Sun-Mon 11 AM - 9 PM", "brand": "Tijuana Flats", "brand:wikidata": "Q7801833", "nsi_id": "tijuanaflats-96af40"}, "geometry": {"type": "Point", "coordinates": [-82.7193292, 27.9602938]}},
{"type": "Feature", "id": "uq9Aiq6l_L6G-4XgCdFtoH3j4ds=", "properties": {"ref": "hamlin-winter-garden", "@spider": "tijuanaflats", "amenity": "restaurant", "cuisine": "mexican", "addr:full": "14410 Shoreside Way", "addr:city": "Winter Garden", "addr:state": "FL", "addr:postcode": "34787", "name": "Hamlin - Tijuana Flats", "phone": "(407) 459-1910", "website": "https://www.tijuanaflats.com/locations/hamlin-winter-garden", "opening_hours": "Tues-Sat 11 AM - 9:30 PM; Sun-Mon 11 AM - 9 PM", "brand": "Tijuana Flats", "brand:wikidata": "Q7801833", "nsi_id": "tijuanaflats-96af40"}, "geometry": {"type": "Point", "coordinates": [-81.6281927, 28.4731026]}},
{"type": "Feature", "id": "yeQAYnRPsDp67NC5-YqKs-GRZss=", "properties": {"ref": "holly-springs", "@spider": "tijuanaflats", "amenity": "restaurant", "cuisine": "mexican", "addr:full": "161 Grand Hill Place", "addr:city": "Holly Springs ", "addr:state": "NC", "addr:postcode": "27540", "name": "Holly Springs - Tijuana Flats", "phone": "(919) 629-7558", "website": "https://www.tijuanaflats.com/locations/holly-springs", "opening_hours": "Mon-Sun 11 AM - 9 PM", "brand": "Tijuana Flats", "brand:wikidata": "Q7801833", "nsi_id": "tijuanaflats-96af40"}, "geometry": {"type": "Point", "coordinates": [-78.84821769999996, 35.6619079]}},
{"type": "Feature", "id": "nwLS2xoI2iqM4HZTg6SPdlpbfY8=", "properties": {"ref": "hollywood", "@spider": "tijuanaflats", "amenity": "restaurant", "cuisine": "mexican", "addr:full": "3357 Sheridan St. ", "addr:city": "Hollywood", "addr:state": "FL", "addr:postcode": "33021", "name": "Hollywood - Tijuana Flats", "phone": "(954) 987-5509", "website": "https://www.tijuanaflats.com/locations/hollywood", "opening_hours": "Tues-Sat 11 AM - 9:30 PM; Sun-Mon 11 AM - 9 PM", "brand": "Tijuana Flats", "brand:wikidata": "Q7801833", "nsi_id": "tijuanaflats-96af40"}, "geometry": {"type": "Point", "coordinates": [-80.17653089999999, 26.0333708]}},
{"type": "Feature", "id": "IljuJ47xWl61n0NRfiVG0NhkrrM=", "properties": {"ref": "hunt-club-apopka", "@spider": "tijuanaflats", "amenity": "restaurant", "cuisine": "mexican", "addr:full": "444 S. Hunt Club Blvd.", "addr:city": "Apopka", "addr:state": "FL", "addr:postcode": "32703", "name": "Hunt Club - Tijuana Flats", "phone": "(407) 774-0402", "website": "https://www.tijuanaflats.com/locations/hunt-club-apopka", "opening_hours": "Tues-Sat 11 AM - 9:30 PM; Sun-Mon 11 AM - 9 PM", "brand": "Tijuana Flats", "brand:wikidata": "Q7801833", "nsi_id": "tijuanaflats-96af40"}, "geometry": {"type": "Point", "coordinates": [-81.45034299999998, 28.6736467]}},
{"type": "Feature", "id": "vkjE4p8d8kog5-52WeZFe6ykzMs=", "properties": {"ref": "hunters-creek-orlando", "@spider": "tijuanaflats", "amenity": "restaurant", "cuisine": "mexican", "addr:full": "13651 Hunter\u2019s Oak Dr. Ste. 107 ", "addr:city": "Orlando", "addr:state": "FL", "addr:postcode": "32837", "name": "Hunter's Creek - Tijuana Flats", "phone": "(407) 770-0991", "website": "https://www.tijuanaflats.com/locations/hunters-creek-orlando", "opening_hours": "Tues-Sat 11 AM - 9:30 PM; Sun-Mon 11 AM - 9 PM", "brand": "Tijuana Flats", "brand:wikidata": "Q7801833", "nsi_id": "tijuanaflats-96af40"}, "geometry": {"type": "Point", "coordinates": [-81.425881, 28.3665123]}},
{"type": "Feature", "id": "c87Q_tLPKa_P6jXnJowQAP2lorg=", "properties": {"ref": "jupiter", "@spider": "tijuanaflats", "amenity": "restaurant", "cuisine": "mexican", "addr:full": "6771 W. Indiantown Rd. ", "addr:city": "Jupiter ", "addr:state": "FL", "addr:postcode": "33458", "name": "Jupiter - Tijuana Flats", "phone": "(561) 515-1730", "website": "https://www.tijuanaflats.com/locations/jupiter", "opening_hours": "Tues-Sat 11 AM - 9:30 PM; Sun-Mon 11 AM - 9 PM", "brand": "Tijuana Flats", "brand:wikidata": "Q7801833", "nsi_id": "tijuanaflats-96af40"}, "geometry": {"type": "Point", "coordinates": [-80.13798729999996, 26.9350469]}},
{"type": "Feature", "id": "nXq3ho_sAy_fiC0TB64HskcfhIo=", "properties": {"ref": "lake-mary", "@spider": "tijuanaflats", "amenity": "restaurant", "cuisine": "mexican", "addr:full": "3005 W. Lake Mary Blvd. Ste. 109", "addr:city": "Lake Mary", "addr:state": "FL", "addr:postcode": "32746", "name": "Lake Mary - Tijuana Flats", "phone": "(407) 328-0907", "website": "https://www.tijuanaflats.com/locations/lake-mary", "opening_hours": "Tues-Sat 11 AM - 9:30 PM; Sun-Mon 11 AM - 9 PM", "brand": "Tijuana Flats", "brand:wikidata": "Q7801833", "nsi_id": "tijuanaflats-96af40"}, "geometry": {"type": "Point", "coordinates": [-81.33194809999998, 28.7549128]}},
{"type": "Feature", "id": "brIMIlmWZN0kxMvDUweGYxV5w48=", "properties": {"ref": "lake-nona-greenwood", "@spider": "tijuanaflats", "amenity": "restaurant", "cuisine": "mexican", "addr:full": "14152 Narcoossee Rd.", "addr:city": "Orlando", "addr:state": "FL", "addr:postcode": "32832", "name": "Lake Nona - Greenwood - Tijuana Flats", "phone": "(321) 332-0994", "website": "https://www.tijuanaflats.com/locations/lake-nona-greenwood", "opening_hours": "Tues-Sat 11 AM - 9:30 PM; Sun-Mon 11 AM - 9 PM", "brand": "Tijuana Flats", "brand:wikidata": "Q7801833", "nsi_id": "tijuanaflats-96af40"}, "geometry": {"type": "Point", "coordinates": [-81.2445685, 28.3617442]}},
{"type": "Feature", "id": "c8zsTkNVv4x-OpxSM4fEOwppOJo=", "properties": {"ref": "lake-nona-orlando", "@spider": "tijuanaflats", "amenity": "restaurant", "cuisine": "mexican", "addr:full": "9161 Narcoossee Rd. Ste. 110", "addr:city": "Orlando", "addr:state": "FL", "addr:postcode": "32827", "name": "Lake Nona - Northlake - Tijuana Flats", "phone": "(407) 249-5323", "website": "https://www.tijuanaflats.com/locations/lake-nona-orlando", "opening_hours": "Tues-Sat 11 AM - 9:30 PM; Sun-Mon 11 AM - 9 PM", "brand": "Tijuana Flats", "brand:wikidata": "Q7801833", "nsi_id": "tijuanaflats-96af40"}, "geometry": {"type": "Point", "coordinates": [-81.2562284, 28.4340429]}},
{"type": "Feature", "id": "gBzI5CRwn5RiCWtrNu0tjGYqbBs=", "properties": {"ref": "lakeland", "@spider": "tijuanaflats", "amenity": "restaurant", "cuisine": "mexican", "addr:full": "4796 S. Florida Ave.", "addr:city": "Lakeland", "addr:state": "FL", "addr:postcode": "33813", "name": "Lakeland - Tijuana Flats", "phone": "(863) 937-9155 ", "website": "https://www.tijuanaflats.com/locations/lakeland", "opening_hours": "Tues-Sat 11 AM - 9:30 PM; Sun-Mon 11 AM - 9 PM", "brand": "Tijuana Flats", "brand:wikidata": "Q7801833", "nsi_id": "tijuanaflats-96af40"}, "geometry": {"type": "Point", "coordinates": [-81.95686969999997, 27.9765806]}},
{"type": "Feature", "id": "0Hl6f2E_4-pST57xe5qDXCETIi0=", "properties": {"ref": "lakewood-jacksonville", "@spider": "tijuanaflats", "amenity": "restaurant", "cuisine": "mexican", "addr:full": "5635 San Jose Blvd.", "addr:city": "Jacksonville ", "addr:state": "FL", "addr:postcode": "32207", "name": "Lakewood - Tijuana Flats", "phone": "(904) 737-9938", "website": "https://www.tijuanaflats.com/locations/lakewood-jacksonville", "opening_hours": "Mon-Sun 11 AM - 9 PM", "brand": "Tijuana Flats", "brand:wikidata": "Q7801833", "nsi_id": "tijuanaflats-96af40"}, "geometry": {"type": "Point", "coordinates": [-81.64489209999999, 30.2613263]}},
{"type": "Feature", "id": "vJHGbA0jBKlrbnDtOurrIggK1Rk=", "properties": {"ref": "lantana-lake-worth", "@spider": "tijuanaflats", "amenity": "restaurant", "cuisine": "mexican", "addr:full": "6201 S. Jog Rd. Ste. 101", "addr:city": "Lake Worth ", "addr:state": "FL", "addr:postcode": "33467", "name": "Lantana - Lake Worth - Tijuana Flats", "phone": "(561) 296-5309", "website": "https://www.tijuanaflats.com/locations/lantana-lake-worth", "opening_hours": "Tues-Sat 11 AM - 9:30 PM; Sun-Mon 11 AM - 9 PM", "brand": "Tijuana Flats", "brand:wikidata": "Q7801833", "nsi_id": "tijuanaflats-96af40"}, "geometry": {"type": "Point", "coordinates": [-80.14673979999998, 26.5864282]}},
{"type": "Feature", "id": "S_MgyLUZ84rz336EXVT5urfFu6s=", "properties": {"ref": "largo-s-belcher-rd", "@spider": "tijuanaflats", "amenity": "restaurant", "cuisine": "mexican", "addr:full": "180 Belcher Rd.", "addr:city": "Largo ", "addr:state": "FL", "addr:postcode": "33771", "name": "Largo - Belcher - Tijuana Flats", "phone": "(727) 210-1190", "website": "https://www.tijuanaflats.com/locations/largo-s-belcher-rd", "opening_hours": "Tues-Sat 11 AM - 9:30 PM; Sun-Mon 11 AM - 9 PM", "brand": "Tijuana Flats", "brand:wikidata": "Q7801833", "nsi_id": "tijuanaflats-96af40"}, "geometry": {"type": "Point", "coordinates": [-82.7463665, 27.9149265]}},
{"type": "Feature", "id": "F4F2LZfm4relxQLjCLNfacKGAfE=", "properties": {"ref": "largo-seminole-rd", "@spider": "tijuanaflats", "amenity": "restaurant", "cuisine": "mexican", "addr:full": "13100 Seminole Blvd. Ste 105", "addr:city": "Largo", "addr:state": "FL", "addr:postcode": "33778", "name": "Largo- Seminole - Tijuana Flats", "phone": "(727) 437-0919", "website": "https://www.tijuanaflats.com/locations/largo-seminole-rd", "opening_hours": "Tues-Sat 11 AM - 9:30 PM; Sun-Mon 11 AM - 9 PM", "brand": "Tijuana Flats", "brand:wikidata": "Q7801833", "nsi_id": "tijuanaflats-96af40"}, "geometry": {"type": "Point", "coordinates": [-82.7877623, 27.8924417]}},
{"type": "Feature", "id": "ST8evrGqdv_qHNYuGFwmKoLCdDw=", "properties": {"ref": "leesburg", "@spider": "tijuanaflats", "amenity": "restaurant", "cuisine": "mexican", "addr:full": "10300 US Hwy. 441 Ste. 101", "addr:city": " Leesburg ", "addr:state": "FL", "addr:postcode": "34788", "name": "Leesburg - Tijuana Flats", "phone": "(352) 343-3337", "website": "https://www.tijuanaflats.com/locations/leesburg", "opening_hours": "Mon-Sun 11 AM - 9 PM", "brand": "Tijuana Flats", "brand:wikidata": "Q7801833", "nsi_id": "tijuanaflats-96af40"}, "geometry": {"type": "Point", "coordinates": [-81.786178, 28.82236469999999]}},
{"type": "Feature", "id": "WW2ND3-lrD9bbgfgjd1UQZ9ASfw=", "properties": {"ref": "linton-delray-beach", "@spider": "tijuanaflats", "amenity": "restaurant", "cuisine": "mexican", "addr:full": "551 Linton Blvd. Unit #C4", "addr:city": "Delray Beach", "addr:state": "FL", "addr:postcode": "33444", "name": "Linton - Tijuana Flats", "phone": "(561) 666-3005", "website": "https://www.tijuanaflats.com/locations/linton-delray-beach", "opening_hours": "Tues-Sat 11 AM - 9:30 PM; Sun-Mon 11 AM - 9 PM", "brand": "Tijuana Flats", "brand:wikidata": "Q7801833", "nsi_id": "tijuanaflats-96af40"}, "geometry": {"type": "Point", "coordinates": [-80.0780249, 26.4402126]}},
{"type": "Feature", "id": "Ua_v8eNyH9onliCAv3pHEU5h31I=", "properties": {"ref": "longwood", "@spider": "tijuanaflats", "amenity": "restaurant", "cuisine": "mexican", "addr:full": "2401 W. SR 434 #117", "addr:city": "Longwood", "addr:state": "FL", "addr:postcode": "32779", "name": "Longwood - Tijuana Flats", "phone": "(407) 478-5974", "website": "https://www.tijuanaflats.com/locations/longwood", "opening_hours": "Tues-Sat 11 AM - 9:30 PM; Sun-Mon 11 AM - 9 PM", "brand": "Tijuana Flats", "brand:wikidata": "Q7801833", "nsi_id": "tijuanaflats-96af40"}, "geometry": {"type": "Point", "coordinates": [-81.40463060000002, 28.6883313]}},
{"type": "Feature", "id": "NljGja6awqmBlfgGZUD062pksAY=", "properties": {"ref": "lutz", "@spider": "tijuanaflats", "amenity": "restaurant", "cuisine": "mexican", "addr:full": "17475 North Dale Mabry Hwy", "addr:city": "Lutz", "addr:state": "FL", "addr:postcode": "33548", "name": "Lutz - Tijuana Flats", "phone": "(813) 235-4257", "website": "https://www.tijuanaflats.com/locations/lutz", "opening_hours": "Tues-Sat 11 AM - 9:30 PM; Sun-Mon 11 AM - 9 PM", "brand": "Tijuana Flats", "brand:wikidata": "Q7801833", "nsi_id": "tijuanaflats-96af40"}, "geometry": {"type": "Point", "coordinates": [-82.5017838, 28.123749]}},
{"type": "Feature", "id": "9jv_QFT_Zn9zf5AK5BuIy8mtH_I=", "properties": {"ref": "mandarin-jacksonville", "@spider": "tijuanaflats", "amenity": "restaurant", "cuisine": "mexican", "addr:full": "11700 San Jose Blvd. Unit 24 ", "addr:city": "Jacksonville ", "addr:state": "FL", "addr:postcode": "32223", "name": "Mandarin - Tijuana Flats", "phone": "(904) 626-7142", "website": "https://www.tijuanaflats.com/locations/mandarin-jacksonville", "opening_hours": "Mon-Sun 11 AM - 9 PM", "brand": "Tijuana Flats", "brand:wikidata": "Q7801833", "nsi_id": "tijuanaflats-96af40"}, "geometry": {"type": "Point", "coordinates": [-81.63392729999998, 30.1598637]}},
{"type": "Feature", "id": "fmVR2tmxwIWxe0GfV0YcG_i7_EY=", "properties": {"ref": "melbourne-east-new-haven-ave", "@spider": "tijuanaflats", "amenity": "restaurant", "cuisine": "mexican", "addr:full": "10 E. New Haven Ave. Ste. 103", "addr:city": "Melbourne", "addr:state": "FL", "addr:postcode": "32901", "name": "Melbourne - E. New Haven Ave. - Tijuana Flats", "phone": "(321) 373-4022", "website": "https://www.tijuanaflats.com/locations/melbourne-east-new-haven-ave", "opening_hours": "Tues-Sat 11 AM - 9:30 PM; Sun-Mon 11 AM - 9 PM", "brand": "Tijuana Flats", "brand:wikidata": "Q7801833", "nsi_id": "tijuanaflats-96af40"}, "geometry": {"type": "Point", "coordinates": [-80.62100559999999, 28.0790714]}},
{"type": "Feature", "id": "1ZpgBk4dBvILS7_MN_qinOPw0BE=", "properties": {"ref": "merritt-island", "@spider": "tijuanaflats", "amenity": "restaurant", "cuisine": "mexican", "addr:full": "76 E Merritt Island Cswy. #104 ", "addr:city": "Merritt Island", "addr:state": "FL", "addr:postcode": "32952", "name": "Merritt Island - Tijuana Flats", "phone": "(321) 453-1881", "website": "https://www.tijuanaflats.com/locations/merritt-island", "opening_hours": "Mon-Sun 11 AM - 9 PM", "brand": "Tijuana Flats", "brand:wikidata": "Q7801833", "nsi_id": "tijuanaflats-96af40"}, "geometry": {"type": "Point", "coordinates": [-80.6983535, 28.3574323]}},
{"type": "Feature", "id": "ZJLK2moZGnkU2-2GpZdQrCQkq_Y=", "properties": {"ref": "millenia-orlando", "@spider": "tijuanaflats", "amenity": "restaurant", "cuisine": "mexican", "addr:full": "4698 Gardens Park Blvd. Ste. 101", "addr:city": "Orlando", "addr:state": "FL", "addr:postcode": "32839", "name": "Millenia - Tijuana Flats", "phone": "(407) 965-5090", "website": "https://www.tijuanaflats.com/locations/millenia-orlando", "opening_hours": "Tues-Sat 11 AM - 9:30 PM; Sun-Mon 11 AM - 9 PM", "brand": "Tijuana Flats", "brand:wikidata": "Q7801833", "nsi_id": "tijuanaflats-96af40"}, "geometry": {"type": "Point", "coordinates": [-81.42489369999998, 28.4947341]}},
{"type": "Feature", "id": "bulW3CSAoYm-zfJ_6cKulw6j23I=", "properties": {"ref": "miramar", "@spider": "tijuanaflats", "amenity": "restaurant", "cuisine": "mexican", "addr:full": "14633 Miramar Pkwy", "addr:city": "Miramar", "addr:state": "FL", "addr:postcode": "33027", "name": "Miramar Pkwy - Tijuana Flats", "phone": "(954) 437-9213", "website": "https://www.tijuanaflats.com/locations/miramar", "opening_hours": "Tues-Sat 11 AM - 9:30 PM; Sun-Mon 11 AM - 9 PM", "brand": "Tijuana Flats", "brand:wikidata": "Q7801833", "nsi_id": "tijuanaflats-96af40"}, "geometry": {"type": "Point", "coordinates": [-80.34127810000001, 25.9792538]}},
{"type": "Feature", "id": "J3K77J9gTR_n7x6sfmka1StvYsc=", "properties": {"ref": "mount-dora", "@spider": "tijuanaflats", "amenity": "restaurant", "cuisine": "mexican", "addr:full": "17375 US Hwy. 441", "addr:city": "Mt. Dora ", "addr:state": "FL", "addr:postcode": "32757", "name": "Mt. Dora - Tijuana Flats", "phone": "(352) 508-1174", "website": "https://www.tijuanaflats.com/locations/mount-dora", "opening_hours": "Tues-Sat 11 AM - 9:30 PM; Sun-Mon 11 AM - 9 PM", "brand": "Tijuana Flats", "brand:wikidata": "Q7801833", "nsi_id": "tijuanaflats-96af40"}, "geometry": {"type": "Point", "coordinates": [-81.66991630000001, 28.8213047]}},
{"type": "Feature", "id": "296nHZBFR6wQxCvb3gtc11H-wZA=", "properties": {"ref": "naples", "@spider": "tijuanaflats", "amenity": "restaurant", "cuisine": "mexican", "addr:full": "11164 Tamiami Tr.", "addr:city": "Naples", "addr:state": "FL", "addr:postcode": "34110", "name": "Naples - Tijuana Flats", "phone": "(239) 514-1342", "website": "https://www.tijuanaflats.com/locations/naples", "opening_hours": "Mon-Sat 11 AM - 10 PM; Sun 11 AM - 9 PM", "brand": "Tijuana Flats", "brand:wikidata": "Q7801833", "nsi_id": "tijuanaflats-96af40"}, "geometry": {"type": "Point", "coordinates": [-81.80001720000001, 26.2734156]}},
{"type": "Feature", "id": "TwGB69RR_jqi9zkDqgOUK9hieDM=", "properties": {"ref": "new-tampa", "@spider": "tijuanaflats", "amenity": "restaurant", "cuisine": "mexican", "addr:full": "17501 Preserve Walk Ln. #103", "addr:city": "Tampa", "addr:state": "FL", "addr:postcode": "33647", "name": "New Tampa - Tijuana Flats", "phone": "(813) 975-0483", "website": "https://www.tijuanaflats.com/locations/new-tampa", "opening_hours": "Tues-Sat 11 AM - 9:30 PM; Sun-Mon 11 AM - 9 PM", "brand": "Tijuana Flats", "brand:wikidata": "Q7801833", "nsi_id": "tijuanaflats-96af40"}, "geometry": {"type": "Point", "coordinates": [-82.36966239999998, 28.1275722]}},
{"type": "Feature", "id": "xOKZBdAJTw7Hpg2tD68u7PfoiSg=", "properties": {"ref": "noblesville", "@spider": "tijuanaflats", "amenity": "restaurant", "cuisine": "mexican", "addr:full": "17535 Terry Lee Crossing", "addr:city": "Noblesville", "addr:state": "IN", "addr:postcode": "46060", "name": "Noblesville - Tijuana Flats", "phone": "(317) 565-1129", "website": "https://www.tijuanaflats.com/locations/noblesville", "opening_hours": "Mon-Sun 11 AM - 9 PM", "brand": "Tijuana Flats", "brand:wikidata": "Q7801833", "nsi_id": "tijuanaflats-96af40"}, "geometry": {"type": "Point", "coordinates": [-85.9940965, 40.0429048]}},
{"type": "Feature", "id": "7371_2lvM4uu6gtaneLyHLgdT5Q=", "properties": {"ref": "nocatee-ponte-vedra", "@spider": "tijuanaflats", "amenity": "restaurant", "cuisine": "mexican", "addr:full": "41 Settlement Drive Ste. 501", "addr:city": "Ponte Vedra", "addr:state": "FL", "addr:postcode": "32081", "name": "Nocatee - Tijuana Flats", "phone": "(904) 373-9230", "website": "https://www.tijuanaflats.com/locations/nocatee-ponte-vedra", "opening_hours": "Mon-Sun 11 AM - 9 PM", "brand": "Tijuana Flats", "brand:wikidata": "Q7801833", "nsi_id": "tijuanaflats-96af40"}, "geometry": {"type": "Point", "coordinates": [-81.41738149999998, 30.1101775]}},
{"type": "Feature", "id": "4Xt2IAPjWhIcmJ1mkkHJ_f3zWxc=", "properties": {"ref": "north-miami", "@spider": "tijuanaflats", "amenity": "restaurant", "cuisine": "mexican", "addr:full": "13256 Biscayne Blvd.", "addr:city": " N. Miami", "addr:state": "FL", "addr:postcode": "33181", "name": "North Miami - Tijuana Flats", "phone": "(305) 981-7528", "website": "https://www.tijuanaflats.com/locations/north-miami", "opening_hours": "Tues-Sat 11 AM - 10 PM; Sun-Mon 11 AM - 9 PM", "brand": "Tijuana Flats", "brand:wikidata": "Q7801833", "nsi_id": "tijuanaflats-96af40"}, "geometry": {"type": "Point", "coordinates": [-80.16220850000002, 25.8974982]}},
{"type": "Feature", "id": "u3il61hZpJIWfMLMotcJTlv2y6o=", "properties": {"ref": "otown", "@spider": "tijuanaflats", "amenity": "restaurant", "cuisine": "mexican", "addr:full": "7750 Palm Parkway", "addr:city": "Orlando", "addr:state": "FL", "addr:postcode": "32836", "name": "O-Town - Tijuana Flats", "phone": "(689) 208-5622", "website": "https://www.tijuanaflats.com/locations/otown", "opening_hours": "Tues-Sat 11 AM - 9:30 PM; Sun-Mon 11 AM - 9 PM", "brand": "Tijuana Flats", "brand:wikidata": "Q7801833", "nsi_id": "tijuanaflats-96af40"}, "geometry": {"type": "Point", "coordinates": [-81.4887349, 28.3982669]}},
{"type": "Feature", "id": "L6LncGtAlE1U5EaGz4_HmaQsh9Y=", "properties": {"ref": "oakbrook-terrace", "@spider": "tijuanaflats", "amenity": "restaurant", "cuisine": "mexican", "addr:full": "17W615 Butterfield Rd", "addr:city": "Oakbrook Terrace", "addr:state": "IL", "addr:postcode": "60181", "name": "Oakbrook Terrace - Tijuana Flats", "phone": "630-317-0871", "website": "https://www.tijuanaflats.com/locations/oakbrook-terrace", "opening_hours": "Sun-Sat 11 AM - 9 PM", "brand": "Tijuana Flats", "brand:wikidata": "Q7801833", "nsi_id": "tijuanaflats-96af40"}, "geometry": {"type": "Point", "coordinates": [-87.97306499999999, 41.850452]}},
{"type": "Feature", "id": "6bo45fN8kTyYr4th7Ysa47Wuu5I=", "properties": {"ref": "oakland-park", "@spider": "tijuanaflats", "amenity": "restaurant", "cuisine": "mexican", "addr:full": "5065 N. Dixie Hwy. ", "addr:city": "Oakland Park", "addr:state": "FL", "addr:postcode": "33334", "name": "Oakland Pkwy - Tijuana Flats", "phone": "(954) 489-4463", "website": "https://www.tijuanaflats.com/locations/oakland-park", "opening_hours": "Tues-Sat 11 AM - 9:30 PM; Sun-Mon 11 AM - 9 PM", "brand": "Tijuana Flats", "brand:wikidata": "Q7801833", "nsi_id": "tijuanaflats-96af40"}, "geometry": {"type": "Point", "coordinates": [-80.13382999999999, 26.1898829]}},
{"type": "Feature", "id": "kXvlsH0gPRxCcdiW5XmLddRRHU4=", "properties": {"ref": "ocala", "@spider": "tijuanaflats", "amenity": "restaurant", "cuisine": "mexican", "addr:full": "3950 S.W. College Rd.", "addr:city": "Ocala", "addr:state": "FL", "addr:postcode": "34474", "name": "Ocala - Tijuana Flats", "phone": "(352) 291-1316", "website": "https://www.tijuanaflats.com/locations/ocala", "opening_hours": "Mon-Sun 11 AM - 7:30 PM", "brand": "Tijuana Flats", "brand:wikidata": "Q7801833", "nsi_id": "tijuanaflats-96af40"}, "geometry": {"type": "Point", "coordinates": [-82.18882029999997, 29.1457024]}},
{"type": "Feature", "id": "8vCPdyTNqGwlEHOizWBK_ynSTl8=", "properties": {"ref": "ocoee", "@spider": "tijuanaflats", "amenity": "restaurant", "cuisine": "mexican", "addr:full": "11024 West Colonial Dr.", "addr:city": "Ocoee", "addr:state": "FL", "addr:postcode": "34761", "name": "Ocoee - Tijuana Flats", "phone": "321-418-8104", "website": "https://www.tijuanaflats.com/locations/ocoee", "opening_hours": "Tues-Sat 11 AM - 9:30 PM; Sun-Mon 11 AM - 9 PM", "brand": "Tijuana Flats", "brand:wikidata": "Q7801833", "nsi_id": "tijuanaflats-96af40"}, "geometry": {"type": "Point", "coordinates": [-81.5426329, 28.5513806]}},
{"type": "Feature", "id": "lJ8MFxorzqrA-n57MPB2nfdWQcs=", "properties": {"ref": "oldsmar", "@spider": "tijuanaflats", "amenity": "restaurant", "cuisine": "mexican", "addr:full": "3687 Tampa Rd. Ste. 203 ", "addr:city": "Oldsmar", "addr:state": "FL", "addr:postcode": "34677", "name": "Oldsmar - Tijuana Flats", "phone": "(813) 749-8184", "website": "https://www.tijuanaflats.com/locations/oldsmar", "opening_hours": "Tues-Sat 11 AM - 9:30 PM; Sun-Mon 11 AM - 9 PM", "brand": "Tijuana Flats", "brand:wikidata": "Q7801833", "nsi_id": "tijuanaflats-96af40"}, "geometry": {"type": "Point", "coordinates": [-82.6813469, 28.045303]}},
{"type": "Feature", "id": "lImMxLRrP7bwDzzpf04VuK6XO8Q=", "properties": {"ref": "orange-city", "@spider": "tijuanaflats", "amenity": "restaurant", "cuisine": "mexican", "addr:full": "1169 Saxon Blvd.", "addr:city": " Orange City ", "addr:state": "FL", "addr:postcode": "32763", "name": "Orange City - Tijuana Flats", "phone": "(386) 456-0003", "website": "https://www.tijuanaflats.com/locations/orange-city", "opening_hours": "Mon-Sat 11 AM - 10 PM; Sun 11 AM - 9 PM", "brand": "Tijuana Flats", "brand:wikidata": "Q7801833", "nsi_id": "tijuanaflats-96af40"}, "geometry": {"type": "Point", "coordinates": [-81.2794983, 28.91193519999999]}},
{"type": "Feature", "id": "lmKLvHprIGixFB_AEqjQUiG4oC4=", "properties": {"ref": "orange-lake-kissimmee", "@spider": "tijuanaflats", "amenity": "restaurant", "cuisine": "mexican", "addr:full": "8085 W Irlo Bronson Memorial Highway", "addr:city": "Kissimmee ", "addr:state": "FL", "addr:postcode": "34747", "name": "Orange Lake - Tijuana Flats", "phone": "(407) 705-2012", "website": "https://www.tijuanaflats.com/locations/orange-lake-kissimmee", "opening_hours": "Tues-Sat 11 AM - 9:30 PM; Sun-Mon 11 AM - 9 PM", "brand": "Tijuana Flats", "brand:wikidata": "Q7801833", "nsi_id": "tijuanaflats-96af40"}, "geometry": {"type": "Point", "coordinates": [-81.6109998, 28.3476933]}},
{"type": "Feature", "id": "UXjNAlyVxp4mK9z1Xu616TjfKOY=", "properties": {"ref": "ortega-village-jacksonville", "@spider": "tijuanaflats", "amenity": "restaurant", "cuisine": "mexican", "addr:full": "5907 Roosevelt Blvd. Ste. 100 ", "addr:city": "Jacksonville", "addr:state": "FL", "addr:postcode": "32244", "name": "Ortega Village - Tijuana Flats", "phone": "(904) 908-4343", "website": "https://www.tijuanaflats.com/locations/ortega-village-jacksonville", "opening_hours": "Mon-Sun 11 AM - 9 PM", "brand": "Tijuana Flats", "brand:wikidata": "Q7801833", "nsi_id": "tijuanaflats-96af40"}, "geometry": {"type": "Point", "coordinates": [-81.69595240000001, 30.2432723]}},
{"type": "Feature", "id": "xxCYsYi-FlQ64aomymgUC-M7ZRk=", "properties": {"ref": "oviedo", "@spider": "tijuanaflats", "amenity": "restaurant", "cuisine": "mexican", "addr:full": "1016 Lockwood Blvd. Ste. 150 ", "addr:city": "Oviedo", "addr:state": "FL", "addr:postcode": "32765", "name": "Oviedo - Tijuana Flats", "phone": "(407) 706-1468", "website": "https://www.tijuanaflats.com/locations/oviedo", "opening_hours": "Mon - Sat 11 AM - 10 PM; Sun 11 AM - 9 PM", "brand": "Tijuana Flats", "brand:wikidata": "Q7801833", "nsi_id": "tijuanaflats-96af40"}, "geometry": {"type": "Point", "coordinates": [-81.17987440000002, 28.6581538]}},
{"type": "Feature", "id": "onGu7fuDj0PYVWlKlhDTk8koA84=", "properties": {"ref": "west-melbourne", "@spider": "tijuanaflats", "amenity": "restaurant", "cuisine": "mexican", "addr:full": "705 Palm Bay Rd. NE Ste. 109", "addr:city": "West Melbourne", "addr:state": "FL", "addr:postcode": "32904", "name": "Palm Bay Rd. - Tijuana Flats", "phone": "(321) 215-4860", "website": "https://www.tijuanaflats.com/locations/west-melbourne", "opening_hours": "Tues-Sat 11 AM - 9:30 PM; Sun-Mon 11 AM - 9 PM", "brand": "Tijuana Flats", "brand:wikidata": "Q7801833", "nsi_id": "tijuanaflats-96af40"}, "geometry": {"type": "Point", "coordinates": [-80.65636230000001, 28.0354834]}},
{"type": "Feature", "id": "JgpGMZnJ0bVraaIVnOkbMPG6qdc=", "properties": {"ref": "palm-beach-lakes-west-palm-beach", "@spider": "tijuanaflats", "amenity": "restaurant", "cuisine": "mexican", "addr:full": "2089 Palm Beach Lakes Blvd. ", "addr:city": "West Palm Beach", "addr:state": "FL", "addr:postcode": "33409", "name": "Palm Beach Lakes - Tijuana Flats", "phone": "(561) 249-4440", "website": "https://www.tijuanaflats.com/locations/palm-beach-lakes-west-palm-beach", "opening_hours": "Tues-Sat 11 AM - 9:30 PM; Sun-Mon 11 AM - 9 PM", "brand": "Tijuana Flats", "brand:wikidata": "Q7801833", "nsi_id": "tijuanaflats-96af40"}, "geometry": {"type": "Point", "coordinates": [-80.09432509999999, 26.7142049]}},
{"type": "Feature", "id": "H3zRRT-ZtwH_GByr2lbemywgqw8=", "properties": {"ref": "panama-city-coming-soon", "@spider": "tijuanaflats", "amenity": "restaurant", "cuisine": "mexican", "addr:full": "226 West 23rd Street ", "addr:city": "Panama City", "addr:state": "FL", "addr:postcode": "32405", "name": "Panama City - Coming Soon! - Tijuana Flats", "phone": "850-640-2295", "website": "https://www.tijuanaflats.com/locations/panama-city-coming-soon", "opening_hours": "Coming Soon", "brand": "Tijuana Flats", "brand:wikidata": "Q7801833", "nsi_id": "tijuanaflats-96af40"}, "geometry": {"type": "Point", "coordinates": [-85.6639963, 30.1901609]}},
{"type": "Feature", "id": "h-xZFJu0rFnvCqRWIFHhJeHAtkc=", "properties": {"ref": "parkside-cary", "@spider": "tijuanaflats", "amenity": "restaurant", "cuisine": "mexican", "addr:full": "7165 O'Kelly Chapel Rd.", "addr:city": "Cary", "addr:state": "NC", "addr:postcode": "27519", "name": "Parkside - Tijuana Flats", "phone": "(919) 629-3200", "website": "https://www.tijuanaflats.com/locations/parkside-cary", "opening_hours": "Mon-Sun 11 AM - 9 PM", "brand": "Tijuana Flats", "brand:wikidata": "Q7801833", "nsi_id": "tijuanaflats-96af40"}, "geometry": {"type": "Point", "coordinates": [-78.88868079999997, 35.84422199999999]}},
{"type": "Feature", "id": "RkjGxASJqPYT5IvK1tW5mVOMxgs=", "properties": {"ref": "pembroke-pines", "@spider": "tijuanaflats", "amenity": "restaurant", "cuisine": "mexican", "addr:full": "12598 Pines Blvd. Ste. 106", "addr:city": "Pembroke Pines", "addr:state": "FL", "addr:postcode": "33027", "name": "Pembroke Pines - Tijuana Flats", "phone": "(954) 442-0420", "website": "https://www.tijuanaflats.com/locations/pembroke-pines", "opening_hours": "Tues-Sat 11 AM - 9:30 PM; Sun-Mon 11 AM - 9 PM", "brand": "Tijuana Flats", "brand:wikidata": "Q7801833", "nsi_id": "tijuanaflats-96af40"}, "geometry": {"type": "Point", "coordinates": [-80.3163055, 26.0071808]}},
{"type": "Feature", "id": "48t_k3Y3xC2WnNSrwiaChxqLSvo=", "properties": {"ref": "pinellas-park", "@spider": "tijuanaflats", "amenity": "restaurant", "cuisine": "mexican", "addr:full": "7860 US Hwy. 19 N.", "addr:city": "Pinellas Park ", "addr:state": "FL", "addr:postcode": "33781", "name": "Pinellas Park - Tijuana Flats", "phone": "(727) 209-3254", "website": "https://www.tijuanaflats.com/locations/pinellas-park", "opening_hours": "Tues-Sat 11 AM - 9:30 PM; Sun-Mon 11 AM - 9 PM", "brand": "Tijuana Flats", "brand:wikidata": "Q7801833", "nsi_id": "tijuanaflats-96af40"}, "geometry": {"type": "Point", "coordinates": [-82.68691669999998, 27.8435351]}},
{"type": "Feature", "id": "7O3xu98RIjU2zuEmHNNoMuM8K5w=", "properties": {"ref": "pineloch-orange-orlando", "@spider": "tijuanaflats", "amenity": "restaurant", "cuisine": "mexican", "addr:full": "3154 S. Orange Ave. ", "addr:city": "Orlando", "addr:state": "FL", "addr:postcode": "32806", "name": "Pineloch & Orange - Tijuana Flats", "phone": "(407) 859-6190", "website": "https://www.tijuanaflats.com/locations/pineloch-orange-orlando", "opening_hours": "Tues-Sat 11 AM - 9:30 PM; Sun-Mon 11 AM - 9 PM", "brand": "Tijuana Flats", "brand:wikidata": "Q7801833", "nsi_id": "tijuanaflats-96af40"}, "geometry": {"type": "Point", "coordinates": [-81.3767168, 28.5064909]}},
{"type": "Feature", "id": "E9Np7ADBW7QAocDHbr1YUmyvrqA=", "properties": {"ref": "plantation", "@spider": "tijuanaflats", "amenity": "restaurant", "cuisine": "mexican", "addr:full": "1371 S. University Dr. ", "addr:city": "Plantation", "addr:state": "FL", "addr:postcode": "33324", "name": "Plantation - Tijuana Flats", "phone": "(954) 903-6073", "website": "https://www.tijuanaflats.com/locations/plantation", "opening_hours": "Tues-Sat 11 AM - 9:30 PM; Sun-Mon 11 AM - 9 PM", "brand": "Tijuana Flats", "brand:wikidata": "Q7801833", "nsi_id": "tijuanaflats-96af40"}, "geometry": {"type": "Point", "coordinates": [-80.25134109999999, 26.1030166]}},
{"type": "Feature", "id": "a-8z8vzUw3SMnJ_jM7jU_OE_Nck=", "properties": {"ref": "tampa-west-platt-st", "@spider": "tijuanaflats", "amenity": "restaurant", "cuisine": "mexican", "addr:full": "1617 W. Platt St.", "addr:city": "Tampa", "addr:state": "FL", "addr:postcode": "33606", "name": "Platt St. - Tijuana Flats", "phone": "(813) 528-4646", "website": "https://www.tijuanaflats.com/locations/tampa-west-platt-st", "opening_hours": "Tues-Sat 11 AM - 9:30 PM; Sun-Mon 11 AM - 9 PM", "brand": "Tijuana Flats", "brand:wikidata": "Q7801833", "nsi_id": "tijuanaflats-96af40"}, "geometry": {"type": "Point", "coordinates": [-82.4765868, 27.9420245]}},
{"type": "Feature", "id": "6zOMGnVOVLaH8xBy18p6wc33T9E=", "properties": {"ref": "pompano-beach", "@spider": "tijuanaflats", "amenity": "restaurant", "cuisine": "mexican", "addr:full": "431 S. Federal Hwy.", "addr:city": "Pompano Beach", "addr:state": "FL", "addr:postcode": "33062", "name": "Pompano - Tijuana Flats", "phone": "(954) 946-0476", "website": "https://www.tijuanaflats.com/locations/pompano-beach", "opening_hours": "Tues-Sat 11 AM - 9:30 PM; Sun-Mon 11 AM - 9 PM", "brand": "Tijuana Flats", "brand:wikidata": "Q7801833", "nsi_id": "tijuanaflats-96af40"}, "geometry": {"type": "Point", "coordinates": [-80.10311380000002, 26.2285686]}},
{"type": "Feature", "id": "otWPtaVh5e0J6xqK73PllXNq2TM=", "properties": {"ref": "port-charlotte", "@spider": "tijuanaflats", "amenity": "restaurant", "cuisine": "mexican", "addr:full": "1100 El Jobean Rd. Ste. 102 ", "addr:city": "Port Charlotte", "addr:state": "FL", "addr:postcode": "33948", "name": "Port Charlotte - Tijuana Flats", "phone": "(941) 766-8226", "website": "https://www.tijuanaflats.com/locations/port-charlotte", "opening_hours": "Mon-Sat 11 AM - 9 PM; Sun 11 AM - 9 PM", "brand": "Tijuana Flats", "brand:wikidata": "Q7801833", "nsi_id": "tijuanaflats-96af40"}, "geometry": {"type": "Point", "coordinates": [-82.1496899, 27.0107812]}},
{"type": "Feature", "id": "Y0lt3XOJ2Ihk7fkhwUdTiRZBjy4=", "properties": {"ref": "port-orange", "@spider": "tijuanaflats", "amenity": "restaurant", "cuisine": "mexican", "addr:full": "1760 Dunlawton Ave.", "addr:city": "Port Orange", "addr:state": "FL", "addr:postcode": "32127", "name": "Port Orange - Tijuana Flats", "phone": "(386) 271-4663", "website": "https://www.tijuanaflats.com/locations/port-orange", "opening_hours": "Mon-Sun 11 AM - 9 PM", "brand": "Tijuana Flats", "brand:wikidata": "Q7801833", "nsi_id": "tijuanaflats-96af40"}, "geometry": {"type": "Point", "coordinates": [-81.02521539999998, 29.1102141]}},
{"type": "Feature", "id": "2Te30Jdqnxqwrhi8h6j7vXJr644=", "properties": {"ref": "port-saint-lucie", "@spider": "tijuanaflats", "amenity": "restaurant", "cuisine": "mexican", "addr:full": "1359 NW St. Lucie West Blvd. ", "addr:city": "Port St. Lucie", "addr:state": "FL", "addr:postcode": "34986", "name": "Port St. Lucie - Tijuana Flats", "phone": "(772) 240-7755", "website": "https://www.tijuanaflats.com/locations/port-saint-lucie", "opening_hours": "Tues-Sat 11 AM - 9:30 PM; Sun-Mon 11 AM - 9 PM", "brand": "Tijuana Flats", "brand:wikidata": "Q7801833", "nsi_id": "tijuanaflats-96af40"}, "geometry": {"type": "Point", "coordinates": [-80.3889633, 27.3165636]}},
{"type": "Feature", "id": "v3kTI9uLjwvDBG-a3zHbr9Qmpk8=", "properties": {"ref": "river-city-jacksonville", "@spider": "tijuanaflats", "amenity": "restaurant", "cuisine": "mexican", "addr:full": "651 Nautica Dr. Ste. 2 ", "addr:city": "Jacksonville", "addr:state": "FL", "addr:postcode": "32218", "name": "River City - Tijuana Flats", "phone": "(904) 738-7642", "website": "https://www.tijuanaflats.com/locations/river-city-jacksonville", "opening_hours": "Sun-Sat 11 AM - 9 PM", "brand": "Tijuana Flats", "brand:wikidata": "Q7801833", "nsi_id": "tijuanaflats-96af40"}, "geometry": {"type": "Point", "coordinates": [-81.6361943, 30.4787807]}},
{"type": "Feature", "id": "kfGue-ndK-0BzjMQB8F2OLo9jsQ=", "properties": {"ref": "riverside-jacksonville", "@spider": "tijuanaflats", "amenity": "restaurant", "cuisine": "mexican", "addr:full": "2025 Riverside Ave. #4", "addr:city": "Jacksonville ", "addr:state": "FL", "addr:postcode": "32204", "name": "Riverside - Tijuana Flats", "phone": "(904) 389-5630", "website": "https://www.tijuanaflats.com/locations/riverside-jacksonville", "opening_hours": "Tues-Sat 11 AM - 9:30 PM; Sun-Mon 11 AM - 9 PM", "brand": "Tijuana Flats", "brand:wikidata": "Q7801833", "nsi_id": "tijuanaflats-96af40"}, "geometry": {"type": "Point", "coordinates": [-81.6809968, 30.3112997]}},
{"type": "Feature", "id": "A1pPaI4-MND-3acmaNSHrgISulY=", "properties": {"ref": "riverview", "@spider": "tijuanaflats", "amenity": "restaurant", "cuisine": "mexican", "addr:full": "13009 US Hwy. 301 ", "addr:city": "Riverview ", "addr:state": "FL", "addr:postcode": "33578", "name": "Riverview - Tijuana Flats", "phone": "(813) 257-9250", "website": "https://www.tijuanaflats.com/locations/riverview", "opening_hours": "Tues-Sat 11 AM - 9:30 PM; Sun-Mon 11 AM - 9 PM", "brand": "Tijuana Flats", "brand:wikidata": "Q7801833", "nsi_id": "tijuanaflats-96af40"}, "geometry": {"type": "Point", "coordinates": [-82.33547149999998, 27.7978221]}},
{"type": "Feature", "id": "r7ZlHHTPu_nr_7l0qWVK0PHntbY=", "properties": {"ref": "roosevelt-saint-petersburg", "@spider": "tijuanaflats", "amenity": "restaurant", "cuisine": "mexican", "addr:full": "10300 Roosevelt Blvd. N.", "addr:city": "St. Petersburg ", "addr:state": "FL", "addr:postcode": "33716", "name": "Roosevelt - Tijuana Flats", "phone": "(727) 578-8970", "website": "https://www.tijuanaflats.com/locations/roosevelt-saint-petersburg", "opening_hours": "Tues-Sat 11 AM - 9:30 PM; Sun-Mon 11 AM - 9 PM", "brand": "Tijuana Flats", "brand:wikidata": "Q7801833", "nsi_id": "tijuanaflats-96af40"}, "geometry": {"type": "Point", "coordinates": [-82.64252909999999, 27.8657905]}},
{"type": "Feature", "id": "aXIqeNkpXnc5CdUeAl2gQ5aW2Ok=", "properties": {"ref": "royal-palm-beach", "@spider": "tijuanaflats", "amenity": "restaurant", "cuisine": "mexican", "addr:full": "280 South SR 7 Ste. 300", "addr:city": "Royal Palm Beach", "addr:state": "FL", "addr:postcode": "33414", "name": "Royal Palm Beach - Tijuana Flats", "phone": "(561) 515-2715", "website": "https://www.tijuanaflats.com/locations/royal-palm-beach", "opening_hours": "Tues-Sat 11 AM - 9:30 PM; Sun-Mon 11 AM - 9 PM", "brand": "Tijuana Flats", "brand:wikidata": "Q7801833", "nsi_id": "tijuanaflats-96af40"}, "geometry": {"type": "Point", "coordinates": [-80.20243590000001, 26.6754005]}},
{"type": "Feature", "id": "VbsxGNsfcI_kJqAzmk2B-99R5Is=", "properties": {"ref": "sand-lake-orlando", "@spider": "tijuanaflats", "amenity": "restaurant", "cuisine": "mexican", "addr:full": "7560 W. Sand Lake Rd.", "addr:city": " Orlando ", "addr:state": "FL", "addr:postcode": "32819", "name": "Sand Lake - Tijuana Flats", "phone": "(407) 352-6113", "website": "https://www.tijuanaflats.com/locations/sand-lake-orlando", "opening_hours": "Tues-Sat 11 AM - 9:30 PM; Sun-Mon 11 AM - 9 PM", "brand": "Tijuana Flats", "brand:wikidata": "Q7801833", "nsi_id": "tijuanaflats-96af40"}, "geometry": {"type": "Point", "coordinates": [-81.48545760000002, 28.4488147]}},
{"type": "Feature", "id": "hg9r68Hhgj6IHSadDaEn5yYNKAs=", "properties": {"ref": "sanford", "@spider": "tijuanaflats", "amenity": "restaurant", "cuisine": "mexican", "addr:full": "5030 W. SR 46 Ste. 1036", "addr:city": "Sanford", "addr:state": "FL", "addr:postcode": "32771", "name": "Sanford - Tijuana Flats", "phone": "(407) 936-0154", "website": "https://www.tijuanaflats.com/locations/sanford", "opening_hours": "Tues-Sat 11 AM - 9:30 PM; Sun-Mon 11 AM - 9 PM", "brand": "Tijuana Flats", "brand:wikidata": "Q7801833", "nsi_id": "tijuanaflats-96af40"}, "geometry": {"type": "Point", "coordinates": [-81.34650239999996, 28.811394]}},
{"type": "Feature", "id": "hbFo9xzIW85rQyUVJv-CjdeRg5Q=", "properties": {"ref": "sarasota-clark-rd", "@spider": "tijuanaflats", "amenity": "restaurant", "cuisine": "mexican", "addr:full": "3404 Clark Rd.", "addr:city": "Sarasota", "addr:state": "FL", "addr:postcode": "34231", "name": "Sarasota - Clark Rd. - Tijuana Flats", "phone": "(941) 925-0729", "website": "https://www.tijuanaflats.com/locations/sarasota-clark-rd", "opening_hours": "Tues-Sat 11 AM - 9:30 PM; Sun-Mon 11 AM - 9 PM", "brand": "Tijuana Flats", "brand:wikidata": "Q7801833", "nsi_id": "tijuanaflats-96af40"}, "geometry": {"type": "Point", "coordinates": [-82.5014888, 27.2689591]}},
{"type": "Feature", "id": "v_icjMNzwGxAAkM2ir44AhtxuLU=", "properties": {"ref": "sarasota-university-pkwy", "@spider": "tijuanaflats", "amenity": "restaurant", "cuisine": "mexican", "addr:full": "5215 University Pkwy. Ste. 106", "addr:city": "University Park ", "addr:state": "FL", "addr:postcode": "34201", "name": "Sarasota - University Pkwy - Tijuana Flats", "phone": "(941) 306-5842", "website": "https://www.tijuanaflats.com/locations/sarasota-university-pkwy", "opening_hours": "Tues-Sat 11 AM - 9:30 PM; Sun-Mon 11 AM - 9 PM", "brand": "Tijuana Flats", "brand:wikidata": "Q7801833", "nsi_id": "tijuanaflats-96af40"}, "geometry": {"type": "Point", "coordinates": [-82.46743900000001, 27.3894816]}},
{"type": "Feature", "id": "bqbOiv-oNsij7I0uuQG3bfutlPU=", "properties": {"ref": "sarasota-tamiami-trail", "@spider": "tijuanaflats", "amenity": "restaurant", "cuisine": "mexican", "addr:full": "1635 S. Tamiami Trail", "addr:city": "Sarasota ", "addr:state": "FL", "addr:postcode": "34239", "name": "Sarasota US-41 - Tijuana Flats", "phone": "(941) 926-6090", "website": "https://www.tijuanaflats.com/locations/sarasota-tamiami-trail", "opening_hours": "Tues-Sat 11 AM - 9:30 PM; Sun-Mon 11 AM - 9 PM", "brand": "Tijuana Flats", "brand:wikidata": "Q7801833", "nsi_id": "tijuanaflats-96af40"}, "geometry": {"type": "Point", "coordinates": [-82.52918640000001, 27.3185473]}},
{"type": "Feature", "id": "XBWnFI8v4LQaRGfMtL2-56d0he4=", "properties": {"ref": "south-tampa", "@spider": "tijuanaflats", "amenity": "restaurant", "cuisine": "mexican", "addr:full": "4027 S. Dale Mabry Hwy.", "addr:city": "Tampa", "addr:state": "FL", "addr:postcode": "33611", "name": "South Tampa - Tijuana Flats", "phone": "(813) 579-4624", "website": "https://www.tijuanaflats.com/locations/south-tampa", "opening_hours": "Tues-Sat 11 AM - 9:30 PM; Sun-Mon 11 AM - 9 PM", "brand": "Tijuana Flats", "brand:wikidata": "Q7801833", "nsi_id": "tijuanaflats-96af40"}, "geometry": {"type": "Point", "coordinates": [-82.50676550000003, 27.9053653]}},
{"type": "Feature", "id": "r-1vSv0G8Y4CQF61wBl2lTS4PZw=", "properties": {"ref": "speedway-village-daytona-beach", "@spider": "tijuanaflats", "amenity": "restaurant", "cuisine": "mexican", "addr:full": "2280 W. International Speedway Blvd.", "addr:city": "Daytona Beach", "addr:state": "FL", "addr:postcode": "32114", "name": "Speedway Village - Tijuana Flats", "phone": "(386) 366-9117", "website": "https://www.tijuanaflats.com/locations/speedway-village-daytona-beach", "opening_hours": "Mon-Sat 11 AM - 10 PM; Sun 11 AM - 9 PM", "brand": "Tijuana Flats", "brand:wikidata": "Q7801833", "nsi_id": "tijuanaflats-96af40"}, "geometry": {"type": "Point", "coordinates": [-81.07837619999998, 29.1850188]}},
{"type": "Feature", "id": "heYZea_rGavR65KHjGB0BHB6evY=", "properties": {"ref": "saint-augustine", "@spider": "tijuanaflats", "amenity": "restaurant", "cuisine": "mexican", "addr:full": "833 S. Ponce de Leon Blvd. Unit 3", "addr:city": "St. Augustine ", "addr:state": "FL", "addr:postcode": "32084", "name": "St. Augustine - Tijuana Flats", "phone": "(904) 201-8655 ", "website": "https://www.tijuanaflats.com/locations/saint-augustine", "opening_hours": "Mon-Sun 11 AM - 9 PM", "brand": "Tijuana Flats", "brand:wikidata": "Q7801833", "nsi_id": "tijuanaflats-96af40"}, "geometry": {"type": "Point", "coordinates": [-81.32442679999997, 29.881543]}},
{"type": "Feature", "id": "n-vPLf7a1RdRABZPePFY5KJ2uAM=", "properties": {"ref": "saint-cloud", "@spider": "tijuanaflats", "amenity": "restaurant", "cuisine": "mexican", "addr:full": "4100 13th St.", "addr:city": "St. Cloud", "addr:state": "FL", "addr:postcode": "34769", "name": "St. Cloud - Tijuana Flats", "phone": "(407) 979-4748", "website": "https://www.tijuanaflats.com/locations/saint-cloud", "opening_hours": "Tues-Sat 11 AM - 9:30 PM; Sun-Mon 11 AM - 9 PM", "brand": "Tijuana Flats", "brand:wikidata": "Q7801833", "nsi_id": "tijuanaflats-96af40"}, "geometry": {"type": "Point", "coordinates": [-81.31284249999999, 28.25167]}},
{"type": "Feature", "id": "P4Y-80-iSS3ooUdH39JtYiiCETI=", "properties": {"ref": "saint-petersburg-4th-street", "@spider": "tijuanaflats", "amenity": "restaurant", "cuisine": "mexican", "addr:full": "944 4th Street N. Ste. 100", "addr:city": "St. Petersburg", "addr:state": "FL", "addr:postcode": "33701", "name": "St. Pete - Tijuana Flats", "phone": "(727) 823-5882", "website": "https://www.tijuanaflats.com/locations/saint-petersburg-4th-street", "opening_hours": "Tues-Sat 11 AM - 9:30 PM; Sun-Mon 11 AM - 9 PM", "brand": "Tijuana Flats", "brand:wikidata": "Q7801833", "nsi_id": "tijuanaflats-96af40"}, "geometry": {"type": "Point", "coordinates": [-82.63872649999996, 27.7818385]}},
{"type": "Feature", "id": "ec6vdfjjBWpvFDJ4LbBwvhND7KU=", "properties": {"ref": "stuart", "@spider": "tijuanaflats", "amenity": "restaurant", "cuisine": "mexican", "addr:full": "1990 S.E. Federal Hwy. Ste. A ", "addr:city": "Stuart", "addr:state": "FL", "addr:postcode": "34994", "name": "Stuart - Tijuana Flats", "phone": "(772) 219-8236", "website": "https://www.tijuanaflats.com/locations/stuart", "opening_hours": "Tues-Sat 11 AM - 9:30 PM; Sun-Mon 11 AM - 9 PM", "brand": "Tijuana Flats", "brand:wikidata": "Q7801833", "nsi_id": "tijuanaflats-96af40"}, "geometry": {"type": "Point", "coordinates": [-80.23880099999997, 27.1779915]}},
{"type": "Feature", "id": "wgZvnLLNWL8iJSl7uXP7-EHYOqY=", "properties": {"ref": "tallahassee-mahan-dr", "@spider": "tijuanaflats", "amenity": "restaurant", "cuisine": "mexican", "addr:full": "3111 Mahan Dr.", "addr:city": "Tallahassee FL", "addr:state": "FL", "addr:postcode": "32308", "name": "Tallahassee - Mahan Dr. - Tijuana Flats", "phone": "(850) 597-7001", "website": "https://www.tijuanaflats.com/locations/tallahassee-mahan-dr", "opening_hours": "Mon-Sun 11 AM - 9 PM", "brand": "Tijuana Flats", "brand:wikidata": "Q7801833", "nsi_id": "tijuanaflats-96af40"}, "geometry": {"type": "Point", "coordinates": [-84.2249979, 30.4598072]}},
{"type": "Feature", "id": "Xfop3fvLboSMPLjQ8R0MF31q2lY=", "properties": {"ref": "tallahassee-pensacola-st", "@spider": "tijuanaflats", "amenity": "restaurant", "cuisine": "mexican", "addr:full": "2020 W. Pensacola St. Ste. 230A ", "addr:city": "Tallahassee ", "addr:state": "FL", "addr:postcode": "32304", "name": "Tallahassee - Pensacola St. - Tijuana Flats", "phone": "(850) 574-4689", "website": "https://www.tijuanaflats.com/locations/tallahassee-pensacola-st", "opening_hours": "Mon-Sun 11 AM - 8 PM", "brand": "Tijuana Flats", "brand:wikidata": "Q7801833", "nsi_id": "tijuanaflats-96af40"}, "geometry": {"type": "Point", "coordinates": [-84.31853869999998, 30.4421089]}},
{"type": "Feature", "id": "hceLA1WpZYhkjux2tmFYlaAKE0I=", "properties": {"ref": "thomasville-tallahassee", "@spider": "tijuanaflats", "amenity": "restaurant", "cuisine": "mexican", "addr:full": "1400 Village Square Blvd. Unit 36 ", "addr:city": "Tallahassee", "addr:state": "FL", "addr:postcode": "32312", "name": "Thomasville - Tijuana Flats", "phone": "(850) 391-3125", "website": "https://www.tijuanaflats.com/locations/thomasville-tallahassee", "opening_hours": "Mon-Sun 11 AM - 9 PM", "brand": "Tijuana Flats", "brand:wikidata": "Q7801833", "nsi_id": "tijuanaflats-96af40"}, "geometry": {"type": "Point", "coordinates": [-84.25010470000001, 30.5119395]}},
{"type": "Feature", "id": "Y4Rnqcs9Wjs8OwgnDnuR10a2Gag=", "properties": {"ref": "trinity-new-port-richey", "@spider": "tijuanaflats", "amenity": "restaurant", "cuisine": "mexican", "addr:full": "10900 SR 54 Ste. 101", "addr:city": "New Port Richey", "addr:state": "FL", "addr:postcode": "34655", "name": "Trinity - Tijuana Flats", "phone": "(727) 376-3500", "website": "https://www.tijuanaflats.com/locations/trinity-new-port-richey", "opening_hours": "Tues-Sat 11 AM - 9:30 PM; Sun-Mon 11 AM - 9 PM", "brand": "Tijuana Flats", "brand:wikidata": "Q7801833", "nsi_id": "tijuanaflats-96af40"}, "geometry": {"type": "Point", "coordinates": [-82.63485700000001, 28.1915611]}},
{"type": "Feature", "id": "AjEpTT4kxfk5TJP5SmXNMoFRtZY=", "properties": {"ref": "tuskaloma-oviedo", "@spider": "tijuanaflats", "amenity": "restaurant", "cuisine": "mexican", "addr:full": "3635 Aloma Ave. Ste. 1021", "addr:city": "Oviedo", "addr:state": "FL", "addr:postcode": "32765", "name": "TuskAloma - Tijuana Flats", "phone": "(407) 478-3468", "website": "https://www.tijuanaflats.com/locations/tuskaloma-oviedo", "opening_hours": "Mon - Sat 11 AM - 10 PM; Sun 11 AM - 9 PM", "brand": "Tijuana Flats", "brand:wikidata": "Q7801833", "nsi_id": "tijuanaflats-96af40"}, "geometry": {"type": "Point", "coordinates": [-81.26499590000003, 28.6179636]}},
{"type": "Feature", "id": "Ll-6CDOZNaA7nE3PmG7y6c_9e7A=", "properties": {"ref": "tyrone-saint-petersburg", "@spider": "tijuanaflats", "amenity": "restaurant", "cuisine": "mexican", "addr:full": "2117 66th St. N. ", "addr:city": "St. Petersburg", "addr:state": "FL", "addr:postcode": "33710", "name": "Tyrone - Tijuana Flats", "phone": "(727) 209-0191", "website": "https://www.tijuanaflats.com/locations/tyrone-saint-petersburg", "opening_hours": "Tues-Sat 11 AM - 9:30 PM; Sun-Mon 11 AM - 9 PM", "brand": "Tijuana Flats", "brand:wikidata": "Q7801833", "nsi_id": "tijuanaflats-96af40"}, "geometry": {"type": "Point", "coordinates": [-82.72792240000001, 27.788441]}},
{"type": "Feature", "id": "4pd1qlL1ZrSYWd_Omu_XBc2QtnU=", "properties": {"ref": "ucf-orlando", "@spider": "tijuanaflats", "amenity": "restaurant", "cuisine": "mexican", "addr:full": "11551 University Blvd. Ste. 6", "addr:city": "Orlando", "addr:state": "FL", "addr:postcode": "32817", "name": "UCF - Tijuana Flats", "phone": "(407) 601-4935", "website": "https://www.tijuanaflats.com/locations/ucf-orlando", "opening_hours": "Tues-Sat 11 AM - 10 PM; Sun-Mon 11 AM - 9 PM", "brand": "Tijuana Flats", "brand:wikidata": "Q7801833", "nsi_id": "tijuanaflats-96af40"}, "geometry": {"type": "Point", "coordinates": [-81.21995449999997, 28.5983289]}},
{"type": "Feature", "id": "wazaNRaWsTbgHEVzEit2to3L-jE=", "properties": {"ref": "viera-melbourne", "@spider": "tijuanaflats", "amenity": "restaurant", "cuisine": "mexican", "addr:full": "7181 Lake Andrew Dr. Ste. 101", "addr:city": "Melbourne", "addr:state": "FL", "addr:postcode": "32940", "name": "Viera - Tijuana Flats", "phone": "(321) 558-3355", "website": "https://www.tijuanaflats.com/locations/viera-melbourne", "opening_hours": "Tues-Sat 11 AM - 9:30 PM; Sun-Mon 11 AM - 9 PM", "brand": "Tijuana Flats", "brand:wikidata": "Q7801833", "nsi_id": "tijuanaflats-96af40"}, "geometry": {"type": "Point", "coordinates": [-80.72555620000003, 28.2360101]}},
{"type": "Feature", "id": "5YHh22ZOQBIQRfs31PfBS1tb0BI=", "properties": {"ref": "virginia-beach", "@spider": "tijuanaflats", "amenity": "restaurant", "cuisine": "mexican", "addr:full": "4224 Virginia Beach Blvd. Ste. 106", "addr:city": "Virginia Beach", "addr:state": "VA", "addr:postcode": "23452", "name": "Virginia Beach - Tijuana Flats", "phone": "(757) 961-3902", "website": "https://www.tijuanaflats.com/locations/virginia-beach", "opening_hours": "Mon-Sun 11 AM - 9 PM", "brand": "Tijuana Flats", "brand:wikidata": "Q7801833", "nsi_id": "tijuanaflats-96af40"}, "geometry": {"type": "Point", "coordinates": [-76.1203529, 36.8437809]}},
{"type": "Feature", "id": "Xnb9A-qWjA_4EJXFd_MfS6rzrME=", "properties": {"ref": "wellington", "@spider": "tijuanaflats", "amenity": "restaurant", "cuisine": "mexican", "addr:full": "13860 Wellington Trace", "addr:city": "Wellington", "addr:state": "FL", "addr:postcode": "33414", "name": "Wellington - Tijuana Flats", "phone": "(561) 784-5554", "website": "https://www.tijuanaflats.com/locations/wellington", "opening_hours": "Tues-Sat 11 AM - 9:30 PM; Sun-Mon 11 AM - 9 PM", "brand": "Tijuana Flats", "brand:wikidata": "Q7801833", "nsi_id": "tijuanaflats-96af40"}, "geometry": {"type": "Point", "coordinates": [-80.26577750000001, 26.6603322]}},
{"type": "Feature", "id": "RHpiiTyiJfy5s80aw0bQp0mv4h0=", "properties": {"ref": "wesley-chapel", "@spider": "tijuanaflats", "amenity": "restaurant", "cuisine": "mexican", "addr:full": "27709 SR 56 Ste. 101", "addr:city": "Wesley Chapel", "addr:state": "FL", "addr:postcode": "33543", "name": "Wesley Chapel - Tijuana Flats", "phone": "(813) 994-9010", "website": "https://www.tijuanaflats.com/locations/wesley-chapel", "opening_hours": "Tues-Sat 11 AM - 9:30 PM; Sun-Mon 11 AM - 9 PM", "brand": "Tijuana Flats", "brand:wikidata": "Q7801833", "nsi_id": "tijuanaflats-96af40"}, "geometry": {"type": "Point", "coordinates": [-82.35829139999998, 28.1863843]}},
{"type": "Feature", "id": "NGoyYkZWz7vNfTO0vLO1YX72ZRc=", "properties": {"ref": "west-boca", "@spider": "tijuanaflats", "amenity": "restaurant", "cuisine": "mexican", "addr:full": "20401 SR 7 Ste. G 4/5", "addr:city": "Boca Raton", "addr:state": "FL", "addr:postcode": "33498", "name": "West Boca - Tijuana Flats", "phone": "(561) 883-5450", "website": "https://www.tijuanaflats.com/locations/west-boca", "opening_hours": "Tues-Sat 11 AM - 9:30 PM; Sun-Mon 11 AM - 9 PM", "brand": "Tijuana Flats", "brand:wikidata": "Q7801833", "nsi_id": "tijuanaflats-96af40"}, "geometry": {"type": "Point", "coordinates": [-80.20510990000002, 26.3718014]}},
{"type": "Feature", "id": "oKO2UlbPVFEZUdvLuXrtTHdGkNY=", "properties": {"ref": "westchase-tampa", "@spider": "tijuanaflats", "amenity": "restaurant", "cuisine": "mexican", "addr:full": "9520 W. Linebaugh Ave.", "addr:city": "Tampa", "addr:state": "FL", "addr:postcode": "33626", "name": "Westchase - Tijuana Flats", "phone": "813-792-1881", "website": "https://www.tijuanaflats.com/locations/westchase-tampa", "opening_hours": "Tues-Sat 11 AM - 9:30 PM; Sun-Mon 11 AM - 9 PM", "brand": "Tijuana Flats", "brand:wikidata": "Q7801833", "nsi_id": "tijuanaflats-96af40"}, "geometry": {"type": "Point", "coordinates": [-82.5924023, 28.0432087]}},
{"type": "Feature", "id": "Wvx6oCKep3KLOYGGh8DAFkhwe3Y=", "properties": {"ref": "weston", "@spider": "tijuanaflats", "amenity": "restaurant", "cuisine": "mexican", "addr:full": "1110 Weston Rd.  ", "addr:city": "Weston ", "addr:state": "FL", "addr:postcode": "33326", "name": "Weston - Tijuana Flats", "phone": "(954) 358-5235", "website": "https://www.tijuanaflats.com/locations/weston", "opening_hours": "Tues-Sat 11 AM - 9:30 PM; Sun-Mon 11 AM - 9 PM", "brand": "Tijuana Flats", "brand:wikidata": "Q7801833", "nsi_id": "tijuanaflats-96af40"}, "geometry": {"type": "Point", "coordinates": [-80.36322569999999, 26.1056954]}},
{"type": "Feature", "id": "ZvIhhKuHw2FC-X55kfcBrLUiHyE=", "properties": {"ref": "windermere", "@spider": "tijuanaflats", "amenity": "restaurant", "cuisine": "mexican", "addr:full": "6527 Old Brick Rd. Ste. 100", "addr:city": "Windermere", "addr:state": "FL", "addr:postcode": "34786", "name": "Windermere - Tijuana Flats", "phone": "(407) 602-1880", "website": "https://www.tijuanaflats.com/locations/windermere", "opening_hours": "Tues-Sat 11 AM - 9:30 PM; Sun-Mon 11 AM - 9 PM", "brand": "Tijuana Flats", "brand:wikidata": "Q7801833", "nsi_id": "tijuanaflats-96af40"}, "geometry": {"type": "Point", "coordinates": [-81.562342, 28.4503306]}},
{"type": "Feature", "id": "sm9Vif-B1h7suGTDJurQMCtd1Tc=", "properties": {"ref": "winter-garden-colonial-dr", "@spider": "tijuanaflats", "amenity": "restaurant", "cuisine": "mexican", "addr:full": "13770 W. Colonial Dr. Ste. 120", "addr:city": "Winter Garden", "addr:state": "FL", "addr:postcode": "34787", "name": "Winter Garden - Tijuana Flats", "phone": "(407) 656-4855", "website": "https://www.tijuanaflats.com/locations/winter-garden-colonial-dr", "opening_hours": "Tues-Sat 11 AM - 9:30 PM; Sun-Mon 11 AM - 9 PM", "brand": "Tijuana Flats", "brand:wikidata": "Q7801833", "nsi_id": "tijuanaflats-96af40"}, "geometry": {"type": "Point", "coordinates": [-81.59018709999998, 28.5503076]}},
{"type": "Feature", "id": "8BxgiVXW4lzHw84NgeRg6swxTsY=", "properties": {"ref": "winter-haven", "@spider": "tijuanaflats", "amenity": "restaurant", "cuisine": "mexican", "addr:full": "5935 Cypress Gardens Blvd.", "addr:city": "Winter Haven", "addr:state": "FL", "addr:postcode": "33884", "name": "Winter Haven - Tijuana Flats", "phone": "(863) 324-3262", "website": "https://www.tijuanaflats.com/locations/winter-haven", "opening_hours": "Tues-Sat 11 AM - 9:30 PM; Sun-Mon 11 AM - 9 PM", "brand": "Tijuana Flats", "brand:wikidata": "Q7801833", "nsi_id": "tijuanaflats-96af40"}, "geometry": {"type": "Point", "coordinates": [-81.68918539999999, 27.992731]}},
{"type": "Feature", "id": "cG94aGOWasEv4xOMItJkfedmAjQ=", "properties": {"ref": "winter-springs", "@spider": "tijuanaflats", "amenity": "restaurant", "cuisine": "mexican", "addr:full": "160 Tuskawilla Rd. Ste. 1208", "addr:city": "Winter Springs", "addr:state": "FL", "addr:postcode": "32708", "name": "Winter Springs - Tijuana Flats", "phone": "(407) 706-2468", "website": "https://www.tijuanaflats.com/locations/winter-springs", "opening_hours": "Mon - Sat 11 AM - 10 PM; Sun 11 AM - 9 PM", "brand": "Tijuana Flats", "brand:wikidata": "Q7801833", "nsi_id": "tijuanaflats-96af40"}, "geometry": {"type": "Point", "coordinates": [-81.26260400000001, 28.69756869999999]}}]}