{"type":"FeatureCollection","features":[{"type": "Feature", "id": "lNVbiwA5pFsu3ilKPXnbsHBSPOk=", "properties": {"ref": "0203", "@spider": "tillys", "clothes": "children;men;women", "shop": "clothes", "addr:street_address": "7700 E Kellogg Drive", "addr:city": "Wichita", "addr:state": "KS", "addr:postcode": "67207", "addr:country": "US", "name": "Towne East Square", "phone": "316-789-7066", "opening_hours": "Mo-Sa 11:00-07:00; Su 12:00-06:00", "brand": "Tillys", "brand:wikidata": "Q7802889", "nsi_id": "tillys-0a21d9"}, "geometry": {"type": "Point", "coordinates": [-97.249, 37.683]}},
{"type": "Feature", "id": "iVg21k14Swv5TOY6HvkxDy9PIvg=", "properties": {"ref": "0183", "@spider": "tillys", "clothes": "children;men;women", "shop": "clothes", "addr:street_address": "10000 California Street", "addr:city": "Omaha", "addr:state": "NE", "addr:postcode": "68114", "addr:country": "US", "name": "Westroads Mall", "phone": "402-938-3190", "opening_hours": "Mo-Sa 11:00-07:00; Su 12:00-06:00", "brand": "Tillys", "brand:wikidata": "Q7802889", "nsi_id": "tillys-0a21d9"}, "geometry": {"type": "Point", "coordinates": [-96.069, 41.264]}},
{"type": "Feature", "id": "xzpMM8henqD1a3B-8HlXHPR_VvM=", "properties": {"ref": "0147", "@spider": "tillys", "clothes": "children;men;women", "shop": "clothes", "addr:street_address": "4001 West 41st Street", "addr:city": "Sioux Falls", "addr:state": "SD", "addr:postcode": "57106", "addr:country": "US", "name": "Empire Mall", "phone": "605-361-2033", "opening_hours": "Mo-Sa 11:00-07:00; Su 12:00-06:00", "brand": "Tillys", "brand:wikidata": "Q7802889", "nsi_id": "tillys-0a21d9"}, "geometry": {"type": "Point", "coordinates": [-96.774, 43.515]}},
{"type": "Feature", "id": "pibajxU8HhPkVO4wFbooSygnaMY=", "properties": {"ref": "0216", "@spider": "tillys", "clothes": "children;men;women", "shop": "clothes", "addr:street_address": "7021 S Memorial Drive", "addr:city": "Tulsa", "addr:state": "OK", "addr:postcode": "74133", "addr:country": "US", "name": "Woodland Hills Mall", "phone": "918-505-6135", "opening_hours": "Mo-Th 11:00-07:00; Fr-Sa 11:00-08:00; Su 12:00-07:00", "brand": "Tillys", "brand:wikidata": "Q7802889", "nsi_id": "tillys-0a21d9"}, "geometry": {"type": "Point", "coordinates": [-95.881, 36.063]}},
{"type": "Feature", "id": "r-X5tZXnwzYoA5n0TV-zSlTfbnc=", "properties": {"ref": "0211", "@spider": "tillys", "clothes": "children;men;women", "shop": "clothes", "addr:street_address": "1901 NW Expressway", "addr:city": "Oklahoma City", "addr:state": "OK", "addr:postcode": "73118", "addr:country": "US", "name": "Penn Square Mall", "phone": "405-486-7891", "opening_hours": "Mo-Sa 11:00-07:00; Su 12:00-06:00", "brand": "Tillys", "brand:wikidata": "Q7802889", "nsi_id": "tillys-0a21d9"}, "geometry": {"type": "Point", "coordinates": [-97.544, 35.525]}},
{"type": "Feature", "id": "kdjKKiid0bXf873VzmAeQW4hoY8=", "properties": {"ref": "0067", "@spider": "tillys", "clothes": "children;men;women", "shop": "clothes", "addr:street_address": "6200 South Main St.", "addr:city": "Aurora", "addr:state": "CO", "addr:postcode": "80016", "addr:country": "US", "name": "Southlands Shopping Center", "phone": "303-693-2713", "opening_hours": "Mo-Sa 11:00-07:00; Su 12:00-06:00", "brand": "Tillys", "brand:wikidata": "Q7802889", "nsi_id": "tillys-0a21d9"}, "geometry": {"type": "Point", "coordinates": [-104.709, 39.604]}},
{"type": "Feature", "id": "pOsPh7-hv5rU86Cxstx8PzhZfpk=", "properties": {"ref": "0230", "@spider": "tillys", "clothes": "children;men;women", "shop": "clothes", "addr:street_address": "8505 Park Meadows Center Drive", "addr:city": "Lone Tree", "addr:state": "CO", "addr:postcode": "80124", "addr:country": "US", "name": "Park Meadows", "phone": "303-248-2217", "opening_hours": "Mo-Sa 10:00-08:00; Su 11:00-07:00", "brand": "Tillys", "brand:wikidata": "Q7802889", "nsi_id": "tillys-0a21d9"}, "geometry": {"type": "Point", "coordinates": [-104.877, 39.563]}},
{"type": "Feature", "id": "dq7KTiR7MbhdsT4aHfpuDoofj0w=", "properties": {"ref": "0082", "@spider": "tillys", "clothes": "children;men;women", "shop": "clothes", "addr:street_address": "14647 Delaware St.", "addr:city": "Westminster", "addr:state": "CO", "addr:postcode": "80023", "addr:country": "US", "name": "Orchard Town Center", "phone": "303-254-5900", "opening_hours": "Mo-Sa 11:00-07:00; Su 12:00-06:00", "brand": "Tillys", "brand:wikidata": "Q7802889", "nsi_id": "tillys-0a21d9"}, "geometry": {"type": "Point", "coordinates": [-104.992, 39.962]}},
{"type": "Feature", "id": "nQ5Qa_uXqnQxZBNijGUvyOiUvlI=", "properties": {"ref": "0223", "@spider": "tillys", "clothes": "children;men;women", "shop": "clothes", "addr:street_address": "2825 S. Glenstone Ave.", "addr:city": "Springfield", "addr:state": "MO", "addr:postcode": "65804", "addr:country": "US", "name": "Battlefield Mall", "phone": "417-450-6995", "opening_hours": "Mo-Th 11:00-07:00; Fr-Sa 10:00-07:00; Su 12:00-06:00", "brand": "Tillys", "brand:wikidata": "Q7802889", "nsi_id": "tillys-0a21d9"}, "geometry": {"type": "Point", "coordinates": [-93.266, 37.163]}},
{"type": "Feature", "id": "7LqP43n28LKGvimZVQjyPdo5-ZQ=", "properties": {"ref": "0235", "@spider": "tillys", "clothes": "children;men;women", "shop": "clothes", "addr:street_address": "8501 West Bowles Avenue", "addr:city": "Littleton", "addr:state": "CO", "addr:postcode": "80123", "addr:country": "US", "name": "Southwest Plaza", "phone": "303-927-4249", "opening_hours": "Mo-Sa 11:00-08:00; Su 11:00-06:00", "brand": "Tillys", "brand:wikidata": "Q7802889", "nsi_id": "tillys-0a21d9"}, "geometry": {"type": "Point", "coordinates": [-105.096, 39.612]}},
{"type": "Feature", "id": "IMpKxRqOxghLlnf_6V4z5Vw8_3Y=", "properties": {"ref": "0136", "@spider": "tillys", "clothes": "children;men;women", "shop": "clothes", "addr:street_address": "1 W. Flatiron Crossing Drive", "addr:city": "Broomfield", "addr:state": "CO", "addr:postcode": "80021", "addr:country": "US", "name": "FlatIron Crossing", "phone": "303-466-3135", "opening_hours": "Mo-Sa 10:00-09:00; Su 11:00-06:00", "brand": "Tillys", "brand:wikidata": "Q7802889", "nsi_id": "tillys-0a21d9"}, "geometry": {"type": "Point", "coordinates": [-105.135, 39.931]}},
{"type": "Feature", "id": "tjnRSI7Bwo38xH42NjjLcmVI3uQ=", "properties": {"ref": "0219", "@spider": "tillys", "clothes": "children;men;women", "shop": "clothes", "addr:street_address": "3995 Eagan Outlets Pkwy", "addr:city": "Eagan", "addr:state": "MN", "addr:postcode": "55122", "addr:country": "US", "name": "Twin Cities Premium Outlets", "phone": "952-229-5045     ", "opening_hours": "Mo-Th 11:00-07:00; Fr-Sa 11:00-08:00; Su 11:00-07:00", "brand": "Tillys", "brand:wikidata": "Q7802889", "nsi_id": "tillys-0a21d9"}, "geometry": {"type": "Point", "coordinates": [-93.214, 44.815]}},
{"type": "Feature", "id": "nZVCofq0l2dtc8nKBqybLgku66g=", "properties": {"ref": "0160", "@spider": "tillys", "clothes": "children;men;women", "shop": "clothes", "addr:street_address": "246 North Garden", "addr:city": "Bloomington", "addr:state": "MN", "addr:postcode": "55425", "addr:country": "US", "name": "Mall of America", "phone": "952-814-1035", "opening_hours": "Mo-We 11:00-07:00; Th-Sa 10:00-08:00; Su 11:00-07:00", "brand": "Tillys", "brand:wikidata": "Q7802889", "nsi_id": "tillys-0a21d9"}, "geometry": {"type": "Point", "coordinates": [-93.242, 44.856]}},
{"type": "Feature", "id": "gLNooreoiPxhzLPnsw59y8EEn3E=", "properties": {"ref": "0152", "@spider": "tillys", "clothes": "children;men;women", "shop": "clothes", "addr:street_address": "6002 Slide Road", "addr:city": "Lubbock", "addr:state": "TX", "addr:postcode": "79414", "addr:country": "US", "name": "South Plains Mall", "phone": "806-788-1233", "opening_hours": "Mo 11:00-07:00; Tu-Sa 11:00-08:00; Su 12:00-06:00", "brand": "Tillys", "brand:wikidata": "Q7802889", "nsi_id": "tillys-0a21d9"}, "geometry": {"type": "Point", "coordinates": [-101.926, 33.541]}},
{"type": "Feature", "id": "9YX9sMilAAOIkRvGZFIV8Skcm-4=", "properties": {"ref": "0262", "@spider": "tillys", "clothes": "children;men;women", "shop": "clothes", "addr:street_address": "2601 Preston Road", "addr:city": "Frisco", "addr:state": "TX", "addr:postcode": "75034", "addr:country": "US", "name": "Stonebriar Centre", "phone": "(469) 604-0975", "opening_hours": "Mo-Sa 11:00-07:00; Su 12:00-06:00", "brand": "Tillys", "brand:wikidata": "Q7802889", "nsi_id": "tillys-0a21d9"}, "geometry": {"type": "Point", "coordinates": [-96.811331, 33.099298]}},
{"type": "Feature", "id": "NckrPsNvvhEN1WJcU8UGllYJDeg=", "properties": {"ref": "0184", "@spider": "tillys", "clothes": "children;men;women", "shop": "clothes", "addr:street_address": "2501 Wabash Ave", "addr:city": "Springfield", "addr:state": "IL", "addr:postcode": "62704", "addr:country": "US", "name": "White Oaks Mall", "phone": "217-993-7012", "opening_hours": "Mo-Sa 11:00-07:00; Su 12:00-06:00", "brand": "Tillys", "brand:wikidata": "Q7802889", "nsi_id": "tillys-0a21d9"}, "geometry": {"type": "Point", "coordinates": [-89.704, 39.766]}},
{"type": "Feature", "id": "ydTEnCkhdRu5eNi4CSKES_Jgm44=", "properties": {"ref": "0180", "@spider": "tillys", "clothes": "children;men;women", "shop": "clothes", "addr:street_address": "1101 Melbourne Road", "addr:city": "Hurst", "addr:state": "TX", "addr:postcode": "76053", "addr:country": "US", "name": "North East Mall", "phone": "817-893-1144", "opening_hours": "Mo-Sa 11:00-07:00; Su 12:00-06:00", "brand": "Tillys", "brand:wikidata": "Q7802889", "nsi_id": "tillys-0a21d9"}, "geometry": {"type": "Point", "coordinates": [-97.199, 32.831]}},
{"type": "Feature", "id": "4valh-tFrcO27IFGnaqCBYU1z4M=", "properties": {"ref": "0204", "@spider": "tillys", "clothes": "children;men;women", "shop": "clothes", "addr:street_address": "1024 Town East Mall", "addr:city": "Mesquite", "addr:state": "TX", "addr:postcode": "75150", "addr:country": "US", "name": "Town East Mall", "phone": "214-765-9432", "opening_hours": "Mo-Sa 11:00-08:00; Su 12:00-06:00", "brand": "Tillys", "brand:wikidata": "Q7802889", "nsi_id": "tillys-0a21d9"}, "geometry": {"type": "Point", "coordinates": [-96.627, 32.809]}},
{"type": "Feature", "id": "4cMkIXihKC1dfn2sIJcmqaBvi4Q=", "properties": {"ref": "0241", "@spider": "tillys", "clothes": "children;men;women", "shop": "clothes", "addr:street_address": "4800 S. Hulen St.", "addr:city": "Fort Worth", "addr:state": "TX", "addr:postcode": "76132", "addr:country": "US", "name": "Hulen Mall", "phone": "817-840-0300", "opening_hours": "Mo-Sa 11:00-08:00; Su 12:00-06:00", "brand": "Tillys", "brand:wikidata": "Q7802889", "nsi_id": "tillys-0a21d9"}, "geometry": {"type": "Point", "coordinates": [-97.398, 32.679]}},
{"type": "Feature", "id": "fXhy1Ef0OE4To48ALSDmtYHVQLE=", "properties": {"ref": "0284", "@spider": "tillys", "clothes": "children;men;women", "shop": "clothes", "addr:street_address": "3811 South Cooper Street", "addr:city": "Arlington", "addr:state": "TX", "addr:postcode": "76015", "addr:country": "US", "name": "Parks in Arlington - Now Open!", "opening_hours": "Mo-Sa 11:00-08:00; Su 12:00-06:00", "brand": "Tillys", "brand:wikidata": "Q7802889", "nsi_id": "tillys-0a21d9"}, "geometry": {"type": "Point", "coordinates": [-97.1334, 32.6916]}},
{"type": "Feature", "id": "8ioJP5uxJNIVbqFs3ZBVPsAz6ko=", "properties": {"ref": "0187", "@spider": "tillys", "clothes": "children;men;women", "shop": "clothes", "addr:street_address": "6600 Menaul Blvd. NE", "addr:city": "Albuquerque", "addr:state": "NM", "addr:postcode": "87110", "addr:country": "US", "name": "Coronado Center", "phone": "505-433-6368", "opening_hours": "Mo-Sa 11:00-08:00; Su 11:00-07:00", "brand": "Tillys", "brand:wikidata": "Q7802889", "nsi_id": "tillys-0a21d9"}, "geometry": {"type": "Point", "coordinates": [-106.574, 35.108]}},
{"type": "Feature", "id": "nWR9KYnxxBhFV_P05npFiVAL5Sg=", "properties": {"ref": "0168", "@spider": "tillys", "clothes": "children;men;women", "shop": "clothes", "addr:street_address": "514 Commons Drive", "addr:city": "Geneva", "addr:state": "IL", "addr:postcode": "60134", "addr:country": "US", "name": "Geneva Commons", "phone": "630-262-0805", "opening_hours": "Mo-Sa 11:00-07:00; Su 12:00-06:00", "brand": "Tillys", "brand:wikidata": "Q7802889", "nsi_id": "tillys-0a21d9"}, "geometry": {"type": "Point", "coordinates": [-88.342, 41.896]}},
{"type": "Feature", "id": "LquEjX_gN0f_yEo44gZU_3EHxl4=", "properties": {"ref": "0156", "@spider": "tillys", "clothes": "children;men;women", "shop": "clothes", "addr:street_address": "1832 S Randall Road", "addr:city": "Algonquin", "addr:state": "IL", "addr:postcode": "60102", "addr:country": "US", "name": "Algonquin Commons", "phone": "847-854-3798", "opening_hours": "Mo-Sa 11:00-07:00; Su 12:00-06:00", "brand": "Tillys", "brand:wikidata": "Q7802889", "nsi_id": "tillys-0a21d9"}, "geometry": {"type": "Point", "coordinates": [-88.336, 42.146]}},
{"type": "Feature", "id": "nexD_J36M00Ncp2zALK8qZEH-MU=", "properties": {"ref": "0218", "@spider": "tillys", "clothes": "children;men;women", "shop": "clothes", "addr:street_address": "E314A Woodfield Mall", "addr:city": "Schaumburg", "addr:state": "IL", "addr:postcode": "60173", "addr:country": "US", "name": "Woodfield Mall", "phone": "847-466-3011", "opening_hours": "Mo-Sa 11:00-07:00; Su 12:00-06:00", "brand": "Tillys", "brand:wikidata": "Q7802889", "nsi_id": "tillys-0a21d9"}, "geometry": {"type": "Point", "coordinates": [-88.046, 42.047]}},
{"type": "Feature", "id": "sBET35hX9BgxFZMz5JOYEPIQ4wI=", "properties": {"ref": "0252", "@spider": "tillys", "clothes": "children;men;women", "shop": "clothes", "addr:street_address": "540 Orland Square Drive", "addr:city": "Orland Park", "addr:state": "IL", "addr:postcode": "60462", "addr:country": "US", "name": "Orland Square", "phone": "(708) 675-3021", "opening_hours": "Mo-Sa 11:00-07:00; Su 12:00-06:00", "brand": "Tillys", "brand:wikidata": "Q7802889", "nsi_id": "tillys-0a21d9"}, "geometry": {"type": "Point", "coordinates": [-87.852284, 41.620214]}},
{"type": "Feature", "id": "zc6ljy6tzMZ9oXhmWGf-Y4b0CLI=", "properties": {"ref": "0222", "@spider": "tillys", "clothes": "children;men;women", "shop": "clothes", "addr:street_address": "2760 N. Germantown Parkway", "addr:city": "Memphis", "addr:state": "TN", "addr:postcode": "38133", "addr:country": "US", "name": "Wolfchase Galleria", "phone": "901-505-6791", "opening_hours": "Mo-Sa 11:00-07:00; Su 12:00-06:00", "brand": "Tillys", "brand:wikidata": "Q7802889", "nsi_id": "tillys-0a21d9"}, "geometry": {"type": "Point", "coordinates": [-89.788, 35.201]}},
{"type": "Feature", "id": "sNlKIB4JNQqLh3UoBmK7FY5tUK0=", "properties": {"ref": "0202", "@spider": "tillys", "clothes": "children;men;women", "shop": "clothes", "addr:street_address": "6170 W. Grand Ave", "addr:city": "Gurnee", "addr:state": "IL", "addr:postcode": "60031", "addr:country": "US", "name": "Gurnee Mills", "phone": "847-672-2036", "opening_hours": "Mo-Sa 11:00-07:00; Su 12:00-06:00", "brand": "Tillys", "brand:wikidata": "Q7802889", "nsi_id": "tillys-0a21d9"}, "geometry": {"type": "Point", "coordinates": [-87.955, 42.383]}},
{"type": "Feature", "id": "1rwL1JQQFxfrBGnyVPe0zrhiZqw=", "properties": {"ref": "0269", "@spider": "tillys", "clothes": "children;men;women", "shop": "clothes", "addr:street_address": "4999 Old Orchard Center", "addr:city": "Skokie", "addr:state": "IL", "addr:postcode": "60077", "addr:country": "US", "name": "Westfield Old Orchard", "phone": "(224) 998-2812", "opening_hours": "Mo-Th 11:00-07:00; Fr-Sa 10:00-08:00; Su 11:00-07:00", "brand": "Tillys", "brand:wikidata": "Q7802889", "nsi_id": "tillys-0a21d9"}, "geometry": {"type": "Point", "coordinates": [-87.750707, 42.061567]}},
{"type": "Feature", "id": "fnN7aSverAGxhwNWZ3rbA3XUk_A=", "properties": {"ref": "0176", "@spider": "tillys", "clothes": "children;men;women", "shop": "clothes", "addr:street_address": "95 N. Moorland Road", "addr:city": "Brookfield", "addr:state": "WI", "addr:postcode": "53005", "addr:country": "US", "name": "Brookfield Square Mall", "phone": "262-641-8039", "opening_hours": "Mo-Sa 11:00-07:00; Su 12:00-06:00", "brand": "Tillys", "brand:wikidata": "Q7802889", "nsi_id": "tillys-0a21d9"}, "geometry": {"type": "Point", "coordinates": [-88.109, 43.032]}},
{"type": "Feature", "id": "ZtvzHXDJkwsfGew3cYdRIg632tU=", "properties": {"ref": "0177", "@spider": "tillys", "clothes": "children;men;women", "shop": "clothes", "addr:street_address": "5300 South 76th Street", "addr:city": "Greendale", "addr:state": "WI", "addr:postcode": "53129", "addr:country": "US", "name": "Southridge Mall", "phone": "414-421-2596", "opening_hours": "Mo-Sa 11:00-07:00; Su 12:00-06:00", "brand": "Tillys", "brand:wikidata": "Q7802889", "nsi_id": "tillys-0a21d9"}, "geometry": {"type": "Point", "coordinates": [-88.004, 42.948]}},
{"type": "Feature", "id": "iUT9WNbYiRE5n2AJmz4UsrPJwpc=", "properties": {"ref": "0188", "@spider": "tillys", "clothes": "children;men;women", "shop": "clothes", "addr:street_address": "Eastland Mall 800 N. Green River Rd", "addr:city": "Evansville", "addr:state": "IN", "addr:postcode": "47715", "addr:country": "US", "name": "Eastland Mall", "phone": "812-250-7026", "opening_hours": "Mo-Sa 11:00-07:00; Su 12:00-06:00", "brand": "Tillys", "brand:wikidata": "Q7802889", "nsi_id": "tillys-0a21d9"}, "geometry": {"type": "Point", "coordinates": [-87.496, 37.981]}},
{"type": "Feature", "id": "tCsOjmsZgAE5dierdDw9oUm2eWY=", "properties": {"ref": "0167", "@spider": "tillys", "clothes": "children;men;women", "shop": "clothes", "addr:street_address": "2415 Sagamore Parkway South", "addr:city": "Lafayette", "addr:state": "IN", "addr:postcode": "47905", "addr:country": "US", "name": "Tippecanoe Mall", "phone": "765-446-1105", "opening_hours": "Mo-Sa 11:00-07:00; Su 12:00-06:00", "brand": "Tillys", "brand:wikidata": "Q7802889", "nsi_id": "tillys-0a21d9"}, "geometry": {"type": "Point", "coordinates": [-86.852, 40.394]}},
{"type": "Feature", "id": "opQX0ZxAXIYZgRD4OP9YRsnHMIM=", "properties": {"ref": "0150", "@spider": "tillys", "clothes": "children;men;women", "shop": "clothes", "addr:street_address": "110A Bay Park Square", "addr:city": "Green Bay", "addr:state": "WI", "addr:postcode": "54304", "addr:country": "US", "name": "Bay Park Square ", "phone": "920-498-3421", "opening_hours": "Mo-Sa 11:00-07:00; Su 12:00-06:00", "brand": "Tillys", "brand:wikidata": "Q7802889", "nsi_id": "tillys-0a21d9"}, "geometry": {"type": "Point", "coordinates": [-88.067, 44.485]}},
{"type": "Feature", "id": "jJonQJBESdlGr4kpWEauWq3o_-8=", "properties": {"ref": "0266", "@spider": "tillys", "clothes": "children;men;women", "shop": "clothes", "addr:street_address": "5001 183A Frontage Road", "addr:city": "Cedar Park", "addr:state": "TX", "addr:postcode": "78613", "addr:country": "US", "name": "The Parke", "phone": "(512) 690-9317", "opening_hours": "Mo-Sa 11:00-07:00; Su 12:00-06:00", "brand": "Tillys", "brand:wikidata": "Q7802889", "nsi_id": "tillys-0a21d9"}, "geometry": {"type": "Point", "coordinates": [-97.818441, 30.533732]}},
{"type": "Feature", "id": "qvneMrwTXkIyDDvX1biIPDbA8bI=", "properties": {"ref": "0248", "@spider": "tillys", "clothes": "children;men;women", "shop": "clothes", "addr:street_address": "2901 S. Capital of Texas Highway", "addr:city": "Austin", "addr:state": "TX", "addr:postcode": "78746", "addr:country": "US", "name": "Barton Creek Square", "phone": "(512) 712-1170", "opening_hours": "Mo-Sa 11:00-07:00; Su 12:00-06:00", "brand": "Tillys", "brand:wikidata": "Q7802889", "nsi_id": "tillys-0a21d9"}, "geometry": {"type": "Point", "coordinates": [-97.807244, 30.257437]}},
{"type": "Feature", "id": "ey7Kswt_UrsESem3mvHXI9V9Uro=", "properties": {"ref": "0189", "@spider": "tillys", "clothes": "children;men;women", "shop": "clothes", "addr:street_address": "6501 N. Grape Road", "addr:city": "Mishawaka", "addr:state": "IN", "addr:postcode": "46545", "addr:country": "US", "name": "University Park Mall", "phone": "574-400-4174", "opening_hours": "Mo-Sa 11:00-07:00; Su 12:00-06:00", "brand": "Tillys", "brand:wikidata": "Q7802889", "nsi_id": "tillys-0a21d9"}, "geometry": {"type": "Point", "coordinates": [-86.19, 41.719]}},
{"type": "Feature", "id": "PxZ1jzumpo0Sf_bRjkEsDaOT8q8=", "properties": {"ref": "0170", "@spider": "tillys", "clothes": "children;men;women", "shop": "clothes", "addr:street_address": "6020 East 82nd Street", "addr:city": "Indianapolis", "addr:state": "IN", "addr:postcode": "46250", "addr:country": "US", "name": "Castleton Square Mall", "phone": "317-558-4033", "opening_hours": "Mo-Sa 11:00-07:00; Su 12:00-06:00", "brand": "Tillys", "brand:wikidata": "Q7802889", "nsi_id": "tillys-0a21d9"}, "geometry": {"type": "Point", "coordinates": [-86.067, 39.906]}},
{"type": "Feature", "id": "ZgKAX1TgO4KTs0DNtcHUau-yAIk=", "properties": {"ref": "0254", "@spider": "tillys", "clothes": "children;men;women", "shop": "clothes", "addr:street_address": "1201 Lake Woodlands Dr.", "addr:city": "The Woodlands", "addr:state": "TX", "addr:postcode": "77380", "addr:country": "US", "name": "The Woodlands Mall", "phone": "832-823-7268", "opening_hours": "Mo-Sa 11:00-08:00; Su 12:00-07:00", "brand": "Tillys", "brand:wikidata": "Q7802889", "nsi_id": "tillys-0a21d9"}, "geometry": {"type": "Point", "coordinates": [-95.45537, 30.163959]}},
{"type": "Feature", "id": "SPfFywYm6kUjnAO9ZuSW1FlmXMg=", "properties": {"ref": "0212", "@spider": "tillys", "clothes": "children;men;women", "shop": "clothes", "addr:street_address": "4015 IH 35 South", "addr:city": "San Marcos", "addr:state": "TX", "addr:postcode": "78666", "addr:country": "US", "name": "Tanger Outlets San Marcos", "phone": "830-387-7229", "opening_hours": "Mo-Sa 11:00-07:00; Su 12:00-06:00", "brand": "Tillys", "brand:wikidata": "Q7802889", "nsi_id": "tillys-0a21d9"}, "geometry": {"type": "Point", "coordinates": [-97.988, 29.827]}},
{"type": "Feature", "id": "QdNRYohoZTh1hdRid2tzLbdgvW0=", "properties": {"ref": "0289", "@spider": "tillys", "clothes": "children;men;women", "shop": "clothes", "addr:street_address": "575 East University Parkway", "addr:city": "Orem", "addr:state": "UT", "addr:postcode": "84097", "addr:country": "US", "name": "University Place - Opening 11/22/2022!", "opening_hours": "Mo-Sa 11:00-07:00; Su 12:00-06:00", "brand": "Tillys", "brand:wikidata": "Q7802889", "nsi_id": "tillys-0a21d9"}, "geometry": {"type": "Point", "coordinates": [-111.674, 40.3052]}},
{"type": "Feature", "id": "GwvuOjAKTFX4YLqPNEG4EJUcEUo=", "properties": {"ref": "0153", "@spider": "tillys", "clothes": "children;men;women", "shop": "clothes", "addr:street_address": "433 Opry Mills Drive", "addr:city": "Nashville", "addr:state": "TN", "addr:postcode": "37214", "addr:country": "US", "name": "Opry Mills", "phone": "615-678-0324", "opening_hours": "Mo-Sa 11:00-07:00; Su 12:00-06:00", "brand": "Tillys", "brand:wikidata": "Q7802889", "nsi_id": "tillys-0a21d9"}, "geometry": {"type": "Point", "coordinates": [-86.693, 36.203]}},
{"type": "Feature", "id": "S4ZMrelBY_cUTdHTy2EQlRWPQ_0=", "properties": {"ref": "0228", "@spider": "tillys", "clothes": "children;men;women", "shop": "clothes", "addr:street_address": "1800 Galleria Blvd,", "addr:city": "Franklin", "addr:state": "TN", "addr:postcode": "37067", "addr:country": "US", "name": "Cool Springs Galleria", "phone": "615-656-6173", "opening_hours": "Mo-Sa 11:00-08:00; Su 12:00-06:00", "brand": "Tillys", "brand:wikidata": "Q7802889", "nsi_id": "tillys-0a21d9"}, "geometry": {"type": "Point", "coordinates": [-86.814, 35.957]}},
{"type": "Feature", "id": "Pt0QHrckhg_R3zWUQG_HQy06hXY=", "properties": {"ref": "0232", "@spider": "tillys", "clothes": "children;men;women", "shop": "clothes", "addr:street_address": "3700 RiverTown Parkway", "addr:city": "Grandville", "addr:state": "MI", "addr:postcode": "49418", "addr:country": "US", "name": "RiverTown Crossings", "phone": "616-552-6365", "opening_hours": "Mo-Sa 11:00-08:00; Su 11:00-06:00", "brand": "Tillys", "brand:wikidata": "Q7802889", "nsi_id": "tillys-0a21d9"}, "geometry": {"type": "Point", "coordinates": [-85.754, 42.88]}},
{"type": "Feature", "id": "yDXxqpdRDkNuFyDQibGccd-kzb4=", "properties": {"ref": "0256", "@spider": "tillys", "clothes": "children;men;women", "shop": "clothes", "addr:street_address": "1074 Willowbrook Mall", "addr:city": "Houston", "addr:state": "TX", "addr:postcode": "77070", "addr:country": "US", "name": "Willowbrook Mall", "phone": "(281) 640-7012", "opening_hours": "Mo-Sa 11:00-07:00; Su 12:00-06:00", "brand": "Tillys", "brand:wikidata": "Q7802889", "nsi_id": "tillys-0a21d9"}, "geometry": {"type": "Point", "coordinates": [-95.539131, 29.960149]}},
{"type": "Feature", "id": "7wltv3cdmNzvmkfmHXN7XyHsyEY=", "properties": {"ref": "0175", "@spider": "tillys", "clothes": "children;men;women", "shop": "clothes", "addr:street_address": "10465 South State Street", "addr:city": "Sandy", "addr:state": "UT", "addr:postcode": "84070", "addr:country": "US", "name": "Commons at Southtowne", "phone": "801-619-3529", "opening_hours": "Mo-Sa 11:00-07:00; Su 12:00-06:00", "brand": "Tillys", "brand:wikidata": "Q7802889", "nsi_id": "tillys-0a21d9"}, "geometry": {"type": "Point", "coordinates": [-111.891, 40.562]}},
{"type": "Feature", "id": "y9tqpIwgoV9j6CTDpQpidcW7l9A=", "properties": {"ref": "0178", "@spider": "tillys", "clothes": "children;men;women", "shop": "clothes", "addr:street_address": "8401 Gateway Blvd W", "addr:city": "El Paso", "addr:state": "TX", "addr:postcode": "79925", "addr:country": "US", "name": "Cielo Vista Mall", "phone": "915-771-0012", "opening_hours": "Mo-Sa 11:00-07:00; Su 12:00-06:00", "brand": "Tillys", "brand:wikidata": "Q7802889", "nsi_id": "tillys-0a21d9"}, "geometry": {"type": "Point", "coordinates": [-106.378, 31.776]}},
{"type": "Feature", "id": "taRhJUO2TRscO-irJvduRcj4PpY=", "properties": {"ref": "0148", "@spider": "tillys", "clothes": "children;men;women", "shop": "clothes", "addr:street_address": "170 N. Station Parkway", "addr:city": "Farmington", "addr:state": "UT", "addr:postcode": "84025", "addr:country": "US", "name": "Station Park", "phone": "801-451-1988", "opening_hours": "Mo-Sa 10:00-09:00; Su 12:00-06:00", "brand": "Tillys", "brand:wikidata": "Q7802889", "nsi_id": "tillys-0a21d9"}, "geometry": {"type": "Point", "coordinates": [-111.911, 40.988]}},
{"type": "Feature", "id": "4OJY37T0_Pt4AbT_cwudztRO2FM=", "properties": {"ref": "0158", "@spider": "tillys", "clothes": "children;men;women", "shop": "clothes", "addr:street_address": "3746 W Center Park Drive", "addr:city": "West Jordan", "addr:state": "UT", "addr:postcode": "84084", "addr:country": "US", "name": "Jordan Landing", "phone": "801-280-5099", "opening_hours": "Mo-Sa 11:00-07:00; Su 12:00-06:00", "brand": "Tillys", "brand:wikidata": "Q7802889", "nsi_id": "tillys-0a21d9"}, "geometry": {"type": "Point", "coordinates": [-111.983, 40.62]}},
{"type": "Feature", "id": "YnEO5ESiKNcGES2R0NWCHR7cHDo=", "properties": {"ref": "0250", "@spider": "tillys", "clothes": "children;men;women", "shop": "clothes", "addr:street_address": "4644 W Kestrel Range Road", "addr:city": "Riverton", "addr:state": "UT", "addr:postcode": "84065", "addr:country": "US", "name": "Mountain View Village", "phone": "801-999-9703", "opening_hours": "Mo-Sa 11:00-07:00; Su 12:00-06:00", "brand": "Tillys", "brand:wikidata": "Q7802889", "nsi_id": "tillys-0a21d9"}, "geometry": {"type": "Point", "coordinates": [-111.998721, 40.511583]}},
{"type": "Feature", "id": "QEgcdqtUZnYnOsWloo3mMyZ71as=", "properties": {"ref": "0239", "@spider": "tillys", "clothes": "children;men;women", "shop": "clothes", "addr:street_address": "7400 San Pedro", "addr:city": "San Antonio", "addr:state": "TX", "addr:postcode": "78216", "addr:country": "US", "name": "North Star Mall", "phone": "210-536-8587", "opening_hours": "Mo-Sa 11:00-07:00; Su 12:00-06:00", "brand": "Tillys", "brand:wikidata": "Q7802889", "nsi_id": "tillys-0a21d9"}, "geometry": {"type": "Point", "coordinates": [-98.496, 29.519]}},
{"type": "Feature", "id": "JpHFtxAw1uzkTdkzcq9mdXF9fYM=", "properties": {"ref": "0265", "@spider": "tillys", "clothes": "children;men;women", "shop": "clothes", "addr:street_address": "303 Memorial City", "addr:city": "Houston", "addr:state": "TX", "addr:postcode": "77024", "addr:country": "US", "name": "Memorial City Mall", "phone": "(832) 214-1912", "opening_hours": "Mo-Th 11:00-07:00; Fr-Sa 11:00-08:00; Su 12:00-07:00", "brand": "Tillys", "brand:wikidata": "Q7802889", "nsi_id": "tillys-0a21d9"}, "geometry": {"type": "Point", "coordinates": [-95.537938, 29.780764]}},
{"type": "Feature", "id": "0w0MlgeFUskwU7OYMa11IuQHXPA=", "properties": {"ref": "0205", "@spider": "tillys", "clothes": "children;men;women", "shop": "clothes", "addr:street_address": "4201 Coldwater Rd", "addr:city": "Fort Wayne", "addr:state": "IN", "addr:postcode": "46805", "addr:country": "US", "name": "Glenbrook Square", "phone": "260-310-6510", "opening_hours": "Mo-Sa 11:00-07:00; Su 12:00-06:00", "brand": "Tillys", "brand:wikidata": "Q7802889", "nsi_id": "tillys-0a21d9"}, "geometry": {"type": "Point", "coordinates": [-85.136, 41.117]}},
{"type": "Feature", "id": "eSk85jOKysTxvopK6C1SQgZn-pc=", "properties": {"ref": "0245", "@spider": "tillys", "clothes": "children;men;women", "shop": "clothes", "addr:street_address": "5015 Westheimer Road", "addr:city": "Houston", "addr:state": "TX", "addr:postcode": "77056", "addr:country": "US", "name": "The Galleria", "phone": "713-821-2422", "opening_hours": "Mo-Sa 11:00-07:00; Su 12:00-06:00", "brand": "Tillys", "brand:wikidata": "Q7802889", "nsi_id": "tillys-0a21d9"}, "geometry": {"type": "Point", "coordinates": [-95.4634, 29.7392]}},
{"type": "Feature", "id": "PB1E96u0oNaO9UegIa2oSZ4xatE=", "properties": {"ref": "0290", "@spider": "tillys", "clothes": "children;men;women", "shop": "clothes", "addr:street_address": "16535 Southwest Freeway", "addr:city": "Sugarland", "addr:state": "TX", "addr:postcode": "77479", "addr:country": "US", "name": "First Colony Mall - Now Open!", "phone": "(281) 374-4800", "opening_hours": "Mo-Sa 11:00-07:00; Su 12:00-06:00", "brand": "Tillys", "brand:wikidata": "Q7802889", "nsi_id": "tillys-0a21d9"}, "geometry": {"type": "Point", "coordinates": [-95.6214, 29.5665]}},
{"type": "Feature", "id": "NyCVhLByIPcsbLUJzMnMtm8l6UM=", "properties": {"ref": "0288", "@spider": "tillys", "clothes": "children;men;women", "shop": "clothes", "addr:street_address": "500 Baybrook Mall", "addr:city": "Friendswood", "addr:state": "TX", "addr:postcode": "77546", "addr:country": "US", "name": "Baybrook Mall", "opening_hours": "Mo-Sa 11:00-07:00; Su 12:00-06:00", "brand": "Tillys", "brand:wikidata": "Q7802889", "nsi_id": "tillys-0a21d9"}, "geometry": {"type": "Point", "coordinates": [-95.188, 29.5125]}},
{"type": "Feature", "id": "lSzLJ-RPrmYoFbU0B2P6Tlm05Wk=", "properties": {"ref": "0192", "@spider": "tillys", "clothes": "children;men;women", "shop": "clothes", "addr:street_address": "4453 Glengarry Drive", "addr:city": "Beavercreek", "addr:state": "OH", "addr:postcode": "45440", "addr:country": "US", "name": "The Greene", "phone": "937-912-3527", "opening_hours": "Mo-Sa 11:00-07:00; Su 12:00-06:00", "brand": "Tillys", "brand:wikidata": "Q7802889", "nsi_id": "tillys-0a21d9"}, "geometry": {"type": "Point", "coordinates": [-84.105, 39.694]}},
{"type": "Feature", "id": "pgl-qjLTKZuofreIDGwdO3bJWAk=", "properties": {"ref": "0162", "@spider": "tillys", "clothes": "children;men;women", "shop": "clothes", "addr:street_address": "4812 South Baldwin Road", "addr:city": "Orion Township", "addr:state": "MI", "addr:postcode": "48359", "addr:country": "US", "name": "Baldwin Commons", "phone": "248-393-1528", "opening_hours": "Mo-Sa 11:00-07:00; Su 12:00-06:00", "brand": "Tillys", "brand:wikidata": "Q7802889", "nsi_id": "tillys-0a21d9"}, "geometry": {"type": "Point", "coordinates": [-83.307, 42.71]}},
{"type": "Feature", "id": "UdOnhL_runR5F_uWDv874q0WCsw=", "properties": {"ref": "0277", "@spider": "tillys", "clothes": "children;men;women", "shop": "clothes", "addr:street_address": "1770 Red Cliffs Dr", "addr:city": "St. George", "addr:state": "Utah", "addr:postcode": "84790", "addr:country": "US", "name": "Red Cliffs Mall", "phone": "(435) 922 0910", "opening_hours": "Mo-Sa 11:00-08:00; Su 11:00-06:00", "brand": "Tillys", "brand:wikidata": "Q7802889", "nsi_id": "tillys-0a21d9"}, "geometry": {"type": "Point", "coordinates": [-113.6079, 37.0469]}},
{"type": "Feature", "id": "iKaSP5Tq_MjacuaTrYXtN1v_aIQ=", "properties": {"ref": "0200", "@spider": "tillys", "clothes": "children;men;women", "shop": "clothes", "addr:street_address": "14600 Lakeside Circle", "addr:city": "Sterling Heights", "addr:state": "MI", "addr:postcode": "48313", "addr:country": "US", "name": "Lakeside Mall", "phone": "586-843-2025", "opening_hours": "Mo-Sa 11:00-08:00; Su 12:00-06:00", "brand": "Tillys", "brand:wikidata": "Q7802889", "nsi_id": "tillys-0a21d9"}, "geometry": {"type": "Point", "coordinates": [-82.986, 42.623]}},
{"type": "Feature", "id": "KP5gwEWUQTJvHFEMuXZR2y5ibCA=", "properties": {"ref": "0240", "@spider": "tillys", "clothes": "children;men;women", "shop": "clothes", "addr:street_address": "5488 S. Padre Island Dr.", "addr:city": "Corpus Christi", "addr:state": "TX", "addr:postcode": "78411", "addr:country": "US", "name": "La Palmera", "phone": "361-792-7632", "opening_hours": "Mo-Sa 11:00-07:00; Su 12:00-06:00", "brand": "Tillys", "brand:wikidata": "Q7802889", "nsi_id": "tillys-0a21d9"}, "geometry": {"type": "Point", "coordinates": [-97.373, 27.711]}},
{"type": "Feature", "id": "WaTkNokNE_V8_XLxIkloezl0xr4=", "properties": {"ref": "0047", "@spider": "tillys", "clothes": "children;men;women", "shop": "clothes", "addr:street_address": "6555 East Southern Ave.", "addr:city": "Mesa", "addr:state": "AZ", "addr:postcode": "85206", "addr:country": "US", "name": "Superstition Springs Center", "phone": "480-830-1095", "opening_hours": "Mo-Sa 10:00-09:00; Su 11:00-06:00", "brand": "Tillys", "brand:wikidata": "Q7802889", "nsi_id": "tillys-0a21d9"}, "geometry": {"type": "Point", "coordinates": [-111.689, 33.394]}},
{"type": "Feature", "id": "UcxbvQ1Bz0xMhGIU_xEQis_XnRY=", "properties": {"ref": "0041", "@spider": "tillys", "clothes": "children;men;women", "shop": "clothes", "addr:street_address": "16455 North Scottsdale Rd.", "addr:city": "Scottsdale", "addr:state": "AZ", "addr:postcode": "85254", "addr:country": "US", "name": "Promenade at Frank Lloyd Wright Blvd", "phone": "480-368-9266", "opening_hours": "Mo 11:00-07:00; Tu-Sa 10:00-09:00; Su 11:00-06:00", "brand": "Tillys", "brand:wikidata": "Q7802889", "nsi_id": "tillys-0a21d9"}, "geometry": {"type": "Point", "coordinates": [-111.923, 33.636]}},
{"type": "Feature", "id": "yuwKjqa4jlQW5bcp5Y5G6O4xmBo=", "properties": {"ref": "0145", "@spider": "tillys", "clothes": "children;men;women", "shop": "clothes", "addr:street_address": "21001 N Tatum Blvd", "addr:city": "Phoenix", "addr:state": "AZ", "addr:postcode": "85050", "addr:country": "US", "name": "Desert Ridge Marketplace", "phone": "480-563-6413", "opening_hours": "Mo 11:00-07:00; Tu-Sa 10:00-09:00; Su 11:00-06:00", "brand": "Tillys", "brand:wikidata": "Q7802889", "nsi_id": "tillys-0a21d9"}, "geometry": {"type": "Point", "coordinates": [-111.975, 33.679]}},
{"type": "Feature", "id": "DX2-4wQ6w2Jihi6Oh7IPeTOYnJw=", "properties": {"ref": "0044", "@spider": "tillys", "clothes": "children;men;women", "shop": "clothes", "addr:street_address": "5034 South Power Rd.", "addr:city": "Mesa", "addr:state": "AZ", "addr:postcode": "85212", "addr:country": "US", "name": "Gilbert Gateway Towne Center", "phone": "480-988-7081", "opening_hours": "Mo-Fr 10:00-09:00; Sa 10:00-08:00; Su 10:00-07:00", "brand": "Tillys", "brand:wikidata": "Q7802889", "nsi_id": "tillys-0a21d9"}, "geometry": {"type": "Point", "coordinates": [-111.687, 33.324]}},
{"type": "Feature", "id": "pk0RtFSp73Z9ILVdRKFafRcppPg=", "properties": {"ref": "0083", "@spider": "tillys", "clothes": "children;men;women", "shop": "clothes", "addr:street_address": "21536 South Ellsworth Loop Rd.", "addr:city": "Queen Creek", "addr:state": "AZ", "addr:postcode": "85142", "addr:country": "US", "name": "Queen Creek", "phone": "480-888-7913", "opening_hours": "Mo-Fr 10:00-09:00; Sa 10:00-08:00; Su 10:00-07:00", "brand": "Tillys", "brand:wikidata": "Q7802889", "nsi_id": "tillys-0a21d9"}, "geometry": {"type": "Point", "coordinates": [-111.64, 33.253]}},
{"type": "Feature", "id": "YYc3O4Ntx-jtW_S3_-X-Y3rAizI=", "properties": {"ref": "0076", "@spider": "tillys", "clothes": "children;men;women", "shop": "clothes", "addr:street_address": "2000 East Rio Salado Pkwy.", "addr:city": "Tempe", "addr:state": "AZ", "addr:postcode": "85281", "addr:country": "US", "name": "Tempe Marketplace", "phone": "480-894-5329", "opening_hours": "Mo 11:00-07:00; Tu-Sa 10:00-08:00; Su 11:00-06:00", "brand": "Tillys", "brand:wikidata": "Q7802889", "nsi_id": "tillys-0a21d9"}, "geometry": {"type": "Point", "coordinates": [-111.904, 33.433]}},
{"type": "Feature", "id": "sgD32WMMSpmrs-mywmNomo27ntw=", "properties": {"ref": "0045", "@spider": "tillys", "clothes": "children;men;women", "shop": "clothes", "addr:street_address": "3885 South Gilbert Rd.", "addr:city": "Gilbert", "addr:state": "AZ", "addr:postcode": "85297", "addr:country": "US", "name": "Crossroads Towne Center", "phone": "480-821-4034", "opening_hours": "Mo-Fr 10:00-09:00; Sa 10:00-08:00; Su 10:00-07:00", "brand": "Tillys", "brand:wikidata": "Q7802889", "nsi_id": "tillys-0a21d9"}, "geometry": {"type": "Point", "coordinates": [-111.79, 33.279]}},
{"type": "Feature", "id": "iUY7mwQT1SzosPHwu9RXKyEZaUY=", "properties": {"ref": "0124", "@spider": "tillys", "clothes": "children;men;women", "shop": "clothes", "addr:street_address": "5870 East Broadway", "addr:city": "Tucson", "addr:state": "AZ", "addr:postcode": "85711", "addr:country": "US", "name": "Park Place Mall", "phone": "520-512-5502", "opening_hours": "Mo-Sa 11:00-08:00; Su 11:00-07:00", "brand": "Tillys", "brand:wikidata": "Q7802889", "nsi_id": "tillys-0a21d9"}, "geometry": {"type": "Point", "coordinates": [-110.868, 32.222]}},
{"type": "Feature", "id": "yvTXXeLHDoBFas4VgJ1Zru-uz3A=", "properties": {"ref": "0050", "@spider": "tillys", "clothes": "children;men;women", "shop": "clothes", "addr:street_address": "5000 South Arizona Mills Circle", "addr:city": "Tempe", "addr:state": "AZ", "addr:postcode": "85282", "addr:country": "US", "name": "Arizona Mills", "phone": "480-831-3864", "opening_hours": "Mo-Sa 11:00-07:00; Su 12:00-06:00", "brand": "Tillys", "brand:wikidata": "Q7802889", "nsi_id": "tillys-0a21d9"}, "geometry": {"type": "Point", "coordinates": [-111.965, 33.385]}},
{"type": "Feature", "id": "Enzt5dV86JnexeJEkbhTTvJT69c=", "properties": {"ref": "0062", "@spider": "tillys", "clothes": "children;men;women", "shop": "clothes", "addr:street_address": "3111 West Chandler Blvd.", "addr:city": "Chandler", "addr:state": "AZ", "addr:postcode": "85226", "addr:country": "US", "name": "Chandler Fashion Center", "phone": "480-722-1741", "opening_hours": "Mo-Sa 10:00-09:00; Su 10:00-07:00", "brand": "Tillys", "brand:wikidata": "Q7802889", "nsi_id": "tillys-0a21d9"}, "geometry": {"type": "Point", "coordinates": [-111.898, 33.302]}},
{"type": "Feature", "id": "l6byXY_jBjX2wpFwvqppVyszV9Q=", "properties": {"ref": "0074", "@spider": "tillys", "clothes": "children;men;women", "shop": "clothes", "addr:street_address": "4500 North Oracle Rd.", "addr:city": "Tucson", "addr:state": "AZ", "addr:postcode": "85705", "addr:country": "US", "name": "Tucson Mall", "phone": "520-293-3803", "opening_hours": "Mo-Sa 11:00-07:00; Su 12:00-06:00", "brand": "Tillys", "brand:wikidata": "Q7802889", "nsi_id": "tillys-0a21d9"}, "geometry": {"type": "Point", "coordinates": [-110.973, 32.291]}},
{"type": "Feature", "id": "8h_aYbmthnn0b8IYzUOBuxtSgEU=", "properties": {"ref": "0084", "@spider": "tillys", "clothes": "children;men;women", "shop": "clothes", "addr:street_address": "24640 North Lake Pleasant Pkwy.", "addr:city": "Peoria", "addr:state": "AZ", "addr:postcode": "85383", "addr:country": "US", "name": "Lake Pleasant", "phone": "623-825-2996", "opening_hours": "Mo 11:00-07:00; Tu-Sa 11:00-09:00; Su 11:00-06:00", "brand": "Tillys", "brand:wikidata": "Q7802889", "nsi_id": "tillys-0a21d9"}, "geometry": {"type": "Point", "coordinates": [-112.273, 33.708]}},
{"type": "Feature", "id": "fmfqj4xCLppom4Rp2y4TD53Jaa0=", "properties": {"ref": "0048", "@spider": "tillys", "clothes": "children;men;women", "shop": "clothes", "addr:street_address": "7700 West Arrowhead Towne Center", "addr:city": "Glendale", "addr:state": "AZ", "addr:postcode": "85308", "addr:country": "US", "name": "Arrowhead Towne Center", "phone": "623-979-9031", "opening_hours": "Mo 11:00-07:00; Tu-Sa 10:00-09:00; Su 11:00-06:00", "brand": "Tillys", "brand:wikidata": "Q7802889", "nsi_id": "tillys-0a21d9"}, "geometry": {"type": "Point", "coordinates": [-112.226, 33.642]}},
{"type": "Feature", "id": "HXfWnoPjKVUiuddNmvO2bY6KgLI=", "properties": {"ref": "0234", "@spider": "tillys", "clothes": "children;men;women", "shop": "clothes", "addr:street_address": "6401 West Marana Center Blvd.", "addr:city": "Tucson", "addr:state": "AZ", "addr:postcode": "85653", "addr:country": "US", "name": "Tucson Premium Outlets", "phone": "520-239-1930", "opening_hours": "Mo-Su 10:00-07:00", "brand": "Tillys", "brand:wikidata": "Q7802889", "nsi_id": "tillys-0a21d9"}, "geometry": {"type": "Point", "coordinates": [-111.213, 32.449]}},
{"type": "Feature", "id": "wyYErjwfnMt94BcIz_NiKj5bsz0=", "properties": {"ref": "0089", "@spider": "tillys", "clothes": "children;men;women", "shop": "clothes", "addr:street_address": "1004 North Promenade Pkwy.", "addr:city": "Casa Grande", "addr:state": "AZ", "addr:postcode": "85294", "addr:country": "US", "name": "The Promenade at Casa Grande", "phone": "520-836-1288", "opening_hours": "Mo-Fr 10:00-09:00; Sa 10:00-08:00; Su 10:00-07:00", "brand": "Tillys", "brand:wikidata": "Q7802889", "nsi_id": "tillys-0a21d9"}, "geometry": {"type": "Point", "coordinates": [-111.682, 32.884]}},
{"type": "Feature", "id": "bR967EaDJshPAcUvofFpi23HoN0=", "properties": {"ref": "0091", "@spider": "tillys", "clothes": "children;men;women", "shop": "clothes", "addr:street_address": "5145 South Calle Santa Cruz", "addr:city": "Tucson", "addr:state": "AZ", "addr:postcode": "85706", "addr:country": "US", "name": "Tucson Spectrum", "phone": "520-741-1845", "opening_hours": "Mo-Th 11:00-07:00; Fr-Sa 11:00-08:00; Su 11:00-07:00", "brand": "Tillys", "brand:wikidata": "Q7802889", "nsi_id": "tillys-0a21d9"}, "geometry": {"type": "Point", "coordinates": [-110.991, 32.157]}},
{"type": "Feature", "id": "Gu_lggwHYsxyq1kX-CrdL-ZRizg=", "properties": {"ref": "0225", "@spider": "tillys", "clothes": "children;men;women", "shop": "clothes", "addr:street_address": "6800 N. 95th Ave.", "addr:city": "Glendale", "addr:state": "AZ", "addr:postcode": "85305", "addr:country": "US", "name": "Tanger Outlets at Westgate", "phone": "623-337-8321", "opening_hours": "Mo-Sa 11:00-07:00; Su 12:00-06:00", "brand": "Tillys", "brand:wikidata": "Q7802889", "nsi_id": "tillys-0a21d9"}, "geometry": {"type": "Point", "coordinates": [-112.266, 33.535]}},
{"type": "Feature", "id": "CzpyXOFQnVkSa7l_U6lnle2ff5M=", "properties": {"ref": "0163", "@spider": "tillys", "clothes": "children;men;women", "shop": "clothes", "addr:street_address": "2164 North Point Circle", "addr:city": "Alpharetta", "addr:state": "GA", "addr:postcode": "30022", "addr:country": "US", "name": "North Point Mall", "phone": "770-569-0184", "opening_hours": "Mo-Sa 11:00-07:00; Su 12:00-06:00", "brand": "Tillys", "brand:wikidata": "Q7802889", "nsi_id": "tillys-0a21d9"}, "geometry": {"type": "Point", "coordinates": [-84.298, 34.05]}},
{"type": "Feature", "id": "-TBuYeLFSDgxDx2vnJOx0SXr0Pc=", "properties": {"ref": "0238", "@spider": "tillys", "clothes": "children;men;women", "shop": "clothes", "addr:street_address": "428 SouthPark Center", "addr:city": "Strongsville", "addr:state": "OH", "addr:postcode": "44136", "addr:country": "US", "name": "SouthPark Mall", "phone": "440-783-3751", "opening_hours": "Mo-Sa 11:00-07:00; Su 12:00-06:00", "brand": "Tillys", "brand:wikidata": "Q7802889", "nsi_id": "tillys-0a21d9"}, "geometry": {"type": "Point", "coordinates": [-81.818, 41.311]}},
{"type": "Feature", "id": "DQjwgri8kV_g26EB3OQBzr7AslY=", "properties": {"ref": "0220", "@spider": "tillys", "clothes": "children;men;women", "shop": "clothes", "addr:street_address": "3333 Buford Drive", "addr:city": "Buford", "addr:state": "GA", "addr:postcode": "30519", "addr:country": "US", "name": "Mall of Georgia", "phone": "678-288-0076", "opening_hours": "Mo-Sa 11:00-07:00; Su 12:00-06:00", "brand": "Tillys", "brand:wikidata": "Q7802889", "nsi_id": "tillys-0a21d9"}, "geometry": {"type": "Point", "coordinates": [-83.985, 34.065]}},
{"type": "Feature", "id": "WYhlc6K6MgCdNu0Sn12Y6M2NAuQ=", "properties": {"ref": "0092", "@spider": "tillys", "clothes": "children;men;women", "shop": "clothes", "addr:street_address": "5100 North 9th Ave.", "addr:city": "Pensacola", "addr:state": "FL", "addr:postcode": "32504", "addr:country": "US", "name": "Cordova Mall", "phone": "850-477-4754", "opening_hours": "Mo-Sa 11:00-07:00; Su 12:00-06:00", "brand": "Tillys", "brand:wikidata": "Q7802889", "nsi_id": "tillys-0a21d9"}, "geometry": {"type": "Point", "coordinates": [-87.206, 30.474]}},
{"type": "Feature", "id": "_Vq_5J_gTk4G5bcY4EW7-dMN1TM=", "properties": {"ref": "0038", "@spider": "tillys", "clothes": "children;men;women", "shop": "clothes", "addr:street_address": "1300 West Sunset Rd.", "addr:city": "Henderson", "addr:state": "NV", "addr:postcode": "89014", "addr:country": "US", "name": "Galleria at Sunset", "phone": "702-454-1275", "opening_hours": "Mo-Sa 11:00-08:00; Su 11:00-06:00", "brand": "Tillys", "brand:wikidata": "Q7802889", "nsi_id": "tillys-0a21d9"}, "geometry": {"type": "Point", "coordinates": [-115.04, 36.064]}},
{"type": "Feature", "id": "i6HpSgEuWqajHm5RJCZdVjDogcY=", "properties": {"ref": "0229", "@spider": "tillys", "clothes": "children;men;women", "shop": "clothes", "addr:street_address": "9863 S. Eastern Ave.", "addr:city": "Las Vegas", "addr:state": "NV", "addr:postcode": "89183", "addr:country": "US", "name": "Silverado Ranch Plaza", "phone": "702-854-7027", "opening_hours": "Mo-Sa 11:00-07:00; Su 12:00-06:00", "brand": "Tillys", "brand:wikidata": "Q7802889", "nsi_id": "tillys-0a21d9"}, "geometry": {"type": "Point", "coordinates": [-115.117, 36.009]}},
{"type": "Feature", "id": "S6UJdf_ba8E6Ga6YdnM-lY4BNYE=", "properties": {"ref": "0056", "@spider": "tillys", "clothes": "children;men;women", "shop": "clothes", "addr:street_address": "4300 Meadows Lane", "addr:city": "Las Vegas", "addr:state": "NV", "addr:postcode": "89107", "addr:country": "US", "name": "Meadows Mall", "phone": "702-821-1416", "opening_hours": "Mo-Sa 11:00-08:00; Su 11:00-07:00", "brand": "Tillys", "brand:wikidata": "Q7802889", "nsi_id": "tillys-0a21d9"}, "geometry": {"type": "Point", "coordinates": [-115.197, 36.172]}},
{"type": "Feature", "id": "xcVrLUOskX0PmofDY5au3an9P68=", "properties": {"ref": "0281", "@spider": "tillys", "clothes": "children;men;women", "shop": "clothes", "addr:street_address": "7921 W. Tropical Pkwy", "addr:city": "Las Vegas", "addr:state": "NV", "addr:postcode": "89149", "addr:country": "US", "name": "Centennial Center", "phone": "(702) 529-0150", "opening_hours": "Mo-Sa 10:00-09:00; Su 10:00-07:00", "brand": "Tillys", "brand:wikidata": "Q7802889", "nsi_id": "tillys-0a21d9"}, "geometry": {"type": "Point", "coordinates": [-115.2863, 36.2869]}},
{"type": "Feature", "id": "4E0xrE8RpJTM29s0MECNyo-T4EM=", "properties": {"ref": "0249", "@spider": "tillys", "clothes": "children;men;women", "shop": "clothes", "addr:street_address": "2200 S 10th St", "addr:city": "McAllen", "addr:state": "TX", "addr:postcode": "78503", "addr:country": "US", "name": "La Plaza Mall", "phone": "956-800-6757", "opening_hours": "Mo-Sa 11:00-07:00; Su 12:00-06:00", "brand": "Tillys", "brand:wikidata": "Q7802889", "nsi_id": "tillys-0a21d9"}, "geometry": {"type": "Point", "coordinates": [-98.235818, 26.187748]}},
{"type": "Feature", "id": "YlyQyoZb0HK-NkhiKnS9xkjzjJU=", "properties": {"ref": "0039", "@spider": "tillys", "clothes": "children;men;women", "shop": "clothes", "addr:street_address": "8800 West Charleston Blvd.", "addr:city": "Las Vegas", "addr:state": "NV", "addr:postcode": "89117", "addr:country": "US", "name": "Boca Park Marketplace", "phone": "702-932-0148", "opening_hours": "Mo-Sa 11:00-07:00; Su 12:00-06:00", "brand": "Tillys", "brand:wikidata": "Q7802889", "nsi_id": "tillys-0a21d9"}, "geometry": {"type": "Point", "coordinates": [-115.287, 36.159]}},
{"type": "Feature", "id": "Lsl_4oVxYLuYXynacNafL8pmXZ4=", "properties": {"ref": "0081", "@spider": "tillys", "clothes": "children;men;women", "shop": "clothes", "addr:street_address": "7235 Arroyo Crossings Pkwy.", "addr:city": "Las Vegas", "addr:state": "NV", "addr:postcode": "89113", "addr:country": "US", "name": "Rainbow Arroyo Commons", "phone": "702-818-1640", "opening_hours": "Mo-Sa 11:00-07:00; Su 12:00-06:00", "brand": "Tillys", "brand:wikidata": "Q7802889", "nsi_id": "tillys-0a21d9"}, "geometry": {"type": "Point", "coordinates": [-115.251, 36.063]}},
{"type": "Feature", "id": "fYjwJbmBYD_qV6hVuQ4Rr0MNW5o=", "properties": {"ref": "0164", "@spider": "tillys", "clothes": "children;men;women", "shop": "clothes", "addr:street_address": "7401 Market Street", "addr:city": "Youngstown", "addr:state": "OH", "addr:postcode": "44512", "addr:country": "US", "name": "Southern Park Mall", "phone": "330-729-1330", "opening_hours": "Mo-Sa 11:00-07:00; Su 12:00-06:00", "brand": "Tillys", "brand:wikidata": "Q7802889", "nsi_id": "tillys-0a21d9"}, "geometry": {"type": "Point", "coordinates": [-80.66, 41.021]}},
{"type": "Feature", "id": "SuUynIIlPNFQ7NUMZAiGZgh-Ltk=", "properties": {"ref": "0085", "@spider": "tillys", "clothes": "children;men;women", "shop": "clothes", "addr:street_address": "201 Bluefish Dr.", "addr:city": "Panama City Beach", "addr:state": "FL", "addr:postcode": "32413", "addr:country": "US", "name": "Pier Park", "phone": "850-230-2655", "opening_hours": "Mo-Th 10:00-07:00; Fr-Sa 10:00-08:00; Su 12:00-06:00", "brand": "Tillys", "brand:wikidata": "Q7802889", "nsi_id": "tillys-0a21d9"}, "geometry": {"type": "Point", "coordinates": [-85.87, 30.22]}},
{"type": "Feature", "id": "xUMIRVg3yDFJ3WObw5lBZ6gZ6XE=", "properties": {"ref": "0196", "@spider": "tillys", "clothes": "children;men;women", "shop": "clothes", "addr:street_address": "185 Millcreek Mall", "addr:city": "Erie", "addr:state": "PA", "addr:postcode": "16565", "addr:country": "US", "name": "Millcreek Mall", "phone": "814-844-6012", "opening_hours": "Mo-Sa 11:00-07:00; Su 12:00-06:00", "brand": "Tillys", "brand:wikidata": "Q7802889", "nsi_id": "tillys-0a21d9"}, "geometry": {"type": "Point", "coordinates": [-80.104, 42.069]}},
{"type": "Feature", "id": "E_kuF5awZqLg4DBw9Ts8HtmEtp0=", "properties": {"ref": "0215", "@spider": "tillys", "clothes": "children;men;women", "shop": "clothes", "addr:street_address": "5512 New Fashion Way", "addr:city": "Charlotte", "addr:state": "NC", "addr:postcode": "28217", "addr:country": "US", "name": "Charlotte Premium Outlets", "phone": "704-998-6128", "opening_hours": "Mo-Sa 11:00-07:00; Su 12:00-06:00", "brand": "Tillys", "brand:wikidata": "Q7802889", "nsi_id": "tillys-0a21d9"}, "geometry": {"type": "Point", "coordinates": [-80.971, 35.172]}},
{"type": "Feature", "id": "E8sqN1pg2sd68BN6m_aWMxnI5u8=", "properties": {"ref": "0201", "@spider": "tillys", "clothes": "children;men;women", "shop": "clothes", "addr:street_address": "888 West 2nd Street", "addr:city": "Calexico ", "addr:state": "CA", "addr:postcode": "92231", "addr:country": "US", "name": "Gran Plaza Outlets", "phone": "760-618-7089", "opening_hours": "Mo-Su 11:00-07:00", "brand": "Tillys", "brand:wikidata": "Q7802889", "nsi_id": "tillys-0a21d9"}, "geometry": {"type": "Point", "coordinates": [-115.507, 32.666]}},
{"type": "Feature", "id": "auubxjt2na4uTLSpta2HGempvH8=", "properties": {"ref": "0032", "@spider": "tillys", "clothes": "children;men;women", "shop": "clothes", "addr:street_address": "72840 Highway 111", "addr:city": "Palm Desert", "addr:state": "CA", "addr:postcode": "92260", "addr:country": "US", "name": "Westfield Palm Desert", "phone": "760-773-3791", "opening_hours": "Mo-Th 11:00-07:00; Fr-Sa 10:00-08:00; Su 11:00-07:00", "brand": "Tillys", "brand:wikidata": "Q7802889", "nsi_id": "tillys-0a21d9"}, "geometry": {"type": "Point", "coordinates": [-116.394, 33.722]}},
{"type": "Feature", "id": "ExCjLRxbv-q1LXj3ZjEolDzECc0=", "properties": {"ref": "0291", "@spider": "tillys", "clothes": "children;men;women", "shop": "clothes", "addr:street_address": "48750 Seminole Drive", "addr:city": "Cabazon", "addr:state": "CA", "addr:postcode": "92230", "addr:country": "US", "name": "Cabazon Outlets - Opening 11/22/22!", "opening_hours": "Mo-Th 11:00-07:00; Fr-Sa 10:00-08:00; Su 11:00-07:00", "brand": "Tillys", "brand:wikidata": "Q7802889", "nsi_id": "tillys-0a21d9"}, "geometry": {"type": "Point", "coordinates": [-116.7801, 33.9097]}},
{"type": "Feature", "id": "RZaacj66KpQ7LYVqywliMvgVv6E=", "properties": {"ref": "0103", "@spider": "tillys", "clothes": "children;men;women", "shop": "clothes", "addr:street_address": "14400 Bear Valley Rd.", "addr:city": "Victorville", "addr:state": "CA", "addr:postcode": "92392", "addr:country": "US", "name": "Mall of Victor Valley", "phone": "760-955-7626", "opening_hours": "Mo-Sa 10:00-09:00; Su 11:00-06:00", "brand": "Tillys", "brand:wikidata": "Q7802889", "nsi_id": "tillys-0a21d9"}, "geometry": {"type": "Point", "coordinates": [-117.348, 34.473]}},
{"type": "Feature", "id": "uFKsPVh_kfc9cA_c9E4aDi9fUhM=", "properties": {"ref": "0231", "@spider": "tillys", "clothes": "children;men;women", "shop": "clothes", "addr:street_address": "27461 San Bernardino Ave.", "addr:city": "Redlands", "addr:state": "CA", "addr:postcode": "92374", "addr:country": "US", "name": "Mountain Grove at Citrus Plaza", "phone": "909-801-3005", "opening_hours": "Mo-Sa 11:00-07:00; Su 12:00-06:00", "brand": "Tillys", "brand:wikidata": "Q7802889", "nsi_id": "tillys-0a21d9"}, "geometry": {"type": "Point", "coordinates": [-117.204, 34.077]}},
{"type": "Feature", "id": "fK2rlec_dnErpI-M5jEbdNWmjT8=", "properties": {"ref": "0131", "@spider": "tillys", "clothes": "children;men;women", "shop": "clothes", "addr:street_address": "500 Inland Center Dr.", "addr:city": "San Bernardino", "addr:state": "CA", "addr:postcode": "92408", "addr:country": "US", "name": "Inland Center", "phone": "909-381-1850", "opening_hours": "Mo-Sa 11:00-07:00; Su 12:00-06:00", "brand": "Tillys", "brand:wikidata": "Q7802889", "nsi_id": "tillys-0a21d9"}, "geometry": {"type": "Point", "coordinates": [-117.294638, 34.091616]}},
{"type": "Feature", "id": "4J5hWn3VdSst-JyUDqGU3ZAF6hU=", "properties": {"ref": "0214", "@spider": "tillys", "clothes": "children;men;women", "shop": "clothes", "addr:street_address": "22500 Town Circle", "addr:city": "Moreno Valley", "addr:state": "CA", "addr:postcode": "92553", "addr:country": "US", "name": "Moreno Valley Mall", "phone": "951-571-2007", "opening_hours": "Mo-Th 11:00-07:00; Fr-Sa 11:00-08:00; Su 12:00-06:00", "brand": "Tillys", "brand:wikidata": "Q7802889", "nsi_id": "tillys-0a21d9"}, "geometry": {"type": "Point", "coordinates": [-117.271, 33.939]}},
{"type": "Feature", "id": "8EqvCcvsmoLa4w_SJyeifffbpHg=", "properties": {"ref": "0260", "@spider": "tillys", "clothes": "children;men;women", "shop": "clothes", "addr:street_address": "1215 W. Renaissance Parkway", "addr:city": "Rialto", "addr:state": "CA", "addr:postcode": "92376", "addr:country": "US", "name": "Renaissance Marketplace", "phone": "(909) 546-3169", "opening_hours": "Mo-Sa 11:00-07:00; Su 12:00-06:00", "brand": "Tillys", "brand:wikidata": "Q7802889", "nsi_id": "tillys-0a21d9"}, "geometry": {"type": "Point", "coordinates": [-117.396684, 34.132878]}},
{"type": "Feature", "id": "ifNKBF5Yoh31Ahqds_h9ahb5Wh0=", "properties": {"ref": "0104", "@spider": "tillys", "clothes": "children;men;women", "shop": "clothes", "addr:street_address": "30046 Haun Rd.", "addr:city": "Menifee", "addr:state": "CA", "addr:postcode": "92584", "addr:country": "US", "name": "Countryside Marketplace", "phone": "951-723-1016", "opening_hours": "Mo-Sa 11:00-08:00; Su 11:00-07:00", "brand": "Tillys", "brand:wikidata": "Q7802889", "nsi_id": "tillys-0a21d9"}, "geometry": {"type": "Point", "coordinates": [-117.175, 33.684]}},
{"type": "Feature", "id": "5Qg0Ul3J_j5x1RLDeQqVmIPScGI=", "properties": {"ref": "0280", "@spider": "tillys", "clothes": "children;men;women", "shop": "clothes", "addr:street_address": "3601 Riverside Plaza", "addr:city": "Riverside", "addr:state": "CA", "addr:postcode": "92506", "addr:country": "US", "name": "Riverside Plaza - Now Open!", "phone": "(951) 900-1402", "opening_hours": "Mo-Sa 11:00-08:00; Su 11:00-07:00", "brand": "Tillys", "brand:wikidata": "Q7802889", "nsi_id": "tillys-0a21d9"}, "geometry": {"type": "Point", "coordinates": [-117.3533, 33.9325]}},
{"type": "Feature", "id": "JvcYkiC0HwOIAriJouRwGeTKABg=", "properties": {"ref": "0016", "@spider": "tillys", "clothes": "children;men;women", "shop": "clothes", "addr:street_address": "40820 Winchester Rd", "addr:city": "Temecula", "addr:state": "CA", "addr:postcode": "92591", "addr:country": "US", "name": "Promenade in Temecula", "phone": "951-296-0967", "opening_hours": "Mo-Sa 11:00-08:00; Su 11:00-07:00", "brand": "Tillys", "brand:wikidata": "Q7802889", "nsi_id": "tillys-0a21d9"}, "geometry": {"type": "Point", "coordinates": [-117.153, 33.525]}},
{"type": "Feature", "id": "vXmWgN7a4VgqqiT2b99rqSD1PYw=", "properties": {"ref": "0141", "@spider": "tillys", "clothes": "children;men;women", "shop": "clothes", "addr:street_address": "12518 N. Mainstreet", "addr:city": "Rancho Cucamonga", "addr:state": "CA", "addr:postcode": "91739", "addr:country": "US", "name": "Victoria Gardens", "phone": "909-463-1292", "opening_hours": "Mo-Sa 11:00-08:00; Su 11:00-07:00", "brand": "Tillys", "brand:wikidata": "Q7802889", "nsi_id": "tillys-0a21d9"}, "geometry": {"type": "Point", "coordinates": [-117.53, 34.112]}},
{"type": "Feature", "id": "pmw2yYXfKay0RvzjGTbNqIq-zr8=", "properties": {"ref": "0012", "@spider": "tillys", "clothes": "children;men;women", "shop": "clothes", "addr:street_address": "One Mills Rd.", "addr:city": "Ontario", "addr:state": "CA", "addr:postcode": "91764", "addr:country": "US", "name": "Ontario Mills", "phone": "909-481-7112", "opening_hours": "Mo-Fr 11:00-07:00; Sa 11:00-08:00; Su 12:00-06:00", "brand": "Tillys", "brand:wikidata": "Q7802889", "nsi_id": "tillys-0a21d9"}, "geometry": {"type": "Point", "coordinates": [-117.555, 34.076]}},
{"type": "Feature", "id": "VwcHuGNesRmio2rVWtpAULj9JsY=", "properties": {"ref": "0055", "@spider": "tillys", "clothes": "children;men;women", "shop": "clothes", "addr:street_address": "1115 Galleria at Tyler", "addr:city": "Riverside", "addr:state": "CA", "addr:postcode": "92503", "addr:country": "US", "name": "Galleria at Tyler", "phone": "951-637-8428", "opening_hours": "Mo-Sa 11:00-08:00; Su 11:00-07:00", "brand": "Tillys", "brand:wikidata": "Q7802889", "nsi_id": "tillys-0a21d9"}, "geometry": {"type": "Point", "coordinates": [-117.457, 33.911]}},
{"type": "Feature", "id": "f3Jor5DE-IwThL5D6q36OS1osDQ=", "properties": {"ref": "0197", "@spider": "tillys", "clothes": "children;men;women", "shop": "clothes", "addr:street_address": "766 Eastview Mall", "addr:city": "Victor", "addr:state": "NY", "addr:postcode": "14564", "addr:country": "US", "name": "Eastview Mall", "phone": "585-421-6014", "opening_hours": "Mo-Sa 11:00-07:00; Su 11:00-06:00", "brand": "Tillys", "brand:wikidata": "Q7802889", "nsi_id": "tillys-0a21d9"}, "geometry": {"type": "Point", "coordinates": [-77.449, 43.028]}},
{"type": "Feature", "id": "2steOoyYYQp0kT0SAaf7a4qO8qA=", "properties": {"ref": "0185", "@spider": "tillys", "clothes": "children;men;women", "shop": "clothes", "addr:street_address": "1257 E 19th Street", "addr:city": "Upland", "addr:state": "CA", "addr:postcode": "91784", "addr:country": "US", "name": "Colonies Crossroads", "phone": "909-244-1942", "opening_hours": "Mo-Sa 11:00-07:00; Su 12:00-06:00", "brand": "Tillys", "brand:wikidata": "Q7802889", "nsi_id": "tillys-0a21d9"}, "geometry": {"type": "Point", "coordinates": [-117.637, 34.133]}},
{"type": "Feature", "id": "5pyr8a1QPWyZnBo5-j4qLRzCx-U=", "properties": {"ref": "0069", "@spider": "tillys", "clothes": "children;men;women", "shop": "clothes", "addr:street_address": "12327 Limonite Ave.", "addr:city": "Mira Loma", "addr:state": "CA", "addr:postcode": "91752", "addr:country": "US", "name": "Eastvale Gateway", "phone": "951-360-1240", "opening_hours": "Mo-Sa 10:00-08:00; Su 11:00-07:00", "brand": "Tillys", "brand:wikidata": "Q7802889", "nsi_id": "tillys-0a21d9"}, "geometry": {"type": "Point", "coordinates": [-117.552, 33.975]}},
{"type": "Feature", "id": "aqLznxEaezEv8-VveipBh1X9Pm4=", "properties": {"ref": "0042", "@spider": "tillys", "clothes": "children;men;women", "shop": "clothes", "addr:street_address": "3417 Grand Oaks", "addr:city": "Corona", "addr:state": "CA", "addr:postcode": "92881", "addr:country": "US", "name": "Crossings at Corona", "phone": "951-898-9054", "opening_hours": "Mo-Sa 10:00-08:00; Su 11:00-07:00", "brand": "Tillys", "brand:wikidata": "Q7802889", "nsi_id": "tillys-0a21d9"}, "geometry": {"type": "Point", "coordinates": [-117.515, 33.826]}},
{"type": "Feature", "id": "y9VoP1ahdDbj8cleX4sNPtjDV68=", "properties": {"ref": "0113", "@spider": "tillys", "clothes": "children;men;women", "shop": "clothes", "addr:street_address": "5144 E Montclair Plaza Lane", "addr:city": "Montclair", "addr:state": "CA", "addr:postcode": "91763", "addr:country": "US", "name": "Montclair Plaza", "phone": "909-624-4034", "opening_hours": "Mo-Su 11:00-07:30", "brand": "Tillys", "brand:wikidata": "Q7802889", "nsi_id": "tillys-0a21d9"}, "geometry": {"type": "Point", "coordinates": [-117.692, 34.087]}},
{"type": "Feature", "id": "fJgSON3UTm_IohamA6dn9Y8OVKk=", "properties": {"ref": "0021", "@spider": "tillys", "clothes": "children;men;women", "shop": "clothes", "addr:street_address": "1266-F Auto Park Way", "addr:city": "Escondido", "addr:state": "CA", "addr:postcode": "92029", "addr:country": "US", "name": "Escondido Promenade", "phone": "760-738-9508", "opening_hours": "Mo-Sa 11:00-07:00; Su 12:00-06:00", "brand": "Tillys", "brand:wikidata": "Q7802889", "nsi_id": "tillys-0a21d9"}, "geometry": {"type": "Point", "coordinates": [-117.098, 33.112]}},
{"type": "Feature", "id": "uzz5v6LNor6cgz5oxKEzH46_n3g=", "properties": {"ref": "0065", "@spider": "tillys", "clothes": "children;men;women", "shop": "clothes", "addr:street_address": "5000 Meadowood Mall Circle", "addr:city": "Reno", "addr:state": "NV", "addr:postcode": "89502", "addr:country": "US", "name": "Meadowood Mall", "phone": "775-826-4519", "opening_hours": "Mo-Th 11:00-07:00; Fr-Sa 11:00-08:00; Su 11:00-07:00", "brand": "Tillys", "brand:wikidata": "Q7802889", "nsi_id": "tillys-0a21d9"}, "geometry": {"type": "Point", "coordinates": [-119.78, 39.475]}},
{"type": "Feature", "id": "FwJFlQJm35AJfUaH3Q4zFKoOIZM=", "properties": {"ref": "0208", "@spider": "tillys", "clothes": "children;men;women", "shop": "clothes", "addr:street_address": "109 Cross Creek Mall", "addr:city": "Fayetteville", "addr:state": "NC", "addr:postcode": "28303", "addr:country": "US", "name": "Cross Creek Mall", "phone": "910-364-0089", "opening_hours": "Mo-Sa 11:00-07:00; Su 12:00-06:00", "brand": "Tillys", "brand:wikidata": "Q7802889", "nsi_id": "tillys-0a21d9"}, "geometry": {"type": "Point", "coordinates": [-78.961, 35.072]}},
{"type": "Feature", "id": "8FH3hlkLbxCZDBpdSx2leDUD6UM=", "properties": {"ref": "0027", "@spider": "tillys", "clothes": "children;men;women", "shop": "clothes", "addr:street_address": "3865 Grand Ave.", "addr:city": "Chino", "addr:state": "CA", "addr:postcode": "91710", "addr:country": "US", "name": "Chino Spectrum Towne Center", "phone": "909-627-6060", "opening_hours": "Mo-Sa 11:00-07:00; Su 11:00-06:00", "brand": "Tillys", "brand:wikidata": "Q7802889", "nsi_id": "tillys-0a21d9"}, "geometry": {"type": "Point", "coordinates": [-117.72, 33.999]}},
{"type": "Feature", "id": "LNoUwYWR9CTEzY3RDGD6vKRtPl4=", "properties": {"ref": "0030", "@spider": "tillys", "clothes": "children;men;women", "shop": "clothes", "addr:street_address": "9880 Mission Gorge Rd.", "addr:city": "Santee", "addr:state": "CA", "addr:postcode": "92071", "addr:country": "US", "name": "Santee Trolley Square", "phone": "619-562-2364", "opening_hours": "Mo-Sa 11:00-07:00; Su 12:00-06:00", "brand": "Tillys", "brand:wikidata": "Q7802889", "nsi_id": "tillys-0a21d9"}, "geometry": {"type": "Point", "coordinates": [-116.98, 32.842]}},
{"type": "Feature", "id": "h8sVYEfp3r-iXD3Zf_7qzslr3LE=", "properties": {"ref": "0052", "@spider": "tillys", "clothes": "children;men;women", "shop": "clothes", "addr:street_address": "363 Parkway Plaza", "addr:city": "El Cajon", "addr:state": "CA", "addr:postcode": "92020", "addr:country": "US", "name": "Parkway Plaza", "phone": "619-401-0879", "opening_hours": "Mo-Sa 11:00-07:00; Su 12:00-06:00", "brand": "Tillys", "brand:wikidata": "Q7802889", "nsi_id": "tillys-0a21d9"}, "geometry": {"type": "Point", "coordinates": [-116.967, 32.805]}},
{"type": "Feature", "id": "8J8abZYfCl3zVjO9y69VDQwB5gA=", "properties": {"ref": "0146", "@spider": "tillys", "clothes": "children;men;women", "shop": "clothes", "addr:street_address": "1321 N. Columbia Center Blvd", "addr:city": "Kennewick", "addr:state": "WA", "addr:postcode": "99336", "addr:country": "US", "name": "Columbia Center", "phone": "509-737-1116", "opening_hours": "Mo-Sa 11:00-07:00; Su 12:00-06:00", "brand": "Tillys", "brand:wikidata": "Q7802889", "nsi_id": "tillys-0a21d9"}, "geometry": {"type": "Point", "coordinates": [-119.226, 46.226]}},
{"type": "Feature", "id": "RSk0GUaknhMdC02JPyhCH7Kly6g=", "properties": {"ref": "0036", "@spider": "tillys", "clothes": "children;men;women", "shop": "clothes", "addr:street_address": "1233 West Rancho Vista Rd.", "addr:city": "Palmdale", "addr:state": "CA", "addr:postcode": "93551", "addr:country": "US", "name": "Antelope Valley Mall", "phone": "661-273-2093", "opening_hours": "Mo-Sa 11:00-07:00; Su 11:00-06:00", "brand": "Tillys", "brand:wikidata": "Q7802889", "nsi_id": "tillys-0a21d9"}, "geometry": {"type": "Point", "coordinates": [-118.152, 34.604]}},
{"type": "Feature", "id": "brT1G4KHAd5U2KpbDY7ucClb7sM=", "properties": {"ref": "0068", "@spider": "tillys", "clothes": "children;men;women", "shop": "clothes", "addr:street_address": "1327 East Gladstone St.", "addr:city": "Glendora", "addr:state": "CA", "addr:postcode": "91740", "addr:country": "US", "name": "Marketplace at Glendora", "phone": "909-394-7252", "opening_hours": "Mo-Sa 11:00-07:00; Su 12:00-06:00", "brand": "Tillys", "brand:wikidata": "Q7802889", "nsi_id": "tillys-0a21d9"}, "geometry": {"type": "Point", "coordinates": [-117.875, 34.114]}},
{"type": "Feature", "id": "z3-Lhbc_i9goKEMIhEoXDtqzYFA=", "properties": {"ref": "0010", "@spider": "tillys", "clothes": "children;men;women", "shop": "clothes", "addr:street_address": "30616 Santa Margarita Pkwy", "addr:city": "Rancho Santa Margarita", "addr:state": "CA", "addr:postcode": "92688", "addr:country": "US", "name": "Santa Margarita Town Center", "phone": "949-888-0318", "opening_hours": "Mo-Sa 11:00-07:00; Su 12:00-06:00", "brand": "Tillys", "brand:wikidata": "Q7802889", "nsi_id": "tillys-0a21d9"}, "geometry": {"type": "Point", "coordinates": [-117.595, 33.644]}},
{"type": "Feature", "id": "UONnjUja7MA40_OmbJ-ZJaMrrGI=", "properties": {"ref": "0127", "@spider": "tillys", "clothes": "children;men;women", "shop": "clothes", "addr:street_address": "10661 Westview Parkway", "addr:city": "San Diego", "addr:state": "CA", "addr:postcode": "92126", "addr:country": "US", "name": "Mira Mesa Marketplace", "phone": "858-790-0607", "opening_hours": "Mo-Sa 11:00-07:00; Su 12:00-06:00", "brand": "Tillys", "brand:wikidata": "Q7802889", "nsi_id": "tillys-0a21d9"}, "geometry": {"type": "Point", "coordinates": [-117.121, 32.915]}},
{"type": "Feature", "id": "savbqJXwAvG5pGNe82_uWqlQlWI=", "properties": {"ref": "0019", "@spider": "tillys", "clothes": "children;men;women", "shop": "clothes", "addr:street_address": "8176 E. Santa Ana Canyon Rd.", "addr:city": "Anaheim Hills", "addr:state": "CA", "addr:postcode": "92808", "addr:country": "US", "name": "Anaheim Hills Festival", "phone": "714-998-5975", "opening_hours": "Mo-Sa 11:00-07:00; Su 12:00-06:00", "brand": "Tillys", "brand:wikidata": "Q7802889", "nsi_id": "tillys-0a21d9"}, "geometry": {"type": "Point", "coordinates": [-117.749, 33.868]}},
{"type": "Feature", "id": "hLmRrY3bXC0TsiU_gB86XBAFRho=", "properties": {"ref": "0033", "@spider": "tillys", "clothes": "children;men;women", "shop": "clothes", "addr:street_address": "2641 Vista Way", "addr:city": "Oceanside", "addr:state": "CA", "addr:postcode": "92054", "addr:country": "US", "name": "El Camino North Shopping Center", "phone": "760-529-0129", "opening_hours": "Mo-Sa 11:00-07:00; Su 12:00-06:00", "brand": "Tillys", "brand:wikidata": "Q7802889", "nsi_id": "tillys-0a21d9"}, "geometry": {"type": "Point", "coordinates": [-117.33, 33.183]}},
{"type": "Feature", "id": "yQgv_BYxC2ywmiOhETMo7Seg47w=", "properties": {"ref": "0034", "@spider": "tillys", "clothes": "children;men;women", "shop": "clothes", "addr:street_address": "1911 Calle Barcelona", "addr:city": "Carlsbad", "addr:state": "CA", "addr:postcode": "92009", "addr:country": "US", "name": "The Forum Carlsbad", "phone": "760-635-0259", "opening_hours": "Mo-Sa 10:00-06:00; Su 11:00-06:00", "brand": "Tillys", "brand:wikidata": "Q7802889", "nsi_id": "tillys-0a21d9"}, "geometry": {"type": "Point", "coordinates": [-117.266, 33.072]}},
{"type": "Feature", "id": "9sOFqWT08V58Efw1ZAFMCTBVI14=", "properties": {"ref": "0094", "@spider": "tillys", "clothes": "children;men;women", "shop": "clothes", "addr:street_address": "27562 Antonio Pkwy.", "addr:city": "Ladera Ranch", "addr:state": "CA", "addr:postcode": "92694", "addr:country": "US", "name": "Mercantile East", "phone": "949-347-8823", "opening_hours": "Mo-Sa 11:00-07:00; Su 12:00-06:00", "brand": "Tillys", "brand:wikidata": "Q7802889", "nsi_id": "tillys-0a21d9"}, "geometry": {"type": "Point", "coordinates": [-117.631, 33.581]}},
{"type": "Feature", "id": "D-BzbLLr9OrHQdMWmF1tSx5fOlA=", "properties": {"ref": "0037", "@spider": "tillys", "clothes": "children;men;women", "shop": "clothes", "addr:street_address": "112 Plaza Dr.", "addr:city": "West Covina", "addr:state": "CA", "addr:postcode": "91790", "addr:country": "US", "name": "Plaza West Covina", "phone": "626-962-0017", "opening_hours": "Mo-Sa 11:00-07:00; Su 12:00-06:00", "brand": "Tillys", "brand:wikidata": "Q7802889", "nsi_id": "tillys-0a21d9"}, "geometry": {"type": "Point", "coordinates": [-117.935, 34.072]}},
{"type": "Feature", "id": "u4QlaXCxng5ynngs-b3Orfc6QwA=", "properties": {"ref": "0129", "@spider": "tillys", "clothes": "children;men;women", "shop": "clothes", "addr:street_address": "12875 El Camino Real", "addr:city": "San Diego", "addr:state": "CA", "addr:postcode": "92130", "addr:country": "US", "name": "Del Mar Highlands Town Center", "phone": "858-259-0015", "opening_hours": "Mo-Sa 11:00-07:00; Su 12:00-06:00", "brand": "Tillys", "brand:wikidata": "Q7802889", "nsi_id": "tillys-0a21d9"}, "geometry": {"type": "Point", "coordinates": [-117.234, 32.951]}},
{"type": "Feature", "id": "VJwMMstxkuVVYW4EsKKVA0osiLk=", "properties": {"ref": "0015", "@spider": "tillys", "clothes": "children;men;women", "shop": "clothes", "addr:street_address": "2365 East Imperial Hwy.", "addr:city": "Brea", "addr:state": "CA", "addr:postcode": "92821", "addr:country": "US", "name": "Brea Union Plaza", "phone": "714-256-2817", "opening_hours": "Mo-Sa 10:00-07:00; Su 11:00-06:00", "brand": "Tillys", "brand:wikidata": "Q7802889", "nsi_id": "tillys-0a21d9"}, "geometry": {"type": "Point", "coordinates": [-117.871, 33.911]}},
{"type": "Feature", "id": "1rDwRvgwdcOj6ZXo6IomrJ6rOLw=", "properties": {"ref": "0236", "@spider": "tillys", "clothes": "children;men;women", "shop": "clothes", "addr:street_address": "3030 Plaza Bonita Rd.", "addr:city": "National City", "addr:state": "CA", "addr:postcode": "91950", "addr:country": "US", "name": "Plaza Bonita", "phone": "619-791-2121", "opening_hours": "Mo-Th 11:00-07:00; Fr-Sa 11:00-08:00; Su 11:00-07:00", "brand": "Tillys", "brand:wikidata": "Q7802889", "nsi_id": "tillys-0a21d9"}, "geometry": {"type": "Point", "coordinates": [-117.066, 32.656]}},
{"type": "Feature", "id": "uLSLUXB49fYM_jM8ZvcuRjME7rg=", "properties": {"ref": "0051", "@spider": "tillys", "clothes": "children;men;women", "shop": "clothes", "addr:street_address": "1640 Camino Del Rio North", "addr:city": "San Diego", "addr:state": "CA", "addr:postcode": "92108", "addr:country": "US", "name": "Mission Valley Mall", "phone": "619-294-3160", "opening_hours": "Mo-Sa 11:00-07:00; Su 12:00-06:00", "brand": "Tillys", "brand:wikidata": "Q7802889", "nsi_id": "tillys-0a21d9"}, "geometry": {"type": "Point", "coordinates": [-117.147, 32.768]}},
{"type": "Feature", "id": "HE9lCwCJSl-aCpAmzFoV1v3-SAI=", "properties": {"ref": "0031", "@spider": "tillys", "clothes": "children;men;women", "shop": "clothes", "addr:street_address": "723 Spectrum Center Drive", "addr:city": "Irvine", "addr:state": "CA", "addr:postcode": "92618", "addr:country": "US", "name": "Irvine Spectrum Center", "phone": "949-788-0781", "opening_hours": "Mo-Th 11:00-08:00; Fr-Sa 11:00-09:00; Su 11:00-08:00", "brand": "Tillys", "brand:wikidata": "Q7802889", "nsi_id": "tillys-0a21d9"}, "geometry": {"type": "Point", "coordinates": [-117.745, 33.649]}},
{"type": "Feature", "id": "_HrpLmsj6HOE5J4FW-H1U4jmthQ=", "properties": {"ref": "0233", "@spider": "tillys", "clothes": "children;men;women", "shop": "clothes", "addr:street_address": "101 West Avenida Vista Hermosa", "addr:city": "San Clemente", "addr:state": "CA", "addr:postcode": "92672", "addr:country": "US", "name": "Outlets at San Clemente", "phone": "949-226-5314", "opening_hours": "Mo-Sa 11:00-07:00; Su 12:00-06:00", "brand": "Tillys", "brand:wikidata": "Q7802889", "nsi_id": "tillys-0a21d9"}, "geometry": {"type": "Point", "coordinates": [-117.628, 33.439]}},
{"type": "Feature", "id": "oW6U-WEJIrnyim9QW3b8-7D470M=", "properties": {"ref": "0008", "@spider": "tillys", "clothes": "children;men;women", "shop": "clothes", "addr:street_address": "27150 Alicia Pkwy.", "addr:city": "Laguna Niguel", "addr:state": "CA", "addr:postcode": "92677", "addr:country": "US", "name": "Marketplace at Laguna Niguel", "phone": "949-448-0316", "opening_hours": "Mo-Sa 11:00-07:00; Su 12:00-06:00", "brand": "Tillys", "brand:wikidata": "Q7802889", "nsi_id": "tillys-0a21d9"}, "geometry": {"type": "Point", "coordinates": [-117.714, 33.568]}},
{"type": "Feature", "id": "jB1-kkHxXctFLtCuQXqpSc9YAkQ=", "properties": {"ref": "0206", "@spider": "tillys", "clothes": "children;men;women", "shop": "clothes", "addr:street_address": "3365 E. Foothill Blvd", "addr:city": "Pasadena", "addr:state": "CA", "addr:postcode": "91107", "addr:country": "US", "name": "Hastings Village", "phone": "626-325-9025", "opening_hours": "Mo-Sa 11:00-07:00; Su 12:00-06:00", "brand": "Tillys", "brand:wikidata": "Q7802889", "nsi_id": "tillys-0a21d9"}, "geometry": {"type": "Point", "coordinates": [-118.082, 34.15]}},
{"type": "Feature", "id": "MZFoUrToAIk9aQmmkb5AQkEzbOY=", "properties": {"ref": "0282", "@spider": "tillys", "clothes": "children;men;women", "shop": "clothes", "addr:street_address": "4211 Camino De La Plaza", "addr:city": "San Diego", "addr:state": "CA", "addr:postcode": "92173", "addr:country": "US", "name": "Las Americas Premium Outlets - Opening 11/15/2022!", "phone": "(619) 780-0570", "opening_hours": "Mo-Sa 11:00-07:00; Su 12:00-06:00", "brand": "Tillys", "brand:wikidata": "Q7802889", "nsi_id": "tillys-0a21d9"}, "geometry": {"type": "Point", "coordinates": [-117.0513, 32.5546]}},
{"type": "Feature", "id": "NLr9TYDw8G40Ncw4S2hxJpeJHkM=", "properties": {"ref": "0075", "@spider": "tillys", "clothes": "children;men;women", "shop": "clothes", "addr:street_address": "2403 Park Ave.", "addr:city": "Tustin", "addr:state": "CA", "addr:postcode": "92782", "addr:country": "US", "name": "The District at Tustin Legacy", "phone": "714-259-1173", "opening_hours": "Mo-Sa 11:00-07:00; Su 12:00-06:00", "brand": "Tillys", "brand:wikidata": "Q7802889", "nsi_id": "tillys-0a21d9"}, "geometry": {"type": "Point", "coordinates": [-117.828, 33.699]}},
{"type": "Feature", "id": "TnpYxrQS7ns0nN6hF8MMK6pXjOg=", "properties": {"ref": "0006", "@spider": "tillys", "clothes": "children;men;women", "shop": "clothes", "addr:street_address": "1429 South Harbor Blvd.", "addr:city": "Fullerton", "addr:state": "CA", "addr:postcode": "92832", "addr:country": "US", "name": "Fullerton Metro Center", "phone": "714-447-1171", "opening_hours": "Mo-Sa 11:00-07:00; Su 12:00-06:00", "brand": "Tillys", "brand:wikidata": "Q7802889", "nsi_id": "tillys-0a21d9"}, "geometry": {"type": "Point", "coordinates": [-117.924, 33.856]}},
{"type": "Feature", "id": "gOEgVOMzLItLhL5ysIkq_Tmwa68=", "properties": {"ref": "0139", "@spider": "tillys", "clothes": "children;men;women", "shop": "clothes", "addr:street_address": "2700 Potomac Mills Circle", "addr:city": "Woodbridge", "addr:state": "VA", "addr:postcode": "22192", "addr:country": "US", "name": "Potomac Mills", "phone": "703-490-3673", "opening_hours": "Mo-Sa 11:00-07:00; Su 12:00-06:00", "brand": "Tillys", "brand:wikidata": "Q7802889", "nsi_id": "tillys-0a21d9"}, "geometry": {"type": "Point", "coordinates": [-77.293, 38.644]}},
{"type": "Feature", "id": "eCVQOX9GhP3DJLa-I4XsGC5-VTc=", "properties": {"ref": "0014", "@spider": "tillys", "clothes": "children;men;women", "shop": "clothes", "addr:street_address": "20 City Blvd. West", "addr:city": "Orange", "addr:state": "CA", "addr:postcode": "92868", "addr:country": "US", "name": "The Outlets at Orange", "phone": "714-769-3300", "opening_hours": "Mo-Sa 11:00-07:00; Su 12:00-06:00", "brand": "Tillys", "brand:wikidata": "Q7802889", "nsi_id": "tillys-0a21d9"}, "geometry": {"type": "Point", "coordinates": [-117.894, 33.786]}},
{"type": "Feature", "id": "f1C0mZssDxKyUX9GTx7VmrhU6Ik=", "properties": {"ref": "0217", "@spider": "tillys", "clothes": "children;men;women", "shop": "clothes", "addr:street_address": "5701 Outlets at Tejon Pkwy", "addr:city": "Arvin", "addr:state": "CA", "addr:postcode": "93203", "addr:country": "US", "name": "Outlets at Tejon Ranch", "phone": "661-606-6002", "opening_hours": "Mo-Su 11:00-07:00", "brand": "Tillys", "brand:wikidata": "Q7802889", "nsi_id": "tillys-0a21d9"}, "geometry": {"type": "Point", "coordinates": [-118.644, 35.039]}},
{"type": "Feature", "id": "cX4I9XgzxNxel1K64k3gnrYhQZY=", "properties": {"ref": "0011", "@spider": "tillys", "clothes": "children;men;women", "shop": "clothes", "addr:street_address": "901 K South Coast Drive", "addr:city": "Costa Mesa", "addr:state": "CA", "addr:postcode": "92626", "addr:country": "US", "name": "Metro Pointe at South Coast", "phone": "714-979-8853", "opening_hours": "Mo-Sa 11:00-07:00; Su 12:00-06:00", "brand": "Tillys", "brand:wikidata": "Q7802889", "nsi_id": "tillys-0a21d9"}, "geometry": {"type": "Point", "coordinates": [-117.896, 33.689]}},
{"type": "Feature", "id": "R8kUAdsMVNsC_QplKf3U00Ne2-U=", "properties": {"ref": "0003", "@spider": "tillys", "clothes": "children;men;women", "shop": "clothes", "addr:street_address": "6836 Katella Ave.", "addr:city": "Cypress", "addr:state": "CA", "addr:postcode": "90630", "addr:country": "US", "name": "Cypress Plaza", "phone": "714-892-0129", "opening_hours": "Mo-Sa 11:00-07:00; Su 12:00-06:00", "brand": "Tillys", "brand:wikidata": "Q7802889", "nsi_id": "tillys-0a21d9"}, "geometry": {"type": "Point", "coordinates": [-118.014, 33.803]}},
{"type": "Feature", "id": "0cjnW60_1OYtgBTQq8PiMF_R8z8=", "properties": {"ref": "0286", "@spider": "tillys", "clothes": "children;men;women", "shop": "clothes", "addr:street_address": "434 Los Cerritos Center", "addr:city": "Cerritos", "addr:state": "CA", "addr:postcode": "90703", "addr:country": "US", "name": "Lost Cerritos Center - Opening 11/22/22!", "opening_hours": "Mo-Sa 11:00-07:00; Su 12:00-06:00", "brand": "Tillys", "brand:wikidata": "Q7802889", "nsi_id": "tillys-0a21d9"}, "geometry": {"type": "Point", "coordinates": [-118.0676, 33.8673]}},
{"type": "Feature", "id": "GBoClQGnUxEieQGJ6bH7XZJ-Spg=", "properties": {"ref": "0405", "@spider": "tillys", "clothes": "children;men;women", "shop": "clothes", "addr:street_address": "211 Los Cerritos Center", "addr:city": "Cerritos", "addr:state": "CA", "addr:postcode": "90703", "addr:country": "US", "name": "RSQ Los Cerritos Center", "phone": "(562) 731-0085", "opening_hours": "Mo-Sa 11:00-08:00; Su 11:00-06:00", "brand": "Tillys", "brand:wikidata": "Q7802889", "nsi_id": "tillys-0a21d9"}, "geometry": {"type": "Point", "coordinates": [-118.0676, 33.8673]}},
{"type": "Feature", "id": "ctMa7SPHFKUwEgWbBPrrWIkxWWo=", "properties": {"ref": "0135", "@spider": "tillys", "clothes": "children;men;women", "shop": "clothes", "addr:street_address": "100 Citadel Dr. Suite #317", "addr:city": "City of Commerce", "addr:state": "CA", "addr:postcode": "90040", "addr:country": "US", "name": "Citadel Outlet", "phone": "323-888-2449", "opening_hours": "Mo-Su 10:00-09:00", "brand": "Tillys", "brand:wikidata": "Q7802889", "nsi_id": "tillys-0a21d9"}, "geometry": {"type": "Point", "coordinates": [-118.152505, 34.006065]}},
{"type": "Feature", "id": "_ZrX4bOd-A74zLIc_ZAicnSoxcs=", "properties": {"ref": "0221", "@spider": "tillys", "clothes": "children;men;women", "shop": "clothes", "addr:street_address": "140 Stonewood Street", "addr:city": "Downey", "addr:state": "CA", "addr:postcode": "90241", "addr:country": "US", "name": "Stonewood Center\t", "phone": "562-674-2017", "opening_hours": "Mo-Sa 10:00-09:00; Su 11:00-07:00", "brand": "Tillys", "brand:wikidata": "Q7802889", "nsi_id": "tillys-0a21d9"}, "geometry": {"type": "Point", "coordinates": [-118.122, 33.937]}},
{"type": "Feature", "id": "ha8qc8wvlT1S5-gJ2BzVMPyhnR8=", "properties": {"ref": "0080", "@spider": "tillys", "clothes": "children;men;women", "shop": "clothes", "addr:street_address": "4039 South South Mooney Blvd.", "addr:city": "Visalia", "addr:state": "CA", "addr:postcode": "93277", "addr:country": "US", "name": "Packwood Creek", "phone": "559-733-3165", "opening_hours": "Mo-Sa 11:00-07:00; Su 12:00-06:00", "brand": "Tillys", "brand:wikidata": "Q7802889", "nsi_id": "tillys-0a21d9"}, "geometry": {"type": "Point", "coordinates": [-119.314, 36.294]}},
{"type": "Feature", "id": "LQQlID5UMVL9T3R4PVDo2BDOrw8=", "properties": {"ref": "0125", "@spider": "tillys", "clothes": "children;men;women", "shop": "clothes", "addr:street_address": "2180 Glendale Galleria", "addr:city": "Glendale", "addr:state": "CA", "addr:postcode": "91210", "addr:country": "US", "name": "Glendale Galleria", "phone": "818-240-0031", "opening_hours": "Mo-Sa 11:00-08:00; Su 11:00-07:00", "brand": "Tillys", "brand:wikidata": "Q7802889", "nsi_id": "tillys-0a21d9"}, "geometry": {"type": "Point", "coordinates": [-118.257, 34.146]}},
{"type": "Feature", "id": "M8YHwOLZQS_GycZmg13EH0teOr4=", "properties": {"ref": "0004", "@spider": "tillys", "clothes": "children;men;women", "shop": "clothes", "addr:street_address": "18545 Main St.", "addr:city": "Huntington Beach", "addr:state": "CA", "addr:postcode": "92648", "addr:country": "US", "name": "Five Points Plaza", "phone": "714-841-9729", "opening_hours": "Mo-Sa 11:00-07:00; Su 12:00-06:00", "brand": "Tillys", "brand:wikidata": "Q7802889", "nsi_id": "tillys-0a21d9"}, "geometry": {"type": "Point", "coordinates": [-117.99, 33.693]}},
{"type": "Feature", "id": "dSWKXF9uaxnqfpHwFiapf0iJvmI=", "properties": {"ref": "0017", "@spider": "tillys", "clothes": "children;men;women", "shop": "clothes", "addr:street_address": "7350 Carson Blvd.", "addr:city": "Long Beach", "addr:state": "CA", "addr:postcode": "90808", "addr:country": "US", "name": "Long Beach Towne Center", "phone": "562-496-0012", "opening_hours": "Mo-Sa 11:00-07:00; Su 12:00-06:00", "brand": "Tillys", "brand:wikidata": "Q7802889", "nsi_id": "tillys-0a21d9"}, "geometry": {"type": "Point", "coordinates": [-118.087, 33.828]}},
{"type": "Feature", "id": "GFgqfgnqWeOLYE1dk4ovWvAD6RE=", "properties": {"ref": "0099", "@spider": "tillys", "clothes": "children;men;women", "shop": "clothes", "addr:street_address": "1497 Retherford St.", "addr:city": "Tulare", "addr:state": "CA", "addr:postcode": "93274", "addr:country": "US", "name": "Tulare", "phone": "559-687-0976", "opening_hours": "Mo-Sa 10:00-09:00; Su 10:00-07:00", "brand": "Tillys", "brand:wikidata": "Q7802889", "nsi_id": "tillys-0a21d9"}, "geometry": {"type": "Point", "coordinates": [-119.335, 36.231]}},
{"type": "Feature", "id": "-DL5kF-zJJzktQhVubNKP6hxsi0=", "properties": {"ref": "0025", "@spider": "tillys", "clothes": "children;men;women", "shop": "clothes", "addr:street_address": "1751 N. Victory Place", "addr:city": "Burbank", "addr:state": "CA", "addr:postcode": "91504", "addr:country": "US", "name": "Burbank Empire Center", "phone": "818-557-0121", "opening_hours": "Mo-Sa 11:00-07:00; Su 12:00-06:00", "brand": "Tillys", "brand:wikidata": "Q7802889", "nsi_id": "tillys-0a21d9"}, "geometry": {"type": "Point", "coordinates": [-118.329, 34.192]}},
{"type": "Feature", "id": "7uoxpm6Ag4CG5VyRtzdwVzZ3lvU=", "properties": {"ref": "0271", "@spider": "tillys", "clothes": "children;men;women", "shop": "clothes", "addr:street_address": "1000 Universal Studios Blvd", "addr:city": "Universal City", "addr:state": "CA", "addr:postcode": "91608", "addr:country": "US", "name": "Universal City Walk", "phone": "(818) 299-9221", "opening_hours": "Mo-Su 12:00-08:00", "brand": "Tillys", "brand:wikidata": "Q7802889", "nsi_id": "tillys-0a21d9"}, "geometry": {"type": "Point", "coordinates": [-118.350546, 34.136789]}},
{"type": "Feature", "id": "nstBxEQHP4xZX-E9Owzto2eNi7k=", "properties": {"ref": "0007", "@spider": "tillys", "clothes": "children;men;women", "shop": "clothes", "addr:street_address": "5286 East 2nd St.", "addr:city": "Long Beach", "addr:state": "CA", "addr:postcode": "90803", "addr:country": "US", "name": "Belmont Shore", "phone": "562-434-1769", "opening_hours": "Mo-Sa 11:00-07:00; Su 12:00-06:00", "brand": "Tillys", "brand:wikidata": "Q7802889", "nsi_id": "tillys-0a21d9"}, "geometry": {"type": "Point", "coordinates": [-118.133, 33.759]}},
{"type": "Feature", "id": "A6lTjIcRdRhycE2h5f9jza7Yy04=", "properties": {"ref": "0272", "@spider": "tillys", "clothes": "children;men;women", "shop": "clothes", "addr:street_address": "3965 Plaza Blvd.", "addr:city": "Gainesville", "addr:state": "FL", "addr:postcode": "32608", "addr:country": "US", "name": "Butler North", "phone": "(352) 900 5099", "opening_hours": "Mo-Sa 11:00-08:00; Su 11:00-06:00", "brand": "Tillys", "brand:wikidata": "Q7802889", "nsi_id": "tillys-0a21d9"}, "geometry": {"type": "Point", "coordinates": [-82.4155, 29.5868]}},
{"type": "Feature", "id": "0161cNr5Cc7Eu8C07MXS47SweKY=", "properties": {"ref": "0088", "@spider": "tillys", "clothes": "children;men;women", "shop": "clothes", "addr:street_address": "2701 Ming Ave.", "addr:city": "Bakersfield", "addr:state": "CA", "addr:postcode": "93304", "addr:country": "US", "name": "Valley Plaza", "phone": "661-833-3598", "opening_hours": "Mo-Sa 11:00-08:00; Su 11:00-07:00", "brand": "Tillys", "brand:wikidata": "Q7802889", "nsi_id": "tillys-0a21d9"}, "geometry": {"type": "Point", "coordinates": [-119.034, 35.338]}},
{"type": "Feature", "id": "6Q0AquORJLPPlnr05z6ekHS20-M=", "properties": {"ref": "0028", "@spider": "tillys", "clothes": "children;men;women", "shop": "clothes", "addr:street_address": "27027 McBean Pkwy.", "addr:city": "Valencia", "addr:state": "CA", "addr:postcode": "91355", "addr:country": "US", "name": "Promenade at Town Center", "phone": "661-255-9282", "opening_hours": "Mo-Sa 11:00-07:00; Su 12:00-06:00", "brand": "Tillys", "brand:wikidata": "Q7802889", "nsi_id": "tillys-0a21d9"}, "geometry": {"type": "Point", "coordinates": [-118.56498, 34.421504]}},
{"type": "Feature", "id": "tNwT75vX02QljlFG4hxu1H8Js9k=", "properties": {"ref": "0242", "@spider": "tillys", "clothes": "children;men;women", "shop": "clothes", "addr:street_address": "1215 Herndon Ave", "addr:city": "Clovis", "addr:state": "CA", "addr:postcode": "93612", "addr:country": "US", "name": "Clovis Crossing Shopping Center", "phone": "559-862-2455", "opening_hours": "Mo-Sa 11:00-07:00; Su 12:00-06:00", "brand": "Tillys", "brand:wikidata": "Q7802889", "nsi_id": "tillys-0a21d9"}, "geometry": {"type": "Point", "coordinates": [-119.694, 36.839]}},
{"type": "Feature", "id": "2FppqlAxGKT_v3_46XENbAMAyO0=", "properties": {"ref": "0257", "@spider": "tillys", "clothes": "children;men;women", "shop": "clothes", "addr:street_address": "9010 Rosedale Highway", "addr:city": "Bakersfield", "addr:state": "CA", "addr:postcode": "93312", "addr:country": "US", "name": "Northwest Promenade", "phone": "661-535-6268", "opening_hours": "Mo-Sa 11:00-07:00; Su 12:00-06:00", "brand": "Tillys", "brand:wikidata": "Q7802889", "nsi_id": "tillys-0a21d9"}, "geometry": {"type": "Point", "coordinates": [-119.102214, 35.385432]}},
{"type": "Feature", "id": "wCk4Gj8kSg7QYeePLXp6a0joE5w=", "properties": {"ref": "0086", "@spider": "tillys", "clothes": "children;men;women", "shop": "clothes", "addr:street_address": "1910 Wells Rd.", "addr:city": "Orange Park", "addr:state": "FL", "addr:postcode": "32073", "addr:country": "US", "name": "Orange Park Mall", "phone": "904-264-0892", "opening_hours": "Mo-Sa 11:00-07:00; Su 12:00-06:00", "brand": "Tillys", "brand:wikidata": "Q7802889", "nsi_id": "tillys-0a21d9"}, "geometry": {"type": "Point", "coordinates": [-81.736, 30.184]}},
{"type": "Feature", "id": "hshkzV71Y7OZeBJ-SDMVUrqi4rk=", "properties": {"ref": "0268", "@spider": "tillys", "clothes": "children;men;women", "shop": "clothes", "addr:street_address": "6000 Sepulveda Blvd", "addr:city": "Culver City", "addr:state": "CA", "addr:postcode": "90230", "addr:country": "US", "name": "Westfield Culver City", "phone": "310-754-2378", "opening_hours": "Mo-Th 11:00-07:00; Fr-Sa 10:00-08:00; Su 11:00-07:00", "brand": "Tillys", "brand:wikidata": "Q7802889", "nsi_id": "tillys-0a21d9"}, "geometry": {"type": "Point", "coordinates": [-118.393296, 33.985512]}},
{"type": "Feature", "id": "tIQD3nrip5jD90Mk-zXfiv59lPs=", "properties": {"ref": "0020", "@spider": "tillys", "clothes": "children;men;women", "shop": "clothes", "addr:street_address": "19811 Rinaldi St.", "addr:city": "Northridge", "addr:state": "CA", "addr:postcode": "91326", "addr:country": "US", "name": "Porter Ranch Town Center", "phone": "818-368-9908", "opening_hours": "Mo-Sa 11:00-07:00; Su 12:00-06:00", "brand": "Tillys", "brand:wikidata": "Q7802889", "nsi_id": "tillys-0a21d9"}, "geometry": {"type": "Point", "coordinates": [-118.57, 34.275]}},
{"type": "Feature", "id": "Rnn3vfnHKdmmJARoVusy3gMPHMg=", "properties": {"ref": "0029", "@spider": "tillys", "clothes": "children;men;women", "shop": "clothes", "addr:street_address": "1815 Hawthorne Blvd", "addr:city": "Redondo Beach", "addr:state": "CA", "addr:postcode": "90278", "addr:country": "US", "name": "Galleria at South Bay", "phone": "310-542-1170", "opening_hours": "Mo-Su 11:00-07:00", "brand": "Tillys", "brand:wikidata": "Q7802889", "nsi_id": "tillys-0a21d9"}, "geometry": {"type": "Point", "coordinates": [-118.355, 33.872]}},
{"type": "Feature", "id": "W6hh_ML8sZtjiIw4zoypo5e-JI8=", "properties": {"ref": "0071", "@spider": "tillys", "clothes": "children;men;women", "shop": "clothes", "addr:street_address": "90 Via del Oro", "addr:city": "Fresno", "addr:state": "CA", "addr:postcode": "93720", "addr:country": "US", "name": "Shops at Riverpark", "phone": "559-436-0548", "opening_hours": "Mo-Sa 11:00-07:00; Su 12:00-06:00", "brand": "Tillys", "brand:wikidata": "Q7802889", "nsi_id": "tillys-0a21d9"}, "geometry": {"type": "Point", "coordinates": [-119.79, 36.85]}},
{"type": "Feature", "id": "8MzjWAQaIOd07pAMPxGO3DEOy4w=", "properties": {"ref": "0142", "@spider": "tillys", "clothes": "children;men;women", "shop": "clothes", "addr:street_address": "697 East Shaw Ave", "addr:city": "Fresno", "addr:state": "CA", "addr:postcode": "93710", "addr:country": "US", "name": "Fashion Fair Mall", "phone": "559-226-1601", "opening_hours": "Mo-Sa 10:00-09:00; Su 10:00-07:00", "brand": "Tillys", "brand:wikidata": "Q7802889", "nsi_id": "tillys-0a21d9"}, "geometry": {"type": "Point", "coordinates": [-119.776, 36.808]}},
{"type": "Feature", "id": "Hm9NbsQCijDm6_I7ppjWzeXTAcg=", "properties": {"ref": "0275", "@spider": "tillys", "clothes": "children;men;women", "shop": "clothes", "addr:street_address": "21712 Hawthorne Blvd", "addr:city": "Torrance", "addr:state": "CA", "addr:postcode": "90503", "addr:country": "US", "name": "Del Amo Fashion Center", "phone": "(310) 683-6377", "opening_hours": "Mo-Sa 11:00-07:00; Su 12:00-06:00", "brand": "Tillys", "brand:wikidata": "Q7802889", "nsi_id": "tillys-0a21d9"}, "geometry": {"type": "Point", "coordinates": [-118.3537, 33.8408]}},
{"type": "Feature", "id": "4Vq6VDZXamTt5YYUqn6QRHMAlAs=", "properties": {"ref": "0404", "@spider": "tillys", "clothes": "children;men;women", "shop": "clothes", "addr:street_address": "21712 Hawthorn Blvd.", "addr:city": "Torrance", "addr:state": "CA", "addr:postcode": "90503", "addr:country": "US", "name": "RSQ by Tillys -  Del Amo Fashion Center", "phone": "310-228-5149", "opening_hours": "Mo-Sa 11:00-07:00; Su 12:00-06:00", "brand": "Tillys", "brand:wikidata": "Q7802889", "nsi_id": "tillys-0a21d9"}, "geometry": {"type": "Point", "coordinates": [-118.350754, 33.833464]}},
{"type": "Feature", "id": "CGbJVE-GH7A0iBUute09v60GKNg=", "properties": {"ref": "0022", "@spider": "tillys", "clothes": "children;men;women", "shop": "clothes", "addr:street_address": "2645 Pacific Coast Hwy.", "addr:city": "Torrance", "addr:state": "CA", "addr:postcode": "90505", "addr:country": "US", "name": "Rolling Hills Plaza", "phone": "310-534-1642", "opening_hours": "Mo-Sa 11:00-07:00; Su 12:00-06:00", "brand": "Tillys", "brand:wikidata": "Q7802889", "nsi_id": "tillys-0a21d9"}, "geometry": {"type": "Point", "coordinates": [-118.332, 33.792]}},
{"type": "Feature", "id": "QZmmL3m82V3s1VrTElHM4N9etII=", "properties": {"ref": "0149", "@spider": "tillys", "clothes": "children;men;women", "shop": "clothes", "addr:street_address": "1426 3rd Street Promenade", "addr:city": "Santa Monica", "addr:state": "CA", "addr:postcode": "90401", "addr:country": "US", "name": "3rd St Promenade", "phone": "310-899-6806", "opening_hours": "Mo-Sa 11:00-07:00; Su 12:00-06:00", "brand": "Tillys", "brand:wikidata": "Q7802889", "nsi_id": "tillys-0a21d9"}, "geometry": {"type": "Point", "coordinates": [-118.495, 34.015]}},
{"type": "Feature", "id": "KC2ELsc6hYa_xJ_i8BbYsOLuoUg=", "properties": {"ref": "0121", "@spider": "tillys", "clothes": "children;men;women", "shop": "clothes", "addr:street_address": "6600 Topanga Canyon Blvd", "addr:city": "Canoga Park", "addr:state": "CA", "addr:postcode": "91303", "addr:country": "US", "name": "Topanga Plaza", "phone": "818-226-0013", "opening_hours": "Mo-Th 11:00-07:00; Fr-Sa 10:00-08:00; Su 11:00-07:00", "brand": "Tillys", "brand:wikidata": "Q7802889", "nsi_id": "tillys-0a21d9"}, "geometry": {"type": "Point", "coordinates": [-118.605, 34.19]}},
{"type": "Feature", "id": "U0_FyDxMgOs0bzvjpvhBomei39s=", "properties": {"ref": "0209", "@spider": "tillys", "clothes": "children;men;women", "shop": "clothes", "addr:street_address": "6581 N. Riverside Drive", "addr:city": "Fresno", "addr:state": "CA", "addr:postcode": "93722", "addr:country": "US", "name": "Marketplace at El Paseo", "phone": "559-470-6810", "opening_hours": "Mo-Sa 11:00-07:00; Su 12:00-06:00", "brand": "Tillys", "brand:wikidata": "Q7802889", "nsi_id": "tillys-0a21d9"}, "geometry": {"type": "Point", "coordinates": [-119.906, 36.833]}},
{"type": "Feature", "id": "jhEjQILZzsixbV7u1irQU8LNpqA=", "properties": {"ref": "0053", "@spider": "tillys", "clothes": "children;men;women", "shop": "clothes", "addr:street_address": "1555 Simi Town Center Way", "addr:city": "Simi Valley", "addr:state": "CA", "addr:postcode": "93065", "addr:country": "US", "name": "Mall at Simi Valley Town Center", "phone": "805-579-0267", "opening_hours": "Mo-Sa 11:00-07:00; Su 12:00-06:00", "brand": "Tillys", "brand:wikidata": "Q7802889", "nsi_id": "tillys-0a21d9"}, "geometry": {"type": "Point", "coordinates": [-118.769, 34.284]}},
{"type": "Feature", "id": "LTfHwR875qmiSOmsjXcm7Nk7XlY=", "properties": {"ref": "0106", "@spider": "tillys", "clothes": "children;men;women", "shop": "clothes", "addr:street_address": "1170 Annapolis Mall", "addr:city": "Annapolis", "addr:state": "MD", "addr:postcode": "21401", "addr:country": "US", "name": "Westfield Annapolis", "phone": "410-266-0095", "opening_hours": "Mo-Th 11:00-07:00; Fr-Sa 10:00-08:00; Su 11:00-07:00", "brand": "Tillys", "brand:wikidata": "Q7802889", "nsi_id": "tillys-0a21d9"}, "geometry": {"type": "Point", "coordinates": [-76.545, 38.988]}},
{"type": "Feature", "id": "wJmFSOOMHncwvOF82clGggJpwTs=", "properties": {"ref": "0226", "@spider": "tillys", "clothes": "children;men;women", "shop": "clothes", "addr:street_address": "30730 Russell Ranch Rd.", "addr:city": "Westlake Village", "addr:state": "CA", "addr:postcode": "91362", "addr:country": "US", "name": "The Shoppes at Westlake Village", "phone": "818-540-4874", "opening_hours": "Mo-Sa 11:00-07:00; Su 12:00-06:00", "brand": "Tillys", "brand:wikidata": "Q7802889", "nsi_id": "tillys-0a21d9"}, "geometry": {"type": "Point", "coordinates": [-118.795, 34.149]}},
{"type": "Feature", "id": "WwFnmHu4JC5Pgg8QuHfVfORnQHI=", "properties": {"ref": "0035", "@spider": "tillys", "clothes": "children;men;women", "shop": "clothes", "addr:street_address": "33 North Moorpark Rd.", "addr:city": "Thousand Oaks", "addr:state": "CA", "addr:postcode": "91360", "addr:country": "US", "name": "Village at Moorpark", "phone": "805-494-1955", "opening_hours": "Mo-Sa 11:00-07:00; Su 12:00-06:00", "brand": "Tillys", "brand:wikidata": "Q7802889", "nsi_id": "tillys-0a21d9"}, "geometry": {"type": "Point", "coordinates": [-118.877, 34.18]}},
{"type": "Feature", "id": "YOAwlPzpNN7_-c0rM-P_2ATyUdU=", "properties": {"ref": "0143", "@spider": "tillys", "clothes": "children;men;women", "shop": "clothes", "addr:street_address": "250 Merced Mall", "addr:city": "Merced", "addr:state": "CA", "addr:postcode": "95348", "addr:country": "US", "name": "Merced Mall", "phone": " 209-383-0107", "opening_hours": "Mo-Sa 10:00-08:00; Su 12:00-06:00", "brand": "Tillys", "brand:wikidata": "Q7802889", "nsi_id": "tillys-0a21d9"}, "geometry": {"type": "Point", "coordinates": [-120.483, 37.321]}},
{"type": "Feature", "id": "t9EDotVry3CFbvOhX7Oh1xM2gXU=", "properties": {"ref": "0267", "@spider": "tillys", "clothes": "children;men;women", "shop": "clothes", "addr:street_address": "2529 Main Street", "addr:city": "Union Gap", "addr:state": "WA", "addr:postcode": "98903", "addr:country": "US", "name": "Valley Mall", "phone": "(509) 426-6092", "opening_hours": "Mo-Sa 11:00-07:00; Su 12:00-06:00", "brand": "Tillys", "brand:wikidata": "Q7802889", "nsi_id": "tillys-0a21d9"}, "geometry": {"type": "Point", "coordinates": [-120.480489, 46.56408]}},
{"type": "Feature", "id": "uJVNwGnE780LyQ90e6KOsWpVsPY=", "properties": {"ref": "0024", "@spider": "tillys", "clothes": "children;men;women", "shop": "clothes", "addr:street_address": "161 W. Esplanade Dr.", "addr:city": "Oxnard", "addr:state": "CA", "addr:postcode": "93036", "addr:country": "US", "name": "Esplanade Shopping Center", "phone": "805-983-1461", "opening_hours": "Mo-Sa 11:00-07:00; Su 12:00-06:00", "brand": "Tillys", "brand:wikidata": "Q7802889", "nsi_id": "tillys-0a21d9"}, "geometry": {"type": "Point", "coordinates": [-119.175, 34.23]}},
{"type": "Feature", "id": "l9J3Q_vbUNcLH995aO1chFcvgZw=", "properties": {"ref": "0120", "@spider": "tillys", "clothes": "children;men;women", "shop": "clothes", "addr:street_address": "2761 East Bidwell Street", "addr:city": "Folsom", "addr:state": "CA", "addr:postcode": "95630", "addr:country": "US", "name": "Broadstone Plaza", "phone": "916-983-2569", "opening_hours": "Mo-Sa 11:00-07:00; Su 12:00-06:00", "brand": "Tillys", "brand:wikidata": "Q7802889", "nsi_id": "tillys-0a21d9"}, "geometry": {"type": "Point", "coordinates": [-121.124, 38.655]}},
{"type": "Feature", "id": "fuQBKBowX-GVQ8hb60meFvHQGLM=", "properties": {"ref": "0112", "@spider": "tillys", "clothes": "children;men;women", "shop": "clothes", "addr:street_address": "12300 Jefferson Ave", "addr:city": "Newport News", "addr:state": "VA", "addr:postcode": "23602", "addr:country": "US", "name": "Patrick Henry Mall", "phone": "757-249-2346", "opening_hours": "Mo-Th 11:00-07:00; Fr-Sa 11:00-08:00; Su 12:00-06:00", "brand": "Tillys", "brand:wikidata": "Q7802889", "nsi_id": "tillys-0a21d9"}, "geometry": {"type": "Point", "coordinates": [-76.496, 37.112]}},
{"type": "Feature", "id": "m1769bvrQ-ztNEyQs6Kr1i17lbM=", "properties": {"ref": "0224", "@spider": "tillys", "clothes": "children;men;women", "shop": "clothes", "addr:street_address": "2737 Countryside Drive", "addr:city": "Turlock", "addr:state": "CA", "addr:postcode": "95380", "addr:country": "US", "name": "Monte Vista Crossing", "phone": "209-226-7010", "opening_hours": "Mo-Sa 11:00-07:00; Su 12:00-06:00", "brand": "Tillys", "brand:wikidata": "Q7802889", "nsi_id": "tillys-0a21d9"}, "geometry": {"type": "Point", "coordinates": [-120.878, 37.515]}},
{"type": "Feature", "id": "Pa6NyXboBT1idHK476I4oxaAC64=", "properties": {"ref": "0110", "@spider": "tillys", "clothes": "children;men;women", "shop": "clothes", "addr:street_address": "1151 Galleria Blvd", "addr:city": "Roseville", "addr:state": "CA", "addr:postcode": "95678", "addr:country": "US", "name": "Galleria at Roseville", "phone": "916-797-1141", "opening_hours": "Mo-Th 11:00-07:00; Fr-Sa 10:00-08:00; Su 11:00-07:00", "brand": "Tillys", "brand:wikidata": "Q7802889", "nsi_id": "tillys-0a21d9"}, "geometry": {"type": "Point", "coordinates": [-121.269, 38.774]}},
{"type": "Feature", "id": "waAGZ8Auss-zMZRR44-IYE9XMqo=", "properties": {"ref": "0102", "@spider": "tillys", "clothes": "children;men;women", "shop": "clothes", "addr:street_address": "6157 Sunrise Mall", "addr:city": "Citrus Heights", "addr:state": "CA", "addr:postcode": "95610", "addr:country": "US", "name": "Sunrise Mall", "phone": "916-728-6916", "opening_hours": "Mo-Sa 11:00-07:00; Su 11:00-05:00", "brand": "Tillys", "brand:wikidata": "Q7802889", "nsi_id": "tillys-0a21d9"}, "geometry": {"type": "Point", "coordinates": [-121.271, 38.678]}},
{"type": "Feature", "id": "CraKxA7DitHaZQ62wXhZSZJuPVo=", "properties": {"ref": "0118", "@spider": "tillys", "clothes": "children;men;women", "shop": "clothes", "addr:street_address": "3401 Dale Road", "addr:city": "Modesto", "addr:state": "CA", "addr:postcode": "95356", "addr:country": "US", "name": "Vintage Faire", "phone": "209-550-0518", "opening_hours": "Mo 11:00-07:00; Tu-Sa 10:00-09:00; Su 11:00-07:00", "brand": "Tillys", "brand:wikidata": "Q7802889", "nsi_id": "tillys-0a21d9"}, "geometry": {"type": "Point", "coordinates": [-121.05, 37.69]}},
{"type": "Feature", "id": "YKJvv9PwxL66cVxfU4GDaPMLbGA=", "properties": {"ref": "0126", "@spider": "tillys", "clothes": "children;men;women", "shop": "clothes", "addr:street_address": "917 State Street", "addr:city": "Santa Barbara", "addr:state": "CA", "addr:postcode": "93101", "addr:country": "US", "name": "State Street", "phone": "805-966-4686", "opening_hours": "Mo-Sa 11:00-07:00; Su 12:00-06:00", "brand": "Tillys", "brand:wikidata": "Q7802889", "nsi_id": "tillys-0a21d9"}, "geometry": {"type": "Point", "coordinates": [-119.701, 34.421]}},
{"type": "Feature", "id": "Fb3Fv2TVg5lMNUKGKTtIDarXpO4=", "properties": {"ref": "0253", "@spider": "tillys", "clothes": "children;men;women", "shop": "clothes", "addr:street_address": "131 Christiana Mall", "addr:city": "Newark", "addr:state": "DE", "addr:postcode": "19702", "addr:country": "US", "name": "Christiana Mall", "phone": "(302) 273-6935", "opening_hours": "Mo-Sa 11:00-08:00; Su 11:00-07:00", "brand": "Tillys", "brand:wikidata": "Q7802889", "nsi_id": "tillys-0a21d9"}, "geometry": {"type": "Point", "coordinates": [-75.652182, 39.678574]}},
{"type": "Feature", "id": "-cDHzXqt35Fg3CKKgN7zBByxC0s=", "properties": {"ref": "0101", "@spider": "tillys", "clothes": "children;men;women", "shop": "clothes", "addr:street_address": "27001 US Highway 19 North", "addr:city": "Clearwater", "addr:state": "FL", "addr:postcode": "33761", "addr:country": "US", "name": "Westfield Countryside", "phone": "727-791-6396", "opening_hours": "Mo-Th 11:00-07:00; Fr-Sa 10:00-08:00; Su 11:00-07:00", "brand": "Tillys", "brand:wikidata": "Q7802889", "nsi_id": "tillys-0a21d9"}, "geometry": {"type": "Point", "coordinates": [-82.731, 28.017]}},
{"type": "Feature", "id": "ZJtFIeobzHEKU675OwSK_VRtCP4=", "properties": {"ref": "0130", "@spider": "tillys", "clothes": "children;men;women", "shop": "clothes", "addr:street_address": "170 Lehigh Valley Mall", "addr:city": "Whitehall", "addr:state": "PA", "addr:postcode": "18052", "addr:country": "US", "name": "Lehigh Valley Mall", "phone": "610-231-1554", "opening_hours": "Mo-Sa 10:00-09:00; Su 12:00-06:00", "brand": "Tillys", "brand:wikidata": "Q7802889", "nsi_id": "tillys-0a21d9"}, "geometry": {"type": "Point", "coordinates": [-75.483, 40.63]}},
{"type": "Feature", "id": "OMwC9wRmgZMigfdKKwbEsiznTe8=", "properties": {"ref": "0213", "@spider": "tillys", "clothes": "children;men;women", "shop": "clothes", "addr:street_address": "1689 Arden Way", "addr:city": "Sacramento", "addr:state": "CA", "addr:postcode": "95815", "addr:country": "US", "name": "Arden Fair", "phone": "916-830-1480", "opening_hours": "Mo 11:00-07:00; Tu-Sa 10:00-09:00; Su 11:00-07:00", "brand": "Tillys", "brand:wikidata": "Q7802889", "nsi_id": "tillys-0a21d9"}, "geometry": {"type": "Point", "coordinates": [-121.428, 38.602]}},
{"type": "Feature", "id": "idSgGDahK93xTrUXkqzpvb83PqI=", "properties": {"ref": "0040", "@spider": "tillys", "clothes": "children;men;women", "shop": "clothes", "addr:street_address": "9688 Bruceville Rd.", "addr:city": "Elk Grove", "addr:state": "CA", "addr:postcode": "95757", "addr:country": "US", "name": "Elk Grove Commons", "phone": "916-686-0260", "opening_hours": "Mo-Sa 11:00-07:00; Su 12:00-06:00", "brand": "Tillys", "brand:wikidata": "Q7802889", "nsi_id": "tillys-0a21d9"}, "geometry": {"type": "Point", "coordinates": [-121.41, 38.443]}},
{"type": "Feature", "id": "HRBwrqadHkZXClSPaJoNuxYbY_U=", "properties": {"ref": "0171", "@spider": "tillys", "clothes": "children;men;women", "shop": "clothes", "addr:street_address": "40 Town Center Drive", "addr:city": "Collegeville", "addr:state": "PA", "addr:postcode": "19426", "addr:country": "US", "name": "Providence Town Center", "phone": "610-831-2116", "opening_hours": "Mo-Sa 11:00-07:00; Su 12:00-06:00", "brand": "Tillys", "brand:wikidata": "Q7802889", "nsi_id": "tillys-0a21d9"}, "geometry": {"type": "Point", "coordinates": [-75.465, 40.194]}},
{"type": "Feature", "id": "Hvnv1hAX5aLIjiYGCam9RjR7Row=", "properties": {"ref": "0237", "@spider": "tillys", "clothes": "children;men;women", "shop": "clothes", "addr:street_address": "2312 Grand Cypress Drive", "addr:city": "Lutz", "addr:state": "FL", "addr:postcode": "33559", "addr:country": "US", "name": "Tampa Premium Outlets", "phone": "813-345-3000", "opening_hours": "Mo-Th 11:00-07:00; Fr-Sa 11:00-08:00; Su 11:00-07:00", "brand": "Tillys", "brand:wikidata": "Q7802889", "nsi_id": "tillys-0a21d9"}, "geometry": {"type": "Point", "coordinates": [-82.375, 28.216]}},
{"type": "Feature", "id": "nFwH7wIknpqqRYX3o4Z24rPMjBk=", "properties": {"ref": "0114", "@spider": "tillys", "clothes": "children;men;women", "shop": "clothes", "addr:street_address": "4950 Pacific Avenue", "addr:city": "Stockton", "addr:state": "CA", "addr:postcode": "95207", "addr:country": "US", "name": "Weberstown Mall", "phone": "209-951-2794", "opening_hours": "Mo-Sa 11:00-07:00; Su 12:00-06:00", "brand": "Tillys", "brand:wikidata": "Q7802889", "nsi_id": "tillys-0a21d9"}, "geometry": {"type": "Point", "coordinates": [-121.314, 37.996]}},
{"type": "Feature", "id": "C8_jRSsX2f-1RBsVwuwTP_A_v8s=", "properties": {"ref": "0273", "@spider": "tillys", "clothes": "children;men;women", "shop": "clothes", "addr:street_address": "2250 Daniels St", "addr:city": "Manteca", "addr:state": "CA", "addr:postcode": "95337", "addr:country": "US", "name": "Stadium Center", "phone": "(209) 314 8400", "opening_hours": "Mo-Sa 11:00-08:00; Su 11:00-06:00", "brand": "Tillys", "brand:wikidata": "Q7802889", "nsi_id": "tillys-0a21d9"}, "geometry": {"type": "Point", "coordinates": [-121.2388, 37.7424]}},
{"type": "Feature", "id": "gCfDBg2UBAZ7R5xGZAhnc4niyLQ=", "properties": {"ref": "0227", "@spider": "tillys", "clothes": "children;men;women", "shop": "clothes", "addr:street_address": "7046 Marketplace Drive", "addr:city": "Goleta", "addr:state": "CA", "addr:postcode": "93117", "addr:country": "US", "name": "Camino Real Marketplace", "phone": "805-770-6089", "opening_hours": "Mo-Sa 11:00-07:00; Su 12:00-06:00", "brand": "Tillys", "brand:wikidata": "Q7802889", "nsi_id": "tillys-0a21d9"}, "geometry": {"type": "Point", "coordinates": [-119.873, 34.429]}},
{"type": "Feature", "id": "oL95AOV2qcJwf0X5fbekDIrvrJQ=", "properties": {"ref": "0098", "@spider": "tillys", "clothes": "children;men;women", "shop": "clothes", "addr:street_address": "28163 Paseo Dr.", "addr:city": "Wesley Chapel", "addr:state": "FL", "addr:postcode": "33544", "addr:country": "US", "name": "The Shops at Wiregrass", "phone": "813-994-9383", "opening_hours": "Mo-Sa 11:00-07:00; Su 12:00-06:00", "brand": "Tillys", "brand:wikidata": "Q7802889", "nsi_id": "tillys-0a21d9"}, "geometry": {"type": "Point", "coordinates": [-82.349, 28.189]}},
{"type": "Feature", "id": "nF693T4voqGq1_RhEJZ6jLLJLDs=", "properties": {"ref": "0283", "@spider": "tillys", "clothes": "children;men;women", "shop": "clothes", "addr:street_address": "8176 Delta Shores Circle S,", "addr:city": "Sacramento", "addr:state": "CA", "addr:postcode": "95832", "addr:country": "US", "name": "Delta Shores - Now Open!", "phone": "916-244-1318", "opening_hours": "Mo-Sa 11:00-07:00; Su 12:00-06:00", "brand": "Tillys", "brand:wikidata": "Q7802889", "nsi_id": "tillys-0a21d9"}, "geometry": {"type": "Point", "coordinates": [-121.4964, 38.4463]}},
{"type": "Feature", "id": "IVyIvno36KPoInHgzAJc2mteYIk=", "properties": {"ref": "0292", "@spider": "tillys", "clothes": "children;men;women", "shop": "clothes", "addr:street_address": "10758 Trinity Parkway", "addr:city": "Stockton", "addr:state": "CA", "addr:postcode": "95219", "addr:country": "US", "name": "Park West Place - Opening 11/22/2022!", "opening_hours": "Mo-Sa 11:00-07:00; Su 12:00-06:00", "brand": "Tillys", "brand:wikidata": "Q7802889", "nsi_id": "tillys-0a21d9"}, "geometry": {"type": "Point", "coordinates": [-121.3806, 38.0213]}},
{"type": "Feature", "id": "GswOIFm232q5-_fiKPZyonTbDH8=", "properties": {"ref": "0264", "@spider": "tillys", "clothes": "children;men;women", "shop": "clothes", "addr:street_address": "160 N. Gulph Road", "addr:city": "King of Prussia", "addr:state": "PA", "addr:postcode": "19406", "addr:country": "US", "name": "King of Prussia", "phone": "610-382-3147", "opening_hours": "Mo-Sa 11:00-07:00; Su 12:00-06:00", "brand": "Tillys", "brand:wikidata": "Q7802889", "nsi_id": "tillys-0a21d9"}, "geometry": {"type": "Point", "coordinates": [-75.389763, 40.087906]}},
{"type": "Feature", "id": "LDE4Ijw8w9B9_LHVK3qMFxQk5gQ=", "properties": {"ref": "0258", "@spider": "tillys", "clothes": "children;men;women", "shop": "clothes", "addr:street_address": "2015 Forest Ave.", "addr:city": "Chico", "addr:state": "CA", "addr:postcode": "95928", "addr:country": "US", "name": "Pheasant Run", "phone": "530-801-6344", "opening_hours": "Mo-Sa 11:00-07:00; Su 12:00-06:00", "brand": "Tillys", "brand:wikidata": "Q7802889", "nsi_id": "tillys-0a21d9"}, "geometry": {"type": "Point", "coordinates": [-121.799957, 39.726287]}},
{"type": "Feature", "id": "xXt-GlkPyLDg-2tGqwuzG0puknA=", "properties": {"ref": "0087", "@spider": "tillys", "clothes": "children;men;women", "shop": "clothes", "addr:street_address": "6933 Tyrone Square", "addr:city": "St. Petersburg", "addr:state": "FL", "addr:postcode": "33710", "addr:country": "US", "name": "Tyrone Square", "phone": "727-341-6484", "opening_hours": "Mo-Sa 11:00-07:00; Su 12:00-06:00", "brand": "Tillys", "brand:wikidata": "Q7802889", "nsi_id": "tillys-0a21d9"}, "geometry": {"type": "Point", "coordinates": [-82.732, 27.795]}},
{"type": "Feature", "id": "2FbAgbQIctjeLerEPKcsy_MDhKs=", "properties": {"ref": "0108", "@spider": "tillys", "clothes": "children;men;women", "shop": "clothes", "addr:street_address": "701 Lynnhaven Pkwy", "addr:city": "Virginia Beach", "addr:state": "VA", "addr:postcode": "23452", "addr:country": "US", "name": "Lynnhaven Mall", "opening_hours": "Mo-Sa 11:00-07:00; Su 12:00-06:00", "brand": "Tillys", "brand:wikidata": "Q7802889", "nsi_id": "tillys-0a21d9"}, "geometry": {"type": "Point", "coordinates": [-76.0932, 36.8421]}},
{"type": "Feature", "id": "8revhieSc-gfz3mrLR6bB4TN25M=", "properties": {"ref": "0072", "@spider": "tillys", "clothes": "children;men;women", "shop": "clothes", "addr:street_address": "955 Brandon Town Center", "addr:city": "Brandon", "addr:state": "FL", "addr:postcode": "33511", "addr:country": "US", "name": "Brandon Mall", "phone": "813-689-3537", "opening_hours": "Mo-Th 11:00-07:00; Fr-Sa 10:00-09:00; Su 11:00-06:00", "brand": "Tillys", "brand:wikidata": "Q7802889", "nsi_id": "tillys-0a21d9"}, "geometry": {"type": "Point", "coordinates": [-82.299, 27.936]}},
{"type": "Feature", "id": "9jg_iZEgjL9x_NPSaa0n1TImBrU=", "properties": {"ref": "0154", "@spider": "tillys", "clothes": "children;men;women", "shop": "clothes", "addr:street_address": "2348 S. Bradley Rd", "addr:city": "Santa Maria", "addr:state": "CA", "addr:postcode": "93454", "addr:country": "US", "name": "The Crossroads at Santa Maria", "phone": "805-346-6281", "opening_hours": "Mo-Sa 11:00-07:00; Su 12:00-06:00", "brand": "Tillys", "brand:wikidata": "Q7802889", "nsi_id": "tillys-0a21d9"}, "geometry": {"type": "Point", "coordinates": [-120.421, 34.917]}},
{"type": "Feature", "id": "fivnA48Ig9YTLwyNLEDzx_dbgus=", "properties": {"ref": "0115", "@spider": "tillys", "clothes": "children;men;women", "shop": "clothes", "addr:street_address": "1750 Deptford Center Road", "addr:city": "Deptford", "addr:state": "NJ", "addr:postcode": "08096", "addr:country": "US", "name": "Deptford Mall", "phone": "856-384-6400", "opening_hours": "Mo-Th 11:00-07:00; Fr-Sa 10:00-09:00; Su 11:00-06:00", "brand": "Tillys", "brand:wikidata": "Q7802889", "nsi_id": "tillys-0a21d9"}, "geometry": {"type": "Point", "coordinates": [-75.098, 39.829]}},
{"type": "Feature", "id": "GBOHjOpRh8w-eG2zSReO9G2vKM8=", "properties": {"ref": "0132", "@spider": "tillys", "clothes": "children;men;women", "shop": "clothes", "addr:street_address": "3800 US Highway 98 North", "addr:city": "Lakeland", "addr:state": "FL", "addr:postcode": "33809", "addr:country": "US", "name": "Lakeland Square", "phone": "863-853-4989", "opening_hours": "Mo 11:00-07:00; Tu-Sa 11:00-08:00; Su 12:00-06:00", "brand": "Tillys", "brand:wikidata": "Q7802889", "nsi_id": "tillys-0a21d9"}, "geometry": {"type": "Point", "coordinates": [-81.974, 28.091]}},
{"type": "Feature", "id": "LHccKrWDeQ-zrWof4o27aQEFYyM=", "properties": {"ref": "0100", "@spider": "tillys", "clothes": "children;men;women", "shop": "clothes", "addr:street_address": "2505 Sand Creek Rd.", "addr:city": "Brentwood", "addr:state": "CA", "addr:postcode": "94513", "addr:country": "US", "name": "Brentwood", "phone": "925-240-1421", "opening_hours": "Mo-Sa 11:00-07:00; Su 12:00-06:00", "brand": "Tillys", "brand:wikidata": "Q7802889", "nsi_id": "tillys-0a21d9"}, "geometry": {"type": "Point", "coordinates": [-121.74, 37.946]}},
{"type": "Feature", "id": "lomKMvnYoAV2g_C2HHMvEQ8DlHY=", "properties": {"ref": "0246", "@spider": "tillys", "clothes": "children;men;women", "shop": "clothes", "addr:street_address": "900 Dana Drive", "addr:city": "Redding", "addr:state": "CA", "addr:postcode": "96003", "addr:country": "US", "name": "Mt. Shasta Mall", "phone": "(530) 999-6478", "opening_hours": "Mo 11:00-07:00; Tu-Sa 11:00-08:00; Su 11:00-06:00", "brand": "Tillys", "brand:wikidata": "Q7802889", "nsi_id": "tillys-0a21d9"}, "geometry": {"type": "Point", "coordinates": [-122.355556, 40.587984]}},
{"type": "Feature", "id": "w7im6nJHBHzSbL6yJ0si_bqF1ys=", "properties": {"ref": "0119", "@spider": "tillys", "clothes": "children;men;women", "shop": "clothes", "addr:street_address": "4967 International Drive", "addr:city": "Orlando", "addr:state": "FL", "addr:postcode": "32819", "addr:country": "US", "name": "Orlando Premium Outlets International", "phone": "407-903-0584", "opening_hours": "Mo-Th 11:00-07:00; Fr-Sa 11:00-08:00; Su 11:00-07:00", "brand": "Tillys", "brand:wikidata": "Q7802889", "nsi_id": "tillys-0a21d9"}, "geometry": {"type": "Point", "coordinates": [-81.45, 28.472]}},
{"type": "Feature", "id": "eMsHIXYJUnY1UU4YaiCS0jotUEg=", "properties": {"ref": "0066", "@spider": "tillys", "clothes": "children;men;women", "shop": "clothes", "addr:street_address": "1641 East Monte Vista Ave.", "addr:city": "Vacaville", "addr:state": "CA", "addr:postcode": "95688", "addr:country": "US", "name": "Nut Tree Village", "phone": "707-452-0521", "opening_hours": "Mo-Sa 11:00-07:00; Su 12:00-06:00", "brand": "Tillys", "brand:wikidata": "Q7802889", "nsi_id": "tillys-0a21d9"}, "geometry": {"type": "Point", "coordinates": [-121.963, 38.369]}},
{"type": "Feature", "id": "2y6XVL0khBEiPnKHtv2G6sU3J7g=", "properties": {"ref": "0096", "@spider": "tillys", "clothes": "children;men;women", "shop": "clothes", "addr:street_address": "8001 South Orange Blossom Trail", "addr:city": "Orlando", "addr:state": "FL", "addr:postcode": "32809", "addr:country": "US", "name": "Florida Mall", "phone": "407-852-5810", "opening_hours": "Mo-Th 11:00-07:00; Fr-Sa 11:00-08:00; Su 12:00-06:00", "brand": "Tillys", "brand:wikidata": "Q7802889", "nsi_id": "tillys-0a21d9"}, "geometry": {"type": "Point", "coordinates": [-81.397, 28.445]}},
{"type": "Feature", "id": "3xBXXBbxicOjm1qWtSp6SmiJgH0=", "properties": {"ref": "0079", "@spider": "tillys", "clothes": "children;men;women", "shop": "clothes", "addr:street_address": "343 North Alafaya Trail", "addr:city": "Orlando", "addr:state": "FL", "addr:postcode": "32828", "addr:country": "US", "name": "Waterford Lakes Town Center", "phone": "407-384-8445", "opening_hours": "Mo-Sa 11:00-08:00; Su 11:00-07:00", "brand": "Tillys", "brand:wikidata": "Q7802889", "nsi_id": "tillys-0a21d9"}, "geometry": {"type": "Point", "coordinates": [-81.205, 28.553]}},
{"type": "Feature", "id": "TQ1nBQUnmn54x8CxsoZF5s_cvqE=", "properties": {"ref": "0049", "@spider": "tillys", "clothes": "children;men;women", "shop": "clothes", "addr:street_address": "4980 Dublin Boulevard", "addr:city": "Dublin", "addr:state": "CA", "addr:postcode": "94568", "addr:country": "US", "name": "Hacienda Crossings", "phone": "(925) 479-9156", "opening_hours": "Mo-Th 11:00-07:00; Fr-Sa 11:00-08:00; Su 11:00-06:00", "brand": "Tillys", "brand:wikidata": "Q7802889", "nsi_id": "tillys-0a21d9"}, "geometry": {"type": "Point", "coordinates": [-121.9289, 37.7172]}},
{"type": "Feature", "id": "JtczlNQrDi18Rve2vIG0-D_DU8s=", "properties": {"ref": "0058", "@spider": "tillys", "clothes": "children;men;women", "shop": "clothes", "addr:street_address": "2200 Eastridge Loop", "addr:city": "San Jose", "addr:state": "CA", "addr:postcode": "95122", "addr:country": "US", "name": "Eastridge Mall", "phone": "408-238-2418", "opening_hours": "Mo-Sa 11:00-07:00; Su 11:00-06:00", "brand": "Tillys", "brand:wikidata": "Q7802889", "nsi_id": "tillys-0a21d9"}, "geometry": {"type": "Point", "coordinates": [-121.816, 37.327]}},
{"type": "Feature", "id": "ekbMIfCvVz7NZbxuNqYl1DaRd-A=", "properties": {"ref": "0059", "@spider": "tillys", "clothes": "children;men;women", "shop": "clothes", "addr:street_address": "One Sun Valley Mall", "addr:city": "Concord", "addr:state": "CA", "addr:postcode": "94520", "addr:country": "US", "name": "Concord Sunvalley Shopping Center", "phone": "925-691-4382", "opening_hours": "Mo-Sa 11:00-07:00; Su 12:00-06:00", "brand": "Tillys", "brand:wikidata": "Q7802889", "nsi_id": "tillys-0a21d9"}, "geometry": {"type": "Point", "coordinates": [-122.061, 37.966]}},
{"type": "Feature", "id": "-YG4Lbe9fTFXibcI4REUKX7Cs64=", "properties": {"ref": "0144", "@spider": "tillys", "clothes": "children;men;women", "shop": "clothes", "addr:street_address": "1662 N. Main Street", "addr:city": "Salinas", "addr:state": "CA", "addr:postcode": "93906", "addr:country": "US", "name": "Harden Ranch Plaza", "phone": " 831-442-0102", "opening_hours": "Mo-Sa 11:00-07:00; Su 12:00-06:00", "brand": "Tillys", "brand:wikidata": "Q7802889", "nsi_id": "tillys-0a21d9"}, "geometry": {"type": "Point", "coordinates": [-121.654, 36.71]}},
{"type": "Feature", "id": "fjGi76dGd9sKcN_cQAy6NADw-IE=", "properties": {"ref": "0133", "@spider": "tillys", "clothes": "children;men;women", "shop": "clothes", "addr:street_address": "1179 Locust Street", "addr:city": "Walnut Creek", "addr:state": "CA", "addr:postcode": "94596", "addr:country": "US", "name": "Plaza Escuela", "phone": "925-937-1172", "opening_hours": "Mo 11:00-07:00; Tu-Fr 10:00-09:00; Sa 10:00-07:00; Su 11:00-06:00", "brand": "Tillys", "brand:wikidata": "Q7802889", "nsi_id": "tillys-0a21d9"}, "geometry": {"type": "Point", "coordinates": [-122.061, 37.896]}},
{"type": "Feature", "id": "dX95lkcEPc4Vdvva7WUMBiLB4CY=", "properties": {"ref": "0043", "@spider": "tillys", "clothes": "children;men;women", "shop": "clothes", "addr:street_address": "5353 Almaden Expressway", "addr:city": "San Jose", "addr:state": "CA", "addr:postcode": "95118", "addr:country": "US", "name": "Almaden Plaza Shopping Center", "phone": "408-264-3481", "opening_hours": "Mo-Sa 11:00-07:00; Su 12:00-06:00", "brand": "Tillys", "brand:wikidata": "Q7802889", "nsi_id": "tillys-0a21d9"}, "geometry": {"type": "Point", "coordinates": [-121.877, 37.253]}},
{"type": "Feature", "id": "hGP43G9nlXOdRgIYKneukMAu3JQ=", "properties": {"ref": "0111", "@spider": "tillys", "clothes": "children;men;women", "shop": "clothes", "addr:street_address": "4403 Black Horse Pike ", "addr:city": "Mays Landing", "addr:state": "NJ", "addr:postcode": "08330", "addr:country": "US", "name": "Hamilton Mall", "phone": "609-272-7700", "opening_hours": "Mo-Sa 11:00-07:00; Su 11:00-05:00", "brand": "Tillys", "brand:wikidata": "Q7802889", "nsi_id": "tillys-0a21d9"}, "geometry": {"type": "Point", "coordinates": [-74.643, 39.454]}},
{"type": "Feature", "id": "Sxoe5tWX71dmzidKTLC6qnrHJiE=", "properties": {"ref": "0173", "@spider": "tillys", "clothes": "children;men;women", "shop": "clothes", "addr:street_address": "12000 SE 82nd Avenue", "addr:city": "Happy Valley", "addr:state": "OR", "addr:postcode": "97266", "addr:country": "US", "name": "Clackamas Town Center", "phone": "503-513-7104", "opening_hours": "Mo-Sa 11:00-08:00; Su 11:00-07:00", "brand": "Tillys", "brand:wikidata": "Q7802889", "nsi_id": "tillys-0a21d9"}, "geometry": {"type": "Point", "coordinates": [-122.579, 45.464]}},
{"type": "Feature", "id": "OvPEOH_RGu97MAnbmiRsq3XZEJw=", "properties": {"ref": "0276", "@spider": "tillys", "clothes": "children;men;women", "shop": "clothes", "addr:street_address": "8700 NE Vancouver Mall Drive", "addr:city": "Vancouver", "addr:state": "WA", "addr:postcode": "98662", "addr:country": "US", "name": "Vancouver Mall", "phone": "(360) 360 0110", "opening_hours": "Mo-Th 11:00-07:00; Fr-Sa 11:00-08:00; Su 12:00-06:00", "brand": "Tillys", "brand:wikidata": "Q7802889", "nsi_id": "tillys-0a21d9"}, "geometry": {"type": "Point", "coordinates": [-122.5748, 45.6907]}},
{"type": "Feature", "id": "sFAWRTFVILlODVqI47n81Fa_0pc=", "properties": {"ref": "0123", "@spider": "tillys", "clothes": "children;men;women", "shop": "clothes", "addr:street_address": "400 Woodbridge Center Drive", "addr:city": "Woodbridge", "addr:state": "NJ", "addr:postcode": "07095", "addr:country": "US", "name": "Woodbridge Center", "phone": "732-634-2468", "opening_hours": "Mo-Sa 11:00-08:00; Su 11:00-07:00", "brand": "Tillys", "brand:wikidata": "Q7802889", "nsi_id": "tillys-0a21d9"}, "geometry": {"type": "Point", "coordinates": [-74.301, 40.554]}},
{"type": "Feature", "id": "n1v9Meyl6vqvax2McZyveHvlpEI=", "properties": {"ref": "0261", "@spider": "tillys", "clothes": "children;men;women", "shop": "clothes", "addr:street_address": "1665 Willowbrook Mall", "addr:city": "Wayne", "addr:state": "NJ", "addr:postcode": "07470", "addr:country": "US", "name": "Willowbrook", "phone": "(973) 826-1706", "opening_hours": "Mo-Sa 11:00-08:00; Su 11:00-07:00", "brand": "Tillys", "brand:wikidata": "Q7802889", "nsi_id": "tillys-0a21d9"}, "geometry": {"type": "Point", "coordinates": [-74.2449, 40.9484]}},
{"type": "Feature", "id": "I8ZP710Zx0xprFJzFEykBnknDmE=", "properties": {"ref": "0151", "@spider": "tillys", "clothes": "children;men;women", "shop": "clothes", "addr:street_address": "7039 SW Nyberg St.", "addr:city": "Tualatin", "addr:state": "OR", "addr:postcode": "97062", "addr:country": "US", "name": "Nyberg Woods", "phone": "503-691-1300", "opening_hours": "Mo-Sa 11:00-07:00; Su 12:00-06:00", "brand": "Tillys", "brand:wikidata": "Q7802889", "nsi_id": "tillys-0a21d9"}, "geometry": {"type": "Point", "coordinates": [-122.748, 45.383]}},
{"type": "Feature", "id": "C5TiIU978DpDUNUaoY5MM_GX_jk=", "properties": {"ref": "0105", "@spider": "tillys", "clothes": "children;men;women", "shop": "clothes", "addr:street_address": "3710 Route 9", "addr:city": "Freehold", "addr:state": "NJ", "addr:postcode": "07728", "addr:country": "US", "name": "Freehold", "phone": "732-294-1900", "opening_hours": "Mo-Sa 10:00-09:00; Su 11:00-07:00", "brand": "Tillys", "brand:wikidata": "Q7802889", "nsi_id": "tillys-0a21d9"}, "geometry": {"type": "Point", "coordinates": [-74.297, 40.255]}},
{"type": "Feature", "id": "0JPzFjgCaH6p7rYY5CDfTdSI9ns=", "properties": {"ref": "0287", "@spider": "tillys", "clothes": "children;men;women", "shop": "clothes", "addr:street_address": "1001 N. Arney Rd.", "addr:city": "Woodburn", "addr:state": "OR", "addr:postcode": "97071", "addr:country": "US", "name": "Woodburn Premium Outlets - Now Open!", "phone": "(971) 233-3190", "opening_hours": "Mo-Sa 10:00-09:00; Su 11:00-07:00", "brand": "Tillys", "brand:wikidata": "Q7802889", "nsi_id": "tillys-0a21d9"}, "geometry": {"type": "Point", "coordinates": [-122.8359, 45.1385]}},
{"type": "Feature", "id": "hItDdtnRQjgXslgbs8omLayfoic=", "properties": {"ref": "0278", "@spider": "tillys", "clothes": "children;men;women", "shop": "clothes", "addr:street_address": "3195 SW Cedar Hills Blvd", "addr:city": "Beaverton", "addr:state": "OR", "addr:postcode": "97005", "addr:country": "US", "name": "Cedar Hills Crossing", "phone": "(971) 217-9600", "opening_hours": "Mo-Sa 10:00-09:00; Su 10:00-07:00", "brand": "Tillys", "brand:wikidata": "Q7802889", "nsi_id": "tillys-0a21d9"}, "geometry": {"type": "Point", "coordinates": [-122.8046, 45.4908]}},
{"type": "Feature", "id": "3-im0sui7OQSFDPBCpPBDk3gEI4=", "properties": {"ref": "0054", "@spider": "tillys", "clothes": "children;men;women", "shop": "clothes", "addr:street_address": "1150 El Camino Real", "addr:city": "San Bruno", "addr:state": "CA", "addr:postcode": "94066", "addr:country": "US", "name": "The Shops at Tanforan", "phone": "650-872-1678", "opening_hours": "Mo-Sa 11:00-07:00; Su 12:00-06:00", "brand": "Tillys", "brand:wikidata": "Q7802889", "nsi_id": "tillys-0a21d9"}, "geometry": {"type": "Point", "coordinates": [-122.419, 37.636]}},
{"type": "Feature", "id": "bCkboLx9QzuTUUyZjBJDf5KUerA=", "properties": {"ref": "0274", "@spider": "tillys", "clothes": "children;men;women", "shop": "clothes", "addr:street_address": "2656 Southcenter Mall", "addr:city": "Tukwila", "addr:state": "WA", "addr:postcode": "98188", "addr:country": "US", "name": "Westfield Southcenter", "phone": "(206) 337 8655", "opening_hours": "Mo-Sa 11:00-08:00; Su 11:00-06:00", "brand": "Tillys", "brand:wikidata": "Q7802889", "nsi_id": "tillys-0a21d9"}, "geometry": {"type": "Point", "coordinates": [-122.2804, 47.4488]}},
{"type": "Feature", "id": "EriOyC3-nZzqAsM858EdvdNgu24=", "properties": {"ref": "0270", "@spider": "tillys", "clothes": "children;men;women", "shop": "clothes", "addr:street_address": "1 Garden State Plaza", "addr:city": "Paramus", "addr:state": "NJ", "addr:postcode": "07652", "addr:country": "US", "name": "Westfield Garden State Plaza", "phone": "(201) 270-3029", "opening_hours": "Mo-Th 11:00-08:00; Fr-Sa 11:00-09:00", "brand": "Tillys", "brand:wikidata": "Q7802889", "nsi_id": "tillys-0a21d9"}, "geometry": {"type": "Point", "coordinates": [-74.076168, 40.918231]}},
{"type": "Feature", "id": "jANycVcC2Os2i3uZZmcWj31pDLI=", "properties": {"ref": "0128", "@spider": "tillys", "clothes": "children;men;women", "shop": "clothes", "addr:street_address": "2041 Santa Rosa Plaza", "addr:city": "Santa Rosa", "addr:state": "CA", "addr:postcode": "95401", "addr:country": "US", "name": "Santa Rosa Plaza", "phone": "707-528-2881", "opening_hours": "Mo-Sa 11:00-07:00; Su 12:00-06:00", "brand": "Tillys", "brand:wikidata": "Q7802889", "nsi_id": "tillys-0a21d9"}, "geometry": {"type": "Point", "coordinates": [-122.718, 38.441]}},
{"type": "Feature", "id": "lnE89Ohrm0NeL6e462sCl8PLEbw=", "properties": {"ref": "0190", "@spider": "tillys", "clothes": "children;men;women", "shop": "clothes", "addr:street_address": "1201 Hooper Ave", "addr:city": "Toms River", "addr:state": "NJ", "addr:postcode": "08753", "addr:country": "US", "name": "Ocean County Mall", "phone": "732-504-0024", "opening_hours": "Mo-Sa 11:00-07:00; Su 12:00-06:00", "brand": "Tillys", "brand:wikidata": "Q7802889", "nsi_id": "tillys-0a21d9"}, "geometry": {"type": "Point", "coordinates": [-74.177, 39.982]}},
{"type": "Feature", "id": "x1xiCvNWn2JmAAyEXf6yRyGKLAE=", "properties": {"ref": "0157", "@spider": "tillys", "clothes": "children;men;women", "shop": "clothes", "addr:street_address": "4502 South Steel St.", "addr:city": "Tacoma", "addr:state": "WA", "addr:postcode": "98409", "addr:country": "US", "name": "Tacoma Mall", "phone": "253-475-0940", "opening_hours": "Mo-Sa 11:00-07:00; Su 12:00-06:00", "brand": "Tillys", "brand:wikidata": "Q7802889", "nsi_id": "tillys-0a21d9"}, "geometry": {"type": "Point", "coordinates": [-122.468, 47.217]}},
{"type": "Feature", "id": "U4qD2XzUsam_0DBqm00zkNuCHzw=", "properties": {"ref": "0247", "@spider": "tillys", "clothes": "children;men;women", "shop": "clothes", "addr:street_address": "3000 184th Street SW", "addr:city": "Lynnwood", "addr:state": "WA", "addr:postcode": "98037", "addr:country": "US", "name": "Alderwood Mall", "phone": "425-921-1125", "opening_hours": "Mo-Sa 11:00-08:00; Su 12:00-07:00", "brand": "Tillys", "brand:wikidata": "Q7802889", "nsi_id": "tillys-0a21d9"}, "geometry": {"type": "Point", "coordinates": [-122.272571, 47.829954]}},
{"type": "Feature", "id": "AND9W3sMPpzc2esNT6SNUNbbzgA=", "properties": {"ref": "0073", "@spider": "tillys", "clothes": "children;men;women", "shop": "clothes", "addr:street_address": "1700 West New Haven Blvd.", "addr:city": "Melbourne", "addr:state": "FL", "addr:postcode": "32904", "addr:country": "US", "name": "Melbourne Square", "phone": "321-951-9282", "opening_hours": "Mo-Sa 11:00-07:00; Su 12:00-06:00", "brand": "Tillys", "brand:wikidata": "Q7802889", "nsi_id": "tillys-0a21d9"}, "geometry": {"type": "Point", "coordinates": [-80.651, 28.08]}},
{"type": "Feature", "id": "KKPMEhUBMGQB8u6oHf4-hx6idZw=", "properties": {"ref": "0140", "@spider": "tillys", "clothes": "children;men;women", "shop": "clothes", "addr:street_address": "630 Old Country Rd", "addr:city": "Garden City", "addr:state": "NY", "addr:postcode": "11530", "addr:country": "US", "name": "Roosevelt Field Mall", "phone": "516-248-0115", "opening_hours": "Mo-Th 11:00-07:00; Fr-Sa 11:00-08:00; Su 11:00-07:00", "brand": "Tillys", "brand:wikidata": "Q7802889", "nsi_id": "tillys-0a21d9"}, "geometry": {"type": "Point", "coordinates": [-73.614, 40.74]}},
{"type": "Feature", "id": "WNPzzrfU_cOll0vftqLYdbF5-no=", "properties": {"ref": "0166", "@spider": "tillys", "clothes": "children;men;women", "shop": "clothes", "addr:street_address": "350 Route 110", "addr:city": "Huntington", "addr:state": "NY", "addr:postcode": "11746", "addr:country": "US", "name": "Huntington Shopping Center", "phone": "631-421-1170", "opening_hours": "Mo-Sa 11:00-07:00; Su 12:00-06:00", "brand": "Tillys", "brand:wikidata": "Q7802889", "nsi_id": "tillys-0a21d9"}, "geometry": {"type": "Point", "coordinates": [-73.411, 40.816]}},
{"type": "Feature", "id": "okc3Z7EwhmfyCXlVazXc0qFtZ30=", "properties": {"ref": "0134", "@spider": "tillys", "clothes": "children;men;women", "shop": "clothes", "addr:street_address": "230 Smith Haven Mall", "addr:city": "Lake Grove", "addr:state": "NY", "addr:postcode": "11755", "addr:country": "US", "name": "Smith Haven Mall", "phone": "631-724-0575", "opening_hours": "Mo-Sa 10:00-09:30; Su 11:00-07:00", "brand": "Tillys", "brand:wikidata": "Q7802889", "nsi_id": "tillys-0a21d9"}, "geometry": {"type": "Point", "coordinates": [-73.13, 40.863]}},
{"type": "Feature", "id": "ZQp-T-6ZVKYfLwashoDicNCUlvs=", "properties": {"ref": "0207", "@spider": "tillys", "clothes": "children;men;women", "shop": "clothes", "addr:street_address": "1731 Palm Beach Lakes Blvd.", "addr:city": "West Palm Beach", "addr:state": "FL", "addr:postcode": "33401", "addr:country": "US", "name": "Palm Beach Outlets", "phone": "561-227-0615", "opening_hours": "Mo-Sa 11:00-07:00; Su 12:00-06:00", "brand": "Tillys", "brand:wikidata": "Q7802889", "nsi_id": "tillys-0a21d9"}, "geometry": {"type": "Point", "coordinates": [-80.085, 26.724]}},
{"type": "Feature", "id": "nLETHCHnzvqYIe1ewMIA5yOcNyU=", "properties": {"ref": "0195", "@spider": "tillys", "clothes": "children;men;women", "shop": "clothes", "addr:street_address": "9541 W Atlantic Blvd", "addr:city": "Coral Springs", "addr:state": "FL", "addr:postcode": "33071", "addr:country": "US", "name": "Coral Square", "phone": "954-688-5999", "opening_hours": "Mo-Th 11:00-07:00; Fr-Sa 11:00-08:00; Su 12:00-06:00", "brand": "Tillys", "brand:wikidata": "Q7802889", "nsi_id": "tillys-0a21d9"}, "geometry": {"type": "Point", "coordinates": [-80.248, 26.239]}},
{"type": "Feature", "id": "9vTogi4JA-56WOi2Agpa93mf1yI=", "properties": {"ref": "0181", "@spider": "tillys", "clothes": "children;men;women", "shop": "clothes", "addr:street_address": "2150 S. University Drive", "addr:city": "Davie", "addr:state": "FL", "addr:postcode": "33324", "addr:country": "US", "name": "Tower Shops", "phone": "954-331-2988", "opening_hours": "Mo-Sa 11:00-07:00; Su 12:00-06:00", "brand": "Tillys", "brand:wikidata": "Q7802889", "nsi_id": "tillys-0a21d9"}, "geometry": {"type": "Point", "coordinates": [-80.251, 26.094]}},
{"type": "Feature", "id": "Mc1Il2HW7pIwqaQ-7T9oeUG9C-w=", "properties": {"ref": "0255", "@spider": "tillys", "clothes": "children;men;women", "shop": "clothes", "addr:street_address": "1500 South Willow Street", "addr:city": "Manchester", "addr:state": "NH", "addr:postcode": "03103", "addr:country": "US", "name": "Mall of New Hampshire", "phone": "(603) 935-6631", "opening_hours": "Mo-Sa 11:00-07:00; Su 12:00-06:00", "brand": "Tillys", "brand:wikidata": "Q7802889", "nsi_id": "tillys-0a21d9"}, "geometry": {"type": "Point", "coordinates": [-71.431925, 42.955622]}},
{"type": "Feature", "id": "4iDyB9c8xj_AaWswKCgJtVwvoaY=", "properties": {"ref": "0093", "@spider": "tillys", "clothes": "children;men;women", "shop": "clothes", "addr:street_address": "11401 Pines Blvd", "addr:city": "Pembroke Pines", "addr:state": "FL", "addr:postcode": "33026", "addr:country": "US", "name": "Pembroke Lakes Mall", "phone": "954-437-0698", "opening_hours": "Mo-Sa 11:00-07:00; Su 12:00-06:00", "brand": "Tillys", "brand:wikidata": "Q7802889", "nsi_id": "tillys-0a21d9"}, "geometry": {"type": "Point", "coordinates": [-80.301, 26.011]}},
{"type": "Feature", "id": "KNb0nXj8s25d23hCBj2CMyuj1IE=", "properties": {"ref": "0279", "@spider": "tillys", "clothes": "children;men;women", "shop": "clothes", "addr:street_address": "400 Bald Hill Road", "addr:city": "Warwick", "addr:state": "RI", "addr:postcode": "02886", "addr:country": "US", "name": "Warwick Mall", "phone": "(401) 287 2400", "opening_hours": "Mo-Sa 11:00-08:00; Su 11:00-06:00", "brand": "Tillys", "brand:wikidata": "Q7802889", "nsi_id": "tillys-0a21d9"}, "geometry": {"type": "Point", "coordinates": [-71.4528, 41.7055]}},
{"type": "Feature", "id": "yWqrkyGNzWzHvgezFGU8ULpvD2A=", "properties": {"ref": "0244", "@spider": "tillys", "clothes": "children;men;women", "shop": "clothes", "addr:street_address": "19 Providence Place", "addr:city": "Providence", "addr:state": "RI", "addr:postcode": "02903", "addr:country": "US", "name": "Providence Place", "phone": "401-824-5533", "opening_hours": "Mo-Sa 11:00-07:00; Su 12:00-06:00", "brand": "Tillys", "brand:wikidata": "Q7802889", "nsi_id": "tillys-0a21d9"}, "geometry": {"type": "Point", "coordinates": [-71.415982, 41.827412]}},
{"type": "Feature", "id": "91_971vSt0OW5P2U5hJBK_wLmF4=", "properties": {"ref": "0259", "@spider": "tillys", "clothes": "children;men;women", "shop": "clothes", "addr:street_address": "1245 Worcester Street", "addr:city": "Natick", "addr:state": "MA", "addr:postcode": "01760", "addr:country": "US", "name": "Natick Mall", "phone": "(508) 903-4555", "opening_hours": "Mo-Sa 11:00-08:00; Su 11:00-07:00", "brand": "Tillys", "brand:wikidata": "Q7802889", "nsi_id": "tillys-0a21d9"}, "geometry": {"type": "Point", "coordinates": [-71.38415, 42.300841]}},
{"type": "Feature", "id": "tgvy0yGCalKr6LNQK_XQmi3dxzE=", "properties": {"ref": "0285", "@spider": "tillys", "clothes": "children;men;women", "shop": "clothes", "addr:street_address": "1 Premium Outlet Blvd", "addr:city": "Wrentham", "addr:state": "MA", "addr:postcode": "02093", "addr:country": "US", "name": "Wrentham Village Premium Outlets - Now Open!", "phone": "(508) 458-6270", "opening_hours": "Mo-Sa 10:00-09:00; Su 10:00-06:00", "brand": "Tillys", "brand:wikidata": "Q7802889", "nsi_id": "tillys-0a21d9"}, "geometry": {"type": "Point", "coordinates": [-71.3548, 42.0515]}},
{"type": "Feature", "id": "8gUSeo5T9lGgIVJNvg9AJR-f8ms=", "properties": {"ref": "0251", "@spider": "tillys", "clothes": "children;men;women", "shop": "clothes", "addr:street_address": "99 Rockingham Park Boulevard", "addr:city": "Salem", "addr:state": "NH", "addr:postcode": "03079", "addr:country": "US", "name": "Mall at Rockingham Park", "phone": "603-328-3152", "opening_hours": "Mo-Sa 11:00-07:00; Su 12:00-06:00", "brand": "Tillys", "brand:wikidata": "Q7802889", "nsi_id": "tillys-0a21d9"}, "geometry": {"type": "Point", "coordinates": [-71.231454, 42.767416]}},
{"type": "Feature", "id": "dcgtF9UXF-fMi6ob3keAJdOJne4=", "properties": {"ref": "0182", "@spider": "tillys", "clothes": "children;men;women", "shop": "clothes", "addr:street_address": "8740 Mills Drive", "addr:city": "Miami", "addr:state": "FL", "addr:postcode": "33183", "addr:country": "US", "name": "The Palms at Town and Country", "phone": "305-341-0203", "opening_hours": "Mo-Sa 11:00-07:00; Su 12:00-06:00", "brand": "Tillys", "brand:wikidata": "Q7802889", "nsi_id": "tillys-0a21d9"}, "geometry": {"type": "Point", "coordinates": [-80.386, 25.687]}},
{"type": "Feature", "id": "FE6nMbqd-c72FFvDbeTvf8NISeY=", "properties": {"ref": "0263", "@spider": "tillys", "clothes": "children;men;women", "shop": "clothes", "addr:street_address": "361 Artisan Way", "addr:city": "Somerville", "addr:state": "MA", "addr:postcode": "02145", "addr:country": "US", "name": "Assembly Row", "phone": "(617) 616-1038", "opening_hours": "Mo-Sa 11:00-07:00; Su 12:00-06:00", "brand": "Tillys", "brand:wikidata": "Q7802889", "nsi_id": "tillys-0a21d9"}, "geometry": {"type": "Point", "coordinates": [-71.080236, 42.394975]}},
{"type": "Feature", "id": "va_MhCJ2FCYv4f_LlDpupEddq2s=", "properties": {"ref": "0174", "@spider": "tillys", "clothes": "children;men;women", "shop": "clothes", "addr:street_address": "250 Granite Street", "addr:city": "Braintree", "addr:state": "MA", "addr:postcode": "02184", "addr:country": "US", "name": "South Shore Plaza", "phone": "781-348-4977", "opening_hours": "Mo-Sa 11:00-07:00; Su 12:00-06:00", "brand": "Tillys", "brand:wikidata": "Q7802889", "nsi_id": "tillys-0a21d9"}, "geometry": {"type": "Point", "coordinates": [-71.027, 42.22]}},
{"type": "Feature", "id": "ChoMtoTuAysULbuOMhdoPKwfqAo=", "properties": {"ref": "0179", "@spider": "tillys", "clothes": "children;men;women", "shop": "clothes", "addr:street_address": "210 Andover Street", "addr:city": "Peabody", "addr:state": "MA", "addr:postcode": "01960", "addr:country": "US", "name": "Northshore Mall", "phone": "978-531-1147", "opening_hours": "Mo-Sa 11:00-07:00; Su 12:00-06:00", "brand": "Tillys", "brand:wikidata": "Q7802889", "nsi_id": "tillys-0a21d9"}, "geometry": {"type": "Point", "coordinates": [-70.942, 42.543]}}]}