{"type":"FeatureCollection","features":[{"type": "Feature", "id": "RAL4ULtCXG6UNdgqqZ5WW4M1Oow=", "properties": {"ref": "https://www.tobycarvery.co.uk/restaurants/north-east/wolvistonbillingham", "@spider": "toby_carvery_gb", "amenity": "restaurant", "cuisine": "british", "addr:street_address": "Coal Lane", "addr:city": "Billingham", "addr:state": "County Durham", "addr:postcode": "TS22 5PZ", "addr:country": "GB", "name": "Toby Carvery Wolviston Billingham", "phone": "01740 644222", "website": "https://www.tobycarvery.co.uk/restaurants/north-east/wolvistonbillingham", "contact:twitter": "@tobycarvery", "opening_hours": "Mo-Sa 08:00-23:00; Su 08:00-22:00", "image": "https://www.tobycarvery.co.uk/content/dam/toby-carvery/images/toby_logo.png", "brand": "Toby Carvery", "brand:wikidata": "Q7811777", "nsi_id": "tobycarvery-9b5453"}, "geometry": {"type": "Point", "coordinates": [-1.305452, 54.629062]}},
{"type": "Feature", "id": "yl-_1Vcrwh76fjP25Jjddx4KBzs=", "properties": {"ref": "https://www.tobycarvery.co.uk/restaurants/north-east/martonmiddlesbrough", "@spider": "toby_carvery_gb", "amenity": "restaurant", "cuisine": "british", "addr:street_address": "Marton Road", "addr:city": "Middlesbrough", "addr:state": "North Yorkshire", "addr:postcode": "TS4 3BS", "addr:country": "GB", "name": "Toby Carvery Marton Middlesbrough", "phone": "01642 817651", "website": "https://www.tobycarvery.co.uk/restaurants/north-east/martonmiddlesbrough", "contact:twitter": "@tobycarvery", "opening_hours": "Mo-Su 08:00-22:00", "image": "https://www.tobycarvery.co.uk/content/dam/toby-carvery/images/toby_logo.png", "brand": "Toby Carvery", "brand:wikidata": "Q7811777", "nsi_id": "tobycarvery-9b5453"}, "geometry": {"type": "Point", "coordinates": [-1.219202, 54.551363]}},
{"type": "Feature", "id": "_04RxaFXAxSkqqYBti7RiOKAYLs=", "properties": {"ref": "https://www.tobycarvery.co.uk/restaurants/north-east/kentonbanknewcastle", "@spider": "toby_carvery_gb", "amenity": "restaurant", "cuisine": "british", "addr:street_address": "Ponteland Road", "addr:city": "Newcastle-Upon-Tyne", "addr:state": "Tyne And Wear", "addr:postcode": "NE3 3TY", "addr:country": "GB", "name": "Toby Carvery Kenton Bank Newcastle", "phone": "0191 214 0877", "website": "https://www.tobycarvery.co.uk/restaurants/north-east/kentonbanknewcastle", "contact:twitter": "@tobycarvery", "opening_hours": "Mo-Su 08:00-23:30", "image": "https://www.tobycarvery.co.uk/content/dam/toby-carvery/images/toby_logo.png", "brand": "Toby Carvery", "brand:wikidata": "Q7811777", "nsi_id": "tobycarvery-9b5453"}, "geometry": {"type": "Point", "coordinates": [-1.669025, 55.007538]}},
{"type": "Feature", "id": "mBkMqgTX0krJuZfmX_YR5Bn6y4A=", "properties": {"ref": "https://www.tobycarvery.co.uk/restaurants/north-east/metrocentregateshead", "@spider": "toby_carvery_gb", "amenity": "restaurant", "cuisine": "british", "addr:street_address": "Metro Oasis, Metrocentre Retail Park", "addr:city": "Gateshead", "addr:state": "Tyne And Wear", "addr:postcode": "NE11 9ZG", "addr:country": "GB", "name": "Toby Carvery Metrocentre Gateshead", "phone": "0191 460 9314", "website": "https://www.tobycarvery.co.uk/restaurants/north-east/metrocentregateshead", "contact:twitter": "@tobycarvery", "opening_hours": "Mo-Su 08:00-22:00", "image": "https://www.tobycarvery.co.uk/content/dam/toby-carvery/images/toby_logo.png", "brand": "Toby Carvery", "brand:wikidata": "Q7811777", "nsi_id": "tobycarvery-9b5453"}, "geometry": {"type": "Point", "coordinates": [-1.673658, 54.95879]}},
{"type": "Feature", "id": "RiRxFhevonBv_ityrUcnqAl3XIQ=", "properties": {"ref": "https://www.tobycarvery.co.uk/restaurants/north-east/washingtontyneandwear", "@spider": "toby_carvery_gb", "amenity": "restaurant", "cuisine": "british", "addr:street_address": "Emerson Road", "addr:city": "Washington", "addr:state": "Tyne And Wear", "addr:postcode": "NE37 1LE", "addr:country": "GB", "name": "Toby Carvery Washington Tyne & Wear", "phone": "0191 419 4449", "website": "https://www.tobycarvery.co.uk/restaurants/north-east/washingtontyneandwear", "contact:twitter": "@tobycarvery", "opening_hours": "Mo-Su 08:00-22:00", "image": "https://www.tobycarvery.co.uk/content/dam/toby-carvery/images/toby_logo.png", "brand": "Toby Carvery", "brand:wikidata": "Q7811777", "nsi_id": "tobycarvery-9b5453"}, "geometry": {"type": "Point", "coordinates": [-1.551672, 54.88615]}},
{"type": "Feature", "id": "LQgq8JFImAb4GRK2kXOWo2c9McM=", "properties": {"ref": "https://www.tobycarvery.co.uk/restaurants/north-east/barnesparksunderland", "@spider": "toby_carvery_gb", "amenity": "restaurant", "cuisine": "british", "addr:street_address": "Durham Road", "addr:city": "Sunderland", "addr:state": "Tyne And Wear", "addr:postcode": "SR2 7RB", "addr:country": "GB", "name": "Toby Carvery Barnes Park Sunderland", "phone": "0191 528 5644", "website": "https://www.tobycarvery.co.uk/restaurants/north-east/barnesparksunderland", "contact:twitter": "@tobycarvery", "opening_hours": "Mo-Su 08:00-23:30", "image": "https://www.tobycarvery.co.uk/content/dam/toby-carvery/images/toby_logo.png", "brand": "Toby Carvery", "brand:wikidata": "Q7811777", "nsi_id": "tobycarvery-9b5453"}, "geometry": {"type": "Point", "coordinates": [-1.400869, 54.893372]}},
{"type": "Feature", "id": "LXmfUwti3f_iADNmXIOivEi9E9Q=", "properties": {"ref": "https://www.tobycarvery.co.uk/restaurants/scotland/lauristonfarmedinburgh", "@spider": "toby_carvery_gb", "amenity": "restaurant", "cuisine": "british", "addr:street_address": "69 Lauriston Farm Road", "addr:city": "Edinburgh", "addr:postcode": "EH4 5EX", "addr:country": "GB", "name": "Toby Carvery Lauriston Farm Edinburgh", "phone": "0131 312 7071", "website": "https://www.tobycarvery.co.uk/restaurants/scotland/lauristonfarmedinburgh", "contact:twitter": "@tobycarvery", "opening_hours": "Mo-Su 08:00-23:30", "image": "https://www.tobycarvery.co.uk/content/dam/toby-carvery/images/toby_logo.png", "brand": "Toby Carvery", "brand:wikidata": "Q7811777", "nsi_id": "tobycarvery-9b5453"}, "geometry": {"type": "Point", "coordinates": [-3.274657, 55.971251]}},
{"type": "Feature", "id": "2KKgOHAOwF1y6nUm-U9OoDFtw5Y=", "properties": {"ref": "https://www.tobycarvery.co.uk/restaurants/scotland/libertonedinburgh", "@spider": "toby_carvery_gb", "amenity": "restaurant", "cuisine": "british", "addr:street_address": "41 Howden Hall Road", "addr:city": "Edinburgh", "addr:postcode": "EH16 6PG", "addr:country": "GB", "name": "Toby Carvery Liberton Edinburgh", "phone": "0131 672 1408", "website": "https://www.tobycarvery.co.uk/restaurants/scotland/libertonedinburgh", "contact:twitter": "@tobycarvery", "opening_hours": "Mo-Su 08:00-22:30", "image": "https://www.tobycarvery.co.uk/content/dam/toby-carvery/images/toby_logo.png", "brand": "Toby Carvery", "brand:wikidata": "Q7811777", "nsi_id": "tobycarvery-9b5453"}, "geometry": {"type": "Point", "coordinates": [-3.164667, 55.903285]}},
{"type": "Feature", "id": "aum2yUJlVgzmyCX1xRPq9H1iVsg=", "properties": {"ref": "https://www.tobycarvery.co.uk/restaurants/scotland/bathgatefarmbathgate", "@spider": "toby_carvery_gb", "amenity": "restaurant", "cuisine": "british", "addr:street_address": "Starlaw Road", "addr:city": "Bathgate", "addr:state": "West Lothian", "addr:postcode": "EH48 1LL", "addr:country": "GB", "name": "Toby Carvery Bathgate Farm Bathgate", "phone": "01506 633573", "website": "https://www.tobycarvery.co.uk/restaurants/scotland/bathgatefarmbathgate", "contact:twitter": "@tobycarvery", "opening_hours": "Mo-Su 08:00-22:30", "image": "https://www.tobycarvery.co.uk/content/dam/toby-carvery/images/toby_logo.png", "brand": "Toby Carvery", "brand:wikidata": "Q7811777", "nsi_id": "tobycarvery-9b5453"}, "geometry": {"type": "Point", "coordinates": [-3.603913, 55.895696]}},
{"type": "Feature", "id": "7GiAMRRFtZlB_yZHbFlUEW3jKpA=", "properties": {"ref": "https://www.tobycarvery.co.uk/restaurants/scotland/strathclydeparkmotherwell", "@spider": "toby_carvery_gb", "amenity": "restaurant", "cuisine": "british", "addr:street_address": "Strathclyde Country Park, Hamilton Road", "addr:city": "Motherwell", "addr:state": "North Lanarkshire", "addr:postcode": "ML1 3WB", "addr:country": "GB", "name": "Toby Carvery Strathclyde Park Motherwell", "phone": "01698 854715", "website": "https://www.tobycarvery.co.uk/restaurants/scotland/strathclydeparkmotherwell", "contact:twitter": "@tobycarvery", "opening_hours": "Mo-Su 07:00-22:30", "image": "https://www.tobycarvery.co.uk/content/dam/toby-carvery/images/toby_logo.png", "brand": "Toby Carvery", "brand:wikidata": "Q7811777", "nsi_id": "tobycarvery-9b5453"}, "geometry": {"type": "Point", "coordinates": [-4.05096, 55.802099]}},
{"type": "Feature", "id": "IKG-MhJl0chKYvU2b0B-Uh2U_OM=", "properties": {"ref": "https://www.tobycarvery.co.uk/restaurants/scotland/edinburghwestedinburgh", "@spider": "toby_carvery_gb", "amenity": "restaurant", "cuisine": "british", "addr:street_address": "114-116 St Johns Rd", "addr:city": "Edinburgh", "addr:postcode": "EH12 8AX", "addr:country": "GB", "name": "Toby Carvery Edinburgh West Edinburgh", "phone": "0131 334 8235", "website": "https://www.tobycarvery.co.uk/restaurants/scotland/edinburghwestedinburgh", "contact:twitter": "@tobycarvery", "opening_hours": "Mo-Su 07:00-22:30", "image": "https://www.tobycarvery.co.uk/content/dam/toby-carvery/images/toby_logo.png", "brand": "Toby Carvery", "brand:wikidata": "Q7811777", "nsi_id": "tobycarvery-9b5453"}, "geometry": {"type": "Point", "coordinates": [-3.283883, 55.943102]}},
{"type": "Feature", "id": "RS8Dnj5Pnad8Hig1hBz8HOM1Tmg=", "properties": {"ref": "https://www.tobycarvery.co.uk/restaurants/scotland/cockethataberdeen", "@spider": "toby_carvery_gb", "amenity": "restaurant", "cuisine": "british", "addr:street_address": "North Anderson Drive", "addr:city": "Aberdeen", "addr:postcode": "AB15 6DW", "addr:country": "GB", "name": "Toby Carvery Cocket Hat Aberdeen", "phone": "01224 695684", "website": "https://www.tobycarvery.co.uk/restaurants/scotland/cockethataberdeen", "contact:twitter": "@tobycarvery", "opening_hours": "Mo-Su 08:00-23:30", "image": "https://www.tobycarvery.co.uk/content/dam/toby-carvery/images/toby_logo.png", "brand": "Toby Carvery", "brand:wikidata": "Q7811777", "nsi_id": "tobycarvery-9b5453"}, "geometry": {"type": "Point", "coordinates": [-2.149874, 57.150528]}},
{"type": "Feature", "id": "UxtYMqS-ZnHAewBrBjVbu6-YiQU=", "properties": {"ref": "https://www.tobycarvery.co.uk/restaurants/yorkshire/keighleyyorkshire", "@spider": "toby_carvery_gb", "amenity": "restaurant", "cuisine": "british", "addr:street_address": "Bradford Road", "addr:city": "Keighley", "addr:state": "West Yorkshire", "addr:postcode": "BD21 4BB", "addr:country": "GB", "name": "Toby Carvery Keighley Yorkshire", "phone": "01535 610611", "website": "https://www.tobycarvery.co.uk/restaurants/yorkshire/keighleyyorkshire", "contact:twitter": "@tobycarvery", "opening_hours": "Mo 09:00-22:00; Tu-Sa 08:00-22:00; Su 08:00-22:30", "image": "https://www.tobycarvery.co.uk/content/dam/toby-carvery/images/toby_logo.png", "brand": "Toby Carvery", "brand:wikidata": "Q7811777", "nsi_id": "tobycarvery-9b5453"}, "geometry": {"type": "Point", "coordinates": [-1.896575, 53.872593]}},
{"type": "Feature", "id": "w1iLdWPyRrRv5XI3T6ZtNJZqE4g=", "properties": {"ref": "https://www.tobycarvery.co.uk/restaurants/wales/caerphillyglamorgan", "@spider": "toby_carvery_gb", "amenity": "restaurant", "cuisine": "british", "addr:street_address": "Corbett Lane, Pwll-Y-Pant", "addr:city": "Caerphilly", "addr:state": "Gwent", "addr:postcode": "CF83 3HX", "addr:country": "GB", "name": "Toby Carvery Caerphilly Caerphilly", "phone": "029 2086 7049", "website": "https://www.tobycarvery.co.uk/restaurants/wales/caerphillyglamorgan", "contact:twitter": "@tobycarvery", "opening_hours": "Mo-Su 08:00-22:00", "image": "https://www.tobycarvery.co.uk/content/dam/toby-carvery/images/toby_logo.png", "brand": "Toby Carvery", "brand:wikidata": "Q7811777", "nsi_id": "tobycarvery-9b5453"}, "geometry": {"type": "Point", "coordinates": [-3.225863, 51.592827]}},
{"type": "Feature", "id": "C16_LVOl9uTy4I68bGCEuciMVy4=", "properties": {"ref": "https://www.tobycarvery.co.uk/restaurants/wales/carmarthencarmarthenshire", "@spider": "toby_carvery_gb", "amenity": "restaurant", "cuisine": "british", "addr:street_address": "Unit 6, St Catherines Walk", "addr:city": "Carmarthen", "addr:state": "Dyfed", "addr:postcode": "SA31 1GA", "addr:country": "GB", "name": "Toby Carvery Carmarthen Carmarthenshire", "phone": "01267 237879", "website": "https://www.tobycarvery.co.uk/restaurants/wales/carmarthencarmarthenshire", "contact:twitter": "@tobycarvery", "opening_hours": "Mo-Fr 09:00-21:00; Sa-Su 09:00-22:00", "image": "https://www.tobycarvery.co.uk/content/dam/toby-carvery/images/toby_logo.png", "brand": "Toby Carvery", "brand:wikidata": "Q7811777", "nsi_id": "tobycarvery-9b5453"}, "geometry": {"type": "Point", "coordinates": [-4.309798, 51.858994]}},
{"type": "Feature", "id": "MH1XzF7KKVDY5ws0nYGZkAjja5g=", "properties": {"ref": "https://www.tobycarvery.co.uk/restaurants/wales/bridgendmidglamorgan", "@spider": "toby_carvery_gb", "amenity": "restaurant", "cuisine": "british", "addr:street_address": "South Road, Bridgend Industrial Estate", "addr:city": "Bridgend", "addr:state": "Mid Glamorgan", "addr:postcode": "CF31 3UL", "addr:country": "GB", "name": "Toby Carvery Bridgend Mid Glamorgan", "phone": "01656 750011", "website": "https://www.tobycarvery.co.uk/restaurants/wales/bridgendmidglamorgan", "contact:twitter": "@tobycarvery", "opening_hours": "Mo-Su 08:00-22:00", "image": "https://www.tobycarvery.co.uk/content/dam/toby-carvery/images/toby_logo.png", "brand": "Toby Carvery", "brand:wikidata": "Q7811777", "nsi_id": "tobycarvery-9b5453"}, "geometry": {"type": "Point", "coordinates": [-3.561041, 51.496298]}},
{"type": "Feature", "id": "8hI7F6BOUp32ysfv8nhcHnr3T6U=", "properties": {"ref": "https://www.tobycarvery.co.uk/restaurants/wales/thecockleshellswansea", "@spider": "toby_carvery_gb", "amenity": "restaurant", "cuisine": "british", "addr:street_address": "Heol-Y-Mynydd, Gorseinon", "addr:city": "Swansea", "addr:state": "West Glamorgan", "addr:postcode": "SA4 4DJ", "addr:country": "GB", "name": "Toby Carvery Cockleshell Swansea", "phone": "01792 893594", "website": "https://www.tobycarvery.co.uk/restaurants/wales/thecockleshellswansea", "contact:twitter": "@tobycarvery", "opening_hours": "Mo-Su 09:00-23:00", "image": "https://www.tobycarvery.co.uk/content/dam/toby-carvery/images/toby_logo.png", "brand": "Toby Carvery", "brand:wikidata": "Q7811777", "nsi_id": "tobycarvery-9b5453"}, "geometry": {"type": "Point", "coordinates": [-4.034563, 51.668444]}},
{"type": "Feature", "id": "zLc-ZEbqi3Y_iPzI166a2sxvXvA=", "properties": {"ref": "https://www.tobycarvery.co.uk/restaurants/wales/cardiffgatecardiff", "@spider": "toby_carvery_gb", "amenity": "restaurant", "cuisine": "british", "addr:street_address": "Cedar House, Cardiff Gate Business Park", "addr:city": "Cardiff", "addr:state": "South Glamorgan", "addr:postcode": "CF23 8RD", "addr:country": "GB", "name": "Toby Carvery Cardiff Gate Cardiff", "phone": "029 2054 1132", "website": "https://www.tobycarvery.co.uk/restaurants/wales/cardiffgatecardiff", "contact:twitter": "@tobycarvery", "opening_hours": "Mo-Su 08:00-22:00", "image": "https://www.tobycarvery.co.uk/content/dam/toby-carvery/images/toby_logo.png", "brand": "Toby Carvery", "brand:wikidata": "Q7811777", "nsi_id": "tobycarvery-9b5453"}, "geometry": {"type": "Point", "coordinates": [-3.132686, 51.538669]}},
{"type": "Feature", "id": "Cl6H2yceweHPC57qAOLfU-vBW5I=", "properties": {"ref": "https://www.tobycarvery.co.uk/restaurants/wales/whitchurchcardiff", "@spider": "toby_carvery_gb", "amenity": "restaurant", "cuisine": "british", "addr:street_address": "21 Tyn-y-Parc Road", "addr:city": "Cardiff", "addr:state": "South Glamorgan", "addr:postcode": "CF14 6BH", "addr:country": "GB", "name": "Toby Carvery Whitchurch Cardiff", "phone": "029 2069 2554", "website": "https://www.tobycarvery.co.uk/restaurants/wales/whitchurchcardiff", "contact:twitter": "@tobycarvery", "opening_hours": "Mo-Su 08:00-22:00", "image": "https://www.tobycarvery.co.uk/content/dam/toby-carvery/images/toby_logo.png", "brand": "Toby Carvery", "brand:wikidata": "Q7811777", "nsi_id": "tobycarvery-9b5453"}, "geometry": {"type": "Point", "coordinates": [-3.216131, 51.517575]}},
{"type": "Feature", "id": "laXevLmyQm7mne2eHAsh0m_wR0c=", "properties": {"ref": "https://www.tobycarvery.co.uk/restaurants/wales/coldranewport", "@spider": "toby_carvery_gb", "amenity": "restaurant", "cuisine": "british", "addr:street_address": "Chepstow Road", "addr:city": "Newport", "addr:state": "Gwent", "addr:postcode": "NP19 9FL", "addr:country": "GB", "name": "Toby Carvery Coldra Newport", "phone": "01633 282155", "website": "https://www.tobycarvery.co.uk/restaurants/wales/coldranewport", "contact:twitter": "@tobycarvery", "opening_hours": "Mo-Su 08:00-22:00", "image": "https://www.tobycarvery.co.uk/content/dam/toby-carvery/images/toby_logo.png", "brand": "Toby Carvery", "brand:wikidata": "Q7811777", "nsi_id": "tobycarvery-9b5453"}, "geometry": {"type": "Point", "coordinates": [-2.937681, 51.596885]}},
{"type": "Feature", "id": "IxUOPL6QrtnU5SL1w-c7MTSTpaE=", "properties": {"ref": "https://www.tobycarvery.co.uk/restaurants/wales/rhoosebarry", "@spider": "toby_carvery_gb", "amenity": "restaurant", "cuisine": "british", "addr:street_address": "Port Road West", "addr:city": "Barry", "addr:state": "South Glamorgan", "addr:postcode": "CF62 3BA", "addr:country": "GB", "name": "Toby Carvery Rhoose Barry", "phone": "01446 700075", "website": "https://www.tobycarvery.co.uk/restaurants/wales/rhoosebarry", "contact:twitter": "@tobycarvery", "opening_hours": "Mo-Su 08:00-22:00", "image": "https://www.tobycarvery.co.uk/content/dam/toby-carvery/images/toby_logo.png", "brand": "Toby Carvery", "brand:wikidata": "Q7811777", "nsi_id": "tobycarvery-9b5453"}, "geometry": {"type": "Point", "coordinates": [-3.304606, 51.407845]}},
{"type": "Feature", "id": "1yTgL3605jjeX4VjeytLjapHGcs=", "properties": {"ref": "https://www.tobycarvery.co.uk/restaurants/south-west/thefleetsbridgepoole", "@spider": "toby_carvery_gb", "amenity": "restaurant", "cuisine": "british", "addr:street_address": "Wimborne Road", "addr:city": "Poole", "addr:state": "Dorset", "addr:postcode": "BH15 3EH", "addr:country": "GB", "name": "Toby Carvery Poole Poole", "phone": "01202 673607", "website": "https://www.tobycarvery.co.uk/restaurants/south-west/thefleetsbridgepoole", "contact:twitter": "@tobycarvery", "opening_hours": "Mo-Fr 09:00-23:00; Sa-Su 08:00-23:00", "image": "https://www.tobycarvery.co.uk/content/dam/toby-carvery/images/toby_logo.png", "brand": "Toby Carvery", "brand:wikidata": "Q7811777", "nsi_id": "tobycarvery-9b5453"}, "geometry": {"type": "Point", "coordinates": [-1.985812, 50.738218]}},
{"type": "Feature", "id": "A5plmnooaUBURCxAQPbzZGgtXPE=", "properties": {"ref": "https://www.tobycarvery.co.uk/restaurants/south-west/lympstoneexeter", "@spider": "toby_carvery_gb", "amenity": "restaurant", "cuisine": "british", "addr:street_address": "Exmouth Road, Lympstone", "addr:city": "Exeter", "addr:state": "Devon", "addr:postcode": "EX8 5AJ", "addr:country": "GB", "name": "Toby Carvery Lympstone Exeter", "phone": "01392 873279", "website": "https://www.tobycarvery.co.uk/restaurants/south-west/lympstoneexeter", "contact:twitter": "@tobycarvery", "opening_hours": "Mo-Su 09:00-21:00", "image": "https://www.tobycarvery.co.uk/content/dam/toby-carvery/images/toby_logo.png", "brand": "Toby Carvery", "brand:wikidata": "Q7811777", "nsi_id": "tobycarvery-9b5453"}, "geometry": {"type": "Point", "coordinates": [-3.430561, 50.663153]}},
{"type": "Feature", "id": "uBBNRxZg3L9cM9ytY9L_zmKNGkM=", "properties": {"ref": "https://www.tobycarvery.co.uk/restaurants/south-west/newtonabbotdevon", "@spider": "toby_carvery_gb", "amenity": "restaurant", "cuisine": "british", "addr:street_address": "Penn Inn, Torquay Road", "addr:city": "Newton Abbot", "addr:postcode": "TQ12 4AQ", "addr:country": "GB", "name": "Toby Carvery Newton Abbot", "phone": "01626 354661", "website": "https://www.tobycarvery.co.uk/restaurants/south-west/newtonabbotdevon", "contact:twitter": "@tobycarvery", "opening_hours": "Mo-Su 09:00-21:00", "image": "https://www.tobycarvery.co.uk/content/dam/toby-carvery/images/toby_logo.png", "brand": "Toby Carvery", "brand:wikidata": "Q7811777", "nsi_id": "tobycarvery-9b5453"}, "geometry": {"type": "Point", "coordinates": [-3.594381, 50.525356]}},
{"type": "Feature", "id": "vpwHnKxe3jqHVvjK0WDoss6VHBk=", "properties": {"ref": "https://www.tobycarvery.co.uk/restaurants/south-west/trowbridge", "@spider": "toby_carvery_gb", "amenity": "restaurant", "cuisine": "british", "addr:street_address": "Unit 4, Cradle Bridge Retail Park", "addr:city": "County Way", "addr:state": "Trowbridge", "addr:postcode": "BA14 8FS", "addr:country": "GB", "name": "Toby Carvery Trowbridge", "phone": "01225 617409", "website": "https://www.tobycarvery.co.uk/restaurants/south-west/trowbridge", "contact:twitter": "@tobycarvery", "opening_hours": "Mo-Su 09:00-20:00", "image": "https://www.tobycarvery.co.uk/content/dam/toby-carvery/images/toby_logo.png", "brand": "Toby Carvery", "brand:wikidata": "Q7811777", "nsi_id": "tobycarvery-9b5453"}, "geometry": {"type": "Point", "coordinates": [-2.204373, 51.317339]}},
{"type": "Feature", "id": "nMuUXoEPPUam-l-vQmKOegmXqlg=", "properties": {"ref": "https://www.tobycarvery.co.uk/restaurants/south-west/amesburywiltshire", "@spider": "toby_carvery_gb", "amenity": "restaurant", "cuisine": "british", "addr:street_address": "Solstice Retail Park, Midsummer Place", "addr:city": "Amesbury", "addr:state": "Salisbury", "addr:postcode": "SP4 7QA", "addr:country": "GB", "name": "Toby Carvery Amesbury", "phone": "01980 676746", "website": "https://www.tobycarvery.co.uk/restaurants/south-west/amesburywiltshire", "contact:twitter": "@tobycarvery", "opening_hours": "Mo-Su 09:00-22:00", "image": "https://www.tobycarvery.co.uk/content/dam/toby-carvery/images/toby_logo.png", "brand": "Toby Carvery", "brand:wikidata": "Q7811777", "nsi_id": "tobycarvery-9b5453"}, "geometry": {"type": "Point", "coordinates": [-1.760509, 51.176844]}},
{"type": "Feature", "id": "jdFT5_F0KZBSWEHlqO3A9cLIFEY=", "properties": {"ref": "https://www.tobycarvery.co.uk/restaurants/south-west/cooperdeanbournemouth", "@spider": "toby_carvery_gb", "amenity": "restaurant", "cuisine": "british", "addr:street_address": "Castle Lane East", "addr:city": "Bournemouth", "addr:state": "Dorset", "addr:postcode": "BH7 7DP", "addr:country": "GB", "name": "Toby Carvery Cooper Dean Bournemouth", "phone": "01202 390837", "website": "https://www.tobycarvery.co.uk/restaurants/south-west/cooperdeanbournemouth", "contact:twitter": "@tobycarvery", "opening_hours": "Mo-Su 08:00-22:00", "image": "https://www.tobycarvery.co.uk/content/dam/toby-carvery/images/toby_logo.png", "brand": "Toby Carvery", "brand:wikidata": "Q7811777", "nsi_id": "tobycarvery-9b5453"}, "geometry": {"type": "Point", "coordinates": [-1.825781, 50.747568]}},
{"type": "Feature", "id": "GEmos1EIF0PY2g3C7HL6gwV94D0=", "properties": {"ref": "https://www.tobycarvery.co.uk/restaurants/south-west/thefriaryblunsdonstandrew", "@spider": "toby_carvery_gb", "amenity": "restaurant", "cuisine": "british", "addr:street_address": "Elstree Way", "addr:city": "Swindon", "addr:state": "Wiltshire", "addr:postcode": "SN25 4YX", "addr:country": "GB", "name": "Toby Carvery Friary Blunsdon St Andrew", "phone": "01793 702081", "website": "https://www.tobycarvery.co.uk/restaurants/south-west/thefriaryblunsdonstandrew", "contact:twitter": "@tobycarvery", "opening_hours": "Mo-Su 08:00-22:00", "image": "https://www.tobycarvery.co.uk/content/dam/toby-carvery/images/toby_logo.png", "brand": "Toby Carvery", "brand:wikidata": "Q7811777", "nsi_id": "tobycarvery-9b5453"}, "geometry": {"type": "Point", "coordinates": [-1.801826, 51.598701]}},
{"type": "Feature", "id": "6Vo5CCrsg9CLCSedBlLSA7aiNNg=", "properties": {"ref": "https://www.tobycarvery.co.uk/restaurants/south-west/roboroughplymouth", "@spider": "toby_carvery_gb", "amenity": "restaurant", "cuisine": "british", "addr:street_address": "399 Tavistock Road", "addr:city": "Plymouth", "addr:state": "Devon", "addr:postcode": "PL6 7HB", "addr:country": "GB", "name": "Toby Carvery Roborough Plymouth", "phone": "01752 771527", "website": "https://www.tobycarvery.co.uk/restaurants/south-west/roboroughplymouth", "contact:twitter": "@tobycarvery", "opening_hours": "Mo-Su 08:00-23:00", "image": "https://www.tobycarvery.co.uk/content/dam/toby-carvery/images/toby_logo.png", "brand": "Toby Carvery", "brand:wikidata": "Q7811777", "nsi_id": "tobycarvery-9b5453"}, "geometry": {"type": "Point", "coordinates": [-4.113247, 50.427859]}},
{"type": "Feature", "id": "BwUppzdVeIHGNorQ-uPn5id4jDU=", "properties": {"ref": "https://www.tobycarvery.co.uk/restaurants/south-west/theexeterarmsmiddlemoor", "@spider": "toby_carvery_gb", "amenity": "restaurant", "cuisine": "british", "addr:street_address": "Rydon Lane, Middlemoor", "addr:city": "Exeter", "addr:state": "Devon", "addr:postcode": "EX2 7HL", "addr:country": "GB", "name": "Toby Carvery Exeter Middlemoor", "phone": "01392 435353", "website": "https://www.tobycarvery.co.uk/restaurants/south-west/theexeterarmsmiddlemoor", "contact:twitter": "@tobycarvery", "opening_hours": "Mo-Fr 07:00-23:00; Sa-Su 08:00-23:00", "image": "https://www.tobycarvery.co.uk/content/dam/toby-carvery/images/toby_logo.png", "brand": "Toby Carvery", "brand:wikidata": "Q7811777", "nsi_id": "tobycarvery-9b5453"}, "geometry": {"type": "Point", "coordinates": [-3.479386, 50.717862]}},
{"type": "Feature", "id": "3LkEstUtprMas94Gj9kqpv7Q0hQ=", "properties": {"ref": "https://www.tobycarvery.co.uk/restaurants/south-west/hintonchristchurch", "@spider": "toby_carvery_gb", "amenity": "restaurant", "cuisine": "british", "addr:street_address": "Lyndhurst Road", "addr:city": "Christchurch", "addr:state": "Dorset", "addr:postcode": "BH23 4SD", "addr:country": "GB", "name": "Toby Carvery Hinton Christchurch", "phone": "01425 273202", "website": "https://www.tobycarvery.co.uk/restaurants/south-west/hintonchristchurch", "contact:twitter": "@tobycarvery", "opening_hours": "Mo-Su 11:00-23:00", "image": "https://www.tobycarvery.co.uk/content/dam/toby-carvery/images/toby_logo.png", "brand": "Toby Carvery", "brand:wikidata": "Q7811777", "nsi_id": "tobycarvery-9b5453"}, "geometry": {"type": "Point", "coordinates": [-1.735698, 50.746004]}},
{"type": "Feature", "id": "qPpUhOMoOdMYZErSN6mluy-JQKU=", "properties": {"ref": "https://www.tobycarvery.co.uk/restaurants/south-west/almondsburybristol", "@spider": "toby_carvery_gb", "amenity": "restaurant", "cuisine": "british", "addr:street_address": "Woodlands Lane, Bradley Stoke", "addr:city": "Bristol", "addr:state": "Gloucestershire", "addr:postcode": "BS32 4QB", "addr:country": "GB", "name": "Toby Carvery Almondsbury Bristol", "phone": "01454 201202", "website": "https://www.tobycarvery.co.uk/restaurants/south-west/almondsburybristol", "contact:twitter": "@tobycarvery", "opening_hours": "Mo-Su 08:00-22:00", "image": "https://www.tobycarvery.co.uk/content/dam/toby-carvery/images/toby_logo.png", "brand": "Toby Carvery", "brand:wikidata": "Q7811777", "nsi_id": "tobycarvery-9b5453"}, "geometry": {"type": "Point", "coordinates": [-2.558881, 51.546924]}},
{"type": "Feature", "id": "ucllqBLFQEnBcfHq_9uhARd_GwU=", "properties": {"ref": "https://www.tobycarvery.co.uk/restaurants/south-west/northbournebournemouth", "@spider": "toby_carvery_gb", "amenity": "restaurant", "cuisine": "british", "addr:street_address": "Wimborne Road, Northbourne", "addr:city": "Bournemouth", "addr:state": "Dorset", "addr:postcode": "BH10 7BJ", "addr:country": "GB", "name": "Toby Carvery Northbourne Bournemouth", "phone": "01202 572433", "website": "https://www.tobycarvery.co.uk/restaurants/south-west/northbournebournemouth", "contact:twitter": "@tobycarvery", "opening_hours": "Mo-Su 09:00-23:00", "image": "https://www.tobycarvery.co.uk/content/dam/toby-carvery/images/toby_logo.png", "brand": "Toby Carvery", "brand:wikidata": "Q7811777", "nsi_id": "tobycarvery-9b5453"}, "geometry": {"type": "Point", "coordinates": [-1.885675, 50.767875]}},
{"type": "Feature", "id": "PcRTy-nQCRRrfgD60T3i9lV-2do=", "properties": {"ref": "https://www.tobycarvery.co.uk/restaurants/south-west/maesknollbristol", "@spider": "toby_carvery_gb", "amenity": "restaurant", "cuisine": "british", "addr:street_address": "42 Bristol Road, Whitchurch", "addr:city": "Bristol", "addr:state": "City of Bristol", "addr:postcode": "BS14 0PF", "addr:country": "GB", "name": "Toby Carvery Maes Knoll Bristol", "phone": "01275 834698", "website": "https://www.tobycarvery.co.uk/restaurants/south-west/maesknollbristol", "contact:twitter": "@tobycarvery", "opening_hours": "Mo 08:00-22:00; Tu-Fr 08:00-21:00; Sa-Su 08:00-22:00", "image": "https://www.tobycarvery.co.uk/content/dam/toby-carvery/images/toby_logo.png", "brand": "Toby Carvery", "brand:wikidata": "Q7811777", "nsi_id": "tobycarvery-9b5453"}, "geometry": {"type": "Point", "coordinates": [-2.558247, 51.40661]}},
{"type": "Feature", "id": "InhlL17cOgBxidnZw4IrrdiAdS4=", "properties": {"ref": "https://www.tobycarvery.co.uk/restaurants/south-west/brockworthgloucester", "@spider": "toby_carvery_gb", "amenity": "restaurant", "cuisine": "british", "addr:street_address": "Shurdington Road, Brockworth", "addr:city": "Gloucester", "addr:state": "Gloucestershire", "addr:postcode": "GL3 4PH", "addr:country": "GB", "name": "Toby Carvery Brockworth Gloucester", "phone": "01452 863441", "website": "https://www.tobycarvery.co.uk/restaurants/south-west/brockworthgloucester", "contact:twitter": "@tobycarvery", "opening_hours": "Mo-Su 08:00-22:00", "image": "https://www.tobycarvery.co.uk/content/dam/toby-carvery/images/toby_logo.png", "brand": "Toby Carvery", "brand:wikidata": "Q7811777", "nsi_id": "tobycarvery-9b5453"}, "geometry": {"type": "Point", "coordinates": [-2.148462, 51.84252]}},
{"type": "Feature", "id": "hTOvXTfdKMoOdgcRUipt2stAOX0=", "properties": {"ref": "https://www.tobycarvery.co.uk/restaurants/south-west/highnamgloucestershire", "@spider": "toby_carvery_gb", "amenity": "restaurant", "cuisine": "british", "addr:street_address": "Over", "addr:city": "Gloucester", "addr:state": "Gloucestershire", "addr:postcode": "GL2 8DE", "addr:country": "GB", "name": "Toby Carvery Highnam Gloucestershire", "phone": "01452 521191", "website": "https://www.tobycarvery.co.uk/restaurants/south-west/highnamgloucestershire", "contact:twitter": "@tobycarvery", "opening_hours": "Mo-Su 08:00-22:00", "image": "https://www.tobycarvery.co.uk/content/dam/toby-carvery/images/toby_logo.png", "brand": "Toby Carvery", "brand:wikidata": "Q7811777", "nsi_id": "tobycarvery-9b5453"}, "geometry": {"type": "Point", "coordinates": [-2.27372, 51.874222]}},
{"type": "Feature", "id": "4TRfxaqmpg6UTp6qTkA-9frPFzU=", "properties": {"ref": "https://www.tobycarvery.co.uk/restaurants/south-east/bishopstokeeastleigh", "@spider": "toby_carvery_gb", "amenity": "restaurant", "cuisine": "british", "addr:street_address": "Fair Oak Road", "addr:city": "Eastleigh", "addr:state": "Hampshire", "addr:postcode": "SO50 6LD", "addr:country": "GB", "name": "Toby Carvery Bishopstoke Eastleigh", "phone": "023 8064 3106", "website": "https://www.tobycarvery.co.uk/restaurants/south-east/bishopstokeeastleigh", "contact:twitter": "@tobycarvery", "opening_hours": "Mo-Su 08:00-23:00", "image": "https://www.tobycarvery.co.uk/content/dam/toby-carvery/images/toby_logo.png", "brand": "Toby Carvery", "brand:wikidata": "Q7811777", "nsi_id": "tobycarvery-9b5453"}, "geometry": {"type": "Point", "coordinates": [-1.336731, 50.969327]}},
{"type": "Feature", "id": "_AvunxQ89BdDbyHDJWUukt050S4=", "properties": {"ref": "https://www.tobycarvery.co.uk/restaurants/south-east/hilseahampshire", "@spider": "toby_carvery_gb", "amenity": "restaurant", "cuisine": "british", "addr:street_address": "Copnor Road", "addr:city": "Portsmouth", "addr:state": "Hampshire", "addr:postcode": "PO3 5HS", "addr:country": "GB", "name": "Toby Carvery Hilsea Hampshire", "phone": "023 9265 4645", "website": "https://www.tobycarvery.co.uk/restaurants/south-east/hilseahampshire", "contact:twitter": "@tobycarvery", "opening_hours": "Mo-Su 08:00-23:00", "image": "https://www.tobycarvery.co.uk/content/dam/toby-carvery/images/toby_logo.png", "brand": "Toby Carvery", "brand:wikidata": "Q7811777", "nsi_id": "tobycarvery-9b5453"}, "geometry": {"type": "Point", "coordinates": [-1.065555, 50.829837]}},
{"type": "Feature", "id": "KcdSRJ-2LrfM1DZyezjWdJt9bW0=", "properties": {"ref": "https://www.tobycarvery.co.uk/restaurants/south-east/thegeorgeworthing", "@spider": "toby_carvery_gb", "amenity": "restaurant", "cuisine": "british", "addr:street_address": "39 Goring Road, West Worthing", "addr:city": "Worthing", "addr:state": "West Sussex", "addr:postcode": "BN12 4AS", "addr:country": "GB", "name": "Toby Carvery Worthing Worthing", "phone": "01903 247226", "website": "https://www.tobycarvery.co.uk/restaurants/south-east/thegeorgeworthing", "contact:twitter": "@tobycarvery", "opening_hours": "Mo-Th 09:00-22:00; Fr 09:00-23:00; Sa 08:00-23:00; Su 08:00-22:00", "image": "https://www.tobycarvery.co.uk/content/dam/toby-carvery/images/toby_logo.png", "brand": "Toby Carvery", "brand:wikidata": "Q7811777", "nsi_id": "tobycarvery-9b5453"}, "geometry": {"type": "Point", "coordinates": [-0.404262, 50.812855]}},
{"type": "Feature", "id": "ArSlSvd5tREBuf5MCgbQhsDcDWU=", "properties": {"ref": "https://www.tobycarvery.co.uk/restaurants/south-east/cavershambridgereading", "@spider": "toby_carvery_gb", "amenity": "restaurant", "cuisine": "british", "addr:street_address": "Richfield Avenue", "addr:city": "Reading", "addr:state": "Berkshire", "addr:postcode": "RG1 8EQ", "addr:country": "GB", "name": "Toby Carvery Caversham Bridge Reading", "phone": "0118 950 5044", "website": "https://www.tobycarvery.co.uk/restaurants/south-east/cavershambridgereading", "contact:twitter": "@tobycarvery", "opening_hours": "Mo-Su 08:00-22:00", "image": "https://www.tobycarvery.co.uk/content/dam/toby-carvery/images/toby_logo.png", "brand": "Toby Carvery", "brand:wikidata": "Q7811777", "nsi_id": "tobycarvery-9b5453"}, "geometry": {"type": "Point", "coordinates": [-0.981095, 51.464845]}},
{"type": "Feature", "id": "FwvZzdhdn2OFtk4u439T9m9KLz4=", "properties": {"ref": "https://www.tobycarvery.co.uk/restaurants/south-east/edenparkbeckenham", "@spider": "toby_carvery_gb", "amenity": "restaurant", "cuisine": "british", "addr:street_address": "422 Upper Elmers End Road", "addr:city": "Beckenham", "addr:state": "Greater London", "addr:postcode": "BR3 3HQ", "addr:country": "GB", "name": "Toby Carvery Eden Park Beckenham", "phone": "020 8650 2233", "website": "https://www.tobycarvery.co.uk/restaurants/south-east/edenparkbeckenham", "contact:twitter": "@tobycarvery", "opening_hours": "Mo-Fr 07:00-23:00; Sa-Su 08:00-23:00", "image": "https://www.tobycarvery.co.uk/content/dam/toby-carvery/images/toby_logo.png", "brand": "Toby Carvery", "brand:wikidata": "Q7811777", "nsi_id": "tobycarvery-9b5453"}, "geometry": {"type": "Point", "coordinates": [-0.0272, 51.389957]}},
{"type": "Feature", "id": "z-vJ6fcZsLr7dyPwn4-swJWV7FM=", "properties": {"ref": "https://www.tobycarvery.co.uk/restaurants/south-east/downlandsworthing", "@spider": "toby_carvery_gb", "amenity": "restaurant", "cuisine": "british", "addr:street_address": "Upper Brighton Road", "addr:city": "Worthing", "addr:state": "West Sussex", "addr:postcode": "BN14 9JN", "addr:country": "GB", "name": "Toby Carvery Downlands Worthing", "phone": "01903 234085", "website": "https://www.tobycarvery.co.uk/restaurants/south-east/downlandsworthing", "contact:twitter": "@tobycarvery", "opening_hours": "Mo-Su 08:00-23:00", "image": "https://www.tobycarvery.co.uk/content/dam/toby-carvery/images/toby_logo.png", "brand": "Toby Carvery", "brand:wikidata": "Q7811777", "nsi_id": "tobycarvery-9b5453"}, "geometry": {"type": "Point", "coordinates": [-0.367895, 50.834403]}},
{"type": "Feature", "id": "_FeLSDCVcA4E710-E4rs6BYtgUk=", "properties": {"ref": "https://www.tobycarvery.co.uk/restaurants/south-east/langleyslough", "@spider": "toby_carvery_gb", "amenity": "restaurant", "cuisine": "british", "addr:street_address": "399 London Road", "addr:city": "Slough", "addr:state": "Berkshire", "addr:postcode": "SL3 8PS", "addr:country": "GB", "name": "Toby Carvery Langley Slough Slough", "phone": "01753 591212", "website": "https://www.tobycarvery.co.uk/restaurants/south-east/langleyslough", "contact:twitter": "@tobycarvery", "opening_hours": "Mo-Su 08:00-22:00", "image": "https://www.tobycarvery.co.uk/content/dam/toby-carvery/images/toby_logo.png", "brand": "Toby Carvery", "brand:wikidata": "Q7811777", "nsi_id": "tobycarvery-9b5453"}, "geometry": {"type": "Point", "coordinates": [-0.547301, 51.494138]}},
{"type": "Feature", "id": "efirQ_UD6OFZpPqepYzXHBU-tYc=", "properties": {"ref": "https://www.tobycarvery.co.uk/restaurants/south-east/maidstone", "@spider": "toby_carvery_gb", "amenity": "restaurant", "cuisine": "british", "addr:street_address": "Langley Park Centre, Laight Road", "addr:city": "Maidstone", "addr:state": "Kent", "addr:postcode": "ME17 3FU", "addr:country": "GB", "name": "Toby Carvery Maidstone", "phone": "01622 397089", "website": "https://www.tobycarvery.co.uk/restaurants/south-east/maidstone", "contact:twitter": "@tobycarvery", "opening_hours": "Mo-Su 08:00-22:00", "image": "https://www.tobycarvery.co.uk/content/dam/toby-carvery/images/toby_logo.png", "brand": "Toby Carvery", "brand:wikidata": "Q7811777", "nsi_id": "tobycarvery-9b5453"}, "geometry": {"type": "Point", "coordinates": [0.568794, 51.240301]}},
{"type": "Feature", "id": "zvUIH1uWpDLk2A-jltWnh3_5HbQ=", "properties": {"ref": "https://www.tobycarvery.co.uk/restaurants/south-east/staffertonlodgemaidenhead", "@spider": "toby_carvery_gb", "amenity": "restaurant", "cuisine": "british", "addr:street_address": "Braywick Road", "addr:city": "Maidenhead", "addr:state": "Berkshire", "addr:postcode": "SL6 1BN", "addr:country": "GB", "name": "Toby Carvery Stafferton Lodge Maidenhead", "phone": "01628 776489", "website": "https://www.tobycarvery.co.uk/restaurants/south-east/staffertonlodgemaidenhead", "contact:twitter": "@tobycarvery", "opening_hours": "Mo-Su 08:00-22:00", "image": "https://www.tobycarvery.co.uk/content/dam/toby-carvery/images/toby_logo.png", "brand": "Toby Carvery", "brand:wikidata": "Q7811777", "nsi_id": "tobycarvery-9b5453"}, "geometry": {"type": "Point", "coordinates": [-0.715363, 51.511332]}},
{"type": "Feature", "id": "L_kJCu036bLhIr8boSnwH71CXrY=", "properties": {"ref": "https://www.tobycarvery.co.uk/restaurants/south-east/theparkplacemitcham", "@spider": "toby_carvery_gb", "amenity": "restaurant", "cuisine": "british", "addr:street_address": "54 Commonside West", "addr:city": "Mitcham", "addr:state": "Greater London", "addr:postcode": "CR4 4HB", "addr:country": "GB", "name": "Toby Carvery Park Place Mitcham", "phone": "020 8646 0028", "website": "https://www.tobycarvery.co.uk/restaurants/south-east/theparkplacemitcham", "contact:twitter": "@tobycarvery", "opening_hours": "Mo-Su 09:00-22:00", "image": "https://www.tobycarvery.co.uk/content/dam/toby-carvery/images/toby_logo.png", "brand": "Toby Carvery", "brand:wikidata": "Q7811777", "nsi_id": "tobycarvery-9b5453"}, "geometry": {"type": "Point", "coordinates": [-0.161104, 51.400364]}},
{"type": "Feature", "id": "dhw3aFsWMy23_PwqTZd0uu-xVNc=", "properties": {"ref": "https://www.tobycarvery.co.uk/restaurants/south-east/thehogsmilltavernworcesterpark", "@spider": "toby_carvery_gb", "amenity": "restaurant", "cuisine": "british", "addr:street_address": "Old Malden Lane", "addr:city": "Worcester Park", "addr:state": "Surrey", "addr:postcode": "KT4 7PY", "addr:country": "GB", "name": "Toby Carvery Worcester Park Worcester Park", "phone": "020 8337 5221", "website": "https://www.tobycarvery.co.uk/restaurants/south-east/thehogsmilltavernworcesterpark", "contact:twitter": "@tobycarvery", "opening_hours": "Mo-Su 08:00-22:00", "image": "https://www.tobycarvery.co.uk/content/dam/toby-carvery/images/toby_logo.png", "brand": "Toby Carvery", "brand:wikidata": "Q7811777", "nsi_id": "tobycarvery-9b5453"}, "geometry": {"type": "Point", "coordinates": [-0.263753, 51.375329]}},
{"type": "Feature", "id": "wSc04Oza2Twbub-j9-Mng1rqHqM=", "properties": {"ref": "https://www.tobycarvery.co.uk/restaurants/south-east/gravesendkent", "@spider": "toby_carvery_gb", "amenity": "restaurant", "cuisine": "british", "addr:street_address": "Coldharbour Road", "addr:city": "Gravesend", "addr:state": "Kent", "addr:postcode": "DA11 8AB", "addr:country": "GB", "name": "Toby Carvery Gravesend Kent", "phone": "01474 535286", "website": "https://www.tobycarvery.co.uk/restaurants/south-east/gravesendkent", "contact:twitter": "@tobycarvery", "opening_hours": "Mo-Fr 09:00-22:00; Sa-Su 08:00-22:00", "image": "https://www.tobycarvery.co.uk/content/dam/toby-carvery/images/toby_logo.png", "brand": "Toby Carvery", "brand:wikidata": "Q7811777", "nsi_id": "tobycarvery-9b5453"}, "geometry": {"type": "Point", "coordinates": [0.358429, 51.419008]}},
{"type": "Feature", "id": "AIRvDrBwJF8_r4j6FzTzp6FA944=", "properties": {"ref": "https://www.tobycarvery.co.uk/restaurants/south-east/badgersmountsevenoaks", "@spider": "toby_carvery_gb", "amenity": "restaurant", "cuisine": "british", "addr:street_address": "London Road", "addr:city": "Sevenoaks", "addr:state": "Kent", "addr:postcode": "TN14 7AD", "addr:country": "GB", "name": "Toby Carvery Badgers Mount Sevenoaks", "phone": "01959 534777", "website": "https://www.tobycarvery.co.uk/restaurants/south-east/badgersmountsevenoaks", "contact:twitter": "@tobycarvery", "opening_hours": "Mo-Su 11:30-22:00", "image": "https://www.tobycarvery.co.uk/content/dam/toby-carvery/images/toby_logo.png", "brand": "Toby Carvery", "brand:wikidata": "Q7811777", "nsi_id": "tobycarvery-9b5453"}, "geometry": {"type": "Point", "coordinates": [0.148353, 51.331111]}},
{"type": "Feature", "id": "EqfepwOxO4s1GQhbBZ9KH86nS9U=", "properties": {"ref": "https://www.tobycarvery.co.uk/restaurants/south-east/thanetramsgate", "@spider": "toby_carvery_gb", "amenity": "restaurant", "cuisine": "british", "addr:street_address": "New Haine Road, Ramsgate", "addr:city": "Margate", "addr:state": "Kent", "addr:postcode": "CT12 5AD", "addr:country": "GB", "name": "Toby Carvery Thanet Ramsgate", "phone": "01843 868567", "website": "https://www.tobycarvery.co.uk/restaurants/south-east/thanetramsgate", "contact:twitter": "@tobycarvery", "opening_hours": "Mo-Fr 09:00-22:00; Sa-Su 08:00-22:00", "image": "https://www.tobycarvery.co.uk/content/dam/toby-carvery/images/toby_logo.png", "brand": "Toby Carvery", "brand:wikidata": "Q7811777", "nsi_id": "tobycarvery-9b5453"}, "geometry": {"type": "Point", "coordinates": [1.388883, 51.357526]}},
{"type": "Feature", "id": "thkjIDk8KVo-yw09UAd19YkhkNM=", "properties": {"ref": "https://www.tobycarvery.co.uk/restaurants/south-east/oldwindsorberkshire", "@spider": "toby_carvery_gb", "amenity": "restaurant", "cuisine": "british", "addr:street_address": "14 Straight Road", "addr:city": "Windsor", "addr:state": "Berkshire", "addr:postcode": "SL4 2RR", "addr:country": "GB", "name": "Toby Carvery Old Windsor Berkshire", "phone": "01753 860769", "website": "https://www.tobycarvery.co.uk/restaurants/south-east/oldwindsorberkshire", "contact:twitter": "@tobycarvery", "opening_hours": "Mo-Fr 07:00-23:00; Sa-Su 08:00-23:00", "image": "https://www.tobycarvery.co.uk/content/dam/toby-carvery/images/toby_logo.png", "brand": "Toby Carvery", "brand:wikidata": "Q7811777", "nsi_id": "tobycarvery-9b5453"}, "geometry": {"type": "Point", "coordinates": [-0.584965, 51.462712]}},
{"type": "Feature", "id": "DFWf4zevtFr43T64EpAVD_ACd0k=", "properties": {"ref": "https://www.tobycarvery.co.uk/restaurants/south-east/langleygreencrawley", "@spider": "toby_carvery_gb", "amenity": "restaurant", "cuisine": "british", "addr:street_address": "Vancouver Drive", "addr:city": "Crawley", "addr:state": "West Sussex", "addr:postcode": "RH11 7UR", "addr:country": "GB", "name": "Toby Carvery Langley Green Crawley", "phone": "01293 515558", "website": "https://www.tobycarvery.co.uk/restaurants/south-east/langleygreencrawley", "contact:twitter": "@tobycarvery", "opening_hours": "Mo-Su 08:00-22:00", "image": "https://www.tobycarvery.co.uk/content/dam/toby-carvery/images/toby_logo.png", "brand": "Toby Carvery", "brand:wikidata": "Q7811777", "nsi_id": "tobycarvery-9b5453"}, "geometry": {"type": "Point", "coordinates": [-0.187585, 51.128226]}},
{"type": "Feature", "id": "7T6aYyEuPvadyeP-LbSWwVnm95A=", "properties": {"ref": "https://www.tobycarvery.co.uk/restaurants/south-east/lowerearleyreading", "@spider": "toby_carvery_gb", "amenity": "restaurant", "cuisine": "british", "addr:street_address": "Unit 2 The Square, Chalfont Way", "addr:city": "Reading", "addr:state": "Berkshire", "addr:postcode": "RG6 5HJ", "addr:country": "GB", "name": "Toby Carvery Lower Earley Reading", "phone": "0118 975 0381", "website": "https://www.tobycarvery.co.uk/restaurants/south-east/lowerearleyreading", "contact:twitter": "@tobycarvery", "opening_hours": "Mo-Th 08:00-22:00; Fr 08:00-23:00; Sa 11:30-23:00; Su 08:00-22:00", "image": "https://www.tobycarvery.co.uk/content/dam/toby-carvery/images/toby_logo.png", "brand": "Toby Carvery", "brand:wikidata": "Q7811777", "nsi_id": "tobycarvery-9b5453"}, "geometry": {"type": "Point", "coordinates": [-0.933511, 51.423068]}},
{"type": "Feature", "id": "GINF3F5Kf71JUMrQSeUfN8dF1W4=", "properties": {"ref": "https://www.tobycarvery.co.uk/restaurants/south-east/redhillsurrey", "@spider": "toby_carvery_gb", "amenity": "restaurant", "cuisine": "british", "addr:street_address": "2 Redstone Hill", "addr:city": "Redhill", "addr:state": "Surrey", "addr:postcode": "RH1 4BL", "addr:country": "GB", "name": "Toby Carvery Redhill Surrey", "phone": "01737 768434", "website": "https://www.tobycarvery.co.uk/restaurants/south-east/redhillsurrey", "contact:twitter": "@tobycarvery", "opening_hours": "Mo-Su 09:00-22:00", "image": "https://www.tobycarvery.co.uk/content/dam/toby-carvery/images/toby_logo.png", "brand": "Toby Carvery", "brand:wikidata": "Q7811777", "nsi_id": "tobycarvery-9b5453"}, "geometry": {"type": "Point", "coordinates": [-0.165484, 51.23865]}},
{"type": "Feature", "id": "eTc7dCxJgARVSUuF5ugceiiL8yk=", "properties": {"ref": "https://www.tobycarvery.co.uk/restaurants/south-east/southcroydongreaterlondon", "@spider": "toby_carvery_gb", "amenity": "restaurant", "cuisine": "british", "addr:street_address": "415 Brighton Road", "addr:city": "South Croydon", "addr:state": "Greater London", "addr:postcode": "CR2 6ES", "addr:country": "GB", "name": "Toby Carvery South Croydon Greater London", "phone": "020 8680 4559", "website": "https://www.tobycarvery.co.uk/restaurants/south-east/southcroydongreaterlondon", "contact:twitter": "@tobycarvery", "opening_hours": "Mo-Fr 11:30-22:00; Sa-Su 09:00-22:00", "image": "https://www.tobycarvery.co.uk/content/dam/toby-carvery/images/toby_logo.png", "brand": "Toby Carvery", "brand:wikidata": "Q7811777", "nsi_id": "tobycarvery-9b5453"}, "geometry": {"type": "Point", "coordinates": [-0.10017, 51.349481]}},
{"type": "Feature", "id": "PBpwbR0-CaVL4BMqSEPQ1w-IXAA=", "properties": {"ref": "https://www.tobycarvery.co.uk/restaurants/south-east/ewellepsom", "@spider": "toby_carvery_gb", "amenity": "restaurant", "cuisine": "british", "addr:street_address": "45 Cheam Road", "addr:city": "Epsom", "addr:state": "Surrey", "addr:postcode": "KT17 1QZ", "addr:country": "GB", "name": "Toby Carvery Ewell Epsom", "phone": "020 8786 8166", "website": "https://www.tobycarvery.co.uk/restaurants/south-east/ewellepsom", "contact:twitter": "@tobycarvery", "opening_hours": "Mo-Fr 11:30-22:00; Sa-Su 09:00-22:00", "image": "https://www.tobycarvery.co.uk/content/dam/toby-carvery/images/toby_logo.png", "brand": "Toby Carvery", "brand:wikidata": "Q7811777", "nsi_id": "tobycarvery-9b5453"}, "geometry": {"type": "Point", "coordinates": [-0.240699, 51.346263]}},
{"type": "Feature", "id": "eQyz5RfVMmprJU0QXtvDRPJ31NM=", "properties": {"ref": "https://www.tobycarvery.co.uk/restaurants/south-east/newburyberkshire", "@spider": "toby_carvery_gb", "amenity": "restaurant", "cuisine": "british", "addr:street_address": "110 London Road", "addr:city": "Newbury", "addr:state": "Berkshire", "addr:postcode": "RG14 2AJ", "addr:country": "GB", "name": "Toby Carvery Newbury Berkshire", "phone": "01635 45719", "website": "https://www.tobycarvery.co.uk/restaurants/south-east/newburyberkshire", "contact:twitter": "@tobycarvery", "opening_hours": "Mo-Su 08:00-22:00", "image": "https://www.tobycarvery.co.uk/content/dam/toby-carvery/images/toby_logo.png", "brand": "Toby Carvery", "brand:wikidata": "Q7811777", "nsi_id": "tobycarvery-9b5453"}, "geometry": {"type": "Point", "coordinates": [-1.316292, 51.406584]}},
{"type": "Feature", "id": "HYgHNJB7W0PSJj-2j6xexbh-xVc=", "properties": {"ref": "https://www.tobycarvery.co.uk/restaurants/south-east/frimleysurrey", "@spider": "toby_carvery_gb", "amenity": "restaurant", "cuisine": "british", "addr:street_address": "114 Portsmouth Road, Frimley", "addr:city": "Camberley", "addr:state": "Surrey", "addr:postcode": "GU15 1HS", "addr:country": "GB", "name": "Toby Carvery Frimley Surrey", "phone": "01276 691939", "website": "https://www.tobycarvery.co.uk/restaurants/south-east/frimleysurrey", "contact:twitter": "@tobycarvery", "opening_hours": "Mo-Su 08:00-22:00", "image": "https://www.tobycarvery.co.uk/content/dam/toby-carvery/images/toby_logo.png", "brand": "Toby Carvery", "brand:wikidata": "Q7811777", "nsi_id": "tobycarvery-9b5453"}, "geometry": {"type": "Point", "coordinates": [-0.733338, 51.325424]}},
{"type": "Feature", "id": "KVNJhkHp55C0n3ZMIjS9--9ytxE=", "properties": {"ref": "https://www.tobycarvery.co.uk/restaurants/south-east/thecrownbromley", "@spider": "toby_carvery_gb", "amenity": "restaurant", "cuisine": "british", "addr:street_address": "155 Bromley Common", "addr:city": "Bromley", "addr:state": "Greater London", "addr:postcode": "BR2 9RJ", "addr:country": "GB", "name": "Toby Carvery Crown Bromley Bromley", "phone": "020 8460 1472", "website": "https://www.tobycarvery.co.uk/restaurants/south-east/thecrownbromley", "contact:twitter": "@tobycarvery", "opening_hours": "Mo-Su 09:00-22:00", "image": "https://www.tobycarvery.co.uk/content/dam/toby-carvery/images/toby_logo.png", "brand": "Toby Carvery", "brand:wikidata": "Q7811777", "nsi_id": "tobycarvery-9b5453"}, "geometry": {"type": "Point", "coordinates": [0.035753, 51.389213]}},
{"type": "Feature", "id": "8h4ZQf5tYnTEOUqj8TefyAhJ38I=", "properties": {"ref": "https://www.tobycarvery.co.uk/restaurants/south-east/willingdondroveeastbourne", "@spider": "toby_carvery_gb", "amenity": "restaurant", "cuisine": "british", "addr:street_address": "Willingdon Drove", "addr:city": "Eastbourne", "addr:state": "East Sussex", "addr:postcode": "BN23 8AS", "addr:country": "GB", "name": "Toby Carvery Willingdon Drove Eastbourne", "phone": "01323 507222", "website": "https://www.tobycarvery.co.uk/restaurants/south-east/willingdondroveeastbourne", "contact:twitter": "@tobycarvery", "opening_hours": "Mo-Su 09:00-22:00", "image": "https://www.tobycarvery.co.uk/content/dam/toby-carvery/images/toby_logo.png", "brand": "Toby Carvery", "brand:wikidata": "Q7811777", "nsi_id": "tobycarvery-9b5453"}, "geometry": {"type": "Point", "coordinates": [0.290435, 50.798672]}},
{"type": "Feature", "id": "0WS3_6aewlD_2xpXax23BgMM87k=", "properties": {"ref": "https://www.tobycarvery.co.uk/restaurants/london/whitewebbshouseenfield", "@spider": "toby_carvery_gb", "amenity": "restaurant", "cuisine": "british", "addr:street_address": "Whitewebbs Lane", "addr:city": "Enfield", "addr:state": "Greater London", "addr:postcode": "EN2 9HH", "addr:country": "GB", "name": "Toby Carvery Whitewebbs House Enfield", "phone": "020 8363 0542", "website": "https://www.tobycarvery.co.uk/restaurants/london/whitewebbshouseenfield", "contact:twitter": "@tobycarvery", "opening_hours": "Mo-Tu 00:00-24:00; We-Fr 12:00-22:00; Sa-Su 09:00-22:00", "image": "https://www.tobycarvery.co.uk/content/dam/toby-carvery/images/toby_logo.png", "brand": "Toby Carvery", "brand:wikidata": "Q7811777", "nsi_id": "tobycarvery-9b5453"}, "geometry": {"type": "Point", "coordinates": [-0.079636, 51.678371]}},
{"type": "Feature", "id": "VHXsaD4YAjmqP8Iml6TMUTQ1zmE=", "properties": {"ref": "https://www.tobycarvery.co.uk/restaurants/london/thehalfwayhouseenfield", "@spider": "toby_carvery_gb", "amenity": "restaurant", "cuisine": "british", "addr:street_address": "801 Great Cambridge Road", "addr:city": "Enfield", "addr:state": "Greater London", "addr:postcode": "EN1 3PN", "addr:country": "GB", "name": "Toby Carvery Enfield Enfield", "phone": "020 8367 4290", "website": "https://www.tobycarvery.co.uk/restaurants/london/thehalfwayhouseenfield", "contact:twitter": "@tobycarvery", "opening_hours": "Mo-Su 08:00-22:00", "image": "https://www.tobycarvery.co.uk/content/dam/toby-carvery/images/toby_logo.png", "brand": "Toby Carvery", "brand:wikidata": "Q7811777", "nsi_id": "tobycarvery-9b5453"}, "geometry": {"type": "Point", "coordinates": [-0.059343, 51.65972]}},
{"type": "Feature", "id": "mYzqjZ8fKbNzklIi4jk1ca9mNgc=", "properties": {"ref": "https://www.tobycarvery.co.uk/restaurants/london/mobydickromford", "@spider": "toby_carvery_gb", "amenity": "restaurant", "cuisine": "british", "addr:street_address": "Whalebone Lane North, Chadwell Heath", "addr:city": "Romford", "addr:state": "Greater London", "addr:postcode": "RM6 6QU", "addr:country": "GB", "name": "Toby Carvery Moby Dick Romford", "phone": "020 8590 9524", "website": "https://www.tobycarvery.co.uk/restaurants/london/mobydickromford", "contact:twitter": "@tobycarvery", "opening_hours": "Mo-Th 08:00-22:00; Fr-Sa 08:00-23:00; Su 08:00-22:00", "image": "https://www.tobycarvery.co.uk/content/dam/toby-carvery/images/toby_logo.png", "brand": "Toby Carvery", "brand:wikidata": "Q7811777", "nsi_id": "tobycarvery-9b5453"}, "geometry": {"type": "Point", "coordinates": [0.140468, 51.580544]}},
{"type": "Feature", "id": "8yLsvmmQY4ldpuDk8_3_fQx9Mv0=", "properties": {"ref": "https://www.tobycarvery.co.uk/restaurants/london/romfordessex", "@spider": "toby_carvery_gb", "amenity": "restaurant", "cuisine": "british", "addr:street_address": "The Brewery Shopping Centre, Waterloo Road", "addr:city": "Romford", "addr:state": "Essex", "addr:postcode": "RM1 1AU", "addr:country": "GB", "name": "Toby Carvery Romford Essex", "phone": "01708 733476", "website": "https://www.tobycarvery.co.uk/restaurants/london/romfordessex", "contact:twitter": "@tobycarvery", "opening_hours": "Mo-Su 08:00-22:00", "image": "https://www.tobycarvery.co.uk/content/dam/toby-carvery/images/toby_logo.png", "brand": "Toby Carvery", "brand:wikidata": "Q7811777", "nsi_id": "tobycarvery-9b5453"}, "geometry": {"type": "Point", "coordinates": [0.180636, 51.575353]}},
{"type": "Feature", "id": "OkUrnRVYKvtxcSPKWfluyEIknBE=", "properties": {"ref": "https://www.tobycarvery.co.uk/restaurants/london/theuglyducklingdenham", "@spider": "toby_carvery_gb", "amenity": "restaurant", "cuisine": "british", "addr:street_address": "Oxford Road", "addr:city": "Uxbridge", "addr:state": "Buckinghamshire", "addr:postcode": "UB9 4LJ", "addr:country": "GB", "name": "Toby Carvery Denham Denham", "phone": "01895 832623", "website": "https://www.tobycarvery.co.uk/restaurants/london/theuglyducklingdenham", "contact:twitter": "@tobycarvery", "opening_hours": "Mo-Fr 11:30-22:00; Sa-Su 08:00-22:00", "image": "https://www.tobycarvery.co.uk/content/dam/toby-carvery/images/toby_logo.png", "brand": "Toby Carvery", "brand:wikidata": "Q7811777", "nsi_id": "tobycarvery-9b5453"}, "geometry": {"type": "Point", "coordinates": [-0.527904, 51.57301]}},
{"type": "Feature", "id": "klVVEX9NptmC6723VPD_Iy2yVFk=", "properties": {"ref": "https://www.tobycarvery.co.uk/restaurants/london/bexleyheathkent", "@spider": "toby_carvery_gb", "amenity": "restaurant", "cuisine": "british", "addr:street_address": "Crook Log Road", "addr:city": "Bexleyheath", "addr:state": "Greater London", "addr:postcode": "DA6 8EQ", "addr:country": "GB", "name": "Toby Carvery Bexley Heath Kent", "phone": "020 8303 3337", "website": "https://www.tobycarvery.co.uk/restaurants/london/bexleyheathkent", "contact:twitter": "@tobycarvery", "opening_hours": "Mo-Su 09:00-22:00", "image": "https://www.tobycarvery.co.uk/content/dam/toby-carvery/images/toby_logo.png", "brand": "Toby Carvery", "brand:wikidata": "Q7811777", "nsi_id": "tobycarvery-9b5453"}, "geometry": {"type": "Point", "coordinates": [0.12636, 51.459126]}},
{"type": "Feature", "id": "rB3WvC2XZPwo4AINSvDOlnePrso=", "properties": {"ref": "https://www.tobycarvery.co.uk/restaurants/london/woodfordgreenessex", "@spider": "toby_carvery_gb", "amenity": "restaurant", "cuisine": "british", "addr:street_address": "1 Southend Road", "addr:city": "Woodford Green", "addr:state": "Greater London", "addr:postcode": "IG8 8LG", "addr:country": "GB", "name": "Toby Carvery Woodford Essex", "phone": "020 8551 3848", "website": "https://www.tobycarvery.co.uk/restaurants/london/woodfordgreenessex", "contact:twitter": "@tobycarvery", "opening_hours": "Mo-Fr 11:30-22:00; Sa-Su 09:00-22:00", "image": "https://www.tobycarvery.co.uk/content/dam/toby-carvery/images/toby_logo.png", "brand": "Toby Carvery", "brand:wikidata": "Q7811777", "nsi_id": "tobycarvery-9b5453"}, "geometry": {"type": "Point", "coordinates": [0.047352, 51.591415]}},
{"type": "Feature", "id": "sm23bT4fqTdZsRE9tnEI294wLgU=", "properties": {"ref": "https://www.tobycarvery.co.uk/restaurants/london/snaresbrooklondon", "@spider": "toby_carvery_gb", "amenity": "restaurant", "cuisine": "british", "addr:street_address": "73 Hollybush Hill", "addr:city": "London", "addr:state": "Greater London", "addr:postcode": "E11 1PE", "addr:country": "GB", "name": "Toby Carvery Snaresbrook London", "phone": "020 8989 7618", "website": "https://www.tobycarvery.co.uk/restaurants/london/snaresbrooklondon", "contact:twitter": "@tobycarvery", "opening_hours": "Mo-Fr 11:30-22:00; Sa-Su 09:00-22:00", "image": "https://www.tobycarvery.co.uk/content/dam/toby-carvery/images/toby_logo.png", "brand": "Toby Carvery", "brand:wikidata": "Q7811777", "nsi_id": "tobycarvery-9b5453"}, "geometry": {"type": "Point", "coordinates": [0.020694, 51.583136]}},
{"type": "Feature", "id": "DrkMmqyJVg3qpmZNsBd9YhxWeyQ=", "properties": {"ref": "https://www.tobycarvery.co.uk/restaurants/east-of-england/basildonessex", "@spider": "toby_carvery_gb", "amenity": "restaurant", "cuisine": "british", "addr:street_address": "Unit 5, Festival Leisure Park, Festival Way", "addr:city": "Basildon", "addr:state": "Essex", "addr:postcode": "SS14 3WB", "addr:country": "GB", "name": "Toby Carvery Basildon Essex", "phone": "01268 521371", "website": "https://www.tobycarvery.co.uk/restaurants/east-of-england/basildonessex", "contact:twitter": "@tobycarvery", "opening_hours": "Mo-Su 08:00-22:00", "image": "https://www.tobycarvery.co.uk/content/dam/toby-carvery/images/toby_logo.png", "brand": "Toby Carvery", "brand:wikidata": "Q7811777", "nsi_id": "tobycarvery-9b5453"}, "geometry": {"type": "Point", "coordinates": [0.461821, 51.582605]}},
{"type": "Feature", "id": "wt1D8wi6FDf7S-vpu15erlBUOuA=", "properties": {"ref": "https://www.tobycarvery.co.uk/restaurants/east-of-england/thorpebaysouthendonsea", "@spider": "toby_carvery_gb", "amenity": "restaurant", "cuisine": "british", "addr:street_address": "213 Eastern Esplanade", "addr:city": "Southend-On-Sea", "addr:state": "Essex", "addr:postcode": "SS1 3AD", "addr:country": "GB", "name": "Halfway House Toby Carvery Southend-on-Sea", "phone": "01702 588645", "website": "https://www.tobycarvery.co.uk/restaurants/east-of-england/thorpebaysouthendonsea", "contact:twitter": "@tobycarvery", "opening_hours": "Mo-Th 08:00-22:00; Fr-Sa 08:00-23:00; Su 08:00-22:00", "image": "https://www.tobycarvery.co.uk/content/dam/toby-carvery/images/toby_logo.png", "brand": "Toby Carvery", "brand:wikidata": "Q7811777", "nsi_id": "tobycarvery-9b5453"}, "geometry": {"type": "Point", "coordinates": [0.744567, 51.530452]}},
{"type": "Feature", "id": "0m2EJG_DxTjJEkSEk6a983a6USI=", "properties": {"ref": "https://www.tobycarvery.co.uk/restaurants/east-of-england/ravenswoodipswich", "@spider": "toby_carvery_gb", "amenity": "restaurant", "cuisine": "british", "addr:street_address": "3 Edith Cook Way, Nacton Road", "addr:city": "Ipswich", "addr:state": "Suffolk", "addr:postcode": "IP3 9GX", "addr:country": "GB", "name": "Toby Carvery Ipswich Ipswich", "phone": "01473 724184", "website": "https://www.tobycarvery.co.uk/restaurants/east-of-england/ravenswoodipswich", "contact:twitter": "@tobycarvery", "opening_hours": "Mo-Su 08:00-22:00", "image": "https://www.tobycarvery.co.uk/content/dam/toby-carvery/images/toby_logo.png", "brand": "Toby Carvery", "brand:wikidata": "Q7811777", "nsi_id": "tobycarvery-9b5453"}, "geometry": {"type": "Point", "coordinates": [1.201818, 52.029301]}},
{"type": "Feature", "id": "-WHMNC_w4IgOoDkDEclqguzId_s=", "properties": {"ref": "https://www.tobycarvery.co.uk/restaurants/east-of-england/peterboroughhampton", "@spider": "toby_carvery_gb", "amenity": "restaurant", "cuisine": "british", "addr:street_address": "Ashbourne Road, Hampton", "addr:city": "Peterborough", "addr:state": "Cambridgeshire", "addr:postcode": "PE7 8BT", "addr:country": "GB", "name": "Toby Carvery Peterborough Hampton", "phone": "01733 565392", "website": "https://www.tobycarvery.co.uk/restaurants/east-of-england/peterboroughhampton", "contact:twitter": "@tobycarvery", "opening_hours": "Mo-Su 08:00-21:00", "image": "https://www.tobycarvery.co.uk/content/dam/toby-carvery/images/toby_logo.png", "brand": "Toby Carvery", "brand:wikidata": "Q7811777", "nsi_id": "tobycarvery-9b5453"}, "geometry": {"type": "Point", "coordinates": [-0.256017, 52.539473]}},
{"type": "Feature", "id": "dWiwO8qU5DTswf3opzdUFJk-AhE=", "properties": {"ref": "https://www.tobycarvery.co.uk/restaurants/east-of-england/hemelhempsteadhertfordshire", "@spider": "toby_carvery_gb", "amenity": "restaurant", "cuisine": "british", "addr:street_address": "Kier Park, Maylands Avenue", "addr:city": "Hemel Hempstead", "addr:state": "Hertfordshire", "addr:postcode": "HP2 4SQ", "addr:country": "GB", "name": "Toby Carvery Hemel Hempstead Hertfordshire", "phone": "01442 214125", "website": "https://www.tobycarvery.co.uk/restaurants/east-of-england/hemelhempsteadhertfordshire", "contact:twitter": "@tobycarvery", "opening_hours": "Mo-Su 08:00-21:00", "image": "https://www.tobycarvery.co.uk/content/dam/toby-carvery/images/toby_logo.png", "brand": "Toby Carvery", "brand:wikidata": "Q7811777", "nsi_id": "tobycarvery-9b5453"}, "geometry": {"type": "Point", "coordinates": [-0.437208, 51.753677]}},
{"type": "Feature", "id": "_Ql156MPF_oWfJDUXrcQbxpxCF0=", "properties": {"ref": "https://www.tobycarvery.co.uk/restaurants/east-of-england/thewhitehartcolchester", "@spider": "toby_carvery_gb", "amenity": "restaurant", "cuisine": "british", "addr:street_address": "342 London Road, Stanway", "addr:city": "Colchester", "addr:state": "Essex", "addr:postcode": "CO3 8LT", "addr:country": "GB", "name": "White Hart Toby Carvery Colchester", "phone": "01206 213411", "website": "https://www.tobycarvery.co.uk/restaurants/east-of-england/thewhitehartcolchester", "contact:twitter": "@tobycarvery", "opening_hours": "Mo-Su 08:00-22:00", "image": "https://www.tobycarvery.co.uk/content/dam/toby-carvery/images/toby_logo.png", "brand": "Toby Carvery", "brand:wikidata": "Q7811777", "nsi_id": "tobycarvery-9b5453"}, "geometry": {"type": "Point", "coordinates": [0.814143, 51.883403]}},
{"type": "Feature", "id": "aXtgYpQoJCnp9WjC8Gtx4GHSafc=", "properties": {"ref": "https://www.tobycarvery.co.uk/restaurants/east-of-england/clactononseaessex", "@spider": "toby_carvery_gb", "amenity": "restaurant", "cuisine": "british", "addr:street_address": "Marine Parade West, Martello Bay", "addr:city": "Clacton-On-Sea", "addr:state": "Essex", "addr:postcode": "CO15 1NW", "addr:country": "GB", "name": "Toby Carvery Clacton On Sea Clacton on Sea", "phone": "01255 425739", "website": "https://www.tobycarvery.co.uk/restaurants/east-of-england/clactononseaessex", "contact:twitter": "@tobycarvery", "opening_hours": "Mo-Su 09:00-22:00", "image": "https://www.tobycarvery.co.uk/content/dam/toby-carvery/images/toby_logo.png", "brand": "Toby Carvery", "brand:wikidata": "Q7811777", "nsi_id": "tobycarvery-9b5453"}, "geometry": {"type": "Point", "coordinates": [1.143382, 51.781951]}},
{"type": "Feature", "id": "FidOFR8oUi7nyQhM2NdIziZCXOU=", "properties": {"ref": "https://www.tobycarvery.co.uk/restaurants/east-of-england/braintreeessex", "@spider": "toby_carvery_gb", "amenity": "restaurant", "cuisine": "british", "addr:street_address": "Notley Cross", "addr:city": "Braintree", "addr:state": "Essex", "addr:postcode": "CM77 7AJ", "addr:country": "GB", "name": "Toby Carvery Braintree Braintree", "phone": "01376 345800", "website": "https://www.tobycarvery.co.uk/restaurants/east-of-england/braintreeessex", "contact:twitter": "@tobycarvery", "opening_hours": "Mo-Su 08:00-22:00", "image": "https://www.tobycarvery.co.uk/content/dam/toby-carvery/images/toby_logo.png", "brand": "Toby Carvery", "brand:wikidata": "Q7811777", "nsi_id": "tobycarvery-9b5453"}, "geometry": {"type": "Point", "coordinates": [0.538176, 51.868]}},
{"type": "Feature", "id": "2ARO2gCjLZ7jV4zDxYUESaCWB_E=", "properties": {"ref": "https://www.tobycarvery.co.uk/restaurants/east-of-england/theoldforgestevenage", "@spider": "toby_carvery_gb", "amenity": "restaurant", "cuisine": "british", "addr:street_address": "London Road", "addr:city": "Stevenage", "addr:state": "Hertfordshire", "addr:postcode": "SG2 8DT", "addr:country": "GB", "name": "Toby Carvery Old Forge Stevenage", "phone": "01438 351854", "website": "https://www.tobycarvery.co.uk/restaurants/east-of-england/theoldforgestevenage", "contact:twitter": "@tobycarvery", "opening_hours": "Mo-Su 08:00-22:00", "image": "https://www.tobycarvery.co.uk/content/dam/toby-carvery/images/toby_logo.png", "brand": "Toby Carvery", "brand:wikidata": "Q7811777", "nsi_id": "tobycarvery-9b5453"}, "geometry": {"type": "Point", "coordinates": [-0.192219, 51.883878]}},
{"type": "Feature", "id": "vM7gCYnbO9JnGnxso7om6zbxltQ=", "properties": {"ref": "https://www.tobycarvery.co.uk/restaurants/east-of-england/thechelmertavernchelmsford", "@spider": "toby_carvery_gb", "amenity": "restaurant", "cuisine": "british", "addr:street_address": "Dukes Lane", "addr:city": "Chelmsford", "addr:state": "Essex", "addr:postcode": "CM2 6AD", "addr:country": "GB", "name": "Toby Carvery Chelmsford Chelmsford", "phone": "01245 450695", "website": "https://www.tobycarvery.co.uk/restaurants/east-of-england/thechelmertavernchelmsford", "contact:twitter": "@tobycarvery", "opening_hours": "Mo-Su 08:00-22:00", "image": "https://www.tobycarvery.co.uk/content/dam/toby-carvery/images/toby_logo.png", "brand": "Toby Carvery", "brand:wikidata": "Q7811777", "nsi_id": "tobycarvery-9b5453"}, "geometry": {"type": "Point", "coordinates": [0.49891, 51.740059]}},
{"type": "Feature", "id": "2tUbhQUgTQnq2HBLU5rdfwAIeuk=", "properties": {"ref": "https://www.tobycarvery.co.uk/restaurants/east-of-england/thecaptainmanbygorleston", "@spider": "toby_carvery_gb", "amenity": "restaurant", "cuisine": "british", "addr:street_address": "Sidegate Road, Gorleston", "addr:city": "Great Yarmouth", "addr:state": "Norfolk", "addr:postcode": "NR31 7RA", "addr:country": "GB", "name": "Toby Carvery Captain Manby Gorleston", "phone": "01493 653686", "website": "https://www.tobycarvery.co.uk/restaurants/east-of-england/thecaptainmanbygorleston", "contact:twitter": "@tobycarvery", "opening_hours": "Mo-Su 09:00-22:00", "image": "https://www.tobycarvery.co.uk/content/dam/toby-carvery/images/toby_logo.png", "brand": "Toby Carvery", "brand:wikidata": "Q7811777", "nsi_id": "tobycarvery-9b5453"}, "geometry": {"type": "Point", "coordinates": [1.715772, 52.556246]}},
{"type": "Feature", "id": "fJg1X5-qGdXaErjJcuNQN0W_w1E=", "properties": {"ref": "https://www.tobycarvery.co.uk/restaurants/east-of-england/harlowessex", "@spider": "toby_carvery_gb", "amenity": "restaurant", "cuisine": "british", "addr:street_address": "Edinburgh Gate", "addr:city": "Harlow", "addr:state": "Essex", "addr:postcode": "CM20 2LQ", "addr:country": "GB", "name": "Toby Carvery Harlow Essex", "phone": "01279 442151", "website": "https://www.tobycarvery.co.uk/restaurants/east-of-england/harlowessex", "contact:twitter": "@tobycarvery", "opening_hours": "Mo-Th 08:00-22:00; Fr-Sa 08:00-23:00; Su 08:00-22:00", "image": "https://www.tobycarvery.co.uk/content/dam/toby-carvery/images/toby_logo.png", "brand": "Toby Carvery", "brand:wikidata": "Q7811777", "nsi_id": "tobycarvery-9b5453"}, "geometry": {"type": "Point", "coordinates": [0.09727, 51.780307]}},
{"type": "Feature", "id": "lAhITEdR1CitZ4AOGzVs6B87cTg=", "properties": {"ref": "https://www.tobycarvery.co.uk/restaurants/east-of-england/goldingtonbedford", "@spider": "toby_carvery_gb", "amenity": "restaurant", "cuisine": "british", "addr:street_address": "403 Goldington Road", "addr:city": "Bedford", "addr:state": "Bedfordshire", "addr:postcode": "MK41 0DS", "addr:country": "GB", "name": "Toby Carvery Goldington Bedford", "phone": "01234 272707", "website": "https://www.tobycarvery.co.uk/restaurants/east-of-england/goldingtonbedford", "contact:twitter": "@tobycarvery", "opening_hours": "Mo-Su 08:00-22:00", "image": "https://www.tobycarvery.co.uk/content/dam/toby-carvery/images/toby_logo.png", "brand": "Toby Carvery", "brand:wikidata": "Q7811777", "nsi_id": "tobycarvery-9b5453"}, "geometry": {"type": "Point", "coordinates": [-0.426622, 52.143068]}},
{"type": "Feature", "id": "lr9g4Zuvro1bfFBpMuHqquFqqoI=", "properties": {"ref": "https://www.tobycarvery.co.uk/restaurants/east-of-england/aldenhamwatford", "@spider": "toby_carvery_gb", "amenity": "restaurant", "cuisine": "british", "addr:street_address": "3 Hartspring Lane", "addr:city": "Watford", "addr:state": "Hertfordshire", "addr:postcode": "WD25 8AD", "addr:country": "GB", "name": "Toby Carvery Aldenham Watford", "phone": "01923 225826", "website": "https://www.tobycarvery.co.uk/restaurants/east-of-england/aldenhamwatford", "contact:twitter": "@tobycarvery", "opening_hours": "Mo-Su 08:00-22:00", "image": "https://www.tobycarvery.co.uk/content/dam/toby-carvery/images/toby_logo.png", "brand": "Toby Carvery", "brand:wikidata": "Q7811777", "nsi_id": "tobycarvery-9b5453"}, "geometry": {"type": "Point", "coordinates": [-0.361576, 51.666043]}},
{"type": "Feature", "id": "8zCkM6IS9OdMjLuVBjEMPWFJCDM=", "properties": {"ref": "https://www.tobycarvery.co.uk/restaurants/east-of-england/southendessex", "@spider": "toby_carvery_gb", "amenity": "restaurant", "cuisine": "british", "addr:street_address": "Prince Avenue", "addr:city": "Southend-On-Sea", "addr:state": "Essex", "addr:postcode": "SS2 6RL", "addr:country": "GB", "name": "Toby Carvery Southend (A127) Essex", "phone": "01702 436168", "website": "https://www.tobycarvery.co.uk/restaurants/east-of-england/southendessex", "contact:twitter": "@tobycarvery", "opening_hours": "Mo-Su 08:00-22:00", "image": "https://www.tobycarvery.co.uk/content/dam/toby-carvery/images/toby_logo.png", "brand": "Toby Carvery", "brand:wikidata": "Q7811777", "nsi_id": "tobycarvery-9b5453"}, "geometry": {"type": "Point", "coordinates": [0.696262, 51.558761]}},
{"type": "Feature", "id": "BCEbAMk46Exf4R7-BsMWgq-81TQ=", "properties": {"ref": "https://www.tobycarvery.co.uk/restaurants/east-of-england/theoaklandsborehamwood", "@spider": "toby_carvery_gb", "amenity": "restaurant", "cuisine": "british", "addr:street_address": "Studio Way", "addr:city": "Borehamwood", "addr:state": "Hertfordshire", "addr:postcode": "WD6 5JY", "addr:country": "GB", "name": "Toby Carvery Oaklands Borehamwood", "phone": "020 8905 1455", "website": "https://www.tobycarvery.co.uk/restaurants/east-of-england/theoaklandsborehamwood", "contact:twitter": "@tobycarvery", "opening_hours": "Mo-Th 08:00-21:00; Fr-Su 08:00-22:00", "image": "https://www.tobycarvery.co.uk/content/dam/toby-carvery/images/toby_logo.png", "brand": "Toby Carvery", "brand:wikidata": "Q7811777", "nsi_id": "tobycarvery-9b5453"}, "geometry": {"type": "Point", "coordinates": [-0.262048, 51.66294]}},
{"type": "Feature", "id": "KV_qC0dGVyjArDXMd3oMFIFyErM=", "properties": {"ref": "https://www.tobycarvery.co.uk/restaurants/east-of-england/runwellessex", "@spider": "toby_carvery_gb", "amenity": "restaurant", "cuisine": "british", "addr:street_address": "Runwell Road", "addr:city": "Wickford", "addr:state": "Essex", "addr:postcode": "SS11 7QJ", "addr:country": "GB", "name": "Toby Carvery Runwell Runwell Village", "phone": "01268 769671", "website": "https://www.tobycarvery.co.uk/restaurants/east-of-england/runwellessex", "contact:twitter": "@tobycarvery", "opening_hours": "Mo-Su 09:00-22:00", "image": "https://www.tobycarvery.co.uk/content/dam/toby-carvery/images/toby_logo.png", "brand": "Toby Carvery", "brand:wikidata": "Q7811777", "nsi_id": "tobycarvery-9b5453"}, "geometry": {"type": "Point", "coordinates": [0.552425, 51.626463]}},
{"type": "Feature", "id": "cDJp6je2BkLLmZf0EuXZL1c9-jA=", "properties": {"ref": "https://www.tobycarvery.co.uk/restaurants/east-of-england/brentwoodessex", "@spider": "toby_carvery_gb", "amenity": "restaurant", "cuisine": "british", "addr:street_address": "Shenfield Common, Ingrave Road", "addr:city": "Brentwood", "addr:state": "Essex", "addr:postcode": "CM15 8DZ", "addr:country": "GB", "name": "The Artichoke Toby Carvery Essex", "phone": "01277 210401", "website": "https://www.tobycarvery.co.uk/restaurants/east-of-england/brentwoodessex", "contact:twitter": "@tobycarvery", "opening_hours": "Mo-Su 08:00-22:00", "image": "https://www.tobycarvery.co.uk/content/dam/toby-carvery/images/toby_logo.png", "brand": "Toby Carvery", "brand:wikidata": "Q7811777", "nsi_id": "tobycarvery-9b5453"}, "geometry": {"type": "Point", "coordinates": [0.308635, 51.618805]}},
{"type": "Feature", "id": "ktBvRVA3uiQULuaytQL_WPhS7bk=", "properties": {"ref": "https://www.tobycarvery.co.uk/restaurants/east-of-england/buckhursthillessex", "@spider": "toby_carvery_gb", "amenity": "restaurant", "cuisine": "british", "addr:street_address": "High Road", "addr:city": "Buckhurst Hill", "addr:state": "Essex", "addr:postcode": "IG9 5HT", "addr:country": "GB", "name": "Toby Carvery Buckhurst Hill Essex", "phone": "020 8559 0909", "website": "https://www.tobycarvery.co.uk/restaurants/east-of-england/buckhursthillessex", "contact:twitter": "@tobycarvery", "opening_hours": "Mo-Su 08:00-22:30", "image": "https://www.tobycarvery.co.uk/content/dam/toby-carvery/images/toby_logo.png", "brand": "Toby Carvery", "brand:wikidata": "Q7811777", "nsi_id": "tobycarvery-9b5453"}, "geometry": {"type": "Point", "coordinates": [0.032479, 51.62563]}},
{"type": "Feature", "id": "vYr2HDYwb2mWTsvAKJydsW0VsQM=", "properties": {"ref": "https://www.tobycarvery.co.uk/restaurants/midlands/castlebromwichbirmingham", "@spider": "toby_carvery_gb", "amenity": "restaurant", "cuisine": "british", "addr:street_address": "Chester Road, Castle Bromwich", "addr:city": "Birmingham", "addr:state": "West Midlands", "addr:postcode": "B36 0AG", "addr:country": "GB", "name": "Toby Carvery Castle Bromwich Birmingham", "phone": "0121 748 7675", "website": "https://www.tobycarvery.co.uk/restaurants/midlands/castlebromwichbirmingham", "contact:twitter": "@tobycarvery", "opening_hours": "Mo-Sa 08:00-23:00; Su 08:00-22:30", "image": "https://www.tobycarvery.co.uk/content/dam/toby-carvery/images/toby_logo.png", "brand": "Toby Carvery", "brand:wikidata": "Q7811777", "nsi_id": "tobycarvery-9b5453"}, "geometry": {"type": "Point", "coordinates": [-1.77473, 52.502796]}},
{"type": "Feature", "id": "DcyA3FZeGsp4HWo8GB-efIQOVjI=", "properties": {"ref": "https://www.tobycarvery.co.uk/restaurants/midlands/festivalparkstokeontrent", "@spider": "toby_carvery_gb", "amenity": "restaurant", "cuisine": "british", "addr:street_address": "National Festival Park, Marina Way", "addr:city": "Stoke On Trent", "addr:state": "Staffordshire", "addr:postcode": "ST1 5PA", "addr:country": "GB", "name": "Toby Carvery Festival Park Stoke-on-Trent", "phone": "01782 260199", "website": "https://www.tobycarvery.co.uk/restaurants/midlands/festivalparkstokeontrent", "contact:twitter": "@tobycarvery", "opening_hours": "Mo-Su 08:00-22:00", "image": "https://www.tobycarvery.co.uk/content/dam/toby-carvery/images/toby_logo.png", "brand": "Toby Carvery", "brand:wikidata": "Q7811777", "nsi_id": "tobycarvery-9b5453"}, "geometry": {"type": "Point", "coordinates": [-2.196603, 53.024206]}},
{"type": "Feature", "id": "WPFu7aKCUkcuxBYXKMxumR5xJH0=", "properties": {"ref": "https://www.tobycarvery.co.uk/restaurants/midlands/lincolnlincolnshire", "@spider": "toby_carvery_gb", "amenity": "restaurant", "cuisine": "british", "addr:street_address": "11 St Marks Street, St Marks Square", "addr:city": "Lincoln", "addr:state": "Lincolnshire", "addr:postcode": "LN5 7BD", "addr:country": "GB", "name": "Toby Carvery Lincoln Lincolnshire", "phone": "01522 536205", "website": "https://www.tobycarvery.co.uk/restaurants/midlands/lincolnlincolnshire", "contact:twitter": "@tobycarvery", "opening_hours": "Mo-Su 08:00-21:00", "image": "https://www.tobycarvery.co.uk/content/dam/toby-carvery/images/toby_logo.png", "brand": "Toby Carvery", "brand:wikidata": "Q7811777", "nsi_id": "tobycarvery-9b5453"}, "geometry": {"type": "Point", "coordinates": [-0.544703, 53.225767]}},
{"type": "Feature", "id": "hqLWsxaeCCqZa_nOxYCXUk8_c7g=", "properties": {"ref": "https://www.tobycarvery.co.uk/restaurants/midlands/thewatermillmansfield", "@spider": "toby_carvery_gb", "amenity": "restaurant", "cuisine": "british", "addr:street_address": "Coxmoor Road, Sutton-in-Ashfield", "addr:city": "Nottingham", "addr:state": "Nottinghamshire", "addr:postcode": "NG17 4NE", "addr:country": "GB", "name": "Toby Carvery Watermill Sutton-in-Ashfield", "phone": "01623 516413", "website": "https://www.tobycarvery.co.uk/restaurants/midlands/thewatermillmansfield", "contact:twitter": "@tobycarvery", "opening_hours": "Mo-Su 08:00-22:00", "image": "https://www.tobycarvery.co.uk/content/dam/toby-carvery/images/toby_logo.png", "brand": "Toby Carvery", "brand:wikidata": "Q7811777", "nsi_id": "tobycarvery-9b5453"}, "geometry": {"type": "Point", "coordinates": [-1.239895, 53.126127]}},
{"type": "Feature", "id": "ogphEtALkA42gy6gO_cHH3z2ATc=", "properties": {"ref": "https://www.tobycarvery.co.uk/restaurants/midlands/burtonupontrentstaffordshire", "@spider": "toby_carvery_gb", "amenity": "restaurant", "cuisine": "british", "addr:street_address": "Centrum East, Ninth Avenue", "addr:city": "Burton-Upon-Trent", "addr:state": "Staffordshire", "addr:postcode": "DE14 2WN", "addr:country": "GB", "name": "Toby Carvery Burton Staffordshire", "phone": "01283 561732", "website": "https://www.tobycarvery.co.uk/restaurants/midlands/burtonupontrentstaffordshire", "contact:twitter": "@tobycarvery", "opening_hours": "Mo-Su 08:00-21:00", "image": "https://www.tobycarvery.co.uk/content/dam/toby-carvery/images/toby_logo.png", "brand": "Toby Carvery", "brand:wikidata": "Q7811777", "nsi_id": "tobycarvery-9b5453"}, "geometry": {"type": "Point", "coordinates": [-1.670014, 52.791441]}},
{"type": "Feature", "id": "VOL9Yy1J7fqKfOOQzDiDuwriRPo=", "properties": {"ref": "https://www.tobycarvery.co.uk/restaurants/midlands/colwickparknottingham", "@spider": "toby_carvery_gb", "amenity": "restaurant", "cuisine": "british", "addr:street_address": "Daleside Road East", "addr:city": "Nottingham", "addr:state": "Nottinghamshire", "addr:postcode": "NG2 4BP", "addr:country": "GB", "name": "Toby Carvery Colwick Park Nottingham", "phone": "0115 940 1313", "website": "https://www.tobycarvery.co.uk/restaurants/midlands/colwickparknottingham", "contact:twitter": "@tobycarvery", "opening_hours": "Mo-We 11:30-22:00; Th-Su 08:00-22:00", "image": "https://www.tobycarvery.co.uk/content/dam/toby-carvery/images/toby_logo.png", "brand": "Toby Carvery", "brand:wikidata": "Q7811777", "nsi_id": "tobycarvery-9b5453"}, "geometry": {"type": "Point", "coordinates": [-1.095229, 52.955213]}},
{"type": "Feature", "id": "jyAkMR7t0_TaX4VkTzqTagbwmY8=", "properties": {"ref": "https://www.tobycarvery.co.uk/restaurants/midlands/sheldonbirmingham", "@spider": "toby_carvery_gb", "amenity": "restaurant", "cuisine": "british", "addr:street_address": "2225 Coventry Road", "addr:city": "Birmingham", "addr:state": "West Midlands", "addr:postcode": "B26 3EH", "addr:country": "GB", "name": "Toby Carvery Sheldon Birmingham", "phone": "0121 742 6201", "website": "https://www.tobycarvery.co.uk/restaurants/midlands/sheldonbirmingham", "contact:twitter": "@tobycarvery", "opening_hours": "Mo-Su 08:00-23:00", "image": "https://www.tobycarvery.co.uk/content/dam/toby-carvery/images/toby_logo.png", "brand": "Toby Carvery", "brand:wikidata": "Q7811777", "nsi_id": "tobycarvery-9b5453"}, "geometry": {"type": "Point", "coordinates": [-1.782629, 52.451521]}},
{"type": "Feature", "id": "2I0w5d_YCCtTqBv1JXIQhielhvo=", "properties": {"ref": "https://www.tobycarvery.co.uk/restaurants/midlands/nortoncanescannock", "@spider": "toby_carvery_gb", "amenity": "restaurant", "cuisine": "british", "addr:street_address": "Watling Street", "addr:city": "Cannock", "addr:state": "Staffordshire", "addr:postcode": "WS11 9ND", "addr:country": "GB", "name": "Toby Carvery Norton Canes Cannock", "phone": "01543 373292", "website": "https://www.tobycarvery.co.uk/restaurants/midlands/nortoncanescannock", "contact:twitter": "@tobycarvery", "opening_hours": "Mo-Su 08:00-22:00", "image": "https://www.tobycarvery.co.uk/content/dam/toby-carvery/images/toby_logo.png", "brand": "Toby Carvery", "brand:wikidata": "Q7811777", "nsi_id": "tobycarvery-9b5453"}, "geometry": {"type": "Point", "coordinates": [-1.97368, 52.660988]}},
{"type": "Feature", "id": "6E6LnYNIAJ0cxgl8r0VanjMMYVs=", "properties": {"ref": "https://www.tobycarvery.co.uk/restaurants/midlands/streetlysuttoncoldfield", "@spider": "toby_carvery_gb", "amenity": "restaurant", "cuisine": "british", "addr:street_address": "Chester Road North", "addr:city": "Sutton Coldfield", "addr:state": "West Midlands", "addr:postcode": "B73 6SP", "addr:country": "GB", "name": "Toby Carvery Streetly Sutton Coldfield", "phone": "0121 353 7785", "website": "https://www.tobycarvery.co.uk/restaurants/midlands/streetlysuttoncoldfield", "contact:twitter": "@tobycarvery", "opening_hours": "Mo-Sa 08:00-23:00; Su 08:00-22:30", "image": "https://www.tobycarvery.co.uk/content/dam/toby-carvery/images/toby_logo.png", "brand": "Toby Carvery", "brand:wikidata": "Q7811777", "nsi_id": "tobycarvery-9b5453"}, "geometry": {"type": "Point", "coordinates": [-1.878993, 52.565564]}},
{"type": "Feature", "id": "1e8csibNTGE3YTOLelesZPobnco=", "properties": {"ref": "https://www.tobycarvery.co.uk/restaurants/midlands/chaddesdenderby", "@spider": "toby_carvery_gb", "amenity": "restaurant", "cuisine": "british", "addr:street_address": "Nottingham Road", "addr:city": "Derby", "addr:state": "Derbyshire", "addr:postcode": "DE21 6LZ", "addr:country": "GB", "name": "Toby Carvery Chaddesden Derby", "phone": "01332 662504", "website": "https://www.tobycarvery.co.uk/restaurants/midlands/chaddesdenderby", "contact:twitter": "@tobycarvery", "opening_hours": "Mo-Th 08:00-23:00; Fr-Sa 08:00-24:00; Su 08:00-23:00", "image": "https://www.tobycarvery.co.uk/content/dam/toby-carvery/images/toby_logo.png", "brand": "Toby Carvery", "brand:wikidata": "Q7811777", "nsi_id": "tobycarvery-9b5453"}, "geometry": {"type": "Point", "coordinates": [-1.437733, 52.924182]}},
{"type": "Feature", "id": "YgykRSioVsax7nRt70QSQBeNhto=", "properties": {"ref": "https://www.tobycarvery.co.uk/restaurants/midlands/worcesterworcestershire", "@spider": "toby_carvery_gb", "amenity": "restaurant", "cuisine": "british", "addr:street_address": "Bath Road", "addr:city": "Worcester", "addr:state": "Worcestershire", "addr:postcode": "WR5 3HW", "addr:country": "GB", "name": "Toby Carvery Worcester West Worcestershire", "phone": "01905 821894", "website": "https://www.tobycarvery.co.uk/restaurants/midlands/worcesterworcestershire", "contact:twitter": "@tobycarvery", "opening_hours": "Mo-Su 09:00-22:00", "image": "https://www.tobycarvery.co.uk/content/dam/toby-carvery/images/toby_logo.png", "brand": "Toby Carvery", "brand:wikidata": "Q7811777", "nsi_id": "tobycarvery-9b5453"}, "geometry": {"type": "Point", "coordinates": [-2.217046, 52.164269]}},
{"type": "Feature", "id": "93YLYTjM2pt2y9N5KSsGGM2ycMs=", "properties": {"ref": "https://www.tobycarvery.co.uk/restaurants/midlands/telfordshropshire", "@spider": "toby_carvery_gb", "amenity": "restaurant", "cuisine": "british", "addr:street_address": "Shawbirch Cross Roads", "addr:city": "Telford", "addr:state": "Shropshire", "addr:postcode": "TF1 3QA", "addr:country": "GB", "name": "Toby Carvery Telford Shropshire", "phone": "01952 222828", "website": "https://www.tobycarvery.co.uk/restaurants/midlands/telfordshropshire", "contact:twitter": "@tobycarvery", "opening_hours": "Mo-Su 09:00-21:00", "image": "https://www.tobycarvery.co.uk/content/dam/toby-carvery/images/toby_logo.png", "brand": "Toby Carvery", "brand:wikidata": "Q7811777", "nsi_id": "tobycarvery-9b5453"}, "geometry": {"type": "Point", "coordinates": [-2.524509, 52.717078]}},
{"type": "Feature", "id": "lLf_GpkF7IlXLpojV1aKotMJm0U=", "properties": {"ref": "https://www.tobycarvery.co.uk/restaurants/midlands/easthunsburynorthampton", "@spider": "toby_carvery_gb", "amenity": "restaurant", "cuisine": "british", "addr:street_address": "London Road", "addr:city": "Northampton", "addr:state": "Northamptonshire", "addr:postcode": "NN4 0TG", "addr:country": "GB", "name": "Toby Carvery East Hunsbury Northampton", "phone": "01604 769676", "website": "https://www.tobycarvery.co.uk/restaurants/midlands/easthunsburynorthampton", "contact:twitter": "@tobycarvery", "opening_hours": "Mo-Th 11:30-22:00; Fr-Su 08:00-22:00", "image": "https://www.tobycarvery.co.uk/content/dam/toby-carvery/images/toby_logo.png", "brand": "Toby Carvery", "brand:wikidata": "Q7811777", "nsi_id": "tobycarvery-9b5453"}, "geometry": {"type": "Point", "coordinates": [-0.893492, 52.200413]}},
{"type": "Feature", "id": "Ftp9klaDR-zl15I3Xi13TtvMoRg=", "properties": {"ref": "https://www.tobycarvery.co.uk/restaurants/midlands/loughboroughleicestershire", "@spider": "toby_carvery_gb", "amenity": "restaurant", "cuisine": "british", "addr:street_address": "Forest Road", "addr:city": "Loughborough", "addr:state": "Leicestershire", "addr:postcode": "LE11 3HU", "addr:country": "GB", "name": "Toby Carvery Loughborough Leicestershire", "phone": "01509 214624", "website": "https://www.tobycarvery.co.uk/restaurants/midlands/loughboroughleicestershire", "contact:twitter": "@tobycarvery", "opening_hours": "Mo-Su 08:00-22:00", "image": "https://www.tobycarvery.co.uk/content/dam/toby-carvery/images/toby_logo.png", "brand": "Toby Carvery", "brand:wikidata": "Q7811777", "nsi_id": "tobycarvery-9b5453"}, "geometry": {"type": "Point", "coordinates": [-1.22186, 52.762667]}},
{"type": "Feature", "id": "qVsV-GFvSdoGBpoJg2q4GdEGHtc=", "properties": {"ref": "https://www.tobycarvery.co.uk/restaurants/midlands/trenthamvillagestokeontrent", "@spider": "toby_carvery_gb", "amenity": "restaurant", "cuisine": "british", "addr:street_address": "206 Longton Road", "addr:city": "Stoke On Trent", "addr:state": "Staffordshire", "addr:postcode": "ST4 8BU", "addr:country": "GB", "name": "Toby Carvery Trentham Village Stoke-on-Trent", "phone": "01782 644448", "website": "https://www.tobycarvery.co.uk/restaurants/midlands/trenthamvillagestokeontrent", "contact:twitter": "@tobycarvery", "opening_hours": "Mo-Th 07:00-23:00; Fr-Sa 07:00-24:00; Su 07:00-23:00", "image": "https://www.tobycarvery.co.uk/content/dam/toby-carvery/images/toby_logo.png", "brand": "Toby Carvery", "brand:wikidata": "Q7811777", "nsi_id": "tobycarvery-9b5453"}, "geometry": {"type": "Point", "coordinates": [-2.181298, 52.96544]}},
{"type": "Feature", "id": "iQmq8A3OmJBYgFkzIyz0BdBqZ8A=", "properties": {"ref": "https://www.tobycarvery.co.uk/restaurants/midlands/shenstonelichfield", "@spider": "toby_carvery_gb", "amenity": "restaurant", "cuisine": "british", "addr:street_address": "Birmingham Road", "addr:city": "Lichfield", "addr:state": "Staffordshire", "addr:postcode": "WS14 0PA", "addr:country": "GB", "name": "Toby Carvery Shenstone Lichfield", "phone": "01543 480130", "website": "https://www.tobycarvery.co.uk/restaurants/midlands/shenstonelichfield", "contact:twitter": "@tobycarvery", "opening_hours": "Mo-Su 09:00-22:00", "image": "https://www.tobycarvery.co.uk/content/dam/toby-carvery/images/toby_logo.png", "brand": "Toby Carvery", "brand:wikidata": "Q7811777", "nsi_id": "tobycarvery-9b5453"}, "geometry": {"type": "Point", "coordinates": [-1.837603, 52.611579]}},
{"type": "Feature", "id": "gl0jOmJzuPysDD3oJDro78dori8=", "properties": {"ref": "https://www.tobycarvery.co.uk/restaurants/midlands/kingsnortonbirmingham", "@spider": "toby_carvery_gb", "amenity": "restaurant", "cuisine": "british", "addr:street_address": "Pershore Road South", "addr:city": "Birmingham", "addr:state": "West Midlands", "addr:postcode": "B30 3JX", "addr:country": "GB", "name": "Toby Carvery Kings Norton Birmingham", "phone": "0121 433 3573", "website": "https://www.tobycarvery.co.uk/restaurants/midlands/kingsnortonbirmingham", "contact:twitter": "@tobycarvery", "opening_hours": "Mo-Su 08:00-22:00", "image": "https://www.tobycarvery.co.uk/content/dam/toby-carvery/images/toby_logo.png", "brand": "Toby Carvery", "brand:wikidata": "Q7811777", "nsi_id": "tobycarvery-9b5453"}, "geometry": {"type": "Point", "coordinates": [-1.930943, 52.412099]}},
{"type": "Feature", "id": "LbDRi2qefY3jcZH9gF9bdP4iWGQ=", "properties": {"ref": "https://www.tobycarvery.co.uk/restaurants/midlands/endonstokeontrent", "@spider": "toby_carvery_gb", "amenity": "restaurant", "cuisine": "british", "addr:street_address": "Leek Road", "addr:city": "Stoke On Trent", "addr:state": "Staffordshire", "addr:postcode": "ST9 9BE", "addr:country": "GB", "name": "Toby Carvery Endon Stoke-on-Trent", "phone": "01782 502115", "website": "https://www.tobycarvery.co.uk/restaurants/midlands/endonstokeontrent", "contact:twitter": "@tobycarvery", "opening_hours": "Mo-Fr 11:30-23:00; Sa-Su 08:00-23:00", "image": "https://www.tobycarvery.co.uk/content/dam/toby-carvery/images/toby_logo.png", "brand": "Toby Carvery", "brand:wikidata": "Q7811777", "nsi_id": "tobycarvery-9b5453"}, "geometry": {"type": "Point", "coordinates": [-2.108493, 53.078794]}},
{"type": "Feature", "id": "EH4WHNFe4en4-PQV2hajiNSVADs=", "properties": {"ref": "https://www.tobycarvery.co.uk/restaurants/midlands/burnttreeislanddudley", "@spider": "toby_carvery_gb", "amenity": "restaurant", "cuisine": "british", "addr:street_address": "Burnt Tree Island", "addr:city": "Dudley", "addr:state": "West Midlands", "addr:postcode": "DY4 7UF", "addr:country": "GB", "name": "Toby Carvery Burnt Tree Island Dudley", "phone": "0121 520 2100", "website": "https://www.tobycarvery.co.uk/restaurants/midlands/burnttreeislanddudley", "contact:twitter": "@tobycarvery", "opening_hours": "Mo-Su 08:00-22:00", "image": "https://www.tobycarvery.co.uk/content/dam/toby-carvery/images/toby_logo.png", "brand": "Toby Carvery", "brand:wikidata": "Q7811777", "nsi_id": "tobycarvery-9b5453"}, "geometry": {"type": "Point", "coordinates": [-2.063244, 52.51433]}},
{"type": "Feature", "id": "Flq0PZMGgaSzKIPOHPVC28xJce0=", "properties": {"ref": "https://www.tobycarvery.co.uk/restaurants/midlands/binleycoventry", "@spider": "toby_carvery_gb", "amenity": "restaurant", "cuisine": "british", "addr:street_address": "Brinklow Road", "addr:city": "Coventry", "addr:state": "West Midlands", "addr:postcode": "CV3 2DS", "addr:country": "GB", "name": "Toby Carvery Binley Park Coven Coventry", "phone": "024 7645 8456", "website": "https://www.tobycarvery.co.uk/restaurants/midlands/binleycoventry", "contact:twitter": "@tobycarvery", "opening_hours": "Mo-Th 08:00-22:00; Fr-Sa 08:00-23:00; Su 08:00-22:00", "image": "https://www.tobycarvery.co.uk/content/dam/toby-carvery/images/toby_logo.png", "brand": "Toby Carvery", "brand:wikidata": "Q7811777", "nsi_id": "tobycarvery-9b5453"}, "geometry": {"type": "Point", "coordinates": [-1.446034, 52.402541]}},
{"type": "Feature", "id": "iRrfStpkDfHqnXT03YvaxiS_6iM=", "properties": {"ref": "https://www.tobycarvery.co.uk/restaurants/midlands/knowlesolihull", "@spider": "toby_carvery_gb", "amenity": "restaurant", "cuisine": "british", "addr:street_address": "1635 Warwick Road", "addr:city": "Solihull", "addr:state": "West Midlands", "addr:postcode": "B93 9AH", "addr:country": "GB", "name": "Toby Carvery Knowle Solihull", "phone": "01564 772559", "website": "https://www.tobycarvery.co.uk/restaurants/midlands/knowlesolihull", "contact:twitter": "@tobycarvery", "opening_hours": "Mo-Su 09:00-22:00", "image": "https://www.tobycarvery.co.uk/content/dam/toby-carvery/images/toby_logo.png", "brand": "Toby Carvery", "brand:wikidata": "Q7811777", "nsi_id": "tobycarvery-9b5453"}, "geometry": {"type": "Point", "coordinates": [-1.736991, 52.390772]}},
{"type": "Feature", "id": "D9SUC6LbsgNQKBvBgNXVr5rJmXQ=", "properties": {"ref": "https://www.tobycarvery.co.uk/restaurants/midlands/stonebridgeislandmeriden", "@spider": "toby_carvery_gb", "amenity": "restaurant", "cuisine": "british", "addr:street_address": "Stonebridge Island, Coventry Road", "addr:city": "Coventry", "addr:state": "West Midlands", "addr:postcode": "CV7 7HL", "addr:country": "GB", "name": "Toby Carvery Stonebridge Meriden", "phone": "01675 442326", "website": "https://www.tobycarvery.co.uk/restaurants/midlands/stonebridgeislandmeriden", "contact:twitter": "@tobycarvery", "opening_hours": "Mo-Su 07:00-22:00", "image": "https://www.tobycarvery.co.uk/content/dam/toby-carvery/images/toby_logo.png", "brand": "Toby Carvery", "brand:wikidata": "Q7811777", "nsi_id": "tobycarvery-9b5453"}, "geometry": {"type": "Point", "coordinates": [-1.689007, 52.445963]}},
{"type": "Feature", "id": "U0WVHkJAA5GolnBnVbwVH4_k5n8=", "properties": {"ref": "https://www.tobycarvery.co.uk/restaurants/midlands/hallgreenbirmingham", "@spider": "toby_carvery_gb", "amenity": "restaurant", "cuisine": "british", "addr:street_address": "1456 Stratford Road", "addr:city": "Birmingham", "addr:state": "West Midlands", "addr:postcode": "B28 9ES", "addr:country": "GB", "name": "Toby Carvery Hall Green Birmingham", "phone": "0121 744 1041", "website": "https://www.tobycarvery.co.uk/restaurants/midlands/hallgreenbirmingham", "contact:twitter": "@tobycarvery", "opening_hours": "Mo-Su 08:00-23:00", "image": "https://www.tobycarvery.co.uk/content/dam/toby-carvery/images/toby_logo.png", "brand": "Toby Carvery", "brand:wikidata": "Q7811777", "nsi_id": "tobycarvery-9b5453"}, "geometry": {"type": "Point", "coordinates": [-1.837369, 52.423389]}},
{"type": "Feature", "id": "JcxxzQC5XBUfGLkyuP73Nat2PlI=", "properties": {"ref": "https://www.tobycarvery.co.uk/restaurants/midlands/suttonparksuttoncoldfield", "@spider": "toby_carvery_gb", "amenity": "restaurant", "cuisine": "british", "addr:street_address": "Sutton Park", "addr:city": "Sutton Coldfield", "addr:state": "West Midlands", "addr:postcode": "B74 2YT", "addr:country": "GB", "name": "Toby Carvery Sutton Park Sutton Coldfield", "phone": "0121 354 2458", "website": "https://www.tobycarvery.co.uk/restaurants/midlands/suttonparksuttoncoldfield", "contact:twitter": "@tobycarvery", "opening_hours": "Mo-Su 09:00-22:00", "image": "https://www.tobycarvery.co.uk/content/dam/toby-carvery/images/toby_logo.png", "brand": "Toby Carvery", "brand:wikidata": "Q7811777", "nsi_id": "tobycarvery-9b5453"}, "geometry": {"type": "Point", "coordinates": [-1.835043, 52.565592]}},
{"type": "Feature", "id": "SNAbsYkCS-vfkfG_krF2UBfQfwc=", "properties": {"ref": "https://www.tobycarvery.co.uk/restaurants/midlands/walsallbroadwaywalsall", "@spider": "toby_carvery_gb", "amenity": "restaurant", "cuisine": "british", "addr:street_address": "Broadway North", "addr:city": "Walsall", "addr:state": "West Midlands", "addr:postcode": "WS1 2QA", "addr:country": "GB", "name": "Toby Carvery Walsall Broadway Walsall", "phone": "01922 626899", "website": "https://www.tobycarvery.co.uk/restaurants/midlands/walsallbroadwaywalsall", "contact:twitter": "@tobycarvery", "opening_hours": "Mo-Su 08:00-22:00", "image": "https://www.tobycarvery.co.uk/content/dam/toby-carvery/images/toby_logo.png", "brand": "Toby Carvery", "brand:wikidata": "Q7811777", "nsi_id": "tobycarvery-9b5453"}, "geometry": {"type": "Point", "coordinates": [-1.960918, 52.579967]}},
{"type": "Feature", "id": "j2i2C7djSwwE48lLtoqc6V-Cfi8=", "properties": {"ref": "https://www.tobycarvery.co.uk/restaurants/midlands/talkestokeontrent", "@spider": "toby_carvery_gb", "amenity": "restaurant", "cuisine": "british", "addr:street_address": "Congleton Road, Talke", "addr:city": "Stoke On Trent", "addr:state": "Staffordshire", "addr:postcode": "ST7 1LW", "addr:country": "GB", "name": "Toby Carvery Talke Stoke-on-Trent", "phone": "01782 782898", "website": "https://www.tobycarvery.co.uk/restaurants/midlands/talkestokeontrent", "contact:twitter": "@tobycarvery", "opening_hours": "Mo-Th 09:00-22:00; Fr-Su 08:00-22:00", "image": "https://www.tobycarvery.co.uk/content/dam/toby-carvery/images/toby_logo.png", "brand": "Toby Carvery", "brand:wikidata": "Q7811777", "nsi_id": "tobycarvery-9b5453"}, "geometry": {"type": "Point", "coordinates": [-2.26212, 53.081899]}},
{"type": "Feature", "id": "sTWsBeVJQFTSB6AZzGbADECAa8g=", "properties": {"ref": "https://www.tobycarvery.co.uk/restaurants/midlands/quintonbirmingham", "@spider": "toby_carvery_gb", "amenity": "restaurant", "cuisine": "british", "addr:street_address": "563 Hagley Road West", "addr:city": "Birmingham", "addr:state": "West Midlands", "addr:postcode": "B32 1HP", "addr:country": "GB", "name": "Toby Carvery Quinton Birmingham", "phone": "0121 423 3895", "website": "https://www.tobycarvery.co.uk/restaurants/midlands/quintonbirmingham", "contact:twitter": "@tobycarvery", "opening_hours": "Mo-Su 08:00-22:00", "image": "https://www.tobycarvery.co.uk/content/dam/toby-carvery/images/toby_logo.png", "brand": "Toby Carvery", "brand:wikidata": "Q7811777", "nsi_id": "tobycarvery-9b5453"}, "geometry": {"type": "Point", "coordinates": [-1.996347, 52.463004]}},
{"type": "Feature", "id": "7uFFYtYOKJDVcuuCXYrYRY_9gyo=", "properties": {"ref": "https://www.tobycarvery.co.uk/restaurants/north-west/carlislecumbria", "@spider": "toby_carvery_gb", "amenity": "restaurant", "cuisine": "british", "addr:street_address": "491 Warwick Road", "addr:city": "Carlisle", "addr:state": "Cumbria", "addr:postcode": "CA1 2SB", "addr:country": "GB", "name": "Toby Carvery Carlisle Cumbria", "phone": "01228 591381", "website": "https://www.tobycarvery.co.uk/restaurants/north-west/carlislecumbria", "contact:twitter": "@tobycarvery", "opening_hours": "Mo-Su 08:00-21:00", "image": "https://www.tobycarvery.co.uk/content/dam/toby-carvery/images/toby_logo.png", "brand": "Toby Carvery", "brand:wikidata": "Q7811777", "nsi_id": "tobycarvery-9b5453"}, "geometry": {"type": "Point", "coordinates": [-2.897148, 54.895662]}},
{"type": "Feature", "id": "jrpwg6TUdpzYlcA1DhFjktSdE8c=", "properties": {"ref": "https://www.tobycarvery.co.uk/restaurants/north-west/ormskirkwestlancashire", "@spider": "toby_carvery_gb", "amenity": "restaurant", "cuisine": "british", "addr:street_address": "County Road", "addr:city": "Ormskirk", "addr:state": "Lancashire", "addr:postcode": "L39 1NN", "addr:country": "GB", "name": "Toby Carvery Ormskirk Ormskirk", "phone": "01695 579755", "website": "https://www.tobycarvery.co.uk/restaurants/north-west/ormskirkwestlancashire", "contact:twitter": "@tobycarvery", "opening_hours": "Mo-Su 08:00-22:00", "image": "https://www.tobycarvery.co.uk/content/dam/toby-carvery/images/toby_logo.png", "brand": "Toby Carvery", "brand:wikidata": "Q7811777", "nsi_id": "tobycarvery-9b5453"}, "geometry": {"type": "Point", "coordinates": [-2.890383, 53.57291]}},
{"type": "Feature", "id": "ZYOL6OelCXt0AhTC_iXBQxW3xPY=", "properties": {"ref": "https://www.tobycarvery.co.uk/restaurants/north-west/blackpoollancashire", "@spider": "toby_carvery_gb", "amenity": "restaurant", "cuisine": "british", "addr:street_address": "Preston New Road", "addr:city": "Blackpool", "addr:state": "Lancashire", "addr:postcode": "FY4 4UT", "addr:country": "GB", "name": "Toby Carvery Blackpool Lancashire", "phone": "01253 692246", "website": "https://www.tobycarvery.co.uk/restaurants/north-west/blackpoollancashire", "contact:twitter": "@tobycarvery", "opening_hours": "Mo-Su 08:00-21:00", "image": "https://www.tobycarvery.co.uk/content/dam/toby-carvery/images/toby_logo.png", "brand": "Toby Carvery", "brand:wikidata": "Q7811777", "nsi_id": "tobycarvery-9b5453"}, "geometry": {"type": "Point", "coordinates": [-2.993126, 53.801511]}},
{"type": "Feature", "id": "euJu7Qg90D_tOWp89kUO8V0U2X8=", "properties": {"ref": "https://www.tobycarvery.co.uk/restaurants/north-west/salterswharflythamstannes", "@spider": "toby_carvery_gb", "amenity": "restaurant", "cuisine": "british", "addr:street_address": "South Promenade", "addr:city": "Lytham St Annes", "addr:state": "Lancashire", "addr:postcode": "FY8 1LS", "addr:country": "GB", "name": "Toby Carvery  Salters Wharf Lytham St Annes", "phone": "01253 713365", "website": "https://www.tobycarvery.co.uk/restaurants/north-west/salterswharflythamstannes", "contact:twitter": "@tobycarvery", "opening_hours": "Mo-Su 08:00-22:00", "image": "https://www.tobycarvery.co.uk/content/dam/toby-carvery/images/toby_logo.png", "brand": "Toby Carvery", "brand:wikidata": "Q7811777", "nsi_id": "tobycarvery-9b5453"}, "geometry": {"type": "Point", "coordinates": [-3.030944, 53.746182]}},
{"type": "Feature", "id": "Tek9Kk0pq-TsttM4DhhV3dz8R9U=", "properties": {"ref": "https://www.tobycarvery.co.uk/restaurants/north-west/stoneycroftliverpool", "@spider": "toby_carvery_gb", "amenity": "restaurant", "cuisine": "british", "addr:street_address": "502 Queens Drive", "addr:city": "Liverpool", "addr:state": "Merseyside", "addr:postcode": "L13 0AS", "addr:country": "GB", "name": "Toby Carvery Stoneycroft Liverpool", "phone": "0151 254 2271", "website": "https://www.tobycarvery.co.uk/restaurants/north-west/stoneycroftliverpool", "contact:twitter": "@tobycarvery", "opening_hours": "Mo-Th 09:00-22:00; Fr-Su 08:00-22:00", "image": "https://www.tobycarvery.co.uk/content/dam/toby-carvery/images/toby_logo.png", "brand": "Toby Carvery", "brand:wikidata": "Q7811777", "nsi_id": "tobycarvery-9b5453"}, "geometry": {"type": "Point", "coordinates": [-2.910346, 53.420775]}},
{"type": "Feature", "id": "r_n27UQqJdhnO_qWe_rNdYCV8Go=", "properties": {"ref": "https://www.tobycarvery.co.uk/restaurants/north-west/formbyliverpool", "@spider": "toby_carvery_gb", "amenity": "restaurant", "cuisine": "british", "addr:street_address": "13 Church Road", "addr:city": "Liverpool", "addr:state": "Merseyside", "addr:postcode": "L37 8BQ", "addr:country": "GB", "name": "Toby Carvery Formby Liverpool", "phone": "01704 873890", "website": "https://www.tobycarvery.co.uk/restaurants/north-west/formbyliverpool", "contact:twitter": "@tobycarvery", "opening_hours": "Mo-Su 08:00-22:00", "image": "https://www.tobycarvery.co.uk/content/dam/toby-carvery/images/toby_logo.png", "brand": "Toby Carvery", "brand:wikidata": "Q7811777", "nsi_id": "tobycarvery-9b5453"}, "geometry": {"type": "Point", "coordinates": [-3.056313, 53.556108]}},
{"type": "Feature", "id": "scef9dnfOOHZlZEKfUeaQC2ECwY=", "properties": {"ref": "https://www.tobycarvery.co.uk/restaurants/north-west/aintreeliverpool", "@spider": "toby_carvery_gb", "amenity": "restaurant", "cuisine": "british", "addr:street_address": "Grand National Avenue", "addr:city": "Liverpool", "addr:state": "Merseyside", "addr:postcode": "L9 5BD", "addr:country": "GB", "name": "Toby Carvery Aintree Aintree", "phone": "0151 524 2602", "website": "https://www.tobycarvery.co.uk/restaurants/north-west/aintreeliverpool", "contact:twitter": "@tobycarvery", "opening_hours": "Mo-Su 08:00-22:00", "image": "https://www.tobycarvery.co.uk/content/dam/toby-carvery/images/toby_logo.png", "brand": "Toby Carvery", "brand:wikidata": "Q7811777", "nsi_id": "tobycarvery-9b5453"}, "geometry": {"type": "Point", "coordinates": [-2.954188, 53.475563]}},
{"type": "Feature", "id": "Fb62YBasJuMm9XDWnLwkQ2FEMjI=", "properties": {"ref": "https://www.tobycarvery.co.uk/restaurants/north-west/watersidesthelens", "@spider": "toby_carvery_gb", "amenity": "restaurant", "cuisine": "british", "addr:street_address": "East Lancashire Road", "addr:city": "St. Helens", "addr:state": "Merseyside", "addr:postcode": "WA11 7LX", "addr:country": "GB", "name": "Toby Carvery Waterside St. Helens", "phone": "01744 23333", "website": "https://www.tobycarvery.co.uk/restaurants/north-west/watersidesthelens", "contact:twitter": "@tobycarvery", "opening_hours": "Mo-Su 08:00-21:00", "image": "https://www.tobycarvery.co.uk/content/dam/toby-carvery/images/toby_logo.png", "brand": "Toby Carvery", "brand:wikidata": "Q7811777", "nsi_id": "tobycarvery-9b5453"}, "geometry": {"type": "Point", "coordinates": [-2.718316, 53.473186]}},
{"type": "Feature", "id": "rIO1kcqZAC3zYxFOHz6-l552D4c=", "properties": {"ref": "https://www.tobycarvery.co.uk/restaurants/north-west/arroweparkwirral", "@spider": "toby_carvery_gb", "amenity": "restaurant", "cuisine": "british", "addr:street_address": "Arrowe Park Road, Birkenhead", "addr:city": "Wirral", "addr:state": "Merseyside", "addr:postcode": "CH49 5LW", "addr:country": "GB", "name": "Toby Carvery Arrowe  Wirral", "phone": "0151 604 1241", "website": "https://www.tobycarvery.co.uk/restaurants/north-west/arroweparkwirral", "contact:twitter": "@tobycarvery", "opening_hours": "Mo-Su 08:00-22:00", "image": "https://www.tobycarvery.co.uk/content/dam/toby-carvery/images/toby_logo.png", "brand": "Toby Carvery", "brand:wikidata": "Q7811777", "nsi_id": "tobycarvery-9b5453"}, "geometry": {"type": "Point", "coordinates": [-3.090099, 53.36386]}},
{"type": "Feature", "id": "YoaaTHSdybVkTcXiDj01ziMva4s=", "properties": {"ref": "https://www.tobycarvery.co.uk/restaurants/north-west/spekeboulevardliverpool", "@spider": "toby_carvery_gb", "amenity": "restaurant", "cuisine": "british", "addr:street_address": "1 Longman Drive, Speke", "addr:city": "Liverpool", "addr:state": "Merseyside", "addr:postcode": "L24 1XZ", "addr:country": "GB", "name": "Toby Carvery Speke Boulevard Liverpool", "phone": "0151 486 8707", "website": "https://www.tobycarvery.co.uk/restaurants/north-west/spekeboulevardliverpool", "contact:twitter": "@tobycarvery", "opening_hours": "Mo-Fr 08:00-21:00; Sa-Su 08:00-22:00", "image": "https://www.tobycarvery.co.uk/content/dam/toby-carvery/images/toby_logo.png", "brand": "Toby Carvery", "brand:wikidata": "Q7811777", "nsi_id": "tobycarvery-9b5453"}, "geometry": {"type": "Point", "coordinates": [-2.860743, 53.349006]}},
{"type": "Feature", "id": "S0YB_kLbpCZlRwac9Hz53kNmpcw=", "properties": {"ref": "https://www.tobycarvery.co.uk/restaurants/north-west/bowersparkwidnes", "@spider": "toby_carvery_gb", "amenity": "restaurant", "cuisine": "british", "addr:street_address": "Bowers Park Business Estate, Earle Road", "addr:city": "Widnes", "addr:state": "Cheshire", "addr:postcode": "WA8 0TA", "addr:country": "GB", "name": "Toby Carvery Widnes Widnes", "phone": "0151 257 9790", "website": "https://www.tobycarvery.co.uk/restaurants/north-west/bowersparkwidnes", "contact:twitter": "@tobycarvery", "opening_hours": "Mo-Su 08:00-22:00", "image": "https://www.tobycarvery.co.uk/content/dam/toby-carvery/images/toby_logo.png", "brand": "Toby Carvery", "brand:wikidata": "Q7811777", "nsi_id": "tobycarvery-9b5453"}, "geometry": {"type": "Point", "coordinates": [-2.721727, 53.364247]}},
{"type": "Feature", "id": "nhnHo6BeM6c1-TMgwGipZsv2l8g=", "properties": {"ref": "https://www.tobycarvery.co.uk/restaurants/north-west/morecambelancashire", "@spider": "toby_carvery_gb", "amenity": "restaurant", "cuisine": "british", "addr:street_address": "Lancaster Road", "addr:city": "Morecambe", "addr:state": "Lancashire", "addr:postcode": "LA4 5TP", "addr:country": "GB", "name": "Toby Carvery Morecambe Lancashire", "phone": "01524 424764", "website": "https://www.tobycarvery.co.uk/restaurants/north-west/morecambelancashire", "contact:twitter": "@tobycarvery", "opening_hours": "Mo-Su 08:00-22:00", "image": "https://www.tobycarvery.co.uk/content/dam/toby-carvery/images/toby_logo.png", "brand": "Toby Carvery", "brand:wikidata": "Q7811777", "nsi_id": "tobycarvery-9b5453"}, "geometry": {"type": "Point", "coordinates": [-2.839351, 54.06605]}},
{"type": "Feature", "id": "ChDNt2GmigtqHq9lHOpnsysV854=", "properties": {"ref": "https://www.tobycarvery.co.uk/restaurants/north-west/aigburthliverpool", "@spider": "toby_carvery_gb", "amenity": "restaurant", "cuisine": "british", "addr:street_address": "531 Aigburth Road", "addr:city": "Liverpool", "addr:state": "Merseyside", "addr:postcode": "L19 9DN", "addr:country": "GB", "name": "Toby Carvery Aigburth Liverpool", "phone": "0151 494 1032", "website": "https://www.tobycarvery.co.uk/restaurants/north-west/aigburthliverpool", "contact:twitter": "@tobycarvery", "opening_hours": "Mo-Th 08:00-22:00; Fr-Sa 08:00-23:00; Su 08:00-22:00", "image": "https://www.tobycarvery.co.uk/content/dam/toby-carvery/images/toby_logo.png", "brand": "Toby Carvery", "brand:wikidata": "Q7811777", "nsi_id": "tobycarvery-9b5453"}, "geometry": {"type": "Point", "coordinates": [-2.915282, 53.363342]}},
{"type": "Feature", "id": "gbAicBHL4CrYuqwFFYe7AO9D7S4=", "properties": {"ref": "https://www.tobycarvery.co.uk/restaurants/north-west/ainsdalesouthport", "@spider": "toby_carvery_gb", "amenity": "restaurant", "cuisine": "british", "addr:street_address": "537 Liverpool Road, Sefton", "addr:city": "Southport", "addr:state": "Merseyside", "addr:postcode": "PR8 3BJ", "addr:country": "GB", "name": "Toby Carvery Ainsdale Southport", "phone": "01704 574161", "website": "https://www.tobycarvery.co.uk/restaurants/north-west/ainsdalesouthport", "contact:twitter": "@tobycarvery", "opening_hours": "Mo-Su 08:00-22:00", "image": "https://www.tobycarvery.co.uk/content/dam/toby-carvery/images/toby_logo.png", "brand": "Toby Carvery", "brand:wikidata": "Q7811777", "nsi_id": "tobycarvery-9b5453"}, "geometry": {"type": "Point", "coordinates": [-3.032558, 53.603471]}},
{"type": "Feature", "id": "OIPmnpMMSXm4QyUP5QNEqWtdCZs=", "properties": {"ref": "https://www.tobycarvery.co.uk/restaurants/north-west/boltonlancashire", "@spider": "toby_carvery_gb", "amenity": "restaurant", "cuisine": "british", "addr:street_address": "Crompton Way", "addr:city": "Bolton", "addr:state": "Greater Manchester", "addr:postcode": "BL1 8TJ", "addr:country": "GB", "name": "Toby Carvery Bolton Lancashire", "phone": "01204 591798", "website": "https://www.tobycarvery.co.uk/restaurants/north-west/boltonlancashire", "contact:twitter": "@tobycarvery", "opening_hours": "Mo-Su 08:00-22:00", "image": "https://www.tobycarvery.co.uk/content/dam/toby-carvery/images/toby_logo.png", "brand": "Toby Carvery", "brand:wikidata": "Q7811777", "nsi_id": "tobycarvery-9b5453"}, "geometry": {"type": "Point", "coordinates": [-2.424809, 53.599478]}},
{"type": "Feature", "id": "7NHsv-Xc-JC1OtKRRqP4Q9mSsZw=", "properties": {"ref": "https://www.tobycarvery.co.uk/restaurants/north-west/legharmsmacclesfield", "@spider": "toby_carvery_gb", "amenity": "restaurant", "cuisine": "british", "addr:street_address": "London Road, Adlington", "addr:city": "Macclesfield", "addr:state": "Cheshire", "addr:postcode": "SK10 4NA", "addr:country": "GB", "name": "Toby Carvery Macclesfield Macclesfield", "phone": "01625 829211", "website": "https://www.tobycarvery.co.uk/restaurants/north-west/legharmsmacclesfield", "contact:twitter": "@tobycarvery", "opening_hours": "Mo-Su 08:00-22:00", "image": "https://www.tobycarvery.co.uk/content/dam/toby-carvery/images/toby_logo.png", "brand": "Toby Carvery", "brand:wikidata": "Q7811777", "nsi_id": "tobycarvery-9b5453"}, "geometry": {"type": "Point", "coordinates": [-2.134327, 53.320825]}},
{"type": "Feature", "id": "Jvi7sD0uQJfYoCP8TCH_YbtDmdE=", "properties": {"ref": "https://www.tobycarvery.co.uk/restaurants/north-west/ainsworthmanchester", "@spider": "toby_carvery_gb", "amenity": "restaurant", "cuisine": "british", "addr:street_address": "465 Bury & Bolton Road, Radcliffe", "addr:city": "Manchester", "addr:state": "Greater Manchester", "addr:postcode": "M26 4LJ", "addr:country": "GB", "name": "Toby Carvery Ainsworth Manchester", "phone": "0161 764 1405", "website": "https://www.tobycarvery.co.uk/restaurants/north-west/ainsworthmanchester", "contact:twitter": "@tobycarvery", "opening_hours": "Mo-Su 08:00-22:00", "image": "https://www.tobycarvery.co.uk/content/dam/toby-carvery/images/toby_logo.png", "brand": "Toby Carvery", "brand:wikidata": "Q7811777", "nsi_id": "tobycarvery-9b5453"}, "geometry": {"type": "Point", "coordinates": [-2.343275, 53.581448]}},
{"type": "Feature", "id": "z0gld7cd5waAykCUDf3XfO6niKg=", "properties": {"ref": "https://www.tobycarvery.co.uk/restaurants/north-west/shiremoornorthtyneside", "@spider": "toby_carvery_gb", "amenity": "restaurant", "cuisine": "british", "addr:street_address": "Northumberland Park, Backworth", "addr:city": "Newcastle-Upon-Tyne", "addr:state": "Tyne And Wear", "addr:postcode": "NE27 0FG", "addr:country": "GB", "name": "Toby Carvery Shiremoor North Tyneside", "phone": "0191 266 2169", "website": "https://www.tobycarvery.co.uk/restaurants/north-west/shiremoornorthtyneside", "contact:twitter": "@tobycarvery", "opening_hours": "Mo-Su 08:00-21:30", "image": "https://www.tobycarvery.co.uk/content/dam/toby-carvery/images/toby_logo.png", "brand": "Toby Carvery", "brand:wikidata": "Q7811777", "nsi_id": "tobycarvery-9b5453"}, "geometry": {"type": "Point", "coordinates": [-1.521156, 55.03139]}},
{"type": "Feature", "id": "x9usJnSCnkyjphPCCtxDmzQ0oD4=", "properties": {"ref": "https://www.tobycarvery.co.uk/restaurants/north-west/cleadonvillagesunderland", "@spider": "toby_carvery_gb", "amenity": "restaurant", "cuisine": "british", "addr:street_address": "Front Street", "addr:city": "Sunderland", "addr:state": "Tyne And Wear", "addr:postcode": "SR6 7PG", "addr:country": "GB", "name": "Toby Carvery Cleadon Village Sunderland", "phone": "0191 536 4198", "website": "https://www.tobycarvery.co.uk/restaurants/north-west/cleadonvillagesunderland", "contact:twitter": "@tobycarvery", "opening_hours": "Mo-Su 08:00-23:30", "image": "https://www.tobycarvery.co.uk/content/dam/toby-carvery/images/toby_logo.png", "brand": "Toby Carvery", "brand:wikidata": "Q7811777", "nsi_id": "tobycarvery-9b5453"}, "geometry": {"type": "Point", "coordinates": [-1.401565, 54.954781]}},
{"type": "Feature", "id": "2zYu_kqH5bY6SmXK8gqV5M0ja_Q=", "properties": {"ref": "https://www.tobycarvery.co.uk/restaurants/north-west/watergatetollbolton", "@spider": "toby_carvery_gb", "amenity": "restaurant", "cuisine": "british", "addr:street_address": "421 Watergate Drive", "addr:city": "Bolton", "addr:state": "Greater Manchester", "addr:postcode": "BL5 1BU", "addr:country": "GB", "name": "Toby Carvery Watergate Toll Bolton", "phone": "01204 650955", "website": "https://www.tobycarvery.co.uk/restaurants/north-west/watergatetollbolton", "contact:twitter": "@tobycarvery", "opening_hours": "Mo-Su 09:00-22:00", "image": "https://www.tobycarvery.co.uk/content/dam/toby-carvery/images/toby_logo.png", "brand": "Toby Carvery", "brand:wikidata": "Q7811777", "nsi_id": "tobycarvery-9b5453"}, "geometry": {"type": "Point", "coordinates": [-2.450799, 53.544031]}},
{"type": "Feature", "id": "i3tB9trb2vBNmz1A1nWRvNGId9k=", "properties": {"ref": "https://www.tobycarvery.co.uk/restaurants/north-west/warringtoncheshire", "@spider": "toby_carvery_gb", "amenity": "restaurant", "cuisine": "british", "addr:street_address": "Winwick Road", "addr:city": "Warrington", "addr:state": "Cheshire", "addr:postcode": "WA2 8DB", "addr:country": "GB", "name": "Toby Carvery Warrington Cheshire", "phone": "01925 241641", "website": "https://www.tobycarvery.co.uk/restaurants/north-west/warringtoncheshire", "contact:twitter": "@tobycarvery", "opening_hours": "Mo-Su 08:00-22:00", "image": "https://www.tobycarvery.co.uk/content/dam/toby-carvery/images/toby_logo.png", "brand": "Toby Carvery", "brand:wikidata": "Q7811777", "nsi_id": "tobycarvery-9b5453"}, "geometry": {"type": "Point", "coordinates": [-2.593704, 53.406274]}},
{"type": "Feature", "id": "ss-2lZ8iMTFSnZ6eNm9FDMqMv1w=", "properties": {"ref": "https://www.tobycarvery.co.uk/restaurants/north-west/chaddertonparkoldham", "@spider": "toby_carvery_gb", "amenity": "restaurant", "cuisine": "british", "addr:street_address": "Burnley Lane", "addr:city": "Oldham", "addr:state": "Greater Manchester", "addr:postcode": "OL1 2QS", "addr:country": "GB", "name": "Toby Carvery Chadderton Park Oldham", "phone": "0161 627 3883", "website": "https://www.tobycarvery.co.uk/restaurants/north-west/chaddertonparkoldham", "contact:twitter": "@tobycarvery", "opening_hours": "Mo-Su 08:00-22:00", "image": "https://www.tobycarvery.co.uk/content/dam/toby-carvery/images/toby_logo.png", "brand": "Toby Carvery", "brand:wikidata": "Q7811777", "nsi_id": "tobycarvery-9b5453"}, "geometry": {"type": "Point", "coordinates": [-2.141408, 53.55526]}},
{"type": "Feature", "id": "5TtIWipYRZrVpAm91CYyfom19LE=", "properties": {"ref": "https://www.tobycarvery.co.uk/restaurants/north-west/hoolevillagechester", "@spider": "toby_carvery_gb", "amenity": "restaurant", "cuisine": "british", "addr:street_address": "Warrington Road", "addr:city": "Chester", "addr:state": "Cheshire", "addr:postcode": "CH2 4EX", "addr:country": "GB", "name": "Toby Carvery Hoole Village Chester", "phone": "01244 301391", "website": "https://www.tobycarvery.co.uk/restaurants/north-west/hoolevillagechester", "contact:twitter": "@tobycarvery", "opening_hours": "Mo-Su 08:00-22:00", "image": "https://www.tobycarvery.co.uk/content/dam/toby-carvery/images/toby_logo.png", "brand": "Toby Carvery", "brand:wikidata": "Q7811777", "nsi_id": "tobycarvery-9b5453"}, "geometry": {"type": "Point", "coordinates": [-2.84854, 53.212475]}},
{"type": "Feature", "id": "sOWISwE8B8E3zP-OCqq3GZruXGU=", "properties": {"ref": "https://www.tobycarvery.co.uk/restaurants/yorkshire/horsforthleeds", "@spider": "toby_carvery_gb", "amenity": "restaurant", "cuisine": "british", "addr:street_address": "2-4 Fink Hill", "addr:city": "Leeds", "addr:state": "West Yorkshire", "addr:postcode": "LS18 4DH", "addr:country": "GB", "name": "Toby Carvery Horsforth Leeds", "phone": "0113 258 6401", "website": "https://www.tobycarvery.co.uk/restaurants/yorkshire/horsforthleeds", "contact:twitter": "@tobycarvery", "opening_hours": "Mo-Th 08:00-22:00; Fr-Sa 08:00-23:00; Su 08:00-22:00", "image": "https://www.tobycarvery.co.uk/content/dam/toby-carvery/images/toby_logo.png", "brand": "Toby Carvery", "brand:wikidata": "Q7811777", "nsi_id": "tobycarvery-9b5453"}, "geometry": {"type": "Point", "coordinates": [-1.645248, 53.834445]}},
{"type": "Feature", "id": "T8SFB53mXKSH5eLPA1cofggNNf4=", "properties": {"ref": "https://www.tobycarvery.co.uk/restaurants/yorkshire/theoldpavillionbradford", "@spider": "toby_carvery_gb", "amenity": "restaurant", "cuisine": "british", "addr:street_address": "244-246 Rooley Lane", "addr:city": "Bradford", "addr:state": "West Yorkshire", "addr:postcode": "BD5 8LB", "addr:country": "GB", "name": "Toby Carvery Bradford Bradford", "phone": "01274 736316", "website": "https://www.tobycarvery.co.uk/restaurants/yorkshire/theoldpavillionbradford", "contact:twitter": "@tobycarvery", "opening_hours": "Mo-Su 08:00-22:00", "image": "https://www.tobycarvery.co.uk/content/dam/toby-carvery/images/toby_logo.png", "brand": "Toby Carvery", "brand:wikidata": "Q7811777", "nsi_id": "tobycarvery-9b5453"}, "geometry": {"type": "Point", "coordinates": [-1.737742, 53.768691]}},
{"type": "Feature", "id": "DcLzaG_TOHsEbjXyNKIgA28_XE8=", "properties": {"ref": "https://www.tobycarvery.co.uk/restaurants/yorkshire/ainleytophuddersfield", "@spider": "toby_carvery_gb", "amenity": "restaurant", "cuisine": "british", "addr:street_address": "Brighouse Road", "addr:city": "Huddersfield", "addr:state": "West Yorkshire", "addr:postcode": "HD2 2LB", "addr:country": "GB", "name": "Toby Carvery Huddersfield Huddersfield", "phone": "01422 374360", "website": "https://www.tobycarvery.co.uk/restaurants/yorkshire/ainleytophuddersfield", "contact:twitter": "@tobycarvery", "opening_hours": "Mo-Su 08:00-22:00", "image": "https://www.tobycarvery.co.uk/content/dam/toby-carvery/images/toby_logo.png", "brand": "Toby Carvery", "brand:wikidata": "Q7811777", "nsi_id": "tobycarvery-9b5453"}, "geometry": {"type": "Point", "coordinates": [-1.825294, 53.670582]}},
{"type": "Feature", "id": "rOJCG04CnP7jWTCZpcK6K1AoRe0=", "properties": {"ref": "https://www.tobycarvery.co.uk/restaurants/yorkshire/dodworthvalleybarnsley", "@spider": "toby_carvery_gb", "amenity": "restaurant", "cuisine": "british", "addr:street_address": "Castle View, Dodworth", "addr:city": "Barnsley", "addr:state": "South Yorkshire", "addr:postcode": "S75 3LF", "addr:country": "GB", "name": "Toby Carvery Dodworth Valley Barnsley", "phone": "01226 291333", "website": "https://www.tobycarvery.co.uk/restaurants/yorkshire/dodworthvalleybarnsley", "contact:twitter": "@tobycarvery", "opening_hours": "Mo-Su 08:00-22:00", "image": "https://www.tobycarvery.co.uk/content/dam/toby-carvery/images/toby_logo.png", "brand": "Toby Carvery", "brand:wikidata": "Q7811777", "nsi_id": "tobycarvery-9b5453"}, "geometry": {"type": "Point", "coordinates": [-1.517449, 53.548842]}},
{"type": "Feature", "id": "80Vm4WdtxF0iMOvwjpdgQucI-PE=", "properties": {"ref": "https://www.tobycarvery.co.uk/restaurants/yorkshire/chapelallertonleeds", "@spider": "toby_carvery_gb", "amenity": "restaurant", "cuisine": "british", "addr:street_address": "201 Harrogate Road", "addr:city": "Leeds", "addr:state": "West Yorkshire", "addr:postcode": "LS7 3PT", "addr:country": "GB", "name": "Toby Carvery Chapel Allerton Leeds", "phone": "0113 288 8165", "website": "https://www.tobycarvery.co.uk/restaurants/yorkshire/chapelallertonleeds", "contact:twitter": "@tobycarvery", "opening_hours": "Mo-Sa 08:00-23:00; Su 08:00-22:30", "image": "https://www.tobycarvery.co.uk/content/dam/toby-carvery/images/toby_logo.png", "brand": "Toby Carvery", "brand:wikidata": "Q7811777", "nsi_id": "tobycarvery-9b5453"}, "geometry": {"type": "Point", "coordinates": [-1.539494, 53.83387]}},
{"type": "Feature", "id": "_kcF5JqXhPZoKXMT3ScDrcFtb_A=", "properties": {"ref": "https://www.tobycarvery.co.uk/restaurants/yorkshire/willerbyvillagehull", "@spider": "toby_carvery_gb", "amenity": "restaurant", "cuisine": "british", "addr:street_address": "Beverley Road", "addr:city": "Hull", "addr:state": "East Riding Of Yorkshire", "addr:postcode": "HU10 6NT", "addr:country": "GB", "name": "Toby Carvery Willerby Hull", "phone": "01482 651518", "website": "https://www.tobycarvery.co.uk/restaurants/yorkshire/willerbyvillagehull", "contact:twitter": "@tobycarvery", "opening_hours": "Mo-Su 07:00-23:00", "image": "https://www.tobycarvery.co.uk/content/dam/toby-carvery/images/toby_logo.png", "brand": "Toby Carvery", "brand:wikidata": "Q7811777", "nsi_id": "tobycarvery-9b5453"}, "geometry": {"type": "Point", "coordinates": [-0.457492, 53.764735]}},
{"type": "Feature", "id": "J4N8gwnWae7dI7KwmtrwW7BllDg=", "properties": {"ref": "https://www.tobycarvery.co.uk/restaurants/yorkshire/morleyleeds", "@spider": "toby_carvery_gb", "amenity": "restaurant", "cuisine": "british", "addr:street_address": "Bruntcliffe Road", "addr:city": "Leeds", "addr:state": "West Yorkshire", "addr:postcode": "LS27 0LY", "addr:country": "GB", "name": "Toby Carvery Bruntcliffe Leeds", "phone": "0113 253 3115", "website": "https://www.tobycarvery.co.uk/restaurants/yorkshire/morleyleeds", "contact:twitter": "@tobycarvery", "opening_hours": "Mo-Su 08:00-22:00", "image": "https://www.tobycarvery.co.uk/content/dam/toby-carvery/images/toby_logo.png", "brand": "Toby Carvery", "brand:wikidata": "Q7811777", "nsi_id": "tobycarvery-9b5453"}, "geometry": {"type": "Point", "coordinates": [-1.623348, 53.744972]}},
{"type": "Feature", "id": "5GzOnCMDrg4DIiUyZaL-Q55SXgQ=", "properties": {"ref": "https://www.tobycarvery.co.uk/restaurants/yorkshire/oultonleeds", "@spider": "toby_carvery_gb", "amenity": "restaurant", "cuisine": "british", "addr:street_address": "2 Aberford Road", "addr:city": "Leeds", "addr:state": "West Yorkshire", "addr:postcode": "LS26 8EJ", "addr:country": "GB", "name": "Toby Carvery Oulton Leeds Leeds", "phone": "0113 282 6201", "website": "https://www.tobycarvery.co.uk/restaurants/yorkshire/oultonleeds", "contact:twitter": "@tobycarvery", "opening_hours": "Mo-Su 08:00-22:00", "image": "https://www.tobycarvery.co.uk/content/dam/toby-carvery/images/toby_logo.png", "brand": "Toby Carvery", "brand:wikidata": "Q7811777", "nsi_id": "tobycarvery-9b5453"}, "geometry": {"type": "Point", "coordinates": [-1.451857, 53.745812]}},
{"type": "Feature", "id": "yY1iMWZbOJitYcjK1fp0W6tKmy8=", "properties": {"ref": "https://www.tobycarvery.co.uk/restaurants/yorkshire/hopgroveyork", "@spider": "toby_carvery_gb", "amenity": "restaurant", "cuisine": "british", "addr:street_address": "Malton Road", "addr:city": "York", "addr:state": "North Yorkshire", "addr:postcode": "YO32 9TE", "addr:country": "GB", "name": "Toby Carvery Hopgrove York", "phone": "01904 424542", "website": "https://www.tobycarvery.co.uk/restaurants/yorkshire/hopgroveyork", "contact:twitter": "@tobycarvery", "opening_hours": "Mo-Su 08:00-23:00", "image": "https://www.tobycarvery.co.uk/content/dam/toby-carvery/images/toby_logo.png", "brand": "Toby Carvery", "brand:wikidata": "Q7811777", "nsi_id": "tobycarvery-9b5453"}, "geometry": {"type": "Point", "coordinates": [-1.02984, 53.987507]}},
{"type": "Feature", "id": "Nl1l9zfndL2ikPhM_pYlawuEp6Q=", "properties": {"ref": "https://www.tobycarvery.co.uk/restaurants/yorkshire/calderislandwakefield", "@spider": "toby_carvery_gb", "amenity": "restaurant", "cuisine": "british", "addr:street_address": "Denby Dale Road", "addr:city": "Wakefield", "addr:state": "West Yorkshire", "addr:postcode": "WF2 7AW", "addr:country": "GB", "name": "Toby Carvery Wakefield Wakefield", "phone": "01924 363505", "website": "https://www.tobycarvery.co.uk/restaurants/yorkshire/calderislandwakefield", "contact:twitter": "@tobycarvery", "opening_hours": "Mo-Su 08:00-22:00", "image": "https://www.tobycarvery.co.uk/content/dam/toby-carvery/images/toby_logo.png", "brand": "Toby Carvery", "brand:wikidata": "Q7811777", "nsi_id": "tobycarvery-9b5453"}, "geometry": {"type": "Point", "coordinates": [-1.506448, 53.66403]}},
{"type": "Feature", "id": "kWBqCWJlDcuYbBI_sLySKtYl2z0=", "properties": {"ref": "https://www.tobycarvery.co.uk/restaurants/yorkshire/bessacarrdoncaster", "@spider": "toby_carvery_gb", "amenity": "restaurant", "cuisine": "british", "addr:street_address": "Bawtry Road", "addr:city": "Doncaster", "addr:state": "South Yorkshire", "addr:postcode": "DN4 7BS", "addr:country": "GB", "name": "Toby Carvery Bessacarr Doncaster", "phone": "01302 370037", "website": "https://www.tobycarvery.co.uk/restaurants/yorkshire/bessacarrdoncaster", "contact:twitter": "@tobycarvery", "opening_hours": "Mo-Fr 08:00-23:00; Sa 07:00-23:00; Su 07:00-22:30", "image": "https://www.tobycarvery.co.uk/content/dam/toby-carvery/images/toby_logo.png", "brand": "Toby Carvery", "brand:wikidata": "Q7811777", "nsi_id": "tobycarvery-9b5453"}, "geometry": {"type": "Point", "coordinates": [-1.081372, 53.502448]}},
{"type": "Feature", "id": "FvdWZta99-umROnKuwVFruOp6Nc=", "properties": {"ref": "https://www.tobycarvery.co.uk/restaurants/yorkshire/rotherhamsouthyorkshire", "@spider": "toby_carvery_gb", "amenity": "restaurant", "cuisine": "british", "addr:street_address": "Sycamore Road, Eastwood Trading Estate", "addr:city": "Rotherham", "addr:postcode": "S65 1EN", "addr:country": "GB", "name": "Toby Carvery Rotherham Rotherham", "phone": "01709 369925", "website": "https://www.tobycarvery.co.uk/restaurants/yorkshire/rotherhamsouthyorkshire", "contact:twitter": "@tobycarvery", "opening_hours": "Mo-Th 11:30-22:00; Fr 11:00-22:00; Sa-Su 08:00-22:00", "image": "https://www.tobycarvery.co.uk/content/dam/toby-carvery/images/toby_logo.png", "brand": "Toby Carvery", "brand:wikidata": "Q7811777", "nsi_id": "tobycarvery-9b5453"}, "geometry": {"type": "Point", "coordinates": [-1.322858, 53.442685]}},
{"type": "Feature", "id": "eui6z4v2U2O5t9z6Y2V5LhXinek=", "properties": {"ref": "https://www.tobycarvery.co.uk/restaurants/yorkshire/dronfieldderbyshire", "@spider": "toby_carvery_gb", "amenity": "restaurant", "cuisine": "british", "addr:street_address": "Sheffield Road, Dronfield", "addr:city": "Sheffield", "addr:state": "South Yorkshire", "addr:postcode": "S18 2GA", "addr:country": "GB", "name": "Toby Carvery Dronfield Derbyshire", "phone": "01246 412326", "website": "https://www.tobycarvery.co.uk/restaurants/yorkshire/dronfieldderbyshire", "contact:twitter": "@tobycarvery", "opening_hours": "Mo-Su 08:00-22:00", "image": "https://www.tobycarvery.co.uk/content/dam/toby-carvery/images/toby_logo.png", "brand": "Toby Carvery", "brand:wikidata": "Q7811777", "nsi_id": "tobycarvery-9b5453"}, "geometry": {"type": "Point", "coordinates": [-1.475578, 53.315586]}},
{"type": "Feature", "id": "8FDw8LFC8BxZtrEn8f0rw5IRsNs=", "properties": {"ref": "https://www.tobycarvery.co.uk/restaurants/yorkshire/edenthorpedoncaster", "@spider": "toby_carvery_gb", "amenity": "restaurant", "cuisine": "british", "addr:street_address": "Lyndale Avenue", "addr:city": "Doncaster", "addr:state": "South Yorkshire", "addr:postcode": "DN3 2QT", "addr:country": "GB", "name": "Toby Carvery Edenthorpe Doncaster", "phone": "01302 880275", "website": "https://www.tobycarvery.co.uk/restaurants/yorkshire/edenthorpedoncaster", "contact:twitter": "@tobycarvery", "opening_hours": "Mo-Th 11:30-21:00; Fr-Su 08:00-22:00", "image": "https://www.tobycarvery.co.uk/content/dam/toby-carvery/images/toby_logo.png", "brand": "Toby Carvery", "brand:wikidata": "Q7811777", "nsi_id": "tobycarvery-9b5453"}, "geometry": {"type": "Point", "coordinates": [-1.076674, 53.547959]}},
{"type": "Feature", "id": "1GRSPaSq2q6engRAC_uOYMuveJU=", "properties": {"ref": "https://www.tobycarvery.co.uk/restaurants/north-east/darlingtoncountydurham", "@spider": "toby_carvery_gb", "amenity": "restaurant", "cuisine": "british", "addr:street_address": "Yarm Road, Barrington Way", "addr:city": "Darlington", "addr:state": "County Durham", "addr:postcode": "DL1 4WF", "addr:country": "GB", "name": "Toby Carvery Darlington County Durham", "phone": "01325 489438", "website": "https://www.tobycarvery.co.uk/restaurants/north-east/darlingtoncountydurham", "contact:twitter": "@tobycarvery", "opening_hours": "Mo-Su 08:00-21:00", "image": "https://www.tobycarvery.co.uk/content/dam/toby-carvery/images/toby_logo.png", "brand": "Toby Carvery", "brand:wikidata": "Q7811777", "nsi_id": "tobycarvery-9b5453"}, "geometry": {"type": "Point", "coordinates": [-1.512245, 54.520411]}}]}