{"type":"FeatureCollection","features":[{"type": "Feature", "id": "YSQgesssVVrPdajxKmUHn5G3VnY=", "properties": {"ref": "14280-marsh-ln", "@spider": "tom_thumb", "addr:full": "14280 Marsh Ln", "addr:city": "Addison", "addr:state": "TX", "addr:postcode": "75001", "addr:country": "US", "name": "Marsh Ln", "phone": "(972) 241-4485", "website": "https://local.tomthumb.com/tx/addison/14280-marsh-ln.html", "brand": "Tom Thumb", "brand:wikidata": "Q7817826"}, "geometry": {"type": "Point", "coordinates": [-96.85358227116399, 32.93861004219338]}},
{"type": "Feature", "id": "4NVn2Qvxl8Inwx2a6kMgMXIRRp8=", "properties": {"ref": "2645-arapaho-rd", "@spider": "tom_thumb", "addr:full": "2645 Arapaho Rd", "addr:city": "Garland", "addr:state": "TX", "addr:postcode": "75044", "addr:country": "US", "name": "Arapaho Rd", "phone": "(972) 495-9807", "website": "https://local.tomthumb.com/tx/garland/2645-arapaho-rd.html", "brand": "Tom Thumb", "brand:wikidata": "Q7817826"}, "geometry": {"type": "Point", "coordinates": [-96.6670172785736, 32.960822868896784]}},
{"type": "Feature", "id": "9KpPUmor70Aq75upL8FlT0q14-0=", "properties": {"ref": "2535-firewheel-pkwy", "@spider": "tom_thumb", "addr:full": "2535 Firewheel Pkwy", "addr:city": "Garland", "addr:state": "TX", "addr:postcode": "75040", "addr:country": "US", "name": "Firewheel Pkwy", "phone": "(972) 675-8661", "website": "https://local.tomthumb.com/tx/garland/2535-firewheel-pkwy.html", "brand": "Tom Thumb", "brand:wikidata": "Q7817826"}, "geometry": {"type": "Point", "coordinates": [-96.60551905632019, 32.93741840305323]}},
{"type": "Feature", "id": "S9kmV96z0Z5d_iurbHdbaaw887c=", "properties": {"ref": "206-n-grand-ave", "@spider": "tom_thumb", "addr:full": "206 N Grand Ave", "addr:city": "Gainesville", "addr:state": "TX", "addr:postcode": "76240", "addr:country": "US", "name": "N Grand Ave", "phone": "(940) 665-0311", "website": "https://local.tomthumb.com/tx/gainesville/206-n-grand-ave.html", "brand": "Tom Thumb", "brand:wikidata": "Q7817826"}, "geometry": {"type": "Point", "coordinates": [-97.13258852327881, 33.6253009317477]}},
{"type": "Feature", "id": "6bnsLDW4EcSJjsiNCDnMn-wXAi0=", "properties": {"ref": "4848-preston-rd", "@spider": "tom_thumb", "addr:full": "4848 Preston Rd", "addr:city": "Frisco", "addr:state": "TX", "addr:postcode": "75034", "addr:country": "US", "name": "Preston Rd", "phone": "(972) 377-1800", "website": "https://local.tomthumb.com/tx/frisco/4848-preston-rd.html", "brand": "Tom Thumb", "brand:wikidata": "Q7817826"}, "geometry": {"type": "Point", "coordinates": [-96.8041069, 33.11874]}},
{"type": "Feature", "id": "P95VbD_HavXMNTA8eWoKfmhqBAs=", "properties": {"ref": "6377-camp-bowie-blvd", "@spider": "tom_thumb", "addr:full": "6377 Camp Bowie Blvd", "addr:city": "Fort Worth", "addr:state": "TX", "addr:postcode": "76116", "addr:country": "US", "name": "Camp Bowie Blvd", "phone": "(817) 377-5980", "website": "https://local.tomthumb.com/tx/fort-worth/6377-camp-bowie-blvd.html", "brand": "Tom Thumb", "brand:wikidata": "Q7817826"}, "geometry": {"type": "Point", "coordinates": [-97.4202416, 32.7250411]}},
{"type": "Feature", "id": "WObkceYDBuUKR8dfe8Iwnq4uPvU=", "properties": {"ref": "3100-s-hulen-st", "@spider": "tom_thumb", "addr:full": "3100 S Hulen St", "addr:city": "Fort Worth", "addr:state": "TX", "addr:postcode": "76109", "addr:country": "US", "name": "Hulen St", "phone": "(817) 570-2950", "website": "https://local.tomthumb.com/tx/fort-worth/3100-s-hulen-st.html", "brand": "Tom Thumb", "brand:wikidata": "Q7817826"}, "geometry": {"type": "Point", "coordinates": [-97.39003300666815, 32.70606568831487]}},
{"type": "Feature", "id": "yzDbuBgS0mHn4Mw43Qkf5fBQJxY=", "properties": {"ref": "745-cross-timbers-rd", "@spider": "tom_thumb", "addr:full": "745 Cross Timbers Rd", "addr:city": "Flower Mound", "addr:state": "TX", "addr:postcode": "75028", "addr:country": "US", "name": "Cross Timbers Rd", "phone": "(972) 539-6828", "website": "https://local.tomthumb.com/tx/flower-mound/745-cross-timbers-rd.html", "brand": "Tom Thumb", "brand:wikidata": "Q7817826"}, "geometry": {"type": "Point", "coordinates": [-97.0380386, 33.041054]}},
{"type": "Feature", "id": "O5ShDGDbLW8k80f19M-wEk8WTvs=", "properties": {"ref": "4301-cross-timbers-rd", "@spider": "tom_thumb", "addr:full": "4301 Cross Timbers Rd", "addr:city": "Flower Mound", "addr:state": "TX", "addr:postcode": "75028", "addr:country": "US", "name": "Cross Timbers Rd", "phone": "(972) 691-2084", "website": "https://local.tomthumb.com/tx/flower-mound/4301-cross-timbers-rd.html", "brand": "Tom Thumb", "brand:wikidata": "Q7817826"}, "geometry": {"type": "Point", "coordinates": [-97.09769841111451, 33.03989850611267]}},
{"type": "Feature", "id": "CbzcyZBlLiWPTlmVW3yxwvyU0Cw=", "properties": {"ref": "2301-justin-rd", "@spider": "tom_thumb", "addr:full": "2301 Justin Rd", "addr:city": "Flower Mound", "addr:state": "TX", "addr:postcode": "75028", "addr:country": "US", "name": "Justin Rd", "phone": "(972) 539-2366", "website": "https://local.tomthumb.com/tx/flower-mound/2301-justin-rd.html", "brand": "Tom Thumb", "brand:wikidata": "Q7817826"}, "geometry": {"type": "Point", "coordinates": [-97.06396288465578, 33.07153254953515]}},
{"type": "Feature", "id": "qQDz20nHy3aLuXEoi45FyaUZ_kU=", "properties": {"ref": "633-w-wheatland-rd", "@spider": "tom_thumb", "addr:full": "633 W Wheatland Rd", "addr:city": "Duncanville", "addr:state": "TX", "addr:postcode": "75116", "addr:country": "US", "name": "Wheatland Rd", "phone": "(972) 780-0792", "website": "https://local.tomthumb.com/tx/duncanville/633-w-wheatland-rd.html", "brand": "Tom Thumb", "brand:wikidata": "Q7817826"}, "geometry": {"type": "Point", "coordinates": [-96.92284816452911, 32.648239762236436]}},
{"type": "Feature", "id": "PkBxaw225e7t4lHV0cCJVi-8GSU=", "properties": {"ref": "210-e-pleasant-run-rd", "@spider": "tom_thumb", "addr:full": "210 E Pleasant Run Rd", "addr:city": "Desoto", "addr:state": "TX", "addr:postcode": "75115", "addr:country": "US", "name": "Pleasant Run Rd", "phone": "(972) 274-7000", "website": "https://local.tomthumb.com/tx/desoto/210-e-pleasant-run-rd.html", "brand": "Tom Thumb", "brand:wikidata": "Q7817826"}, "geometry": {"type": "Point", "coordinates": [-96.8556441, 32.6028936]}},
{"type": "Feature", "id": "J5NFx0QAk8o1FX5UT-gTQsWQgJg=", "properties": {"ref": "8698-skillman-st", "@spider": "tom_thumb", "addr:full": "8698 Skillman St", "addr:city": "Dallas", "addr:state": "TX", "addr:postcode": "75243", "addr:country": "US", "name": "Skillman St", "phone": "(214) 340-1266", "website": "https://local.tomthumb.com/tx/dallas/8698-skillman-st.html", "brand": "Tom Thumb", "brand:wikidata": "Q7817826"}, "geometry": {"type": "Point", "coordinates": [-96.72044368120623, 32.89613773340187]}},
{"type": "Feature", "id": "SqUum-r4FK9zqLSdPSImni-W2Us=", "properties": {"ref": "7700-northwest-hwy", "@spider": "tom_thumb", "addr:full": "7700 Northwest Hwy", "addr:city": "Dallas", "addr:state": "TX", "addr:postcode": "75225", "addr:country": "US", "name": "N West Hwy", "phone": "(214) 346-1020", "website": "https://local.tomthumb.com/tx/dallas/7700-northwest-hwy.html", "brand": "Tom Thumb", "brand:wikidata": "Q7817826"}, "geometry": {"type": "Point", "coordinates": [-96.77504941349181, 32.86405719956808]}},
{"type": "Feature", "id": "Pro3XC7gd46PIvAG9Q0F82EXBl0=", "properties": {"ref": "7331-gaston-ave", "@spider": "tom_thumb", "addr:full": "7331 Gaston Ave", "addr:city": "Dallas", "addr:state": "TX", "addr:postcode": "75214", "addr:country": "US", "name": "Gaston Ave", "phone": "(972) 201-2500", "website": "https://local.tomthumb.com/tx/dallas/7331-gaston-ave.html", "brand": "Tom Thumb", "brand:wikidata": "Q7817826"}, "geometry": {"type": "Point", "coordinates": [-96.7301087, 32.8131221]}},
{"type": "Feature", "id": "027Lom1xDyve_HgzK3QO7frQjzM=", "properties": {"ref": "7117-inwood-rd", "@spider": "tom_thumb", "addr:full": "7117 Inwood Rd", "addr:city": "Dallas", "addr:state": "TX", "addr:postcode": "75209", "addr:country": "US", "name": "Inwood Rd", "phone": "(214) 350-3883", "website": "https://local.tomthumb.com/tx/dallas/7117-inwood-rd.html", "brand": "Tom Thumb", "brand:wikidata": "Q7817826"}, "geometry": {"type": "Point", "coordinates": [-96.8226018, 32.8445]}},
{"type": "Feature", "id": "5jS2beEZ3Vh_A567ydyGVk2Atlo=", "properties": {"ref": "921-westgate-way", "@spider": "tom_thumb", "addr:full": "921 Westgate Way", "addr:city": "Wylie", "addr:state": "TX", "addr:postcode": "75098", "addr:country": "US", "name": "Westgate Way", "phone": "(972) 429-7840", "website": "https://local.tomthumb.com/tx/wylie/921-westgate-way.html", "brand": "Tom Thumb", "brand:wikidata": "Q7817826"}, "geometry": {"type": "Point", "coordinates": [-96.5521150708355, 33.00650900093737]}},
{"type": "Feature", "id": "Ff7XP_T6QcIhvAqC1jz87o-3uyI=", "properties": {"ref": "101-trophy-lake-dr", "@spider": "tom_thumb", "addr:full": "101 Trophy Lake Dr", "addr:city": "Trophy Club", "addr:state": "TX", "addr:postcode": "76262", "addr:country": "US", "name": "Trophy Lake Dr", "phone": "(817) 490-6960", "website": "https://local.tomthumb.com/tx/trophy-club/101-trophy-lake-dr.html", "brand": "Tom Thumb", "brand:wikidata": "Q7817826"}, "geometry": {"type": "Point", "coordinates": [-97.205279, 32.999729]}},
{"type": "Feature", "id": "K6FijFKiQ2gCPXlP01oMWN8bkJs=", "properties": {"ref": "100-w-southlake-blvd", "@spider": "tom_thumb", "addr:full": "100 W Southlake Blvd", "addr:city": "Southlake", "addr:state": "TX", "addr:postcode": "76092", "addr:country": "US", "name": "Southlake Blvd", "phone": "(817) 416-5464", "website": "https://local.tomthumb.com/tx/southlake/100-w-southlake-blvd.html", "brand": "Tom Thumb", "brand:wikidata": "Q7817826"}, "geometry": {"type": "Point", "coordinates": [-97.1517489, 32.9432837]}},
{"type": "Feature", "id": "TCLxRBtbB0ml3GoO_gwJwFg9W_I=", "properties": {"ref": "8805-lakeview-pkwy", "@spider": "tom_thumb", "addr:full": "8805 Lakeview Pkwy", "addr:city": "Rowlett", "addr:state": "TX", "addr:postcode": "75088", "addr:country": "US", "name": "Lakeview Pkwy", "phone": "(214) 607-0218", "website": "https://local.tomthumb.com/tx/rowlett/8805-lakeview-pkwy.html", "brand": "Tom Thumb", "brand:wikidata": "Q7817826"}, "geometry": {"type": "Point", "coordinates": [-96.5163504, 32.9205223]}},
{"type": "Feature", "id": "ZbOFnrKGtZ4bHnDwRDfUpdHKLwY=", "properties": {"ref": "3070-n-goliad-st", "@spider": "tom_thumb", "addr:full": "3070 N Goliad St", "addr:city": "Rockwall", "addr:state": "TX", "addr:postcode": "75087", "addr:country": "US", "name": "N Goliad St", "phone": "(972) 961-9330", "website": "https://local.tomthumb.com/tx/rockwall/3070-n-goliad-st.html", "brand": "Tom Thumb", "brand:wikidata": "Q7817826"}, "geometry": {"type": "Point", "coordinates": [-96.46249885158996, 32.964395646523705]}},
{"type": "Feature", "id": "hd3fTwZ_R0cYwW1YEonCCszehsA=", "properties": {"ref": "819-arapaho-rd", "@spider": "tom_thumb", "addr:full": "819 Arapaho Rd", "addr:city": "Richardson", "addr:state": "TX", "addr:postcode": "75080", "addr:country": "US", "name": "Arapaho Village Rd", "phone": "(972) 235-3917", "website": "https://local.tomthumb.com/tx/richardson/819-arapaho-rd.html", "brand": "Tom Thumb", "brand:wikidata": "Q7817826"}, "geometry": {"type": "Point", "coordinates": [-96.74981653690344, 32.96139819992371]}},
{"type": "Feature", "id": "x2d1h_IRcTJdlKY-Jb0y8O-1r7c=", "properties": {"ref": "3411-custer-pkwy", "@spider": "tom_thumb", "addr:full": "3411 Custer Pkwy", "addr:city": "Richardson", "addr:state": "TX", "addr:postcode": "75080", "addr:country": "US", "name": "Custer Pkwy", "phone": "(972) 470-1360", "website": "https://local.tomthumb.com/tx/richardson/3411-custer-pkwy.html", "brand": "Tom Thumb", "brand:wikidata": "Q7817826"}, "geometry": {"type": "Point", "coordinates": [-96.7305525, 32.9988139]}},
{"type": "Feature", "id": "IS4_Opw3wpy6UyLYW3MLyvpN7kU=", "properties": {"ref": "1380-w-campbell-rd", "@spider": "tom_thumb", "addr:full": "1380 W Campbell Rd", "addr:city": "Richardson", "addr:state": "TX", "addr:postcode": "75080", "addr:country": "US", "name": "Campbell Rd", "phone": "(972) 680-6010", "website": "https://local.tomthumb.com/tx/richardson/1380-w-campbell-rd.html", "brand": "Tom Thumb", "brand:wikidata": "Q7817826"}, "geometry": {"type": "Point", "coordinates": [-96.76688978780476, 32.980084487358596]}},
{"type": "Feature", "id": "GsP_U6NOJKHztpf-aSymhOlAKTY=", "properties": {"ref": "7801-alma-dr", "@spider": "tom_thumb", "addr:full": "7801 Alma Dr", "addr:city": "Plano", "addr:state": "TX", "addr:postcode": "75025", "addr:country": "US", "name": "Alma Dr", "phone": "(972) 527-0961", "website": "https://local.tomthumb.com/tx/plano/7801-alma-dr.html", "brand": "Tom Thumb", "brand:wikidata": "Q7817826"}, "geometry": {"type": "Point", "coordinates": [-96.7135649, 33.0834223]}},
{"type": "Feature", "id": "b0ZFhytTZFk-qEfe7Q05LihQVZM=", "properties": {"ref": "5968-w-parker-rd", "@spider": "tom_thumb", "addr:full": "5968 W Parker Rd", "addr:city": "Plano", "addr:state": "TX", "addr:postcode": "75093", "addr:country": "US", "name": "Parker Rd", "phone": "(972) 473-3300", "website": "https://local.tomthumb.com/tx/plano/5968-w-parker-rd.html", "brand": "Tom Thumb", "brand:wikidata": "Q7817826"}, "geometry": {"type": "Point", "coordinates": [-96.82860850692578, 33.04298756835429]}},
{"type": "Feature", "id": "kzB5m_jVsrriiIvFnIfTcQqFGko=", "properties": {"ref": "3945-legacy-dr", "@spider": "tom_thumb", "addr:full": "3945 Legacy Dr", "addr:city": "Plano", "addr:state": "TX", "addr:postcode": "75023", "addr:country": "US", "name": "Legacy Dr", "phone": "(972) 491-2200", "website": "https://local.tomthumb.com/tx/plano/3945-legacy-dr.html", "brand": "Tom Thumb", "brand:wikidata": "Q7817826"}, "geometry": {"type": "Point", "coordinates": [-96.7706345, 33.0740407]}},
{"type": "Feature", "id": "bslAjkqiprQkX9c981ZVpiT2Mzg=", "properties": {"ref": "3100-independence-pkwy", "@spider": "tom_thumb", "addr:full": "3100 Independence Pkwy", "addr:city": "Plano", "addr:state": "TX", "addr:postcode": "75075", "addr:country": "US", "name": "Independence Pkwy", "phone": "(972) 596-4420", "website": "https://local.tomthumb.com/tx/plano/3100-independence-pkwy.html", "brand": "Tom Thumb", "brand:wikidata": "Q7817826"}, "geometry": {"type": "Point", "coordinates": [-96.7523111, 33.0390418]}},
{"type": "Feature", "id": "EIPD3OyKsbaerS-K9R5Exyn9Un0=", "properties": {"ref": "1501-pioneer-rd", "@spider": "tom_thumb", "addr:full": "1501 Pioneer Rd", "addr:city": "Mesquite", "addr:state": "TX", "addr:postcode": "75149", "addr:country": "US", "name": "Pioneer Rd", "phone": "(972) 290-3350", "website": "https://local.tomthumb.com/tx/mesquite/1501-pioneer-rd.html", "brand": "Tom Thumb", "brand:wikidata": "Q7817826"}, "geometry": {"type": "Point", "coordinates": [-96.5863268, 32.7461026]}},
{"type": "Feature", "id": "NBoqkrx9vSLEawrHOw4MGMSxdDc=", "properties": {"ref": "6800-w-virginia-pkwy", "@spider": "tom_thumb", "addr:full": "6800 W Virginia Pkwy", "addr:city": "McKinney", "addr:state": "TX", "addr:postcode": "75071", "addr:country": "US", "name": "Virginia Pkwy", "phone": "(972) 542-8083", "website": "https://local.tomthumb.com/tx/mckinney/6800-w-virginia-pkwy.html", "brand": "Tom Thumb", "brand:wikidata": "Q7817826"}, "geometry": {"type": "Point", "coordinates": [-96.7063768284151, 33.2005171509045]}},
{"type": "Feature", "id": "5dMD15TvIjss5xh7i5FehchZ00I=", "properties": {"ref": "3001-hardin-blvd", "@spider": "tom_thumb", "addr:full": "3001 Hardin Blvd", "addr:city": "McKinney", "addr:state": "TX", "addr:postcode": "75070", "addr:country": "US", "name": "Hardin Blvd", "phone": "(469) 678-3677", "website": "https://local.tomthumb.com/tx/mckinney/3001-hardin-blvd.html", "brand": "Tom Thumb", "brand:wikidata": "Q7817826"}, "geometry": {"type": "Point", "coordinates": [-96.6631174, 33.1670075]}},
{"type": "Feature", "id": "-C0QCqKJTutX6aqmGmXdfx6s9vo=", "properties": {"ref": "1000-keller-pkwy", "@spider": "tom_thumb", "addr:full": "1000 Keller Pkwy", "addr:city": "Keller", "addr:state": "TX", "addr:postcode": "76248", "addr:country": "US", "name": "Keller Pkwy", "phone": "(817) 337-8030", "website": "https://local.tomthumb.com/tx/keller/1000-keller-pkwy.html", "brand": "Tom Thumb", "brand:wikidata": "Q7817826"}, "geometry": {"type": "Point", "coordinates": [-97.2281451, 32.9323121]}},
{"type": "Feature", "id": "I-SDMwb9N_Q5KZod9x06hfoLAJQ=", "properties": {"ref": "4010-n-macarthur-blvd", "@spider": "tom_thumb", "addr:full": "4010 N Macarthur Blvd", "addr:city": "Irving", "addr:state": "TX", "addr:postcode": "75038", "addr:country": "US", "name": "Macarthur Blvd", "phone": "(972) 717-9727", "website": "https://local.tomthumb.com/tx/irving/4010-n-macarthur-blvd.html", "brand": "Tom Thumb", "brand:wikidata": "Q7817826"}, "geometry": {"type": "Point", "coordinates": [-96.9572983682429, 32.85983607365664]}},
{"type": "Feature", "id": "MZO8RAnpKS3EMvG-JcV_migjrjk=", "properties": {"ref": "612-grapevine-hwy", "@spider": "tom_thumb", "addr:full": "612 Grapevine Hwy", "addr:city": "Hurst", "addr:state": "TX", "addr:postcode": "76054", "addr:country": "US", "name": "Grapevine Hwy", "phone": "(817) 428-0383", "website": "https://local.tomthumb.com/tx/hurst/612-grapevine-hwy.html", "brand": "Tom Thumb", "brand:wikidata": "Q7817826"}, "geometry": {"type": "Point", "coordinates": [-97.17950105667114, 32.86406120535523]}},
{"type": "Feature", "id": "pzyDxN3sAcEh3BV64RJcW5XaeGY=", "properties": {"ref": "551-laurence-dr", "@spider": "tom_thumb", "addr:full": "551 Laurence Dr", "addr:city": "Heath", "addr:state": "TX", "addr:postcode": "75032", "addr:country": "US", "name": "Laurence Dr", "phone": "(469) 651-6368", "website": "https://local.tomthumb.com/tx/heath/551-laurence-dr.html", "brand": "Tom Thumb", "brand:wikidata": "Q7817826"}, "geometry": {"type": "Point", "coordinates": [-96.4726458, 32.8414516]}},
{"type": "Feature", "id": "_OlnyaaWT1zLgYsn6Tqb1hdhZQg=", "properties": {"ref": "4000-william-d-tate-ave", "@spider": "tom_thumb", "addr:full": "4000 William D Tate Ave", "addr:city": "Grapevine", "addr:state": "TX", "addr:postcode": "76051", "addr:country": "US", "name": "William D Tate Ave", "phone": "(817) 785-1004", "website": "https://local.tomthumb.com/tx/grapevine/4000-william-d-tate-ave.html", "brand": "Tom Thumb", "brand:wikidata": "Q7817826"}, "geometry": {"type": "Point", "coordinates": [-97.10208983735356, 32.89212587501763]}},
{"type": "Feature", "id": "Su-rjMeS8XtMnNBGZQlboJPwjw8=", "properties": {"ref": "302-s-park-blvd", "@spider": "tom_thumb", "addr:full": "302 S Park Blvd", "addr:city": "Grapevine", "addr:state": "TX", "addr:postcode": "76051", "addr:country": "US", "name": "S Park Blvd", "phone": "(817) 481-5669", "website": "https://local.tomthumb.com/tx/grapevine/302-s-park-blvd.html", "brand": "Tom Thumb", "brand:wikidata": "Q7817826"}, "geometry": {"type": "Point", "coordinates": [-97.0974789, 32.9388137]}},
{"type": "Feature", "id": "Q9TRSZoQCQPFF1PtovMUKo4t0Pc=", "properties": {"ref": "4215-s-carrier-pkwy", "@spider": "tom_thumb", "addr:full": "4215 S Carrier Pkwy", "addr:city": "Grand Prairie", "addr:state": "TX", "addr:postcode": "75052", "addr:country": "US", "name": "Carrier Pkwy", "phone": "(972) 266-7050", "website": "https://local.tomthumb.com/tx/grand-prairie/4215-s-carrier-pkwy.html", "brand": "Tom Thumb", "brand:wikidata": "Q7817826"}, "geometry": {"type": "Point", "coordinates": [-97.0034707, 32.6712253]}},
{"type": "Feature", "id": "uO8RHU1HpLccO114sxaetCqMLjQ=", "properties": {"ref": "925-northwest-hwy", "@spider": "tom_thumb", "addr:full": "925 Northwest Hwy", "addr:city": "Garland", "addr:state": "TX", "addr:postcode": "75041", "addr:country": "US", "name": "N West Hwy", "phone": "(972) 271-0582", "website": "https://local.tomthumb.com/tx/garland/925-northwest-hwy.html", "brand": "Tom Thumb", "brand:wikidata": "Q7817826"}, "geometry": {"type": "Point", "coordinates": [-96.6431636, 32.8623445]}},
{"type": "Feature", "id": "_CZgQ9BgnWbKLbh4FbsDxddSxHM=", "properties": {"ref": "7000-snider-plaza", "@spider": "tom_thumb", "addr:full": "7000 Snider Plaza", "addr:city": "Dallas", "addr:state": "TX", "addr:postcode": "75205", "addr:country": "US", "name": "Snider Plaza", "phone": "(214) 346-4580", "website": "https://local.tomthumb.com/tx/dallas/7000-snider-plaza.html", "brand": "Tom Thumb", "brand:wikidata": "Q7817826"}, "geometry": {"type": "Point", "coordinates": [-96.78725420833416, 32.85048180650469]}},
{"type": "Feature", "id": "TNO-vUhrqohmEgN6fJV8OsSC4ss=", "properties": {"ref": "6333-e-mockingbird-ln", "@spider": "tom_thumb", "addr:full": "6333 E Mockingbird Ln", "addr:city": "Dallas", "addr:state": "TX", "addr:postcode": "75214", "addr:country": "US", "name": "Mockinbird Ln", "phone": "(214) 824-1265", "website": "https://local.tomthumb.com/tx/dallas/6333-e-mockingbird-ln.html", "brand": "Tom Thumb", "brand:wikidata": "Q7817826"}, "geometry": {"type": "Point", "coordinates": [-96.75445810721612, 32.83773625894114]}},
{"type": "Feature", "id": "_GXdRqBlcGoQ1B3kWROBL70mRGA=", "properties": {"ref": "5809-e-lovers-ln", "@spider": "tom_thumb", "addr:full": "5809 E Lovers Ln", "addr:city": "Dallas", "addr:state": "TX", "addr:postcode": "75206", "addr:country": "US", "name": "E Lovers Ln", "phone": "(214) 750-3200", "website": "https://local.tomthumb.com/tx/dallas/5809-e-lovers-ln.html", "brand": "Tom Thumb", "brand:wikidata": "Q7817826"}, "geometry": {"type": "Point", "coordinates": [-96.76703480185242, 32.85225692939164]}},
{"type": "Feature", "id": "xQTIGk1erpf6hPANnwsoGhN0aPU=", "properties": {"ref": "522-royal-ln", "@spider": "tom_thumb", "addr:full": "522 Royal Ln", "addr:city": "Dallas", "addr:state": "TX", "addr:postcode": "75230", "addr:country": "US", "name": "Preston Royal Ctr", "phone": "(214) 363-7685", "website": "https://local.tomthumb.com/tx/dallas/522-royal-ln.html", "brand": "Tom Thumb", "brand:wikidata": "Q7817826"}, "geometry": {"type": "Point", "coordinates": [-96.8048833, 32.896315]}},
{"type": "Feature", "id": "ALG4yL5-FA1bEv9OBkDcFd5TJ4c=", "properties": {"ref": "4625-frankford-rd", "@spider": "tom_thumb", "addr:full": "4625 Frankford Rd", "addr:city": "Dallas", "addr:state": "TX", "addr:postcode": "75287", "addr:country": "US", "name": "Dallas - Dallas Parkway & Frankford", "phone": "(972) 732-6291", "website": "https://local.tomthumb.com/tx/dallas/4625-frankford-rd.html", "brand": "Tom Thumb", "brand:wikidata": "Q7817826"}, "geometry": {"type": "Point", "coordinates": [-96.8272396, 32.9992841]}},
{"type": "Feature", "id": "PdgU6d_qp0oxBELX7_z8fpLmVwk=", "properties": {"ref": "4001-villanova-st", "@spider": "tom_thumb", "addr:full": "4001 Villanova St", "addr:city": "Dallas", "addr:state": "TX", "addr:postcode": "75225", "addr:country": "US", "name": "Villanova Dr", "phone": "(214) 368-8636", "website": "https://local.tomthumb.com/tx/dallas/4001-villanova-st.html", "brand": "Tom Thumb", "brand:wikidata": "Q7817826"}, "geometry": {"type": "Point", "coordinates": [-96.80215448141098, 32.86365342058137]}},
{"type": "Feature", "id": "gh14-NnjqkWrGaZyh1kcmOWo-t8=", "properties": {"ref": "3757-forest-ln", "@spider": "tom_thumb", "addr:full": "3757 Forest Ln", "addr:city": "Dallas", "addr:state": "TX", "addr:postcode": "75244", "addr:country": "US", "name": "Forest Ln", "phone": "(972) 241-4426", "website": "https://local.tomthumb.com/tx/dallas/3757-forest-ln.html", "brand": "Tom Thumb", "brand:wikidata": "Q7817826"}, "geometry": {"type": "Point", "coordinates": [-96.85303465284966, 32.91079549535806]}},
{"type": "Feature", "id": "RBUgIZUK53CsYtJD_rDGu-d6PI0=", "properties": {"ref": "315-s-hampton-rd", "@spider": "tom_thumb", "addr:full": "315 S Hampton Rd", "addr:city": "Dallas", "addr:state": "TX", "addr:postcode": "75208", "addr:country": "US", "name": "Hampton Rd", "phone": "(214) 331-0160", "website": "https://local.tomthumb.com/tx/dallas/315-s-hampton-rd.html", "brand": "Tom Thumb", "brand:wikidata": "Q7817826"}, "geometry": {"type": "Point", "coordinates": [-96.85838058227846, 32.742614903536456]}},
{"type": "Feature", "id": "joQ3HuAcrAby9AbvVXFe73NLYdE=", "properties": {"ref": "2727-live-oak-st", "@spider": "tom_thumb", "addr:full": "2727 Live Oak St", "addr:city": "Dallas", "addr:state": "TX", "addr:postcode": "75204", "addr:country": "US", "name": "Live Oak St", "phone": "(214) 273-2115", "website": "https://local.tomthumb.com/tx/dallas/2727-live-oak-st.html", "brand": "Tom Thumb", "brand:wikidata": "Q7817826"}, "geometry": {"type": "Point", "coordinates": [-96.78910563367748, 32.789081897340075]}},
{"type": "Feature", "id": "4fTeRY6J2jAwMZ3gk_FN88_6mHA=", "properties": {"ref": "2380-field-st", "@spider": "tom_thumb", "addr:full": "2380 Field St", "addr:city": "Dallas", "addr:state": "TX", "addr:postcode": "75201", "addr:country": "US", "name": "The Union", "phone": "(972) 454-5045", "website": "https://local.tomthumb.com/tx/dallas/2380-field-st.html", "brand": "Tom Thumb", "brand:wikidata": "Q7817826"}, "geometry": {"type": "Point", "coordinates": [-96.80649538095093, 32.78914036119644]}},
{"type": "Feature", "id": "1CARIinBPcRyiK6iuIkgT1Vi7FU=", "properties": {"ref": "18212-preston-rd", "@spider": "tom_thumb", "addr:full": "18212 Preston Rd", "addr:city": "Dallas", "addr:state": "TX", "addr:postcode": "75252", "addr:country": "US", "name": "Preston Rd", "phone": "(972) 985-2240", "website": "https://local.tomthumb.com/tx/dallas/18212-preston-rd.html", "brand": "Tom Thumb", "brand:wikidata": "Q7817826"}, "geometry": {"type": "Point", "coordinates": [-96.7936833, 32.9998551]}},
{"type": "Feature", "id": "D-lnOV2nevTBFkBjSxoLek_ZxPE=", "properties": {"ref": "14999-preston-rd", "@spider": "tom_thumb", "addr:full": "14999 Preston Rd", "addr:city": "Dallas", "addr:state": "TX", "addr:postcode": "75254", "addr:country": "US", "name": "Preston Rd", "phone": "(972) 789-6950", "website": "https://local.tomthumb.com/tx/dallas/14999-preston-rd.html", "brand": "Tom Thumb", "brand:wikidata": "Q7817826"}, "geometry": {"type": "Point", "coordinates": [-96.8058468, 32.9523183]}},
{"type": "Feature", "id": "oM5iHwo7R2Erdmt_CgvhxVnYEQU=", "properties": {"ref": "11920-preston-rd", "@spider": "tom_thumb", "addr:full": "11920 Preston Rd", "addr:city": "Dallas", "addr:state": "TX", "addr:postcode": "75230", "addr:country": "US", "name": "Preston Rd", "phone": "(972) 392-2501", "website": "https://local.tomthumb.com/tx/dallas/11920-preston-rd.html", "brand": "Tom Thumb", "brand:wikidata": "Q7817826"}, "geometry": {"type": "Point", "coordinates": [-96.80217148280335, 32.91114912804621]}},
{"type": "Feature", "id": "vIrP7SmRDXEMrwSO3roQSM_lyq4=", "properties": {"ref": "10455-n-central-expwy", "@spider": "tom_thumb", "addr:full": "10455 N Central Expwy", "addr:city": "Dallas", "addr:state": "TX", "addr:postcode": "75231", "addr:country": "US", "name": "N Central Expwy", "phone": "(214) 369-9694", "website": "https://local.tomthumb.com/tx/dallas/10455-n-central-expwy.html", "brand": "Tom Thumb", "brand:wikidata": "Q7817826"}, "geometry": {"type": "Point", "coordinates": [-96.7717555, 32.8889581]}},
{"type": "Feature", "id": "8MVMXoC48RW0td97Xa6Q3Umppwo=", "properties": {"ref": "106-n-denton-tap-rd", "@spider": "tom_thumb", "addr:full": "106 N Denton Tap Rd", "addr:city": "Coppell", "addr:state": "TX", "addr:postcode": "75019", "addr:country": "US", "name": "N Denton Tap Rd", "phone": "(972) 304-3223", "website": "https://local.tomthumb.com/tx/coppell/106-n-denton-tap-rd.html", "brand": "Tom Thumb", "brand:wikidata": "Q7817826"}, "geometry": {"type": "Point", "coordinates": [-96.99192748234958, 32.97059107192944]}},
{"type": "Feature", "id": "lHvuzI7GOTmlzVdX3hSG75XijX4=", "properties": {"ref": "4112-n-josey-ln", "@spider": "tom_thumb", "addr:full": "4112 N Josey Ln", "addr:city": "Carrollton", "addr:state": "TX", "addr:postcode": "75007", "addr:country": "US", "name": "Josey", "phone": "(972) 394-4127", "website": "https://local.tomthumb.com/tx/carrollton/4112-n-josey-ln.html", "brand": "Tom Thumb", "brand:wikidata": "Q7817826"}, "geometry": {"type": "Point", "coordinates": [-96.88328862190252, 33.023502921735805]}},
{"type": "Feature", "id": "ofQp7OxMVvTb9M71BEAN2Ai5iak=", "properties": {"ref": "2755-n-collins-st", "@spider": "tom_thumb", "addr:full": "2755 N Collins St", "addr:city": "Arlington", "addr:state": "TX", "addr:postcode": "76006", "addr:country": "US", "name": "N Collins St", "phone": "(817) 276-5360", "website": "https://local.tomthumb.com/tx/arlington/2755-n-collins-st.html", "brand": "Tom Thumb", "brand:wikidata": "Q7817826"}, "geometry": {"type": "Point", "coordinates": [-97.09335386753082, 32.783224638004434]}},
{"type": "Feature", "id": "COMFLUprzByrMRHuMxqFRWp9Hqo=", "properties": {"ref": "2611-w-park-row-dr", "@spider": "tom_thumb", "addr:full": "2611 W Park Row Dr", "addr:city": "Arlington", "addr:state": "TX", "addr:postcode": "76013", "addr:country": "US", "name": "W Park Row Dr", "phone": "(817) 462-0151", "website": "https://local.tomthumb.com/tx/arlington/2611-w-park-row-dr.html", "brand": "Tom Thumb", "brand:wikidata": "Q7817826"}, "geometry": {"type": "Point", "coordinates": [-97.15037763118744, 32.72275656143119]}},
{"type": "Feature", "id": "7Y_Kqrwf2ydGGEct1396iVwRBpc=", "properties": {"ref": "1701-randol-mill-rd", "@spider": "tom_thumb", "addr:full": "1701 Randol Mill Rd", "addr:city": "Arlington", "addr:state": "TX", "addr:postcode": "76012", "addr:country": "US", "name": "Randol Mill Rd", "phone": "(817) 460-8551", "website": "https://local.tomthumb.com/tx/arlington/1701-randol-mill-rd.html", "brand": "Tom Thumb", "brand:wikidata": "Q7817826"}, "geometry": {"type": "Point", "coordinates": [-97.13371844622083, 32.75084178137294]}},
{"type": "Feature", "id": "XqbU-zkd3g_hKxHsbK2xa_ElpnU=", "properties": {"ref": "900-w-mcdermott-dr", "@spider": "tom_thumb", "addr:full": "900 W McDermott Dr", "addr:city": "Allen", "addr:state": "TX", "addr:postcode": "75013", "addr:country": "US", "name": "Mcdermott Dr", "phone": "(214) 495-3710", "website": "https://local.tomthumb.com/tx/allen/900-w-mcdermott-dr.html", "brand": "Tom Thumb", "brand:wikidata": "Q7817826"}, "geometry": {"type": "Point", "coordinates": [-96.68295635841787, 33.10310003405277]}}]}