{"type":"FeatureCollection","features":[{"type": "Feature", "id": "bi5I8OhR89bVTLGCtXPbI6Zwpxg=", "properties": {"ref": "535", "@spider": "tops", "official_name": "Tops Friendly Markets", "shop": "supermarket", "addr:full": "1936 US Route 6", "addr:city": "Carmel", "addr:state": "NY", "addr:postcode": "10512", "name": "Tops", "phone": "(845) 225-4151", "brand": "Tops", "brand:wikidata": "Q7825137", "nsi_id": "tops-dde59d"}, "geometry": {"type": "Point", "coordinates": [-73.663724, 41.411912]}},
{"type": "Feature", "id": "-5F4QuSlo_3vwUmliVy0Qg6lEFY=", "properties": {"ref": "360", "@spider": "tops", "official_name": "Tops Friendly Markets", "shop": "supermarket", "addr:full": "Rt. 5 & Oxbow Road", "addr:city": "Canastota", "addr:state": "NY", "addr:postcode": "13032", "name": "Tops", "phone": "(315) 697-2700", "brand": "Tops", "brand:wikidata": "Q7825137", "nsi_id": "tops-dde59d"}, "geometry": {"type": "Point", "coordinates": [-75.752117, 43.069713]}},
{"type": "Feature", "id": "LCUy7yXdyHmfYJZgUiKDSoZR0W4=", "properties": {"ref": "432", "@spider": "tops", "official_name": "Tops Friendly Markets", "shop": "supermarket", "addr:full": "5150 North Street", "addr:city": "Canandaigua", "addr:state": "NY", "addr:postcode": "14424", "name": "Tops", "phone": "(585) 394-5120", "brand": "Tops", "brand:wikidata": "Q7825137", "nsi_id": "tops-dde59d"}, "geometry": {"type": "Point", "coordinates": [-77.297259, 42.904359]}},
{"type": "Feature", "id": "77rNjbi1qg--ae9Noj17PVdSYPg=", "properties": {"ref": "358", "@spider": "tops", "official_name": "Tops Friendly Markets", "shop": "supermarket", "addr:full": "5335 West Genesee Street", "addr:city": "Camillus", "addr:state": "NY", "addr:postcode": "13031", "name": "Tops", "phone": "(315) 487-0787", "brand": "Tops", "brand:wikidata": "Q7825137", "nsi_id": "tops-dde59d"}, "geometry": {"type": "Point", "coordinates": [-76.2718874, 43.0411326]}},
{"type": "Feature", "id": "iZgZpihq2LMLtEln3x8r-Z0YoeE=", "properties": {"ref": "586", "@spider": "tops", "official_name": "Tops Friendly Markets", "shop": "supermarket", "addr:full": "9554 Harden Blvd/State Rt 13", "addr:city": "Camden", "addr:state": "NY", "addr:postcode": "13316", "name": "Tops", "phone": "(315) 245-4745", "brand": "Tops", "brand:wikidata": "Q7825137", "nsi_id": "tops-dde59d"}, "geometry": {"type": "Point", "coordinates": [-75.747964, 43.3345138]}},
{"type": "Feature", "id": "MS0uuhDG6pZW8Oi-r-Pks52CcMg=", "properties": {"ref": "66", "@spider": "tops", "official_name": "Tops Friendly Markets", "shop": "supermarket", "addr:full": "1989 Seneca Street", "addr:city": "Buffalo", "addr:state": "NY", "addr:postcode": "14210", "name": "Tops", "phone": "(716) 824-1124", "brand": "Tops", "brand:wikidata": "Q7825137", "nsi_id": "tops-dde59d"}, "geometry": {"type": "Point", "coordinates": [-78.8118987, 42.8571861]}},
{"type": "Feature", "id": "vHcyeXWWtf0L-WWxcFjHQvH4VzU=", "properties": {"ref": "250", "@spider": "tops", "official_name": "Tops Friendly Markets", "shop": "supermarket", "addr:full": "1275 Jefferson Avenue", "addr:city": "Buffalo", "addr:state": "NY", "addr:postcode": "14208", "name": "Tops", "phone": "(716) 816-0038", "brand": "Tops", "brand:wikidata": "Q7825137", "nsi_id": "tops-dde59d"}, "geometry": {"type": "Point", "coordinates": [-78.852962, 42.909746]}},
{"type": "Feature", "id": "liZ8ZHkzFEqMfjCGIc3rkXUiCpg=", "properties": {"ref": "113", "@spider": "tops", "official_name": "Tops Friendly Markets", "shop": "supermarket", "addr:full": "425 Niagara Street", "addr:city": "Buffalo", "addr:state": "NY", "addr:postcode": "14201", "name": "Tops", "phone": "(716) 852-6112", "brand": "Tops", "brand:wikidata": "Q7825137", "nsi_id": "tops-dde59d"}, "geometry": {"type": "Point", "coordinates": [-78.886379, 42.896132]}},
{"type": "Feature", "id": "8Nu6EO5UO7UDF8AL38slrIkS-m8=", "properties": {"ref": "213", "@spider": "tops", "official_name": "Tops Friendly Markets", "shop": "supermarket", "addr:full": "1460 South Park Avenue", "addr:city": "Buffalo", "addr:state": "NY", "addr:postcode": "14220", "name": "Tops", "phone": "(716) 515-2050", "brand": "Tops", "brand:wikidata": "Q7825137", "nsi_id": "tops-dde59d"}, "geometry": {"type": "Point", "coordinates": [-78.829994, 42.858147]}},
{"type": "Feature", "id": "IhjxSx69EhEhQ0WjhWJ2KmEUl2s=", "properties": {"ref": "210", "@spider": "tops", "official_name": "Tops Friendly Markets", "shop": "supermarket", "addr:full": "345 Amherst Street", "addr:city": "Buffalo", "addr:state": "NY", "addr:postcode": "14207", "name": "Tops", "phone": "(716) 515-2170", "brand": "Tops", "brand:wikidata": "Q7825137", "nsi_id": "tops-dde59d"}, "geometry": {"type": "Point", "coordinates": [-78.8911036, 42.9377771]}},
{"type": "Feature", "id": "tX5QoBJKLceBEQkR7nPJClnqLFw=", "properties": {"ref": "239", "@spider": "tops", "official_name": "Tops Friendly Markets", "shop": "supermarket", "addr:full": "1740 Sheridan @ Delaware", "addr:city": "Buffalo", "addr:state": "NY", "addr:postcode": "14223", "name": "Tops", "phone": "(716) 874-4991", "brand": "Tops", "brand:wikidata": "Q7825137", "nsi_id": "tops-dde59d"}, "geometry": {"type": "Point", "coordinates": [-78.87039, 42.981969]}},
{"type": "Feature", "id": "C2WLH8Je4368dMEDEe7l-8gvrOA=", "properties": {"ref": "232", "@spider": "tops", "official_name": "Tops Friendly Markets", "shop": "supermarket", "addr:full": "2101 Elmwood Avenue", "addr:city": "Buffalo", "addr:state": "NY", "addr:postcode": "14207", "name": "Tops", "phone": "(716) 515-0050", "brand": "Tops", "brand:wikidata": "Q7825137", "nsi_id": "tops-dde59d"}, "geometry": {"type": "Point", "coordinates": [-78.8783148, 42.9558745]}},
{"type": "Feature", "id": "XDJck33CWTI_OQEEASk19oSTW6g=", "properties": {"ref": "412", "@spider": "tops", "official_name": "Tops Friendly Markets", "shop": "supermarket", "addr:full": "1900 Clinton Ave. South", "addr:city": "Brighton", "addr:state": "NY", "addr:postcode": "14618", "name": "Tops", "phone": "(585) 442-2990", "brand": "Tops", "brand:wikidata": "Q7825137", "nsi_id": "tops-dde59d"}, "geometry": {"type": "Point", "coordinates": [-77.5928789, 43.1205443]}},
{"type": "Feature", "id": "zc6VX-pJ8MpkUd4DFH3peXqIR5U=", "properties": {"ref": "598", "@spider": "tops", "official_name": "Tops Friendly Markets", "shop": "supermarket", "addr:full": "261 Utica Blvd.", "addr:city": "Boonville", "addr:state": "NY", "addr:postcode": "13309", "name": "Tops", "phone": "(315) 942-3000", "brand": "Tops", "brand:wikidata": "Q7825137", "nsi_id": "tops-dde59d"}, "geometry": {"type": "Point", "coordinates": [-75.317895, 43.467816]}},
{"type": "Feature", "id": "CQrrwyiQYTwyXvXgvR1iQx39vnY=", "properties": {"ref": "702", "@spider": "tops", "official_name": "Tops Friendly Markets", "shop": "supermarket", "addr:full": "4976 Lakeshore Drive", "addr:city": "Bolton Landing", "addr:state": "NY", "addr:postcode": "12814", "name": "Tops", "phone": "(518) 644-2069", "brand": "Tops", "brand:wikidata": "Q7825137", "nsi_id": "tops-dde59d"}, "geometry": {"type": "Point", "coordinates": [-73.653865, 43.558342]}},
{"type": "Feature", "id": "GJx8c0ny2GOCTDjGKTiO1ZFrbt0=", "properties": {"ref": "539", "@spider": "tops", "official_name": "Tops Friendly Markets", "shop": "supermarket", "addr:full": "309 W. Morris Street", "addr:city": "Bath", "addr:state": "NY", "addr:postcode": "14810", "name": "Tops", "phone": "(607) 776-1015", "brand": "Tops", "brand:wikidata": "Q7825137", "nsi_id": "tops-dde59d"}, "geometry": {"type": "Point", "coordinates": [-77.326799, 42.333885]}},
{"type": "Feature", "id": "kYyyOuRJxz0pjFBY2yni2Cmbqoc=", "properties": {"ref": "741", "@spider": "tops", "official_name": "Tops Friendly Markets", "shop": "supermarket", "addr:full": "63 Plaze Drive", "addr:city": "Northfield", "addr:state": "VT", "addr:postcode": "05663", "name": "Tops", "phone": "(802) 485-8878", "brand": "Tops", "brand:wikidata": "Q7825137", "nsi_id": "tops-dde59d"}, "geometry": {"type": "Point", "coordinates": [-72.655666, 44.161487]}},
{"type": "Feature", "id": "1jLEcM7BmmHdpuIBtC48BtlEgUQ=", "properties": {"ref": "742", "@spider": "tops", "official_name": "Tops Friendly Markets", "shop": "supermarket", "addr:full": "82 VT Route 15W", "addr:city": "Hardwick", "addr:state": "VT", "addr:postcode": "05843", "name": "Tops", "phone": "(802) 472-6504", "brand": "Tops", "brand:wikidata": "Q7825137", "nsi_id": "tops-dde59d"}, "geometry": {"type": "Point", "coordinates": [-72.360273, 44.503384]}},
{"type": "Feature", "id": "FSadsYadUP-Kxpw4KqlAarbLK-A=", "properties": {"ref": "669", "@spider": "tops", "official_name": "Tops Friendly Markets", "shop": "supermarket", "addr:full": "28 Railroad Street", "addr:city": "Youngsville", "addr:state": "PA", "addr:postcode": "16371", "name": "Tops", "phone": "(814) 563-4366", "brand": "Tops", "brand:wikidata": "Q7825137", "nsi_id": "tops-dde59d"}, "geometry": {"type": "Point", "coordinates": [-79.3173018, 41.850246]}},
{"type": "Feature", "id": "VS94R_aDqFQH71qVZRPAbsP3byU=", "properties": {"ref": "620", "@spider": "tops", "official_name": "Tops Friendly Markets", "shop": "supermarket", "addr:full": "198 West Main Street", "addr:city": "Westfield", "addr:state": "PA", "addr:postcode": "16950", "name": "Tops", "phone": "(814) 367-2320", "brand": "Tops", "brand:wikidata": "Q7825137", "nsi_id": "tops-dde59d"}, "geometry": {"type": "Point", "coordinates": [-77.542718, 41.918287]}},
{"type": "Feature", "id": "bf_uGX6DkPw1yyZSmEyfxwXEBes=", "properties": {"ref": "676", "@spider": "tops", "official_name": "Tops Friendly Markets", "shop": "supermarket", "addr:full": "11 Main Street", "addr:city": "Wellsboro", "addr:state": "PA", "addr:postcode": "16901", "name": "Tops", "phone": "(570) 724-5426", "brand": "Tops", "brand:wikidata": "Q7825137", "nsi_id": "tops-dde59d"}, "geometry": {"type": "Point", "coordinates": [-77.2988571, 41.749877]}},
{"type": "Feature", "id": "FZyWjXDGBb9Uim-Nm9ltgoDMs3A=", "properties": {"ref": "667", "@spider": "tops", "official_name": "Tops Friendly Markets", "shop": "supermarket", "addr:full": "230 South High St., PO Box 327", "addr:city": "Waterford", "addr:state": "PA", "addr:postcode": "16441", "name": "Tops", "phone": "(814) 796-6711", "brand": "Tops", "brand:wikidata": "Q7825137", "nsi_id": "tops-dde59d"}, "geometry": {"type": "Point", "coordinates": [-79.9838664, 41.941886]}},
{"type": "Feature", "id": "W-MISWQry9olBVMBm9XLo6AqPP4=", "properties": {"ref": "603", "@spider": "tops", "official_name": "Tops Friendly Markets", "shop": "supermarket", "addr:full": "74 Market Street", "addr:city": "Warren", "addr:state": "PA", "addr:postcode": "16365", "name": "Tops", "phone": "(814) 726-3660", "brand": "Tops", "brand:wikidata": "Q7825137", "nsi_id": "tops-dde59d"}, "geometry": {"type": "Point", "coordinates": [-79.144049, 41.84302]}},
{"type": "Feature", "id": "ovAITYdyOcvnBeaQBmEMOVOuPCQ=", "properties": {"ref": "668", "@spider": "tops", "official_name": "Tops Friendly Markets", "shop": "supermarket", "addr:full": "19-21 East High Street", "addr:city": "Union City", "addr:state": "PA", "addr:postcode": "16438", "name": "Tops", "phone": "(814) 438-7614", "brand": "Tops", "brand:wikidata": "Q7825137", "nsi_id": "tops-dde59d"}, "geometry": {"type": "Point", "coordinates": [-79.8437926, 41.8996743]}},
{"type": "Feature", "id": "i-uZXamJO8_XwdNRYNtVehhbW4o=", "properties": {"ref": "677", "@spider": "tops", "official_name": "Tops Friendly Markets", "shop": "supermarket", "addr:full": "684 Elmira Street", "addr:city": "Troy", "addr:state": "PA", "addr:postcode": "16947", "name": "Tops", "phone": "(570) 297-2475", "brand": "Tops", "brand:wikidata": "Q7825137", "nsi_id": "tops-dde59d"}, "geometry": {"type": "Point", "coordinates": [-76.7788952, 41.7901778]}},
{"type": "Feature", "id": "3XrU5Buxw61GzurY-kmwptH8C9U=", "properties": {"ref": "680", "@spider": "tops", "official_name": "Tops Friendly Markets", "shop": "supermarket", "addr:full": "Bradford Towne Center, RR Box 6035", "addr:city": "Towanda", "addr:state": "PA", "addr:postcode": "18848", "name": "Tops", "phone": "(570) 265-7006", "brand": "Tops", "brand:wikidata": "Q7825137", "nsi_id": "tops-dde59d"}, "geometry": {"type": "Point", "coordinates": [-76.3898391, 41.7725677]}},
{"type": "Feature", "id": "gIGPUV2Eu_T6lIoS6ny5RCbNrow=", "properties": {"ref": "671", "@spider": "tops", "official_name": "Tops Friendly Markets", "shop": "supermarket", "addr:full": "9 Leather Street", "addr:city": "Sheffield", "addr:state": "PA", "addr:postcode": "16347", "name": "Tops", "phone": "(814) 968-3014", "brand": "Tops", "brand:wikidata": "Q7825137", "nsi_id": "tops-dde59d"}, "geometry": {"type": "Point", "coordinates": [-79.0320719, 41.7025527]}},
{"type": "Feature", "id": "8hv5MdMheH-Ik4uVxXMELE0_S6Y=", "properties": {"ref": "650", "@spider": "tops", "official_name": "Tops Friendly Markets", "shop": "supermarket", "addr:full": "3014 N. Elmira Street", "addr:city": "Sayre", "addr:state": "PA", "addr:postcode": "18840", "name": "Tops", "phone": "(570) 882-9188", "brand": "Tops", "brand:wikidata": "Q7825137", "nsi_id": "tops-dde59d"}, "geometry": {"type": "Point", "coordinates": [-76.783018, 41.7884026]}},
{"type": "Feature", "id": "1sz9kq3yKDmQTq4nfbkIH_UCwoc=", "properties": {"ref": "670", "@spider": "tops", "official_name": "Tops Friendly Markets", "shop": "supermarket", "addr:full": "144 Center St., - Downtown Mall", "addr:city": "Meadville", "addr:state": "PA", "addr:postcode": "16335", "name": "Tops", "phone": "(814) 724-4025", "brand": "Tops", "brand:wikidata": "Q7825137", "nsi_id": "tops-dde59d"}, "geometry": {"type": "Point", "coordinates": [-80.1514484, 41.6414438]}},
{"type": "Feature", "id": "qPZcKUXAPViSjrpeuNtarcp6QbQ=", "properties": {"ref": "672", "@spider": "tops", "official_name": "Tops Friendly Markets", "shop": "supermarket", "addr:full": "525 North Fraley Street", "addr:city": "Kane", "addr:state": "PA", "addr:postcode": "16735", "name": "Tops", "phone": "(814) 837-7812", "brand": "Tops", "brand:wikidata": "Q7825137", "nsi_id": "tops-dde59d"}, "geometry": {"type": "Point", "coordinates": [-78.8122616, 41.6670991]}},
{"type": "Feature", "id": "xOPKoz52xleAABlgh97PHWTlDS4=", "properties": {"ref": "665", "@spider": "tops", "official_name": "Tops Friendly Markets", "shop": "supermarket", "addr:full": "712 West 38th St., Liberty Plaza", "addr:city": "Erie", "addr:state": "PA", "addr:postcode": "16508", "name": "Tops", "phone": "(814) 864-4958", "brand": "Tops", "brand:wikidata": "Q7825137", "nsi_id": "tops-dde59d"}, "geometry": {"type": "Point", "coordinates": [-80.0927298, 42.1090023]}},
{"type": "Feature", "id": "ZX59nFNSG0FK47GmgKLnlnqEBpc=", "properties": {"ref": "602", "@spider": "tops", "official_name": "Tops Friendly Markets", "shop": "supermarket", "addr:full": "1520 W. 26th St. @ Green Garden", "addr:city": "Erie", "addr:state": "PA", "addr:postcode": "16508", "name": "Tops", "phone": "(814) 455-9000", "brand": "Tops", "brand:wikidata": "Q7825137", "nsi_id": "tops-dde59d"}, "geometry": {"type": "Point", "coordinates": [-80.085059, 42.1292241]}},
{"type": "Feature", "id": "LkutEdyRVJaOLAGxbrY03ViOecw=", "properties": {"ref": "601", "@spider": "tops", "official_name": "Tops Friendly Markets", "shop": "supermarket", "addr:full": "1702 E. 38th  Street", "addr:city": "Erie", "addr:state": "PA", "addr:postcode": "16510", "name": "Tops", "phone": "(814) 455-7482", "brand": "Tops", "brand:wikidata": "Q7825137", "nsi_id": "tops-dde59d"}, "geometry": {"type": "Point", "coordinates": [-80.030626, 42.116941]}},
{"type": "Feature", "id": "qgqxpp_MmStF_JzP7ESqvc0IFFA=", "properties": {"ref": "678", "@spider": "tops", "official_name": "Tops Friendly Markets", "shop": "supermarket", "addr:full": "East Main Street, RR #1", "addr:city": "Canton", "addr:state": "PA", "addr:postcode": "17724", "name": "Tops", "phone": "(570) 673-3838", "brand": "Tops", "brand:wikidata": "Q7825137", "nsi_id": "tops-dde59d"}, "geometry": {"type": "Point", "coordinates": [-76.8462246, 41.6558641]}},
{"type": "Feature", "id": "kwvCm5fF_iUO5n-9mHOIFnTNm2o=", "properties": {"ref": "610", "@spider": "tops", "official_name": "Tops Friendly Markets", "shop": "supermarket", "addr:full": "150 Main Street", "addr:city": "Bradford", "addr:state": "PA", "addr:postcode": "16701", "name": "Tops", "phone": "(814) 363-9901", "brand": "Tops", "brand:wikidata": "Q7825137", "nsi_id": "tops-dde59d"}, "geometry": {"type": "Point", "coordinates": [-78.6376485, 41.9596338]}},
{"type": "Feature", "id": "dVIcNz0HIcmjXq7DuZWcd7ByqpE=", "properties": {"ref": "276", "@spider": "tops", "official_name": "Tops Friendly Markets", "shop": "supermarket", "addr:full": "5274 Main & Union", "addr:city": "Williamsville", "addr:state": "NY", "addr:postcode": "14221", "name": "Tops", "phone": "(716) 632-7411", "brand": "Tops", "brand:wikidata": "Q7825137", "nsi_id": "tops-dde59d"}, "geometry": {"type": "Point", "coordinates": [-78.755498, 42.961076]}},
{"type": "Feature", "id": "lAlZr5hho7ykubPay2ROnobWoP0=", "properties": {"ref": "224", "@spider": "tops", "official_name": "Tops Friendly Markets", "shop": "supermarket", "addr:full": "2351 Maple Rd.", "addr:city": "Williamsville", "addr:state": "NY", "addr:postcode": "14221", "name": "Tops", "phone": "(716) 515-3200", "brand": "Tops", "brand:wikidata": "Q7825137", "nsi_id": "tops-dde59d"}, "geometry": {"type": "Point", "coordinates": [-78.699069, 42.988395]}},
{"type": "Feature", "id": "lK1JlIP28-nV8Vj1ic5Jmox-qOI=", "properties": {"ref": "279", "@spider": "tops", "official_name": "Tops Friendly Markets", "shop": "supermarket", "addr:full": "121 East Main Street", "addr:city": "Westfield", "addr:state": "NY", "addr:postcode": "14787", "name": "Tops", "phone": "(716) 326-4965", "brand": "Tops", "brand:wikidata": "Q7825137", "nsi_id": "tops-dde59d"}, "geometry": {"type": "Point", "coordinates": [-79.573905, 42.325411]}},
{"type": "Feature", "id": "Q3eap0Z92iftfOlXR_D0qiQK598=", "properties": {"ref": "49", "@spider": "tops", "official_name": "Tops Friendly Markets", "shop": "supermarket", "addr:full": "355 Orchard Park Road", "addr:city": "West Seneca", "addr:state": "NY", "addr:postcode": "14224", "name": "Tops", "phone": "(716) 517-3000", "brand": "Tops", "brand:wikidata": "Q7825137", "nsi_id": "tops-dde59d"}, "geometry": {"type": "Point", "coordinates": [-78.785014, 42.831836]}},
{"type": "Feature", "id": "61p35kMwSg66gk4N6dn_TingCRw=", "properties": {"ref": "212", "@spider": "tops", "official_name": "Tops Friendly Markets", "shop": "supermarket", "addr:full": "800 Harlem Rd", "addr:city": "West Seneca", "addr:state": "NY", "addr:postcode": "14224", "name": "Tops", "phone": "(716) 823-8948", "brand": "Tops", "brand:wikidata": "Q7825137", "nsi_id": "tops-dde59d"}, "geometry": {"type": "Point", "coordinates": [-78.788544, 42.86665]}},
{"type": "Feature", "id": "2zim7RjyKqmm__W-eIrL4tbE5BY=", "properties": {"ref": "249", "@spider": "tops", "official_name": "Tops Friendly Markets", "shop": "supermarket", "addr:full": "111 Bolivar Road", "addr:city": "Wellsville", "addr:state": "NY", "addr:postcode": "14895", "name": "Tops", "phone": "(585) 593-0166", "brand": "Tops", "brand:wikidata": "Q7825137", "nsi_id": "tops-dde59d"}, "geometry": {"type": "Point", "coordinates": [-77.962529, 42.127258]}},
{"type": "Feature", "id": "vyeeOaQbgVKo4JuX5vNABn3rfH8=", "properties": {"ref": "576", "@spider": "tops", "official_name": "Tops Friendly Markets", "shop": "supermarket", "addr:full": "504 1/2 South Franklin Street", "addr:city": "Watkins Glen", "addr:state": "NY", "addr:postcode": "14891", "name": "Tops", "phone": "(607) 535-4064", "brand": "Tops", "brand:wikidata": "Q7825137", "nsi_id": "tops-dde59d"}, "geometry": {"type": "Point", "coordinates": [-76.866733, 42.369691]}},
{"type": "Feature", "id": "Ek3nnACRCKdrMjH117jdOkk4Yyk=", "properties": {"ref": "565", "@spider": "tops", "official_name": "Tops Friendly Markets", "shop": "supermarket", "addr:full": "1963 Kingdom Plaza", "addr:city": "Waterloo", "addr:state": "NY", "addr:postcode": "13165", "name": "Tops", "phone": "(315) 539-8866", "brand": "Tops", "brand:wikidata": "Q7825137", "nsi_id": "tops-dde59d"}, "geometry": {"type": "Point", "coordinates": [-76.8342728, 42.9044078]}},
{"type": "Feature", "id": "bH9_VN8wDbhtkfGQkmUBwkcL3zA=", "properties": {"ref": "247", "@spider": "tops", "official_name": "Tops Friendly Markets", "shop": "supermarket", "addr:full": "2382 Route 19", "addr:city": "Warsaw", "addr:state": "NY", "addr:postcode": "14569", "name": "Tops", "phone": "(585) 786-0660", "brand": "Tops", "brand:wikidata": "Q7825137", "nsi_id": "tops-dde59d"}, "geometry": {"type": "Point", "coordinates": [-78.1240102, 42.7736599]}},
{"type": "Feature", "id": "kDyt0TqVQ3QvZSHE8yEIfzLOWn4=", "properties": {"ref": "428", "@spider": "tops", "official_name": "Tops Friendly Markets", "shop": "supermarket", "addr:full": "2140 Walworth-Penfield Road", "addr:city": "Walworth", "addr:state": "NY", "addr:postcode": "14568", "name": "Tops", "phone": "(315) 986-4009", "brand": "Tops", "brand:wikidata": "Q7825137", "nsi_id": "tops-dde59d"}, "geometry": {"type": "Point", "coordinates": [-77.27798999999, 43.13803]}},
{"type": "Feature", "id": "OfQTdcqckruQ2gArFqR8fuc0Qa4=", "properties": {"ref": "130", "@spider": "tops", "official_name": "Tops Friendly Markets", "shop": "supermarket", "addr:full": "4235 Military Road", "addr:city": "Town of Niagara", "addr:state": "NY", "addr:postcode": "14305", "name": "Tops", "phone": "(716) 297-3410", "brand": "Tops", "brand:wikidata": "Q7825137", "nsi_id": "tops-dde59d"}, "geometry": {"type": "Point", "coordinates": [-78.999589, 43.125599]}},
{"type": "Feature", "id": "NVBb0e_sEOkWuneV1rEBRDvyDR8=", "properties": {"ref": "228", "@spider": "tops", "official_name": "Tops Friendly Markets", "shop": "supermarket", "addr:full": "150 Niagara Street", "addr:city": "Tonawanda", "addr:state": "NY", "addr:postcode": "14150", "name": "Tops", "phone": "(716) 693-5700", "brand": "Tops", "brand:wikidata": "Q7825137", "nsi_id": "tops-dde59d"}, "geometry": {"type": "Point", "coordinates": [-78.883653, 43.020329]}},
{"type": "Feature", "id": "gf7vn5dr9bDsk-vmNEMWZgz9wFI=", "properties": {"ref": "226", "@spider": "tops", "official_name": "Tops Friendly Markets", "shop": "supermarket", "addr:full": "890 Young Street", "addr:city": "Tonawanda", "addr:state": "NY", "addr:postcode": "14150", "name": "Tops", "phone": "(716) 692-8254", "brand": "Tops", "brand:wikidata": "Q7825137", "nsi_id": "tops-dde59d"}, "geometry": {"type": "Point", "coordinates": [-78.85818, 43.001933]}},
{"type": "Feature", "id": "s2tQywn5J9iXKAQ2R40dn6BFIz8=", "properties": {"ref": "725", "@spider": "tops", "official_name": "Tops Friendly Markets", "shop": "supermarket", "addr:full": "6350 Main Street", "addr:city": "Tannersville", "addr:state": "NY", "addr:postcode": "12485", "name": "Tops", "phone": "(518) 589-0048", "brand": "Tops", "brand:wikidata": "Q7825137", "nsi_id": "tops-dde59d"}, "geometry": {"type": "Point", "coordinates": [-74.133751, 42.195644]}},
{"type": "Feature", "id": "6L5T9JR7TzRd91WEQo8bRcIVrEY=", "properties": {"ref": "373", "@spider": "tops", "official_name": "Tops Friendly Markets", "shop": "supermarket", "addr:full": "700 1st North Street", "addr:city": "Syracuse", "addr:state": "NY", "addr:postcode": "13208", "name": "Tops", "phone": "(315) 470-0980", "brand": "Tops", "brand:wikidata": "Q7825137", "nsi_id": "tops-dde59d"}, "geometry": {"type": "Point", "coordinates": [-76.148956, 43.069379]}},
{"type": "Feature", "id": "Dew2IgMXPWNFl1VdfvTcsm9sF7g=", "properties": {"ref": "369", "@spider": "tops", "official_name": "Tops Friendly Markets", "shop": "supermarket", "addr:full": "181 Shop City Plaza", "addr:city": "Syracuse", "addr:state": "NY", "addr:postcode": "13206", "name": "Tops", "phone": "(315) 437-5201", "brand": "Tops", "brand:wikidata": "Q7825137", "nsi_id": "tops-dde59d"}, "geometry": {"type": "Point", "coordinates": [-76.1186533, 43.0737733]}},
{"type": "Feature", "id": "dO4TxfnK58QTaqiDJK00M4VqYI8=", "properties": {"ref": "362", "@spider": "tops", "official_name": "Tops Friendly Markets", "shop": "supermarket", "addr:full": "620 Nottingham Road", "addr:city": "Syracuse", "addr:state": "NY", "addr:postcode": "13210", "name": "Tops", "phone": "(315) 446-1652", "brand": "Tops", "brand:wikidata": "Q7825137", "nsi_id": "tops-dde59d"}, "geometry": {"type": "Point", "coordinates": [-76.1092501, 43.0217252]}},
{"type": "Feature", "id": "-y6zpsLMx7ZWITpph5fAN1YRu68=", "properties": {"ref": "722", "@spider": "tops", "official_name": "Tops Friendly Markets", "shop": "supermarket", "addr:full": "127 Main Street", "addr:city": "Stamford", "addr:state": "NY", "addr:postcode": "12167", "name": "Tops", "phone": "(607) 652-5114", "brand": "Tops", "brand:wikidata": "Q7825137", "nsi_id": "tops-dde59d"}, "geometry": {"type": "Point", "coordinates": [-74.620757, 42.40995]}},
{"type": "Feature", "id": "89k3620qhLksx5teLnYtcWmUN1s=", "properties": {"ref": "233", "@spider": "tops", "official_name": "Tops Friendly Markets", "shop": "supermarket", "addr:full": "184 South Cascade Drive (Route 219)", "addr:city": "Springville", "addr:state": "NY", "addr:postcode": "14141", "name": "Tops", "phone": "(716) 592-8241", "brand": "Tops", "brand:wikidata": "Q7825137", "nsi_id": "tops-dde59d"}, "geometry": {"type": "Point", "coordinates": [-78.6672482, 42.5083952]}},
{"type": "Feature", "id": "rc-3AcaxIOr6qVBGUJimioqKMUw=", "properties": {"ref": "453", "@spider": "tops", "official_name": "Tops Friendly Markets", "shop": "supermarket", "addr:full": "27 Slayton Ave", "addr:city": "Spencerport", "addr:state": "NY", "addr:postcode": "14559", "name": "Tops", "phone": "(585) 352-2100", "brand": "Tops", "brand:wikidata": "Q7825137", "nsi_id": "tops-dde59d"}, "geometry": {"type": "Point", "coordinates": [-77.7996532, 43.1908797]}},
{"type": "Feature", "id": "5wnJCUuQnUkeHtI08LXxsxe5u_g=", "properties": {"ref": "366", "@spider": "tops", "official_name": "Tops Friendly Markets", "shop": "supermarket", "addr:full": "40 Fennell Street", "addr:city": "Skaneateles", "addr:state": "NY", "addr:postcode": "13152", "name": "Tops", "phone": "(315) 685-7424", "brand": "Tops", "brand:wikidata": "Q7825137", "nsi_id": "tops-dde59d"}, "geometry": {"type": "Point", "coordinates": [-76.4331932, 42.9481892]}},
{"type": "Feature", "id": "8f4Q2-UTJsefjww6FqPIEShw-6I=", "properties": {"ref": "278", "@spider": "tops", "official_name": "Tops Friendly Markets", "shop": "supermarket", "addr:full": "140 Central Avenue", "addr:city": "Silver Creek", "addr:state": "NY", "addr:postcode": "14136", "name": "Tops", "phone": "(716) 934-3431", "brand": "Tops", "brand:wikidata": "Q7825137", "nsi_id": "tops-dde59d"}, "geometry": {"type": "Point", "coordinates": [-79.1731438, 42.54569]}},
{"type": "Feature", "id": "wACi8-o7qMq5kHLzNx-hI8fwP_g=", "properties": {"ref": "719", "@spider": "tops", "official_name": "Tops Friendly Markets", "shop": "supermarket", "addr:full": "1103 Route 9", "addr:city": "Schroon Lake", "addr:state": "NY", "addr:postcode": "21870", "name": "Tops", "phone": "(518) 532-7885", "brand": "Tops", "brand:wikidata": "Q7825137", "nsi_id": "tops-dde59d"}, "geometry": {"type": "Point", "coordinates": [-73.762596, 43.837637]}},
{"type": "Feature", "id": "LGg5rBPjHrB3ajd344Tg9Z_iXWY=", "properties": {"ref": "595", "@spider": "tops", "official_name": "Tops Friendly Markets", "shop": "supermarket", "addr:full": "6103 North Main Street", "addr:city": "Sandy Creek", "addr:state": "NY", "addr:postcode": "13145", "name": "Tops", "phone": "(315) 387-5212", "brand": "Tops", "brand:wikidata": "Q7825137", "nsi_id": "tops-dde59d"}, "geometry": {"type": "Point", "coordinates": [-76.086425, 43.646961]}},
{"type": "Feature", "id": "H_dw2eXcN3mBJS7KTHb6W_NNIjM=", "properties": {"ref": "32", "@spider": "tops", "official_name": "Tops Friendly Markets", "shop": "supermarket", "addr:full": "2956 Saunders Settlement Road", "addr:city": "Sanborn", "addr:state": "NY", "addr:postcode": "14132", "name": "Tops", "phone": "(716) 731-7344", "brand": "Tops", "brand:wikidata": "Q7825137", "nsi_id": "tops-dde59d"}, "geometry": {"type": "Point", "coordinates": [-78.8839239, 43.142452]}},
{"type": "Feature", "id": "3Fxs4VliDVz5b6KyV1tsGphv0e0=", "properties": {"ref": "417", "@spider": "tops", "official_name": "Tops Friendly Markets", "shop": "supermarket", "addr:full": "1601 Penfield Road", "addr:city": "Rochester", "addr:state": "NY", "addr:postcode": "14625", "name": "Tops", "phone": "(585) 264-0820", "brand": "Tops", "brand:wikidata": "Q7825137", "nsi_id": "tops-dde59d"}, "geometry": {"type": "Point", "coordinates": [-77.496386, 43.133249]}},
{"type": "Feature", "id": "F6PzEEYjV5AMeslnKhdKORFZOr4=", "properties": {"ref": "401", "@spider": "tops", "official_name": "Tops Friendly Markets", "shop": "supermarket", "addr:full": "450 West Avenue", "addr:city": "Rochester", "addr:state": "NY", "addr:postcode": "14611", "name": "Tops", "phone": "(585) 512-4100", "brand": "Tops", "brand:wikidata": "Q7825137", "nsi_id": "tops-dde59d"}, "geometry": {"type": "Point", "coordinates": [-77.6504474, 43.1499951]}},
{"type": "Feature", "id": "2tfUQEEheP0JS6KpZ0WPUSSCToo=", "properties": {"ref": "418", "@spider": "tops", "official_name": "Tops Friendly Markets", "shop": "supermarket", "addr:full": "3507 Mt. Read / Maiden", "addr:city": "Rochester", "addr:state": "NY", "addr:postcode": "14616", "name": "Tops", "phone": "(585) 663-4400", "brand": "Tops", "brand:wikidata": "Q7825137", "nsi_id": "tops-dde59d"}, "geometry": {"type": "Point", "coordinates": [-77.6998233, 43.2236861]}},
{"type": "Feature", "id": "Z3i3uTXQ7xy1AXWdYqq8nwe_5n0=", "properties": {"ref": "460", "@spider": "tops", "official_name": "Tops Friendly Markets", "shop": "supermarket", "addr:full": "285 Upper Falls Blvd.", "addr:city": "Rochester", "addr:state": "NY", "addr:postcode": "14605", "name": "Tops", "phone": "(585) 454-4430", "brand": "Tops", "brand:wikidata": "Q7825137", "nsi_id": "tops-dde59d"}, "geometry": {"type": "Point", "coordinates": [-77.610083, 43.169739]}},
{"type": "Feature", "id": "JXqctdACg-mj6CKu0pJwVEXWu2g=", "properties": {"ref": "540", "@spider": "tops", "official_name": "Tops Friendly Markets", "shop": "supermarket", "addr:full": "360 W. Pulteney St.", "addr:city": "Riverside", "addr:state": "NY", "addr:postcode": "14830", "name": "Tops", "phone": "(607) 936-3923", "brand": "Tops", "brand:wikidata": "Q7825137", "nsi_id": "tops-dde59d"}, "geometry": {"type": "Point", "coordinates": [-77.0769996, 42.1532586]}},
{"type": "Feature", "id": "QVKKdTZdxYnGWMiNQph1BcsvQR4=", "properties": {"ref": "531", "@spider": "tops", "official_name": "Tops Friendly Markets", "shop": "supermarket", "addr:full": "6726 Route 9", "addr:city": "Rhinebeck", "addr:state": "NY", "addr:postcode": "12572", "name": "Tops", "phone": "(845) 876-7800", "brand": "Tops", "brand:wikidata": "Q7825137", "nsi_id": "tops-dde59d"}, "geometry": {"type": "Point", "coordinates": [-73.900193, 41.946414]}},
{"type": "Feature", "id": "TXf8DM0RTgkBAlFwOzWFTazN2v0=", "properties": {"ref": "273", "@spider": "tops", "official_name": "Tops Friendly Markets", "shop": "supermarket", "addr:full": "51 Main St., Randolph Plaza", "addr:city": "Randolph", "addr:state": "NY", "addr:postcode": "14772", "name": "Tops", "phone": "(716) 358-6577", "brand": "Tops", "brand:wikidata": "Q7825137", "nsi_id": "tops-dde59d"}, "geometry": {"type": "Point", "coordinates": [-78.999805, 42.15795]}},
{"type": "Feature", "id": "sOFhjAJgWVTSvJiFOX0MwjUDLNc=", "properties": {"ref": "585", "@spider": "tops", "official_name": "Tops Friendly Markets", "shop": "supermarket", "addr:full": "3830 Rome Road", "addr:city": "Pulaski", "addr:state": "NY", "addr:postcode": "13142", "name": "Tops", "phone": "(315) 298-1081", "brand": "Tops", "brand:wikidata": "Q7825137", "nsi_id": "tops-dde59d"}, "geometry": {"type": "Point", "coordinates": [-76.117519, 43.558888]}},
{"type": "Feature", "id": "M9k6KEUJLToMYsjqv1dkCthpmNM=", "properties": {"ref": "566", "@spider": "tops", "official_name": "Tops Friendly Markets", "shop": "supermarket", "addr:full": "321 Liberty Street", "addr:city": "Penn Yan", "addr:state": "NY", "addr:postcode": "14527", "name": "Tops", "phone": "(315) 536-2508", "brand": "Tops", "brand:wikidata": "Q7825137", "nsi_id": "tops-dde59d"}, "geometry": {"type": "Point", "coordinates": [-77.0569511, 42.6619273]}},
{"type": "Feature", "id": "7UbFY4_8SePHHXA9Lu7872u-gMA=", "properties": {"ref": "108", "@spider": "tops", "official_name": "Tops Friendly Markets", "shop": "supermarket", "addr:full": "3201 Southwestern Blvd", "addr:city": "Orchard Park", "addr:state": "NY", "addr:postcode": "14127", "name": "Tops", "phone": "(716) 677-2569", "brand": "Tops", "brand:wikidata": "Q7825137", "nsi_id": "tops-dde59d"}, "geometry": {"type": "Point", "coordinates": [-78.748756, 42.795831]}},
{"type": "Feature", "id": "VsvZYWmbYsyUWRshRhtPsvcg6zY=", "properties": {"ref": "413", "@spider": "tops", "official_name": "Tops Friendly Markets", "shop": "supermarket", "addr:full": "6272 Furnace Road", "addr:city": "Ontario", "addr:state": "NY", "addr:postcode": "14519", "name": "Tops", "phone": "(315) 524-3550", "brand": "Tops", "brand:wikidata": "Q7825137", "nsi_id": "tops-dde59d"}, "geometry": {"type": "Point", "coordinates": [-77.28072, 43.226553]}},
{"type": "Feature", "id": "HJL6Y_NXiLIF7D60uc5i8LSbh40=", "properties": {"ref": "206", "@spider": "tops", "official_name": "Tops Friendly Markets", "shop": "supermarket", "addr:full": "2401 W. State Street", "addr:city": "Olean", "addr:state": "NY", "addr:postcode": "14760", "name": "Tops", "phone": "(716) 373-1021", "brand": "Tops", "brand:wikidata": "Q7825137", "nsi_id": "tops-dde59d"}, "geometry": {"type": "Point", "coordinates": [-78.4571202, 42.0771358]}},
{"type": "Feature", "id": "HIiqN7MAfr_hsvF7Fz_uBFt6cMQ=", "properties": {"ref": "721", "@spider": "tops", "official_name": "Tops Friendly Markets", "shop": "supermarket", "addr:full": "201 Main Street", "addr:city": "Northville", "addr:state": "NY", "addr:postcode": "12134", "name": "Tops", "phone": "(518) 863-6776", "brand": "Tops", "brand:wikidata": "Q7825137", "nsi_id": "tops-dde59d"}, "geometry": {"type": "Point", "coordinates": [-74.173515, 43.227716]}},
{"type": "Feature", "id": "2KDkd7KEc4k-0rVTAmc0MIWWsg4=", "properties": {"ref": "240", "@spider": "tops", "official_name": "Tops Friendly Markets", "shop": "supermarket", "addr:full": "301 Meadow Drive", "addr:city": "North Tonawanda", "addr:state": "NY", "addr:postcode": "14120", "name": "Tops", "phone": "(716) 743-4350", "brand": "Tops", "brand:wikidata": "Q7825137", "nsi_id": "tops-dde59d"}, "geometry": {"type": "Point", "coordinates": [-78.874796, 43.050751]}},
{"type": "Feature", "id": "zSXSk_oWPjZ528-W8l4XyRHfI1o=", "properties": {"ref": "361", "@spider": "tops", "official_name": "Tops Friendly Markets", "shop": "supermarket", "addr:full": "3803 Brewerton Road (Airport Plaza)", "addr:city": "North Syracuse", "addr:state": "NY", "addr:postcode": "13212", "name": "Tops", "phone": "(315) 458-0032", "brand": "Tops", "brand:wikidata": "Q7825137", "nsi_id": "tops-dde59d"}, "geometry": {"type": "Point", "coordinates": [-76.1407965, 43.1179216]}},
{"type": "Feature", "id": "ewzAv6N1N1nebtg4j0eNJBz4CFI=", "properties": {"ref": "716", "@spider": "tops", "official_name": "Tops Friendly Markets", "shop": "supermarket", "addr:full": "273 Main Street", "addr:city": "North Creek", "addr:state": "NY", "addr:postcode": "12853", "name": "Tops", "phone": "(518) 251-4669", "brand": "Tops", "brand:wikidata": "Q7825137", "nsi_id": "tops-dde59d"}, "geometry": {"type": "Point", "coordinates": [-73.987548, 43.700532]}},
{"type": "Feature", "id": "uu8jfyOMFsc5Rbka0cY-HlASGig=", "properties": {"ref": "70", "@spider": "tops", "official_name": "Tops Friendly Markets", "shop": "supermarket", "addr:full": "7375 Boston State Road", "addr:city": "North Boston", "addr:state": "NY", "addr:postcode": "14110", "name": "Tops", "phone": "(716) 649-8671", "brand": "Tops", "brand:wikidata": "Q7825137", "nsi_id": "tops-dde59d"}, "geometry": {"type": "Point", "coordinates": [-78.76574, 42.684398]}},
{"type": "Feature", "id": "HmGoln95tclc1dyGCEUsRpIE40U=", "properties": {"ref": "22", "@spider": "tops", "official_name": "Tops Friendly Markets", "shop": "supermarket", "addr:full": "7200 Niagara Falls Blvd.", "addr:city": "Niagara Falls", "addr:state": "NY", "addr:postcode": "14304", "name": "Tops", "phone": "(716) 513-2200", "brand": "Tops", "brand:wikidata": "Q7825137", "nsi_id": "tops-dde59d"}, "geometry": {"type": "Point", "coordinates": [-78.9817164, 43.0881478]}},
{"type": "Feature", "id": "pLhLLEZPPoedv19tOuw3DJ6N9TQ=", "properties": {"ref": "9", "@spider": "tops", "official_name": "Tops Friendly Markets", "shop": "supermarket", "addr:full": "1000 Portage Road", "addr:city": "Niagara Falls", "addr:state": "NY", "addr:postcode": "14301", "name": "Tops", "phone": "(716) 513-2170", "brand": "Tops", "brand:wikidata": "Q7825137", "nsi_id": "tops-dde59d"}, "geometry": {"type": "Point", "coordinates": [-79.052125, 43.098644]}},
{"type": "Feature", "id": "7ii8GqtE8Kz_SlO2Vkn4-OFjc0s=", "properties": {"ref": "39", "@spider": "tops", "official_name": "Tops Friendly Markets", "shop": "supermarket", "addr:full": "2555 Main Street", "addr:city": "Newfane", "addr:state": "NY", "addr:postcode": "14108", "name": "Tops", "phone": "(716) 778-5094", "brand": "Tops", "brand:wikidata": "Q7825137", "nsi_id": "tops-dde59d"}, "geometry": {"type": "Point", "coordinates": [-78.71015, 43.290776]}},
{"type": "Feature", "id": "JIV0biLxvtMEnWBpIldWJTaQGpA=", "properties": {"ref": "532", "@spider": "tops", "official_name": "Tops Friendly Markets", "shop": "supermarket", "addr:full": "271 Main Street", "addr:city": "New Paltz", "addr:state": "NY", "addr:postcode": "12561", "name": "Tops", "phone": "(845) 256-0121", "brand": "Tops", "brand:wikidata": "Q7825137", "nsi_id": "tops-dde59d"}, "geometry": {"type": "Point", "coordinates": [-74.06921779999, 41.7449333]}},
{"type": "Feature", "id": "cEkjVr6AXkV0oyqA2bQqc7BAJxY=", "properties": {"ref": "594", "@spider": "tops", "official_name": "Tops Friendly Markets", "shop": "supermarket", "addr:full": "3385 Main Street", "addr:city": "Mexico", "addr:state": "NY", "addr:postcode": "13114", "name": "Tops", "phone": "(315) 963-7053", "brand": "Tops", "brand:wikidata": "Q7825137", "nsi_id": "tops-dde59d"}, "geometry": {"type": "Point", "coordinates": [-76.2392969, 43.459014]}},
{"type": "Feature", "id": "z2S-_eBhNjiIVm0JQQBJySYjDxw=", "properties": {"ref": "248", "@spider": "tops", "official_name": "Tops Friendly Markets", "shop": "supermarket", "addr:full": "11200 Maple Ridge Rd", "addr:city": "Medina", "addr:state": "NY", "addr:postcode": "14103", "name": "Tops", "phone": "(585) 798-2590", "brand": "Tops", "brand:wikidata": "Q7825137", "nsi_id": "tops-dde59d"}, "geometry": {"type": "Point", "coordinates": [-78.399519, 43.205185]}},
{"type": "Feature", "id": "LD2pEfYNcvPnzGYRsdN--eq7Lac=", "properties": {"ref": "270", "@spider": "tops", "official_name": "Tops Friendly Markets", "shop": "supermarket", "addr:full": "640 South Erie Street", "addr:city": "Mayville", "addr:state": "NY", "addr:postcode": "14757", "name": "Tops", "phone": "(716) 753-7670", "brand": "Tops", "brand:wikidata": "Q7825137", "nsi_id": "tops-dde59d"}, "geometry": {"type": "Point", "coordinates": [-79.496785, 42.24374]}},
{"type": "Feature", "id": "ZtToE-r_JsJg_h-lIzAnF19Qesk=", "properties": {"ref": "365", "@spider": "tops", "official_name": "Tops Friendly Markets", "shop": "supermarket", "addr:full": "119 West Seneca Street", "addr:city": "Manlius", "addr:state": "NY", "addr:postcode": "13104", "name": "Tops", "phone": "(315) 682-7261", "brand": "Tops", "brand:wikidata": "Q7825137", "nsi_id": "tops-dde59d"}, "geometry": {"type": "Point", "coordinates": [-75.981596, 43.000473]}},
{"type": "Feature", "id": "cVcF5uqgCKiujB-5Q-0m9ASfryA=", "properties": {"ref": "574", "@spider": "tops", "official_name": "Tops Friendly Markets", "shop": "supermarket", "addr:full": "7301 South State Street, Lowville Plaza", "addr:city": "Lowville", "addr:state": "NY", "addr:postcode": "13367", "name": "Tops", "phone": "(315) 376-6311", "brand": "Tops", "brand:wikidata": "Q7825137", "nsi_id": "tops-dde59d"}, "geometry": {"type": "Point", "coordinates": [-75.4828654, 43.7818903]}},
{"type": "Feature", "id": "Kt1amdwfFtSIGCEX6WNamKjEPDo=", "properties": {"ref": "275", "@spider": "tops", "official_name": "Tops Friendly Markets", "shop": "supermarket", "addr:full": "7134 Rochester Road", "addr:city": "Lockport", "addr:state": "NY", "addr:postcode": "14094", "name": "Tops", "phone": "(716) 434-3990", "brand": "Tops", "brand:wikidata": "Q7825137", "nsi_id": "tops-dde59d"}, "geometry": {"type": "Point", "coordinates": [-78.641198, 43.181165]}},
{"type": "Feature", "id": "vTCm7x1ZhgkkVSgOJTOPFtjcvhA=", "properties": {"ref": "21", "@spider": "tops", "official_name": "Tops Friendly Markets", "shop": "supermarket", "addr:full": "5827 South Transit", "addr:city": "Lockport", "addr:state": "NY", "addr:postcode": "14094", "name": "Tops", "phone": "(716) 439-4366", "brand": "Tops", "brand:wikidata": "Q7825137", "nsi_id": "tops-dde59d"}, "geometry": {"type": "Point", "coordinates": [-78.6947409, 43.141423]}},
{"type": "Feature", "id": "oWDqdJDEKOi_1meeS0iaJNB-An8=", "properties": {"ref": "38", "@spider": "tops", "official_name": "Tops Friendly Markets", "shop": "supermarket", "addr:full": "3949 Lockport/Olcott Rd.", "addr:city": "Lockport", "addr:state": "NY", "addr:postcode": "14094", "name": "Tops", "phone": "(716) 439-8900", "brand": "Tops", "brand:wikidata": "Q7825137", "nsi_id": "tops-dde59d"}, "geometry": {"type": "Point", "coordinates": [-78.6777401, 43.2252692]}},
{"type": "Feature", "id": "GkUC2mwZicIcO7WX_r3eXC-qEi8=", "properties": {"ref": "115", "@spider": "tops", "official_name": "Tops Friendly Markets", "shop": "supermarket", "addr:full": "906 Center Street", "addr:city": "Lewiston", "addr:state": "NY", "addr:postcode": "14092", "name": "Tops", "phone": "(716) 215-1350", "brand": "Tops", "brand:wikidata": "Q7825137", "nsi_id": "tops-dde59d"}, "geometry": {"type": "Point", "coordinates": [-79.031134, 43.171905]}},
{"type": "Feature", "id": "ojLeaDsK8qnod5d2L_7zM9tUcc0=", "properties": {"ref": "246", "@spider": "tops", "official_name": "Tops Friendly Markets", "shop": "supermarket", "addr:full": "128 W. Main Street", "addr:city": "LeRoy", "addr:state": "NY", "addr:postcode": "14482", "name": "Tops", "phone": "(585) 768-8549", "brand": "Tops", "brand:wikidata": "Q7825137", "nsi_id": "tops-dde59d"}, "geometry": {"type": "Point", "coordinates": [-78.004968, 42.979619]}},
{"type": "Feature", "id": "STxQYP2T6ptOHML9_CFyoLiAbRw=", "properties": {"ref": "522", "@spider": "tops", "official_name": "Tops Friendly Markets", "shop": "supermarket", "addr:full": "2300 N. Triphammer Road", "addr:city": "Lansing", "addr:state": "NY", "addr:postcode": "14850", "name": "Tops", "phone": "(607) 257-4952", "brand": "Tops", "brand:wikidata": "Q7825137", "nsi_id": "tops-dde59d"}, "geometry": {"type": "Point", "coordinates": [-76.48665, 42.481699]}},
{"type": "Feature", "id": "3o2wjxh3aS6X4gW1x7pmSKwTxFg=", "properties": {"ref": "533", "@spider": "tops", "official_name": "Tops Friendly Markets", "shop": "supermarket", "addr:full": "16 Jon J Wagner Way", "addr:city": "Lagrangeville", "addr:state": "NY", "addr:postcode": "12540", "name": "Tops", "phone": "(845) 473-0454", "brand": "Tops", "brand:wikidata": "Q7825137", "nsi_id": "tops-dde59d"}, "geometry": {"type": "Point", "coordinates": [-73.7953406, 41.6678746]}},
{"type": "Feature", "id": "Dfyya_sJCfClP54ljfFi_zWPwIo=", "properties": {"ref": "274", "@spider": "tops", "official_name": "Tops Friendly Markets", "shop": "supermarket", "addr:full": "738 Foote Avenue", "addr:city": "Jamestown", "addr:state": "NY", "addr:postcode": "14701", "name": "Tops", "phone": "(716) 484-7243", "brand": "Tops", "brand:wikidata": "Q7825137", "nsi_id": "tops-dde59d"}, "geometry": {"type": "Point", "coordinates": [-79.2287528, 42.080585]}},
{"type": "Feature", "id": "BNXy5mJEYw--YaUiiruv6v6vaeg=", "properties": {"ref": "209", "@spider": "tops", "official_name": "Tops Friendly Markets", "shop": "supermarket", "addr:full": "2000 Washington Street", "addr:city": "Jamestown", "addr:state": "NY", "addr:postcode": "14701", "name": "Tops", "phone": "(716) 665-1100", "brand": "Tops", "brand:wikidata": "Q7825137", "nsi_id": "tops-dde59d"}, "geometry": {"type": "Point", "coordinates": [-79.244637, 42.109277]}},
{"type": "Feature", "id": "61IJuZ-NoZh9vtFpfK0mQG-X-j4=", "properties": {"ref": "429", "@spider": "tops", "official_name": "Tops Friendly Markets", "shop": "supermarket", "addr:full": "999 East Ridge Road", "addr:city": "Irondequoit", "addr:state": "NY", "addr:postcode": "14621", "name": "Tops", "phone": "(585) 342-3803", "brand": "Tops", "brand:wikidata": "Q7825137", "nsi_id": "tops-dde59d"}, "geometry": {"type": "Point", "coordinates": [-77.589542, 43.195478]}},
{"type": "Feature", "id": "EC9ps_aYXs83LI_3CE-NfaykBfo=", "properties": {"ref": "723", "@spider": "tops", "official_name": "Tops Friendly Markets", "shop": "supermarket", "addr:full": "21501 NY State RT 22", "addr:city": "Hoosick Falls", "addr:state": "NY", "addr:postcode": "12090", "name": "Tops", "phone": "(518) 686-5649", "brand": "Tops", "brand:wikidata": "Q7825137", "nsi_id": "tops-dde59d"}, "geometry": {"type": "Point", "coordinates": [-73.339953, 42.845265]}},
{"type": "Feature", "id": "WL32DE_rqXIYl6MhUoVAKL_VjJE=", "properties": {"ref": "452", "@spider": "tops", "official_name": "Tops Friendly Markets", "shop": "supermarket", "addr:full": "98 South Avenue", "addr:city": "Hilton", "addr:state": "NY", "addr:postcode": "14468", "name": "Tops", "phone": "(585) 392-6770", "brand": "Tops", "brand:wikidata": "Q7825137", "nsi_id": "tops-dde59d"}, "geometry": {"type": "Point", "coordinates": [-77.79020129999, 43.2860595]}},
{"type": "Feature", "id": "OI8xFDVo833U4ADi0KJindEC8Sg=", "properties": {"ref": "416", "@spider": "tops", "official_name": "Tops Friendly Markets", "shop": "supermarket", "addr:full": "1215 Jefferson Rd", "addr:city": "Henrietta", "addr:state": "NY", "addr:postcode": "14623", "name": "Tops", "phone": "(585) 292-0117", "brand": "Tops", "brand:wikidata": "Q7825137", "nsi_id": "tops-dde59d"}, "geometry": {"type": "Point", "coordinates": [-77.599606, 43.085947]}},
{"type": "Feature", "id": "bavy0PBG2y4aCOKh6jEBnUkmdDA=", "properties": {"ref": "599", "@spider": "tops", "official_name": "Tops Friendly Markets", "shop": "supermarket", "addr:full": "409 Fulton Street", "addr:city": "Hannibal", "addr:state": "NY", "addr:postcode": "13074", "name": "Tops", "phone": "(315) 564-6318", "brand": "Tops", "brand:wikidata": "Q7825137", "nsi_id": "tops-dde59d"}, "geometry": {"type": "Point", "coordinates": [-76.5730345, 43.3231975]}},
{"type": "Feature", "id": "wUC7K3x1hb4rOi1S4lqmPay1lbo=", "properties": {"ref": "726", "@spider": "tops", "official_name": "Tops Friendly Markets", "shop": "supermarket", "addr:full": "16 W. Main Street", "addr:city": "Hancock", "addr:state": "NY", "addr:postcode": "13783", "name": "Tops", "phone": "(607) 637-3369", "brand": "Tops", "brand:wikidata": "Q7825137", "nsi_id": "tops-dde59d"}, "geometry": {"type": "Point", "coordinates": [-75.283488, 41.954983]}},
{"type": "Feature", "id": "Pp2P2f0xzeWApMURUh23LYBiXuM=", "properties": {"ref": "450", "@spider": "tops", "official_name": "Tops Friendly Markets", "shop": "supermarket", "addr:full": "1800 Lake Road", "addr:city": "Hamlin", "addr:state": "NY", "addr:postcode": "14464", "name": "Tops", "phone": "(585) 964-2920", "brand": "Tops", "brand:wikidata": "Q7825137", "nsi_id": "tops-dde59d"}, "geometry": {"type": "Point", "coordinates": [-77.918745, 43.2926519]}},
{"type": "Feature", "id": "O8Q56O8MT9jJpAGK0pJLJOwRbd0=", "properties": {"ref": "215", "@spider": "tops", "official_name": "Tops Friendly Markets", "shop": "supermarket", "addr:full": "4250 McKinley Parkway", "addr:city": "Hamburg", "addr:state": "NY", "addr:postcode": "14075", "name": "Tops", "phone": "(716) 515-3225", "brand": "Tops", "brand:wikidata": "Q7825137", "nsi_id": "tops-dde59d"}, "geometry": {"type": "Point", "coordinates": [-78.813127, 42.768149]}},
{"type": "Feature", "id": "2AQl0HS69OQwQUYGfANkpwj7qeI=", "properties": {"ref": "236", "@spider": "tops", "official_name": "Tops Friendly Markets", "shop": "supermarket", "addr:full": "S. 6150 South Park Ave.", "addr:city": "Hamburg", "addr:state": "NY", "addr:postcode": "14075", "name": "Tops", "phone": "(716) 515-3300", "brand": "Tops", "brand:wikidata": "Q7825137", "nsi_id": "tops-dde59d"}, "geometry": {"type": "Point", "coordinates": [-78.824311, 42.72776]}},
{"type": "Feature", "id": "A2SqZ0Ifg0nkc3AsazyZdySLhh8=", "properties": {"ref": "720", "@spider": "tops", "official_name": "Tops Friendly Markets", "shop": "supermarket", "addr:full": "11573 State Route 32", "addr:city": "Greenville", "addr:state": "NY", "addr:postcode": "12083", "name": "Tops", "phone": "(518) 966-5396", "brand": "Tops", "brand:wikidata": "Q7825137", "nsi_id": "tops-dde59d"}, "geometry": {"type": "Point", "coordinates": [-74.022077, 42.41536]}},
{"type": "Feature", "id": "VIqh1Enu8SHqn3DN9HizsoSNU3k=", "properties": {"ref": "119", "@spider": "tops", "official_name": "Tops Friendly Markets", "shop": "supermarket", "addr:full": "2140 Grand Island Blvd.", "addr:city": "Grand Island", "addr:state": "NY", "addr:postcode": "14072", "name": "Tops", "phone": "(716) 775-1138", "brand": "Tops", "brand:wikidata": "Q7825137", "nsi_id": "tops-dde59d"}, "geometry": {"type": "Point", "coordinates": [-78.962231, 43.018617]}},
{"type": "Feature", "id": "Axl-MwwMwKtpua0PuUPIOI6IQEA=", "properties": {"ref": "403", "@spider": "tops", "official_name": "Tops Friendly Markets", "shop": "supermarket", "addr:full": "2345 Buffalo Rd", "addr:city": "Gates", "addr:state": "NY", "addr:postcode": "14624", "name": "Tops", "phone": "(585) 247-8040", "brand": "Tops", "brand:wikidata": "Q7825137", "nsi_id": "tops-dde59d"}, "geometry": {"type": "Point", "coordinates": [-77.710906, 43.146087]}},
{"type": "Feature", "id": "vnxlh3qm1ze_hv_aD2FQ-2KHTA4=", "properties": {"ref": "754", "@spider": "tops", "official_name": "Tops Friendly Markets", "shop": "supermarket", "addr:full": "20 Center Street", "addr:city": "Frewsburg", "addr:state": "NY", "addr:postcode": "14738", "name": "Tops", "phone": "(716) 569-6460", "brand": "Tops", "brand:wikidata": "Q7825137", "nsi_id": "tops-dde59d"}, "geometry": {"type": "Point", "coordinates": [-79.160788, 42.053385]}},
{"type": "Feature", "id": "JUovikGIRjfYtCat0GnngeGsG1U=", "properties": {"ref": "363", "@spider": "tops", "official_name": "Tops Friendly Markets", "shop": "supermarket", "addr:full": "350 Towne Drive", "addr:city": "Fayetteville", "addr:state": "NY", "addr:postcode": "13066", "name": "Tops", "phone": "(315) 637-8039", "brand": "Tops", "brand:wikidata": "Q7825137", "nsi_id": "tops-dde59d"}, "geometry": {"type": "Point", "coordinates": [-76.019536, 43.0314819]}},
{"type": "Feature", "id": "c0K5uYidgmoccEOJhuiH9GyuxPs=", "properties": {"ref": "435", "@spider": "tops", "official_name": "Tops Friendly Markets", "shop": "supermarket", "addr:full": "6179 Route  96", "addr:city": "Farmington", "addr:state": "NY", "addr:postcode": "14425", "name": "Tops", "phone": "(585) 742-4100", "brand": "Tops", "brand:wikidata": "Q7825137", "nsi_id": "tops-dde59d"}, "geometry": {"type": "Point", "coordinates": [-77.34481829999, 42.974415]}},
{"type": "Feature", "id": "ZqPBQ6vg0MULg1ks6fQUQARWn-E=", "properties": {"ref": "272", "@spider": "tops", "official_name": "Tops Friendly Markets", "shop": "supermarket", "addr:full": "110 South Work Street", "addr:city": "Falconer", "addr:state": "NY", "addr:postcode": "14733", "name": "Tops", "phone": "(716) 665-1150", "brand": "Tops", "brand:wikidata": "Q7825137", "nsi_id": "tops-dde59d"}, "geometry": {"type": "Point", "coordinates": [-79.197147, 42.117775]}},
{"type": "Feature", "id": "bKioGN8ag9xNVc0UsPXlO4X3EIg=", "properties": {"ref": "262", "@spider": "tops", "official_name": "Tops Friendly Markets", "shop": "supermarket", "addr:full": "9049 Erie Road", "addr:city": "Evans", "addr:state": "NY", "addr:postcode": "14006", "name": "Tops", "phone": "(716) 549-2220", "brand": "Tops", "brand:wikidata": "Q7825137", "nsi_id": "tops-dde59d"}, "geometry": {"type": "Point", "coordinates": [-79.04710969999, 42.6388218]}},
{"type": "Feature", "id": "IdtFawWjpEnf5mS_Y2Slig3YBxA=", "properties": {"ref": "578", "@spider": "tops", "official_name": "Tops Friendly Markets", "shop": "supermarket", "addr:full": "1600 Cedar St., Southtown Plaza", "addr:city": "Elmira", "addr:state": "NY", "addr:postcode": "14904", "name": "Tops", "phone": "(607) 734-8147", "brand": "Tops", "brand:wikidata": "Q7825137", "nsi_id": "tops-dde59d"}, "geometry": {"type": "Point", "coordinates": [-76.595786, 42.362536]}},
{"type": "Feature", "id": "jaxGmaJM4aErXp4mrrSKcMrWTk0=", "properties": {"ref": "542", "@spider": "tops", "official_name": "Tops Friendly Markets", "shop": "supermarket", "addr:full": "830 Consumer Sq, Plaza, Rt. 64", "addr:city": "Elmira", "addr:state": "NY", "addr:postcode": "14903", "name": "Tops", "phone": "(607) 739-0095", "brand": "Tops", "brand:wikidata": "Q7825137", "nsi_id": "tops-dde59d"}, "geometry": {"type": "Point", "coordinates": [-76.807734, 42.089796]}},
{"type": "Feature", "id": "aqWI3JXS6vEP2vJ4gD-ftSeSFSo=", "properties": {"ref": "271", "@spider": "tops", "official_name": "Tops Friendly Markets", "shop": "supermarket", "addr:full": "64 E. Washington Street", "addr:city": "Ellicottville", "addr:state": "NY", "addr:postcode": "14731", "name": "Tops", "phone": "(716) 699-2353", "brand": "Tops", "brand:wikidata": "Q7825137", "nsi_id": "tops-dde59d"}, "geometry": {"type": "Point", "coordinates": [-78.669556, 42.277009]}},
{"type": "Feature", "id": "7C8RSKJyYFfHhbtEINwhe5oB2-4=", "properties": {"ref": "710", "@spider": "tops", "official_name": "Tops Friendly Markets", "shop": "supermarket", "addr:full": "335 Court Street", "addr:city": "Elizabethtown", "addr:state": "NY", "addr:postcode": "12932", "name": "Tops", "phone": "(518) 873-6589", "brand": "Tops", "brand:wikidata": "Q7825137", "nsi_id": "tops-dde59d"}, "geometry": {"type": "Point", "coordinates": [-73.597029, 44.2130988]}},
{"type": "Feature", "id": "GHzMuEqKuVA5UobgWyqcdyu8Kn0=", "properties": {"ref": "374", "@spider": "tops", "official_name": "Tops Friendly Markets", "shop": "supermarket", "addr:full": "227 East Main Street", "addr:city": "Elbridge", "addr:state": "NY", "addr:postcode": "13060", "name": "Tops", "phone": "(315) 689-3781", "brand": "Tops", "brand:wikidata": "Q7825137", "nsi_id": "tops-dde59d"}, "geometry": {"type": "Point", "coordinates": [-76.4398592, 43.0358802]}},
{"type": "Feature", "id": "Hwx0XsFfUEamilBmfdIpVhsASxY=", "properties": {"ref": "118", "@spider": "tops", "official_name": "Tops Friendly Markets", "shop": "supermarket", "addr:full": "65 Grey Street", "addr:city": "East Aurora", "addr:state": "NY", "addr:postcode": "14052", "name": "Tops", "phone": "(716) 655-3206", "brand": "Tops", "brand:wikidata": "Q7825137", "nsi_id": "tops-dde59d"}, "geometry": {"type": "Point", "coordinates": [-78.6321339, 42.767356]}},
{"type": "Feature", "id": "KoTWY6QaDtCjyOWfK0S9slgqM3w=", "properties": {"ref": "264", "@spider": "tops", "official_name": "Tops Friendly Markets", "shop": "supermarket", "addr:full": "3955 Vineyard Drive", "addr:city": "Dunkirk", "addr:state": "NY", "addr:postcode": "14048", "name": "Tops", "phone": "(716) 366-2050", "brand": "Tops", "brand:wikidata": "Q7825137", "nsi_id": "tops-dde59d"}, "geometry": {"type": "Point", "coordinates": [-79.3168289, 42.4587343]}},
{"type": "Feature", "id": "RqkDwUAPKKOWHfIYBGBoh3qJmMY=", "properties": {"ref": "371", "@spider": "tops", "official_name": "Tops Friendly Markets", "shop": "supermarket", "addr:full": "4410 E. Genesee Street", "addr:city": "DeWitt", "addr:state": "NY", "addr:postcode": "13214", "name": "Tops", "phone": "(315) 446-6421", "brand": "Tops", "brand:wikidata": "Q7825137", "nsi_id": "tops-dde59d"}, "geometry": {"type": "Point", "coordinates": [-76.0674436, 43.035166]}},
{"type": "Feature", "id": "Q2NUt9oZcda-dMZ0WqKoqJ8SwJM=", "properties": {"ref": "268", "@spider": "tops", "official_name": "Tops Friendly Markets", "shop": "supermarket", "addr:full": "6914 Erie Road", "addr:city": "Derby", "addr:state": "NY", "addr:postcode": "14047", "name": "Tops", "phone": "(716) 947-4019", "brand": "Tops", "brand:wikidata": "Q7825137", "nsi_id": "tops-dde59d"}, "geometry": {"type": "Point", "coordinates": [-78.9861481, 42.6985262]}},
{"type": "Feature", "id": "otZtV2bWxkUCSlnW7kbkcFZwDyw=", "properties": {"ref": "114", "@spider": "tops", "official_name": "Tops Friendly Markets", "shop": "supermarket", "addr:full": "5175 Broadway", "addr:city": "Depew", "addr:state": "NY", "addr:postcode": "14043", "name": "Tops", "phone": "(716) 515-3440", "brand": "Tops", "brand:wikidata": "Q7825137", "nsi_id": "tops-dde59d"}, "geometry": {"type": "Point", "coordinates": [-78.683488, 42.898872]}},
{"type": "Feature", "id": "HSwlTpMN_GV9GAfuyAqKABW1Q8w=", "properties": {"ref": "220", "@spider": "tops", "official_name": "Tops Friendly Markets", "shop": "supermarket", "addr:full": "4777 Transit Road", "addr:city": "Depew", "addr:state": "NY", "addr:postcode": "14043", "name": "Tops", "phone": "(716) 515-3280", "brand": "Tops", "brand:wikidata": "Q7825137", "nsi_id": "tops-dde59d"}, "geometry": {"type": "Point", "coordinates": [-78.6969256, 42.8677235]}},
{"type": "Feature", "id": "OwNWcvSycsaiBisGyVoAAUl9RA4=", "properties": {"ref": "237", "@spider": "tops", "official_name": "Tops Friendly Markets", "shop": "supermarket", "addr:full": "6363 Transit Rd", "addr:city": "Depew", "addr:state": "NY", "addr:postcode": "14043", "name": "Tops", "phone": "(716) 601-0180", "brand": "Tops", "brand:wikidata": "Q7825137", "nsi_id": "tops-dde59d"}, "geometry": {"type": "Point", "coordinates": [-78.696351, 42.930925]}},
{"type": "Feature", "id": "LxknHBSzuq9AeQjvtZamXnyB4LA=", "properties": {"ref": "520", "@spider": "tops", "official_name": "Tops Friendly Markets", "shop": "supermarket", "addr:full": "35 Franklin Plaza", "addr:city": "Dansville", "addr:state": "NY", "addr:postcode": "14437", "name": "Tops", "phone": "(585) 335-2140", "brand": "Tops", "brand:wikidata": "Q7825137", "nsi_id": "tops-dde59d"}, "geometry": {"type": "Point", "coordinates": [-77.7021369, 42.561727]}},
{"type": "Feature", "id": "epPDTGaZ5A1gD7B41unNcjMSCFY=", "properties": {"ref": "724", "@spider": "tops", "official_name": "Tops Friendly Markets", "shop": "supermarket", "addr:full": "44 Hope Plaza", "addr:city": "Coxsackie", "addr:state": "NY", "addr:postcode": "12192", "name": "Tops", "phone": "(518) 731-6173", "brand": "Tops", "brand:wikidata": "Q7825137", "nsi_id": "tops-dde59d"}, "geometry": {"type": "Point", "coordinates": [-73.806616, 42.394323]}},
{"type": "Feature", "id": "R8W8EGSlKclxA0MoAHnYU5prXaw=", "properties": {"ref": "700", "@spider": "tops", "official_name": "Tops Friendly Markets", "shop": "supermarket", "addr:full": "100 Main Street", "addr:city": "Corinth", "addr:state": "NY", "addr:postcode": "12822", "name": "Tops", "phone": "(518) 654-6779", "brand": "Tops", "brand:wikidata": "Q7825137", "nsi_id": "tops-dde59d"}, "geometry": {"type": "Point", "coordinates": [-73.834155, 43.246911]}},
{"type": "Feature", "id": "R3eo0Tusnq3UDuBD0IMesyLLFXY=", "properties": {"ref": "433", "@spider": "tops", "official_name": "Tops Friendly Markets", "shop": "supermarket", "addr:full": "3 Clifton Springs Plaza", "addr:city": "Clifton Springs", "addr:state": "NY", "addr:postcode": "14432", "name": "Tops", "phone": "(315) 462-9055", "brand": "Tops", "brand:wikidata": "Q7825137", "nsi_id": "tops-dde59d"}, "geometry": {"type": "Point", "coordinates": [-77.14132699999, 42.969154]}},
{"type": "Feature", "id": "eMcsxGN1FRxBjpO0GfslKVxiwgo=", "properties": {"ref": "368", "@spider": "tops", "official_name": "Tops Friendly Markets", "shop": "supermarket", "addr:full": "8417 Oswego Road", "addr:city": "Clay", "addr:state": "NY", "addr:postcode": "13027", "name": "Tops", "phone": "(315) 652-4934", "brand": "Tops", "brand:wikidata": "Q7825137", "nsi_id": "tops-dde59d"}, "geometry": {"type": "Point", "coordinates": [-76.2574733, 43.1784225]}},
{"type": "Feature", "id": "--9NBetIzYYcHCpZJvYZzjEWrRE=", "properties": {"ref": "359", "@spider": "tops", "official_name": "Tops Friendly Markets", "shop": "supermarket", "addr:full": "800 W. Genesee Street", "addr:city": "Chittenango", "addr:state": "NY", "addr:postcode": "13037", "name": "Tops", "phone": "(315) 687-9224", "brand": "Tops", "brand:wikidata": "Q7825137", "nsi_id": "tops-dde59d"}, "geometry": {"type": "Point", "coordinates": [-75.862908, 43.053864]}},
{"type": "Feature", "id": "1cFhdHJmRdzv1I4MRmwJyP8iuTk=", "properties": {"ref": "712", "@spider": "tops", "official_name": "Tops Friendly Markets", "shop": "supermarket", "addr:full": "6308 U.S. 9", "addr:city": "Chestertown", "addr:state": "NY", "addr:postcode": "12817", "name": "Tops", "phone": "(518) 494-7111", "brand": "Tops", "brand:wikidata": "Q7825137", "nsi_id": "tops-dde59d"}, "geometry": {"type": "Point", "coordinates": [-73.80009999999, 43.649833]}},
{"type": "Feature", "id": "1nyjUUQpQ5nX5gFsCPBf7mmb9bM=", "properties": {"ref": "44", "@spider": "tops", "official_name": "Tops Friendly Markets", "shop": "supermarket", "addr:full": "3870 Harlem Road", "addr:city": "Cheektowaga", "addr:state": "NY", "addr:postcode": "14215", "name": "Tops", "phone": "(716) 836-0433", "brand": "Tops", "brand:wikidata": "Q7825137", "nsi_id": "tops-dde59d"}, "geometry": {"type": "Point", "coordinates": [-78.78501039999, 42.9489084]}},
{"type": "Feature", "id": "OMmnAkRQTaYjm1jHkYsAwkqpmQk=", "properties": {"ref": "202", "@spider": "tops", "official_name": "Tops Friendly Markets", "shop": "supermarket", "addr:full": "3865 Union Road", "addr:city": "Cheektowaga", "addr:state": "NY", "addr:postcode": "14225", "name": "Tops", "phone": "(716) 684-5927", "brand": "Tops", "brand:wikidata": "Q7825137", "nsi_id": "tops-dde59d"}, "geometry": {"type": "Point", "coordinates": [-78.7541401, 42.9198661]}},
{"type": "Feature", "id": "g0yJ_fG7u1jKxqSruC_c8ti_5Ko=", "properties": {"ref": "131", "@spider": "tops", "official_name": "Tops Friendly Markets", "shop": "supermarket", "addr:full": "700 Thruway Plaza Dr", "addr:city": "Cheektowaga", "addr:state": "NY", "addr:postcode": "14225", "name": "Tops", "phone": "(716) 929-0380", "brand": "Tops", "brand:wikidata": "Q7825137", "nsi_id": "tops-dde59d"}, "geometry": {"type": "Point", "coordinates": [-78.7804309, 42.904088]}},
{"type": "Feature", "id": "h86Gajdq89H1SnDibsQ7b8a3_P8=", "properties": {"ref": "367", "@spider": "tops", "official_name": "Tops Friendly Markets", "shop": "supermarket", "addr:full": "71 Nelson Street", "addr:city": "Cazenovia", "addr:state": "NY", "addr:postcode": "13035", "name": "Tops", "phone": "(315) 655-4565", "brand": "Tops", "brand:wikidata": "Q7825137", "nsi_id": "tops-dde59d"}, "geometry": {"type": "Point", "coordinates": [-75.8462138, 42.9282888]}},
{"type": "Feature", "id": "St62Gd9mluZ3aR6I149fOv9r8hM=", "properties": {"ref": "245", "@spider": "tops", "official_name": "Tops Friendly Markets", "shop": "supermarket", "addr:full": "390 W. Main Street", "addr:city": "Batavia", "addr:state": "NY", "addr:postcode": "14020", "name": "Tops", "phone": "(585) 343-9373", "brand": "Tops", "brand:wikidata": "Q7825137", "nsi_id": "tops-dde59d"}, "geometry": {"type": "Point", "coordinates": [-78.204361, 43.006405]}},
{"type": "Feature", "id": "E7juNSH9wXvyykDJyRTfs3sBzow=", "properties": {"ref": "357", "@spider": "tops", "official_name": "Tops Friendly Markets", "shop": "supermarket", "addr:full": "2265 Downer Street", "addr:city": "Baldwinsville", "addr:state": "NY", "addr:postcode": "13027", "name": "Tops", "phone": "(315) 635-3536", "brand": "Tops", "brand:wikidata": "Q7825137", "nsi_id": "tops-dde59d"}, "geometry": {"type": "Point", "coordinates": [-76.349901, 43.151991]}},
{"type": "Feature", "id": "Bm1lNtk107i5i1r2u2_csQ6AYNg=", "properties": {"ref": "431", "@spider": "tops", "official_name": "Tops Friendly Markets", "shop": "supermarket", "addr:full": "600 Dream Valley Blvd", "addr:city": "Avon", "addr:state": "NY", "addr:postcode": "14414", "name": "Tops", "phone": "(585) 226-2730", "brand": "Tops", "brand:wikidata": "Q7825137", "nsi_id": "tops-dde59d"}, "geometry": {"type": "Point", "coordinates": [-77.733822, 42.910709]}},
{"type": "Feature", "id": "GOwfv0rbcPqZ2C1n80yBeEnzZWU=", "properties": {"ref": "717", "@spider": "tops", "official_name": "Tops Friendly Markets", "shop": "supermarket", "addr:full": "14228 NYS Rt 9N", "addr:city": "Ausable Forks", "addr:state": "NY", "addr:postcode": "12912", "name": "Tops", "phone": "(518) 647-5480", "brand": "Tops", "brand:wikidata": "Q7825137", "nsi_id": "tops-dde59d"}, "geometry": {"type": "Point", "coordinates": [-73.67591929999, 44.4410824]}},
{"type": "Feature", "id": "KEoiONUYRAHBR_Twc8fcGtvLjeQ=", "properties": {"ref": "504", "@spider": "tops", "official_name": "Tops Friendly Markets", "shop": "supermarket", "addr:full": "352 West Genesee St.", "addr:city": "Auburn", "addr:state": "NY", "addr:postcode": "13021", "name": "Tops", "phone": "(315) 252-7995", "brand": "Tops", "brand:wikidata": "Q7825137", "nsi_id": "tops-dde59d"}, "geometry": {"type": "Point", "coordinates": [-76.590395, 42.919051]}},
{"type": "Feature", "id": "aWDKGgZnociq_35_1AlAelEz2WM=", "properties": {"ref": "277", "@spider": "tops", "official_name": "Tops Friendly Markets", "shop": "supermarket", "addr:full": "150 Prospect Street", "addr:city": "Attica", "addr:state": "NY", "addr:postcode": "14011", "name": "Tops", "phone": "(585) 591-8092", "brand": "Tops", "brand:wikidata": "Q7825137", "nsi_id": "tops-dde59d"}, "geometry": {"type": "Point", "coordinates": [-78.2776246, 42.8690264]}},
{"type": "Feature", "id": "4R-dOKbquxhpApduTbAH-k5zTik=", "properties": {"ref": "238", "@spider": "tops", "official_name": "Tops Friendly Markets", "shop": "supermarket", "addr:full": "658 W. Main Street", "addr:city": "Arcade", "addr:state": "NY", "addr:postcode": "14009", "name": "Tops", "phone": "(585) 492-0067", "brand": "Tops", "brand:wikidata": "Q7825137", "nsi_id": "tops-dde59d"}, "geometry": {"type": "Point", "coordinates": [-78.4513619, 42.5322351]}},
{"type": "Feature", "id": "P-qIAIBfIZD_1URHNt-uaPg4A2Q=", "properties": {"ref": "41", "@spider": "tops", "official_name": "Tops Friendly Markets", "shop": "supermarket", "addr:full": "3980 Maple Road", "addr:city": "Amherst", "addr:state": "NY", "addr:postcode": "14226", "name": "Tops", "phone": "(716) 515-0075", "brand": "Tops", "brand:wikidata": "Q7825137", "nsi_id": "tops-dde59d"}, "geometry": {"type": "Point", "coordinates": [-78.815742, 42.991987]}},
{"type": "Feature", "id": "Asf7yKPToCWGT1PkAcFW1dEJ29w=", "properties": {"ref": "227", "@spider": "tops", "official_name": "Tops Friendly Markets", "shop": "supermarket", "addr:full": "9660 Transit Road", "addr:city": "Amherst", "addr:state": "NY", "addr:postcode": "14051", "name": "Tops", "phone": "(716) 515-3525", "brand": "Tops", "brand:wikidata": "Q7825137", "nsi_id": "tops-dde59d"}, "geometry": {"type": "Point", "coordinates": [-78.6969697, 43.0329078]}},
{"type": "Feature", "id": "LLiH313U6IhA84bMFn7LHvSWS3s=", "properties": {"ref": "207", "@spider": "tops", "official_name": "Tops Friendly Markets", "shop": "supermarket", "addr:full": "3035 Niagara Falls Blvd.", "addr:city": "Amherst", "addr:state": "NY", "addr:postcode": "14228", "name": "Tops", "phone": "(716) 515-0025", "brand": "Tops", "brand:wikidata": "Q7825137", "nsi_id": "tops-dde59d"}, "geometry": {"type": "Point", "coordinates": [-78.82168, 43.037108]}},
{"type": "Feature", "id": "tT90KsbdGgmLtmjimeXOMJES5XI=", "properties": {"ref": "42", "@spider": "tops", "official_name": "Tops Friendly Markets", "shop": "supermarket", "addr:full": "3500 Main Street", "addr:city": "Amherst", "addr:state": "NY", "addr:postcode": "14226", "name": "Tops", "phone": "(716) 515-3240", "brand": "Tops", "brand:wikidata": "Q7825137", "nsi_id": "tops-dde59d"}, "geometry": {"type": "Point", "coordinates": [-78.818579, 42.958762]}},
{"type": "Feature", "id": "o6JfkXDbvf6OznFKCCPMkWPOW-o=", "properties": {"ref": "261", "@spider": "tops", "official_name": "Tops Friendly Markets", "shop": "supermarket", "addr:full": "12775 Broadway Avenue", "addr:city": "Alden", "addr:state": "NY", "addr:postcode": "14004", "name": "Tops", "phone": "(716) 505-1450", "brand": "Tops", "brand:wikidata": "Q7825137", "nsi_id": "tops-dde59d"}, "geometry": {"type": "Point", "coordinates": [-78.5098749, 42.894046]}},
{"type": "Feature", "id": "KnXRKkPR-ZpLgyKuVuTobviq4K4=", "properties": {"ref": "451", "@spider": "tops", "official_name": "Tops Friendly Markets", "shop": "supermarket", "addr:full": "408 West Avenue", "addr:city": "Albion", "addr:state": "NY", "addr:postcode": "14411", "name": "Tops", "phone": "(585) 589-2548", "brand": "Tops", "brand:wikidata": "Q7825137", "nsi_id": "tops-dde59d"}, "geometry": {"type": "Point", "coordinates": [-78.205386, 43.239567]}},
{"type": "Feature", "id": "PKkhaJ44pWnWoQpz2sdAdawONko=", "properties": {"ref": "596", "@spider": "tops", "official_name": "Tops Friendly Markets", "shop": "supermarket", "addr:full": "10916 US RT 11", "addr:city": "Adams", "addr:state": "NY", "addr:postcode": "13605", "name": "Tops", "phone": "(315) 232-2222", "brand": "Tops", "brand:wikidata": "Q7825137", "nsi_id": "tops-dde59d"}, "geometry": {"type": "Point", "coordinates": [-76.01904, 43.82594]}}]}