{"type":"FeatureCollection","features":[{"type": "Feature", "id": "e2mjsiGjQQaRUaqZT9VDoZNDbJw=", "properties": {"ref": "Tatum & Shea", "@spider": "torchys_tacos", "addr:full": "10625 North Tatum Blvd. Suite 125 A", "addr:city": "Phoenix", "addr:state": "AZ", "addr:postcode": "85028", "phone": "(480) 712-4440", "website": "https://torchystacos.com/location/tatum-shea/", "opening_hours": "Mo-Th 10:00-22:00; Fr-Sa 10:00-23:00; Su 10:00-22:00", "brand": "Torchy's Tacos", "brand:wikidata": "Q106769573"}, "geometry": {"type": "Point", "coordinates": [-111.97693480000001, 33.583711080367415]}},
{"type": "Feature", "id": "0M_H1RBefMyFhASNJLBIb77jJUg=", "properties": {"ref": "SMU", "@spider": "torchys_tacos", "addr:full": "5600 SMU Blvd. #102", "addr:city": "Dallas", "addr:state": "TX", "addr:postcode": "75206", "phone": "(972) 993-8226", "website": "https://torchystacos.com/location/smu/", "opening_hours": "Mo-Fr 10:00-22:00; Sa 09:00-22:00; Su 09:00-21:00", "brand": "Torchy's Tacos", "brand:wikidata": "Q106769573"}, "geometry": {"type": "Point", "coordinates": [-96.771373, 32.841811]}},
{"type": "Feature", "id": "w-M5Q8M560FAcziS1O6WNTSts6Y=", "properties": {"ref": "Rockwall", "@spider": "torchys_tacos", "addr:full": "2235 S. Goliad Street, Suite 120", "addr:city": "Dallas", "addr:state": "TX", "addr:postcode": "75032", "phone": "(469)769-5554", "website": "https://torchystacos.com/location/rockwall/", "opening_hours": "Mo-Fr 10:00-22:00; Sa 09:00-22:00; Su 09:00-21:00", "brand": "Torchy's Tacos", "brand:wikidata": "Q106769573"}, "geometry": {"type": "Point", "coordinates": [-96.44822510792687, 32.90919066928014]}},
{"type": "Feature", "id": "bnioVhvG4FqVPQAcW4De1RY2t4o=", "properties": {"ref": "Conroe", "@spider": "torchys_tacos", "addr:full": "351 S. Loop 336 W", "addr:city": "Conroe", "addr:state": "TX", "addr:postcode": "77304", "phone": "936-647-2457", "website": "https://torchystacos.com/location/conroe/", "opening_hours": "Mo-Th 08:00-22:00; Fr 08:00-23:00; Sa 09:00-23:00; Su 09:00-21:00", "brand": "Torchy's Tacos", "brand:wikidata": "Q106769573"}, "geometry": {"type": "Point", "coordinates": [-95.4659332, 30.2795376]}},
{"type": "Feature", "id": "238LieNrZpxbdUw5TdJwDsK9smw=", "properties": {"ref": "College Station", "@spider": "torchys_tacos", "addr:full": "1037 Texas Ave South", "addr:city": "College Station", "addr:state": "TX", "addr:postcode": "77840", "phone": "(979) 329-6900", "website": "https://torchystacos.com/location/college-station/", "opening_hours": "Mo-Th 09:00-22:00; Fr 09:00-23:00; Sa 08:00-23:00; Su 08:00-22:00", "brand": "Torchy's Tacos", "brand:wikidata": "Q106769573"}, "geometry": {"type": "Point", "coordinates": [-96.328309, 30.622968]}},
{"type": "Feature", "id": "LtKvijm9k6ZGJQFhBp586gUgnts=", "properties": {"ref": "Mueller", "@spider": "torchys_tacos", "addr:full": "1801 E. 51st Bldg. D", "addr:city": "Austin", "addr:state": "TX", "addr:postcode": "78723", "phone": "(512) 322-2411", "website": "https://torchystacos.com/location/mueller/", "opening_hours": "Mo-Fr 10:00-22:00; Sa-Su 08:00-22:00", "brand": "Torchy's Tacos", "brand:wikidata": "Q106769573"}, "geometry": {"type": "Point", "coordinates": [-97.698969, 30.301655]}},
{"type": "Feature", "id": "FPkbI0xCfViD99NuhlrBbbVFTN4=", "properties": {"ref": "South Lamar", "@spider": "torchys_tacos", "addr:full": "3005 S. Lamar Blvd. D-116", "addr:city": "Austin", "addr:state": "TX", "addr:postcode": "78704", "phone": "(512) 614-1832", "website": "https://torchystacos.com/location/south-lamar/", "opening_hours": "Mo-Th 08:00-21:00; Fr-Sa 08:00-23:00; Su 08:00-21:00", "brand": "Torchy's Tacos", "brand:wikidata": "Q106769573"}, "geometry": {"type": "Point", "coordinates": [-97.784222, 30.24158]}},
{"type": "Feature", "id": "XIpMOq21iiKAoZzoOQZJc_5E-II=", "properties": {"ref": "Congress", "@spider": "torchys_tacos", "addr:full": "1822 S. Congress Ave.", "addr:city": "Austin", "addr:state": "TX", "addr:postcode": "78704", "phone": "(512) 916-9025", "website": "https://torchystacos.com/location/south-congress/", "opening_hours": "Mo-Th 09:30-22:00; Fr-Su 09:00-22:00", "brand": "Torchy's Tacos", "brand:wikidata": "Q106769573"}, "geometry": {"type": "Point", "coordinates": [-97.751579, 30.245473]}},
{"type": "Feature", "id": "ZBiNlcNlbxJGrfRxG-VC06dRtik=", "properties": {"ref": "Anderson Mill", "@spider": "torchys_tacos", "addr:full": "11521 RR 620 N. E-1000", "addr:city": "Austin", "addr:state": "TX", "addr:postcode": "78726", "phone": "(512) 381-8226", "website": "https://torchystacos.com/location/anderson-mill/", "opening_hours": "Mo-Th 09:00-21:00; Fr-Sa 09:00-22:00; Su 09:00-21:00", "brand": "Torchy's Tacos", "brand:wikidata": "Q106769573"}, "geometry": {"type": "Point", "coordinates": [-97.827605, 30.453007]}},
{"type": "Feature", "id": "HE3dkwAtmmLtRHb2MBywf_T4_1c=", "properties": {"ref": "Arbor Trails", "@spider": "torchys_tacos", "addr:full": "4301 W. William Cannon Dr. G-400", "addr:city": "Austin", "addr:state": "TX", "addr:postcode": "78749", "phone": "(512) 514-0767", "website": "https://torchystacos.com/location/arbor-trails/", "opening_hours": "Mo-Th 08:00-22:00; Fr-Sa 08:00-23:00; Su 08:00-22:00", "brand": "Torchy's Tacos", "brand:wikidata": "Q106769573"}, "geometry": {"type": "Point", "coordinates": [-97.840426, 30.222333]}},
{"type": "Feature", "id": "8BKDJR2AW7bJ4aC_L_8KTSGGtFE=", "properties": {"ref": "Belterra", "@spider": "torchys_tacos", "addr:full": "166 Hargraves Drive, Ste. J100", "addr:city": "Austin", "addr:state": "TX", "addr:postcode": "78737", "phone": "(737) 717-6951", "website": "https://torchystacos.com/location/belterra/", "opening_hours": "Mo-Th 10:00-21:00; Fr 10:00-22:00; Sa 09:00-22:00; Su 09:00-21:00", "brand": "Torchy's Tacos", "brand:wikidata": "Q106769573"}, "geometry": {"type": "Point", "coordinates": [-97.978417, 30.205442]}},
{"type": "Feature", "id": "tCtY85c5QWtK4zEvMnZ6Dm96a0E=", "properties": {"ref": "Burnet", "@spider": "torchys_tacos", "addr:full": "5119 Burnet Rd.", "addr:city": "Austin", "addr:state": "TX", "addr:postcode": "78756", "phone": "(512) 382-0823", "website": "https://torchystacos.com/location/burnet/", "opening_hours": "Mo-Su 08:00-21:00", "brand": "Torchy's Tacos", "brand:wikidata": "Q106769573"}, "geometry": {"type": "Point", "coordinates": [-97.739228, 30.323395]}},
{"type": "Feature", "id": "4qCpAcdxwHVZWJpMiSng5F1QSM4=", "properties": {"ref": "Guadalupe", "@spider": "torchys_tacos", "addr:full": "2801 Guadalupe St. 5-B", "addr:city": "Austin", "addr:state": "TX", "addr:postcode": "78705", "phone": "(512) 494-8226", "website": "https://torchystacos.com/location/guadalupe/", "opening_hours": "Mo-Su 09:00-23:00", "brand": "Torchy's Tacos", "brand:wikidata": "Q106769573"}, "geometry": {"type": "Point", "coordinates": [-97.741728, 30.293722]}},
{"type": "Feature", "id": "5st_M7d__dy0D7JlKcemNIsM3LY=", "properties": {"ref": "Spicewood Springs", "@spider": "torchys_tacos", "addr:full": "4211 Spicewood Springs Rd.", "addr:city": "Austin", "addr:state": "TX", "addr:postcode": "78759", "phone": "(512) 291-7277", "website": "https://torchystacos.com/location/spicewood-springs/", "opening_hours": "Mo-Su 08:00-22:00", "brand": "Torchy's Tacos", "brand:wikidata": "Q106769573"}, "geometry": {"type": "Point", "coordinates": [-97.756248, 30.370741]}},
{"type": "Feature", "id": "3mcA6Xut3VH5Mkx6PMkQI4HpG1w=", "properties": {"ref": "Cedar Park", "@spider": "torchys_tacos", "addr:full": "1468 E. Whitestone Blvd., Ste. 100", "addr:city": "Austin", "addr:state": "TX", "addr:postcode": "78613", "phone": "(512) 337-0997", "website": "https://torchystacos.com/location/cedar-park/", "opening_hours": "Mo-Th 10:00-22:00; Fr 10:00-23:00; Sa 09:00-23:00; Su 09:00-21:00", "brand": "Torchy's Tacos", "brand:wikidata": "Q106769573"}, "geometry": {"type": "Point", "coordinates": [-97.809088, 30.526583]}},
{"type": "Feature", "id": "erLeJWOBQmHIOOB3pWLRRqQK_HA=", "properties": {"ref": "Lakeway", "@spider": "torchys_tacos", "addr:full": "1945 Medical Drive, Ste. 100", "addr:city": "Austin", "addr:state": "TX", "addr:postcode": "78734", "phone": "(512) 975-3240", "website": "https://torchystacos.com/location/lakeway/", "opening_hours": "Mo-Fr 10:00-22:00; Sa-Su 09:00-22:00", "brand": "Torchy's Tacos", "brand:wikidata": "Q106769573"}, "geometry": {"type": "Point", "coordinates": [-97.967399, 30.346693]}},
{"type": "Feature", "id": "GMnqhwmd0Xz85QALmMZaFd5rNP8=", "properties": {"ref": "Carytown - COMING SOON", "@spider": "torchys_tacos", "addr:full": "3510 W Cary St.", "addr:city": "Richmond", "addr:state": "VA", "addr:postcode": "23221", "website": "https://torchystacos.com/location/carytown/", "brand": "Torchy's Tacos", "brand:wikidata": "Q106769573"}, "geometry": {"type": "Point", "coordinates": [-77.48698298467369, 37.55566889525034]}},
{"type": "Feature", "id": "6CX2QJspYUa0r42oV-fKPZFgpjw=", "properties": {"ref": "Short Pump - COMING SOON", "@spider": "torchys_tacos", "addr:full": "11120 West Broad Street", "addr:city": "Glen Allen", "addr:state": "VA", "addr:postcode": "23060", "website": "https://torchystacos.com/location/short-pump/", "brand": "Torchy's Tacos", "brand:wikidata": "Q106769573"}, "geometry": {"type": "Point", "coordinates": [-77.59933713125075, 37.65014315078219]}},
{"type": "Feature", "id": "bdRLvXVyC_UUkPuw4tV9TVsN-Us=", "properties": {"ref": "Charlottesville", "@spider": "torchys_tacos", "addr:full": "1951 Swanson Drive #110", "addr:city": "Charlottesville", "addr:state": "VA", "addr:postcode": "22901", "phone": "(434) 688-0070", "website": "https://torchystacos.com/location/charlottesville/", "opening_hours": "Mo-Th 10:00-22:00; Fr 10:00-23:00; Sa 09:00-23:00; Su 09:00-21:00", "brand": "Torchy's Tacos", "brand:wikidata": "Q106769573"}, "geometry": {"type": "Point", "coordinates": [-78.4944757, 38.0639634]}},
{"type": "Feature", "id": "6qPcRiVxIskK9i5ekigBWtGb7eE=", "properties": {"ref": "Waco", "@spider": "torchys_tacos", "addr:full": "801 S 5th St", "addr:city": "Waco", "addr:state": "TX", "addr:postcode": "76706", "phone": "(254) 732-1445", "website": "https://torchystacos.com/location/waco/", "opening_hours": "Mo-Th 10:00-21:00; Fr 10:00-22:00; Sa 09:00-22:00; Su 09:00-21:00", "brand": "Torchy's Tacos", "brand:wikidata": "Q106769573"}, "geometry": {"type": "Point", "coordinates": [-97.125283, 31.550832]}},
{"type": "Feature", "id": "nZl-b9ju0v3D4MQx9ks1373yKS4=", "properties": {"ref": "Tyler", "@spider": "torchys_tacos", "addr:full": "426 E. Southeast Loop 323", "addr:city": "Tyler", "addr:state": "TX", "addr:postcode": "75701", "phone": "(903) 581-3716", "website": "https://torchystacos.com/location/tyler/", "opening_hours": "Mo-Fr 10:00-22:00; Sa 09:00-22:00; Su 09:00-21:00", "brand": "Torchy's Tacos", "brand:wikidata": "Q106769573"}, "geometry": {"type": "Point", "coordinates": [-95.295486, 32.303564]}},
{"type": "Feature", "id": "Fpi-OGFbaLh_mdxWrcCDGfBd5-k=", "properties": {"ref": "The Woodlands", "@spider": "torchys_tacos", "addr:full": "4747 Research Forest Drive #475", "addr:city": "The Woodlands", "addr:state": "TX", "addr:postcode": "77381", "phone": "(281) 465-8918", "website": "https://torchystacos.com/location/the-woodlands/", "opening_hours": "Mo 09:00-21:00; Tu-Th 09:00-21:30; Fr-Sa 09:00-22:30; Su 09:00-21:30", "brand": "Torchy's Tacos", "brand:wikidata": "Q106769573"}, "geometry": {"type": "Point", "coordinates": [-95.490008, 30.183914]}},
{"type": "Feature", "id": "VkeFVzNUlDtJyXA9PZqTDWnNPlg=", "properties": {"ref": "Woodlands Mall", "@spider": "torchys_tacos", "addr:full": "1555 Lake Woodlands Drive, Ste 435", "addr:city": "The Woodlands", "addr:state": "TX", "addr:postcode": "77380", "phone": "346-413-2501", "website": "https://torchystacos.com/location/woodlands-mall/", "opening_hours": "Mo-Su 09:30-21:30", "brand": "Torchy's Tacos", "brand:wikidata": "Q106769573"}, "geometry": {"type": "Point", "coordinates": [-95.458914, 30.166735]}},
{"type": "Feature", "id": "vj2Ula1NkEGgQZnxP6-RkYseYSI=", "properties": {"ref": "Stafford", "@spider": "torchys_tacos", "addr:full": "11327 Current Lane", "addr:city": "Stafford", "addr:state": "TX", "addr:postcode": "77477", "phone": "(281) 557-6060", "website": "https://torchystacos.com/location/stafford/", "opening_hours": "Mo-Th 10:00-22:00; Fr 10:00-23:00; Sa 09:00-23:00; Su 09:00-22:00", "brand": "Torchy's Tacos", "brand:wikidata": "Q106769573"}, "geometry": {"type": "Point", "coordinates": [-95.5770831, 29.6419192]}},
{"type": "Feature", "id": "edpwEAeLUcqQr44Ts8ciEbg_Tas=", "properties": {"ref": "Spring", "@spider": "torchys_tacos", "addr:full": "2156 Spring Stuebner Rd., Suite 530", "addr:city": "Spring", "addr:state": "TX", "addr:postcode": "77389", "phone": "(346) 413-2215", "website": "https://torchystacos.com/location/spring/", "opening_hours": "Mo-Th 10:00-22:00; Fr 10:00-23:00; Sa 09:00-23:00; Su 09:00-22:00", "brand": "Torchy's Tacos", "brand:wikidata": "Q106769573"}, "geometry": {"type": "Point", "coordinates": [-95.449375, 30.083458]}},
{"type": "Feature", "id": "PztguTzUK9N5R4DmcrxCxtSL2OM=", "properties": {"ref": "Southlake", "@spider": "torchys_tacos", "addr:full": "2175 E. Southlake Blvd., Ste. 160", "addr:city": "Southlake", "addr:state": "TX", "addr:postcode": "76092", "phone": "(817) 601-2880", "website": "https://torchystacos.com/location/southlake/", "opening_hours": "Mo-Th 08:00-22:00; Fr-Sa 08:00-23:00; Su 08:00-21:00", "brand": "Torchy's Tacos", "brand:wikidata": "Q106769573"}, "geometry": {"type": "Point", "coordinates": [-97.118915, 32.940314]}},
{"type": "Feature", "id": "U4OLTwsN_zcyofXqDd78NOtwXA8=", "properties": {"ref": "San Marcos", "@spider": "torchys_tacos", "addr:full": "301 N. Guadalupe Street, Suite #194", "addr:city": "San Marcos", "addr:state": "TX", "addr:postcode": "78666", "phone": "(512) 757-8888", "website": "https://torchystacos.com/location/san-marcos/", "opening_hours": "Mo-Th 10:00-21:00; Fr 10:00-22:00; Sa 09:00-22:00; Su 09:00-21:00", "brand": "Torchy's Tacos", "brand:wikidata": "Q106769573"}, "geometry": {"type": "Point", "coordinates": [-97.942005, 29.884645]}},
{"type": "Feature", "id": "qGCHrVjWe8NsTxepRTlDCNQ67-I=", "properties": {"ref": "Lincoln Heights", "@spider": "torchys_tacos", "addr:full": "999 E. Basse Road #183", "addr:city": "San Antonio", "addr:state": "TX", "addr:postcode": "78209", "phone": "(210) 824-1603", "website": "https://torchystacos.com/location/lincoln-heights/", "opening_hours": "Mo-Th 10:00-22:00; Fr 10:00-23:00; Sa 09:00-23:00; Su 09:00-22:00", "brand": "Torchy's Tacos", "brand:wikidata": "Q106769573"}, "geometry": {"type": "Point", "coordinates": [-98.470519, 29.497636]}},
{"type": "Feature", "id": "bV1oCITh6EWLcFdTNvM5CK3O6f8=", "properties": {"ref": "Sonterra", "@spider": "torchys_tacos", "addr:full": "18210 Sonterra Place", "addr:city": "San Antonio", "addr:state": "TX", "addr:postcode": "78258", "phone": "726-444-9116", "website": "https://torchystacos.com/location/sonterra/", "opening_hours": "Mo-Th 10:00-22:00; Fr 10:00-23:00; Sa 09:00-23:00; Su 09:00-22:00", "brand": "Torchy's Tacos", "brand:wikidata": "Q106769573"}, "geometry": {"type": "Point", "coordinates": [-98.49815239999998, 29.6093722]}},
{"type": "Feature", "id": "DWA3vq8mE7ZGtWqIam7Z0_VMZy8=", "properties": {"ref": "The Rim", "@spider": "torchys_tacos", "addr:full": "17627 La Cantera Parkway Suite 105", "addr:city": "San Antonio", "addr:state": "TX", "addr:postcode": "78257", "phone": "(210) 424-3151", "website": "https://torchystacos.com/location/the-rim/", "opening_hours": "Mo-Th 10:00-22:00; Fr 10:00-23:00; Sa 09:00-23:00; Su 09:00-22:00", "brand": "Torchy's Tacos", "brand:wikidata": "Q106769573"}, "geometry": {"type": "Point", "coordinates": [-98.59893319999998, 29.6098543]}},
{"type": "Feature", "id": "ZrZ6yjy6weFgzuNL_9DKDvtXl30=", "properties": {"ref": "Med Center", "@spider": "torchys_tacos", "addr:full": "8435 Wurzbach Rd. Suite 202", "addr:city": "San Antonio", "addr:state": "TX", "addr:postcode": "78229", "phone": "(210) 987-5574", "website": "https://torchystacos.com/location/san-antonio-medical-center/", "opening_hours": "Mo-Th 07:00-21:00; Fr 07:00-22:00; Sa 09:00-22:00; Su 09:00-21:00", "brand": "Torchy's Tacos", "brand:wikidata": "Q106769573"}, "geometry": {"type": "Point", "coordinates": [-98.5776233, 29.5174312]}},
{"type": "Feature", "id": "zGQiYybfv6_e8pbITj3EygihFCI=", "properties": {"ref": "Bandera", "@spider": "torchys_tacos", "addr:full": "11654 Bandera Road, Suite 111", "addr:city": "San Antonio", "addr:state": "TX", "addr:postcode": "78250", "phone": "(210) 920-2929", "website": "https://torchystacos.com/location/bandera/", "opening_hours": "Mo-Th 10:00-22:00; Fr-Sa 09:00-23:00; Su 09:00-22:00", "brand": "Torchy's Tacos", "brand:wikidata": "Q106769573"}, "geometry": {"type": "Point", "coordinates": [-98.6653843, 29.5522745]}},
{"type": "Feature", "id": "m0ZaMk2tGgoiJQQgYoQkGIWacVA=", "properties": {"ref": "Round Rock - Palm Valley", "@spider": "torchys_tacos", "addr:full": "2150 E. Palm Valley Blvd., Ste. 100", "addr:city": "Round Rock", "addr:state": "TX", "addr:postcode": "78665", "phone": "(512) 381-0173", "website": "https://torchystacos.com/location/round-rock/", "opening_hours": "Mo-Th 10:00-22:00; Fr 10:00-23:00; Sa 09:00-23:00; Su 09:00-21:00", "brand": "Torchy's Tacos", "brand:wikidata": "Q106769573"}, "geometry": {"type": "Point", "coordinates": [-97.651913, 30.519125]}},
{"type": "Feature", "id": "v98Bnyc5fDPyCkNfnhBeN2RUjS0=", "properties": {"ref": "Round Rock 35", "@spider": "torchys_tacos", "addr:full": "1500 N. I-35", "addr:city": "Round Rock", "addr:state": "TX", "addr:postcode": "78681", "phone": "512-614-3156", "website": "https://torchystacos.com/location/round-rock-35/", "opening_hours": "Mo-Fr 10:00-22:00; Sa 09:00-22:00; Su 09:00-21:00", "brand": "Torchy's Tacos", "brand:wikidata": "Q106769573"}, "geometry": {"type": "Point", "coordinates": [-97.6904033, 30.5220918]}},
{"type": "Feature", "id": "sSV98c7OLUtgsz5PgYBYo171zlQ=", "properties": {"ref": "Rosenberg", "@spider": "torchys_tacos", "addr:full": "24401 Southwest Freeway, #100", "addr:city": "Rosenberg", "addr:state": "TX", "addr:postcode": "77471", "phone": "(281) 766-8100", "website": "https://torchystacos.com/location/rosenberg/", "opening_hours": "Mo-Th 10:00-22:00; Fr 10:00-23:00; Sa 09:00-23:00; Su 09:00-22:00", "brand": "Torchy's Tacos", "brand:wikidata": "Q106769573"}, "geometry": {"type": "Point", "coordinates": [-95.7516223, 29.5434821]}},
{"type": "Feature", "id": "fzXM7TrKK0mz8sdDWnsqGvK-5YM=", "properties": {"ref": "Richmond", "@spider": "torchys_tacos", "addr:full": "4818 Waterview Town Center Drive, Ste. 500", "addr:city": "Richmond", "addr:state": "TX", "addr:postcode": "77406", "phone": "(832) 586-8811", "website": "https://torchystacos.com/location/richmond/", "opening_hours": "Mo-Th 10:00-22:00; Fr 10:00-23:00; Sa 09:00-23:00; Su 09:00-22:00", "brand": "Torchy's Tacos", "brand:wikidata": "Q106769573"}, "geometry": {"type": "Point", "coordinates": [-95.7186923, 29.6603871]}},
{"type": "Feature", "id": "OldH3uh9ZcR-Y3CSQe8JOuaUwgc=", "properties": {"ref": "Richardson", "@spider": "torchys_tacos", "addr:full": "300 West Campbell Road, Suite 160", "addr:city": "Richardson", "addr:state": "TX", "addr:postcode": "75080", "phone": "(972) 234-4391", "website": "https://torchystacos.com/location/richardson/", "opening_hours": "Mo-Fr 10:00-22:00; Sa-Su 09:00-22:00", "brand": "Torchy's Tacos", "brand:wikidata": "Q106769573"}, "geometry": {"type": "Point", "coordinates": [-96.722043, 32.976353]}},
{"type": "Feature", "id": "xPv-hYpyqERUuTx2oMNLRMs97go=", "properties": {"ref": "Plano", "@spider": "torchys_tacos", "addr:full": "1855 Dallas Parkway, Suite #600", "addr:city": "Plano", "addr:state": "TX", "addr:postcode": "75093", "phone": "(972) 735-0310", "website": "https://torchystacos.com/location/plano/", "opening_hours": "Mo-Th 10:00-21:00; Fr 10:00-22:00; Sa 09:00-22:00; Su 09:00-21:00", "brand": "Torchy's Tacos", "brand:wikidata": "Q106769573"}, "geometry": {"type": "Point", "coordinates": [-96.831062, 33.026079]}},
{"type": "Feature", "id": "IWL0EAFMwchJq0T5FFbAS7nHN80=", "properties": {"ref": "Odessa", "@spider": "torchys_tacos", "addr:full": "306 E. 5th St", "addr:city": "Odessa", "addr:state": "TX", "addr:postcode": "79761", "phone": "(432) 308-5040", "website": "https://torchystacos.com/location/odessa/", "opening_hours": "Mo-Su 10:00-22:00", "brand": "Torchy's Tacos", "brand:wikidata": "Q106769573"}, "geometry": {"type": "Point", "coordinates": [-102.3671001, 31.8496836]}},
{"type": "Feature", "id": "uySw_X9QaEdPTwxc1rHpnpwmu9Y=", "properties": {"ref": "Mansfield", "@spider": "torchys_tacos", "addr:full": "1671 East Broad Street", "addr:city": "Mansfield", "addr:state": "TX", "addr:postcode": "76063", "phone": "(817) 500-9055", "website": "https://torchystacos.com/location/mansfield/", "opening_hours": "Mo-Th 10:00-22:00; Fr 10:00-23:00; Sa 09:00-23:00; Su 09:00-22:00", "brand": "Torchy's Tacos", "brand:wikidata": "Q106769573"}, "geometry": {"type": "Point", "coordinates": [-97.118552, 32.567634]}},
{"type": "Feature", "id": "p0HiPn_dKNjdmNxUbOIX9bNfPic=", "properties": {"ref": "Lubbock", "@spider": "torchys_tacos", "addr:full": "2407 9th. St., Ste. 100", "addr:city": "Lubbock", "addr:state": "TX", "addr:postcode": "79401", "phone": "(806)368-8973", "website": "https://torchystacos.com/location/lubbock/", "opening_hours": "Mo-Th 10:00-22:00; Fr-Sa 10:00-23:00; Su 10:00-22:00", "brand": "Torchy's Tacos", "brand:wikidata": "Q106769573"}, "geometry": {"type": "Point", "coordinates": [-101.868813, 33.586754]}},
{"type": "Feature", "id": "Dj2pd3AUq7ZhDl1xF55sEUwtlZI=", "properties": {"ref": "West End", "@spider": "torchys_tacos", "addr:full": "3204 W Loop 289 Suite 100", "addr:city": "Lubbock", "addr:state": "TX", "addr:postcode": "79414", "phone": "(806) 412-5220", "website": "https://torchystacos.com/location/lubbock-west-end/", "opening_hours": "Mo-Th 10:00-22:00; Fr-Sa 10:00-23:00; Su 10:00-22:00", "brand": "Torchy's Tacos", "brand:wikidata": "Q106769573"}, "geometry": {"type": "Point", "coordinates": [-101.945007, 33.56521]}},
{"type": "Feature", "id": "kKHEIavmeojgLIvTFSMB06skjeg=", "properties": {"ref": "Las Colinas", "@spider": "torchys_tacos", "addr:full": "7855 Las Colinas Ridge", "addr:city": "Irving", "addr:state": "TX", "addr:postcode": "75063", "phone": "(214) 743-8565", "website": "https://torchystacos.com/location/las-colinas/", "opening_hours": "Mo-Sa 09:00-22:00; Su 09:00-21:00", "brand": "Torchy's Tacos", "brand:wikidata": "Q106769573"}, "geometry": {"type": "Point", "coordinates": [-96.95336, 32.912992]}},
{"type": "Feature", "id": "FEgB2IBr8jhlSUvTb2TDwEAvm4Q=", "properties": {"ref": "Cypress", "@spider": "torchys_tacos", "addr:full": "9975 Barker Cypress Road", "addr:city": "Houston", "addr:state": "TX", "addr:postcode": "77433", "phone": "(832) 745-5200", "website": "https://torchystacos.com/location/cypress/", "opening_hours": "Mo-Th 10:00-22:00; Fr 10:00-23:00; Sa 09:00-23:00; Su 09:00-22:00", "brand": "Torchy's Tacos", "brand:wikidata": "Q106769573"}, "geometry": {"type": "Point", "coordinates": [-95.686867, 29.92285]}},
{"type": "Feature", "id": "tX8Xomptd8F6PWhFlJeJ39DV1II=", "properties": {"ref": "Baybrook", "@spider": "torchys_tacos", "addr:full": "19431 Gatebrook Dr, Suite 3", "addr:city": "Houston", "addr:state": "TX", "addr:postcode": "77598", "phone": "(281) 724-3508", "website": "https://torchystacos.com/location/baybrook/", "opening_hours": "Mo-Th 10:00-22:00; Fr-Sa 08:00-23:00; Su 08:00-22:00", "brand": "Torchy's Tacos", "brand:wikidata": "Q106769573"}, "geometry": {"type": "Point", "coordinates": [-95.138254, 29.543157]}},
{"type": "Feature", "id": "v_ydObo3gjzy4oPkhWGp2k7rVEk=", "properties": {"ref": "Houston Heights", "@spider": "torchys_tacos", "addr:full": "350 W. 19th Street, Ste. A", "addr:city": "Houston", "addr:state": "TX", "addr:postcode": "77008", "phone": "(713) 595-8229", "website": "https://torchystacos.com/location/houston-heights/", "opening_hours": "Mo-Th 08:00-21:30; Fr-Sa 08:00-23:00; Su 08:00-21:30", "brand": "Torchy's Tacos", "brand:wikidata": "Q106769573"}, "geometry": {"type": "Point", "coordinates": [-95.40324, 29.802675]}},
{"type": "Feature", "id": "REv2Pr0BEn7m7ScQ6XwuEdxqNwQ=", "properties": {"ref": "Katy Green", "@spider": "torchys_tacos", "addr:full": "19111 Katy Freeway, Ste. 100", "addr:city": "Houston", "addr:state": "TX", "addr:postcode": "77094", "phone": "(281) 829-4990", "website": "https://torchystacos.com/location/katy-green/", "opening_hours": "Mo-Th 10:00-22:00; Fr 10:00-23:00; Sa 09:00-23:00; Su 09:00-22:00", "brand": "Torchy's Tacos", "brand:wikidata": "Q106769573"}, "geometry": {"type": "Point", "coordinates": [-95.702608, 29.784282]}},
{"type": "Feature", "id": "MiAuJEM2zSsCEz2Kzl4c7b8L_uI=", "properties": {"ref": "Rice Village", "@spider": "torchys_tacos", "addr:full": "2400 Times Blvd.", "addr:city": "Houston", "addr:state": "TX", "addr:postcode": "77005", "phone": "(713) 487-0067", "website": "https://torchystacos.com/location/rice-village/", "opening_hours": "Mo-Th 08:00-21:30; Fr 07:00-23:00; Sa 09:00-23:00; Su 09:00-21:30", "brand": "Torchy's Tacos", "brand:wikidata": "Q106769573"}, "geometry": {"type": "Point", "coordinates": [-95.415127, 29.716969]}},
{"type": "Feature", "id": "qiRJ6w2O_xz6w9LPGDc78EvAWqo=", "properties": {"ref": "Shepherd", "@spider": "torchys_tacos", "addr:full": "2411 S. Shepherd Dr.", "addr:city": "Houston", "addr:state": "TX", "addr:postcode": "77019", "phone": "(713) 595-8226", "website": "https://torchystacos.com/location/shepherd/", "opening_hours": "Mo-Th 08:00-21:30; Fr 08:00-23:00; Sa 09:00-23:00; Su 09:00-21:30", "brand": "Torchy's Tacos", "brand:wikidata": "Q106769573"}, "geometry": {"type": "Point", "coordinates": [-95.410406, 29.744126]}},
{"type": "Feature", "id": "scRew8eNi59RDZQ1_dEYwnY_cZY=", "properties": {"ref": "Vintage", "@spider": "torchys_tacos", "addr:full": "10123 Louetta Rd. #1300", "addr:city": "Houston", "addr:state": "TX", "addr:postcode": "77070", "phone": "(281) 803-5300", "website": "https://torchystacos.com/location/vintage/", "opening_hours": "Mo-Th 10:00-22:00; Fr 10:00-23:00; Sa 09:00-23:00; Su 09:00-22:00", "brand": "Torchy's Tacos", "brand:wikidata": "Q106769573"}, "geometry": {"type": "Point", "coordinates": [-95.562758, 30.009501]}},
{"type": "Feature", "id": "LGCFgqrKstA8d0AZy8ZP4ZxUEqM=", "properties": {"ref": "Westchase", "@spider": "torchys_tacos", "addr:full": "2675 Wilcrest Dr.", "addr:city": "Houston", "addr:state": "TX", "addr:postcode": "77042", "phone": "(713) 487-4991", "website": "https://torchystacos.com/location/westchase/", "opening_hours": "Mo-Th 10:00-22:00; Fr 10:00-23:00; Sa 09:00-23:00; Su 09:00-22:00", "brand": "Torchy's Tacos", "brand:wikidata": "Q106769573"}, "geometry": {"type": "Point", "coordinates": [-95.571198, 29.735116]}},
{"type": "Feature", "id": "bHkALswy-LMG2L2HUrLokIsAo7o=", "properties": {"ref": "Katy", "@spider": "torchys_tacos", "addr:full": "23501 Cinco Ranch Blvd. # N-100", "addr:city": "Houston", "addr:state": "TX", "addr:postcode": "77494", "phone": "(281) 394-7808", "website": "https://torchystacos.com/location/katy/", "opening_hours": "Mo-Th 10:00-21:00; Fr 10:00-23:00; Sa 09:00-23:00; Su 09:00-21:00", "brand": "Torchy's Tacos", "brand:wikidata": "Q106769573"}, "geometry": {"type": "Point", "coordinates": [-95.775592, 29.74157]}},
{"type": "Feature", "id": "vcAN5OpYKlOk3usQJTiJl0XfIBA=", "properties": {"ref": "Kingwood", "@spider": "torchys_tacos", "addr:full": "4529 Kingwood Dr, Suite 180", "addr:city": "Houston", "addr:state": "TX", "addr:postcode": "77345", "phone": "(346) 251-0742", "website": "https://torchystacos.com/location/kingwood/", "opening_hours": "Mo-Th 10:00-22:00; Fr 10:00-23:00; Sa 09:00-23:00; Su 09:00-22:00", "brand": "Torchy's Tacos", "brand:wikidata": "Q106769573"}, "geometry": {"type": "Point", "coordinates": [-95.183883, 30.050988]}},
{"type": "Feature", "id": "Xt83NHmIpOsot1uPRBIBumW9yG0=", "properties": {"ref": "Sugarland", "@spider": "torchys_tacos", "addr:full": "15810 Southwest Fwy., Ste. 600", "addr:city": "Houston", "addr:state": "TX", "addr:postcode": "77478", "phone": "(281) 313-5110", "website": "https://torchystacos.com/location/sugarland/", "opening_hours": "Mo-Th 10:00-22:00; Fr 10:00-23:00; Sa 09:00-23:00; Su 09:00-22:00", "brand": "Torchy's Tacos", "brand:wikidata": "Q106769573"}, "geometry": {"type": "Point", "coordinates": [-95.621511, 29.600689]}},
{"type": "Feature", "id": "h3B9WbqoRs42DdW27hX5Sn1Z-GA=", "properties": {"ref": "West U", "@spider": "torchys_tacos", "addr:full": "5537 Weslayan St. Houston, TX 77005", "addr:city": "Houston", "addr:state": "TX", "addr:postcode": "77005", "phone": "832-397-5954", "website": "https://torchystacos.com/location/west-u/", "opening_hours": "Mo 10:00-21:00; Tu-Th 10:00-21:30; Fr 10:00-22:30; Sa 09:00-22:30; Su 09:00-21:30", "brand": "Torchy's Tacos", "brand:wikidata": "Q106769573"}, "geometry": {"type": "Point", "coordinates": [-95.440542, 29.722172]}},
{"type": "Feature", "id": "o7-aBNwrNGu39bvWJ4bBBSHpDz0=", "properties": {"ref": "San Felipe", "@spider": "torchys_tacos", "addr:full": "5885 San Felipe Street", "addr:city": "Houston", "addr:state": "TX", "addr:postcode": "77057", "phone": "832-786-6653", "website": "https://torchystacos.com/location/san-felipe/", "opening_hours": "Mo-Th 08:00-21:30; Fr 08:00-22:30; Sa 09:00-22:30; Su 09:00-21:30", "brand": "Torchy's Tacos", "brand:wikidata": "Q106769573"}, "geometry": {"type": "Point", "coordinates": [-95.484275, 29.749392]}},
{"type": "Feature", "id": "-cBWSkplXD-x4ibJIAWCeGneL0M=", "properties": {"ref": "Memorial City", "@spider": "torchys_tacos", "addr:full": "1035 Gessner Rd., Suite A", "addr:city": "Houston", "addr:state": "TX", "addr:postcode": "77055", "phone": "832-304-2700", "website": "https://torchystacos.com/location/memorial-city/", "opening_hours": "Mo-Th 10:00-22:00; Fr 10:00-23:00; Sa 09:00-23:00; Su 09:00-22:00", "brand": "Torchy's Tacos", "brand:wikidata": "Q106769573"}, "geometry": {"type": "Point", "coordinates": [-95.544891, 29.786095]}},
{"type": "Feature", "id": "CCWbKMA1IJfOrHnSNqDcbs-nNO8=", "properties": {"ref": "Highland Village", "@spider": "torchys_tacos", "addr:full": "1601 Village Parkway, Suite K110", "addr:city": "Highland Village", "addr:state": "TX", "addr:postcode": "75077", "phone": "(469) 771-1050", "website": "https://torchystacos.com/location/highland-village/", "opening_hours": "Mo-Th 10:00-21:00; Fr 10:00-22:00; Sa 09:00-22:00; Su 09:00-21:00", "brand": "Torchy's Tacos", "brand:wikidata": "Q106769573"}, "geometry": {"type": "Point", "coordinates": [-97.083965, 33.074461]}},
{"type": "Feature", "id": "uzlgOhFzciNPNi9_rBM7mBy4mo8=", "properties": {"ref": "Frisco (Stonebriar)", "@spider": "torchys_tacos", "addr:full": "2947 Preston Road", "addr:city": "Frisco", "addr:state": "TX", "addr:postcode": "75034", "phone": "(469) 777-4576", "website": "https://torchystacos.com/location/frisco-stonebriar/", "opening_hours": "Mo-Fr 10:00-22:00; Sa 09:00-22:00; Su 09:00-21:00", "brand": "Torchy's Tacos", "brand:wikidata": "Q106769573"}, "geometry": {"type": "Point", "coordinates": [-96.8085278, 33.1035392]}},
{"type": "Feature", "id": "rA3Zgfz2VHtLcpOPr3Xqe_YtZv0=", "properties": {"ref": "Frisco (Hollyhock)", "@spider": "torchys_tacos", "addr:full": "1555 US Highway 380, Suite 100", "addr:city": "Frisco", "addr:state": "TX", "addr:postcode": "75034", "phone": "(469) 200-6823", "website": "https://torchystacos.com/location/frisco-hollyhock/", "opening_hours": "Mo-Th 10:00-22:00; Fr 10:00-23:00; Sa 09:00-23:00; Su 09:00-21:00", "brand": "Torchy's Tacos", "brand:wikidata": "Q106769573"}, "geometry": {"type": "Point", "coordinates": [-96.8771778, 33.2176657]}},
{"type": "Feature", "id": "4UpuVY1Xrdox_xyO6HMzogs1eRA=", "properties": {"ref": "Fort Worth Midtown", "@spider": "torchys_tacos", "addr:full": "928 Northton St.", "addr:city": "Fort Worth", "addr:state": "TX", "addr:postcode": "76104", "phone": "(817) 289-8226", "website": "https://torchystacos.com/location/fw-midtown/", "opening_hours": "Mo-Th 07:00-22:00; Fr 07:00-23:00; Sa 09:00-23:00; Su 09:00-22:00", "brand": "Torchy's Tacos", "brand:wikidata": "Q106769573"}, "geometry": {"type": "Point", "coordinates": [-97.35167, 32.734353]}},
{"type": "Feature", "id": "qP7MVNgpO0ph81RKoOs-JvOPOyY=", "properties": {"ref": "Hulen", "@spider": "torchys_tacos", "addr:full": "5030 S. Hulen Street", "addr:city": "Fort Worth", "addr:state": "TX", "addr:postcode": "76132", "phone": "(817) 413-1180", "website": "https://torchystacos.com/location/fw-hulen/", "opening_hours": "Mo-Th 10:00-22:00; Fr 10:00-23:00; Sa 09:00-23:00; Su 09:00-22:00", "brand": "Torchy's Tacos", "brand:wikidata": "Q106769573"}, "geometry": {"type": "Point", "coordinates": [-97.399978, 32.673768]}},
{"type": "Feature", "id": "6oWmG5enwEm6FcIPwnsMZqdNzrw=", "properties": {"ref": "Euless", "@spider": "torchys_tacos", "addr:full": "2501 State Hwy 121, Suite 100", "addr:city": "Euless", "addr:state": "TX", "addr:postcode": "76039", "phone": "817-677-0773", "website": "https://torchystacos.com/location/euless/", "opening_hours": "Mo-Fr 10:00-22:00; Sa 09:00-22:00; Su 09:00-21:00", "brand": "Torchy's Tacos", "brand:wikidata": "Q106769573"}, "geometry": {"type": "Point", "coordinates": [-97.1007937, 32.8735224]}},
{"type": "Feature", "id": "8y0EBxnbH2_zdn6-39NClkVZbb0=", "properties": {"ref": "Denton", "@spider": "torchys_tacos", "addr:full": "2224 W. University Drive", "addr:city": "Denton", "addr:state": "TX", "addr:postcode": "76201", "phone": "(940) 999-5566", "website": "https://torchystacos.com/location/denton/", "opening_hours": "Mo 10:00-21:00; Tu-Fr 10:00-22:00; Sa 09:00-22:00; Su 09:00-21:00", "brand": "Torchy's Tacos", "brand:wikidata": "Q106769573"}, "geometry": {"type": "Point", "coordinates": [-97.160247, 33.230367]}},
{"type": "Feature", "id": "XOASXA8ZCvjpafz7E1HsklC8Izg=", "properties": {"ref": "Casa Linda", "@spider": "torchys_tacos", "addr:full": "9440 Garland Road, Ste. 234", "addr:city": "Dallas", "addr:state": "TX", "addr:postcode": "75218", "phone": "(972) 354-8226", "website": "https://torchystacos.com/location/casa-linda/", "opening_hours": "Mo-Fr 10:00-22:00; Sa 09:00-22:00; Su 09:00-21:00", "brand": "Torchy's Tacos", "brand:wikidata": "Q106769573"}, "geometry": {"type": "Point", "coordinates": [-96.700681, 32.832067]}},
{"type": "Feature", "id": "3XUyjLnlvXRRSjPpK2D6OKwNL4I=", "properties": {"ref": "Forest Lane", "@spider": "torchys_tacos", "addr:full": "5921 Forest Ln. #200", "addr:city": "Dallas", "addr:state": "TX", "addr:postcode": "75230", "phone": "(972) 720-9200", "website": "https://torchystacos.com/location/forest-lane/", "opening_hours": "Mo-Sa 09:00-22:00; Su 09:00-21:00", "brand": "Torchy's Tacos", "brand:wikidata": "Q106769573"}, "geometry": {"type": "Point", "coordinates": [-96.805855, 32.909985]}},
{"type": "Feature", "id": "rqfNT3ATduPIaqUZvD0zy-fWoRo=", "properties": {"ref": "Addison (Preston-Alexis)", "@spider": "torchys_tacos", "addr:full": "14760 Preston Rd., Ste. 124", "addr:city": "Dallas", "addr:state": "TX", "addr:postcode": "75254", "phone": "(214) 379-1550", "website": "https://torchystacos.com/location/preston/", "opening_hours": "Mo-Sa 09:00-22:00; Su 09:00-21:00", "brand": "Torchy's Tacos", "brand:wikidata": "Q106769573"}, "geometry": {"type": "Point", "coordinates": [-96.802796, 32.949144]}},
{"type": "Feature", "id": "wp_8ftUioQ76Pg6tz7PSo79bMwo=", "properties": {"ref": "Northshore", "@spider": "torchys_tacos", "addr:full": "110 San Antonio Street Unit 120", "addr:city": "Austin", "addr:state": "TX", "addr:postcode": "78701", "phone": "(512) 792-5909", "website": "https://torchystacos.com/location/northshore/", "opening_hours": "Mo-Th 08:00-22:00; Fr 08:00-23:00; Sa 09:00-23:00; Su 09:00-22:00", "brand": "Torchy's Tacos", "brand:wikidata": "Q106769573"}, "geometry": {"type": "Point", "coordinates": [-97.7495447, 30.2653123]}},
{"type": "Feature", "id": "1s_YCBsWoIrZvkDa3Z4up9u5HXc=", "properties": {"ref": "Stonehill (Pflugerville)", "@spider": "torchys_tacos", "addr:full": "18817 Limestone Commercial Drive Suite #100", "addr:city": "Austin", "addr:state": "TX", "addr:postcode": "78660", "phone": "512-687-7442", "website": "https://torchystacos.com/location/stonehill-pflugerville/", "opening_hours": "Mo-Tu 10:00-21:00; We-Th 10:00-22:00; Fr 10:00-23:00; Sa 09:00-23:00; Su 09:00-21:00", "brand": "Torchy's Tacos", "brand:wikidata": "Q106769573"}, "geometry": {"type": "Point", "coordinates": [-97.59581589999999, 30.4691284]}},
{"type": "Feature", "id": "vU7INzTuAxipjchPuGOk2Wd_hVI=", "properties": {"ref": "Escarpment", "@spider": "torchys_tacos", "addr:full": "5900 Slaughter Lane Suite 550", "addr:city": "Austin", "addr:state": "TX", "addr:postcode": "78749", "phone": "512-420-4111", "website": "https://torchystacos.com/location/escarpment/", "opening_hours": "Mo-Fr 09:30-22:00; Sa-Su 08:00-22:00", "brand": "Torchy's Tacos", "brand:wikidata": "Q106769573"}, "geometry": {"type": "Point", "coordinates": [-97.8790173748688, 30.20156667674513]}},
{"type": "Feature", "id": "oRCI6bQLVhQR_gDlMlYFnYV7K08=", "properties": {"ref": "Slaughter (H\u2011E\u2011B/IH-35, THE OAKS)", "@spider": "torchys_tacos", "addr:full": "8601 South Congress Ave., Suite 250", "addr:city": "Austin", "addr:state": "TX", "addr:postcode": "78745", "phone": "(512) 640-4200", "website": "https://torchystacos.com/location/slaughter/", "opening_hours": "Mo-Th 09:00-22:00; Fr 09:00-23:00; Sa 08:00-23:00; Su 08:00-22:00", "brand": "Torchy's Tacos", "brand:wikidata": "Q106769573"}, "geometry": {"type": "Point", "coordinates": [-97.786905, 30.1716276]}},
{"type": "Feature", "id": "nLY-UZwTKGSgpH9rEK2rzZhqR_s=", "properties": {"ref": "North Arlington", "@spider": "torchys_tacos", "addr:full": "1805 N. Collins Street, Ste. 151", "addr:city": "Arlington", "addr:state": "TX", "addr:postcode": "76011", "phone": "(682) 808-5596", "website": "https://torchystacos.com/location/n-arlington/", "opening_hours": "Mo-Th 10:00-22:00; Fr 10:00-23:00; Sa 09:00-23:00; Su 09:00-22:00", "brand": "Torchy's Tacos", "brand:wikidata": "Q106769573"}, "geometry": {"type": "Point", "coordinates": [-97.096559, 32.763149]}},
{"type": "Feature", "id": "Q8laSU_T2kNTgk4ii9sycO4_PvI=", "properties": {"ref": "South Arlington", "@spider": "torchys_tacos", "addr:full": "4000 Five Points Blvd., Suite 141", "addr:city": "Arlington", "addr:state": "TX", "addr:postcode": "76018", "phone": "(817) 466-7331", "website": "https://torchystacos.com/location/s-arlington/", "opening_hours": "Mo-Th 10:00-22:00; Fr 10:00-23:00; Sa 09:00-23:00; Su 09:00-22:00", "brand": "Torchy's Tacos", "brand:wikidata": "Q106769573"}, "geometry": {"type": "Point", "coordinates": [-97.10734, 32.680282]}},
{"type": "Feature", "id": "TBYuJ6rNPR9ZdT8EVdyZBMrFSG0=", "properties": {"ref": "Amarillo", "@spider": "torchys_tacos", "addr:full": "3562 S Soncy Rd.", "addr:city": "Amarillo", "addr:state": "TX", "addr:postcode": "79119", "phone": "(806) 398-1111", "website": "https://torchystacos.com/location/amarillo/", "opening_hours": "Mo-Th 10:00-22:00; Fr 10:00-23:00; Sa 09:00-23:00; Su 09:00-22:00", "brand": "Torchy's Tacos", "brand:wikidata": "Q106769573"}, "geometry": {"type": "Point", "coordinates": [-101.939429, 35.170263]}},
{"type": "Feature", "id": "cLCIzjOGOtVLc1FLOP_cZLYhqGs=", "properties": {"ref": "Allen", "@spider": "torchys_tacos", "addr:full": "1008 W. McDermott Dr. #600", "addr:city": "Allen", "addr:state": "TX", "addr:postcode": "75013", "phone": "(214) 383-8226", "website": "https://torchystacos.com/location/allen/", "opening_hours": "Mo-Fr 08:00-22:00; Sa-Su 09:00-22:00", "brand": "Torchy's Tacos", "brand:wikidata": "Q106769573"}, "geometry": {"type": "Point", "coordinates": [-96.687274, 33.101347]}},
{"type": "Feature", "id": "VlrJU77g-DmxaaF8jVM9zkdfEdU=", "properties": {"ref": "Abilene", "@spider": "torchys_tacos", "addr:full": "3765 Catclaw Drive", "addr:city": "Abilene", "addr:state": "TX", "addr:postcode": "79606", "phone": "325-480-3380", "website": "https://torchystacos.com/location/abilene/", "opening_hours": "Mo-Th 10:00-22:00; Fr 10:00-23:00; Sa 09:00-23:00; Su 09:00-22:00", "brand": "Torchy's Tacos", "brand:wikidata": "Q106769573"}, "geometry": {"type": "Point", "coordinates": [-99.7762986, 32.40716]}},
{"type": "Feature", "id": "gG-GZNPxkQ7SU3pd1W0v_PC0DzU=", "properties": {"ref": "Memphis", "@spider": "torchys_tacos", "addr:full": "719 South Mendenhall Road.", "addr:city": "Memphis", "addr:state": "TN", "addr:postcode": "38117", "phone": "(901) 343-8880", "website": "https://torchystacos.com/location/memphis/", "opening_hours": "Mo-Th 10:00-22:00; Fr-Sa 10:00-23:00; Su 10:00-22:00", "brand": "Torchy's Tacos", "brand:wikidata": "Q106769573"}, "geometry": {"type": "Point", "coordinates": [-89.8987761, 35.1116882]}},
{"type": "Feature", "id": "9DlZRPu9Iy8VjY0ZKCzc86RIEsk=", "properties": {"ref": "Tulsa", "@spider": "torchys_tacos", "addr:full": "3330 S. Peoria Ave", "addr:city": "Tulsa", "addr:state": "OK", "addr:postcode": "74105", "phone": "(918) 495-4073", "website": "https://torchystacos.com/location/tulsa/", "opening_hours": "Mo-Th 10:00-22:00; Fr 10:00-23:00; Sa 09:00-23:00; Su 09:00-22:00", "brand": "Torchy's Tacos", "brand:wikidata": "Q106769573"}, "geometry": {"type": "Point", "coordinates": [-95.975952, 36.114567]}},
{"type": "Feature", "id": "DWCCu4v-WJk3nzOPy6YhKiXGric=", "properties": {"ref": "Chisholm Creek", "@spider": "torchys_tacos", "addr:full": "13002 N Pennsylvania Avenue", "addr:city": "Oklahoma City", "addr:state": "OK", "addr:postcode": "73120", "phone": "(405) 936-4264", "website": "https://torchystacos.com/location/oklahoma-city/", "opening_hours": "Mo-Th 10:00-22:00; Fr 10:00-23:00; Sa 09:00-23:00; Su 09:00-22:00", "brand": "Torchy's Tacos", "brand:wikidata": "Q106769573"}, "geometry": {"type": "Point", "coordinates": [-97.548705, 35.602352]}},
{"type": "Feature", "id": "R4aWndCJKPOGe-T9-mOxpZHLYhY=", "properties": {"ref": "OKC Triangle", "@spider": "torchys_tacos", "addr:full": "1144 NW 63rd St, Suite 1007", "addr:city": "Oklahoma City", "addr:state": "OK", "addr:postcode": "73116", "phone": "405-310-8323", "website": "https://torchystacos.com/location/okc-triangle/", "opening_hours": "Mo-Th 10:00-22:00; Fr 10:00-23:00; Sa 09:00-23:00; Su 09:00-22:00", "brand": "Torchy's Tacos", "brand:wikidata": "Q106769573"}, "geometry": {"type": "Point", "coordinates": [-97.533067, 35.536803]}},
{"type": "Feature", "id": "XA2UvEb4Fx0YXMTBqQqK6-vCK1I=", "properties": {"ref": "Norman", "@spider": "torchys_tacos", "addr:full": "2050 24th Ave NW, Suite 130", "addr:city": "Norman", "addr:state": "OK", "addr:postcode": "73069", "phone": "(405) 364-0286", "website": "https://torchystacos.com/location/norman/", "opening_hours": "Mo-Th 10:00-22:00; Fr 10:00-23:00; Sa 09:00-23:00; Su 09:00-22:00", "brand": "Torchy's Tacos", "brand:wikidata": "Q106769573"}, "geometry": {"type": "Point", "coordinates": [-97.481999, 35.242529]}},
{"type": "Feature", "id": "1Gvo-3DlJhqxP7giRwEQav0BIUQ=", "properties": {"ref": "Edmond", "@spider": "torchys_tacos", "addr:full": "1556 E. 2nd Street", "addr:city": "Edmond", "addr:state": "OK", "addr:postcode": "73034", "phone": "(405) 531-5201", "website": "https://torchystacos.com/location/edmond/", "opening_hours": "Mo-Th 10:00-22:00; Fr 10:00-23:00; Sa 09:00-23:00; Su 09:00-22:00", "brand": "Torchy's Tacos", "brand:wikidata": "Q106769573"}, "geometry": {"type": "Point", "coordinates": [-97.459961, 35.652657]}},
{"type": "Feature", "id": "PTdaMmxY3IHUXrcqyenERhxDk8Y=", "properties": {"ref": "Polaris", "@spider": "torchys_tacos", "addr:full": "1478 Gemini Place", "addr:city": "Columbus", "addr:state": "OH", "addr:postcode": "43240", "phone": "(380) 799-7775", "website": "https://torchystacos.com/location/polaris/", "opening_hours": "Mo-Th 10:00-22:00; Fr-Sa 10:00-23:00; Su 10:00-22:00", "brand": "Torchy's Tacos", "brand:wikidata": "Q106769573"}, "geometry": {"type": "Point", "coordinates": [-82.9784142, 40.1492428]}},
{"type": "Feature", "id": "b-iVKmlhnJls1OPpsJeLdyLo1S8=", "properties": {"ref": "Raleigh Midtown East", "@spider": "torchys_tacos", "addr:full": "1110 Mercantile Drive, Building 6, Suite 120", "addr:city": "Raleigh", "addr:state": "NC", "addr:postcode": "27609", "phone": "(919) 439-1177", "website": "https://torchystacos.com/location/midtown-east/", "opening_hours": "Mo-Th 10:00-22:00; Fr 10:00-23:00; Sa 09:00-23:00; Su 09:00-21:00", "brand": "Torchy's Tacos", "brand:wikidata": "Q106769573"}, "geometry": {"type": "Point", "coordinates": [-78.6240772, 35.8215347]}},
{"type": "Feature", "id": "vWmvzroPdRhDHpKrEHWBQfkt4zI=", "properties": {"ref": "Ward Parkway", "@spider": "torchys_tacos", "addr:full": "8815 State Line Road", "addr:city": "Kansas City", "addr:state": "MO", "addr:postcode": "64114", "phone": "816-844-3744", "website": "https://torchystacos.com/location/ward-parkway/", "opening_hours": "Mo-Th 10:00-21:00; Fr-Sa 10:00-22:00; Su 10:00-21:00", "brand": "Torchy's Tacos", "brand:wikidata": "Q106769573"}, "geometry": {"type": "Point", "coordinates": [-94.6079, 38.9686]}},
{"type": "Feature", "id": "8keVxnFkyGYCG5SZWlrOhvb0cUU=", "properties": {"ref": "Shreveport", "@spider": "torchys_tacos", "addr:full": "1384 E 70th St., Suite 900", "addr:city": "Shreveport", "addr:state": "LA", "addr:postcode": "71105", "phone": "(318) 381-8747", "website": "https://torchystacos.com/location/shreveport/", "opening_hours": "Mo-Fr 10:00-22:00; Sa 09:00-22:00; Su 09:00-21:00", "brand": "Torchy's Tacos", "brand:wikidata": "Q106769573"}, "geometry": {"type": "Point", "coordinates": [-93.728349, 32.444504]}},
{"type": "Feature", "id": "zrSVAhwbsA_4739pzVO8QbDBJjI=", "properties": {"ref": "Lake Charles", "@spider": "torchys_tacos", "addr:full": "3407 Nelson Road", "addr:city": "Lake Charles", "addr:state": "LA", "addr:postcode": "70605", "phone": "337-376-0020", "website": "https://torchystacos.com/location/lake-charles/", "opening_hours": "Mo 10:00-21:00; Tu-Th 10:00-22:00; Fr 10:00-23:00; Sa 09:00-23:00; Su 09:00-21:00", "brand": "Torchy's Tacos", "brand:wikidata": "Q106769573"}, "geometry": {"type": "Point", "coordinates": [-93.249416, 30.195985]}},
{"type": "Feature", "id": "WuLHw09EU0UQwdQZVhJXwF4jAho=", "properties": {"ref": "Baton Rouge - LSU", "@spider": "torchys_tacos", "addr:full": "3658 Nicholson Drive, Unit 1A", "addr:city": "Baton Rouge", "addr:state": "LA", "addr:postcode": "70802", "phone": "(225) 289-4300", "website": "https://torchystacos.com/location/baton-rouge/", "opening_hours": "Mo 10:00-21:00; Tu-Th 10:00-21:30; Fr 10:00-22:30; Sa 09:00-22:30; Su 09:00-21:00", "brand": "Torchy's Tacos", "brand:wikidata": "Q106769573"}, "geometry": {"type": "Point", "coordinates": [-91.186828, 30.413395]}},
{"type": "Feature", "id": "GGPZU7kIZYd-bgZdWQXKZj5jpG0=", "properties": {"ref": "Wichita", "@spider": "torchys_tacos", "addr:full": "2191 N. Rock Road", "addr:city": "Wichita", "addr:state": "KS", "addr:postcode": "67206", "phone": "(316) 500-2565", "website": "https://torchystacos.com/location/wichita/", "opening_hours": "Mo-Th 10:00-21:00; Fr-Sa 10:00-22:00; Su 10:00-21:00", "brand": "Torchy's Tacos", "brand:wikidata": "Q106769573"}, "geometry": {"type": "Point", "coordinates": [-97.2473739, 37.7226235]}},
{"type": "Feature", "id": "XlSrlR2qGDHq6MIfyUr44nqdMuY=", "properties": {"ref": "West Wichita", "@spider": "torchys_tacos", "addr:full": "2901 North Maize Road", "addr:city": "Wichita", "addr:state": "KS", "addr:postcode": "67205", "phone": "(316) 448-1188", "website": "https://torchystacos.com/location/west-wichita/", "opening_hours": "Mo-Th 10:00-21:00; Fr-Sa 10:00-22:00; Su 10:00-21:00", "brand": "Torchy's Tacos", "brand:wikidata": "Q106769573"}, "geometry": {"type": "Point", "coordinates": [-97.4655343, 37.7353432]}},
{"type": "Feature", "id": "Jjt-2Bu1eQ2uH4i9qlnAOw1B0jc=", "properties": {"ref": "Overland Park", "@spider": "torchys_tacos", "addr:full": "6815 West 135th Street", "addr:city": "Overland Park", "addr:state": "KS", "addr:postcode": "66223", "phone": "(913) 340-9299", "website": "https://torchystacos.com/location/overland-park/", "opening_hours": "Mo-Th 10:00-21:00; Fr-Sa 10:00-22:00; Su 10:00-21:00", "brand": "Torchy's Tacos", "brand:wikidata": "Q106769573"}, "geometry": {"type": "Point", "coordinates": [-94.6668374, 38.8833175]}},
{"type": "Feature", "id": "iQexEX8__wI2JP-qXH05l_nLECU=", "properties": {"ref": "Olathe", "@spider": "torchys_tacos", "addr:full": "11919 S Strang Line Rd.", "addr:city": "Olathe", "addr:state": "KS", "addr:postcode": "66062", "phone": "(913)361-0131", "website": "https://torchystacos.com/location/olathe/", "opening_hours": "Mo-Th 10:00-21:00; Fr-Sa 10:00-22:00; Su 10:00-21:00", "brand": "Torchy's Tacos", "brand:wikidata": "Q106769573"}, "geometry": {"type": "Point", "coordinates": [-94.76605, 38.91093]}},
{"type": "Feature", "id": "zdnwzSY39a33-E1WUafKQ-FCtbU=", "properties": {"ref": "Jeffersonville", "@spider": "torchys_tacos", "addr:full": "1540 Veterans Pkwy", "addr:city": "Jeffersonville", "addr:state": "IN", "addr:postcode": "47130", "phone": "(812) 645-4800", "website": "https://torchystacos.com/location/jeffersonville/", "opening_hours": "Mo-Th 10:00-21:00; Fr-Sa 10:00-22:00; Su 10:00-21:00", "brand": "Torchy's Tacos", "brand:wikidata": "Q106769573"}, "geometry": {"type": "Point", "coordinates": [-85.7470507, 38.3284265]}},
{"type": "Feature", "id": "7wJbSwn2k-WLRZggTgI71-EJ9Lw=", "properties": {"ref": "Fishers", "@spider": "torchys_tacos", "addr:full": "11595 Whistle Drive, Suite 101-A", "addr:city": "Fishers", "addr:state": "IN", "addr:postcode": "46037", "phone": "(317) 537-0914", "website": "https://torchystacos.com/location/fishers/", "opening_hours": "Mo-Sa 10:00-22:00; Su 09:00-21:00", "brand": "Torchy's Tacos", "brand:wikidata": "Q106769573"}, "geometry": {"type": "Point", "coordinates": [-86.0007538, 39.9566761]}},
{"type": "Feature", "id": "ceMVAIqr6zrlWiNpkRlReLz_Wck=", "properties": {"ref": "Tyrone - St. Petersberg - COMING SOON", "@spider": "torchys_tacos", "addr:full": "2314 Tyrone Blvd. North", "addr:city": "St. Petersburg", "addr:state": "FL", "addr:postcode": "33710", "website": "https://torchystacos.com/location/tyrone/", "brand": "Torchy's Tacos", "brand:wikidata": "Q106769573"}, "geometry": {"type": "Point", "coordinates": [-82.72971296226186, 27.793011231729665]}},
{"type": "Feature", "id": "rL2JT8eIq7Fs6BjKkUPANM8YwGE=", "properties": {"ref": "Altamonte Springs - COMING SOON", "@spider": "torchys_tacos", "addr:full": "999 N. State Road 434, Suite 1000", "addr:city": "Altamonte Springs", "addr:state": "FL", "addr:postcode": "32714", "website": "https://torchystacos.com/location/altamonte-springs/", "brand": "Torchy's Tacos", "brand:wikidata": "Q106769573"}, "geometry": {"type": "Point", "coordinates": [-81.41817904417681, 28.684945469631856]}},
{"type": "Feature", "id": "lNG2UjZ44nv5a31XKOoWjx_E5zs=", "properties": {"ref": "Highlands Ranch", "@spider": "torchys_tacos", "addr:full": "1515 Park Central Dr., Suite C-200", "addr:city": "Highlands Ranch", "addr:state": "CO", "addr:postcode": "80129", "phone": "(720) 647-7420", "website": "https://torchystacos.com/location/highlands-ranch/", "opening_hours": "Mo-Fr 10:00-22:00; Sa-Su 09:00-22:00", "brand": "Torchy's Tacos", "brand:wikidata": "Q106769573"}, "geometry": {"type": "Point", "coordinates": [-105.007617, 39.554159]}},
{"type": "Feature", "id": "hWHj_Cg0u8s_3qL5IJ1flyGfxVs=", "properties": {"ref": "Arapahoe", "@spider": "torchys_tacos", "addr:full": "8505 E. Arapahoe", "addr:city": "Greenwood Village", "addr:state": "CO", "addr:postcode": "80111", "phone": "(303) 721-0060", "website": "https://torchystacos.com/location/arapahoe/", "opening_hours": "Mo-Su 10:00-22:00", "brand": "Torchy's Tacos", "brand:wikidata": "Q106769573"}, "geometry": {"type": "Point", "coordinates": [-104.891728, 39.595464]}},
{"type": "Feature", "id": "n65DAX-CnQqsosXeDmkLU13IlO4=", "properties": {"ref": "Fort Collins", "@spider": "torchys_tacos", "addr:full": "3280 S. College Ave, Suite 130", "addr:city": "Fort Collins", "addr:state": "CO", "addr:postcode": "80525", "phone": "(970) 223-6457", "website": "https://torchystacos.com/location/fort-collins/", "opening_hours": "Mo-Su 10:00-22:00", "brand": "Torchy's Tacos", "brand:wikidata": "Q106769573"}, "geometry": {"type": "Point", "coordinates": [-105.076519, 40.542406]}},
{"type": "Feature", "id": "QmMS6bRu4s5J47GQnDdgjfeVZEc=", "properties": {"ref": "Broadway", "@spider": "torchys_tacos", "addr:full": "1085 N Broadway", "addr:city": "Denver", "addr:state": "CO", "addr:postcode": "80203", "phone": "(303) 436-1704", "website": "https://torchystacos.com/location/broadway-at-11th-ave/", "opening_hours": "Mo-Su 08:00-22:00", "brand": "Torchy's Tacos", "brand:wikidata": "Q106769573"}, "geometry": {"type": "Point", "coordinates": [-104.987818, 39.733496]}},
{"type": "Feature", "id": "Kl_pxWgmkrmNxTlLDBZfzvkMWDc=", "properties": {"ref": "Northfield", "@spider": "torchys_tacos", "addr:full": "8281 E Northfield Blvd.", "addr:city": "Denver", "addr:state": "CO", "addr:postcode": "80238", "phone": "(303) 375-1733", "website": "https://torchystacos.com/location/northfield/", "opening_hours": "Mo-Fr 10:00-22:00; Sa-Su 09:00-22:00", "brand": "Torchy's Tacos", "brand:wikidata": "Q106769573"}, "geometry": {"type": "Point", "coordinates": [-104.892207, 39.786074]}},
{"type": "Feature", "id": "j_P1OAYAOg1NHinR7CV1lupo9Iw=", "properties": {"ref": "88th & Wads", "@spider": "torchys_tacos", "addr:full": "7159 W. 88th Avenue Suite 400", "addr:city": "Denver", "addr:state": "CO", "addr:postcode": "80021", "phone": "(303) 495-1115", "website": "https://torchystacos.com/location/88th-wads/", "opening_hours": "Mo-Su 10:00-22:00", "brand": "Torchy's Tacos", "brand:wikidata": "Q106769573"}, "geometry": {"type": "Point", "coordinates": [-105.07764, 39.856948]}},
{"type": "Feature", "id": "y3W97Siyhfd7Cy5hqvpkVcITR4E=", "properties": {"ref": "Hampden", "@spider": "torchys_tacos", "addr:full": "6325 E Hampden Avenue", "addr:city": "Denver", "addr:state": "CO", "addr:postcode": "80222", "phone": "720-866-7606", "website": "https://torchystacos.com/location/hampden/", "opening_hours": "Mo-Su 10:00-22:00", "brand": "Torchy's Tacos", "brand:wikidata": "Q106769573"}, "geometry": {"type": "Point", "coordinates": [-104.91711, 39.654242]}},
{"type": "Feature", "id": "44nJdCS6oj5obi6aw3WihgnWZgI=", "properties": {"ref": "Lowry", "@spider": "torchys_tacos", "addr:full": "63 North Quebec Street", "addr:city": "Denver", "addr:state": "CO", "addr:postcode": "80230", "phone": "720-797-9997", "website": "https://torchystacos.com/location/lowry/", "opening_hours": "Mo-Su 10:00-22:00", "brand": "Torchy's Tacos", "brand:wikidata": "Q106769573"}, "geometry": {"type": "Point", "coordinates": [-104.9044441, 39.7176543]}},
{"type": "Feature", "id": "Ic7WiwTlo0nFuvqYUla-dBfBuZU=", "properties": {"ref": "Colorado Springs", "@spider": "torchys_tacos", "addr:full": "1358 Interquest Parkway", "addr:city": "Colorado Springs", "addr:state": "CO", "addr:postcode": "80921", "phone": "(719) 235-5000", "website": "https://torchystacos.com/location/colorado-springs/", "opening_hours": "Mo-Su 10:00-22:00", "brand": "Torchy's Tacos", "brand:wikidata": "Q106769573"}, "geometry": {"type": "Point", "coordinates": [-104.8040846, 38.9909841]}},
{"type": "Feature", "id": "PoiLREG0sg3-QCNMDKh6N3qXbhA=", "properties": {"ref": "Boulder", "@spider": "torchys_tacos", "addr:full": "2805 Pearl Street", "addr:city": "Boulder", "addr:state": "CO", "addr:postcode": "80301", "phone": "720-617-4462", "website": "https://torchystacos.com/location/boulder/", "opening_hours": "Mo-Th 10:00-21:00; Fr-Sa 10:00-22:00; Su 10:00-21:00", "brand": "Torchy's Tacos", "brand:wikidata": "Q106769573"}, "geometry": {"type": "Point", "coordinates": [-105.25789, 40.022847]}},
{"type": "Feature", "id": "sh0yDHCExDsNz-DZkm7NqTKQd5g=", "properties": {"ref": "Rogers", "@spider": "torchys_tacos", "addr:full": "4950 West Pauline Whitaker Parkway", "addr:city": "Rogers", "addr:state": "AR", "addr:postcode": "72758", "phone": "(479) 326-8507", "website": "https://torchystacos.com/location/rogers/", "opening_hours": "Mo-Th 10:00-21:00; Fr 10:00-22:00; Sa 09:00-22:00; Su 09:00-21:00", "brand": "Torchy's Tacos", "brand:wikidata": "Q106769573"}, "geometry": {"type": "Point", "coordinates": [-94.185439, 36.297286]}},
{"type": "Feature", "id": "lr_WbM0Y9wkUpjgTIETATZ26jLU=", "properties": {"ref": "Fayetteville", "@spider": "torchys_tacos", "addr:full": "1541 M.L.K. Jr Blvd", "addr:city": "Fayetteville", "addr:state": "AR", "addr:postcode": "72701", "phone": "479-502-9143", "website": "https://torchystacos.com/location/fayetteville/", "opening_hours": "Mo-Th 11:00-21:00; Fr-Sa 11:00-22:00; Su 11:00-21:00", "brand": "Torchy's Tacos", "brand:wikidata": "Q106769573"}, "geometry": {"type": "Point", "coordinates": [-94.1836725, 36.0562844]}},
{"type": "Feature", "id": "lA6qvuN7rIVmk_2LEg42tRIXbBI=", "properties": {"ref": "Queen Creek - COMING SOON", "@spider": "torchys_tacos", "addr:full": "21386 South Ellsworth Loop Road, Queen Creek, AZ 85142", "addr:city": "Queen Creek", "addr:state": "AZ", "addr:postcode": "85142", "website": "https://torchystacos.com/location/queen-creek/", "brand": "Torchy's Tacos", "brand:wikidata": "Q106769573"}, "geometry": {"type": "Point", "coordinates": [-111.639574085824, 33.25432236442173]}},
{"type": "Feature", "id": "k4f0sHjQRFjvioAXXIyoPIpiW5o=", "properties": {"ref": "Camelback", "@spider": "torchys_tacos", "addr:full": "1935 East Camelback Rd, # C-130", "addr:city": "Phoenix", "addr:state": "AZ", "addr:postcode": "85016", "phone": "(602) 855-9992", "website": "https://torchystacos.com/location/camelback/", "opening_hours": "Mo-Th 10:00-21:00; Fr-Su 10:00-22:00", "brand": "Torchy's Tacos", "brand:wikidata": "Q106769573"}, "geometry": {"type": "Point", "coordinates": [-112.0436312, 33.5089481]}}]}