{"type":"FeatureCollection","features":[{"type": "Feature", "id": "HcmmdI-peabYyx0HYI_uy8RSdxE=", "properties": {"ref": "1", "@spider": "ucla_health", "addr:full": "100 UCLA Medical Plaza", "addr:city": "Los Angeles", "addr:state": "CA", "addr:postcode": 90095, "addr:country": "US", "name": "100 UCLA Medical Plaza", "phone": "(310) 267-6810", "website": "https://www.uclahealth.org/locations/100-medical-plaza", "brand": "UCLA Health", "brand:wikidata": "Q18394900"}, "geometry": {"type": "Point", "coordinates": [-118.446005, 34.065597]}},
{"type": "Feature", "id": "_fyFq0ASSWjE3Pn_9UjtIPFLAlo=", "properties": {"ref": "2", "@spider": "ucla_health", "addr:full": "1131 Wilshire Blvd.", "addr:city": "Santa Monica", "addr:state": "CA", "addr:postcode": 90404, "addr:country": "US", "name": "12th Street Family Medicine", "phone": "(310) 395-5588", "website": "https://www.uclahealth.org/locations/12th-street-family-medicine", "brand": "UCLA Health", "brand:wikidata": "Q18394900"}, "geometry": {"type": "Point", "coordinates": [-118.49122, 34.025252]}},
{"type": "Feature", "id": "eutzEGbVviCV3U45XROFzyrcA9s=", "properties": {"ref": "3", "@spider": "ucla_health", "addr:full": "1260 15th St.", "addr:city": "Santa Monica", "addr:state": "CA", "addr:postcode": 90404, "addr:country": "US", "name": "15th Street Plaza Family Medicine & Internal Medicine", "phone": "(310) 656-1701; (310) 656-1702", "website": "https://www.uclahealth.org/locations/15th-street-plaza-family-medicine-internal-medicine", "brand": "UCLA Health", "brand:wikidata": "Q18394900"}, "geometry": {"type": "Point", "coordinates": [-118.487018, 34.026295]}},
{"type": "Feature", "id": "LOSCiKFFRpV7av-g2f_iKrmfMFs=", "properties": {"ref": "6", "@spider": "ucla_health", "addr:full": "200 UCLA Medical Plaza", "addr:city": "Los Angeles", "addr:state": "CA", "addr:postcode": 90095, "addr:country": "US", "name": "200 UCLA Medical Plaza", "phone": "(310) 267-6810", "website": "https://www.uclahealth.org/locations/200-medical-plaza", "brand": "UCLA Health", "brand:wikidata": "Q18394900"}, "geometry": {"type": "Point", "coordinates": [-118.446418, 34.065279]}},
{"type": "Feature", "id": "WdqNHUKWpm_i3c2YgYzns-hoBLI=", "properties": {"ref": "7", "@spider": "ucla_health", "addr:full": "300 UCLA Medical Plaza", "addr:city": "Los Angeles", "addr:state": "CA", "addr:postcode": 90095, "addr:country": "US", "name": "300 UCLA Medical Plaza", "phone": "(310) 267-6810", "website": "https://www.uclahealth.org/locations/300-medical-plaza", "brand": "UCLA Health", "brand:wikidata": "Q18394900"}, "geometry": {"type": "Point", "coordinates": [-118.446054, 34.064569]}},
{"type": "Feature", "id": "avazEq4Wfie1v_ecYgGJWeu1oX4=", "properties": {"ref": "215", "@spider": "ucla_health", "addr:full": "100 UCLA Medical Plaza", "addr:city": "Los Angeles", "addr:state": "CA", "addr:postcode": 90095, "addr:country": "US", "name": "Ahmanson/UCLA Adult Congenital Heart Disease Center", "phone": "(310) 825-9011", "website": "https://www.uclahealth.org/locations/achd-center", "brand": "UCLA Health", "brand:wikidata": "Q18394900"}, "geometry": {"type": "Point", "coordinates": [-118.446044, 34.064437]}},
{"type": "Feature", "id": "TgwnBi1QAh6yia0MQu8ZCQqjOv4=", "properties": {"ref": "8", "@spider": "ucla_health", "addr:full": "1411 S. Garfield Ave.", "addr:city": "Alhambra", "addr:state": "CA", "addr:postcode": 91801, "addr:country": "US", "name": "Alhambra Cancer Care", "phone": "(626) 588-2825", "website": "https://www.uclahealth.org/locations/alhambra-cancer-care", "brand": "UCLA Health", "brand:wikidata": "Q18394900"}, "geometry": {"type": "Point", "coordinates": [-118.12339, 34.07786]}},
{"type": "Feature", "id": "8oY1vGqShe3XJDTTeWJJX3Fs_9E=", "properties": {"ref": "9", "@spider": "ucla_health", "addr:full": "200 UCLA Medical Plaza", "addr:city": "Los Angeles", "addr:state": "CA", "addr:postcode": 90095, "addr:country": "US", "name": "Audiology & Speech Pathology", "phone": "(310) 825-5721", "website": "https://www.uclahealth.org/locations/audiology-speech-pathology", "brand": "UCLA Health", "brand:wikidata": "Q18394900"}, "geometry": {"type": "Point", "coordinates": [-118.446418, 34.065279]}},
{"type": "Feature", "id": "ZhieU5J8dhjQHADTeBKi-4DwRu4=", "properties": {"ref": "10", "@spider": "ucla_health", "addr:full": "1260 15th St.", "addr:city": "Santa Monica", "addr:state": "CA", "addr:postcode": 90404, "addr:country": "US", "name": "Barbara Kort Women's Imaging Center", "phone": "(310) 393-5153", "website": "https://www.uclahealth.org/locations/barbara-kort-womens-imaging-center", "brand": "UCLA Health", "brand:wikidata": "Q18394900"}, "geometry": {"type": "Point", "coordinates": [-118.487018, 34.026495]}},
{"type": "Feature", "id": "RbbV_GcKejt5jHYWRuOoh6hrP7A=", "properties": {"ref": "11", "@spider": "ucla_health", "addr:full": "1919 Santa Monica Blvd.", "addr:city": "Santa Monica", "addr:state": "CA", "addr:postcode": 90404, "addr:country": "US", "name": "Beach Imaging & Interventional Center", "phone": "(424) 259-7160", "website": "https://www.uclahealth.org/locations/beach-imaging-interventional-center", "brand": "UCLA Health", "brand:wikidata": "Q18394900"}, "geometry": {"type": "Point", "coordinates": [-118.48053, 34.028547]}},
{"type": "Feature", "id": "UgLakfA68wTwQe8Fzs-D6wqyOBY=", "properties": {"ref": "12", "@spider": "ucla_health", "addr:full": "120 S. Spalding Dr.", "addr:city": "Beverly Hills", "addr:state": "CA", "addr:postcode": 90212, "addr:country": "US", "name": "Beverly Hills Cancer Care", "phone": "(310) 205-0771", "website": "https://www.uclahealth.org/locations/beverly-hills-cancer-care", "brand": "UCLA Health", "brand:wikidata": "Q18394900"}, "geometry": {"type": "Point", "coordinates": [-118.4086, 34.06625]}},
{"type": "Feature", "id": "eQPH22zYTVZTylNfJORI8aZnybM=", "properties": {"ref": "13", "@spider": "ucla_health", "addr:full": "9675 Brighton Way", "addr:city": "Beverly Hills", "addr:state": "CA", "addr:postcode": 90210, "addr:country": "US", "name": "Beverly Hills Primary & Specialty Care", "phone": "(310) 205-7310", "website": "https://www.uclahealth.org/locations/beverly-hills-primary-specialty-care", "brand": "UCLA Health", "brand:wikidata": "Q18394900"}, "geometry": {"type": "Point", "coordinates": [-118.405555, 34.067532]}},
{"type": "Feature", "id": "YcXyjQlwjr3ccV6JoVojtgk51AU=", "properties": {"ref": "14", "@spider": "ucla_health", "addr:full": "8641 Wilshire Blvd.", "addr:city": "Beverly Hills", "addr:state": "CA", "addr:postcode": 90211, "addr:country": "US", "name": "Beverly Hills Specialty Care", "phone": "(310) 855-7002", "website": "https://www.uclahealth.org/locations/beverly-hills-wilshire-primary-specialty-care", "brand": "UCLA Health", "brand:wikidata": "Q18394900"}, "geometry": {"type": "Point", "coordinates": [-118.379807, 34.066424]}},
{"type": "Feature", "id": "NJ96q2nFDaF2BqaSuIEaalvv6Xw=", "properties": {"ref": "194", "@spider": "ucla_health", "addr:full": "1250 16th St", "addr:city": "Santa Monica", "addr:state": "CA", "addr:postcode": 90404, "addr:country": "US", "name": "BirthPlace Santa Monica", "phone": "(424) 259-8250", "website": "https://www.uclahealth.org/locations/birthplace-santa-monica", "brand": "UCLA Health", "brand:wikidata": "Q18394900"}, "geometry": {"type": "Point", "coordinates": [-118.48699, 34.0263]}},
{"type": "Feature", "id": "Efuevul7Rtf751ao3oNBbCOLqig=", "properties": {"ref": "193", "@spider": "ucla_health", "addr:full": "757 Westwood Plaza", "addr:city": "Los Angeles", "addr:state": "CA", "addr:postcode": 90095, "addr:country": "US", "name": "BirthPlace Westwood", "phone": "(310) 825-9111", "website": "https://www.uclahealth.org/locations/birthplace-westwood", "brand": "UCLA Health", "brand:wikidata": "Q18394900"}, "geometry": {"type": "Point", "coordinates": [-118.44564, 34.06388]}},
{"type": "Feature", "id": "KD9qlL4OpsM8CuGdMgVGCQI13Jk=", "properties": {"ref": "15", "@spider": "ucla_health", "addr:full": "200 UCLA Medical Plaza", "addr:city": "Los Angeles", "addr:state": "CA", "addr:postcode": 90095, "addr:country": "US", "name": "Bowyer Oncology Center", "phone": "(310) 206-6909", "website": "https://www.uclahealth.org/locations/bowyer-oncology-center", "brand": "UCLA Health", "brand:wikidata": "Q18394900"}, "geometry": {"type": "Point", "coordinates": [-118.445779, 34.065615]}},
{"type": "Feature", "id": "18_rs4BTEsmAV_X3tR0msnI4FM0=", "properties": {"ref": "16", "@spider": "ucla_health", "addr:full": "11980 San Vicente Blvd.", "addr:city": "Los Angeles", "addr:state": "CA", "addr:postcode": 90049, "addr:country": "US", "name": "Brentwood Internal Medicine & Pediatrics", "phone": "(310) 208-7777", "website": "https://www.uclahealth.org/locations/brentwood-internal-medicine-pediatrics", "brand": "UCLA Health", "brand:wikidata": "Q18394900"}, "geometry": {"type": "Point", "coordinates": [-118.472118, 34.051937]}},
{"type": "Feature", "id": "ygyJlkdNHgTa_5XkcdIsR5p1hlU=", "properties": {"ref": "17", "@spider": "ucla_health", "addr:full": "191 S. Buena Vista St.", "addr:city": "Burbank", "addr:state": "CA", "addr:postcode": 91505, "addr:country": "US", "name": "Burbank Breast Care", "phone": "(818) 333-2555", "website": "https://www.uclahealth.org/locations/burbank-breast-care", "brand": "UCLA Health", "brand:wikidata": "Q18394900"}, "geometry": {"type": "Point", "coordinates": [-118.329057, 34.159946]}},
{"type": "Feature", "id": "b-u8uJipFxEtmurKbRim3vhk6Ws=", "properties": {"ref": "18", "@spider": "ucla_health", "addr:full": "201 S. Buena Vista St.", "addr:city": "Burbank", "addr:state": "CA", "addr:postcode": 91505, "addr:country": "US", "name": "Burbank Cancer Care", "phone": "(818) 842-8252", "website": "https://www.uclahealth.org/locations/burbank-cancer-care", "brand": "UCLA Health", "brand:wikidata": "Q18394900"}, "geometry": {"type": "Point", "coordinates": [-118.32931, 34.1599]}},
{"type": "Feature", "id": "gmoPDursyDbz1Ya--aGEYSNQZGk=", "properties": {"ref": "19", "@spider": "ucla_health", "addr:full": "2625 W. Alameda Ave.", "addr:city": "Burbank", "addr:state": "CA", "addr:postcode": 91505, "addr:country": "US", "name": "Burbank Clinical Lab", "phone": "(310) 267-2680", "website": "https://www.uclahealth.org/locations/burbank-clinical-lab", "brand": "UCLA Health", "brand:wikidata": "Q18394900"}, "geometry": {"type": "Point", "coordinates": [-118.32949, 34.157837]}},
{"type": "Feature", "id": "vM4_2j8J4fm4SKGPuewOvjatA5s=", "properties": {"ref": "20", "@spider": "ucla_health", "addr:full": "2625 W. Alameda Ave.", "addr:city": "Burbank", "addr:state": "CA", "addr:postcode": 91505, "addr:country": "US", "name": "Burbank Dermatology", "phone": "(818) 260-8733", "website": "https://www.uclahealth.org/locations/burbank-dermatology", "brand": "UCLA Health", "brand:wikidata": "Q18394900"}, "geometry": {"type": "Point", "coordinates": [-118.32991, 34.15801]}},
{"type": "Feature", "id": "oMFQAHsnGKVt3u-jp5TtHi76W8I=", "properties": {"ref": "21", "@spider": "ucla_health", "addr:full": "2625 W. Alameda Ave.", "addr:city": "Burbank", "addr:state": "CA", "addr:postcode": 91505, "addr:country": "US", "name": "Burbank Endocrinology/Pulmonary Medicine/Sleep Medicine", "phone": "(818) 260-8706", "website": "https://www.uclahealth.org/locations/burbank-specialty-care", "brand": "UCLA Health", "brand:wikidata": "Q18394900"}, "geometry": {"type": "Point", "coordinates": [-118.32991, 34.15801]}},
{"type": "Feature", "id": "BnYa8DCIiMl1HF-jonhm3feIfjU=", "properties": {"ref": "543", "@spider": "ucla_health", "addr:full": "2601 W. Alameda Ave.", "addr:city": "Burbank", "addr:state": "CA", "addr:postcode": 91505, "addr:country": "US", "name": "Burbank OBGYN", "phone": "(818) 238-0120", "website": "https://www.uclahealth.org/locations/burbank-obgyn", "brand": "UCLA Health", "brand:wikidata": "Q18394900"}, "geometry": {"type": "Point", "coordinates": [-118.329697, 34.15834]}},
{"type": "Feature", "id": "0sF5lGjLjeqS6Rvf-MTKa4O57PA=", "properties": {"ref": "562", "@spider": "ucla_health", "addr:full": "2625 W. Alameda Ave.", "addr:city": "Burbank", "addr:state": "CA", "addr:postcode": 91505, "addr:country": "US", "name": "Burbank Pediatrics", "phone": "(818) 846-8252", "website": "https://www.uclahealth.org/locations/burbank-pediatrics", "brand": "UCLA Health", "brand:wikidata": "Q18394900"}, "geometry": {"type": "Point", "coordinates": [-118.32991, 34.15801]}},
{"type": "Feature", "id": "CNqvVTrNqnj5TKE7xBx7pcgFs7E=", "properties": {"ref": "23", "@spider": "ucla_health", "addr:full": "2625 W. Alameda Ave.", "addr:city": "Burbank", "addr:state": "CA", "addr:postcode": 91505, "addr:country": "US", "name": "Burbank Primary & Specialty Care", "phone": "(818) 843-9020", "website": "https://www.uclahealth.org/locations/burbank-specialty-care-0", "brand": "UCLA Health", "brand:wikidata": "Q18394900"}, "geometry": {"type": "Point", "coordinates": [-118.329922, 34.157949]}},
{"type": "Feature", "id": "22lzS9myzA6kiWksei_xog0885s=", "properties": {"ref": "22", "@spider": "ucla_health", "addr:full": "2601 W. Alameda Ave.", "addr:city": "Burbank", "addr:state": "CA", "addr:postcode": 91505, "addr:country": "US", "name": "Burbank Primary & Specialty Care, 2601 W. Alameda Ave.", "phone": "(818) 843-9020", "website": "https://www.uclahealth.org/locations/burbank-primary-specialty-care", "brand": "UCLA Health", "brand:wikidata": "Q18394900"}, "geometry": {"type": "Point", "coordinates": [-118.3297, 34.15834]}},
{"type": "Feature", "id": "xNfLi9ZOXP8EX-IwXhTbQ0zr8-E=", "properties": {"ref": "24", "@spider": "ucla_health", "addr:full": "2625 W. Alameda Ave.", "addr:city": "Burbank", "addr:state": "CA", "addr:postcode": 91505, "addr:country": "US", "name": "Burbank Rheumatology", "phone": "(818) 260-8706", "website": "https://www.uclahealth.org/locations/burbank-rheumatology", "brand": "UCLA Health", "brand:wikidata": "Q18394900"}, "geometry": {"type": "Point", "coordinates": [-118.32991, 34.15801]}},
{"type": "Feature", "id": "RkxYkg2ivAt8TMeSiHFNG6EPtGI=", "properties": {"ref": "25", "@spider": "ucla_health", "addr:full": "2625 W. Alameda Ave.", "addr:city": "Burbank", "addr:state": "CA", "addr:postcode": 91505, "addr:country": "US", "name": "Burbank Urology", "phone": "(310) 794-7700", "website": "https://www.uclahealth.org/locations/burbank-urology", "brand": "UCLA Health", "brand:wikidata": "Q18394900"}, "geometry": {"type": "Point", "coordinates": [-118.329922, 34.157949]}},
{"type": "Feature", "id": "mW_vwWN6EfXkq-WPc4M6phT0DQs=", "properties": {"ref": "26", "@spider": "ucla_health", "addr:full": "26585 W. Agoura Rd.", "addr:city": "Calabasas", "addr:state": "CA", "addr:postcode": 91302, "addr:country": "US", "name": "Calabasas Clinical Lab", "phone": "(310) 267-2680", "website": "https://www.uclahealth.org/locations/calabasas-clinical-lab", "brand": "UCLA Health", "brand:wikidata": "Q18394900"}, "geometry": {"type": "Point", "coordinates": [-118.702481, 34.142779]}},
{"type": "Feature", "id": "ggaPcqNHz1UQIAFT4GAQLtvF28I=", "properties": {"ref": "27", "@spider": "ucla_health", "addr:full": "26585 W. Agoura Rd.", "addr:city": "Calabasas", "addr:state": "CA", "addr:postcode": 91302, "addr:country": "US", "name": "Calabasas Primary & Specialty Care", "phone": "(310) 825-2631", "website": "https://www.uclahealth.org/locations/calabasas-primary-specialty-care", "brand": "UCLA Health", "brand:wikidata": "Q18394900"}, "geometry": {"type": "Point", "coordinates": [-118.702481, 34.142779]}},
{"type": "Feature", "id": "M__T8a4xw-tSwCfL9bK1JP9d_L4=", "properties": {"ref": "28", "@spider": "ucla_health", "addr:full": "200 UCLA Medical Plaza", "addr:city": "Los Angeles", "addr:state": "CA", "addr:postcode": 90095, "addr:country": "US", "name": "Cardiopulmonary Rehab Services", "phone": "(310) 825-0014", "website": "https://www.uclahealth.org/locations/cardiopulmonary-rehab-services", "brand": "UCLA Health", "brand:wikidata": "Q18394900"}, "geometry": {"type": "Point", "coordinates": [-118.446418, 34.065279]}},
{"type": "Feature", "id": "vgYRC7wttZRbA3UHcGyO-Q-XfAI=", "properties": {"ref": "29", "@spider": "ucla_health", "addr:full": "100 UCLA Medical Plaza", "addr:city": "Los Angeles", "addr:state": "CA", "addr:postcode": 90095, "addr:country": "US", "name": "Cardiovascular Center", "phone": "(310) 825-8816", "website": "https://www.uclahealth.org/locations/cardiovascular-center", "brand": "UCLA Health", "brand:wikidata": "Q18394900"}, "geometry": {"type": "Point", "coordinates": [-118.446005, 34.065597]}},
{"type": "Feature", "id": "vf7bVfWea1vluSAtgSB8zstN3sM=", "properties": {"ref": "30", "@spider": "ucla_health", "addr:full": "1399 S. Roxbury Dr.", "addr:city": "Los Angeles", "addr:state": "CA", "addr:postcode": 90035, "addr:country": "US", "name": "CARE Center", "phone": "(310) 557-2273", "website": "https://www.uclahealth.org/locations/care-center", "brand": "UCLA Health", "brand:wikidata": "Q18394900"}, "geometry": {"type": "Point", "coordinates": [-118.402853, 34.054034]}},
{"type": "Feature", "id": "csgLiluQ-GkOZyiEdqd8BazCmpU=", "properties": {"ref": "31", "@spider": "ucla_health", "addr:full": "2336 Santa Monica Blvd.", "addr:city": "Santa Monica", "addr:state": "CA", "addr:postcode": 90404, "addr:country": "US", "name": "Center for East-West Medicine", "phone": "(310) 998-9118", "website": "https://www.uclahealth.org/locations/center-east-west-medicine", "brand": "UCLA Health", "brand:wikidata": "Q18394900"}, "geometry": {"type": "Point", "coordinates": [-118.47649, 34.0312]}},
{"type": "Feature", "id": "A680I77mLyy2O57LNFOWu0Wdgu0=", "properties": {"ref": "214", "@spider": "ucla_health", "addr:full": "200 UCLA Medical Plaza", "addr:city": "Los Angeles", "addr:state": "CA", "addr:postcode": 90095, "addr:country": "US", "name": "Center for Esophageal Disorders", "phone": "(310) 825-6167", "website": "https://www.uclahealth.org/esophageal-center/", "brand": "UCLA Health", "brand:wikidata": "Q18394900"}, "geometry": {"type": "Point", "coordinates": [-118.446457, 34.065214]}},
{"type": "Feature", "id": "abUY6rjksN3Z3Ohyk7SPPE0A-Qs=", "properties": {"ref": "212", "@spider": "ucla_health", "addr:full": "200 UCLA Medical Plaza", "addr:city": "Los Angeles", "addr:state": "CA", "addr:postcode": 90095, "addr:country": "US", "name": "Center for Obesity and METabolic Health (COMET)", "phone": "(310) 825-7163", "website": "https://www.uclahealth.org/locations/center-obesity-and-metabolic-health-comet", "brand": "UCLA Health", "brand:wikidata": "Q18394900"}, "geometry": {"type": "Point", "coordinates": [-118.446457, 34.065214]}},
{"type": "Feature", "id": "7TdajOoG3J992zTy7rb8yagEfP0=", "properties": {"ref": "32", "@spider": "ucla_health", "addr:full": "200 UCLA Medical Plaza", "addr:city": "Los Angeles", "addr:state": "CA", "addr:postcode": 90095, "addr:country": "US", "name": "Center for Women's Pelvic Health at UCLA", "phone": "(833) 825-2974", "website": "https://www.uclahealth.org/locations/center-womens-pelvic-health-ucla", "brand": "UCLA Health", "brand:wikidata": "Q18394900"}, "geometry": {"type": "Point", "coordinates": [-118.446418, 34.065279]}},
{"type": "Feature", "id": "H6SQ1SDgeN2wzAtG_HunKVga3ac=", "properties": {"ref": "33", "@spider": "ucla_health", "addr:full": "10250 Santa Monica Blvd.", "addr:city": "Los Angeles", "addr:state": "CA", "addr:postcode": 90067, "addr:country": "US", "name": "Century City Family Medicine, Internal Medicine & Pediatrics", "phone": "(310) 286-0122", "website": "https://www.uclahealth.org/locations/century-city", "brand": "UCLA Health", "brand:wikidata": "Q18394900"}, "geometry": {"type": "Point", "coordinates": [-118.419435, 34.059605]}},
{"type": "Feature", "id": "puG7VlxdaQPEL91O5rvDQs4UIi0=", "properties": {"ref": "34", "@spider": "ucla_health", "addr:full": "200 UCLA Medical Plaza", "addr:city": "Los Angeles", "addr:state": "CA", "addr:postcode": 90095, "addr:country": "US", "name": "Children's Health Center", "phone": "(310) 825-0867", "website": "https://www.uclahealth.org/locations/westwood-pediatrics", "brand": "UCLA Health", "brand:wikidata": "Q18394900"}, "geometry": {"type": "Point", "coordinates": [-118.446418, 34.065279]}},
{"type": "Feature", "id": "ByegN6siBVtBHW2IR4ighSlpNww=", "properties": {"ref": "35", "@spider": "ucla_health", "addr:full": "200 UCLA Medical Plaza", "addr:city": "Los Angeles", "addr:state": "CA", "addr:postcode": 90095, "addr:country": "US", "name": "Children's Heart Center", "phone": "(310) 267-7667", "website": "https://www.uclahealth.org/locations/childrens-heart-center", "brand": "UCLA Health", "brand:wikidata": "Q18394900"}, "geometry": {"type": "Point", "coordinates": [-118.446418, 34.065279]}},
{"type": "Feature", "id": "zlqNrjFbnoTxl0oGJSagg-lRtC0=", "properties": {"ref": "36", "@spider": "ucla_health", "addr:full": "300 Stein Plaza", "addr:city": "Los Angeles", "addr:state": "CA", "addr:postcode": 90095, "addr:country": "US", "name": "CHS Pharmacy", "phone": "(310) 267-3027", "website": "https://www.uclahealth.org/locations/chs-pharmacy", "brand": "UCLA Health", "brand:wikidata": "Q18394900"}, "geometry": {"type": "Point", "coordinates": [-118.444652, 34.065265]}},
{"type": "Feature", "id": "UPTCv5u5LmIO81sAubRtjwSTuhQ=", "properties": {"ref": "37", "@spider": "ucla_health", "addr:full": "1010 W. LaVeta Ave.", "addr:city": "Orange", "addr:state": "CA", "addr:postcode": 92868, "addr:country": "US", "name": "City of Orange Breast Surgery", "phone": "(714) 565-0166", "website": "https://www.uclahealth.org/locations/city-orange-breast-surgery", "brand": "UCLA Health", "brand:wikidata": "Q18394900"}, "geometry": {"type": "Point", "coordinates": [-117.903652, 33.792043]}},
{"type": "Feature", "id": "dV3UukY4rYDryQo7EVaSgG-7MOo=", "properties": {"ref": "38", "@spider": "ucla_health", "addr:full": "200 UCLA Medical Plaza", "addr:city": "Los Angeles", "addr:state": "CA", "addr:postcode": 90095, "addr:country": "US", "name": "Clinical Nutrition Clinic", "phone": "(310) 825-7921", "website": "https://www.uclahealth.org/locations/clinical-nutrition-clinic", "brand": "UCLA Health", "brand:wikidata": "Q18394900"}, "geometry": {"type": "Point", "coordinates": [-118.446418, 34.065279]}},
{"type": "Feature", "id": "c66D7LCqrW_c63HAIcFowpOhT5c=", "properties": {"ref": "216", "@spider": "ucla_health", "addr:full": "200 UCLA Medical Plaza", "addr:city": "Los Angeles", "addr:state": "CA", "addr:postcode": 90095, "addr:country": "US", "name": "Colorectal Surgery", "phone": "(310) 794-7788", "website": "https://www.uclahealth.org/locations/colorectal-surgery", "brand": "UCLA Health", "brand:wikidata": "Q18394900"}, "geometry": {"type": "Point", "coordinates": [-118.446457, 34.065214]}},
{"type": "Feature", "id": "EmJoOSAIaWUZSGuu61jQ1aMjC1U=", "properties": {"ref": "39", "@spider": "ucla_health", "addr:full": "100 UCLA Medical Plaza", "addr:city": "Los Angeles", "addr:state": "CA", "addr:postcode": 90095, "addr:country": "US", "name": "Comprehensive Health Program", "phone": "(310) 794-4881", "website": "https://www.uclahealth.org/locations/comprehensive-health-program", "brand": "UCLA Health", "brand:wikidata": "Q18394900"}, "geometry": {"type": "Point", "coordinates": [-118.446005, 34.065597]}},
{"type": "Feature", "id": "gaYVKBnWeCoSuZsdMJzRc8cRZxk=", "properties": {"ref": "40", "@spider": "ucla_health", "addr:full": "200 UCLA Medical Plaza", "addr:city": "Los Angeles", "addr:state": "CA", "addr:postcode": 90095, "addr:country": "US", "name": "Connie Frank Kidney Transplant Center", "phone": "(310) 825-6836", "website": "https://www.uclahealth.org/locations/connie-frank-kidney-transplant-center", "brand": "UCLA Health", "brand:wikidata": "Q18394900"}, "geometry": {"type": "Point", "coordinates": [-118.446418, 34.065279]}},
{"type": "Feature", "id": "fUDoHIzYu57NcKolVnNb_jQN7c0=", "properties": {"ref": "41", "@spider": "ucla_health", "addr:full": "100 UCLA Medical Plaza", "addr:city": "Los Angeles", "addr:state": "CA", "addr:postcode": 90095, "addr:country": "US", "name": "Cosmetic Dermatology", "phone": "(310) 825-6911", "website": "https://www.uclahealth.org/locations/cosmetic-dermatology", "brand": "UCLA Health", "brand:wikidata": "Q18394900"}, "geometry": {"type": "Point", "coordinates": [-118.446005, 34.065597]}},
{"type": "Feature", "id": "jUmcS0k_V0o6g6g7qBRmlzyZrj0=", "properties": {"ref": "42", "@spider": "ucla_health", "addr:full": "6000 Sepulveda Blvd.", "addr:city": "Culver City", "addr:state": "CA", "addr:postcode": 90230, "addr:country": "US", "name": "Culver City Family Medicine, Internal Medicine & Pediatrics", "phone": "(310) 313-0020", "website": "https://www.uclahealth.org/locations/culver-city", "brand": "UCLA Health", "brand:wikidata": "Q18394900"}, "geometry": {"type": "Point", "coordinates": [-118.392235, 33.986225]}},
{"type": "Feature", "id": "UweUWbYzj-8gNpkmxeePlUnfFac=", "properties": {"ref": "43", "@spider": "ucla_health", "addr:full": "200 UCLA Medical Plaza", "addr:city": "Los Angeles", "addr:state": "CA", "addr:postcode": 90095, "addr:country": "US", "name": "Dermatologic Surgery", "phone": "(310) 825-6911", "website": "https://www.uclahealth.org/locations/dermatologic-surgery", "brand": "UCLA Health", "brand:wikidata": "Q18394900"}, "geometry": {"type": "Point", "coordinates": [-118.446418, 34.065279]}},
{"type": "Feature", "id": "kgLem1MTT95ulCPxl5OqioKrKOc=", "properties": {"ref": "44", "@spider": "ucla_health", "addr:full": "200 UCLA Medical Plaza", "addr:city": "Los Angeles", "addr:state": "CA", "addr:postcode": 90095, "addr:country": "US", "name": "Dermatology", "phone": "(310) 825-6751", "website": "https://www.uclahealth.org/locations/ucla-dermatology", "brand": "UCLA Health", "brand:wikidata": "Q18394900"}, "geometry": {"type": "Point", "coordinates": [-118.446418, 34.065279]}},
{"type": "Feature", "id": "_OMnoUjyqarmhgdryROyqwm083Q=", "properties": {"ref": "45", "@spider": "ucla_health", "addr:full": "100 UCLA Medical Plaza", "addr:city": "Los Angeles", "addr:state": "CA", "addr:postcode": 90095, "addr:country": "US", "name": "Digestive Health & Nutrition Clinic", "phone": "(310) 206-6279", "website": "https://www.uclahealth.org/locations/digestive-health-nutrition-clinic", "brand": "UCLA Health", "brand:wikidata": "Q18394900"}, "geometry": {"type": "Point", "coordinates": [-118.446005, 34.065597]}},
{"type": "Feature", "id": "mt-d_l_-CkUWQmeFc2iRJoz0QtY=", "properties": {"ref": "46", "@spider": "ucla_health", "addr:full": "622 W. Duarte Rd.", "addr:city": "Arcadia", "addr:state": "CA", "addr:postcode": 91007, "addr:country": "US", "name": "Doheny Eye Center UCLA Arcadia", "phone": "(626) 254-9010", "website": "https://www.uclahealth.org/locations/doheny-eye-center-ucla-arcadia", "brand": "UCLA Health", "brand:wikidata": "Q18394900"}, "geometry": {"type": "Point", "coordinates": [-118.051813, 34.124888]}},
{"type": "Feature", "id": "wmn3vwnmJ9b8sw0Fv8F4gTgXICE=", "properties": {"ref": "47", "@spider": "ucla_health", "addr:full": "18111 Brookhurst St.", "addr:city": "Fountain Valley", "addr:state": "CA", "addr:postcode": 92708, "addr:country": "US", "name": "Doheny Eye Center UCLA Orange County", "phone": "(714) 963-1444", "website": "https://www.uclahealth.org/locations/doheny-eye-center-ucla-orange-county", "brand": "UCLA Health", "brand:wikidata": "Q18394900"}, "geometry": {"type": "Point", "coordinates": [-117.955519, 33.70025]}},
{"type": "Feature", "id": "0WtfewFkzk8Z0HCjam_utxturDc=", "properties": {"ref": "48", "@spider": "ucla_health", "addr:full": "625 S. Fair Oaks Ave.", "addr:city": "Pasadena", "addr:state": "CA", "addr:postcode": 91105, "addr:country": "US", "name": "Doheny Eye Center UCLA Pasadena", "phone": "(626) 817-4747", "website": "https://www.uclahealth.org/locations/doheny-eye-center-ucla-pasadena", "brand": "UCLA Health", "brand:wikidata": "Q18394900"}, "geometry": {"type": "Point", "coordinates": [-118.150904, 34.134889]}},
{"type": "Feature", "id": "EG7mXnCPggG2AvfW_bYeZ-pR_kY=", "properties": {"ref": "220", "@spider": "ucla_health", "addr:full": "700 West 7th St.", "addr:city": "Los Angeles", "addr:state": "CA", "addr:postcode": 90017, "addr:country": "US", "name": "Downtown Los Angeles Cancer Care", "phone": "(213) 988-8340", "website": "https://www.uclahealth.org/locations/downtown-los-angeles-cancer-care", "brand": "UCLA Health", "brand:wikidata": "Q18394900"}, "geometry": {"type": "Point", "coordinates": [-118.257858, 34.04821]}},
{"type": "Feature", "id": "VMjRk8Xrs26B8QzKw4XZ6u2GYAY=", "properties": {"ref": "192", "@spider": "ucla_health", "addr:full": "700 W. 7th St.", "addr:city": "Los Angeles", "addr:state": "CA", "addr:postcode": 90017, "addr:country": "US", "name": "Downtown Los Angeles Primary & Specialty Care", "phone": "(213) 988-8380", "website": "https://www.uclahealth.org/locations/downtown-los-angeles-primary-specialty-care", "brand": "UCLA Health", "brand:wikidata": "Q18394900"}, "geometry": {"type": "Point", "coordinates": [-118.25786, 34.04821]}},
{"type": "Feature", "id": "dXhSctdbvyj-vEjI4C5e7_mCjjI=", "properties": {"ref": "583", "@spider": "ucla_health", "addr:full": "1338 S. Hope St.", "addr:city": "Los Angeles", "addr:state": "CA", "addr:postcode": 90015, "addr:country": "US", "name": "Downtown Los Angeles Radiation Oncology", "phone": "(213) 744-1460", "website": "https://www.uclahealth.org/locations/downtown-los-angeles-radiation-oncology", "brand": "UCLA Health", "brand:wikidata": "Q18394900"}, "geometry": {"type": "Point", "coordinates": [-118.26623, 34.03848]}},
{"type": "Feature", "id": "MZTtCm6oVuA01m2oUlDyJ_Ygp8Q=", "properties": {"ref": "50", "@spider": "ucla_health", "addr:full": "15503 Ventura Blvd.", "addr:city": "Encino", "addr:state": "CA", "addr:postcode": 91436, "addr:country": "US", "name": "Encino Cancer Care", "phone": "(818) 995-8044", "website": "https://www.uclahealth.org/locations/encino-cancer-care", "brand": "UCLA Health", "brand:wikidata": "Q18394900"}, "geometry": {"type": "Point", "coordinates": [-118.47215, 34.1552]}},
{"type": "Feature", "id": "ImAJoC6NS3XqiZAoiXfMT4HZKQE=", "properties": {"ref": "544", "@spider": "ucla_health", "addr:full": "15503 Ventura Blvd.", "addr:city": "Encino", "addr:state": "CA", "addr:postcode": 91436, "addr:country": "US", "name": "Encino Clinical Lab", "phone": "(310) 267-2680", "website": "https://www.uclahealth.org/locations/encino-clinical-lab", "brand": "UCLA Health", "brand:wikidata": "Q18394900"}, "geometry": {"type": "Point", "coordinates": [-118.47215, 34.1552]}},
{"type": "Feature", "id": "YkBkfnP7TJjFc2N1GM9mbDtGyHY=", "properties": {"ref": "52", "@spider": "ucla_health", "addr:full": "15503 Ventura Blvd.", "addr:city": "Encino", "addr:state": "CA", "addr:postcode": 91436, "addr:country": "US", "name": "Encino Primary Care", "phone": "(818) 461-8148", "website": "https://www.uclahealth.org/locations/encino-primary-specialty-care", "brand": "UCLA Health", "brand:wikidata": "Q18394900"}, "geometry": {"type": "Point", "coordinates": [-118.471982, 34.155384]}},
{"type": "Feature", "id": "yDWSAnov9uakijrUor02jcUx9SM=", "properties": {"ref": "53", "@spider": "ucla_health", "addr:full": "15503 Ventura Blvd.", "addr:city": "Encino", "addr:state": "CA", "addr:postcode": 91436, "addr:country": "US", "name": "Encino Specialty Care", "phone": "(818) 461-3321", "website": "https://www.uclahealth.org/locations/encino-specialty-care", "brand": "UCLA Health", "brand:wikidata": "Q18394900"}, "geometry": {"type": "Point", "coordinates": [-118.47215, 34.1552]}},
{"type": "Feature", "id": "Eie8ecAOhR1dVDa0ec9gZXFJRxY=", "properties": {"ref": "54", "@spider": "ucla_health", "addr:full": "100 UCLA Medical Plaza", "addr:city": "Los Angeles", "addr:state": "CA", "addr:postcode": 90095, "addr:country": "US", "name": "Endocrine Center", "phone": "(310) 267-7838", "website": "https://www.uclahealth.org/locations/endocrine-center", "brand": "UCLA Health", "brand:wikidata": "Q18394900"}, "geometry": {"type": "Point", "coordinates": [-118.446005, 34.065597]}},
{"type": "Feature", "id": "KKLPabGbKDl48dAFi8SXPzz441s=", "properties": {"ref": "217", "@spider": "ucla_health", "addr:full": "200 UCLA Medical Plaza", "addr:city": "Los Angeles", "addr:state": "CA", "addr:postcode": 90095, "addr:country": "US", "name": "Endocrine Surgery", "phone": "(310) 206-0585", "website": "https://www.uclahealth.org/locations/endocrine-surgery", "brand": "UCLA Health", "brand:wikidata": "Q18394900"}, "geometry": {"type": "Point", "coordinates": [-118.446457, 34.065214]}},
{"type": "Feature", "id": "S8W3YRsLofy6DDbderUYwkXKrgg=", "properties": {"ref": "55", "@spider": "ucla_health", "addr:full": "1920 Colorado Ave.", "addr:city": "Santa Monica", "addr:state": "CA", "addr:postcode": 90404, "addr:country": "US", "name": "Family Health Center", "phone": "(310) 319-4700", "website": "https://www.uclahealth.org/locations/family-health-center", "brand": "UCLA Health", "brand:wikidata": "Q18394900"}, "geometry": {"type": "Point", "coordinates": [-118.476889, 34.025239]}},
{"type": "Feature", "id": "-z6fm5yLIjaCEMX12bGM_VLQIUg=", "properties": {"ref": "56", "@spider": "ucla_health", "addr:full": "200 UCLA Medical Plaza", "addr:city": "Los Angeles", "addr:state": "CA", "addr:postcode": 90095, "addr:country": "US", "name": "Family Medicine & Internal Medicine", "phone": "(310) 206-6232", "website": "https://www.uclahealth.org/locations/family-medicine-internal-medicine", "brand": "UCLA Health", "brand:wikidata": "Q18394900"}, "geometry": {"type": "Point", "coordinates": [-118.446418, 34.065279]}},
{"type": "Feature", "id": "EOlZ41mlgQCKY9DdYbKASwEqA5U=", "properties": {"ref": "57", "@spider": "ucla_health", "addr:full": "200 UCLA Medical Plaza", "addr:city": "Los Angeles", "addr:state": "CA", "addr:postcode": 90095, "addr:country": "US", "name": "Geriatric Medicine", "phone": "(310) 206-8272", "website": "https://www.uclahealth.org/locations/geriatric-medicine", "brand": "UCLA Health", "brand:wikidata": "Q18394900"}, "geometry": {"type": "Point", "coordinates": [-118.446418, 34.065279]}},
{"type": "Feature", "id": "KxSci5zIzs1wUaVlF3_9n4TQ308=", "properties": {"ref": "58", "@spider": "ucla_health", "addr:full": "200 UCLA Medical Plaza", "addr:city": "Los Angeles", "addr:state": "CA", "addr:postcode": 90095, "addr:country": "US", "name": "Gonda Diabetes Center", "phone": "(310) 825-7922", "website": "https://www.uclahealth.org/locations/gonda-diabetes-center", "brand": "UCLA Health", "brand:wikidata": "Q18394900"}, "geometry": {"type": "Point", "coordinates": [-118.446418, 34.065279]}},
{"type": "Feature", "id": "BqRHOJRiouqHzr4BfO2WH6zMSN0=", "properties": {"ref": "59", "@spider": "ucla_health", "addr:full": "200 UCLA Medical Plaza", "addr:city": "Los Angeles", "addr:state": "CA", "addr:postcode": 90095, "addr:country": "US", "name": "Gonda Vascular Surgery", "phone": "(310) 206-6294", "website": "https://www.uclahealth.org/locations/gonda-vascular-surgery", "brand": "UCLA Health", "brand:wikidata": "Q18394900"}, "geometry": {"type": "Point", "coordinates": [-118.446418, 34.065279]}},
{"type": "Feature", "id": "UQlbW3xOJVkSRclmelTbM7CiUCc=", "properties": {"ref": "61", "@spider": "ucla_health", "addr:full": "200 UCLA Medical Plaza", "addr:city": "Los Angeles", "addr:state": "CA", "addr:postcode": 90095, "addr:country": "US", "name": "Head & Neck Surgery", "phone": "(310) 206-6688", "website": "https://www.uclahealth.org/locations/ucla-head-neck-surgery", "brand": "UCLA Health", "brand:wikidata": "Q18394900"}, "geometry": {"type": "Point", "coordinates": [-118.446418, 34.065279]}},
{"type": "Feature", "id": "_8sDqweGJCqvBqn83TsVOa2fh20=", "properties": {"ref": "62", "@spider": "ucla_health", "addr:full": "2100 W. 3rd St.", "addr:city": "Los Angeles", "addr:state": "CA", "addr:postcode": 90057, "addr:country": "US", "name": "House Children's Hearing Center of UCLA", "phone": "(213) 273-8005", "website": "https://www.uclahealth.org/locations/house-childrens-hearing-center-ucla", "brand": "UCLA Health", "brand:wikidata": "Q18394900"}, "geometry": {"type": "Point", "coordinates": [-118.2731, 34.06281]}},
{"type": "Feature", "id": "k1PeDRyYmpbbAXD5uxGNge63TlY=", "properties": {"ref": "63", "@spider": "ucla_health", "addr:full": "200 UCLA Medical Plaza", "addr:city": "Los Angeles", "addr:state": "CA", "addr:postcode": 90095, "addr:country": "US", "name": "Hyperbaric Center", "phone": "(310) 794-1043", "website": "https://www.uclahealth.org/locations/hyperbaric-center", "brand": "UCLA Health", "brand:wikidata": "Q18394900"}, "geometry": {"type": "Point", "coordinates": [-118.446418, 34.065279]}},
{"type": "Feature", "id": "pqHF2f8-ezy1uSFJY6VXYnhk5Ko=", "properties": {"ref": "64", "@spider": "ucla_health", "addr:full": "200 UCLA Medical Plaza", "addr:city": "Los Angeles", "addr:state": "CA", "addr:postcode": 90095, "addr:country": "US", "name": "Internal Medicine, Suite 420", "phone": "(310) 206-6232", "website": "https://www.uclahealth.org/locations/westwood-internal-medicine-0", "brand": "UCLA Health", "brand:wikidata": "Q18394900"}, "geometry": {"type": "Point", "coordinates": [-118.446418, 34.065279]}},
{"type": "Feature", "id": "i3oUc-i15uXQp1EbT858Tpe55Ts=", "properties": {"ref": "65", "@spider": "ucla_health", "addr:full": "100 UCLA Medical Plaza", "addr:city": "Los Angeles", "addr:state": "CA", "addr:postcode": 90095, "addr:country": "US", "name": "Internal Medicine, Suite 490", "phone": "(310) 206-8000", "website": "https://www.uclahealth.org/locations/westwood-internal-medicine", "brand": "UCLA Health", "brand:wikidata": "Q18394900"}, "geometry": {"type": "Point", "coordinates": [-118.446005, 34.065597]}},
{"type": "Feature", "id": "0ktbUZwU2hkvg04sWQlPFcMwTNU=", "properties": {"ref": "66", "@spider": "ucla_health", "addr:full": "100 UCLA Medical Plaza", "addr:city": "Los Angeles", "addr:state": "CA", "addr:postcode": 90095, "addr:country": "US", "name": "Iris Cantor UCLA Women's Health Center", "phone": "(310) 794-9830", "website": "https://www.uclahealth.org/locations/iris-cantor-ucla-womens-health-center", "brand": "UCLA Health", "brand:wikidata": "Q18394900"}, "geometry": {"type": "Point", "coordinates": [-118.446005, 34.065597]}},
{"type": "Feature", "id": "BEE2h4gA0GEm3F3D8bReYcrWbt8=", "properties": {"ref": "67", "@spider": "ucla_health", "addr:full": "250 E. Yale Loop", "addr:city": "Irvine", "addr:state": "CA", "addr:postcode": 92604, "addr:country": "US", "name": "Irvine Cancer Care", "phone": "(949) 653-2959", "website": "https://www.uclahealth.org/locations/irvine-cancer-care", "brand": "UCLA Health", "brand:wikidata": "Q18394900"}, "geometry": {"type": "Point", "coordinates": [-117.78855, 33.67506]}},
{"type": "Feature", "id": "4oeEwrPT2jjWGwUeAfk0HBS1XeY=", "properties": {"ref": "68", "@spider": "ucla_health", "addr:full": "24302 Paseo De Valencia", "addr:city": "Laguna Hills", "addr:state": "CA", "addr:postcode": 92653, "addr:country": "US", "name": "Laguna Hills Cancer Care", "phone": "(949) 458- 8252", "website": "https://www.uclahealth.org/locations/laguna-hills-cancer-care", "brand": "UCLA Health", "brand:wikidata": "Q18394900"}, "geometry": {"type": "Point", "coordinates": [-117.71178, 33.60917]}},
{"type": "Feature", "id": "-uouVfZwRzl3W7_UbZ841PTxOaY=", "properties": {"ref": "69", "@spider": "ucla_health", "addr:full": "300 Stein Plaza", "addr:city": "Los Angeles", "addr:state": "CA", "addr:postcode": 90095, "addr:country": "US", "name": "Laser Refractive Center", "phone": "(310) 825-5000", "website": "https://www.uclahealth.org/locations/stein-eye-institute-cataract-refractive-surgery", "brand": "UCLA Health", "brand:wikidata": "Q18394900"}, "geometry": {"type": "Point", "coordinates": [-118.444652, 34.065265]}},
{"type": "Feature", "id": "EpOo6aCfH5kDaMTiDAyBKnu2kjw=", "properties": {"ref": "70", "@spider": "ucla_health", "addr:full": "23815 Stuart Ranch Rd.", "addr:city": "Malibu", "addr:state": "CA", "addr:postcode": 90265, "addr:country": "US", "name": "Malibu Family Medicine, Internal Medicine & Pediatrics", "phone": "(310) 456-1668", "website": "https://www.uclahealth.org/locations/malibu", "brand": "UCLA Health", "brand:wikidata": "Q18394900"}, "geometry": {"type": "Point", "coordinates": [-118.692839, 34.038317]}},
{"type": "Feature", "id": "fV8r-aysHZQd_XfekNO58j3riU0=", "properties": {"ref": "71", "@spider": "ucla_health", "addr:full": "2501 N. Sepulveda Blvd.", "addr:city": "Manhattan Beach", "addr:state": "CA", "addr:postcode": 90266, "addr:country": "US", "name": "Manhattan Beach Family & Internal Medicine", "phone": "(310) 546-4599", "website": "https://www.uclahealth.org/locations/manhattan-beach-family-internal-medicine", "brand": "UCLA Health", "brand:wikidata": "Q18394900"}, "geometry": {"type": "Point", "coordinates": [-118.396377, 33.89511]}},
{"type": "Feature", "id": "9ThQov53pBthFPUacdHCBTEqr40=", "properties": {"ref": "72", "@spider": "ucla_health", "addr:full": "2200 N. Sepulveda Blvd.", "addr:city": "Manhattan Beach", "addr:state": "CA", "addr:postcode": 90266, "addr:country": "US", "name": "Manhattan Beach Imaging & Interventional Center", "phone": "(310) 802-0200", "website": "https://www.uclahealth.org/locations/manhattan-beach-imaging-interventional-center", "brand": "UCLA Health", "brand:wikidata": "Q18394900"}, "geometry": {"type": "Point", "coordinates": [-118.39572, 33.893277]}},
{"type": "Feature", "id": "okWs2SOHLvKKdSH0JuVlpkKl_uI=", "properties": {"ref": "73", "@spider": "ucla_health", "addr:full": "1000 N. Sepulveda Blvd.", "addr:city": "Manhattan Beach", "addr:state": "CA", "addr:postcode": 90266, "addr:country": "US", "name": "Manhattan Beach Pediatrics", "phone": "(310) 546-8702", "website": "https://www.uclahealth.org/locations/manhattan-beach-pediatrics", "brand": "UCLA Health", "brand:wikidata": "Q18394900"}, "geometry": {"type": "Point", "coordinates": [-118.395749, 33.885904]}},
{"type": "Feature", "id": "__epS80QaJlNA0NMtyZ9gHWH0tw=", "properties": {"ref": "571", "@spider": "ucla_health", "addr:full": "13160 Mindanao Way", "addr:city": "Marina del Rey", "addr:state": "CA", "addr:postcode": 90292, "addr:country": "US", "name": "Marina del Rey Cancer Care", "phone": "(310) 301-6211", "website": "https://www.uclahealth.org/locations/marina-del-rey-cancer-care", "brand": "UCLA Health", "brand:wikidata": "Q18394900"}, "geometry": {"type": "Point", "coordinates": [-118.437582, 33.984639]}},
{"type": "Feature", "id": "yGXuTlGdx4KPprlIH9LF7osw7rA=", "properties": {"ref": "74", "@spider": "ucla_health", "addr:full": "4560 Admiralty Way", "addr:city": "Marina del Rey", "addr:state": "CA", "addr:postcode": 90292, "addr:country": "US", "name": "Marina del Rey Immediate Care", "phone": "(310) 827-3700", "website": "https://www.uclahealth.org/locations/marina-del-rey-immediate-care", "brand": "UCLA Health", "brand:wikidata": "Q18394900"}, "geometry": {"type": "Point", "coordinates": [-118.441488, 33.982668]}},
{"type": "Feature", "id": "GLjhht1zumYIdk8lcz9zZz-tVQg=", "properties": {"ref": "190", "@spider": "ucla_health", "addr:full": "13160 Mindanao Way", "addr:city": "Marina del Rey", "addr:state": "CA", "addr:postcode": 90292, "addr:country": "US", "name": "Marina del Rey Specialty Care", "phone": "(310) 302-0230", "website": "https://www.uclahealth.org/locations/marina-del-rey-primary-care", "brand": "UCLA Health", "brand:wikidata": "Q18394900"}, "geometry": {"type": "Point", "coordinates": [-118.437582, 33.984639]}},
{"type": "Feature", "id": "PoUSlfGFcoI1sEzZQN5pAOJNDmQ=", "properties": {"ref": "75", "@spider": "ucla_health", "addr:full": "1245 16th St.", "addr:city": "Santa Monica", "addr:state": "CA", "addr:postcode": 90404, "addr:country": "US", "name": "Medicine-Pediatrics Comprehensive Care", "phone": "(310) 315-8900", "website": "https://www.uclahealth.org/locations/santa-monica-16th-street-internal-medicine-pediatrics", "brand": "UCLA Health", "brand:wikidata": "Q18394900"}, "geometry": {"type": "Point", "coordinates": [-118.48546, 34.027477]}},
{"type": "Feature", "id": "dap2B3XH3KaH-CM8uszbiuPNnkE=", "properties": {"ref": "211", "@spider": "ucla_health", "addr:full": "740 Westwood Plaza", "addr:city": "Los Angeles", "addr:state": "CA", "addr:postcode": 90095, "addr:country": "US", "name": "Mindful Awareness Research Center (MARC)", "phone": "(310) 206-7503", "website": "https://www.uclahealth.org/locations/mindful-awareness-research-center-marc", "brand": "UCLA Health", "brand:wikidata": "Q18394900"}, "geometry": {"type": "Point", "coordinates": [-118.444736, 34.065811]}},
{"type": "Feature", "id": "yfStPOJkyE2tGFJ71j2J4Som83k=", "properties": {"ref": "546", "@spider": "ucla_health", "addr:full": "1187 Coast Village Rd.", "addr:city": "Montecito", "addr:state": "CA", "addr:postcode": 93108, "addr:country": "US", "name": "Montecito Primary & Specialty Care", "phone": "(805) 565-0020", "website": "https://www.uclahealth.org/locations/montecito", "brand": "UCLA Health", "brand:wikidata": "Q18394900"}, "geometry": {"type": "Point", "coordinates": [-119.644981, 34.420681]}},
{"type": "Feature", "id": "YWHvO2W9bArPCPvPUWKAxcyMB6k=", "properties": {"ref": "76", "@spider": "ucla_health", "addr:full": "23388 Mulholland Dr.", "addr:city": "Woodland Hills", "addr:state": "CA", "addr:postcode": 91364, "addr:country": "US", "name": "MPTF Age Well Primary Care", "phone": "(818) 876-4055", "website": "https://www.uclahealth.org/locations/mptf-age-well", "brand": "UCLA Health", "brand:wikidata": "Q18394900"}, "geometry": {"type": "Point", "coordinates": [-118.635742, 34.157917]}},
{"type": "Feature", "id": "GjVE4Bhj5tNM5KJe0VmCQsKhqWc=", "properties": {"ref": "77", "@spider": "ucla_health", "addr:full": "355 N. La Brea Ave.", "addr:city": "Los Angeles", "addr:state": "CA", "addr:postcode": 90036, "addr:country": "US", "name": "MPTF Bob Hope Primary Care", "phone": "(323) 634-3850", "website": "https://www.uclahealth.org/locations/mptf-bob-hope", "brand": "UCLA Health", "brand:wikidata": "Q18394900"}, "geometry": {"type": "Point", "coordinates": [-118.34431, 34.077763]}},
{"type": "Feature", "id": "OJ_x3WcwOuL-oyOUDq789CLLv18=", "properties": {"ref": "79", "@spider": "ucla_health", "addr:full": "25751 McBean Parkway", "addr:city": "Valencia", "addr:state": "CA", "addr:postcode": 91355, "addr:country": "US", "name": "MPTF Santa Clarita Primary Care", "phone": "(661) 284-3100", "website": "https://www.uclahealth.org/locations/mptf-santa-clarita", "brand": "UCLA Health", "brand:wikidata": "Q18394900"}, "geometry": {"type": "Point", "coordinates": [-118.561791, 34.416748]}},
{"type": "Feature", "id": "LZMNJxeo5R95AzmVNB3HgOemWUU=", "properties": {"ref": "80", "@spider": "ucla_health", "addr:full": "4323 Riverside Dr.", "addr:city": "Burbank", "addr:state": "CA", "addr:postcode": 91505, "addr:country": "US", "name": "MPTF Toluca Lake Primary Care", "phone": "(310) 307-6507", "website": "https://www.uclahealth.org/locations/mptf-toluca-lake", "brand": "UCLA Health", "brand:wikidata": "Q18394900"}, "geometry": {"type": "Point", "coordinates": [-118.347309, 34.152484]}},
{"type": "Feature", "id": "kZ7VoVHcbekAXjIcVz_6v29YT2g=", "properties": {"ref": "81", "@spider": "ucla_health", "addr:full": "1950 Sawtelle Blvd.", "addr:city": "Los Angeles", "addr:state": "CA", "addr:postcode": 90025, "addr:country": "US", "name": "MPTF Westside Primary Care", "phone": "(310) 996-9355", "website": "https://www.uclahealth.org/locations/mptf-westside", "brand": "UCLA Health", "brand:wikidata": "Q18394900"}, "geometry": {"type": "Point", "coordinates": [-118.443832, 34.04162]}},
{"type": "Feature", "id": "uoDFNGDymnHkZdDlbfzHh4kL2C8=", "properties": {"ref": "206", "@spider": "ucla_health", "addr:full": "300 UCLA Medical Plaza", "addr:city": "Los Angeles", "addr:state": "CA", "addr:postcode": 90095, "addr:country": "US", "name": "MRI Research Center", "phone": "(310) 301-6800", "website": "https://www.uclahealth.org/locations/radiology-300-med-plaza", "brand": "UCLA Health", "brand:wikidata": "Q18394900"}, "geometry": {"type": "Point", "coordinates": [-118.446054, 34.064569]}},
{"type": "Feature", "id": "sWA6S0nT86nt5KOh8LmrJGi01w0=", "properties": {"ref": "82", "@spider": "ucla_health", "addr:full": "100 UCLA Medical Plaza", "addr:city": "Los Angeles", "addr:state": "CA", "addr:postcode": 90095, "addr:country": "US", "name": "Nephrology", "phone": "(310) 206-8277", "website": "https://www.uclahealth.org/locations/nephrology", "brand": "UCLA Health", "brand:wikidata": "Q18394900"}, "geometry": {"type": "Point", "coordinates": [-118.446005, 34.065597]}},
{"type": "Feature", "id": "WYKpTaqLiASAWRKedPcQ9bRu9CE=", "properties": {"ref": "199", "@spider": "ucla_health", "addr:full": "1225 15th St.", "addr:city": "Santa Monica", "addr:state": "CA", "addr:postcode": 90404, "addr:country": "US", "name": "Nethercutt Emergency Center", "phone": "(424) 259-6000", "website": "https://www.uclahealth.org/santa-monica/nethercutt-emergency-center", "brand": "UCLA Health", "brand:wikidata": "Q18394900"}, "geometry": {"type": "Point", "coordinates": [-118.48701, 34.02681]}},
{"type": "Feature", "id": "Eg1MFhlnS75jUyxuWc4Cl9ZfGB0=", "properties": {"ref": "201", "@spider": "ucla_health", "addr:full": "300 Stein Plaza", "addr:city": "Los Angeles", "addr:state": "CA", "addr:postcode": 90095, "addr:country": "US", "name": "Neurosurgery", "phone": "(310) 825-5111", "website": "https://www.uclahealth.org/locations/ucla-neurosurgery", "brand": "UCLA Health", "brand:wikidata": "Q18394900"}, "geometry": {"type": "Point", "coordinates": [-118.44478, 34.06526]}},
{"type": "Feature", "id": "_7dMJwm0fJFVRU9Jdph2484Eo7c=", "properties": {"ref": "553", "@spider": "ucla_health", "addr:full": "4343 Lankershim Blvd.", "addr:city": "North Hollywood", "addr:state": "CA", "addr:postcode": 91602, "addr:country": "US", "name": "North Hollywood Imaging & Interventional Center", "phone": "(310) 301-6800", "website": "https://www.uclahealth.org/locations/north-hollywood-imaging-and-interventional-center", "brand": "UCLA Health", "brand:wikidata": "Q18394900"}, "geometry": {"type": "Point", "coordinates": [-118.36537, 34.14907]}},
{"type": "Feature", "id": "nLGO2huc1npnzmYPYS2OiN9cMfc=", "properties": {"ref": "552", "@spider": "ucla_health", "addr:full": "4343 Lankershim Blvd.", "addr:city": "North Hollywood", "addr:state": "CA", "addr:postcode": 91602, "addr:country": "US", "name": "North Hollywood Specialty Care", "website": "https://www.uclahealth.org/locations/north-hollywood", "brand": "UCLA Health", "brand:wikidata": "Q18394900"}, "geometry": {"type": "Point", "coordinates": [-118.36537, 34.14907]}},
{"type": "Feature", "id": "vqlb3rq7yrcvGWAKrEhKPfZPCUE=", "properties": {"ref": "84", "@spider": "ucla_health", "addr:full": "200 UCLA Medical Plaza", "addr:city": "Los Angeles", "addr:state": "CA", "addr:postcode": 90095, "addr:country": "US", "name": "Nuclear Medicine", "phone": "(310) 794-1005", "website": "https://www.uclahealth.org/locations/nuclear-medicine", "brand": "UCLA Health", "brand:wikidata": "Q18394900"}, "geometry": {"type": "Point", "coordinates": [-118.446418, 34.065279]}},
{"type": "Feature", "id": "RtP-MclHN4zMBFNo0V4cvLz5VoQ=", "properties": {"ref": "85", "@spider": "ucla_health", "addr:full": "2001 Santa Monica Blvd.", "addr:city": "Santa Monica", "addr:state": "CA", "addr:postcode": 90404, "addr:country": "US", "name": "Nurse Midwives", "phone": "(310) 794-7274", "website": "https://www.uclahealth.org/locations/nurse-midwives", "brand": "UCLA Health", "brand:wikidata": "Q18394900"}, "geometry": {"type": "Point", "coordinates": [-118.47995, 34.02908]}},
{"type": "Feature", "id": "7oc_tay4nbvUKqx6Cp3Fue5BkRQ=", "properties": {"ref": "86", "@spider": "ucla_health", "addr:full": "2701 Ocean Park Blvd.", "addr:city": "Santa Monica", "addr:state": "CA", "addr:postcode": 90405, "addr:country": "US", "name": "Ocean Park Family Medicine", "phone": "(310) 450-1200", "website": "https://www.uclahealth.org/locations/ocean-park-family-medicine", "brand": "UCLA Health", "brand:wikidata": "Q18394900"}, "geometry": {"type": "Point", "coordinates": [-118.457136, 34.018537]}},
{"type": "Feature", "id": "-vM41csU2C8ZZihztG7kj8Q7ocw=", "properties": {"ref": "197", "@spider": "ucla_health", "addr:full": "924 Westwood Blvd.", "addr:city": "Los Angeles", "addr:state": "CA", "addr:postcode": 90095, "addr:country": "US", "name": "Operation Mend", "phone": "(310) 267-2110", "website": "https://www.uclahealth.org/locations/operation-mend", "brand": "UCLA Health", "brand:wikidata": "Q18394900"}, "geometry": {"type": "Point", "coordinates": [-118.44495, 34.06308]}},
{"type": "Feature", "id": "zvjTi8XyGE21XY9Czq_0JKcxOiU=", "properties": {"ref": "219", "@spider": "ucla_health", "addr:full": "1225 15th St.", "addr:city": "Santa Monica", "addr:state": "CA", "addr:postcode": 90404, "addr:country": "US", "name": "Orthopaedic Surgery", "phone": "(310) 319-1234", "website": "https://www.uclahealth.org/locations/orthopaedic-surgery", "brand": "UCLA Health", "brand:wikidata": "Q18394900"}, "geometry": {"type": "Point", "coordinates": [-118.48701, 34.02681]}},
{"type": "Feature", "id": "3khMpUJqcXNnnQj_be_A_cnV36A=", "properties": {"ref": "87", "@spider": "ucla_health", "addr:full": "100 UCLA Medical Plaza", "addr:city": "Los Angeles", "addr:state": "CA", "addr:postcode": 90095, "addr:country": "US", "name": "Orthopaedics", "phone": "(310) 319-1234", "website": "https://www.uclahealth.org/locations/orthopaedic-surgery-0", "brand": "UCLA Health", "brand:wikidata": "Q18394900"}, "geometry": {"type": "Point", "coordinates": [-118.446005, 34.065597]}},
{"type": "Feature", "id": "EOFRVg-WAkXAazYy5My4DEh39CM=", "properties": {"ref": "88", "@spider": "ucla_health", "addr:full": "881 Alma Real Dr.", "addr:city": "Pacific Palisades", "addr:state": "CA", "addr:postcode": 90272, "addr:country": "US", "name": "Pacific Palisades Family Medicine", "phone": "(310) 459-2363", "website": "https://www.uclahealth.org/locations/pacific-palisades-family-medicine", "brand": "UCLA Health", "brand:wikidata": "Q18394900"}, "geometry": {"type": "Point", "coordinates": [-118.525572, 34.044822]}},
{"type": "Feature", "id": "0E4FqQGoM7IkrhjJT7ViN31Qp24=", "properties": {"ref": "89", "@spider": "ucla_health", "addr:full": "501 Deep Valley Dr.", "addr:city": "Rolling Hills Estates", "addr:state": "CA", "addr:postcode": 90274, "addr:country": "US", "name": "Palos Verdes Imaging & Interventional Center", "phone": "(310) 265-6401", "website": "https://www.uclahealth.org/locations/palos-verdes-imaging-interventional-center", "brand": "UCLA Health", "brand:wikidata": "Q18394900"}, "geometry": {"type": "Point", "coordinates": [-118.374962, 33.772463]}},
{"type": "Feature", "id": "WqYnEfztRb_2sE-GXvDARgTjpZ4=", "properties": {"ref": "90", "@spider": "ucla_health", "addr:full": "501 Deep Valley Dr.", "addr:city": "Rolling Hills Estates", "addr:state": "CA", "addr:postcode": 90274, "addr:country": "US", "name": "Palos Verdes Primary & Specialty Care", "phone": "(310) 303-3953", "website": "https://www.uclahealth.org/locations/palos-verdes-primary-specialty-care", "brand": "UCLA Health", "brand:wikidata": "Q18394900"}, "geometry": {"type": "Point", "coordinates": [-118.375062, 33.772563]}},
{"type": "Feature", "id": "2D9cXdDQo4noITMNuxVcLwxd6WE=", "properties": {"ref": "91", "@spider": "ucla_health", "addr:full": "14250 W. Arminta St.", "addr:city": "Panorama City", "addr:state": "CA", "addr:postcode": 91402, "addr:country": "US", "name": "Panorama City Clinical Lab", "phone": "(310) 267-2680", "website": "https://www.uclahealth.org/locations/panorama-city-clinical-lab", "brand": "UCLA Health", "brand:wikidata": "Q18394900"}, "geometry": {"type": "Point", "coordinates": [-118.44328, 34.2127]}},
{"type": "Feature", "id": "IbOI1JZ91KH16tyMIu4yiW1PLrE=", "properties": {"ref": "92", "@spider": "ucla_health", "addr:full": "625 S. Fair Oaks Ave.", "addr:city": "Pasadena", "addr:state": "CA", "addr:postcode": 91105, "addr:country": "US", "name": "Pasadena Cancer Care", "phone": "(626) 396-2999", "website": "https://www.uclahealth.org/locations/pasadena-cancer-care", "brand": "UCLA Health", "brand:wikidata": "Q18394900"}, "geometry": {"type": "Point", "coordinates": [-118.15104, 34.1351]}},
{"type": "Feature", "id": "kmIqt0DvXeAEnkDxYJbCED_r2xY=", "properties": {"ref": "93", "@spider": "ucla_health", "addr:full": "10 Congress St.", "addr:city": "Pasadena", "addr:state": "CA", "addr:postcode": 91105, "addr:country": "US", "name": "Pasadena OBGYN", "phone": "(626) 792-0110", "website": "https://www.uclahealth.org/locations/pasadena-obgyn", "brand": "UCLA Health", "brand:wikidata": "Q18394900"}, "geometry": {"type": "Point", "coordinates": [-118.1507, 34.1339]}},
{"type": "Feature", "id": "O8zcVc4gar0ZRaUkK1Qkh5Uxv_s=", "properties": {"ref": "94", "@spider": "ucla_health", "addr:full": "800 S. Fairmount Ave.", "addr:city": "Pasadena", "addr:state": "CA", "addr:postcode": 91105, "addr:country": "US", "name": "Pasadena Pediatrics", "phone": "(626) 449-8440", "website": "https://www.uclahealth.org/locations/pasadena-pediatrics", "brand": "UCLA Health", "brand:wikidata": "Q18394900"}, "geometry": {"type": "Point", "coordinates": [-118.15136, 34.13238]}},
{"type": "Feature", "id": "egYIzsh99RiA5cR2aAj2DAcGgZY=", "properties": {"ref": "95", "@spider": "ucla_health", "addr:full": "200 UCLA Medical Plaza", "addr:city": "Los Angeles", "addr:state": "CA", "addr:postcode": 90095, "addr:country": "US", "name": "Pediatric Urology", "phone": "(310) 794-7700", "website": "https://www.uclahealth.org/locations/pediatric-urology", "brand": "UCLA Health", "brand:wikidata": "Q18394900"}, "geometry": {"type": "Point", "coordinates": [-118.446418, 34.065279]}},
{"type": "Feature", "id": "4gGXvD_tMyEwtYaqW8XtRutR7dg=", "properties": {"ref": "96", "@spider": "ucla_health", "addr:full": "200 UCLA Medical Plaza", "addr:city": "Los Angeles", "addr:state": "CA", "addr:postcode": 90095, "addr:country": "US", "name": "Pfleger Liver Institute & General Surgery Suite", "phone": "(310) 794-7788", "website": "https://www.uclahealth.org/locations/pfleger-liver-institute-general-surgery", "brand": "UCLA Health", "brand:wikidata": "Q18394900"}, "geometry": {"type": "Point", "coordinates": [-118.446418, 34.065279]}},
{"type": "Feature", "id": "h4a5ogcnUjvva9D7olnuQX5bc0Y=", "properties": {"ref": "4", "@spider": "ucla_health", "addr:full": "200 UCLA Medical Plaza", "addr:city": "Los Angeles", "addr:state": "CA", "addr:postcode": 90095, "addr:country": "US", "name": "Pharmacy, 200 Medical Plaza, 1st Floor", "phone": "(310) 206-3784", "website": "https://www.uclahealth.org/locations/pharmacy-0", "brand": "UCLA Health", "brand:wikidata": "Q18394900"}, "geometry": {"type": "Point", "coordinates": [-118.446457, 34.065214]}},
{"type": "Feature", "id": "sTYLXWGY11G9eW9BV7cRyGeo4Sk=", "properties": {"ref": "5", "@spider": "ucla_health", "addr:full": "200 UCLA Medical Plaza", "addr:city": "Los Angeles", "addr:state": "CA", "addr:postcode": 90095, "addr:country": "US", "name": "Pharmacy, 200 Medical Plaza, 4th Floor", "phone": "(310) 206-3784", "website": "https://www.uclahealth.org/locations/pharmacy", "brand": "UCLA Health", "brand:wikidata": "Q18394900"}, "geometry": {"type": "Point", "coordinates": [-118.446457, 34.065214]}},
{"type": "Feature", "id": "TA4D6jxbzzJG3JvX9BOsh4onllc=", "properties": {"ref": "97", "@spider": "ucla_health", "addr:full": "200 UCLA Medical Plaza", "addr:city": "Los Angeles", "addr:state": "CA", "addr:postcode": 90095, "addr:country": "US", "name": "Plastic Surgery", "phone": "(310) 825-5510", "website": "https://www.uclahealth.org/locations/plastic-surgery", "brand": "UCLA Health", "brand:wikidata": "Q18394900"}, "geometry": {"type": "Point", "coordinates": [-118.446418, 34.065279]}},
{"type": "Feature", "id": "pCX0t1LECuNdR3d1oyCPUqp1wy8=", "properties": {"ref": "98", "@spider": "ucla_health", "addr:full": "100 UCLA Medical Plaza", "addr:city": "Los Angeles", "addr:state": "CA", "addr:postcode": 90095, "addr:country": "US", "name": "Podiatry", "phone": "(310) 443-8999", "website": "https://www.uclahealth.org/locations/podiatry", "brand": "UCLA Health", "brand:wikidata": "Q18394900"}, "geometry": {"type": "Point", "coordinates": [-118.446005, 34.065597]}},
{"type": "Feature", "id": "OxXuuxNJSYDFQWOk22iHeXG0heU=", "properties": {"ref": "99", "@spider": "ucla_health", "addr:full": "19950 Rinaldi St.", "addr:city": "Porter Ranch", "addr:state": "CA", "addr:postcode": 91326, "addr:country": "US", "name": "Porter Ranch Cancer Care", "phone": "(818) 271-2500", "website": "https://www.uclahealth.org/locations/porter-ranch-cancer-care", "brand": "UCLA Health", "brand:wikidata": "Q18394900"}, "geometry": {"type": "Point", "coordinates": [-118.56957, 34.27522]}},
{"type": "Feature", "id": "9oGFYvRYmZ_rnvZ-YgZ2rWNv5-8=", "properties": {"ref": "100", "@spider": "ucla_health", "addr:full": "19950 Rinaldi St.", "addr:city": "Porter Ranch", "addr:state": "CA", "addr:postcode": 91326, "addr:country": "US", "name": "Porter Ranch Primary & Specialty Care", "phone": "(818) 271-2400", "website": "https://www.uclahealth.org/locations/porter-ranch-primary-specialty-care", "brand": "UCLA Health", "brand:wikidata": "Q18394900"}, "geometry": {"type": "Point", "coordinates": [-118.569568, 34.275217]}},
{"type": "Feature", "id": "jhlTef0s3nh8bvV5TL0ildwM990=", "properties": {"ref": "101", "@spider": "ucla_health", "addr:full": "300 UCLA Medical Plaza", "addr:city": "Los Angeles", "addr:state": "CA", "addr:postcode": 90095, "addr:country": "US", "name": "Psychiatry", "phone": "(800) 825-9989", "website": "https://www.uclahealth.org/locations/psychiatry", "brand": "UCLA Health", "brand:wikidata": "Q18394900"}, "geometry": {"type": "Point", "coordinates": [-118.446054, 34.064569]}},
{"type": "Feature", "id": "x0o-mirZeEEXdmsAb0itOWJ6sfU=", "properties": {"ref": "102", "@spider": "ucla_health", "addr:full": "200 UCLA Medical Plaza", "addr:city": "Los Angeles", "addr:state": "CA", "addr:postcode": 90095, "addr:country": "US", "name": "Pulmonary Function Lab", "phone": "(310) 794-9721", "website": "https://www.uclahealth.org/locations/pulmonary-function-lab", "brand": "UCLA Health", "brand:wikidata": "Q18394900"}, "geometry": {"type": "Point", "coordinates": [-118.446418, 34.065279]}},
{"type": "Feature", "id": "E4yqqtDk-8FXIFcoANeK9B19gtM=", "properties": {"ref": "202", "@spider": "ucla_health", "addr:full": "1250 16th St.", "addr:city": "Santa Monica", "addr:state": "CA", "addr:postcode": 90404, "addr:country": "US", "name": "Rape Treatment Center", "phone": "(424) 259-7208", "website": "https://www.uclahealth.org/locations/rape-treatment-center", "brand": "UCLA Health", "brand:wikidata": "Q18394900"}, "geometry": {"type": "Point", "coordinates": [-118.48658, 34.027351]}},
{"type": "Feature", "id": "9265PQvaz6dpjFRnmSOFnJY_324=", "properties": {"ref": "103", "@spider": "ucla_health", "addr:full": "514 N. Prospect Ave.", "addr:city": "Redondo Beach", "addr:state": "CA", "addr:postcode": 90277, "addr:country": "US", "name": "Redondo Beach Primary Care, Specialty Care & Immediate Care", "phone": "(310) 937-8555", "website": "https://www.uclahealth.org/locations/redondo-beach-primary-specialty-care", "brand": "UCLA Health", "brand:wikidata": "Q18394900"}, "geometry": {"type": "Point", "coordinates": [-118.378837, 33.8532]}},
{"type": "Feature", "id": "1SjER-bXK0ylAdyUJdEYq794KUo=", "properties": {"ref": "104", "@spider": "ucla_health", "addr:full": "1000 Veteran Ave.", "addr:city": "Los Angeles", "addr:state": "CA", "addr:postcode": 90095, "addr:country": "US", "name": "Rehabilitation Services", "phone": "(310) 794-1323", "website": "https://www.uclahealth.org/locations/westwood-rehabilitation-services", "brand": "UCLA Health", "brand:wikidata": "Q18394900"}, "geometry": {"type": "Point", "coordinates": [-118.449227, 34.060774]}},
{"type": "Feature", "id": "9LQu2t087jzfrlhD9qY0Tgwn_o0=", "properties": {"ref": "218", "@spider": "ucla_health", "addr:full": "1250 16th St.", "addr:city": "Santa Monica", "addr:state": "CA", "addr:postcode": 90404, "addr:country": "US", "name": "Renee Meyer Luskin Children's Clinic", "phone": "(424) 259-6593", "website": "https://www.uclahealth.org/locations/renee-meyer-luskin-childrens-clinic", "brand": "UCLA Health", "brand:wikidata": "Q18394900"}, "geometry": {"type": "Point", "coordinates": [-118.48658, 34.027351]}},
{"type": "Feature", "id": "XQCJ6Xq8AW1gKg92hg8YXWVB188=", "properties": {"ref": "105", "@spider": "ucla_health", "addr:full": "100 UCLA Medical Plaza", "addr:city": "Los Angeles", "addr:state": "CA", "addr:postcode": 90095, "addr:country": "US", "name": "Revlon Breast Center", "phone": "310-825-2144", "website": "https://www.uclahealth.org/locations/revlon-breast-center", "brand": "UCLA Health", "brand:wikidata": "Q18394900"}, "geometry": {"type": "Point", "coordinates": [-118.446005, 34.065597]}},
{"type": "Feature", "id": "tON_4-eIRg3noGPPXvexylg0e70=", "properties": {"ref": "106", "@spider": "ucla_health", "addr:full": "900 Weyburn Pl.", "addr:city": "Los Angeles", "addr:state": "CA", "addr:postcode": 90095, "addr:country": "US", "name": "RFO Weight Management Program", "phone": "(310) 825-8173", "website": "https://www.uclahealth.org/locations/rfo-weight-management-program", "brand": "UCLA Health", "brand:wikidata": "Q18394900"}, "geometry": {"type": "Point", "coordinates": [-118.449943, 34.062509]}},
{"type": "Feature", "id": "CRmGoqalnJTgB8SBJvczPfB5ngc=", "properties": {"ref": "181", "@spider": "ucla_health", "addr:full": "100 UCLA Medical Plaza", "addr:city": "Los Angeles", "addr:state": "CA", "addr:postcode": 90095, "addr:country": "US", "name": "Robert G. Kardashian Center for Esophageal Health", "phone": "(833) 373-7674", "website": "https://www.uclahealth.org/locations/center-esophageal-health", "brand": "UCLA Health", "brand:wikidata": "Q18394900"}, "geometry": {"type": "Point", "coordinates": [-118.446005, 34.065597]}},
{"type": "Feature", "id": "e1OMwOH87DmJbMsso35pBPWq5Pk=", "properties": {"ref": "107", "@spider": "ucla_health", "addr:full": "757 Westwood Plaza", "addr:city": "Los Angeles", "addr:state": "CA", "addr:postcode": 90095, "addr:country": "US", "name": "Ronald Reagan UCLA Medical Center", "phone": "(310) 825-9111", "website": "https://www.uclahealth.org/reagan", "brand": "UCLA Health", "brand:wikidata": "Q18394900"}, "geometry": {"type": "Point", "coordinates": [-118.446507, 34.066465]}},
{"type": "Feature", "id": "tKVT8ZyW8Bn6WRspWa33c4NHPp4=", "properties": {"ref": "108", "@spider": "ucla_health", "addr:full": "757 Westwood Plaza", "addr:city": "Los Angeles", "addr:state": "CA", "addr:postcode": 90095, "addr:country": "US", "name": "Ronald Reagan UCLA Medical Center Outpatient Pharmacy", "phone": "(310) 206-3784", "website": "https://www.uclahealth.org/locations/ronald-reagan-ucla-medical-center-outpatient-pharmacy", "brand": "UCLA Health", "brand:wikidata": "Q18394900"}, "geometry": {"type": "Point", "coordinates": [-118.446507, 34.066465]}},
{"type": "Feature", "id": "ECHvrx-W2fDSApsfv7AcYJel9h8=", "properties": {"ref": "109", "@spider": "ucla_health", "addr:full": "892 Aerovista Pl.", "addr:city": "San Luis Obispo", "addr:state": "CA", "addr:postcode": 93401, "addr:country": "US", "name": "San Luis Obispo Cancer Care", "phone": "(805) 541-8252", "website": "https://www.uclahealth.org/locations/san-luis-obispo-cancer-care", "brand": "UCLA Health", "brand:wikidata": "Q18394900"}, "geometry": {"type": "Point", "coordinates": [-120.640984, 35.243221]}},
{"type": "Feature", "id": "O--5CCfeLo310UhHkYMY0e6WbQw=", "properties": {"ref": "576", "@spider": "ucla_health", "addr:full": "892 Aerovista Pl.", "addr:city": "San Luis Obispo", "addr:state": "CA", "addr:postcode": 93401, "addr:country": "US", "name": "San Luis Obispo Primary & Specialty Care", "phone": "(805) 549-8252", "website": "https://www.uclahealth.org/locations/san-luis-obispo-primary-specialty-care", "brand": "UCLA Health", "brand:wikidata": "Q18394900"}, "geometry": {"type": "Point", "coordinates": [-120.6408595, 35.24352035]}},
{"type": "Feature", "id": "1psc4ASXFlVjpLs2xWi14TEm1P4=", "properties": {"ref": "565", "@spider": "ucla_health", "addr:full": "309 W. Quinto St.", "addr:city": "Santa Barbara", "addr:state": "CA", "addr:postcode": 93105, "addr:country": "US", "name": "Santa Barbara Cancer Care", "phone": "(805) 563-0041", "website": "https://www.uclahealth.org/locations/santa-barbara-cancer-care", "brand": "UCLA Health", "brand:wikidata": "Q18394900"}, "geometry": {"type": "Point", "coordinates": [-119.72463, 34.43194]}},
{"type": "Feature", "id": "UNp0okywOBk5rFVsrktVOmIj-xc=", "properties": {"ref": "572", "@spider": "ucla_health", "addr:full": "504 W. Pueblo St.", "addr:city": "Santa Barbara", "addr:state": "CA", "addr:postcode": 93105, "addr:country": "US", "name": "Santa Barbara Cardiology", "phone": "(805) 845-5305", "website": "https://www.uclahealth.org/locations/santa-barbara-cardiology", "brand": "UCLA Health", "brand:wikidata": "Q18394900"}, "geometry": {"type": "Point", "coordinates": [-119.72462, 34.42847]}},
{"type": "Feature", "id": "dfaJI70eD1rAQg9En-N4ASyfOZc=", "properties": {"ref": "110", "@spider": "ucla_health", "addr:full": "27235 Tourney Rd.", "addr:city": "Santa Clarita", "addr:state": "CA", "addr:postcode": 91355, "addr:country": "US", "name": "Santa Clarita Cancer Care", "phone": "(661) 255-5350", "website": "https://www.uclahealth.org/locations/santa-clarita-cancer-care", "brand": "UCLA Health", "brand:wikidata": "Q18394900"}, "geometry": {"type": "Point", "coordinates": [-118.57724, 34.41768]}},
{"type": "Feature", "id": "Q-_MNuQJHsUOwHmGFvv6kUufeq8=", "properties": {"ref": "111", "@spider": "ucla_health", "addr:full": "27235 Tourney Rd.", "addr:city": "Valencia", "addr:state": "CA", "addr:postcode": 91355, "addr:country": "US", "name": "Santa Clarita Clinical Lab", "phone": "(310) 267-2680", "website": "https://www.uclahealth.org/locations/santa-clarita-clinical-lab", "brand": "UCLA Health", "brand:wikidata": "Q18394900"}, "geometry": {"type": "Point", "coordinates": [-118.579649, 34.422452]}},
{"type": "Feature", "id": "Co61bxIaIu7G4ofmj_iTZ7nE8vQ=", "properties": {"ref": "112", "@spider": "ucla_health", "addr:full": "27235 Tourney Rd.", "addr:city": "Santa Clarita", "addr:state": "CA", "addr:postcode": 91355, "addr:country": "US", "name": "Santa Clarita General Surgery", "phone": "(661) 219-2643", "website": "https://www.uclahealth.org/locations/santa-clarita-surgery", "brand": "UCLA Health", "brand:wikidata": "Q18394900"}, "geometry": {"type": "Point", "coordinates": [-118.57732, 34.41767]}},
{"type": "Feature", "id": "SihF47BTH_LRD4z2utoKCtaF43w=", "properties": {"ref": "113", "@spider": "ucla_health", "addr:full": "27235 Tourney Rd.", "addr:city": "Valencia", "addr:state": "CA", "addr:postcode": 91355, "addr:country": "US", "name": "Santa Clarita Imaging & Interventional Center", "phone": "(310) 301-6800", "website": "https://www.uclahealth.org/locations/santa-clarita-imaging-interventional-center", "brand": "UCLA Health", "brand:wikidata": "Q18394900"}, "geometry": {"type": "Point", "coordinates": [-118.578438, 34.417858]}},
{"type": "Feature", "id": "_mkG7K7omZFUNyqU8eESzI9fckw=", "properties": {"ref": "116", "@spider": "ucla_health", "addr:full": "25775 McBean Parkway", "addr:city": "Valencia", "addr:state": "CA", "addr:postcode": 91355, "addr:country": "US", "name": "Santa Clarita Primary & Specialty Care", "phone": "(661) 753-5464", "website": "https://www.uclahealth.org/locations/santa-clarita-primary-specialty-care", "brand": "UCLA Health", "brand:wikidata": "Q18394900"}, "geometry": {"type": "Point", "coordinates": [-118.561791, 34.416748]}},
{"type": "Feature", "id": "vSwOJZMZ-jNd02iVwT6Zit0OJhA=", "properties": {"ref": "118", "@spider": "ucla_health", "addr:full": "25775 McBean Parkway", "addr:city": "Valencia", "addr:state": "CA", "addr:postcode": 91355, "addr:country": "US", "name": "Santa Clarita Specialty Care", "phone": "(661) 255-2420", "website": "https://www.uclahealth.org/locations/santa-clarita-specialty-care", "brand": "UCLA Health", "brand:wikidata": "Q18394900"}, "geometry": {"type": "Point", "coordinates": [-118.561791, 34.416748]}},
{"type": "Feature", "id": "YGhthib3ugMwPIsHaKjFY0n7fso=", "properties": {"ref": "117", "@spider": "ucla_health", "addr:full": "27235 Tourney Rd.", "addr:city": "Valencia", "addr:state": "CA", "addr:postcode": 91355, "addr:country": "US", "name": "Santa Clarita Tourney Primary & Specialty Care", "phone": "(661) 253-5851", "website": "https://www.uclahealth.org/locations/santa-clarita-tourney-road-primary-specialty-care", "brand": "UCLA Health", "brand:wikidata": "Q18394900"}, "geometry": {"type": "Point", "coordinates": [-118.573779, 34.411867]}},
{"type": "Feature", "id": "xXAC5taoA_vAAjdl6wKKGdhRNLc=", "properties": {"ref": "573", "@spider": "ucla_health", "addr:full": "220 S. Palisade Dr.", "addr:city": "Santa Maria", "addr:state": "CA", "addr:postcode": 93454, "addr:country": "US", "name": "Santa Maria Cardiology", "phone": "(805) 845-5305", "website": "https://www.uclahealth.org/locations/santa-maria-cardiology", "brand": "UCLA Health", "brand:wikidata": "Q18394900"}, "geometry": {"type": "Point", "coordinates": [-120.411652, 34.95142]}},
{"type": "Feature", "id": "VYCv3T2mw0iMUr2-UqWWOfPrEWQ=", "properties": {"ref": "119", "@spider": "ucla_health", "addr:full": "1131 Wilshire Blvd.", "addr:city": "Santa Monica", "addr:state": "CA", "addr:postcode": 90401, "addr:country": "US", "name": "Santa Monica 12th Street Outpatient Rehabilitation Services", "phone": "(424) 259-7140", "website": "https://www.uclahealth.org/locations/santa-monica-12th-street-outpatient-rehabilitation-services", "brand": "UCLA Health", "brand:wikidata": "Q18394900"}, "geometry": {"type": "Point", "coordinates": [-118.491093, 34.025094]}},
{"type": "Feature", "id": "yUuPleADRjo1ivDx11hQfmFoKmE=", "properties": {"ref": "120", "@spider": "ucla_health", "addr:full": "1304 15th St.", "addr:city": "Santa Monica", "addr:state": "CA", "addr:postcode": 90404, "addr:country": "US", "name": "Santa Monica 15th Street Family Medicine", "phone": "(310) 395-9442", "website": "https://www.uclahealth.org/locations/santa-monica-15th-street-family-medicine", "brand": "UCLA Health", "brand:wikidata": "Q18394900"}, "geometry": {"type": "Point", "coordinates": [-118.486438, 34.025804]}},
{"type": "Feature", "id": "Qa2S9zjyOmkRs6vgzu1m1Cp9Ndg=", "properties": {"ref": "121", "@spider": "ucla_health", "addr:full": "1260 15th St.", "addr:city": "Santa Monica", "addr:state": "CA", "addr:postcode": 90404, "addr:country": "US", "name": "Santa Monica 15th Street Outpatient Rehabilitation Services", "phone": "(310) 794-1323", "website": "https://www.uclahealth.org/locations/santa-monica-15th-street-outpatient-rehabilitation-services", "brand": "UCLA Health", "brand:wikidata": "Q18394900"}, "geometry": {"type": "Point", "coordinates": [-118.487018, 34.026295]}},
{"type": "Feature", "id": "nUI_PLGXXdjDJcZzRpAi3GxP1ng=", "properties": {"ref": "142", "@spider": "ucla_health", "addr:full": "1260 15th St.", "addr:city": "Santa Monica", "addr:state": "CA", "addr:postcode": 90403, "addr:country": "US", "name": "Santa Monica 15th Street Pediatrics", "phone": "(424) 259-6170", "website": "https://www.uclahealth.org/locations/santa-monica-pediatric-specialty-care", "brand": "UCLA Health", "brand:wikidata": "Q18394900"}, "geometry": {"type": "Point", "coordinates": [-118.487018, 34.026295]}},
{"type": "Feature", "id": "Ec-hHYhsuJDb8CsemVnVMxADuJM=", "properties": {"ref": "122", "@spider": "ucla_health", "addr:full": "1245 16th St.", "addr:city": "Santa Monica", "addr:state": "CA", "addr:postcode": 90404, "addr:country": "US", "name": "Santa Monica Allergy & Immunology", "phone": "(310) 481-4646", "website": "https://www.uclahealth.org/locations/santa-monica-allergy-immunology", "brand": "UCLA Health", "brand:wikidata": "Q18394900"}, "geometry": {"type": "Point", "coordinates": [-118.486295, 34.027636]}},
{"type": "Feature", "id": "FP_yu3SvkPq2kozR0XuJY5HFxGY=", "properties": {"ref": "123", "@spider": "ucla_health", "addr:full": "1223 16th St.", "addr:city": "Santa Monica", "addr:state": "CA", "addr:postcode": 90404, "addr:country": "US", "name": "Santa Monica Breast Care", "phone": "(424) 259-8791", "website": "https://www.uclahealth.org/locations/santa-monica-breast-care", "brand": "UCLA Health", "brand:wikidata": "Q18394900"}, "geometry": {"type": "Point", "coordinates": [-118.48647, 34.028013]}},
{"type": "Feature", "id": "M_Hq2lPSg9Kxr4Bam14KtK4_V8E=", "properties": {"ref": "124", "@spider": "ucla_health", "addr:full": "2020 Santa Monica Blvd.", "addr:city": "Santa Monica", "addr:state": "CA", "addr:postcode": 90404, "addr:country": "US", "name": "Santa Monica Cancer Care", "phone": "(310) 829-5471", "website": "https://www.uclahealth.org/locations/santa-monica-cancer-care", "brand": "UCLA Health", "brand:wikidata": "Q18394900"}, "geometry": {"type": "Point", "coordinates": [-118.47938, 34.02887]}},
{"type": "Feature", "id": "kUIeZLDKePgzHVOKya6aVntMXd4=", "properties": {"ref": "125", "@spider": "ucla_health", "addr:full": "2020 Santa Monica Blvd.", "addr:city": "Santa Monica", "addr:state": "CA", "addr:postcode": 90404, "addr:country": "US", "name": "Santa Monica Cardiology", "phone": "(310) 582-6220", "website": "https://www.uclahealth.org/locations/santa-monica-cardiology", "brand": "UCLA Health", "brand:wikidata": "Q18394900"}, "geometry": {"type": "Point", "coordinates": [-118.47938, 34.02887]}},
{"type": "Feature", "id": "ZIIwQUTZm_epBK32Ve-oFfdoI7s=", "properties": {"ref": "132", "@spider": "ucla_health", "addr:full": "1245 16th St.", "addr:city": "Santa Monica", "addr:state": "CA", "addr:postcode": 90404, "addr:country": "US", "name": "Santa Monica Clinical Lab", "phone": "(310) 319-4864", "website": "https://www.uclahealth.org/locations/santa-monica-clinical-lab", "brand": "UCLA Health", "brand:wikidata": "Q18394900"}, "geometry": {"type": "Point", "coordinates": [-118.486152, 34.02775]}},
{"type": "Feature", "id": "O8_LGjSgDGuSGUHcaojsgGY4tb8=", "properties": {"ref": "126", "@spider": "ucla_health", "addr:full": "2001 Santa Monica Blvd.", "addr:city": "Santa Monica", "addr:state": "CA", "addr:postcode": 90404, "addr:country": "US", "name": "Santa Monica Dermatology", "phone": "(310) 917-3376", "website": "https://www.uclahealth.org/locations/santa-monica-dermatology", "brand": "UCLA Health", "brand:wikidata": "Q18394900"}, "geometry": {"type": "Point", "coordinates": [-118.479936, 34.029082]}},
{"type": "Feature", "id": "1pOjCprt7uoqUK3rpS8_1H695vE=", "properties": {"ref": "127", "@spider": "ucla_health", "addr:full": "1246 16th St.", "addr:city": "Santa Monica", "addr:state": "CA", "addr:postcode": 90404, "addr:country": "US", "name": "Santa Monica Diabetes Center", "phone": "(310) 825-7922", "website": "https://www.uclahealth.org/locations/santa-monica-diabetes-center", "brand": "UCLA Health", "brand:wikidata": "Q18394900"}, "geometry": {"type": "Point", "coordinates": [-118.486267, 34.027612]}},
{"type": "Feature", "id": "6wXaivynyrv69uFKtIBbx-s3Y_4=", "properties": {"ref": "128", "@spider": "ucla_health", "addr:full": "1223 16th St.", "addr:city": "Santa Monica", "addr:state": "CA", "addr:postcode": 90404, "addr:country": "US", "name": "Santa Monica Digestive Diseases", "phone": "(310) 582-6240", "website": "https://www.uclahealth.org/locations/santa-monica-digestive-diseases", "brand": "UCLA Health", "brand:wikidata": "Q18394900"}, "geometry": {"type": "Point", "coordinates": [-118.48647, 34.028013]}},
{"type": "Feature", "id": "JbuDpgOMiC32XAG2UCMBNamMRco=", "properties": {"ref": "129", "@spider": "ucla_health", "addr:full": "1131 Wilshire Blvd.", "addr:city": "Santa Monica", "addr:state": "CA", "addr:postcode": 90401, "addr:country": "US", "name": "Santa Monica Head & Neck Surgery", "phone": "(424) 259-6559", "website": "https://www.uclahealth.org/locations/santa-monica-head-neck-surgery", "brand": "UCLA Health", "brand:wikidata": "Q18394900"}, "geometry": {"type": "Point", "coordinates": [-118.496054, 34.020959]}},
{"type": "Feature", "id": "8MlxQNGOWlNK2crkyJEHQPx7YZA=", "properties": {"ref": "130", "@spider": "ucla_health", "addr:full": "1245 16th St.", "addr:city": "Santa Monica", "addr:state": "CA", "addr:postcode": 90404, "addr:country": "US", "name": "Santa Monica Internal Medicine", "phone": "(310) 319-4377", "website": "https://www.uclahealth.org/locations/santa-monica-internal-medicine", "brand": "UCLA Health", "brand:wikidata": "Q18394900"}, "geometry": {"type": "Point", "coordinates": [-118.48546, 34.027477]}},
{"type": "Feature", "id": "vAPnh4qekDxIMPiUNE5o9i3O_zM=", "properties": {"ref": "131", "@spider": "ucla_health", "addr:full": "2020 Santa Monica Blvd.", "addr:city": "Santa Monica", "addr:state": "CA", "addr:postcode": 90404, "addr:country": "US", "name": "Santa Monica Internal Medicine Consultants", "phone": "(310) 582-6200", "website": "https://www.uclahealth.org/internal-medicine-consultants-of-sm", "brand": "UCLA Health", "brand:wikidata": "Q18394900"}, "geometry": {"type": "Point", "coordinates": [-118.479376, 34.028853]}},
{"type": "Feature", "id": "MzbzvXG9grJrcHwic8xr4x92TTI=", "properties": {"ref": "133", "@spider": "ucla_health", "addr:full": "1801 Wilshire Blvd.", "addr:city": "Santa Monica", "addr:state": "CA", "addr:postcode": 90404, "addr:country": "US", "name": "Santa Monica Neurology", "phone": "(310) 319-5098", "website": "https://www.uclahealth.org/locations/santa-monica-neurology", "brand": "UCLA Health", "brand:wikidata": "Q18394900"}, "geometry": {"type": "Point", "coordinates": [-118.475965, 34.037163]}},
{"type": "Feature", "id": "RHqruvpm3jYBY_cWwAKKLf0G6rQ=", "properties": {"ref": "134", "@spider": "ucla_health", "addr:full": "2001 Santa Monica Blvd.", "addr:city": "Santa Monica", "addr:state": "CA", "addr:postcode": 90404, "addr:country": "US", "name": "Santa Monica OBGYN", "phone": "(310) 794-7274", "website": "https://www.uclahealth.org/locations/santa-monica-obgyn", "brand": "UCLA Health", "brand:wikidata": "Q18394900"}, "geometry": {"type": "Point", "coordinates": [-118.47995, 34.02908]}},
{"type": "Feature", "id": "0SfyU9HqeOS2L2UnfHT0mOtw0Ao=", "properties": {"ref": "135", "@spider": "ucla_health", "addr:full": "1245 16th St.", "addr:city": "Santa Monica", "addr:state": "CA", "addr:postcode": 90404, "addr:country": "US", "name": "Santa Monica Outpatient Imaging & Interventional Center", "phone": "(310) 301-6800", "website": "https://www.uclahealth.org/locations/santa-monica-imaging-interventional-center", "brand": "UCLA Health", "brand:wikidata": "Q18394900"}, "geometry": {"type": "Point", "coordinates": [-118.485264, 34.027477]}},
{"type": "Feature", "id": "U4T8xhP9GZpDQR1qcCyKvh6XC-g=", "properties": {"ref": "136", "@spider": "ucla_health", "addr:full": "1223 16th St.", "addr:city": "Santa Monica", "addr:state": "CA", "addr:postcode": 90404, "addr:country": "US", "name": "Santa Monica Outpatient Surgery Center", "phone": "(424) 259-8859", "website": "https://www.uclahealth.org/locations/santa-monica-outpatient-surgery-center", "brand": "UCLA Health", "brand:wikidata": "Q18394900"}, "geometry": {"type": "Point", "coordinates": [-118.48647, 34.028013]}},
{"type": "Feature", "id": "UAaQFZp_i7smDyUjTe0Zc6fjsZA=", "properties": {"ref": "137", "@spider": "ucla_health", "addr:full": "1245 16th St.", "addr:city": "Santa Monica", "addr:state": "CA", "addr:postcode": 90404, "addr:country": "US", "name": "Santa Monica Pain Management", "phone": "(310) 794-1841", "website": "https://www.uclahealth.org/locations/santa-monica-pain-management", "brand": "UCLA Health", "brand:wikidata": "Q18394900"}, "geometry": {"type": "Point", "coordinates": [-118.486152, 34.02775]}},
{"type": "Feature", "id": "Id6543UHnOBg68yj_zSVEkt-NoI=", "properties": {"ref": "138", "@spider": "ucla_health", "addr:full": "2336 Santa Monica Blvd.", "addr:city": "Santa Monica", "addr:state": "CA", "addr:postcode": 90404, "addr:country": "US", "name": "Santa Monica Parkside Cancer Care", "phone": "(310) 998-4747", "website": "https://www.uclahealth.org/locations/santa-monica-parkside-cancer-care", "brand": "UCLA Health", "brand:wikidata": "Q18394900"}, "geometry": {"type": "Point", "coordinates": [-118.47649, 34.0312]}},
{"type": "Feature", "id": "x9LG6h9HhMC13AoNZ1uDpSCFWv0=", "properties": {"ref": "139", "@spider": "ucla_health", "addr:full": "2428 Santa Monica Blvd.", "addr:city": "Santa Monica", "addr:state": "CA", "addr:postcode": 90404, "addr:country": "US", "name": "Santa Monica Parkside Family Medicine", "phone": "(310) 998-5868", "website": "https://www.uclahealth.org/locations/santa-monica-parkside-family-medicine", "brand": "UCLA Health", "brand:wikidata": "Q18394900"}, "geometry": {"type": "Point", "coordinates": [-118.476048, 34.031617]}},
{"type": "Feature", "id": "6lOb4dKa22ftiUEse2qHpkCsUXM=", "properties": {"ref": "140", "@spider": "ucla_health", "addr:full": "1260 15th St.", "addr:city": "Santa Monica", "addr:state": "CA", "addr:postcode": 90404, "addr:country": "US", "name": "Santa Monica Pediatric Specialty Care", "phone": "(424) 259-8570", "website": "https://www.uclahealth.org/locations/santa-monica-pediatric-specialty-care", "brand": "UCLA Health", "brand:wikidata": "Q18394900"}, "geometry": {"type": "Point", "coordinates": [-118.486978, 34.026293]}},
{"type": "Feature", "id": "afXn8CWLHyN0GoDwZsLo1MWl0eI=", "properties": {"ref": "141", "@spider": "ucla_health", "addr:full": "2825 Santa Monica Blvd.", "addr:city": "Santa Monica", "addr:state": "CA", "addr:postcode": 90404, "addr:country": "US", "name": "Santa Monica Pediatrics", "phone": "(310) 829-9935", "website": "https://www.uclahealth.org/locations/santa-monica-pediatrics", "brand": "UCLA Health", "brand:wikidata": "Q18394900"}, "geometry": {"type": "Point", "coordinates": [-118.472052, 34.035651]}},
{"type": "Feature", "id": "RAu64jPTcZDYb5cpvW7FUJq-4R0=", "properties": {"ref": "144", "@spider": "ucla_health", "addr:full": "1223 16th St.", "addr:city": "Santa Monica", "addr:state": "CA", "addr:postcode": 90404, "addr:country": "US", "name": "Santa Monica Pharmacy", "phone": "(310) 206-3784", "website": "https://www.uclahealth.org/locations/santa-monica-pharmacy", "brand": "UCLA Health", "brand:wikidata": "Q18394900"}, "geometry": {"type": "Point", "coordinates": [-118.486473, 34.028011]}},
{"type": "Feature", "id": "EbvLLL01MSallTyZPo-S-xHkJFo=", "properties": {"ref": "143", "@spider": "ucla_health", "addr:full": "2001 Santa Monica Blvd.", "addr:city": "Santa Monica", "addr:state": "CA", "addr:postcode": 90404, "addr:country": "US", "name": "Santa Monica Podiatry", "phone": "(310) 582-1940", "website": "https://www.uclahealth.org/locations/santa-monica-podiatry", "brand": "UCLA Health", "brand:wikidata": "Q18394900"}, "geometry": {"type": "Point", "coordinates": [-118.479936, 34.029082]}},
{"type": "Feature", "id": "eTGz4r5J7ldu4agcmOmQmf4QyJY=", "properties": {"ref": "191", "@spider": "ucla_health", "addr:full": "1223 16th St.", "addr:city": "Santa Monica", "addr:state": "CA", "addr:postcode": 90404, "addr:country": "US", "name": "Santa Monica Radiation Oncology", "phone": "(424) 259-8777", "website": "https://www.uclahealth.org/locations/santa-monica-radiation-oncology", "brand": "UCLA Health", "brand:wikidata": "Q18394900"}, "geometry": {"type": "Point", "coordinates": [-118.48605, 34.02797]}},
{"type": "Feature", "id": "7GQc39SwFb93mNZvbzF-B_dc9gY=", "properties": {"ref": "145", "@spider": "ucla_health", "addr:full": "1260 15th St.", "addr:city": "Santa Monica", "addr:state": "CA", "addr:postcode": 90404, "addr:country": "US", "name": "Santa Monica Urology", "phone": "(310) 794-7700", "website": "https://www.uclahealth.org/locations/santa-monica-urology", "brand": "UCLA Health", "brand:wikidata": "Q18394900"}, "geometry": {"type": "Point", "coordinates": [-118.486978, 34.026293]}},
{"type": "Feature", "id": "vn1jQWGb0z2E0S3OOGwBEBUXimk=", "properties": {"ref": "146", "@spider": "ucla_health", "addr:full": "2424 Wilshire Blvd.", "addr:city": "Santa Monica", "addr:state": "CA", "addr:postcode": 90403, "addr:country": "US", "name": "Santa Monica Wilshire Immediate Care", "phone": "(310) 828-4530", "website": "https://www.uclahealth.org/locations/santa-monica-wilshire-immediate-care", "brand": "UCLA Health", "brand:wikidata": "Q18394900"}, "geometry": {"type": "Point", "coordinates": [-118.479076, 34.034422]}},
{"type": "Feature", "id": "kn_HhyFsmoUbdOgAUWB25X1Wm0M=", "properties": {"ref": "147", "@spider": "ucla_health", "addr:full": "2655 First St.", "addr:city": "Simi Valley", "addr:state": "CA", "addr:postcode": 93065, "addr:country": "US", "name": "Simi Valley Primary & Specialty Care", "phone": "(805) 583-7640", "website": "https://www.uclahealth.org/locations/simi-valley-primary-specialty-care", "brand": "UCLA Health", "brand:wikidata": "Q18394900"}, "geometry": {"type": "Point", "coordinates": [-118.779649, 34.284046]}},
{"type": "Feature", "id": "LNIymMdzf2CEMILp9G-P8zY36jk=", "properties": {"ref": "568", "@spider": "ucla_health", "addr:full": "2755 Alamo St.", "addr:city": "Simi Valley", "addr:state": "CA", "addr:postcode": 93065, "addr:country": "US", "name": "Simi Valley Specialty Care", "phone": "(805) 526-8252", "website": "https://www.uclahealth.org/locations/simi-valley-alamo-specialty-care", "brand": "UCLA Health", "brand:wikidata": "Q18394900"}, "geometry": {"type": "Point", "coordinates": [-118.74296, 34.28678]}},
{"type": "Feature", "id": "U63z3Op71Yi2JdHgy2DWH3ue-vs=", "properties": {"ref": "148", "@spider": "ucla_health", "addr:full": "10833 LeConte Ave.", "addr:city": "Los Angeles", "addr:state": "CA", "addr:postcode": 90095, "addr:country": "US", "name": "Sleep Disorders Center", "phone": "(310) 267-5337", "website": "https://www.uclahealth.org/locations/sleep-disorders-center", "brand": "UCLA Health", "brand:wikidata": "Q18394900"}, "geometry": {"type": "Point", "coordinates": [-118.44258, 34.064055]}},
{"type": "Feature", "id": "KOO3UFPDGSKOpNDtEWKn0gPT0q4=", "properties": {"ref": "149", "@spider": "ucla_health", "addr:full": "1131 Wilshire Blvd.", "addr:city": "Santa Monica", "addr:state": "CA", "addr:postcode": 90401, "addr:country": "US", "name": "Spine Center", "phone": "(310) 319-3475", "website": "https://www.uclahealth.org/locations/spine-center", "brand": "UCLA Health", "brand:wikidata": "Q18394900"}, "geometry": {"type": "Point", "coordinates": [-118.490997, 34.025119]}},
{"type": "Feature", "id": "XgWd2-dTrjoiNKKUrWLJocaPY80=", "properties": {"ref": "150", "@spider": "ucla_health", "addr:full": "150 UCLA Medical Plaza", "addr:city": "Los Angeles", "addr:state": "CA", "addr:postcode": 90095, "addr:country": "US", "name": "Stewart & Lynda Resnick Neuropsychiatric Hospital at UCLA", "phone": "(310) 825-9111", "website": "https://www.uclahealth.org/resnick/", "brand": "UCLA Health", "brand:wikidata": "Q18394900"}, "geometry": {"type": "Point", "coordinates": [-118.446501, 34.066103]}},
{"type": "Feature", "id": "aLASLEmT3vlegCQrmirtiHAOFj8=", "properties": {"ref": "151", "@spider": "ucla_health", "addr:full": "200 UCLA Medical Plaza", "addr:city": "Los Angeles", "addr:state": "CA", "addr:postcode": 90095, "addr:country": "US", "name": "Surgical Thoracic Oncology", "phone": "(310) 825-9775", "website": "https://www.uclahealth.org/locations/surgical-thoracic-oncology", "brand": "UCLA Health", "brand:wikidata": "Q18394900"}, "geometry": {"type": "Point", "coordinates": [-118.446418, 34.065279]}},
{"type": "Feature", "id": "xJURLQJ30dWDyeBm0TRFrMhYV-c=", "properties": {"ref": "582", "@spider": "ucla_health", "addr:full": "248 Hampshire Rd.", "addr:city": "Thousand Oaks", "addr:state": "CA", "addr:postcode": 91361, "addr:country": "US", "name": "Thousand Oaks Hampshire Primary & Specialty Care", "phone": "(805) 370-0040", "website": "https://www.uclahealth.org/locations/thousand-oaks-hampshire-primary-specialty-care", "brand": "UCLA Health", "brand:wikidata": "Q18394900"}, "geometry": {"type": "Point", "coordinates": [-118.83741, 34.164341]}},
{"type": "Feature", "id": "WsxoAVA77cH6MgVYUQLhDkGAfU4=", "properties": {"ref": "152", "@spider": "ucla_health", "addr:full": "2100 Lynn Rd.", "addr:city": "Thousand Oaks", "addr:state": "CA", "addr:postcode": 91360, "addr:country": "US", "name": "Thousand Oaks Neurology", "phone": "(805) 497-4500", "website": "https://www.uclahealth.org/locations/thousand-oaks-neurology", "brand": "UCLA Health", "brand:wikidata": "Q18394900"}, "geometry": {"type": "Point", "coordinates": [-118.886064, 34.206161]}},
{"type": "Feature", "id": "mfd_Q2GPOF38rJShr9jjCITzQU4=", "properties": {"ref": "153", "@spider": "ucla_health", "addr:full": "100 Moody Court", "addr:city": "Thousand Oaks", "addr:state": "CA", "addr:postcode": 91360, "addr:country": "US", "name": "Thousand Oaks Pain Management", "phone": "(805) 418-3444", "website": "https://www.uclahealth.org/locations/thousand-oaks-pain-management", "brand": "UCLA Health", "brand:wikidata": "Q18394900"}, "geometry": {"type": "Point", "coordinates": [-118.865184, 34.17732]}},
{"type": "Feature", "id": "H4uYUz8_CpQbO1fLHKWxpqaE-ME=", "properties": {"ref": "154", "@spider": "ucla_health", "addr:full": "100 Moody Court", "addr:city": "Thousand Oaks", "addr:state": "CA", "addr:postcode": 91360, "addr:country": "US", "name": "Thousand Oaks Primary & Specialty Care", "phone": "(805) 418-3500", "website": "https://www.uclahealth.org/locations/thousand-oaks-primary-specialty-care", "brand": "UCLA Health", "brand:wikidata": "Q18394900"}, "geometry": {"type": "Point", "coordinates": [-118.865184, 34.17732]}},
{"type": "Feature", "id": "tDQOuzpkeyNxa4dDNnQDkbJeaMY=", "properties": {"ref": "155", "@spider": "ucla_health", "addr:full": "3445 Pacific Coast Highway", "addr:city": "Torrance", "addr:state": "CA", "addr:postcode": 90505, "addr:country": "US", "name": "Torrance Cancer Care", "phone": "(310) 325-8252", "website": "https://www.uclahealth.org/locations/torrance-cancer-care", "brand": "UCLA Health", "brand:wikidata": "Q18394900"}, "geometry": {"type": "Point", "coordinates": [-118.350004, 33.804655]}},
{"type": "Feature", "id": "1U52V2SE5VqLyL06Xbbv-qjbWng=", "properties": {"ref": "221", "@spider": "ucla_health", "addr:full": "3500 Lomita Blvd.", "addr:city": "Torrance", "addr:state": "CA", "addr:postcode": 90505, "addr:country": "US", "name": "Torrance Clinical Lab", "phone": "(310) 267-2680", "website": "https://www.uclahealth.org/locations/torrance-clinical-lab", "brand": "UCLA Health", "brand:wikidata": "Q18394900"}, "geometry": {"type": "Point", "coordinates": [-118.32883, 33.80622]}},
{"type": "Feature", "id": "OSh1scJFqf6irsNMg_Z8TMGHa5w=", "properties": {"ref": "156", "@spider": "ucla_health", "addr:full": "3445 Pacific Coast Highway", "addr:city": "Torrance", "addr:state": "CA", "addr:postcode": 90505, "addr:country": "US", "name": "Torrance Endocrinology", "phone": "(310) 542-6333", "website": "https://www.uclahealth.org/locations/torrance-specialty-care", "brand": "UCLA Health", "brand:wikidata": "Q18394900"}, "geometry": {"type": "Point", "coordinates": [-118.345206, 33.802173]}},
{"type": "Feature", "id": "zBou8SYOnXE7T0mgodHv08130eM=", "properties": {"ref": "157", "@spider": "ucla_health", "addr:full": "23550 Hawthorne Blvd.", "addr:city": "Torrance", "addr:state": "CA", "addr:postcode": 90505, "addr:country": "US", "name": "Torrance Head & Neck Surgery", "phone": "(310) 465-2255", "website": "https://www.uclahealth.org/locations/torrance-head-neck-surgery", "brand": "UCLA Health", "brand:wikidata": "Q18394900"}, "geometry": {"type": "Point", "coordinates": [-118.350623, 33.811814]}},
{"type": "Feature", "id": "DhG9xG1ECzAznsXDoG7AhkT11oc=", "properties": {"ref": "160", "@spider": "ucla_health", "addr:full": "3500 Lomita Blvd.", "addr:city": "Torrance", "addr:state": "CA", "addr:postcode": 90505, "addr:country": "US", "name": "Torrance Lomita Boulevard Primary & Specialty Care", "phone": "(310) 257-0028", "website": "https://www.uclahealth.org/locations/torrance-primary-specialty-care", "brand": "UCLA Health", "brand:wikidata": "Q18394900"}, "geometry": {"type": "Point", "coordinates": [-118.346635, 33.813499]}},
{"type": "Feature", "id": "s7uxlAsgBCx7HWajZMQSmkr777o=", "properties": {"ref": "158", "@spider": "ucla_health", "addr:full": "4201 Torrance Blvd.", "addr:city": "Torrance", "addr:state": "CA", "addr:postcode": 90503, "addr:country": "US", "name": "Torrance OBGYN", "phone": "(310) 316-4373", "website": "https://www.uclahealth.org/locations/torrance-obgyn", "brand": "UCLA Health", "brand:wikidata": "Q18394900"}, "geometry": {"type": "Point", "coordinates": [-118.358726, 33.838411]}},
{"type": "Feature", "id": "tlPXNW7EKVe0WyIxet678HlhepQ=", "properties": {"ref": "159", "@spider": "ucla_health", "addr:full": "4201 Torrance Blvd.", "addr:city": "Torrance", "addr:state": "CA", "addr:postcode": 90503, "addr:country": "US", "name": "Torrance Pediatrics", "phone": "(310) 373-4303", "website": "https://www.uclahealth.org/locations/torrance-pediatrics", "brand": "UCLA Health", "brand:wikidata": "Q18394900"}, "geometry": {"type": "Point", "coordinates": [-118.333428, 33.836294]}},
{"type": "Feature", "id": "208ycMPeifO-jFULtuduOTpIQio=", "properties": {"ref": "161", "@spider": "ucla_health", "addr:full": "3701 Skypark Dr.", "addr:city": "Torrance", "addr:state": "CA", "addr:postcode": 90505, "addr:country": "US", "name": "Torrance Skypark Drive Specialty Care", "phone": "(310) 378-8900", "website": "https://www.uclahealth.org/locations/torrance-skypark-specialty-care", "brand": "UCLA Health", "brand:wikidata": "Q18394900"}, "geometry": {"type": "Point", "coordinates": [-118.349356, 33.811875]}},
{"type": "Feature", "id": "6zOdJeWNwbiRlSWxaFnX9tYIXlc=", "properties": {"ref": "162", "@spider": "ucla_health", "addr:full": "2780 Skypark Dr.", "addr:city": "Torrance", "addr:state": "CA", "addr:postcode": 90505, "addr:country": "US", "name": "Torrance Skypark Drive Specialty Care", "phone": "310-265-8422", "website": "https://www.uclahealth.org/torrance/2780-skypark-drive", "brand": "UCLA Health", "brand:wikidata": "Q18394900"}, "geometry": {"type": "Point", "coordinates": [-118.335356, 33.80437]}},
{"type": "Feature", "id": "BHF5TirLRSdiyKWEIkBCh_D7ebw=", "properties": {"ref": "208", "@spider": "ucla_health", "addr:full": "1045 Gayley Ave.", "addr:city": "Los Angeles", "addr:state": "CA", "addr:postcode": 90024, "addr:country": "US", "name": "UCLA Blood & Platelet Center", "phone": "(310) 825-0888", "website": "https://www.uclahealth.org/locations/ucla-blood-platelet-center", "brand": "UCLA Health", "brand:wikidata": "Q18394900"}, "geometry": {"type": "Point", "coordinates": [-118.447506, 34.061071]}},
{"type": "Feature", "id": "eMYaZy5b0piSSkpuCLNfuzLHlpM=", "properties": {"ref": "207", "@spider": "ucla_health", "addr:full": "380 Westwood Plaza", "addr:city": "Los Angeles", "addr:state": "CA", "addr:postcode": 90095, "addr:country": "US", "name": "UCLA Blood and Platelet Center - Ackerman Union", "phone": "(310) 825-0888", "website": "https://www.uclahealth.org/locations/ucla-blood-and-platelet-center-ackerman-union", "brand": "UCLA Health", "brand:wikidata": "Q18394900"}, "geometry": {"type": "Point", "coordinates": [-118.444663, 34.068403]}},
{"type": "Feature", "id": "W-olBTz5d71WQAV4Xjva37myK6M=", "properties": {"ref": "164", "@spider": "ucla_health", "addr:full": "757 Westwood Plaza", "addr:city": "Los Angeles", "addr:state": "CA", "addr:postcode": 90095, "addr:country": "US", "name": "UCLA Mattel Children's Hospital", "phone": "(310) 825-9111", "website": "https://www.uclahealth.org/mattel/", "brand": "UCLA Health", "brand:wikidata": "Q18394900"}, "geometry": {"type": "Point", "coordinates": [-118.446507, 34.066465]}},
{"type": "Feature", "id": "6o_9VtNHo_5KYbHglEv3Wyv9LpA=", "properties": {"ref": "165", "@spider": "ucla_health", "addr:full": "1250 16th St.", "addr:city": "Santa Monica", "addr:state": "CA", "addr:postcode": 90404, "addr:country": "US", "name": "UCLA Santa Monica Medical Center", "phone": "(310) 825-9111", "website": "https://www.uclahealth.org/santa-monica/", "brand": "UCLA Health", "brand:wikidata": "Q18394900"}, "geometry": {"type": "Point", "coordinates": [-118.486333, 34.027213]}},
{"type": "Feature", "id": "-ENKtAZffC5_ZvPDH2PTZSubUrc=", "properties": {"ref": "166", "@spider": "ucla_health", "addr:full": "1807 Wilshire Blvd.", "addr:city": "Santa Monica", "addr:state": "CA", "addr:postcode": 90403, "addr:country": "US", "name": "UCLA Stein Eye Center Santa Monica", "phone": "(310) 829-0160", "website": "https://www.uclahealth.org/locations/ucla-stein-eye-center-santa-monica", "brand": "UCLA Health", "brand:wikidata": "Q18394900"}, "geometry": {"type": "Point", "coordinates": [-118.485159, 34.030415]}},
{"type": "Feature", "id": "JIxZWbkfPKaeFJr_vjU6CvW728A=", "properties": {"ref": "167", "@spider": "ucla_health", "addr:full": "100 Stein Plaza", "addr:city": "Los Angeles", "addr:state": "CA", "addr:postcode": 90095, "addr:country": "US", "name": "UCLA Stein Eye Institute", "phone": "(310) 825-5000", "website": "https://www.uclahealth.org/locations/ucla-stein-eye-institute", "brand": "UCLA Health", "brand:wikidata": "Q18394900"}, "geometry": {"type": "Point", "coordinates": [-118.444543, 34.064512]}},
{"type": "Feature", "id": "l5jQrLNnqkyqcoQ_YfnuCa6AJzk=", "properties": {"ref": "168", "@spider": "ucla_health", "addr:full": "6633 Telephone Rd.", "addr:city": "Ventura", "addr:state": "CA", "addr:postcode": 93003, "addr:country": "US", "name": "Ventura Primary & Specialty Care", "phone": "(805) 642-8252", "website": "https://www.uclahealth.org/locations/ventura-primary-specialty-care", "brand": "UCLA Health", "brand:wikidata": "Q18394900"}, "geometry": {"type": "Point", "coordinates": [-119.204068, 34.266966]}},
{"type": "Feature", "id": "FdHrkYK8XbnXvg1qsh74XfvU70U=", "properties": {"ref": "195", "@spider": "ucla_health", "addr:full": "924 Westwood Blvd.", "addr:city": "Los Angeles", "addr:state": "CA", "addr:postcode": 90024, "addr:country": "US", "name": "Voice Center for Medicine and the Arts", "phone": "(310) 794-8634", "website": "https://www.uclahealth.org/locations/voice-center-medicine-and-arts", "brand": "UCLA Health", "brand:wikidata": "Q18394900"}, "geometry": {"type": "Point", "coordinates": [-118.44495, 34.06308]}},
{"type": "Feature", "id": "mrprsn-FurbLbSP1O148vvTNdKo=", "properties": {"ref": "170", "@spider": "ucla_health", "addr:full": "7320 Woodlake Ave.", "addr:city": "West Hills", "addr:state": "CA", "addr:postcode": 91307, "addr:country": "US", "name": "West Hills Digestive Diseases Procedure Unit", "phone": "(818) 436-7686", "website": "https://www.uclahealth.org/locations/west-hills-digestive-diseases-procedure-unit", "brand": "UCLA Health", "brand:wikidata": "Q18394900"}, "geometry": {"type": "Point", "coordinates": [-118.63196, 34.202766]}},
{"type": "Feature", "id": "k4Sw3D8wWqTxrkZOlZNvaFVS8xY=", "properties": {"ref": "169", "@spider": "ucla_health", "addr:full": "7345 Medical Center Dr.", "addr:city": "West Hills", "addr:state": "CA", "addr:postcode": 91307, "addr:country": "US", "name": "West Hills Primary & Specialty Care", "phone": "(818) 340-8252", "website": "https://www.uclahealth.org/locations/west-hills", "brand": "UCLA Health", "brand:wikidata": "Q18394900"}, "geometry": {"type": "Point", "coordinates": [-118.630648, 34.203631]}},
{"type": "Feature", "id": "3XKgqykY54m3jTiPLXEX9jAAJrE=", "properties": {"ref": "171", "@spider": "ucla_health", "addr:full": "11318 National Blvd.", "addr:city": "Los Angeles", "addr:state": "CA", "addr:postcode": 90064, "addr:country": "US", "name": "West LA Pediatrics", "phone": "(310) 231-9150", "website": "https://www.uclahealth.org/locations/west-la-pediatrics", "brand": "UCLA Health", "brand:wikidata": "Q18394900"}, "geometry": {"type": "Point", "coordinates": [-118.431942, 34.025621]}},
{"type": "Feature", "id": "eKvRqg2iPVQ26D7pLZE2Litq0PY=", "properties": {"ref": "172", "@spider": "ucla_health", "addr:full": "1010 Veteran Ave.", "addr:city": "Los Angeles", "addr:state": "CA", "addr:postcode": 90095, "addr:country": "US", "name": "West Medical OBGYN", "phone": "(310) 825-7955", "website": "https://www.uclahealth.org/locations/west-medical-obgyn", "brand": "UCLA Health", "brand:wikidata": "Q18394900"}, "geometry": {"type": "Point", "coordinates": [-118.447833, 34.060523]}},
{"type": "Feature", "id": "GyyZywLM1HbIN6RneY23kR5eR20=", "properties": {"ref": "173", "@spider": "ucla_health", "addr:full": "11303 Washington Blvd.", "addr:city": "Los Angeles", "addr:state": "CA", "addr:postcode": 90066, "addr:country": "US", "name": "West Washington Internal Medicine", "phone": "(310) 391-7281", "website": "https://www.uclahealth.org/locations/west-washington-internal-medicine", "brand": "UCLA Health", "brand:wikidata": "Q18394900"}, "geometry": {"type": "Point", "coordinates": [-118.415057, 34.004205]}},
{"type": "Feature", "id": "13tPJibq5W88_w3deyLzUaGZQkw=", "properties": {"ref": "174", "@spider": "ucla_health", "addr:full": "1250 La Venta Dr.", "addr:city": "Westlake Village", "addr:state": "CA", "addr:postcode": 91361, "addr:country": "US", "name": "Westlake Village Cancer Care", "phone": "(805) 496-5153", "website": "https://www.uclahealth.org/locations/westlake-village-cancer-care", "brand": "UCLA Health", "brand:wikidata": "Q18394900"}, "geometry": {"type": "Point", "coordinates": [-118.82233, 34.14807]}},
{"type": "Feature", "id": "jPxp1uFnx64ZpA0nqSYVlxHRXaw=", "properties": {"ref": "175", "@spider": "ucla_health", "addr:full": "1250 La Venta Dr.", "addr:city": "Westlake Village", "addr:state": "CA", "addr:postcode": 91361, "addr:country": "US", "name": "Westlake Village Clinical Lab", "phone": "(310) 267-2680", "website": "https://www.uclahealth.org/locations/westlake-village-clinical-lab", "brand": "UCLA Health", "brand:wikidata": "Q18394900"}, "geometry": {"type": "Point", "coordinates": [-118.822201, 34.148082]}},
{"type": "Feature", "id": "niCktgSrW9EvSWCutFBdh9DQQEk=", "properties": {"ref": "176", "@spider": "ucla_health", "addr:full": "32144 Agoura Rd.", "addr:city": "Westlake Village", "addr:state": "CA", "addr:postcode": 91361, "addr:country": "US", "name": "Westlake Village OBGYN", "phone": "(805) 557-7180", "website": "https://www.uclahealth.org/locations/westlake-village-obgyn", "brand": "UCLA Health", "brand:wikidata": "Q18394900"}, "geometry": {"type": "Point", "coordinates": [-118.8211, 34.14794]}},
{"type": "Feature", "id": "Y4S6vDiSfj4LlyK0_XsYS21Hm4Y=", "properties": {"ref": "177", "@spider": "ucla_health", "addr:full": "1250 La Venta Dr.", "addr:city": "Westlake Village", "addr:state": "CA", "addr:postcode": 91361, "addr:country": "US", "name": "Westlake Village Pediatrics", "phone": "(805) 557-7187", "website": "https://www.uclahealth.org/locations/westlake-village-pediatrics", "brand": "UCLA Health", "brand:wikidata": "Q18394900"}, "geometry": {"type": "Point", "coordinates": [-118.822327, 34.148071]}},
{"type": "Feature", "id": "w176oA2JPp9uy6-knthMdo3Z354=", "properties": {"ref": "178", "@spider": "ucla_health", "addr:full": "1250 La Venta Dr.", "addr:city": "Westlake Village", "addr:state": "CA", "addr:postcode": 91361, "addr:country": "US", "name": "Westlake Village Primary & Specialty Care, 1250 La Venta Dr.", "phone": "(805) 494-6920", "website": "https://www.uclahealth.org/locations/westlake-village-primary-specialty-care", "brand": "UCLA Health", "brand:wikidata": "Q18394900"}, "geometry": {"type": "Point", "coordinates": [-118.822122, 34.148186]}},
{"type": "Feature", "id": "zt1xBsfqVbTgSFo5f0t_ZIuPRsM=", "properties": {"ref": "545", "@spider": "ucla_health", "addr:full": "141 Triunfo Canyon Rd.", "addr:city": "Westlake Village", "addr:state": "CA", "addr:postcode": 91361, "addr:country": "US", "name": "Westlake Village Triunfo Primary & Specialty Care", "phone": "(805) 371-1393", "website": "https://www.uclahealth.org/locations/westlake-village-triunfo-primary-specialty-care", "brand": "UCLA Health", "brand:wikidata": "Q18394900"}, "geometry": {"type": "Point", "coordinates": [-118.83479, 34.15991]}},
{"type": "Feature", "id": "5WvFxD59rpsYfWZBnCgqs7fDl_s=", "properties": {"ref": "542", "@spider": "ucla_health", "addr:full": "30700 Russell Ranch Rd.", "addr:city": "Westlake Village", "addr:state": "CA", "addr:postcode": 91362, "addr:country": "US", "name": "Westlake Village Women's Imaging Center", "phone": "(818) 661-6570", "website": "https://www.uclahealth.org/locations/westlake-village-womens-imaging-center", "brand": "UCLA Health", "brand:wikidata": "Q18394900"}, "geometry": {"type": "Point", "coordinates": [-118.79327, 34.14985]}},
{"type": "Feature", "id": "NGEFa7fXxss7iVrBoO0kxKpI4Go=", "properties": {"ref": "179", "@spider": "ucla_health", "addr:full": "200 UCLA Medical Plaza", "addr:city": "Los Angeles", "addr:state": "CA", "addr:postcode": 90095, "addr:country": "US", "name": "Westwood Ambulatory Surgery Center", "phone": "(310) 794-1106", "website": "https://www.uclahealth.org/locations/westwood-ambulatory-surgery-center", "brand": "UCLA Health", "brand:wikidata": "Q18394900"}, "geometry": {"type": "Point", "coordinates": [-118.446418, 34.065279]}},
{"type": "Feature", "id": "ZhGmzvsUy7vQToLXIZE2cWGRV4Q=", "properties": {"ref": "180", "@spider": "ucla_health", "addr:full": "100 UCLA Medical Plaza", "addr:city": "Los Angeles", "addr:state": "CA", "addr:postcode": 90095, "addr:country": "US", "name": "Westwood Cancer Care", "phone": "(310) 794-4955", "website": "https://www.uclahealth.org/locations/westwood-cancer-care", "brand": "UCLA Health", "brand:wikidata": "Q18394900"}, "geometry": {"type": "Point", "coordinates": [-118.445779, 34.065615]}},
{"type": "Feature", "id": "SnaVJDfUTY4zgj9OHTawe479PeI=", "properties": {"ref": "187", "@spider": "ucla_health", "addr:full": "100 UCLA Medical Plaza", "addr:city": "Los Angeles", "addr:state": "CA", "addr:postcode": 90095, "addr:country": "US", "name": "Westwood Clinical Lab, 100 Medical Plaza", "phone": "(310) 267-3211", "website": "https://www.uclahealth.org/locations/westwood-clinical-lab-100-medical-plaza", "brand": "UCLA Health", "brand:wikidata": "Q18394900"}, "geometry": {"type": "Point", "coordinates": [-118.445759, 34.065611]}},
{"type": "Feature", "id": "7SR5KZKxViut5R2FN63PPeu6I-A=", "properties": {"ref": "188", "@spider": "ucla_health", "addr:full": "200 UCLA Medical Plaza", "addr:city": "Los Angeles", "addr:state": "CA", "addr:postcode": 90095, "addr:country": "US", "name": "Westwood Clinical Lab, 200 Medical Plaza", "phone": "(310) 267-8100", "website": "https://www.uclahealth.org/locations/westwood-clinical-lab-200-medical-plaza", "brand": "UCLA Health", "brand:wikidata": "Q18394900"}, "geometry": {"type": "Point", "coordinates": [-118.446457, 34.065214]}},
{"type": "Feature", "id": "LtDKWnltwy7BJUyVoKM3miLy8is=", "properties": {"ref": "204", "@spider": "ucla_health", "addr:full": "100 UCLA Medical Plaza", "addr:city": "Los Angeles", "addr:state": "CA", "addr:postcode": 90095, "addr:country": "US", "name": "Westwood Imaging Center & Interventional Radiology Clinic", "phone": "(310) 301-6800", "website": "https://www.uclahealth.org/locations/100-medical-plaza", "brand": "UCLA Health", "brand:wikidata": "Q18394900"}, "geometry": {"type": "Point", "coordinates": [-118.446044, 34.064437]}},
{"type": "Feature", "id": "m5G7eB0t3__Z6BxzPmjQ_ERCIgk=", "properties": {"ref": "205", "@spider": "ucla_health", "addr:full": "200 UCLA Medical Plaza", "addr:city": "Los Angeles", "addr:state": "CA", "addr:postcode": 90095, "addr:country": "US", "name": "Westwood Imaging Center & Iris Cantor Breast Imaging Center", "phone": "(310) 301-6800", "website": "https://www.uclahealth.org/locations/200-medical-plaza", "brand": "UCLA Health", "brand:wikidata": "Q18394900"}, "geometry": {"type": "Point", "coordinates": [-118.446457, 34.065214]}},
{"type": "Feature", "id": "nVrnCMIzHTX18PmFcFLeVefnfTE=", "properties": {"ref": "182", "@spider": "ucla_health", "addr:full": "300 UCLA Medical Plaza", "addr:city": "Los Angeles", "addr:state": "CA", "addr:postcode": 90095, "addr:country": "US", "name": "Westwood Neurology", "phone": "(310) 794-1195", "website": "https://www.uclahealth.org/locations/westwood-neurology", "brand": "UCLA Health", "brand:wikidata": "Q18394900"}, "geometry": {"type": "Point", "coordinates": [-118.446133, 34.064287]}},
{"type": "Feature", "id": "c3_49JwkkYk0GLrzLdJNGWA7Axg=", "properties": {"ref": "183", "@spider": "ucla_health", "addr:full": "200 UCLA Medical Plaza", "addr:city": "Los Angeles", "addr:state": "CA", "addr:postcode": 90095, "addr:country": "US", "name": "Westwood OBGYN", "phone": "(310) 794-7274", "website": "https://www.uclahealth.org/locations/westwood-obgyn", "brand": "UCLA Health", "brand:wikidata": "Q18394900"}, "geometry": {"type": "Point", "coordinates": [-118.446418, 34.065279]}},
{"type": "Feature", "id": "TaPAM0xu0oS_26iLbzb_UoBHPoI=", "properties": {"ref": "184", "@spider": "ucla_health", "addr:full": "200 UCLA Medical Plaza", "addr:city": "Los Angeles", "addr:state": "CA", "addr:postcode": 90095, "addr:country": "US", "name": "Westwood Pediatrics", "phone": "(310) 825-0867", "website": "https://www.uclahealth.org/locations/westwood-pediatrics", "brand": "UCLA Health", "brand:wikidata": "Q18394900"}, "geometry": {"type": "Point", "coordinates": [-118.446418, 34.065279]}},
{"type": "Feature", "id": "izmYnLY2EKQ6yvWXhEdNn_zCntg=", "properties": {"ref": "209", "@spider": "ucla_health", "addr:full": "200 UCLA Medical Plaza", "addr:city": "Los Angeles", "addr:state": "CA", "addr:postcode": 90095, "addr:country": "US", "name": "Westwood Radiation Oncology", "phone": "(310) 825-9775", "website": "https://www.uclahealth.org/locations/westwood-radiation-oncology", "brand": "UCLA Health", "brand:wikidata": "Q18394900"}, "geometry": {"type": "Point", "coordinates": [-118.446457, 34.065214]}},
{"type": "Feature", "id": "FaM5RYyPdjY6BwuwJuyjrK6YxSk=", "properties": {"ref": "185", "@spider": "ucla_health", "addr:full": "200 UCLA Medical Plaza", "addr:city": "Los Angeles", "addr:state": "CA", "addr:postcode": 90095, "addr:country": "US", "name": "Westwood Specialty Care", "phone": "(800) 825-2631", "website": "https://www.uclahealth.org/locations/westwood-specialty-care", "brand": "UCLA Health", "brand:wikidata": "Q18394900"}, "geometry": {"type": "Point", "coordinates": [-118.446418, 34.065279]}},
{"type": "Feature", "id": "KYcpWxj_Eb-E24jjL8B0wpl1fMc=", "properties": {"ref": "186", "@spider": "ucla_health", "addr:full": "200 UCLA Medical Plaza", "addr:city": "Los Angeles", "addr:state": "CA", "addr:postcode": 90095, "addr:country": "US", "name": "Westwood Urology", "phone": "(310) 794-7700", "website": "https://www.uclahealth.org/locations/westwood-urology", "brand": "UCLA Health", "brand:wikidata": "Q18394900"}, "geometry": {"type": "Point", "coordinates": [-118.4466, 34.06519]}},
{"type": "Feature", "id": "CJUNTaxrEbJ804AAqlhOSXXGEAo=", "properties": {"ref": "222", "@spider": "ucla_health", "addr:full": "6344 Topanga Canyon Blvd.", "addr:city": "Woodland Hills", "addr:state": "CA", "addr:postcode": 91367, "addr:country": "US", "name": "Woodland Hills Clinical Lab", "phone": "(310) 267-2680", "website": "https://www.uclahealth.org/locations/woodland-hills-clinical-lab", "brand": "UCLA Health", "brand:wikidata": "Q18394900"}, "geometry": {"type": "Point", "coordinates": [-118.605782, 34.185699]}},
{"type": "Feature", "id": "qpDkMDksGFCwU3DyHo5Kiudihhg=", "properties": {"ref": "189", "@spider": "ucla_health", "addr:full": "6344 Topanga Canyon Blvd.", "addr:city": "Woodland Hills", "addr:state": "CA", "addr:postcode": 91367, "addr:country": "US", "name": "Woodland Hills Family Medicine, Internal Medicine & Pediatrics", "phone": "(818) 610-0292", "website": "https://www.uclahealth.org/locations/woodland-hills", "brand": "UCLA Health", "brand:wikidata": "Q18394900"}, "geometry": {"type": "Point", "coordinates": [-118.604773, 34.186189]}}]}