{"type":"FeatureCollection","features":[{"type": "Feature", "id": "2xxNssRUawp_Vrr5xi4ahkVK5nQ=", "properties": {"ref": "58", "@spider": "under_armour", "addr:street_address": "100 Citadel Drive", "addr:city": "Commerce", "addr:state": "CA", "addr:postcode": "90040", "addr:country": "US", "name": "Under Armour Factory House", "phone": "323-728-1520", "website": "https://store-locations.underarmour.com/ca/commerce/58", "image": "https://store-locations.underarmour.com/images/store-img.jpg", "brand": "Under Armour", "brand:wikidata": "Q2031485"}, "geometry": {"type": "Point", "coordinates": [-118.1529537, 34.0063385]}},
{"type": "Feature", "id": "e7IPb3sxpWmSVbvy6cWVU3FJEs8=", "properties": {"ref": "CARLS-5620PDNS10", "@spider": "under_armour", "addr:street_address": "5620 Paseo Del Norte", "addr:city": "Carlsbad", "addr:state": "CA", "addr:postcode": "92008", "addr:country": "US", "name": "Under Armour Factory House", "phone": "442-232-2216", "website": "https://store-locations.underarmour.com/ca/carlsbad/CARLS-5620PDNS10", "image": "https://store-locations.underarmour.com/images/store-img.jpg", "brand": "Under Armour", "brand:wikidata": "Q2031485"}, "geometry": {"type": "Point", "coordinates": [-117.3175914, 33.1229539]}},
{"type": "Feature", "id": "mNwDp3xHZ-8uhuoxPgdeyBD2CT0=", "properties": {"ref": "UAFH-740EVBS133", "@spider": "under_armour", "addr:street_address": "950 Camarillo Center Drive", "addr:city": "Camarillo", "addr:state": "CA", "addr:postcode": "93010", "addr:country": "US", "name": "Under Armour Factory House", "phone": "805-445-1238", "website": "https://store-locations.underarmour.com/ca/camarillo/UAFH-740EVBS133", "image": "https://underarmour.scene7.com/is/image/Underarmour/StoreFront_FactoryHouse2?fmt=jpg", "brand": "Under Armour", "brand:wikidata": "Q2031485"}, "geometry": {"type": "Point", "coordinates": [-119.0573173, 34.214021]}},
{"type": "Feature", "id": "5KF1LZJg_NuuDlD0vcPk9-E3EE0=", "properties": {"ref": "78", "@spider": "under_armour", "addr:street_address": "48750 Seminole Drive", "addr:city": "Cabazon", "addr:state": "CA", "addr:postcode": "92230-2142", "addr:country": "US", "name": "Under Armour Factory House", "phone": "951-849-5240", "website": "https://store-locations.underarmour.com/ca/cabazon/78", "image": "https://store-locations.underarmour.com/images/store-img.jpg", "brand": "Under Armour", "brand:wikidata": "Q2031485"}, "geometry": {"type": "Point", "coordinates": [-116.810667, 33.9252914]}},
{"type": "Feature", "id": "vLyziWjCULIxKs4WbyQjB548tjM=", "properties": {"ref": "UAFH-5000CPWT", "@spider": "under_armour", "addr:street_address": "5000 Canoe Pass Way", "addr:city": "Tsawwassen", "addr:postcode": "V4M 0B3", "addr:country": "CA", "name": "Under Armour Factory House", "phone": "604-382-5024", "website": "https://store-locations.underarmour.com/bc/tsawwassen/UAFH-5000CPWT", "image": "https://store-locations.underarmour.com/images/store-img.jpg", "brand": "Under Armour", "brand:wikidata": "Q2031485"}, "geometry": {"type": "Point", "coordinates": [-123.0853445, 49.0378831]}},
{"type": "Feature", "id": "0MtLxyTJSA7B_E_wlpFDk8CdkvY=", "properties": {"ref": "UAFH-7899TSRS93", "@spider": "under_armour", "addr:street_address": "7899 Templeton Station Road", "addr:city": "Richmond", "addr:postcode": "V7B 0B7", "addr:country": "CA", "name": "Under Armour Factory House", "phone": "604-295-8511", "website": "https://store-locations.underarmour.com/bc/richmond/UAFH-7899TSRS93", "image": "https://store-locations.underarmour.com/images/store-img.jpg", "brand": "Under Armour", "brand:wikidata": "Q2031485"}, "geometry": {"type": "Point", "coordinates": [-123.15014, 49.19684]}},
{"type": "Feature", "id": "Cue1_R4_opE9VJNW1WQO8iqC6TI=", "properties": {"ref": "UAFH-20070LBSAL", "@spider": "under_armour", "addr:street_address": "20070 Langley Bypass", "addr:city": "Langley", "addr:postcode": "V3A9J8", "addr:country": "CA", "name": "Under Armour Factory House", "phone": "604-530-6643", "website": "https://store-locations.underarmour.com/bc/langley/UAFH-20070LBSAL", "image": "https://store-locations.underarmour.com/images/store-img.jpg", "brand": "Under Armour", "brand:wikidata": "Q2031485"}, "geometry": {"type": "Point", "coordinates": [-122.6677375, 49.1118918]}},
{"type": "Feature", "id": "jLKb_CjcOeY0EkFx88kM5RQKIdQ=", "properties": {"ref": "UAFH-6401WMCBS5", "@spider": "under_armour", "addr:street_address": "6401 West Marana Center Blvd.", "addr:city": "Marana", "addr:state": "AZ", "addr:postcode": "85742", "addr:country": "US", "name": "Under Armour Factory House", "phone": "520-988-3915", "website": "https://store-locations.underarmour.com/az/marana/UAFH-6401WMCBS5", "image": "https://store-locations.underarmour.com/images/store-img.jpg", "brand": "Under Armour", "brand:wikidata": "Q2031485"}, "geometry": {"type": "Point", "coordinates": [-111.101928, 32.3755531]}},
{"type": "Feature", "id": "5A6fmqEN-ArU_dgqH83fZ2iAOp0=", "properties": {"ref": "UASCS-6800N95AS8", "@spider": "under_armour", "addr:street_address": "6800 N 95 Ave", "addr:city": "Glendale", "addr:state": "AZ", "addr:postcode": "85305", "addr:country": "US", "name": "Under Armour Factory House", "phone": "623-772-5559", "website": "https://store-locations.underarmour.com/az/glendale/UASCS-6800N95AS8", "image": "https://store-locations.underarmour.com/images/store-img.jpg", "brand": "Under Armour", "brand:wikidata": "Q2031485"}, "geometry": {"type": "Point", "coordinates": [-112.2662511, 33.5353033]}},
{"type": "Feature", "id": "YuYFhsV7agmYB6so4abH0Yi8L90=", "properties": {"ref": "UAFH-4976POWCA", "@spider": "under_armour", "addr:street_address": "4976 Premium Outlets Way", "addr:city": "Chandler", "addr:state": "AZ", "addr:postcode": "85226", "addr:country": "US", "name": "Under Armour Factory House", "phone": "480-564-2600", "website": "https://store-locations.underarmour.com/az/chandler/UAFH-4976POWCA", "image": "https://store-locations.underarmour.com/images/store-img.jpg", "brand": "Under Armour", "brand:wikidata": "Q2031485"}, "geometry": {"type": "Point", "coordinates": [-111.9735812, 33.2869949]}},
{"type": "Feature", "id": "UtnYPBRrRjE_4ehKVpxK6XN6KtI=", "properties": {"ref": "33", "@spider": "under_armour", "addr:street_address": "4250 West Anthem Way", "addr:city": "Anthem", "addr:state": "AZ", "addr:postcode": "85086", "addr:country": "US", "name": "Under Armour Factory House", "phone": "623-465-4707", "website": "https://store-locations.underarmour.com/az/anthem/33", "image": "https://store-locations.underarmour.com/images/store-img.jpg", "brand": "Under Armour", "brand:wikidata": "Q2031485"}, "geometry": {"type": "Point", "coordinates": [-112.1493089, 33.8734499]}},
{"type": "Feature", "id": "HpTyQFPBfTyX_PaoFNQTBsqoxRA=", "properties": {"ref": "UAFH-11201BPPSG", "@spider": "under_armour", "addr:street_address": "11201 Bass Pro Parkway", "addr:city": "Little Rock", "addr:state": "AR", "addr:postcode": "72210", "addr:country": "US", "name": "Under Armour Factory House", "phone": "501-455-0019", "website": "https://store-locations.underarmour.com/ar/little-rock/UAFH-11201BPPSG", "image": "https://store-locations.underarmour.com/images/store-img.jpg", "brand": "Under Armour", "brand:wikidata": "Q2031485"}, "geometry": {"type": "Point", "coordinates": [-92.4069774, 34.6602619]}},
{"type": "Feature", "id": "6ILkK2H78tuHeQkBXoc6C9GTQR8=", "properties": {"ref": "UAFH-2601SMSS40", "@spider": "under_armour", "addr:street_address": "2601 S. McKenzie St", "addr:city": "Foley", "addr:state": "AL", "addr:postcode": "36535", "addr:country": "US", "name": "Under Armour Factory House", "phone": "251-943-9357", "website": "https://store-locations.underarmour.com/al/foley/UAFH-2601SMSS40", "image": "https://store-locations.underarmour.com/images/store-img.jpg", "brand": "Under Armour", "brand:wikidata": "Q2031485"}, "geometry": {"type": "Point", "coordinates": [-87.6797877, 30.3757446]}},
{"type": "Feature", "id": "sC1YFpalKlE2nSESoYOwMWPrjr4=", "properties": {"ref": "WESTE-8882170SNU", "@spider": "under_armour", "addr:street_address": "8882 170 St NW, Unit L215", "addr:city": "West Edmonton", "addr:postcode": "T5T 4J2", "addr:country": "CA", "name": "Under Armour Brand House", "phone": "780-444-2039", "website": "https://store-locations.underarmour.com/ab/west-edmonton/WESTE-8882170SNU", "image": "https://store-locations.underarmour.com/images/store-img.jpg", "brand": "Under Armour", "brand:wikidata": "Q2031485"}, "geometry": {"type": "Point", "coordinates": [-113.6188774, 53.5213782]}},
{"type": "Feature", "id": "VsSrAdSp07eFD0fuCPhrsvRt-uo=", "properties": {"ref": "FHACM-261055CBS2", "@spider": "under_armour", "addr:street_address": "261055 Crossiron Blvd", "addr:city": "Rocky View", "addr:postcode": "T4A 0G3", "addr:country": "CA", "name": "Under Armour Factory House", "phone": "403-454-5547", "website": "https://store-locations.underarmour.com/ab/rocky-view/FHACM-261055CBS2", "image": "https://store-locations.underarmour.com/images/store-img.jpg", "brand": "Under Armour", "brand:wikidata": "Q2031485"}, "geometry": {"type": "Point", "coordinates": [-113.989596520742, 51.2030610279929]}},
{"type": "Feature", "id": "i9z3RR7CzkIA0djhRX_pQD01rYA=", "properties": {"ref": "UAFH-1OCWS125E", "@spider": "under_armour", "addr:street_address": "#1 Outlet Collection Way", "addr:city": "Edmonton", "addr:postcode": "T9E 1J5", "addr:country": "CA", "name": "Under Armour Factory House", "phone": "780-890-7705", "website": "https://store-locations.underarmour.com/ab/edmonton/UAFH-1OCWS125E", "image": "https://store-locations.underarmour.com/images/store-img.jpg", "brand": "Under Armour", "brand:wikidata": "Q2031485"}, "geometry": {"type": "Point", "coordinates": [-113.4909267, 53.544389]}},
{"type": "Feature", "id": "xM-dBflJss4im5b-aQSrSMgf2aA=", "properties": {"ref": "19", "@spider": "under_armour", "addr:street_address": "11211 120th Ave.", "addr:city": "Pleasant Prairie", "addr:state": "WI", "addr:postcode": "53158", "addr:country": "US", "name": "Under Armour Factory House", "phone": "262-891-4400", "website": "https://store-locations.underarmour.com/wi/pleasant-prairie/19", "image": "https://store-locations.underarmour.com/images/store-img.jpg", "brand": "Under Armour", "brand:wikidata": "Q2031485"}, "geometry": {"type": "Point", "coordinates": [-87.9488737, 42.5180341]}},
{"type": "Feature", "id": "6WCfFcFUIZ68PHOBu1A_0CVpnG8=", "properties": {"ref": "52", "@spider": "under_armour", "addr:street_address": "3001 S. Washburn Street", "addr:city": "Oshkosh", "addr:state": "WI", "addr:postcode": "54904", "addr:country": "US", "name": "Under Armour Factory House", "phone": "920-303-2018", "website": "https://store-locations.underarmour.com/wi/oshkosh/52", "image": "https://store-locations.underarmour.com/images/store-img.jpg", "brand": "Under Armour", "brand:wikidata": "Q2031485"}, "geometry": {"type": "Point", "coordinates": [-88.5852577, 43.9835006]}},
{"type": "Feature", "id": "ZLGNSCWeCchjpmtdG-PtBisNxO4=", "properties": {"ref": "60", "@spider": "under_armour", "addr:street_address": "612 West Linmar Lane", "addr:city": "Johnson Creek", "addr:state": "WI", "addr:postcode": "53038", "addr:country": "US", "name": "Under Armour Factory House", "phone": "(920)541-4064", "website": "https://store-locations.underarmour.com/wi/johnson-creek/60", "image": "https://store-locations.underarmour.com/images/store-img.jpg", "brand": "Under Armour", "brand:wikidata": "Q2031485"}, "geometry": {"type": "Point", "coordinates": [-88.7633034, 43.0907308]}},
{"type": "Feature", "id": "guGnG5azHH-Q7__G21csMn8mLes=", "properties": {"ref": "71", "@spider": "under_armour", "addr:street_address": "210 Gasser Rd", "addr:city": "Baraboo", "addr:state": "WI", "addr:postcode": "53913", "addr:country": "US", "name": "Under Armour Factory House", "phone": "608-253-7130", "website": "https://store-locations.underarmour.com/wi/baraboo/71", "image": "https://store-locations.underarmour.com/images/store-img.jpg", "brand": "Under Armour", "brand:wikidata": "Q2031485"}, "geometry": {"type": "Point", "coordinates": [-89.781345, 43.446017]}},
{"type": "Feature", "id": "-mn-n901Lg1tuTMkc_dU2lLkHto=", "properties": {"ref": "54", "@spider": "under_armour", "addr:street_address": "10600 Quil Ceda Blvd.", "addr:city": "Tulalip", "addr:state": "WA", "addr:postcode": "98271", "addr:country": "US", "name": "Under Armour Factory House", "phone": "360-657-3324", "website": "https://store-locations.underarmour.com/wa/tulalip/54", "image": "https://store-locations.underarmour.com/images/store-img.jpg", "brand": "Under Armour", "brand:wikidata": "Q2031485"}, "geometry": {"type": "Point", "coordinates": [-122.1890946, 48.0927799]}},
{"type": "Feature", "id": "UvSBvJWDhEsByCX_GfZsgWmxA8s=", "properties": {"ref": "65", "@spider": "under_armour", "addr:street_address": "461 South Fork Ave. SW", "addr:city": "North Bend", "addr:state": "WA", "addr:postcode": "98045", "addr:country": "US", "name": "Under Armour Factory House", "phone": "425-831-1240", "website": "https://store-locations.underarmour.com/wa/north-bend/65", "image": "https://store-locations.underarmour.com/images/store-img.jpg", "brand": "Under Armour", "brand:wikidata": "Q2031485"}, "geometry": {"type": "Point", "coordinates": [-121.7948229, 47.4919834]}},
{"type": "Feature", "id": "22YM9b7xvdWbtFgOSy36t9RRb3o=", "properties": {"ref": "86", "@spider": "under_armour", "addr:street_address": "1303 Lum Rd.", "addr:city": "Centralia", "addr:state": "WA", "addr:postcode": "98531", "addr:country": "US", "name": "Under Armour Clearance House", "phone": "360-736-0162", "website": "https://store-locations.underarmour.com/wa/centralia/86", "image": "https://store-locations.underarmour.com/images/store-img.jpg", "brand": "Under Armour", "brand:wikidata": "Q2031485"}, "geometry": {"type": "Point", "coordinates": [-122.9779809, 46.7307094]}},
{"type": "Feature", "id": "1YQRN_-ovCIafFg-iZlkShWblkQ=", "properties": {"ref": "55", "@spider": "under_armour", "addr:street_address": "2700 Potomac Mills Circle", "addr:city": "Woodbridge", "addr:state": "VA", "addr:postcode": "22192", "addr:country": "US", "name": "Under Armour Factory House", "phone": "703-490-5750", "website": "https://store-locations.underarmour.com/va/woodbridge/55", "image": "https://store-locations.underarmour.com/images/store-img.jpg", "brand": "Under Armour", "brand:wikidata": "Q2031485"}, "geometry": {"type": "Point", "coordinates": [-77.2961829, 38.6433621]}},
{"type": "Feature", "id": "dUpA9oEVLhL0kfAY174HyIRWflk=", "properties": {"ref": "4", "@spider": "under_armour", "addr:street_address": "5715 Richmond Road", "addr:city": "Williamsburg", "addr:state": "VA", "addr:postcode": "23188", "addr:country": "US", "name": "Under Armour Factory House", "phone": "757-259-0166", "website": "https://store-locations.underarmour.com/va/williamsburg/4", "image": "https://store-locations.underarmour.com/images/store-img.jpg", "brand": "Under Armour", "brand:wikidata": "Q2031485"}, "geometry": {"type": "Point", "coordinates": [-76.7369233, 37.3206066]}},
{"type": "Feature", "id": "I0pnLll449uNEhiirXhKOSX4lOc=", "properties": {"ref": "UBHTC-7977TCTCV", "@spider": "under_armour", "addr:street_address": "7977 Tysons Corner Center", "addr:city": "Tysons Corner", "addr:state": "VA", "addr:postcode": "22102", "addr:country": "US", "name": "Under Armour Brand House", "phone": "703-356-0954", "website": "https://store-locations.underarmour.com/va/tysons-corner/UBHTC-7977TCTCV", "image": "http://hosted.where2getit.com/underarmour/images/storefronts/Tysons.png", "brand": "Under Armour", "brand:wikidata": "Q2031485"}, "geometry": {"type": "Point", "coordinates": [-77.2220859, 38.9178791]}},
{"type": "Feature", "id": "JqHMViu8ykZst2LxovgF4KHnmpc=", "properties": {"ref": "256", "@spider": "under_armour", "addr:street_address": "1600 Premium Outlets Blvd", "addr:city": "Norfolk", "addr:state": "VA", "addr:postcode": "23502", "addr:country": "US", "name": "Under Armour Factory House", "phone": "(757) 447-0011", "website": "https://store-locations.underarmour.com/va/norfolk/256", "image": "https://store-locations.underarmour.com/images/store-img.jpg", "brand": "Under Armour", "brand:wikidata": "Q2031485"}, "geometry": {"type": "Point", "coordinates": [-76.2004048, 36.8819171]}},
{"type": "Feature", "id": "aNLhy5hrWSxqMgARyQqk6JSQOw0=", "properties": {"ref": "3", "@spider": "under_armour", "addr:street_address": "241 Fort Evans Road N.E.", "addr:city": "Leesburg", "addr:state": "VA", "addr:postcode": "20176", "addr:country": "US", "name": "Under Armour Factory House", "phone": "703-297-4950", "website": "https://store-locations.underarmour.com/va/leesburg/3", "image": "https://store-locations.underarmour.com/images/store-img.jpg", "brand": "Under Armour", "brand:wikidata": "Q2031485"}, "geometry": {"type": "Point", "coordinates": [-77.538337, 39.1068098]}},
{"type": "Feature", "id": "F0kzcZZguJw-K5qJzxEOV3mMG08=", "properties": {"ref": "UAFH-6699NLDSJP", "@spider": "under_armour", "addr:street_address": "6699 N. Landmark Dr.", "addr:city": "Park City", "addr:state": "UT", "addr:postcode": "84098", "addr:country": "US", "name": "Under Armour Factory House", "phone": "435-602-4546", "website": "https://store-locations.underarmour.com/ut/park-city/UAFH-6699NLDSJP", "image": "https://store-locations.underarmour.com/images/store-img.jpg", "brand": "Under Armour", "brand:wikidata": "Q2031485"}, "geometry": {"type": "Point", "coordinates": [-111.551152, 40.7304593]}},
{"type": "Feature", "id": "mR8bVoTudbf7YW0750tvsHlFkxo=", "properties": {"ref": "UASCS-3940NTMBS3", "@spider": "under_armour", "addr:street_address": "3700 N Cabelas Blvd.", "addr:city": "Lehi", "addr:state": "UT", "addr:postcode": "84043", "addr:country": "US", "name": "Under Armour Factory House", "phone": "410-454-6653", "website": "https://store-locations.underarmour.com/ut/lehi/UASCS-3940NTMBS3", "image": "https://store-locations.underarmour.com/images/store-img.jpg", "brand": "Under Armour", "brand:wikidata": "Q2031485"}, "geometry": {"type": "Point", "coordinates": [-111.8845254, 40.434971]}},
{"type": "Feature", "id": "LwnvBs27PzTdWed4a98NV9RZBJQ=", "properties": {"ref": "UAS-5885GFS920", "@spider": "under_armour", "addr:street_address": "5885 Gulf Freeway", "addr:city": "Texas City", "addr:state": "TX", "addr:postcode": "77591", "addr:country": "US", "name": "Under Armour Factory House", "phone": "281-337-4363", "website": "https://store-locations.underarmour.com/tx/texas-city/UAS-5885GFS920", "image": "https://store-locations.underarmour.com/images/store-img.jpg", "brand": "Under Armour", "brand:wikidata": "Q2031485"}, "geometry": {"type": "Point", "coordinates": [-95.0560331, 29.4255911]}},
{"type": "Feature", "id": "6SPb1BT18yeZ4EyhjpAiL-skaXI=", "properties": {"ref": "18", "@spider": "under_armour", "addr:street_address": "3939 IH-35 South", "addr:city": "San Marcos", "addr:state": "TX", "addr:postcode": "78666", "addr:country": "US", "name": "Under Armour Factory House", "phone": "512-392-3001", "website": "https://store-locations.underarmour.com/tx/san-marcos/18", "image": "https://store-locations.underarmour.com/images/store-img.jpg", "brand": "Under Armour", "brand:wikidata": "Q2031485"}, "geometry": {"type": "Point", "coordinates": [-97.9803606, 29.8287208]}},
{"type": "Feature", "id": "EAoSTCKW3SEipwvZFuSDtVtxVMI=", "properties": {"ref": "UAFH-4401NI35S0", "@spider": "under_armour", "addr:street_address": "4401 N Interstate 35", "addr:city": "Round Rock", "addr:state": "TX", "addr:postcode": "78665", "addr:country": "US", "name": "Under Armour Factory House", "phone": "512-763-1569", "website": "https://store-locations.underarmour.com/tx/round-rock/UAFH-4401NI35S0", "image": "https://store-locations.underarmour.com/images/store-img.jpg", "brand": "Under Armour", "brand:wikidata": "Q2031485"}, "geometry": {"type": "Point", "coordinates": [-97.6903814, 30.5649856]}},
{"type": "Feature", "id": "UB053QJbyPw-nIWNJsbFYs6m4j8=", "properties": {"ref": "UAFH-5001EE83S0", "@spider": "under_armour", "addr:street_address": "5001 East Expressway 83", "addr:city": "Mercedes", "addr:state": "TX", "addr:postcode": "78570", "addr:country": "US", "name": "Under Armour Factory House", "phone": "956-565-7751", "website": "https://store-locations.underarmour.com/tx/mercedes/UAFH-5001EE83S0", "image": "https://store-locations.underarmour.com/images/store-img.jpg", "brand": "Under Armour", "brand:wikidata": "Q2031485"}, "geometry": {"type": "Point", "coordinates": [-97.95432, 26.158858]}},
{"type": "Feature", "id": "S3R0Z1ItjF1oJZzO6wW6aEsyDyU=", "properties": {"ref": "UAFH-1600WSSALT", "@spider": "under_armour", "addr:street_address": "1600 Water Street", "addr:city": "Laredo", "addr:state": "TX", "addr:postcode": "78040", "addr:country": "US", "name": "Under Armour Factory House", "phone": "956-413-5000", "website": "https://store-locations.underarmour.com/tx/laredo/UAFH-1600WSSALT", "image": "https://store-locations.underarmour.com/images/store-img.jpg", "brand": "Under Armour", "brand:wikidata": "Q2031485"}, "geometry": {"type": "Point", "coordinates": [-99.5112116, 27.5018964]}},
{"type": "Feature", "id": "1HpVjuhTlhjPnmwCN9gbiyC0_Bw=", "properties": {"ref": "UAFH-5000KMCS66", "@spider": "under_armour", "addr:street_address": "5000 Katy Mills Circle", "addr:city": "Katy", "addr:state": "TX", "addr:postcode": "77494", "addr:country": "US", "name": "Under Armour Factory House", "phone": "346-307-9564", "website": "https://store-locations.underarmour.com/tx/katy/UAFH-5000KMCS66", "image": "https://store-locations.underarmour.com/images/store-img.jpg", "brand": "Under Armour", "brand:wikidata": "Q2031485"}, "geometry": {"type": "Point", "coordinates": [-95.810334, 29.7758391]}},
{"type": "Feature", "id": "ztCRgjsc4b35No15hAvewKVZU8M=", "properties": {"ref": "93", "@spider": "under_armour", "addr:street_address": "3000 Grapevine Mills Pkwy", "addr:city": "Grapevine", "addr:state": "TX", "addr:postcode": "76051", "addr:country": "US", "name": "Under Armour Factory House", "phone": "972-539-0541", "website": "https://store-locations.underarmour.com/tx/grapevine/93", "image": "https://store-locations.underarmour.com/images/store-img.jpg", "brand": "Under Armour", "brand:wikidata": "Q2031485"}, "geometry": {"type": "Point", "coordinates": [-97.0415897, 32.96823]}},
{"type": "Feature", "id": "oHD7tgRXfWVYNibACPAFzuY4sug=", "properties": {"ref": "UAFH-2950WI20S9", "@spider": "under_armour", "addr:street_address": "2950 West Interstate 20", "addr:city": "Grand Prairie", "addr:state": "TX", "addr:postcode": "75052", "addr:country": "US", "name": "Under Armour Factory House", "phone": "972-602-6744", "website": "https://store-locations.underarmour.com/tx/grand-prairie/UAFH-2950WI20S9", "image": "https://store-locations.underarmour.com/images/store-img.jpg", "brand": "Under Armour", "brand:wikidata": "Q2031485"}, "geometry": {"type": "Point", "coordinates": [-97.0545496, 32.6786512]}},
{"type": "Feature", "id": "g0mcvQaTwcb3D0GJGkBmsCe1YDk=", "properties": {"ref": "96", "@spider": "under_armour", "addr:street_address": "1612 Pleasonton Rd.", "addr:city": "Fort Bliss", "addr:state": "TX", "addr:postcode": "79906", "addr:country": "US", "name": "Under Armour Factory House", "phone": "915-566-0976", "website": "https://store-locations.underarmour.com/tx/fort-bliss/96", "image": "https://store-locations.underarmour.com/images/store-img.jpg", "brand": "Under Armour", "brand:wikidata": "Q2031485"}, "geometry": {"type": "Point", "coordinates": [-106.4281186, 31.8177135]}},
{"type": "Feature", "id": "Fz9_YnfEe_QangoxHjr6urDYzm0=", "properties": {"ref": "UABH-8687NCESE7", "@spider": "under_armour", "addr:street_address": "8687 North Central Expressway", "addr:city": "Dallas", "addr:state": "TX", "addr:postcode": "75225", "addr:country": "US", "name": "Under Armour Brand House", "phone": "469-680-3984", "website": "https://store-locations.underarmour.com/tx/dallas/UABH-8687NCESE7", "image": "http://hosted.where2getit.com/underarmour/images/storefronts/NorthPark2.png", "brand": "Under Armour", "brand:wikidata": "Q2031485"}, "geometry": {"type": "Point", "coordinates": [-96.7718582, 32.8687357]}},
{"type": "Feature", "id": "gPDvHk6ZnkOoENxDUQSMxyTjv4Q=", "properties": {"ref": "22", "@spider": "under_armour", "addr:street_address": "29300 Hempstead Road", "addr:city": "Cypress", "addr:state": "TX", "addr:postcode": "77433", "addr:country": "US", "name": "Under Armour Factory House", "phone": "281-256-6118", "website": "https://store-locations.underarmour.com/tx/cypress/22", "image": "https://store-locations.underarmour.com/images/store-img.jpg", "brand": "Under Armour", "brand:wikidata": "Q2031485"}, "geometry": {"type": "Point", "coordinates": [-95.7573305, 29.9967069]}},
{"type": "Feature", "id": "EXN5DH83K48x0q_b6f0t1dCgFhM=", "properties": {"ref": "UAFH-7051SDBSE5", "@spider": "under_armour", "addr:street_address": "7051 South Desert Blvd", "addr:city": "Canutillo", "addr:state": "TX", "addr:postcode": "79835", "addr:country": "US", "name": "Under Armour Factory House", "phone": "410-454-6655", "website": "https://store-locations.underarmour.com/tx/canutillo/UAFH-7051SDBSE5", "image": "https://store-locations.underarmour.com/images/store-img.jpg", "brand": "Under Armour", "brand:wikidata": "Q2031485"}, "geometry": {"type": "Point", "coordinates": [-106.5854384, 31.9121419]}},
{"type": "Feature", "id": "XZn9Wy6EWuGvK3C-xaGLugqnros=", "properties": {"ref": "75", "@spider": "under_armour", "addr:street_address": "820 West Stacy Rd.", "addr:city": "Allen", "addr:state": "TX", "addr:postcode": "75013-4805", "addr:country": "US", "name": "Under Armour Factory House", "phone": "972-678-4010", "website": "https://store-locations.underarmour.com/tx/allen/75", "image": "https://store-locations.underarmour.com/images/store-img.jpg", "brand": "Under Armour", "brand:wikidata": "Q2031485"}, "geometry": {"type": "Point", "coordinates": [-96.660994, 33.1325614]}},
{"type": "Feature", "id": "PGStFvqBviok6yq5m0cA4xaV7TQ=", "properties": {"ref": "UAFHY-1645PS110S", "@spider": "under_armour", "addr:street_address": "1645 Parkway", "addr:city": "Sevierville", "addr:state": "TN", "addr:postcode": "37862", "addr:country": "US", "name": "Under Armour Factory House - Youth", "phone": "865-366-4104", "website": "https://store-locations.underarmour.com/tn/sevierville/UAFHY-1645PS110S", "image": "https://store-locations.underarmour.com/images/store-img.jpg", "brand": "Under Armour", "brand:wikidata": "Q2031485"}, "geometry": {"type": "Point", "coordinates": [-83.5678849, 35.8327314]}},
{"type": "Feature", "id": "xMDenF9eRAKqPhBdPzqsuc7v7XU=", "properties": {"ref": "41", "@spider": "under_armour", "addr:street_address": "1645 Parkway", "addr:city": "Sevierville", "addr:state": "TN", "addr:postcode": "37862", "addr:country": "US", "name": "Under Armour Factory House", "phone": "865-428-6962", "website": "https://store-locations.underarmour.com/tn/sevierville/41", "image": "https://store-locations.underarmour.com/images/store-img.jpg", "brand": "Under Armour", "brand:wikidata": "Q2031485"}, "geometry": {"type": "Point", "coordinates": [-83.5678849, 35.8327314]}},
{"type": "Feature", "id": "EvMiZKy-3KmhK0RCmCwJjIXmaQg=", "properties": {"ref": "89", "@spider": "under_armour", "addr:street_address": "433 Opry Mills Drive", "addr:city": "Nashville", "addr:state": "TN", "addr:postcode": "37214", "addr:country": "US", "name": "Under Armour Factory House", "phone": "615-800-3788", "website": "https://store-locations.underarmour.com/tn/nashville/89", "image": "https://store-locations.underarmour.com/images/store-img.jpg", "brand": "Under Armour", "brand:wikidata": "Q2031485"}, "geometry": {"type": "Point", "coordinates": [-86.6922661, 36.2029647]}},
{"type": "Feature", "id": "r7TKNR5vLTQ62u-lmOvtF8jGnE0=", "properties": {"ref": "87", "@spider": "under_armour", "addr:street_address": "4840 Tanger Outlets Blvd.", "addr:city": "N. Charleston", "addr:state": "SC", "addr:postcode": "29418", "addr:country": "US", "name": "Under Armour Factory House", "phone": "843-554-2113", "website": "https://store-locations.underarmour.com/sc/n.-charleston/87", "image": "https://store-locations.underarmour.com/images/store-img.jpg", "brand": "Under Armour", "brand:wikidata": "Q2031485"}, "geometry": {"type": "Point", "coordinates": [-80.0193011, 32.8737687]}},
{"type": "Feature", "id": "464lFdyOIwESMj2RGCYIZR9fbXU=", "properties": {"ref": "63", "@spider": "under_armour", "addr:street_address": "4633 Factory Stores Blvd.", "addr:city": "Myrtle Beach", "addr:state": "SC", "addr:postcode": "29579", "addr:country": "US", "name": "Under Armour Factory House", "phone": "(843)492-0822", "website": "https://store-locations.underarmour.com/sc/myrtle-beach/63", "image": "https://store-locations.underarmour.com/images/store-img.jpg", "brand": "Under Armour", "brand:wikidata": "Q2031485"}, "geometry": {"type": "Point", "coordinates": [-78.9582115, 33.7511848]}},
{"type": "Feature", "id": "vgTt553e9ulvduQe80rZnCrQpVk=", "properties": {"ref": "40", "@spider": "under_armour", "addr:street_address": "10843 Kings Road", "addr:city": "Myrtle Beach", "addr:state": "SC", "addr:postcode": "29572", "addr:country": "US", "name": "Under Armour Factory House", "phone": "843-497-5170", "website": "https://store-locations.underarmour.com/sc/myrtle-beach/40", "image": "https://store-locations.underarmour.com/images/store-img.jpg", "brand": "Under Armour", "brand:wikidata": "Q2031485"}, "geometry": {"type": "Point", "coordinates": [-78.7742601, 33.784494]}},
{"type": "Feature", "id": "WoAu59j3fthKdPAUUjBxcViTraY=", "properties": {"ref": "64", "@spider": "under_armour", "addr:street_address": "1 Factory Shops Blvd.", "addr:city": "Gaffney", "addr:state": "SC", "addr:postcode": "29341", "addr:country": "US", "name": "Under Armour Factory House", "phone": "864-489-6259", "website": "https://store-locations.underarmour.com/sc/gaffney/64", "image": "https://store-locations.underarmour.com/images/store-img.jpg", "brand": "Under Armour", "brand:wikidata": "Q2031485"}, "geometry": {"type": "Point", "coordinates": [-81.7121115, 35.0819782]}},
{"type": "Feature", "id": "G2Zuf4L1btFzJ2yrjfp0ziVyXsk=", "properties": {"ref": "69", "@spider": "under_armour", "addr:street_address": "1254 Fording Island Road", "addr:city": "Bluffton", "addr:state": "SC", "addr:postcode": "29910", "addr:country": "US", "name": "Under Armour Factory House", "phone": "843-706-9707", "website": "https://store-locations.underarmour.com/sc/bluffton/69", "image": "https://store-locations.underarmour.com/images/store-img.jpg", "brand": "Under Armour", "brand:wikidata": "Q2031485"}, "geometry": {"type": "Point", "coordinates": [-80.8325672, 32.2450128]}},
{"type": "Feature", "id": "ENd8gtKOnK4Ryu9hrY4Vzy2IypM=", "properties": {"ref": "UAFH-999RDMCM", "@spider": "under_armour", "addr:street_address": "999 Rue Du Marche Central", "addr:city": "Montreal", "addr:postcode": "H4N 1J8", "addr:country": "CA", "name": "Under Armour Factory House", "phone": "514-384-3925", "website": "https://store-locations.underarmour.com/qc/montreal/UAFH-999RDMCM", "image": "https://store-locations.underarmour.com/images/store-img.jpg", "brand": "Under Armour", "brand:wikidata": "Q2031485"}, "geometry": {"type": "Point", "coordinates": [-73.6529568, 45.5340819]}},
{"type": "Feature", "id": "tQZP8NSaIQ0FMRjsc6eYXVfrnmc=", "properties": {"ref": "UAFH-19001CNDS5", "@spider": "under_armour", "addr:street_address": "19001 Chemin Notre-Dame", "addr:city": "Mirabel", "addr:postcode": "J7J 0T1", "addr:country": "CA", "name": "Under Armour Factory House", "phone": "450-430-5678", "website": "https://store-locations.underarmour.com/qc/mirabel/UAFH-19001CNDS5", "image": "https://store-locations.underarmour.com/images/store-img.jpg", "brand": "Under Armour", "brand:wikidata": "Q2031485"}, "geometry": {"type": "Point", "coordinates": [-73.9147, 45.67489]}},
{"type": "Feature", "id": "l6UnHUzW5jnubj3X3M7x-p0LiXA=", "properties": {"ref": "UAFH-2200TBS950", "@spider": "under_armour", "addr:street_address": "2200 Tanger Blvd.", "addr:city": "Washington", "addr:state": "PA", "addr:postcode": "15301", "addr:country": "US", "name": "Under Armour Factory House - Youth", "phone": "724-271-7027", "website": "https://store-locations.underarmour.com/pa/washington/UAFH-2200TBS950", "image": "https://store-locations.underarmour.com/images/store-img.jpg", "brand": "Under Armour", "brand:wikidata": "Q2031485"}, "geometry": {"type": "Point", "coordinates": [-80.2116242, 40.2164085]}},
{"type": "Feature", "id": "YsH3y-_zfDCU4IrNclzfhmKD9jU=", "properties": {"ref": "88", "@spider": "under_armour", "addr:street_address": "2200 Tanger Blvd.", "addr:city": "Washington", "addr:state": "PA", "addr:postcode": "15301", "addr:country": "US", "name": "Under Armour Factory House", "phone": "724-222-2408", "website": "https://store-locations.underarmour.com/pa/washington/88", "image": "https://store-locations.underarmour.com/images/store-img.jpg", "brand": "Under Armour", "brand:wikidata": "Q2031485"}, "geometry": {"type": "Point", "coordinates": [-80.2116242, 40.2164085]}},
{"type": "Feature", "id": "ERxy5cruE1YbnS13mqOj-xYCLOU=", "properties": {"ref": "6", "@spider": "under_armour", "addr:street_address": "1000 Premium Outlets Drive", "addr:city": "Tannersville", "addr:state": "PA", "addr:postcode": "18372", "addr:country": "US", "name": "Under Armour Factory House", "phone": "570-629-3610", "website": "https://store-locations.underarmour.com/pa/tannersville/6", "image": "https://store-locations.underarmour.com/images/store-img.jpg", "brand": "Under Armour", "brand:wikidata": "Q2031485"}, "geometry": {"type": "Point", "coordinates": [-75.3127018, 41.0475603]}},
{"type": "Feature", "id": "NNGZNkFoAFcBNyQV1fCSek-kSIU=", "properties": {"ref": "10", "@spider": "under_armour", "addr:street_address": "18 Light Cap Road", "addr:city": "Limerick", "addr:state": "PA", "addr:postcode": "19464", "addr:country": "US", "name": "Under Armour Factory House", "phone": "610-326-6205", "website": "https://store-locations.underarmour.com/pa/limerick/10", "image": "https://store-locations.underarmour.com/images/store-img.jpg", "brand": "Under Armour", "brand:wikidata": "Q2031485"}, "geometry": {"type": "Point", "coordinates": [-75.559261, 40.229726]}},
{"type": "Feature", "id": "KrxZj682XAu0emLa6YuZQYj_hpg=", "properties": {"ref": "26", "@spider": "under_armour", "addr:street_address": "1300 Stanley K Tanger Drive", "addr:city": "Lancaster", "addr:state": "PA", "addr:postcode": "17602", "addr:country": "US", "name": "Under Armour Factory House", "phone": "717-925-8026", "website": "https://store-locations.underarmour.com/pa/lancaster/26", "image": "https://store-locations.underarmour.com/images/store-img.jpg", "brand": "Under Armour", "brand:wikidata": "Q2031485"}, "geometry": {"type": "Point", "coordinates": [-76.2198862, 40.0238441]}},
{"type": "Feature", "id": "J0THXcTL-s8JjgKPvYwP7LrlsuM=", "properties": {"ref": "76", "@spider": "under_armour", "addr:street_address": "46 Outlet Square", "addr:city": "Hershey", "addr:state": "PA", "addr:postcode": "17033-2750", "addr:country": "US", "name": "Under Armour Factory House", "phone": "717-533-2091", "website": "https://store-locations.underarmour.com/pa/hershey/76", "image": "https://store-locations.underarmour.com/images/store-img.jpg", "brand": "Under Armour", "brand:wikidata": "Q2031485"}, "geometry": {"type": "Point", "coordinates": [-76.6467837, 40.2959981]}},
{"type": "Feature", "id": "tI1RMfyV3gTwHJi5yAQdhMxxXCs=", "properties": {"ref": "68", "@spider": "under_armour", "addr:street_address": "1911 Leesburg Grove City Rd.", "addr:city": "Grove City", "addr:state": "PA", "addr:postcode": "16127", "addr:country": "US", "name": "Under Armour Factory House", "phone": "(724)870-4886", "website": "https://store-locations.underarmour.com/pa/grove-city/68", "image": "https://store-locations.underarmour.com/images/store-img.jpg", "brand": "Under Armour", "brand:wikidata": "Q2031485"}, "geometry": {"type": "Point", "coordinates": [-80.1569006, 41.1385211]}},
{"type": "Feature", "id": "1VYZPRss0MrkbZQepUY0vRWUlXs=", "properties": {"ref": "79", "@spider": "under_armour", "addr:street_address": "1863 Gettysburg Village Drive", "addr:city": "Gettysburg", "addr:state": "PA", "addr:postcode": "17325", "addr:country": "US", "name": "Under Armour Factory House", "phone": "717-334-3649", "website": "https://store-locations.underarmour.com/pa/gettysburg/79", "image": "https://store-locations.underarmour.com/images/store-img.jpg", "brand": "Under Armour", "brand:wikidata": "Q2031485"}, "geometry": {"type": "Point", "coordinates": [-77.2021611, 39.7924411]}},
{"type": "Feature", "id": "xizH2RlM1nTzJwCyrDdq0wFaops=", "properties": {"ref": "42", "@spider": "under_armour", "addr:street_address": "1001 Arney Rd.", "addr:city": "Woodburn", "addr:state": "OR", "addr:postcode": "97071", "addr:country": "US", "name": "Under Armour Factory House", "phone": "503-981-2138", "website": "https://store-locations.underarmour.com/or/woodburn/42", "image": "https://store-locations.underarmour.com/images/store-img.jpg", "brand": "Under Armour", "brand:wikidata": "Q2031485"}, "geometry": {"type": "Point", "coordinates": [-122.878519, 45.1561405]}},
{"type": "Feature", "id": "J-BkI_eGIQGa4_0KI3sr5HN1I7k=", "properties": {"ref": "56", "@spider": "under_armour", "addr:street_address": "1500 SE East Devils Lake Rd.", "addr:city": "Lincoln City", "addr:state": "OR", "addr:postcode": "97367", "addr:country": "US", "name": "Under Armour Factory House", "phone": "541-994-4650", "website": "https://store-locations.underarmour.com/or/lincoln-city/56", "image": "https://store-locations.underarmour.com/images/store-img.jpg", "brand": "Under Armour", "brand:wikidata": "Q2031485"}, "geometry": {"type": "Point", "coordinates": [-124.0107831, 44.9581492]}},
{"type": "Feature", "id": "ALWrUr54T5vhfRcZaOQaZEsyrik=", "properties": {"ref": "UAFH-1BPMDS101V", "@spider": "under_armour", "addr:street_address": "1 Bass Pro Mills Drive", "addr:city": "Vaughan", "addr:postcode": "L4K 5W4", "addr:country": "CA", "name": "Under Armour Factory House", "phone": "905-669-7075", "website": "https://store-locations.underarmour.com/on/vaughan/UAFH-1BPMDS101V", "image": "https://store-locations.underarmour.com/images/store-img.jpg", "brand": "Under Armour", "brand:wikidata": "Q2031485"}, "geometry": {"type": "Point", "coordinates": [-79.5384264, 43.8254468]}},
{"type": "Feature", "id": "1eXDlhQ1938z7Miv5T5wTQn-naI=", "properties": {"ref": "UABH-220YST", "@spider": "under_armour", "addr:street_address": "220 Yonge Street", "addr:city": "Toronto", "addr:postcode": "M5B 2H1", "addr:country": "CA", "name": "Under Armour Brand House", "phone": "416-212-4035", "website": "https://store-locations.underarmour.com/on/toronto/UABH-220YST", "image": "https://store-locations.underarmour.com/images/store-img.jpg", "brand": "Under Armour", "brand:wikidata": "Q2031485"}, "geometry": {"type": "Point", "coordinates": [-79.3806966, 43.6540644]}},
{"type": "Feature", "id": "3SAGgZnVvaslBVSKwBmrNBIXDZ8=", "properties": {"ref": "UAFH-8555CDS310", "@spider": "under_armour", "addr:street_address": "8555 Campeau Drive", "addr:city": "Ottawa", "addr:postcode": "K2T 1B7", "addr:country": "CA", "name": "Under Armour Factory House", "phone": "613-831-2040", "website": "https://store-locations.underarmour.com/on/ottawa/UAFH-8555CDS310", "image": "https://store-locations.underarmour.com/images/store-img.jpg", "brand": "Under Armour", "brand:wikidata": "Q2031485"}, "geometry": {"type": "Point", "coordinates": [-75.91774, 45.30964]}},
{"type": "Feature", "id": "JulZpo1s_QOrapIYWv2LNPeBM-Q=", "properties": {"ref": "UAFH-300TRS739A", "@spider": "under_armour", "addr:street_address": "300 Taylor Road", "addr:city": "Niagara-On-The-Lake", "addr:postcode": "L0S 1J0", "addr:country": "CA", "name": "Under Armour Factory House", "phone": "905-988-3767", "website": "https://store-locations.underarmour.com/on/niagara-on-the-lake/UAFH-300TRS739A", "image": "https://store-locations.underarmour.com/images/store-img.jpg", "brand": "Under Armour", "brand:wikidata": "Q2031485"}, "geometry": {"type": "Point", "coordinates": [-79.1744876, 43.1559189]}},
{"type": "Feature", "id": "olQuyCsCpqG8-BdKBubQEmc_oOU=", "properties": {"ref": "UAFH-5950RDU3M", "@spider": "under_armour", "addr:street_address": "5950 Rodeo Dr. - Unit 3", "addr:city": "Mississauga", "addr:postcode": "L5R 3V6", "addr:country": "CA", "name": "Under Armour Factory House", "phone": "905-507-2220", "website": "https://store-locations.underarmour.com/on/mississauga/UAFH-5950RDU3M", "image": "https://store-locations.underarmour.com/images/store-img.jpg", "brand": "Under Armour", "brand:wikidata": "Q2031485"}, "geometry": {"type": "Point", "coordinates": [-79.690289847897, 43.6136645039719]}},
{"type": "Feature", "id": "OsxpQgFfNcR9d0co9T9BmwXLbx0=", "properties": {"ref": "UAFH-1230WRS101", "@spider": "under_armour", "addr:street_address": "1230 Wellington Rd", "addr:city": "London", "addr:postcode": "N6E 1M3", "addr:country": "CA", "name": "Under Armour Factory House", "phone": "519-681-4125", "website": "https://store-locations.underarmour.com/on/london/UAFH-1230WRS101", "image": "https://store-locations.underarmour.com/images/store-img.jpg", "brand": "Under Armour", "brand:wikidata": "Q2031485"}, "geometry": {"type": "Point", "coordinates": [-81.2185, 42.9281999]}},
{"type": "Feature", "id": "T1Q9NUnRzzEQhesR6y17GJgSuVo=", "properties": {"ref": "UAFH-754GRSG001", "@spider": "under_armour", "addr:street_address": "754 Gardiners Road", "addr:city": "Kingston", "addr:postcode": "K7M 3X9", "addr:country": "CA", "name": "Under Armour Factory House", "phone": "613-384-2490", "website": "https://store-locations.underarmour.com/on/kingston/UAFH-754GRSG001", "image": "https://store-locations.underarmour.com/images/store-img.jpg", "brand": "Under Armour", "brand:wikidata": "Q2031485"}, "geometry": {"type": "Point", "coordinates": [-76.5678, 44.24799]}},
{"type": "Feature", "id": "pq8rrtIh8TQCdgNcoVBVL1IGJyU=", "properties": {"ref": "UAFH-13850SAWS1", "@spider": "under_armour", "addr:street_address": "13850 Steeles Avenue W", "addr:city": "Halton Hills", "addr:postcode": "L7G 0J1", "addr:country": "CA", "name": "Under Armour Factory House", "phone": "(289) 851-2661", "website": "https://store-locations.underarmour.com/on/halton-hills/UAFH-13850SAWS1", "image": "https://store-locations.underarmour.com/images/store-img.jpg", "brand": "Under Armour", "brand:wikidata": "Q2031485"}, "geometry": {"type": "Point", "coordinates": [-79.8301392, 43.5755318]}},
{"type": "Feature", "id": "2exEmlAZywHuJ9Fvr4k6mZEchMU=", "properties": {"ref": "UAFH-3311SRSDC", "@spider": "under_armour", "addr:street_address": "3311 Simcoe Road", "addr:city": "Cookstown", "addr:postcode": "L0L 1L0", "addr:country": "CA", "name": "Under Armour Factory House", "phone": "705-458-2929", "website": "https://store-locations.underarmour.com/on/cookstown/UAFH-3311SRSDC", "image": "https://store-locations.underarmour.com/images/store-img.jpg", "brand": "Under Armour", "brand:wikidata": "Q2031485"}, "geometry": {"type": "Point", "coordinates": [-79.4961, 44.45517]}},
{"type": "Feature", "id": "MXA5zo-qVlFgDXjKAjHa7JXLG0k=", "properties": {"ref": "UAFH-100KREA", "@spider": "under_armour", "addr:street_address": "140 Kingston Road E", "addr:city": "Ajax", "addr:postcode": "L1Z 1G1", "addr:country": "CA", "name": "Under Armour Factory House", "phone": "905-683-1896", "website": "https://store-locations.underarmour.com/on/ajax/UAFH-100KREA", "image": "https://store-locations.underarmour.com/images/store-img.jpg", "brand": "Under Armour", "brand:wikidata": "Q2031485"}, "geometry": {"type": "Point", "coordinates": [-79.0206125, 43.8634831]}},
{"type": "Feature", "id": "IjPf1zUnsQEsRCkSRnVUqwmge0E=", "properties": {"ref": "82", "@spider": "under_armour", "addr:street_address": "7624 W. Reno Ave", "addr:city": "Oklahoma City", "addr:state": "OK", "addr:postcode": "73128-9702", "addr:country": "US", "name": "Under Armour Factory House", "phone": "405-789-5452", "website": "https://store-locations.underarmour.com/ok/oklahoma-city/82", "image": "https://store-locations.underarmour.com/images/store-img.jpg", "brand": "Under Armour", "brand:wikidata": "Q2031485"}, "geometry": {"type": "Point", "coordinates": [-97.6492587, 35.4627927]}},
{"type": "Feature", "id": "ZEdIsMgmcAc9oO_hOMKiOoAUsUI=", "properties": {"ref": "UAFH-400SWRS500", "@spider": "under_armour", "addr:street_address": "400 South Wilson Road", "addr:city": "Sunbury", "addr:state": "OH", "addr:postcode": "43074", "addr:country": "US", "name": "Under Armour Factory House", "phone": "740-965-3738", "website": "https://store-locations.underarmour.com/oh/sunbury/UAFH-400SWRS500", "image": "https://store-locations.underarmour.com/images/store-img.jpg", "brand": "Under Armour", "brand:wikidata": "Q2031485"}, "geometry": {"type": "Point", "coordinates": [-82.924321, 40.2599745]}},
{"type": "Feature", "id": "XQJvmJ-Mvr2Q7_Wgj5H2B-pppU4=", "properties": {"ref": "49", "@spider": "under_armour", "addr:street_address": "400 Premium Outlets Drive", "addr:city": "Monroe", "addr:state": "OH", "addr:postcode": "45050", "addr:country": "US", "name": "Under Armour Factory House", "phone": "513-539-8422", "website": "https://store-locations.underarmour.com/oh/monroe/49", "image": "https://store-locations.underarmour.com/images/store-img.jpg", "brand": "Under Armour", "brand:wikidata": "Q2031485"}, "geometry": {"type": "Point", "coordinates": [-84.3365389, 39.4337564]}},
{"type": "Feature", "id": "1Ax8O7743mXc-9jn9x_GWfTFCxk=", "properties": {"ref": "16", "@spider": "under_armour", "addr:street_address": "8770 Factory Shoppes Blvd.", "addr:city": "Jeffersonville", "addr:state": "OH", "addr:postcode": "43128", "addr:country": "US", "name": "Under Armour Factory House", "phone": "(740)313-0002", "website": "https://store-locations.underarmour.com/oh/jeffersonville/16", "image": "https://store-locations.underarmour.com/images/store-img.jpg", "brand": "Under Armour", "brand:wikidata": "Q2031485"}, "geometry": {"type": "Point", "coordinates": [-83.5999675, 39.620699]}},
{"type": "Feature", "id": "toOxflPDSSehBrI0JyztFhqvfww=", "properties": {"ref": "UAFH-9911ALRS54", "@spider": "under_armour", "addr:street_address": "9911 Avon Lake Rd.", "addr:city": "Burbank", "addr:state": "OH", "addr:postcode": "44214", "addr:country": "US", "name": "Under Armour Clearance House", "phone": "(330)887-9040", "website": "https://store-locations.underarmour.com/oh/burbank/UAFH-9911ALRS54", "image": "https://store-locations.underarmour.com/images/store-img.jpg", "brand": "Under Armour", "brand:wikidata": "Q2031485"}, "geometry": {"type": "Point", "coordinates": [-81.9957123, 41.0022659]}},
{"type": "Feature", "id": "-JhEIoApyRtHtKm-K2sBE5f7z4I=", "properties": {"ref": "UAFH-35886DRAO", "@spider": "under_armour", "addr:street_address": "35886 Detroit Rd", "addr:city": "Avon", "addr:state": "OH", "addr:postcode": "44011", "addr:country": "US", "name": "Under Armour Factory House", "phone": "216-238-4483", "website": "https://store-locations.underarmour.com/oh/avon/UAFH-35886DRAO", "image": "https://store-locations.underarmour.com/images/store-img.jpg", "brand": "Under Armour", "brand:wikidata": "Q2031485"}, "geometry": {"type": "Point", "coordinates": [-82.0140086, 41.4631346]}},
{"type": "Feature", "id": "6wyU8pRUCb3jxwrXiwHzas-s0ds=", "properties": {"ref": "94", "@spider": "under_armour", "addr:street_address": "549 South Chillicothe Rd.", "addr:city": "Aurora", "addr:state": "OH", "addr:postcode": "44202", "addr:country": "US", "name": "Under Armour Factory House", "phone": "330-995-9557", "website": "https://store-locations.underarmour.com/oh/aurora/94", "image": "https://store-locations.underarmour.com/images/store-img.jpg", "brand": "Under Armour", "brand:wikidata": "Q2031485"}, "geometry": {"type": "Point", "coordinates": [-81.3442815, 41.3028441]}},
{"type": "Feature", "id": "cN0h1Lq2M2_dQLofUoGqNoFdS0A=", "properties": {"ref": "12", "@spider": "under_armour", "addr:street_address": "655 Route 318", "addr:city": "Waterloo", "addr:state": "NY", "addr:postcode": "13165", "addr:country": "US", "name": "Under Armour Factory House", "phone": "315-539-0680", "website": "https://store-locations.underarmour.com/ny/waterloo/12", "image": "https://store-locations.underarmour.com/images/store-img.jpg", "brand": "Under Armour", "brand:wikidata": "Q2031485"}, "geometry": {"type": "Point", "coordinates": [-76.919628, 42.9574977]}},
{"type": "Feature", "id": "SJ6njHpznQZ5eY9E6ivqZLmNjiw=", "properties": {"ref": "UAFH-3349MAS7BR", "@spider": "under_armour", "addr:street_address": "3349 Monroe Ave", "addr:city": "Rochester", "addr:state": "NY", "addr:postcode": "14618", "addr:country": "US", "name": "Under Armour Factory House", "phone": "585-200-3726", "website": "https://store-locations.underarmour.com/ny/rochester/UAFH-3349MAS7BR", "image": "https://store-locations.underarmour.com/images/store-img.jpg", "brand": "Under Armour", "brand:wikidata": "Q2031485"}, "geometry": {"type": "Point", "coordinates": [-77.5416999, 43.1022102]}},
{"type": "Feature", "id": "RovUgS8cKoUe7thHfGmwCnmkAiQ=", "properties": {"ref": "7", "@spider": "under_armour", "addr:street_address": "1513 Tanger Mall Dr.", "addr:city": "Riverhead", "addr:state": "NY", "addr:postcode": "11901", "addr:country": "US", "name": "Under Armour Factory House", "phone": "631-208-3147", "website": "https://store-locations.underarmour.com/ny/riverhead/7", "image": "https://store-locations.underarmour.com/images/store-img.jpg", "brand": "Under Armour", "brand:wikidata": "Q2031485"}, "geometry": {"type": "Point", "coordinates": [-72.7114398, 40.919248]}},
{"type": "Feature", "id": "r_L53D7iwlydbgtRIcuV3cZ2Fqg=", "properties": {"ref": "28", "@spider": "under_armour", "addr:street_address": "1900 Military Road", "addr:city": "Niagara", "addr:state": "NY", "addr:postcode": "14304", "addr:country": "US", "name": "Under Armour Factory House", "phone": "716-297-1510", "website": "https://store-locations.underarmour.com/ny/niagara/28", "image": "https://store-locations.underarmour.com/images/store-img.jpg", "brand": "Under Armour", "brand:wikidata": "Q2031485"}, "geometry": {"type": "Point", "coordinates": [-78.9778717, 43.0989433]}},
{"type": "Feature", "id": "VX5977vCzHu9MxfZAUlvNSBjL4A=", "properties": {"ref": "UABH-185GSSLNYN", "@spider": "under_armour", "addr:street_address": "185 Greenwich St., Space Ll4302", "addr:city": "New York", "addr:state": "NY", "addr:postcode": "10007", "addr:country": "US", "name": "Under Armour Brand House", "phone": "646-863-7408", "website": "https://store-locations.underarmour.com/ny/new-york/UABH-185GSSLNYN", "image": "https://store-locations.underarmour.com/images/store-img.jpg", "brand": "Under Armour", "brand:wikidata": "Q2031485"}, "geometry": {"type": "Point", "coordinates": [-74.0122474, 40.7110981]}},
{"type": "Feature", "id": "cNu5lYqes5wSgw-PD_hAw0Qzees=", "properties": {"ref": "92", "@spider": "under_armour", "addr:street_address": "1444 U.S. 9", "addr:city": "Lake George", "addr:state": "NY", "addr:postcode": "12845", "addr:country": "US", "name": "Under Armour Factory House", "phone": "518-761-6787", "website": "https://store-locations.underarmour.com/ny/lake-george/92", "image": "https://store-locations.underarmour.com/images/store-img.jpg", "brand": "Under Armour", "brand:wikidata": "Q2031485"}, "geometry": {"type": "Point", "coordinates": [-73.6983179, 43.3656812]}},
{"type": "Feature", "id": "rXn77-C-K4p_BpnH4HNOWlF0nUY=", "properties": {"ref": "UAFH-152TACS425", "@spider": "under_armour", "addr:street_address": "152 The Arches Circle", "addr:city": "Deer Park", "addr:state": "NY", "addr:postcode": "11729", "addr:country": "US", "name": "Under Armour Factory House", "phone": "631-466-9000", "website": "https://store-locations.underarmour.com/ny/deer-park/UAFH-152TACS425", "image": "https://store-locations.underarmour.com/images/store-img.jpg", "brand": "Under Armour", "brand:wikidata": "Q2031485"}, "geometry": {"type": "Point", "coordinates": [-73.3043805, 40.7648192]}},
{"type": "Feature", "id": "1GDoTTlxEraiomzGi_P-jRTi_x8=", "properties": {"ref": "14", "@spider": "under_armour", "addr:street_address": "185 Niagara Lane", "addr:city": "Central Valley", "addr:state": "NY", "addr:postcode": "10917", "addr:country": "US", "name": "Under Armour Factory House", "phone": "845-928-3013", "website": "https://store-locations.underarmour.com/ny/central-valley/14", "image": "https://store-locations.underarmour.com/images/store-img.jpg", "brand": "Under Armour", "brand:wikidata": "Q2031485"}, "geometry": {"type": "Point", "coordinates": [-74.129695, 41.317091]}},
{"type": "Feature", "id": "OmSZRdvXT0AWP9tZQdw12BLKdY8=", "properties": {"ref": "UAFH-875SGCPS33", "@spider": "under_armour", "addr:street_address": "525 South Grand Central Parkway", "addr:city": "Las Vegas", "addr:state": "NV", "addr:postcode": "89106", "addr:country": "US", "name": "Under Armour Factory House", "phone": "702-470-1022", "website": "https://store-locations.underarmour.com/nv/las-vegas/UAFH-875SGCPS33", "image": "https://store-locations.underarmour.com/images/store-img.jpg", "brand": "Under Armour", "brand:wikidata": "Q2031485"}, "geometry": {"type": "Point", "coordinates": [-115.155844, 36.1656231]}},
{"type": "Feature", "id": "Fpzvny0Dkl2xZUk2fLEd9ax9vy8=", "properties": {"ref": "FASHI-3200LVBSS1", "@spider": "under_armour", "addr:street_address": "3200 Las Vegas Blvd. S.", "addr:city": "Las Vegas", "addr:state": "NV", "addr:postcode": "89109", "addr:country": "US", "name": "Under Armour Brand House", "phone": "702-267-6033", "website": "https://store-locations.underarmour.com/nv/las-vegas/FASHI-3200LVBSS1", "image": "http://hosted.where2getit.com/underarmour/images/storefronts/VegasFashionShow.png", "brand": "Under Armour", "brand:wikidata": "Q2031485"}, "geometry": {"type": "Point", "coordinates": [-115.1730984, 36.1273449]}},
{"type": "Feature", "id": "Fk0I6yyr5ZAO0dOzFLRPpLT7tqw=", "properties": {"ref": "67", "@spider": "under_armour", "addr:street_address": "7400 Las Vegas Blvd. South", "addr:city": "Las Vegas", "addr:state": "NV", "addr:postcode": "89123", "addr:country": "US", "name": "Under Armour Factory House", "phone": "702-260-6855", "website": "https://store-locations.underarmour.com/nv/las-vegas/67", "image": "https://store-locations.underarmour.com/images/store-img.jpg", "brand": "Under Armour", "brand:wikidata": "Q2031485"}, "geometry": {"type": "Point", "coordinates": [-115.1715328, 36.0551342]}},
{"type": "Feature", "id": "iRERSsWjAEFdIK2UPwpd33AGtJI=", "properties": {"ref": "UAFH-27HGS2B7D", "@spider": "under_armour", "addr:street_address": "27 Hector Gate", "addr:city": "Dartmouth", "addr:postcode": "B3B 0C1", "addr:country": "CA", "name": "Under Armour Factory House", "phone": "902.468.3569", "website": "https://store-locations.underarmour.com/ns/dartmouth/UAFH-27HGS2B7D", "image": "https://store-locations.underarmour.com/images/store-img.jpg", "brand": "Under Armour", "brand:wikidata": "Q2031485"}, "geometry": {"type": "Point", "coordinates": [-63.564452, 44.702134]}},
{"type": "Feature", "id": "X5ZTqZVCoDbb6laIeSvionZP_7M=", "properties": {"ref": "25", "@spider": "under_armour", "addr:street_address": "4001 Premium Outlet Blvd", "addr:city": "Tinton Falls", "addr:state": "NJ", "addr:postcode": "07753", "addr:country": "US", "name": "Under Armour Factory House", "phone": "732-493-2411", "website": "https://store-locations.underarmour.com/nj/tinton-falls/25", "image": "https://store-locations.underarmour.com/images/store-img.jpg", "brand": "Under Armour", "brand:wikidata": "Q2031485"}, "geometry": {"type": "Point", "coordinates": [-74.095164, 40.2229261]}},
{"type": "Feature", "id": "eGSpFANEUVq6Us0VgdNH3Y4SC9c=", "properties": {"ref": "532", "@spider": "under_armour", "addr:street_address": "1 Garden State Plaza", "addr:city": "Paramus", "addr:state": "NJ", "addr:postcode": "07652", "addr:country": "US", "name": "Under Armour Brand House", "phone": "201-359-3881", "website": "https://store-locations.underarmour.com/nj/paramus/532", "image": "https://store-locations.underarmour.com/images/store-img.jpg", "brand": "Under Armour", "brand:wikidata": "Q2031485"}, "geometry": {"type": "Point", "coordinates": [-74.07672, 40.91752]}},
{"type": "Feature", "id": "yPB9RqFdzBLfIwdz0ivoY-xgOEM=", "properties": {"ref": "9", "@spider": "under_armour", "addr:street_address": "537 Monmouth Road", "addr:city": "Jackson", "addr:state": "NJ", "addr:postcode": "08527", "addr:country": "US", "name": "Under Armour Factory House", "phone": "732-928-9300", "website": "https://store-locations.underarmour.com/nj/jackson/9", "image": "https://store-locations.underarmour.com/images/store-img.jpg", "brand": "Under Armour", "brand:wikidata": "Q2031485"}, "geometry": {"type": "Point", "coordinates": [-74.4173516, 40.1616983]}},
{"type": "Feature", "id": "hcP7mcPGLO5rV1JtXLdFar73eGY=", "properties": {"ref": "UAFH-651KRS1250", "@spider": "under_armour", "addr:street_address": "651 Kapowski Rd", "addr:city": "Elizabeth", "addr:state": "NJ", "addr:postcode": "07201", "addr:country": "US", "name": "Under Armour Factory House", "phone": "908-351-5251", "website": "https://store-locations.underarmour.com/nj/elizabeth/UAFH-651KRS1250", "image": "https://store-locations.underarmour.com/images/store-img.jpg", "brand": "Under Armour", "brand:wikidata": "Q2031485"}, "geometry": {"type": "Point", "coordinates": [-74.1713372, 40.6601883]}},
{"type": "Feature", "id": "g6xSZPEZ2i6pUOcvO19Iro3-9hI=", "properties": {"ref": "UAFH-100SPODS11", "@spider": "under_armour", "addr:street_address": "100 S Premium Outlets Drive", "addr:city": "Blackwood", "addr:state": "NJ", "addr:postcode": "08012", "addr:country": "US", "name": "Under Armour Factory House", "phone": "856-302-4559", "website": "https://store-locations.underarmour.com/nj/blackwood/UAFH-100SPODS11", "image": "https://store-locations.underarmour.com/images/store-img.jpg", "brand": "Under Armour", "brand:wikidata": "Q2031485"}, "geometry": {"type": "Point", "coordinates": [-75.0528146, 39.7848749]}},
{"type": "Feature", "id": "wyjP2JmHRrrjsDEHFCXGlRj2Ams=", "properties": {"ref": "43", "@spider": "under_armour", "addr:street_address": "25 North Michigan Ave", "addr:city": "Atlantic City", "addr:state": "NJ", "addr:postcode": "08401", "addr:country": "US", "name": "Under Armour Factory House", "phone": "609-887-1482", "website": "https://store-locations.underarmour.com/nj/atlantic-city/43", "image": "https://store-locations.underarmour.com/images/store-img.jpg", "brand": "Under Armour", "brand:wikidata": "Q2031485"}, "geometry": {"type": "Point", "coordinates": [-74.4358121, 39.3599752]}},
{"type": "Feature", "id": "-BTWV9TJr8quYL6WeQoRKPAwcf8=", "properties": {"ref": "74", "@spider": "under_armour", "addr:street_address": "120 Laconia Rd.", "addr:city": "Tilton", "addr:state": "NH", "addr:postcode": "03276-5238", "addr:country": "US", "name": "Under Armour Factory House", "phone": "603-286-3675", "website": "https://store-locations.underarmour.com/nh/tilton/74", "image": "https://store-locations.underarmour.com/images/store-img.jpg", "brand": "Under Armour", "brand:wikidata": "Q2031485"}, "geometry": {"type": "Point", "coordinates": [-71.5608505, 43.4586888]}},
{"type": "Feature", "id": "zVfL5CX_pkzdS_5uMOS0fK3jEMY=", "properties": {"ref": "32", "@spider": "under_armour", "addr:street_address": "2 Common Court", "addr:city": "North Conway", "addr:state": "NH", "addr:postcode": "03860", "addr:country": "US", "name": "Under Armour Factory House", "phone": "603-356-0131", "website": "https://store-locations.underarmour.com/nh/north-conway/32", "image": "https://store-locations.underarmour.com/images/store-img.jpg", "brand": "Under Armour", "brand:wikidata": "Q2031485"}, "geometry": {"type": "Point", "coordinates": [-71.1138468, 44.0230328]}},
{"type": "Feature", "id": "hE3kHFMxRulif5jhiP_sFzMLi9w=", "properties": {"ref": "95", "@spider": "under_armour", "addr:street_address": "80 Premium Outlets Blvd", "addr:city": "Merrimack", "addr:state": "NH", "addr:postcode": "03054", "addr:country": "US", "name": "Under Armour Factory House", "phone": "603-424-7387", "website": "https://store-locations.underarmour.com/nh/merrimack/95", "image": "https://store-locations.underarmour.com/images/store-img.jpg", "brand": "Under Armour", "brand:wikidata": "Q2031485"}, "geometry": {"type": "Point", "coordinates": [-71.5079783, 42.8241626]}},
{"type": "Feature", "id": "tgFm36Z0OvbX5o3DV-6tKXWOcDk=", "properties": {"ref": "UNDER-21209NCDCG", "@spider": "under_armour", "addr:street_address": "21209 Nebraska Crossing Dr", "addr:city": "Gretna", "addr:state": "NE", "addr:postcode": "68028", "addr:country": "US", "name": "Under Armour Factory House", "phone": "402-332-3896", "website": "https://store-locations.underarmour.com/ne/gretna/UNDER-21209NCDCG", "image": "https://store-locations.underarmour.com/images/store-img.jpg", "brand": "Under Armour", "brand:wikidata": "Q2031485"}, "geometry": {"type": "Point", "coordinates": [-96.2516585, 41.0986751]}},
{"type": "Feature", "id": "kqmoO6tzzU_p_rFTxdNibKFItD4=", "properties": {"ref": "35", "@spider": "under_armour", "addr:street_address": "1025 Industrial Park Drive", "addr:city": "Smithfield", "addr:state": "NC", "addr:postcode": "27577", "addr:country": "US", "name": "Under Armour Factory House", "phone": "919-209-0466", "website": "https://store-locations.underarmour.com/nc/smithfield/35", "image": "https://store-locations.underarmour.com/images/store-img.jpg", "brand": "Under Armour", "brand:wikidata": "Q2031485"}, "geometry": {"type": "Point", "coordinates": [-78.316119, 35.5102043]}},
{"type": "Feature", "id": "JoSOEhuSzIaogq_Rh2CVIf_glq8=", "properties": {"ref": "UAFH-4000ABS810", "@spider": "under_armour", "addr:street_address": "4000 Arrowhead Blvd", "addr:city": "Mebane", "addr:state": "NC", "addr:postcode": "27302", "addr:country": "US", "name": "Under Armour Factory House", "phone": "(919)241-5894", "website": "https://store-locations.underarmour.com/nc/mebane/UAFH-4000ABS810", "image": "https://store-locations.underarmour.com/images/store-img.jpg", "brand": "Under Armour", "brand:wikidata": "Q2031485"}, "geometry": {"type": "Point", "coordinates": [-79.2659932, 36.0741815]}},
{"type": "Feature", "id": "CNsPS3XkLcW6XPcRjmQKzfIXkPc=", "properties": {"ref": "UAFH-8111CMBCN", "@spider": "under_armour", "addr:street_address": "8111 Concord Mills Blvd", "addr:city": "Concord", "addr:state": "NC", "addr:postcode": "28027", "addr:country": "US", "name": "Under Armour Factory House", "phone": "704-979-5912", "website": "https://store-locations.underarmour.com/nc/concord/UAFH-8111CMBCN", "image": "https://store-locations.underarmour.com/images/store-img.jpg", "brand": "Under Armour", "brand:wikidata": "Q2031485"}, "geometry": {"type": "Point", "coordinates": [-80.7239298, 35.3700689]}},
{"type": "Feature", "id": "mB0g9NvPUsJSysHNagqZkkYC6pU=", "properties": {"ref": "UAFH-5524NFWS40", "@spider": "under_armour", "addr:street_address": "5524 New Fashion Way", "addr:city": "Charlotte", "addr:state": "NC", "addr:postcode": "28278", "addr:country": "US", "name": "Under Armour Factory House", "phone": "704-594-8862", "website": "https://store-locations.underarmour.com/nc/charlotte/UAFH-5524NFWS40", "image": "https://store-locations.underarmour.com/images/store-img.jpg", "brand": "Under Armour", "brand:wikidata": "Q2031485"}, "geometry": {"type": "Point", "coordinates": [-80.9709609, 35.1708105]}},
{"type": "Feature", "id": "Bz0Uf3_jBVMM3_no1x7KE3kBQvE=", "properties": {"ref": "UAFH-800BRAN", "@spider": "under_armour", "addr:street_address": "800 Brevard Road", "addr:city": "Asheville", "addr:state": "NC", "addr:postcode": "28806", "addr:country": "US", "name": "Under Armour Factory House", "phone": "828-667-5816", "website": "https://store-locations.underarmour.com/nc/asheville/UAFH-800BRAN", "image": "https://store-locations.underarmour.com/images/store-img.jpg", "brand": "Under Armour", "brand:wikidata": "Q2031485"}, "geometry": {"type": "Point", "coordinates": [-82.6039954, 35.5297958]}},
{"type": "Feature", "id": "-wxpFVXowu332mkHWTWt3mb65Rw=", "properties": {"ref": "MAPLE-78WSU1DM", "@spider": "under_armour", "addr:street_address": "78 Wyse St, Unit 1D", "addr:city": "Moncton", "addr:postcode": "E1G0Z5", "addr:country": "CA", "name": "Under Armour Factory House", "phone": "506-855-5461", "website": "https://store-locations.underarmour.com/nb/moncton/MAPLE-78WSU1DM", "image": "https://store-locations.underarmour.com/images/store-img.jpg", "brand": "Under Armour", "brand:wikidata": "Q2031485"}, "geometry": {"type": "Point", "coordinates": [-64.8246823, 46.1177337]}},
{"type": "Feature", "id": "ddhjU4ZHGIROKNkzcWZmJNo4oQU=", "properties": {"ref": "UAFH-5208ABS700", "@spider": "under_armour", "addr:street_address": "5205 Airways Blvd.", "addr:city": "Southaven", "addr:state": "MS", "addr:postcode": "38671", "addr:country": "US", "name": "Under Armour Factory House", "phone": "662-298-5269", "website": "https://store-locations.underarmour.com/ms/southaven/UAFH-5208ABS700", "image": "https://store-locations.underarmour.com/images/store-img.jpg", "brand": "Under Armour", "brand:wikidata": "Q2031485"}, "geometry": {"type": "Point", "coordinates": [-89.9916172, 34.9362555]}},
{"type": "Feature", "id": "1VsUeKDk6fsK0K1aSR23REtZvPg=", "properties": {"ref": "UAFH-200BPDPM", "@spider": "under_armour", "addr:street_address": "200 Bass Pro Drive", "addr:city": "Pearl", "addr:state": "MS", "addr:postcode": "39208", "addr:country": "US", "name": "Under Armour Factory House", "phone": "601-939-7348", "website": "https://store-locations.underarmour.com/ms/pearl/UAFH-200BPDPM", "image": "https://store-locations.underarmour.com/images/store-img.jpg", "brand": "Under Armour", "brand:wikidata": "Q2031485"}, "geometry": {"type": "Point", "coordinates": [-90.1538875, 32.2741569]}},
{"type": "Feature", "id": "hNjwZgmFSBqagvrKWA-11tl9Wv0=", "properties": {"ref": "46", "@spider": "under_armour", "addr:street_address": "10110 Factory Shops Blvd.", "addr:city": "Gulfport", "addr:state": "MS", "addr:postcode": "39501", "addr:country": "US", "name": "Under Armour Factory House", "phone": "228-864-2791", "website": "https://store-locations.underarmour.com/ms/gulfport/46", "image": "https://store-locations.underarmour.com/images/store-img.jpg", "brand": "Under Armour", "brand:wikidata": "Q2031485"}, "geometry": {"type": "Point", "coordinates": [-89.1000034, 30.4274144]}},
{"type": "Feature", "id": "LjrMBchjkTcvko3-tdfYoQxd5Oo=", "properties": {"ref": "66", "@spider": "under_armour", "addr:street_address": "4540 Osage Beach Parkway", "addr:city": "Osage Beach", "addr:state": "MO", "addr:postcode": "65065", "addr:country": "US", "name": "Under Armour Factory House", "phone": "573-302-7800", "website": "https://store-locations.underarmour.com/mo/osage-beach/66", "image": "https://store-locations.underarmour.com/images/store-img.jpg", "brand": "Under Armour", "brand:wikidata": "Q2031485"}, "geometry": {"type": "Point", "coordinates": [-92.6260994, 38.1425382]}},
{"type": "Feature", "id": "s07NRTYMhhgBBCCabVpFquMXIvs=", "properties": {"ref": "UNDER-18517OBS21", "@spider": "under_armour", "addr:street_address": "18517 Outlet Blvd.", "addr:city": "Chesterfield", "addr:state": "MO", "addr:postcode": "63005", "addr:country": "US", "name": "Under Armour Factory House", "phone": "636-778-1457", "website": "https://store-locations.underarmour.com/mo/chesterfield/UNDER-18517OBS21", "image": "https://store-locations.underarmour.com/images/store-img.jpg", "brand": "Under Armour", "brand:wikidata": "Q2031485"}, "geometry": {"type": "Point", "coordinates": [-90.6605074, 38.6770036]}},
{"type": "Feature", "id": "tfMqrUgxYlFyX0pmrkpNg5CDMaY=", "properties": {"ref": "53", "@spider": "under_armour", "addr:street_address": "300 Tanger Blvd.", "addr:city": "Branson", "addr:state": "MO", "addr:postcode": "65616", "addr:country": "US", "name": "Under Armour Factory House", "phone": "417-337-8284", "website": "https://store-locations.underarmour.com/mo/branson/53", "image": "https://store-locations.underarmour.com/images/store-img.jpg", "brand": "Under Armour", "brand:wikidata": "Q2031485"}, "geometry": {"type": "Point", "coordinates": [-93.2648849, 36.6439786]}},
{"type": "Feature", "id": "6cMwWimwosgYsjtotA9DDrJngeA=", "properties": {"ref": "UAFH-3995EOPS10", "@spider": "under_armour", "addr:street_address": "3995 Eagan Outlets Pkwy", "addr:city": "Eagan", "addr:state": "MN", "addr:postcode": "55122", "addr:country": "US", "name": "Under Armour Factory House", "phone": "651-796-3867", "website": "https://store-locations.underarmour.com/mn/eagan/UAFH-3995EOPS10", "image": "https://store-locations.underarmour.com/images/store-img.jpg", "brand": "Under Armour", "brand:wikidata": "Q2031485"}, "geometry": {"type": "Point", "coordinates": [-93.2163419, 44.8146703]}},
{"type": "Feature", "id": "OL5AswTo72ON9OZO_nsB0Cgx2k8=", "properties": {"ref": "UABH-60EBWBM", "@spider": "under_armour", "addr:street_address": "240 West Market W240", "addr:city": "Bloomington", "addr:state": "MN", "addr:postcode": "55425", "addr:country": "US", "name": "Under Armour Brand House", "phone": "612-235-4190", "website": "https://store-locations.underarmour.com/mn/bloomington/UABH-60EBWBM", "image": "http://hosted.where2getit.com/underarmour/images/storefronts/MallofAmerica.png", "brand": "Under Armour", "brand:wikidata": "Q2031485"}, "geometry": {"type": "Point", "coordinates": [-93.2422113, 44.8548691]}},
{"type": "Feature", "id": "0n4_h0mwxKuWtHn8LDGsjYcfE8w=", "properties": {"ref": "30", "@spider": "under_armour", "addr:street_address": "6415 Laveaux Ave NE", "addr:city": "Albertville", "addr:state": "MN", "addr:postcode": "55301", "addr:country": "US", "name": "Under Armour Factory House", "phone": "763-497-0420", "website": "https://store-locations.underarmour.com/mn/albertville/30", "image": "https://store-locations.underarmour.com/images/store-img.jpg", "brand": "Under Armour", "brand:wikidata": "Q2031485"}, "geometry": {"type": "Point", "coordinates": [-93.6674389, 45.2459417]}},
{"type": "Feature", "id": "21eLJ8dj5eivPuKgFm5OXwxcBNw=", "properties": {"ref": "59", "@spider": "under_armour", "addr:street_address": "1475 N. Burkart Rd.", "addr:city": "Howell", "addr:state": "MI", "addr:postcode": "48843", "addr:country": "US", "name": "Under Armour Factory House", "phone": "517-552-3865", "website": "https://store-locations.underarmour.com/mi/howell/59", "image": "https://store-locations.underarmour.com/images/store-img.jpg", "brand": "Under Armour", "brand:wikidata": "Q2031485"}, "geometry": {"type": "Point", "coordinates": [-83.9978194, 42.621691]}},
{"type": "Feature", "id": "XKFylxqnpfu3ePxk4HYWpC_YUjY=", "properties": {"ref": "UAFH-3508SSS100", "@spider": "under_armour", "addr:street_address": "350 84th Street SW", "addr:city": "Byron Center", "addr:state": "MI", "addr:postcode": "49315", "addr:country": "US", "name": "Under Armour Factory House", "phone": "616-226-5092", "website": "https://store-locations.underarmour.com/mi/byron-center/UAFH-3508SSS100", "image": "https://store-locations.underarmour.com/images/store-img.jpg", "brand": "Under Armour", "brand:wikidata": "Q2031485"}, "geometry": {"type": "Point", "coordinates": [-85.6711299, 42.8096281]}},
{"type": "Feature", "id": "ErNIn2pMRMIfia56te6kOPHfExc=", "properties": {"ref": "24", "@spider": "under_armour", "addr:street_address": "12150  Beyer Road", "addr:city": "Birch Run", "addr:state": "MI", "addr:postcode": "48415", "addr:country": "US", "name": "Under Armour Factory House", "phone": "989-624-9005", "website": "https://store-locations.underarmour.com/mi/birch-run/24", "image": "https://store-locations.underarmour.com/images/store-img.jpg", "brand": "Under Armour", "brand:wikidata": "Q2031485"}, "geometry": {"type": "Point", "coordinates": [-83.7798193, 43.2474789]}},
{"type": "Feature", "id": "UWLnvw1niiQrnZVE1Kow1zJvf08=", "properties": {"ref": "UAFH-4000BRSMAH", "@spider": "under_armour", "addr:street_address": "4760 Baldwin Road", "addr:city": "Auburn Hills", "addr:state": "MI", "addr:postcode": "48326", "addr:country": "US", "name": "Under Armour Factory House", "phone": "(248) 636-1971", "website": "https://store-locations.underarmour.com/mi/auburn-hills/UAFH-4000BRSMAH", "image": "https://store-locations.underarmour.com/images/store-img.jpg", "brand": "Under Armour", "brand:wikidata": "Q2031485"}, "geometry": {"type": "Point", "coordinates": [-83.3068391, 42.7069952]}},
{"type": "Feature", "id": "HVNWYpnWlPMkGMg4nAMzAy8KT8g=", "properties": {"ref": "37", "@spider": "under_armour", "addr:street_address": "336 US Route 1", "addr:city": "Kittery", "addr:state": "ME", "addr:postcode": "03904", "addr:country": "US", "name": "Under Armour Factory House", "phone": "207-438-9012", "website": "https://store-locations.underarmour.com/me/kittery/37", "image": "https://store-locations.underarmour.com/images/store-img.jpg", "brand": "Under Armour", "brand:wikidata": "Q2031485"}, "geometry": {"type": "Point", "coordinates": [-70.7303213, 43.1139654]}},
{"type": "Feature", "id": "bY3XFoA-aMv2ecj1LbxTVRlx6eA=", "properties": {"ref": "UAFH-66MSFM", "@spider": "under_armour", "addr:street_address": "66 Main Street", "addr:city": "Freeport", "addr:state": "ME", "addr:postcode": "04032", "addr:country": "US", "name": "Under Armour Factory House", "phone": "207-618-5313", "website": "https://store-locations.underarmour.com/me/freeport/UAFH-66MSFM", "image": "https://store-locations.underarmour.com/images/store-img.jpg", "brand": "Under Armour", "brand:wikidata": "Q2031485"}, "geometry": {"type": "Point", "coordinates": [-70.1035028, 43.8565674]}},
{"type": "Feature", "id": "sA4g9w3QAX6lEFXa6h_9s9mVsaE=", "properties": {"ref": "44", "@spider": "under_armour", "addr:street_address": "413 Outlet Center Drive", "addr:city": "Queenstown", "addr:state": "MD", "addr:postcode": "21658", "addr:country": "US", "name": "Under Armour Factory House", "phone": "(443)988-0427", "website": "https://store-locations.underarmour.com/md/queenstown/44", "image": "https://store-locations.underarmour.com/images/store-img.jpg", "brand": "Under Armour", "brand:wikidata": "Q2031485"}, "geometry": {"type": "Point", "coordinates": [-76.1590137, 38.9839893]}},
{"type": "Feature", "id": "m1NsKk3ZfzuFGzaU5h99LcqK_II=", "properties": {"ref": "UAFH-12741OGOCM", "@spider": "under_armour", "addr:street_address": "12741 Ocean Gateway", "addr:city": "Ocean City", "addr:state": "MD", "addr:postcode": "21842", "addr:country": "US", "name": "Under Armour Factory House", "phone": "410-213-1016", "website": "https://store-locations.underarmour.com/md/ocean-city/UAFH-12741OGOCM", "image": "https://store-locations.underarmour.com/images/store-img.jpg", "brand": "Under Armour", "brand:wikidata": "Q2031485"}, "geometry": {"type": "Point", "coordinates": [-75.1066211, 38.3380394]}},
{"type": "Feature", "id": "nj_0c1uNIXDFy4zqVpNVZDtBLQA=", "properties": {"ref": "UAFH-6800OHS518", "@spider": "under_armour", "addr:street_address": "6800 Oxon Hill", "addr:city": "National Harbor", "addr:state": "MD", "addr:postcode": "20745", "addr:country": "US", "name": "Under Armour Factory House", "phone": "301-839-0719", "website": "https://store-locations.underarmour.com/md/national-harbor/UAFH-6800OHS518", "image": "https://store-locations.underarmour.com/images/store-img.jpg", "brand": "Under Armour", "brand:wikidata": "Q2031485"}, "geometry": {"type": "Point", "coordinates": [-77.0014573, 38.7948488]}},
{"type": "Feature", "id": "LmECn-8E72fTvztTbE1xSJ27yRE=", "properties": {"ref": "261", "@spider": "under_armour", "addr:street_address": "7000 Arundel Mills Circle", "addr:city": "Hanover", "addr:state": "MD", "addr:postcode": "21076", "addr:country": "US", "name": "Under Armour Factory House", "phone": "410-454-6705", "website": "https://store-locations.underarmour.com/md/hanover/261", "image": "https://store-locations.underarmour.com/images/store-img.jpg", "brand": "Under Armour", "brand:wikidata": "Q2031485"}, "geometry": {"type": "Point", "coordinates": [-76.7242728, 39.1570531]}},
{"type": "Feature", "id": "3gSAcydt7fPARuq7yz6kyroZnBk=", "properties": {"ref": "50", "@spider": "under_armour", "addr:street_address": "365 Premium Outlets Blvd.", "addr:city": "Hagerstown", "addr:state": "MD", "addr:postcode": "21740", "addr:country": "US", "name": "Under Armour Factory House", "phone": "301-665-2812", "website": "https://store-locations.underarmour.com/md/hagerstown/50", "image": "https://store-locations.underarmour.com/images/store-img.jpg", "brand": "Under Armour", "brand:wikidata": "Q2031485"}, "geometry": {"type": "Point", "coordinates": [-77.733728, 39.606875]}},
{"type": "Feature", "id": "LV1T9RRmP7j5iwtZs6yBrd4d1ko=", "properties": {"ref": "UABH-10300LPPS2", "@spider": "under_armour", "addr:street_address": "10300 Little Patuxent Parkway", "addr:city": "Columbia", "addr:state": "MD", "addr:postcode": "21044", "addr:country": "US", "name": "Under Armour Brand House", "phone": "443-393-7188", "website": "https://store-locations.underarmour.com/md/columbia/UABH-10300LPPS2", "image": "https://store-locations.underarmour.com/images/store-img.jpg", "brand": "Under Armour", "brand:wikidata": "Q2031485"}, "geometry": {"type": "Point", "coordinates": [-76.861572, 39.215641]}},
{"type": "Feature", "id": "wa58tJK31i7LhSQgnQawDYRJKoE=", "properties": {"ref": "UAFH-22705CRS60", "@spider": "under_armour", "addr:street_address": "22705 Clarksburg Road", "addr:city": "Clarksburg", "addr:state": "MD", "addr:postcode": "20871", "addr:country": "US", "name": "Under Armour Factory House", "phone": "301-515-3107", "website": "https://store-locations.underarmour.com/md/clarksburg/UAFH-22705CRS60", "image": "https://store-locations.underarmour.com/images/store-img.jpg", "brand": "Under Armour", "brand:wikidata": "Q2031485"}, "geometry": {"type": "Point", "coordinates": [-77.2857697, 39.2281865]}},
{"type": "Feature", "id": "CkcoDr_KtDIonA5XXgAcJ4tugB0=", "properties": {"ref": "101", "@spider": "under_armour", "addr:street_address": "7101 Democracy Blvd.", "addr:city": "Bethesda", "addr:state": "MD", "addr:postcode": "20817", "addr:country": "US", "name": "Under Armour Brand House", "phone": "301-469-0237", "website": "https://store-locations.underarmour.com/md/bethesda/101", "image": "https://store-locations.underarmour.com/images/store-img.jpg", "brand": "Under Armour", "brand:wikidata": "Q2031485"}, "geometry": {"type": "Point", "coordinates": [-77.1459998, 39.0241378]}},
{"type": "Feature", "id": "37fpLcBKH_t3Nf9YduUuMZ-tASE=", "properties": {"ref": "UABH-700SPSBM", "@spider": "under_armour", "addr:street_address": "700 South President Street", "addr:city": "Baltimore", "addr:state": "MD", "addr:postcode": "21202", "addr:country": "US", "name": "Under Armour Brand House", "phone": "410-528-5304", "website": "https://store-locations.underarmour.com/md/baltimore/UABH-700SPSBM", "image": "http://s7d4.scene7.com/is/image/Underarmour/HBE", "brand": "Under Armour", "brand:wikidata": "Q2031485"}, "geometry": {"type": "Point", "coordinates": [-76.6017323, 39.2833653]}},
{"type": "Feature", "id": "XKT_s24o8UIFuBV0p30Nq_XpQX0=", "properties": {"ref": "UABH-2575AMAM", "@spider": "under_armour", "addr:street_address": "2575 Annapolis Mall", "addr:city": "Annapolis", "addr:state": "MD", "addr:postcode": "21401", "addr:country": "US", "name": "Under Armour Brand House", "phone": "410-571-9331", "website": "https://store-locations.underarmour.com/md/annapolis/UABH-2575AMAM", "image": "https://store-locations.underarmour.com/images/store-img.jpg", "brand": "Under Armour", "brand:wikidata": "Q2031485"}, "geometry": {"type": "Point", "coordinates": [-76.545709, 38.9905583]}},
{"type": "Feature", "id": "Az1S_GvIa_vg6-ZEO9gkjHwGbeo=", "properties": {"ref": "UAFH-555SLPS315", "@spider": "under_armour", "addr:street_address": "555 Sterling Lyon Parkway", "addr:city": "Winnipeg", "addr:postcode": "R3P 2T3", "addr:country": "CA", "name": "Under Armour Factory House", "phone": "204-452-3143", "website": "https://store-locations.underarmour.com/mb/winnipeg/UAFH-555SLPS315", "image": "https://store-locations.underarmour.com/images/store-img.jpg", "brand": "Under Armour", "brand:wikidata": "Q2031485"}, "geometry": {"type": "Point", "coordinates": [-97.2136359, 49.8451046]}},
{"type": "Feature", "id": "mqpMi5VQ3QOEDmw7Ks4Okz2NoxA=", "properties": {"ref": "5", "@spider": "under_armour", "addr:street_address": "1 Premium Outlets Blvd.", "addr:city": "Wrentham", "addr:state": "MA", "addr:postcode": "02093", "addr:country": "US", "name": "Under Armour Factory House", "phone": "508-384-1180", "website": "https://store-locations.underarmour.com/ma/wrentham/5", "image": "https://store-locations.underarmour.com/images/store-img.jpg", "brand": "Under Armour", "brand:wikidata": "Q2031485"}, "geometry": {"type": "Point", "coordinates": [-71.3515107, 42.0397057]}},
{"type": "Feature", "id": "bdm3ISOOejVkYxpKIT8eB3i0yeI=", "properties": {"ref": "29", "@spider": "under_armour", "addr:street_address": "320 Premium Outlets Blvd", "addr:city": "Lee", "addr:state": "MA", "addr:postcode": "01238", "addr:country": "US", "name": "Under Armour Factory House", "phone": "(413)728-5203", "website": "https://store-locations.underarmour.com/ma/lee/29", "image": "https://store-locations.underarmour.com/images/store-img.jpg", "brand": "Under Armour", "brand:wikidata": "Q2031485"}, "geometry": {"type": "Point", "coordinates": [-73.2342826, 42.2942925]}},
{"type": "Feature", "id": "xbW7kQK0bYny1TvytkVrNiG0jLY=", "properties": {"ref": "UABH-800BSS049B", "@spider": "under_armour", "addr:street_address": "888 Boylston Street", "addr:city": "Boston", "addr:state": "MA", "addr:postcode": "02199", "addr:country": "US", "name": "Under Armour Brand House", "phone": "617-236-1723", "website": "https://store-locations.underarmour.com/ma/boston/UABH-800BSS049B", "image": "http://s7d4.scene7.com/is/image/Underarmour/Boston?$Other$", "brand": "Under Armour", "brand:wikidata": "Q2031485"}, "geometry": {"type": "Point", "coordinates": [-71.082475, 42.3483326]}},
{"type": "Feature", "id": "IEa94-FFsFI0w_2FO-HPlGhTfkc=", "properties": {"ref": "CSUAF-2410TBS320", "@spider": "under_armour", "addr:street_address": "2410 Tanger Blvd.", "addr:city": "Gonzales", "addr:state": "LA", "addr:postcode": "70737", "addr:country": "US", "name": "Under Armour Factory House", "phone": "225-330-8017", "website": "https://store-locations.underarmour.com/la/gonzales/CSUAF-2410TBS320", "image": "https://store-locations.underarmour.com/images/store-img.jpg", "brand": "Under Armour", "brand:wikidata": "Q2031485"}, "geometry": {"type": "Point", "coordinates": [-90.9520864, 30.2127005]}},
{"type": "Feature", "id": "oTsKwod72a8EUDv_IXwTXmUL4Xw=", "properties": {"ref": "UAFH-305BBBCL", "@spider": "under_armour", "addr:street_address": "305 Boardwalk Blvd.", "addr:city": "Bossier City", "addr:state": "LA", "addr:postcode": "71111", "addr:country": "US", "name": "Under Armour Factory House", "phone": "318-219-5140", "website": "https://store-locations.underarmour.com/la/bossier-city/UAFH-305BBBCL", "image": "https://store-locations.underarmour.com/images/store-img.jpg", "brand": "Under Armour", "brand:wikidata": "Q2031485"}, "geometry": {"type": "Point", "coordinates": [-93.7401755, 32.517842]}},
{"type": "Feature", "id": "e5zdAQdsF12qBPeCuFXZpSGPkMM=", "properties": {"ref": "UAFH-1155BCSCSK", "@spider": "under_armour", "addr:street_address": "1155 Buck Creek Road", "addr:city": "Simpsonville", "addr:state": "KY", "addr:postcode": "40067", "addr:country": "US", "name": "Under Armour Factory House", "phone": "502-722-8654", "website": "https://store-locations.underarmour.com/ky/simpsonville/UAFH-1155BCSCSK", "image": "https://store-locations.underarmour.com/images/store-img.jpg", "brand": "Under Armour", "brand:wikidata": "Q2031485"}, "geometry": {"type": "Point", "coordinates": [-85.3520379, 38.2062338]}},
{"type": "Feature", "id": "Q2OGsSIdySBbpRXpfx_u4gVVLiU=", "properties": {"ref": "WICHI-2716NGRWK-1", "@spider": "under_armour", "addr:street_address": "2696 N Greenwich Road", "addr:city": "Wichita", "addr:state": "KS", "addr:postcode": "67226", "addr:country": "US", "name": "Under Armour Factory House", "phone": "316-771-5843", "website": "https://store-locations.underarmour.com/ks/wichita/WICHI-2716NGRWK-1", "image": "https://store-locations.underarmour.com/images/store-img.jpg", "brand": "Under Armour", "brand:wikidata": "Q2031485"}, "geometry": {"type": "Point", "coordinates": [-97.2026017, 37.7314027]}},
{"type": "Feature", "id": "363xlQffwPSNoVTOLe_vtLEB-5A=", "properties": {"ref": "80", "@spider": "under_armour", "addr:street_address": "1843 Village West Pkwy", "addr:city": "Kansas City", "addr:state": "KS", "addr:postcode": "66111", "addr:country": "US", "name": "Under Armour Factory House", "phone": "913-788-8867", "website": "https://store-locations.underarmour.com/ks/kansas-city/80", "image": "https://store-locations.underarmour.com/images/store-img.jpg", "brand": "Under Armour", "brand:wikidata": "Q2031485"}, "geometry": {"type": "Point", "coordinates": [-94.8259804, 39.1266992]}},
{"type": "Feature", "id": "_Br_iZtMnsZtSe62a4SzxKsim9U=", "properties": {"ref": "57", "@spider": "under_armour", "addr:street_address": "601 Wabash Street", "addr:city": "Michigan City", "addr:state": "IN", "addr:postcode": "46360", "addr:country": "US", "name": "Under Armour Factory House", "phone": "219-879-3271", "website": "https://store-locations.underarmour.com/in/michigan-city/57", "image": "https://store-locations.underarmour.com/images/store-img.jpg", "brand": "Under Armour", "brand:wikidata": "Q2031485"}, "geometry": {"type": "Point", "coordinates": [-86.9066836, 41.7147927]}},
{"type": "Feature", "id": "Wp3c_QlKn0j2IojmpwJSYu61vN8=", "properties": {"ref": "UAFH-6245NO27SA", "@spider": "under_armour", "addr:street_address": "6245 N. Old 27", "addr:city": "Fremont", "addr:state": "IN", "addr:postcode": "46737", "addr:country": "US", "name": "Under Armour Factory House", "phone": "260-833-0267", "website": "https://store-locations.underarmour.com/in/fremont/UAFH-6245NO27SA", "image": "https://store-locations.underarmour.com/images/store-img.jpg", "brand": "Under Armour", "brand:wikidata": "Q2031485"}, "geometry": {"type": "Point", "coordinates": [-85.0032439, 41.7327036]}},
{"type": "Feature", "id": "daJ6iRyPgA8lqRO7J7pZZdrNl_s=", "properties": {"ref": "47", "@spider": "under_armour", "addr:street_address": "3195 Outlet Drive", "addr:city": "Edinburgh", "addr:state": "IN", "addr:postcode": "46124", "addr:country": "US", "name": "Under Armour Factory House", "phone": "812-526-2078", "website": "https://store-locations.underarmour.com/in/edinburgh/47", "image": "https://store-locations.underarmour.com/images/store-img.jpg", "brand": "Under Armour", "brand:wikidata": "Q2031485"}, "geometry": {"type": "Point", "coordinates": [-85.961421, 39.3110826]}},
{"type": "Feature", "id": "My9oAS-1F1dkcGgV9sp5UArOYpw=", "properties": {"ref": "UAFS-5220FOWS11", "@spider": "under_armour", "addr:street_address": "5220 Fashion Outlet Way", "addr:city": "Rosemont", "addr:state": "IL", "addr:postcode": "60018", "addr:country": "US", "name": "Under Armour Factory House", "phone": "847-678-7759", "website": "https://store-locations.underarmour.com/il/rosemont/UAFS-5220FOWS11", "image": "https://store-locations.underarmour.com/images/store-img.jpg", "brand": "Under Armour", "brand:wikidata": "Q2031485"}, "geometry": {"type": "Point", "coordinates": [-87.8671134, 41.974961]}},
{"type": "Feature", "id": "rMAz51izuQmkPbZUO7NSRUrZ66s=", "properties": {"ref": "UABH-600NMACI", "@spider": "under_armour", "addr:street_address": "600 N. Michigan Ave.", "addr:city": "Chicago", "addr:state": "IL", "addr:postcode": "60611", "addr:country": "US", "name": "Under Armour Brand House", "phone": "312-690-5094", "website": "https://store-locations.underarmour.com/il/chicago/UABH-600NMACI", "image": "http://hosted.where2getit.com/underarmour/images/storefronts/Chicago.png", "brand": "Under Armour", "brand:wikidata": "Q2031485"}, "geometry": {"type": "Point", "coordinates": [-87.6248692, 41.8928578]}},
{"type": "Feature", "id": "ntpjNVLTju1LvlZeNMQuMbCZYXo=", "properties": {"ref": "81", "@spider": "under_armour", "addr:street_address": "1650 Premium Outlets Blvd.", "addr:city": "Aurora", "addr:state": "IL", "addr:postcode": "60502-2910", "addr:country": "US", "name": "Under Armour Factory House", "phone": "630-978-3821", "website": "https://store-locations.underarmour.com/il/aurora/81", "image": "https://store-locations.underarmour.com/images/store-img.jpg", "brand": "Under Armour", "brand:wikidata": "Q2031485"}, "geometry": {"type": "Point", "coordinates": [-88.2740881, 41.799798]}},
{"type": "Feature", "id": "6trUIEYUfThSL6iYrhu4WYoArqI=", "properties": {"ref": "UAFH-3355EFAS11", "@spider": "under_armour", "addr:street_address": "1190 N Eagle Road", "addr:city": "Meridian", "addr:state": "ID", "addr:postcode": "83642", "addr:country": "US", "name": "Under Armour Factory House", "phone": "(208) 629-4218", "website": "https://store-locations.underarmour.com/id/meridian/UAFH-3355EFAS11", "image": "https://store-locations.underarmour.com/images/store-img.jpg", "brand": "Under Armour", "brand:wikidata": "Q2031485"}, "geometry": {"type": "Point", "coordinates": [-116.3528044, 43.6190506]}},
{"type": "Feature", "id": "4h7-aRTK_G6SWbyCImd9rQgHExo=", "properties": {"ref": "73", "@spider": "under_armour", "addr:street_address": "1991 O&#39;Donnell Road", "addr:city": "Williamsburg", "addr:state": "IA", "addr:postcode": "52361-9653", "addr:country": "US", "name": "Under Armour Factory House", "phone": "(319)800-6808", "website": "https://store-locations.underarmour.com/ia/williamsburg/73", "image": "https://store-locations.underarmour.com/images/store-img.jpg", "brand": "Under Armour", "brand:wikidata": "Q2031485"}, "geometry": {"type": "Point", "coordinates": [-92.0038411, 41.6888054]}},
{"type": "Feature", "id": "EJqssXOMqu6iHX6nqa-9aZnkxys=", "properties": {"ref": "UAFH-771BPDNS22", "@spider": "under_armour", "addr:street_address": "771 Bass Pro Drive NW", "addr:city": "Altoona", "addr:state": "IA", "addr:postcode": "50009", "addr:country": "US", "name": "Under Armour Factory House", "phone": "515-393-2368", "website": "https://store-locations.underarmour.com/ia/altoona/UAFH-771BPDNS22", "image": "https://store-locations.underarmour.com/images/store-img.jpg", "brand": "Under Armour", "brand:wikidata": "Q2031485"}, "geometry": {"type": "Point", "coordinates": [-93.512637, 41.6572573]}},
{"type": "Feature", "id": "AbI57i81HU6e9pdyvm_jlXV5Vto=", "properties": {"ref": "WUAFH-915RPSA180", "@spider": "under_armour", "addr:street_address": "915 Ridgewalk Parkway", "addr:city": "Woodstock", "addr:state": "GA", "addr:postcode": "30188", "addr:country": "US", "name": "Under Armour Factory House", "phone": "770-592-5852", "website": "https://store-locations.underarmour.com/ga/woodstock/WUAFH-915RPSA180", "image": "https://store-locations.underarmour.com/images/store-img.jpg", "brand": "Under Armour", "brand:wikidata": "Q2031485"}, "geometry": {"type": "Point", "coordinates": [-84.5265338, 34.1202777]}},
{"type": "Feature", "id": "O2Do_7uMRAIfpDO7L1tHlZ4sXqk=", "properties": {"ref": "UAFH-200TOBS495", "@spider": "under_armour", "addr:street_address": "200 Tanger Outlet Blvd.", "addr:city": "Pooler", "addr:state": "GA", "addr:postcode": "31322", "addr:country": "US", "name": "Under Armour Factory House", "phone": "912-330-2156", "website": "https://store-locations.underarmour.com/ga/pooler/UAFH-200TOBS495", "image": "https://store-locations.underarmour.com/images/store-img.jpg", "brand": "Under Armour", "brand:wikidata": "Q2031485"}, "geometry": {"type": "Point", "coordinates": [-81.2432264, 32.1346497]}},
{"type": "Feature", "id": "4hS3pEQzttxgh79L_xn3_4deSPw=", "properties": {"ref": "90", "@spider": "under_armour", "addr:street_address": "1000 Tanger Dr.", "addr:city": "Locust Grove", "addr:state": "GA", "addr:postcode": "30248", "addr:country": "US", "name": "Under Armour Factory House", "phone": "770-898-8588", "website": "https://store-locations.underarmour.com/ga/locust-grove/90", "image": "https://store-locations.underarmour.com/images/store-img.jpg", "brand": "Under Armour", "brand:wikidata": "Q2031485"}, "geometry": {"type": "Point", "coordinates": [-84.1231459, 33.3499111]}},
{"type": "Feature", "id": "r6hTGcuQ_unc3noUK0GbaGWb7mY=", "properties": {"ref": "20", "@spider": "under_armour", "addr:street_address": "800 Highway 400 South", "addr:city": "Dawsonville", "addr:state": "GA", "addr:postcode": "30534", "addr:country": "US", "name": "Under Armour Factory House", "phone": "706-265-0038", "website": "https://store-locations.underarmour.com/ga/dawsonville/20", "image": "https://store-locations.underarmour.com/images/store-img.jpg", "brand": "Under Armour", "brand:wikidata": "Q2031485"}, "geometry": {"type": "Point", "coordinates": [-84.0485427, 34.3567585]}},
{"type": "Feature", "id": "f-5pHn9SWbmiHofDh3Y6K6ia0ts=", "properties": {"ref": "83", "@spider": "under_armour", "addr:street_address": "800 Steven B. Tanger Blvd", "addr:city": "Commerce", "addr:state": "GA", "addr:postcode": "30529", "addr:country": "US", "name": "Under Armour Factory House", "phone": "706-335-7078", "website": "https://store-locations.underarmour.com/ga/commerce/83", "image": "https://store-locations.underarmour.com/images/store-img.jpg", "brand": "Under Armour", "brand:wikidata": "Q2031485"}, "geometry": {"type": "Point", "coordinates": [-83.4737739, 34.2500601]}},
{"type": "Feature", "id": "Ahjul44dSR5JG7jh9kgLy0X1D8w=", "properties": {"ref": "UAFH-1791PBLBSW", "@spider": "under_armour", "addr:street_address": "1791 Palm Beach Lakes Blvd", "addr:city": "West Palm Beach", "addr:state": "FL", "addr:postcode": "33401", "addr:country": "US", "name": "Under Armour Factory House", "phone": "561-693-0000", "website": "https://store-locations.underarmour.com/fl/west-palm-beach/UAFH-1791PBLBSW", "image": "https://store-locations.underarmour.com/images/store-img.jpg", "brand": "Under Armour", "brand:wikidata": "Q2031485"}, "geometry": {"type": "Point", "coordinates": [-80.087831, 26.725758]}},
{"type": "Feature", "id": "_HZM6ckQ00U6jwDpAkpbnAGIyJo=", "properties": {"ref": "UAFH-12801WSBS4", "@spider": "under_armour", "addr:street_address": "12801 W. Sunrise Blvd.", "addr:city": "Sunrise", "addr:state": "FL", "addr:postcode": "33323", "addr:country": "US", "name": "Under Armour Factory House", "phone": "954-845-0184", "website": "https://store-locations.underarmour.com/fl/sunrise/UAFH-12801WSBS4", "image": "https://store-locations.underarmour.com/images/store-img.jpg", "brand": "Under Armour", "brand:wikidata": "Q2031485"}, "geometry": {"type": "Point", "coordinates": [-80.3229469, 26.1462808]}},
{"type": "Feature", "id": "N9LVFRa4vYx8nZ8pyXADYKJ79Kk=", "properties": {"ref": "31", "@spider": "under_armour", "addr:street_address": "2700 State Road 16", "addr:city": "St. Augustine", "addr:state": "FL", "addr:postcode": "32092", "addr:country": "US", "name": "Under Armour Factory House", "phone": "904-819-9667", "website": "https://store-locations.underarmour.com/fl/st.-augustine/31", "image": "https://store-locations.underarmour.com/images/store-img.jpg", "brand": "Under Armour", "brand:wikidata": "Q2031485"}, "geometry": {"type": "Point", "coordinates": [-81.4155071, 29.9219929]}},
{"type": "Feature", "id": "ae1SX1c_c00CDhcU3HUdvwWeB-o=", "properties": {"ref": "UAFHY-4973IDS3OF", "@spider": "under_armour", "addr:street_address": "4973 International Dr.", "addr:city": "Orlando", "addr:state": "FL", "addr:postcode": "32819", "addr:country": "US", "name": "Under Armour Factory House - Youth", "phone": "407-219-9767", "website": "https://store-locations.underarmour.com/fl/orlando/UAFHY-4973IDS3OF", "image": "https://store-locations.underarmour.com/images/store-img.jpg", "brand": "Under Armour", "brand:wikidata": "Q2031485"}, "geometry": {"type": "Point", "coordinates": [-81.4500218444415, 28.4765014982331]}},
{"type": "Feature", "id": "hifML6WNG2aAsgwiD9zhiJ8CUbA=", "properties": {"ref": "UAFH-8200VAS405", "@spider": "under_armour", "addr:street_address": "8200 Vineland Ave", "addr:city": "Orlando", "addr:state": "FL", "addr:postcode": "32821", "addr:country": "US", "name": "Under Armour Factory House - Footwear", "phone": "410-949-3329", "website": "https://store-locations.underarmour.com/fl/orlando/UAFH-8200VAS405", "image": "https://underarmour.scene7.com/is/image/Underarmour/Vineland%20Overview", "brand": "Under Armour", "brand:wikidata": "Q2031485"}, "geometry": {"type": "Point", "coordinates": [-81.4919762, 28.38805]}},
{"type": "Feature", "id": "a0kEpbHyc31p0GQkNzbmPL0stgM=", "properties": {"ref": "UAFH-8200VAS124", "@spider": "under_armour", "addr:street_address": "8200 Vineland ave", "addr:city": "Orlando", "addr:state": "FL", "addr:postcode": "32821", "addr:country": "US", "name": "Under Armour Factory House", "phone": "407-465-0516", "website": "https://store-locations.underarmour.com/fl/orlando/UAFH-8200VAS124", "image": "https://underarmour.scene7.com/is/image/Underarmour/IMG_3104", "brand": "Under Armour", "brand:wikidata": "Q2031485"}, "geometry": {"type": "Point", "coordinates": [-81.4919762, 28.38805]}},
{"type": "Feature", "id": "z363cbE9Dlgo-mj1z-J5KocBFec=", "properties": {"ref": "UACH-5225IDSDOF", "@spider": "under_armour", "addr:street_address": "5225 International Drive", "addr:city": "Orlando", "addr:state": "FL", "addr:postcode": "32819", "addr:country": "US", "name": "Under Armour Clearance House", "phone": "407-965-2804", "website": "https://store-locations.underarmour.com/fl/orlando/UACH-5225IDSDOF", "image": "https://store-locations.underarmour.com/images/store-img.jpg", "brand": "Under Armour", "brand:wikidata": "Q2031485"}, "geometry": {"type": "Point", "coordinates": [-81.4524892, 28.4688159]}},
{"type": "Feature", "id": "86IhIYamy6boHUgJoTgNOBp1VQE=", "properties": {"ref": "UABH-4200CRSEOF", "@spider": "under_armour", "addr:street_address": "4200 Conroy Road", "addr:city": "Orlando", "addr:state": "FL", "addr:postcode": "32839", "addr:country": "US", "name": "Under Armour Brand House", "phone": "321-319-1293", "website": "https://store-locations.underarmour.com/fl/orlando/UABH-4200CRSEOF", "image": "http://hosted.where2getit.com/underarmour/images/storefronts/MallatMillenia.png", "brand": "Under Armour", "brand:wikidata": "Q2031485"}, "geometry": {"type": "Point", "coordinates": [-81.4315048, 28.4855369]}},
{"type": "Feature", "id": "voVkPX6pwG-PEyqJ9UaN_eJ82Zs=", "properties": {"ref": "70", "@spider": "under_armour", "addr:street_address": "15729 Apopka Vineland Rd.", "addr:city": "Orlando", "addr:state": "FL", "addr:postcode": "32821", "addr:country": "US", "name": "Under Armour Factory House", "phone": "407-238-2025", "website": "https://store-locations.underarmour.com/fl/orlando/70", "image": "https://store-locations.underarmour.com/images/store-img.jpg", "brand": "Under Armour", "brand:wikidata": "Q2031485"}, "geometry": {"type": "Point", "coordinates": [-81.4890059, 28.348711]}},
{"type": "Feature", "id": "8ZKxESsUEhaOBdGP4gi2lCyuVWM=", "properties": {"ref": "38", "@spider": "under_armour", "addr:street_address": "4975 International Dr.", "addr:city": "Orlando", "addr:state": "FL", "addr:postcode": "32819", "addr:country": "US", "name": "Under Armour Factory House", "phone": "407-355-3177", "website": "https://store-locations.underarmour.com/fl/orlando/38", "image": "https://store-locations.underarmour.com/images/store-img.jpg", "brand": "Under Armour", "brand:wikidata": "Q2031485"}, "geometry": {"type": "Point", "coordinates": [-81.4504741, 28.4756857]}},
{"type": "Feature", "id": "kaBPgkr_B1FRT06iLVwRmlwyfVs=", "properties": {"ref": "DOLPH-11401N1SMF", "@spider": "under_armour", "addr:street_address": "11401 NW 12th St", "addr:city": "Miami", "addr:state": "FL", "addr:postcode": "33172", "addr:country": "US", "name": "Under Armour Factory House", "phone": "(786) 975-1853", "website": "https://store-locations.underarmour.com/fl/miami/DOLPH-11401N1SMF", "image": "https://store-locations.underarmour.com/images/store-img.jpg", "brand": "Under Armour", "brand:wikidata": "Q2031485"}, "geometry": {"type": "Point", "coordinates": [-80.38024, 25.7879777]}},
{"type": "Feature", "id": "J4-9WJvVWaKO7wdm3mp-8LJGzFM=", "properties": {"ref": "UAFH-2244GCDS60", "@spider": "under_armour", "addr:street_address": "2244 Grand Cypress Drive", "addr:city": "Lutz", "addr:state": "FL", "addr:postcode": "33559", "addr:country": "US", "name": "Under Armour Factory House", "phone": "813-563-4426", "website": "https://store-locations.underarmour.com/fl/lutz/UAFH-2244GCDS60", "image": "https://store-locations.underarmour.com/images/store-img.jpg", "brand": "Under Armour", "brand:wikidata": "Q2031485"}, "geometry": {"type": "Point", "coordinates": [-82.3903573, 28.1891664]}},
{"type": "Feature", "id": "aMR-Mb4MAYWN8a9HTyfaksIT6SI=", "properties": {"ref": "UABH-1668EBVDS1", "@spider": "under_armour", "addr:street_address": "1668 E. Buena Vista Drive", "addr:city": "Lake Buena Vista", "addr:state": "FL", "addr:postcode": "32830", "addr:country": "US", "name": "Under Armour Brand House", "phone": "(407)982-5748", "website": "https://store-locations.underarmour.com/fl/lake-buena-vista/UABH-1668EBVDS1", "image": "http://hosted.where2getit.com/underarmour/images/storefronts/DisneySprings.png", "brand": "Under Armour", "brand:wikidata": "Q2031485"}, "geometry": {"type": "Point", "coordinates": [-81.5149, 28.3706895]}},
{"type": "Feature", "id": "cUCvZ2f3SYbVIaTBZChugAxe7j4=", "properties": {"ref": "UAS-20350SRS21-1", "@spider": "under_armour", "addr:street_address": "20350 Summerlin Rd", "addr:city": "Fort Myers", "addr:state": "FL", "addr:postcode": "33908", "addr:country": "US", "name": "Under Armour Factory House", "phone": "239-437-3634", "website": "https://store-locations.underarmour.com/fl/fort-myers/UAS-20350SRS21-1", "image": "https://store-locations.underarmour.com/images/store-img.jpg", "brand": "Under Armour", "brand:wikidata": "Q2031485"}, "geometry": {"type": "Point", "coordinates": [-81.9721465, 26.4946872]}},
{"type": "Feature", "id": "q-wbZt9SieCrIbG5xf06RJP_luY=", "properties": {"ref": "UACH-250EPDS300", "@spider": "under_armour", "addr:street_address": "250 East Palm Drive", "addr:city": "Florida City", "addr:state": "FL", "addr:postcode": "33034", "addr:country": "US", "name": "Under Armour Clearance House", "phone": "786-465-4954", "website": "https://store-locations.underarmour.com/fl/florida-city/UACH-250EPDS300", "image": "https://store-locations.underarmour.com/images/store-img.jpg", "brand": "Under Armour", "brand:wikidata": "Q2031485"}, "geometry": {"type": "Point", "coordinates": [-80.4728899, 25.4526434]}},
{"type": "Feature", "id": "K53z9MqfJ2qNGI-ewvbpnZ6RWvA=", "properties": {"ref": "36", "@spider": "under_armour", "addr:street_address": "10801 Corkscrew Rd.", "addr:city": "Estero", "addr:state": "FL", "addr:postcode": "33928", "addr:country": "US", "name": "Under Armour Factory House", "phone": "239-390-9008", "website": "https://store-locations.underarmour.com/fl/estero/36", "image": "https://store-locations.underarmour.com/images/store-img.jpg", "brand": "Under Armour", "brand:wikidata": "Q2031485"}, "geometry": {"type": "Point", "coordinates": [-81.774857, 26.4352948]}},
{"type": "Feature", "id": "80FBpfLQVBX5aawWj22Jn57YFWg=", "properties": {"ref": "15", "@spider": "under_armour", "addr:street_address": "5553 Factory Shops Blvd", "addr:city": "Ellenton", "addr:state": "FL", "addr:postcode": "34222", "addr:country": "US", "name": "Under Armour Factory House", "phone": "941-729-6705", "website": "https://store-locations.underarmour.com/fl/ellenton/15", "image": "https://store-locations.underarmour.com/images/store-img.jpg", "brand": "Under Armour", "brand:wikidata": "Q2031485"}, "geometry": {"type": "Point", "coordinates": [-82.5080439, 27.5337647]}},
{"type": "Feature", "id": "84XHTc-gmEy-EY_EE-_Qk7L4TwY=", "properties": {"ref": "17", "@spider": "under_armour", "addr:street_address": "10676 Emerald Cost Parkway West", "addr:city": "Destin", "addr:state": "FL", "addr:postcode": "32550", "addr:country": "US", "name": "Under Armour Factory House", "phone": "850-351-0120", "website": "https://store-locations.underarmour.com/fl/destin/17", "image": "https://store-locations.underarmour.com/images/store-img.jpg", "brand": "Under Armour", "brand:wikidata": "Q2031485"}, "geometry": {"type": "Point", "coordinates": [-86.3513395, 30.3799313]}},
{"type": "Feature", "id": "DuLVqDrTJoZW4SLGOzfkSWSrYTc=", "properties": {"ref": "UAFH-1100CBS300", "@spider": "under_armour", "addr:street_address": "1100 Cornerstone Blvd.", "addr:city": "Daytona Beach", "addr:state": "FL", "addr:postcode": "32117", "addr:country": "US", "name": "Under Armour Factory House", "phone": "386-274-2461", "website": "https://store-locations.underarmour.com/fl/daytona-beach/UAFH-1100CBS300", "image": "https://underarmour.scene7.com/is/image/Underarmour/StoreFront_FactoryHouse2?fmt=jpg", "brand": "Under Armour", "brand:wikidata": "Q2031485"}, "geometry": {"type": "Point", "coordinates": [-81.0982294, 29.2133437]}},
{"type": "Feature", "id": "V7zjPUikbx0enfo09gM61zygXVo=", "properties": {"ref": "39", "@spider": "under_armour", "addr:street_address": "36698 Bayside Outlet Dr.", "addr:city": "Rehoboth Beach", "addr:state": "DE", "addr:postcode": "19971", "addr:country": "US", "name": "Under Armour Factory House", "phone": "302-227-7110", "website": "https://store-locations.underarmour.com/de/rehoboth-beach/39", "image": "https://store-locations.underarmour.com/images/store-img.jpg", "brand": "Under Armour", "brand:wikidata": "Q2031485"}, "geometry": {"type": "Point", "coordinates": [-75.1089737, 38.7146739]}},
{"type": "Feature", "id": "FS9uMjUry4FL4-5J60E6vYkg7wQ=", "properties": {"ref": "228", "@spider": "under_armour", "addr:street_address": "455 Trolley Line Blvd", "addr:city": "Mashantucket", "addr:state": "CT", "addr:postcode": "06338", "addr:country": "US", "name": "Under Armour Factory House", "phone": "860-237-6031", "website": "https://store-locations.underarmour.com/ct/mashantucket/228", "image": "https://store-locations.underarmour.com/images/store-img.jpg", "brand": "Under Armour", "brand:wikidata": "Q2031485"}, "geometry": {"type": "Point", "coordinates": [-71.9593989, 41.4741541]}},
{"type": "Feature", "id": "wbaobQ6ijAnD3l6W_lcy_BQGB-M=", "properties": {"ref": "11", "@spider": "under_armour", "addr:street_address": "20-A Killingworth Turnpike", "addr:city": "Clinton", "addr:state": "CT", "addr:postcode": "06413", "addr:country": "US", "name": "Under Armour Factory House", "phone": "860-664-9229", "website": "https://store-locations.underarmour.com/ct/clinton/11", "image": "https://store-locations.underarmour.com/images/store-img.jpg", "brand": "Under Armour", "brand:wikidata": "Q2031485"}, "geometry": {"type": "Point", "coordinates": [-72.5328717, 41.2914897]}},
{"type": "Feature", "id": "iKPlZxrutYYCEYAQXVIEOWLYA_M=", "properties": {"ref": "UAFH-13801GSTC", "@spider": "under_armour", "addr:street_address": "13801 Grant Street", "addr:city": "Thornton", "addr:state": "CO", "addr:postcode": "80023", "addr:country": "US", "name": "Under Armour Factory House", "phone": "720-457-5583", "website": "https://store-locations.underarmour.com/co/thornton/UAFH-13801GSTC", "image": "https://store-locations.underarmour.com/images/store-img.jpg", "brand": "Under Armour", "brand:wikidata": "Q2031485"}, "geometry": {"type": "Point", "coordinates": [-104.9834254, 39.9476938]}},
{"type": "Feature", "id": "mo7xwP3zUnF2HmjeaQo1_RHNjuw=", "properties": {"ref": "61", "@spider": "under_armour", "addr:street_address": "246-O Rainbow Dr.", "addr:city": "Silverthorne", "addr:state": "CO", "addr:postcode": "80498", "addr:country": "US", "name": "Under Armour Factory House", "phone": "970-468-7453", "website": "https://store-locations.underarmour.com/co/silverthorne/61", "image": "https://store-locations.underarmour.com/images/store-img.jpg", "brand": "Under Armour", "brand:wikidata": "Q2031485"}, "geometry": {"type": "Point", "coordinates": [-106.0701718, 39.6306684]}},
{"type": "Feature", "id": "Y8aPTxOos7SxTz-zfUKmjyQaZUs=", "properties": {"ref": "62", "@spider": "under_armour", "addr:street_address": "5833 McWhinney Blvd.", "addr:city": "Loveland", "addr:state": "CO", "addr:postcode": "80538", "addr:country": "US", "name": "Under Armour Factory House", "phone": "970-635-4247", "website": "https://store-locations.underarmour.com/co/loveland/62", "image": "https://store-locations.underarmour.com/images/store-img.jpg", "brand": "Under Armour", "brand:wikidata": "Q2031485"}, "geometry": {"type": "Point", "coordinates": [-104.9938049, 40.4111483]}},
{"type": "Feature", "id": "kvndFIzXpyV3GWnNea_Kpljc2W4=", "properties": {"ref": "UAFH-14500WCAS2-1", "@spider": "under_armour", "addr:street_address": "14500 W. Colfax Ave", "addr:city": "Lakewood", "addr:state": "CO", "addr:postcode": "80401", "addr:country": "US", "name": "Under Armour Factory House", "phone": "720-279-7405", "website": "https://store-locations.underarmour.com/co/lakewood/UAFH-14500WCAS2-1", "image": "https://store-locations.underarmour.com/images/store-img.jpg", "brand": "Under Armour", "brand:wikidata": "Q2031485"}, "geometry": {"type": "Point", "coordinates": [-105.160049, 39.7316965]}},
{"type": "Feature", "id": "ST1eYHdASsw8wpR61xw7oiRYv2I=", "properties": {"ref": "34", "@spider": "under_armour", "addr:street_address": "5050 Factory Shops Boulevard", "addr:city": "Castle Rock", "addr:state": "CO", "addr:postcode": "80108", "addr:country": "US", "name": "Under Armour Factory House", "phone": "303-814-1004", "website": "https://store-locations.underarmour.com/co/castle-rock/34", "image": "https://store-locations.underarmour.com/images/store-img.jpg", "brand": "Under Armour", "brand:wikidata": "Q2031485"}, "geometry": {"type": "Point", "coordinates": [-104.873921, 39.4149811]}},
{"type": "Feature", "id": "QWEclOrU_vOwYyyy2cI8mbH6hNA=", "properties": {"ref": "45", "@spider": "under_armour", "addr:street_address": "321 Nut Tree Road", "addr:city": "Vacaville", "addr:state": "CA", "addr:postcode": "95687", "addr:country": "US", "name": "Under Armour Factory House", "phone": "707-451-4736", "website": "https://store-locations.underarmour.com/ca/vacaville/45", "image": "https://store-locations.underarmour.com/images/store-img.jpg", "brand": "Under Armour", "brand:wikidata": "Q2031485"}, "geometry": {"type": "Point", "coordinates": [-121.9573643, 38.3668064]}},
{"type": "Feature", "id": "QwRB_vkNgMBJC_b_zExRaYLwrJg=", "properties": {"ref": "TULAR-1463RSSDTC", "@spider": "under_armour", "addr:street_address": "1463 Retherford Street", "addr:city": "Tulare", "addr:state": "CA", "addr:postcode": "93274", "addr:country": "US", "name": "Under Armour Factory House", "phone": "559-358-2544", "website": "https://store-locations.underarmour.com/ca/tulare/TULAR-1463RSSDTC", "image": "https://store-locations.underarmour.com/images/store-img.jpg", "brand": "Under Armour", "brand:wikidata": "Q2031485"}, "geometry": {"type": "Point", "coordinates": [-119.3338824, 36.2283946]}},
{"type": "Feature", "id": "ONRSV63xRYi5g1UMuCRAsecKVTY=", "properties": {"ref": "48", "@spider": "under_armour", "addr:street_address": "4191 Camino de la Plaza", "addr:city": "San Ysidro", "addr:state": "CA", "addr:postcode": "92173", "addr:country": "US", "name": "Under Armour Factory House", "phone": "619-271-3811", "website": "https://store-locations.underarmour.com/ca/san-ysidro/48", "image": "https://store-locations.underarmour.com/images/store-img.jpg", "brand": "Under Armour", "brand:wikidata": "Q2031485"}, "geometry": {"type": "Point", "coordinates": [-117.0430435, 32.5451491]}},
{"type": "Feature", "id": "O48IXsMXHsEoDJg2Qw0g8VjiyvQ=", "properties": {"ref": "UABH-4035LJVDSD", "@spider": "under_armour", "addr:street_address": "4545 La Jolla Village Drive", "addr:city": "San Diego", "addr:state": "CA", "addr:postcode": "92122", "addr:country": "US", "name": "Under Armour Brand House", "phone": "858-291-1640", "website": "https://store-locations.underarmour.com/ca/san-diego/UABH-4035LJVDSD", "image": "https://store-locations.underarmour.com/images/store-img.jpg", "brand": "Under Armour", "brand:wikidata": "Q2031485"}, "geometry": {"type": "Point", "coordinates": [-117.2134107, 32.8710475]}},
{"type": "Feature", "id": "l_jFCey2EDV2kDf5h6K8TFzah0c=", "properties": {"ref": "UAFH-101WAVHS57", "@spider": "under_armour", "addr:street_address": "101 West Avenida Vista Hermosa", "addr:city": "San Clemente", "addr:state": "CA", "addr:postcode": "92672", "addr:country": "US", "name": "Under Armour Factory House", "phone": "949-361-0029", "website": "https://store-locations.underarmour.com/ca/san-clemente/UAFH-101WAVHS57", "image": "https://store-locations.underarmour.com/images/store-img.jpg", "brand": "Under Armour", "brand:wikidata": "Q2031485"}, "geometry": {"type": "Point", "coordinates": [-117.6289461, 33.4398611]}},
{"type": "Feature", "id": "gpU5vzq0zp6Pj0Axay1PjDFyvDE=", "properties": {"ref": "UAFH-20CBWS1500", "@spider": "under_armour", "addr:street_address": "20 City Blvd. West", "addr:city": "Orange", "addr:state": "CA", "addr:postcode": "92868", "addr:country": "US", "name": "Under Armour Factory House", "phone": "714-941-1556", "website": "https://store-locations.underarmour.com/ca/orange/UAFH-20CBWS1500", "image": "https://underarmour.scene7.com/is/image/Underarmour/StoreFront_FactoryHouse2?fmt=jpg", "brand": "Under Armour", "brand:wikidata": "Q2031485"}, "geometry": {"type": "Point", "coordinates": [-117.8929285, 33.7826672]}},
{"type": "Feature", "id": "awQ-lBxe-1o3O5jedM7r7pUPQ4Y=", "properties": {"ref": "84", "@spider": "under_armour", "addr:street_address": "1 Mills Circle", "addr:city": "Ontario", "addr:state": "CA", "addr:postcode": "91764", "addr:country": "US", "name": "Under Armour Factory House", "phone": "909-484-4276", "website": "https://store-locations.underarmour.com/ca/ontario/84", "image": "https://store-locations.underarmour.com/images/store-img.jpg", "brand": "Under Armour", "brand:wikidata": "Q2031485"}, "geometry": {"type": "Point", "coordinates": [-117.5513969, 34.0727422]}},
{"type": "Feature", "id": "3zIMZQA-g3EY52nMiyN3EvvIQm8=", "properties": {"ref": "GREAT-464GMDMA-1", "@spider": "under_armour", "addr:street_address": "464 Great Mall Drive", "addr:city": "Milpitas", "addr:state": "CA", "addr:postcode": "95035", "addr:country": "US", "name": "Under Armour Factory House", "phone": "408-786-9292", "website": "https://store-locations.underarmour.com/ca/milpitas/GREAT-464GMDMA-1", "image": "https://store-locations.underarmour.com/images/store-img.jpg", "brand": "Under Armour", "brand:wikidata": "Q2031485"}, "geometry": {"type": "Point", "coordinates": [-121.89728, 37.41589]}},
{"type": "Feature", "id": "rPX2cZlUN4qYYMnh3ZDGlfC5LFU=", "properties": {"ref": "UABH-10250SMBS2", "@spider": "under_armour", "addr:street_address": "10250 Santa Monica BLVD", "addr:city": "Los Angeles", "addr:state": "CA", "addr:postcode": "90067", "addr:country": "US", "name": "Under Armour Brand House", "phone": "424-253-7317", "website": "https://store-locations.underarmour.com/ca/los-angeles/UABH-10250SMBS2", "image": "https://store-locations.underarmour.com/images/store-img.jpg", "brand": "Under Armour", "brand:wikidata": "Q2031485"}, "geometry": {"type": "Point", "coordinates": [-118.418866, 34.0590031]}},
{"type": "Feature", "id": "mWW9mjry3QNiG214ZbqioZS7TBY=", "properties": {"ref": "UASCS-LC", "@spider": "under_armour", "addr:street_address": "3190 Paragon Outlets Drive", "addr:city": "Livermore", "addr:state": "CA", "addr:postcode": "94551", "addr:country": "US", "name": "Under Armour Factory House", "phone": "925-455-1976", "website": "https://store-locations.underarmour.com/ca/livermore/UASCS-LC", "image": "https://store-locations.underarmour.com/images/store-img.jpg", "brand": "Under Armour", "brand:wikidata": "Q2031485"}, "geometry": {"type": "Point", "coordinates": [-121.8429906, 37.698588]}},
{"type": "Feature", "id": "d17WOy67Cb_YjrQ6aR6PvGdLiNY=", "properties": {"ref": "72", "@spider": "under_armour", "addr:street_address": "8300 Arroyo Circle", "addr:city": "Gilroy", "addr:state": "CA", "addr:postcode": "95020", "addr:country": "US", "name": "Under Armour Factory House", "phone": "408-848-2765", "website": "https://store-locations.underarmour.com/ca/gilroy/72", "image": "https://store-locations.underarmour.com/images/store-img.jpg", "brand": "Under Armour", "brand:wikidata": "Q2031485"}, "geometry": {"type": "Point", "coordinates": [-121.5606372, 37.0216699]}},
{"type": "Feature", "id": "lUTVuIjwisfqSS1Fz3Wp-6kKRao=", "properties": {"ref": "UAFH-13000FBS15", "@spider": "under_armour", "addr:street_address": "13000 Folsom Blvd.", "addr:city": "Folsom", "addr:state": "CA", "addr:postcode": "95630", "addr:country": "US", "name": "Under Armour Factory House", "phone": "916-365-9408", "website": "https://store-locations.underarmour.com/ca/folsom/UAFH-13000FBS15", "image": "https://store-locations.underarmour.com/images/store-img.jpg", "brand": "Under Armour", "brand:wikidata": "Q2031485"}, "geometry": {"type": "Point", "coordinates": [-121.1866762, 38.6440912]}}]}