{"type":"FeatureCollection","features":[{"type": "Feature", "id": "MbFFFXCnf6JzCcQvxpFtdQT9yYA=", "properties": {"ref": "1981", "@spider": "united_dairy_farmers", "addr:full": "2059 Dale Rd", "addr:city": "Cincinnati", "addr:state": "OH", "addr:postcode": "45212", "name": "United Dairy Farmers", "phone": "513-351-2931", "brand": "United Dairy Farmers", "brand:wikidata": "Q7887677"}, "geometry": {"type": "Point", "coordinates": [-84.456045, 39.176565]}},
{"type": "Feature", "id": "n_ya7oAyywTeYy0boCq5WioKRlY=", "properties": {"ref": "1980", "@spider": "united_dairy_farmers", "addr:full": "9472 Kenwood Rd", "addr:city": "Cincinnati", "addr:state": "OH", "addr:postcode": "45242", "name": "United Dairy Farmers", "phone": "513-793-3931", "brand": "United Dairy Farmers", "brand:wikidata": "Q7887677"}, "geometry": {"type": "Point", "coordinates": [-84.37713, 39.22899]}},
{"type": "Feature", "id": "dvb4l7iGVePO4ztp5G84YIBz8uY=", "properties": {"ref": "1979", "@spider": "united_dairy_farmers", "addr:full": "5237 Pleasant Ave", "addr:city": "Fairfield", "addr:state": "OH", "addr:postcode": "45014", "name": "United Dairy Farmers", "phone": "513-829-2521", "brand": "United Dairy Farmers", "brand:wikidata": "Q7887677"}, "geometry": {"type": "Point", "coordinates": [-84.560282, 39.337231]}},
{"type": "Feature", "id": "0TORidhwL5oDh4r8xAfq9AgUgQY=", "properties": {"ref": "1978", "@spider": "united_dairy_farmers", "addr:full": "7545 Bridgetown Rd", "addr:city": "Cincinnati", "addr:state": "OH", "addr:postcode": "45248", "name": "United Dairy Farmers", "phone": "513-941-6324", "brand": "United Dairy Farmers", "brand:wikidata": "Q7887677"}, "geometry": {"type": "Point", "coordinates": [-84.697496, 39.164254]}},
{"type": "Feature", "id": "oDJmoMI9SbSusBCQa67KmoN4bdk=", "properties": {"ref": "1977", "@spider": "united_dairy_farmers", "addr:full": "3190 Woodford Rd", "addr:city": "Cincinnati", "addr:state": "OH", "addr:postcode": "45213", "name": "United Dairy Farmers", "phone": "513-731-7917", "brand": "United Dairy Farmers", "brand:wikidata": "Q7887677"}, "geometry": {"type": "Point", "coordinates": [-84.427549, 39.180989]}},
{"type": "Feature", "id": "NbkXifTFB1AY5zW_Wqh-hJsyKis=", "properties": {"ref": "1976", "@spider": "united_dairy_farmers", "addr:full": "320 Loveland-Madeira Rd", "addr:city": "Loveland", "addr:state": "OH", "addr:postcode": "45140", "name": "United Dairy Farmers", "phone": "513-683-3133", "brand": "United Dairy Farmers", "brand:wikidata": "Q7887677"}, "geometry": {"type": "Point", "coordinates": [-84.266218, 39.266714]}},
{"type": "Feature", "id": "5KtPxQtt-PVZbJ_7lkAzboAC510=", "properties": {"ref": "1975", "@spider": "united_dairy_farmers", "addr:full": "11 Brookwood Ave", "addr:city": "Hamilton", "addr:state": "OH", "addr:postcode": "45013", "name": "United Dairy Farmers", "phone": "513-863-1272", "brand": "United Dairy Farmers", "brand:wikidata": "Q7887677"}, "geometry": {"type": "Point", "coordinates": [-84.589515, 39.419854]}},
{"type": "Feature", "id": "SKw7K98AQs155XPS-G4cGguJjU4=", "properties": {"ref": "1974", "@spider": "united_dairy_farmers", "addr:full": "9167 Winton Rd", "addr:city": "Cincinnati", "addr:state": "OH", "addr:postcode": "45231", "name": "United Dairy Farmers", "phone": "513-521-7680", "brand": "United Dairy Farmers", "brand:wikidata": "Q7887677"}, "geometry": {"type": "Point", "coordinates": [-84.509873, 39.232976]}},
{"type": "Feature", "id": "PlH9WlEX4arrR7kRw8Y-0m-sC2k=", "properties": {"ref": "1973", "@spider": "united_dairy_farmers", "addr:full": "735 East Main St", "addr:city": "West Union", "addr:state": "OH", "addr:postcode": "45693", "name": "United Dairy Farmers", "phone": "937-544-5952", "brand": "United Dairy Farmers", "brand:wikidata": "Q7887677"}, "geometry": {"type": "Point", "coordinates": [-83.536627, 38.796057]}},
{"type": "Feature", "id": "zGyffOi5zO8m1xBPedbY8Yb7Gic=", "properties": {"ref": "1972", "@spider": "united_dairy_farmers", "addr:full": "5615 Wolfpen-Pleasant Hill", "addr:city": "Milford", "addr:state": "OH", "addr:postcode": "45150", "name": "United Dairy Farmers", "phone": "513-831-6436", "brand": "United Dairy Farmers", "brand:wikidata": "Q7887677"}, "geometry": {"type": "Point", "coordinates": [-84.236596, 39.174079]}},
{"type": "Feature", "id": "iw7izc5YY7cD8ypWZGYUNe-vWt4=", "properties": {"ref": "1971", "@spider": "united_dairy_farmers", "addr:full": "4255 Hamilton-Middletown Rd", "addr:city": "Hamilton", "addr:state": "OH", "addr:postcode": "45011", "name": "United Dairy Farmers", "phone": "513-737-2856", "brand": "United Dairy Farmers", "brand:wikidata": "Q7887677"}, "geometry": {"type": "Point", "coordinates": [-84.47395, 39.416555]}},
{"type": "Feature", "id": "KQ8IZm_XzWOP4wnb_AWXMXv7fAc=", "properties": {"ref": "1970", "@spider": "united_dairy_farmers", "addr:full": "11620 Springfield Pike", "addr:city": "Cincinnati", "addr:state": "OH", "addr:postcode": "45246", "name": "United Dairy Farmers", "phone": "513-671-6363", "brand": "United Dairy Farmers", "brand:wikidata": "Q7887677"}, "geometry": {"type": "Point", "coordinates": [-84.484979, 39.287392]}},
{"type": "Feature", "id": "U7_yVGmuLx61w2n7nojbZk1Fq6I=", "properties": {"ref": "1969", "@spider": "united_dairy_farmers", "addr:full": "3139 Madison Rd", "addr:city": "Cincinnati", "addr:state": "OH", "addr:postcode": "45209", "name": "United Dairy Farmers", "phone": "513-321-8569", "brand": "United Dairy Farmers", "brand:wikidata": "Q7887677"}, "geometry": {"type": "Point", "coordinates": [-84.428991, 39.153628]}},
{"type": "Feature", "id": "9UNcTFTYM7b6tzDNHU7ofu4qHG0=", "properties": {"ref": "1968", "@spider": "united_dairy_farmers", "addr:full": "3350 Erie Ave", "addr:city": "Cincinnati", "addr:state": "OH", "addr:postcode": "45208", "name": "United Dairy Farmers", "phone": "513-321-8576", "brand": "United Dairy Farmers", "brand:wikidata": "Q7887677"}, "geometry": {"type": "Point", "coordinates": [-84.422938, 39.141476]}},
{"type": "Feature", "id": "qCV90gZLDMJSkwzWdIYenSo6zxE=", "properties": {"ref": "1967", "@spider": "united_dairy_farmers", "addr:full": "7175 Hamilton Mason Rd", "addr:city": "West Chester", "addr:state": "OH", "addr:postcode": "45069", "name": "United Dairy Farmers", "phone": "513-755-7661", "brand": "United Dairy Farmers", "brand:wikidata": "Q7887677"}, "geometry": {"type": "Point", "coordinates": [-84.385288, 39.370042]}},
{"type": "Feature", "id": "pH6fFGyvWa0GNfz9jFnNyIAnY2s=", "properties": {"ref": "1966", "@spider": "united_dairy_farmers", "addr:full": "3360 Glenmore Ave", "addr:city": "Cincinnati", "addr:state": "OH", "addr:postcode": "45211", "name": "United Dairy Farmers", "phone": "513-662-6722", "brand": "United Dairy Farmers", "brand:wikidata": "Q7887677"}, "geometry": {"type": "Point", "coordinates": [-84.612716, 39.148599]}},
{"type": "Feature", "id": "yWwWY_p0Ept7Oz42ek0j8qgG6LY=", "properties": {"ref": "4338", "@spider": "united_dairy_farmers", "addr:full": "900 N High", "addr:city": "Columbus", "addr:state": "Ohio", "addr:postcode": "43215", "addr:country": "US", "name": "United Dairy Farmers", "brand": "United Dairy Farmers", "brand:wikidata": "Q7887677"}, "geometry": {"type": "Point", "coordinates": [-83.003997, 39.980647]}},
{"type": "Feature", "id": "_RR-tWBkJ3gd5cptAkNg5Wx_CKs=", "properties": {"ref": "4115", "@spider": "united_dairy_farmers", "addr:full": "127 South Broadway Street", "addr:city": "Blanchester", "addr:state": "Ohio", "addr:postcode": "45107", "addr:country": "US", "name": "United Dairy Farmers", "brand": "United Dairy Farmers", "brand:wikidata": "Q7887677"}, "geometry": {"type": "Point", "coordinates": [-83.987387, 39.292952]}},
{"type": "Feature", "id": "Pf9d_jwZNAT4NNuHXzRwGyAJuBA=", "properties": {"ref": "4113", "@spider": "united_dairy_farmers", "addr:full": "5207 Sawmill Drive", "addr:city": "Taylor Mill", "addr:state": "Kentucky", "addr:postcode": "41015", "addr:country": "US", "name": "United Dairy Farmers", "brand": "United Dairy Farmers", "brand:wikidata": "Q7887677"}, "geometry": {"type": "Point", "coordinates": [-84.512212, 39.01725]}},
{"type": "Feature", "id": "TJ_-gKd1S_eD34aHKPPgSaFpqdQ=", "properties": {"ref": "3157", "@spider": "united_dairy_farmers", "addr:full": "10400 New Haven Rd.", "addr:city": "Harrison", "addr:state": "Ohio", "addr:postcode": "45030", "addr:country": "US", "name": "United Dairy Farmers", "brand": "United Dairy Farmers", "brand:wikidata": "Q7887677"}, "geometry": {"type": "Point", "coordinates": [-84.78895, 39.262522]}},
{"type": "Feature", "id": "mSXxHcRj5Uti7cC8IomdPd0__5c=", "properties": {"ref": "2896", "@spider": "united_dairy_farmers", "addr:full": "4220 Fields Ertel Rd", "addr:city": "Sharonville", "addr:state": "Ohio", "addr:postcode": "45241", "addr:country": "US", "name": "United Dairy Farmers", "brand": "United Dairy Farmers", "brand:wikidata": "Q7887677"}, "geometry": {"type": "Point", "coordinates": [-84.392861, 39.297483]}},
{"type": "Feature", "id": "uVfKOlM9-ttbtC9-IdyOTWjXbnA=", "properties": {"ref": "2894", "@spider": "united_dairy_farmers", "addr:full": "300 E Sharon Rd.", "addr:city": "Cincinnati", "addr:state": "Ohio", "addr:postcode": "45246", "addr:country": "US", "name": "United Dairy Farmers", "brand": "United Dairy Farmers", "brand:wikidata": "Q7887677"}, "geometry": {"type": "Point", "coordinates": [-84.457882, 39.272374]}},
{"type": "Feature", "id": "1XOk34-ocogRHS1dcRAUmBdsg48=", "properties": {"ref": "2821", "@spider": "united_dairy_farmers", "addr:full": "890 Columbus Ave.", "addr:city": "Lebanon", "addr:state": "Ohio", "addr:postcode": "45036", "addr:country": "US", "name": "United Dairy Farmers", "phone": "513-228-0637", "brand": "United Dairy Farmers", "brand:wikidata": "Q7887677"}, "geometry": {"type": "Point", "coordinates": [-84.190005, 39.447123]}},
{"type": "Feature", "id": "la9mZlN7GzyNEmiz0NXuIsbOZCg=", "properties": {"ref": "2577", "@spider": "united_dairy_farmers", "addr:full": "2575 Cincinnati Brookville Rd", "addr:city": "Cincinnati", "addr:state": "Ohio", "addr:postcode": "45014", "addr:country": "US", "name": "United Dairy Farmers", "brand": "United Dairy Farmers", "brand:wikidata": "Q7887677"}, "geometry": {"type": "Point", "coordinates": [-84.650606, 39.312298]}},
{"type": "Feature", "id": "sBB2RMzQmrz7YwvJHMQNDqPWDnA=", "properties": {"ref": "2278", "@spider": "united_dairy_farmers", "addr:full": "7900 Hamilton Ave", "addr:city": "Cincinnati", "addr:state": "Ohio", "addr:postcode": "45231", "addr:country": "US", "name": "United Dairy Farmers", "phone": "513-729-5510", "brand": "United Dairy Farmers", "brand:wikidata": "Q7887677"}, "geometry": {"type": "Point", "coordinates": [-84.54781, 39.236819]}},
{"type": "Feature", "id": "H4JDfrZpP0TOpwFxB8IKC06NG4s=", "properties": {"ref": "2130", "@spider": "united_dairy_farmers", "addr:full": "8295 Cinti-Dayton Rd", "addr:city": "West Chester", "addr:state": "OH", "addr:postcode": "45069", "name": "United Dairy Farmers", "phone": "513-777-1059", "brand": "United Dairy Farmers", "brand:wikidata": "Q7887677"}, "geometry": {"type": "Point", "coordinates": [-84.40536, 39.336058]}},
{"type": "Feature", "id": "9giaLecpPDnwxMxc7Z4IYoLecx4=", "properties": {"ref": "2129", "@spider": "united_dairy_farmers", "addr:full": "4344 Smith Rd", "addr:city": "Cincinnati", "addr:state": "OH", "addr:postcode": "45212", "addr:country": "US", "name": "United Dairy Farmers", "phone": "513-631-7161", "brand": "United Dairy Farmers", "brand:wikidata": "Q7887677"}, "geometry": {"type": "Point", "coordinates": [-84.44776, 39.155805]}},
{"type": "Feature", "id": "TB7npu_lNitEMBMzeFNkQVSNocs=", "properties": {"ref": "2128", "@spider": "united_dairy_farmers", "addr:full": "3641 Montgomery Rd", "addr:city": "Cincinnati", "addr:state": "OH", "addr:postcode": "45207", "name": "United Dairy Farmers", "phone": "513-631-0085", "brand": "United Dairy Farmers", "brand:wikidata": "Q7887677"}, "geometry": {"type": "Point", "coordinates": [-84.468589, 39.145715]}},
{"type": "Feature", "id": "nfTl4efmhgolHr_6gly5_RaWzcQ=", "properties": {"ref": "2127", "@spider": "united_dairy_farmers", "addr:full": "180 W. Johnstown Rd", "addr:city": "Gahanna", "addr:state": "OH", "addr:postcode": "43230", "name": "United Dairy Farmers", "phone": "614-342-2834", "brand": "United Dairy Farmers", "brand:wikidata": "Q7887677"}, "geometry": {"type": "Point", "coordinates": [-82.885267, 40.017828]}},
{"type": "Feature", "id": "WavmFraqSeH7TZVAhqpY7TKmaas=", "properties": {"ref": "2126", "@spider": "united_dairy_farmers", "addr:full": "5320 Warner Rd.", "addr:city": "Columbus", "addr:state": "OH", "addr:postcode": "43081", "name": "United Dairy Farmers", "phone": "614-939-9079", "brand": "United Dairy Farmers", "brand:wikidata": "Q7887677"}, "geometry": {"type": "Point", "coordinates": [-82.847805, 40.092285]}},
{"type": "Feature", "id": "VHar7msO4UobQsmZmE8HBploBT0=", "properties": {"ref": "2125", "@spider": "united_dairy_farmers", "addr:full": "1341 Georgesville Rd.", "addr:city": "Columbus", "addr:state": "OH", "addr:postcode": "43228", "name": "United Dairy Farmers", "phone": "614-351-1614", "brand": "United Dairy Farmers", "brand:wikidata": "Q7887677"}, "geometry": {"type": "Point", "coordinates": [-83.118978, 39.924608]}},
{"type": "Feature", "id": "qrlB-IuUDREbpDB__Fnm0oQ4TGU=", "properties": {"ref": "2124", "@spider": "united_dairy_farmers", "addr:full": "2191 Polaris Parkway", "addr:city": "Columbus", "addr:state": "OH", "addr:postcode": "43240", "name": "United Dairy Farmers", "phone": "614-985-1728", "brand": "United Dairy Farmers", "brand:wikidata": "Q7887677"}, "geometry": {"type": "Point", "coordinates": [-82.963791, 40.144308]}},
{"type": "Feature", "id": "2qS-hCMyvMleVG3G1kjUEWAXZmg=", "properties": {"ref": "2123", "@spider": "united_dairy_farmers", "addr:full": "303 W. Granville St", "addr:city": "Sunbury", "addr:state": "OH", "addr:postcode": "43074", "name": "United Dairy Farmers", "phone": "740-965-2701", "brand": "United Dairy Farmers", "brand:wikidata": "Q7887677"}, "geometry": {"type": "Point", "coordinates": [-82.853174, 40.237544]}},
{"type": "Feature", "id": "LetyfaJCoclzQo4SNNW-GTHee6g=", "properties": {"ref": "2122", "@spider": "united_dairy_farmers", "addr:full": "520 E. Main St", "addr:city": "Circleville", "addr:state": "OH", "addr:postcode": "43113", "name": "United Dairy Farmers", "phone": "740-477-7405", "brand": "United Dairy Farmers", "brand:wikidata": "Q7887677"}, "geometry": {"type": "Point", "coordinates": [-82.930373, 39.59646]}},
{"type": "Feature", "id": "tP_xfR8uAkRDFzS0dRBlBOz6lKo=", "properties": {"ref": "2121", "@spider": "united_dairy_farmers", "addr:full": "1400 Cherry Bottom Rd", "addr:city": "Gahanna", "addr:state": "OH", "addr:postcode": "43230", "name": "United Dairy Farmers", "phone": "614-476-0017", "brand": "United Dairy Farmers", "brand:wikidata": "Q7887677"}, "geometry": {"type": "Point", "coordinates": [-82.876035, 40.03957]}},
{"type": "Feature", "id": "1jUgZVm30T6OjlYKllQ38knw3JM=", "properties": {"ref": "2120", "@spider": "united_dairy_farmers", "addr:full": "1188 N Wilson Road", "addr:city": "Columbus", "addr:state": "OH", "addr:postcode": "43204", "name": "United Dairy Farmers", "phone": "614-351-8600", "brand": "United Dairy Farmers", "brand:wikidata": "Q7887677"}, "geometry": {"type": "Point", "coordinates": [-83.101612, 39.977378]}},
{"type": "Feature", "id": "4OSHyqPEwUdODIcjcLjmaWQoFSw=", "properties": {"ref": "2119", "@spider": "united_dairy_farmers", "addr:full": "901 Norton Rd", "addr:city": "Columbus", "addr:state": "OH", "addr:postcode": "43228", "name": "United Dairy Farmers", "phone": "614-851-0669", "brand": "United Dairy Farmers", "brand:wikidata": "Q7887677"}, "geometry": {"type": "Point", "coordinates": [-83.144779, 39.931075]}},
{"type": "Feature", "id": "m6r6pE_bM6XVT8MrWKNU7JUJG5c=", "properties": {"ref": "2118", "@spider": "united_dairy_farmers", "addr:full": "95 West Broad St", "addr:city": "Pataskala", "addr:state": "OH", "addr:postcode": "43062", "name": "United Dairy Farmers", "phone": "740-927-9200", "brand": "United Dairy Farmers", "brand:wikidata": "Q7887677"}, "geometry": {"type": "Point", "coordinates": [-82.686623, 39.962504]}},
{"type": "Feature", "id": "WRz-xSATCEHalauX4aJUWibpcuw=", "properties": {"ref": "2117", "@spider": "united_dairy_farmers", "addr:full": "4775 Sunbury Rd", "addr:city": "Columbus", "addr:state": "OH", "addr:postcode": "43219", "name": "United Dairy Farmers", "phone": "614-476-9111", "brand": "United Dairy Farmers", "brand:wikidata": "Q7887677"}, "geometry": {"type": "Point", "coordinates": [-82.921443, 40.059413]}},
{"type": "Feature", "id": "wJxjl04_BKxa3EMXg7KtZwQ8eog=", "properties": {"ref": "2116", "@spider": "united_dairy_farmers", "addr:full": "4890 East Main St", "addr:city": "Whitehall", "addr:state": "OH", "addr:postcode": "43213", "name": "United Dairy Farmers", "phone": "614-575-0633", "brand": "United Dairy Farmers", "brand:wikidata": "Q7887677"}, "geometry": {"type": "Point", "coordinates": [-82.867056, 39.955337]}},
{"type": "Feature", "id": "-BR9d0nktAxK4fSsZGSd5OHKPhk=", "properties": {"ref": "2115", "@spider": "united_dairy_farmers", "addr:full": "9028 Columbus Pk", "addr:city": "Lewis Center", "addr:state": "OH", "addr:postcode": "43035", "name": "United Dairy Farmers", "phone": "740-548-6222", "brand": "United Dairy Farmers", "brand:wikidata": "Q7887677"}, "geometry": {"type": "Point", "coordinates": [-83.019053, 40.159517]}},
{"type": "Feature", "id": "6X2CPuqb8iMqV-9FAWsKQYBtDyE=", "properties": {"ref": "2114", "@spider": "united_dairy_farmers", "addr:full": "101 North Cherry St", "addr:city": "Marysville", "addr:state": "OH", "addr:postcode": "43040", "name": "United Dairy Farmers", "phone": "937-644-0325", "brand": "United Dairy Farmers", "brand:wikidata": "Q7887677"}, "geometry": {"type": "Point", "coordinates": [-83.356614, 40.235985]}},
{"type": "Feature", "id": "pyJ_2tl3mrq2VGlqs_diC66iAUI=", "properties": {"ref": "2113", "@spider": "united_dairy_farmers", "addr:full": "7085 ST RT 3", "addr:city": "Westerville", "addr:state": "OH", "addr:postcode": "43081", "name": "United Dairy Farmers", "phone": "614-794-3880", "brand": "United Dairy Farmers", "brand:wikidata": "Q7887677"}, "geometry": {"type": "Point", "coordinates": [-82.896457, 40.10447]}},
{"type": "Feature", "id": "bo4KQy8mMF3qSK44S6Q26fh0gnM=", "properties": {"ref": "2112", "@spider": "united_dairy_farmers", "addr:full": "7076 Muirfield Dr", "addr:city": "Dublin", "addr:state": "OH", "addr:postcode": "43017", "name": "United Dairy Farmers", "phone": "614-792-8448", "brand": "United Dairy Farmers", "brand:wikidata": "Q7887677"}, "geometry": {"type": "Point", "coordinates": [-83.15381, 40.113463]}},
{"type": "Feature", "id": "tLiHfWvtb_4UrWrumWiW54xvBII=", "properties": {"ref": "2111", "@spider": "united_dairy_farmers", "addr:full": "77 N Fourth St", "addr:city": "Newark", "addr:state": "OH", "addr:postcode": "43055", "name": "United Dairy Farmers", "phone": "740-345-5329", "brand": "United Dairy Farmers", "brand:wikidata": "Q7887677"}, "geometry": {"type": "Point", "coordinates": [-82.405414, 40.059379]}},
{"type": "Feature", "id": "Fcy_FkeR_aoqQO8lHKGz3fAOyy4=", "properties": {"ref": "2110", "@spider": "united_dairy_farmers", "addr:full": "327 Hudson St", "addr:city": "Columbus", "addr:state": "OH", "addr:postcode": "43202", "name": "United Dairy Farmers", "phone": "614-447-1660", "brand": "United Dairy Farmers", "brand:wikidata": "Q7887677"}, "geometry": {"type": "Point", "coordinates": [-83.002749, 40.01515]}},
{"type": "Feature", "id": "jvTCjAXAPx_wP6YtAe9tKMNxpOU=", "properties": {"ref": "2109", "@spider": "united_dairy_farmers", "addr:full": "1710 Columbus Ave", "addr:city": "Wshngtn Cths", "addr:state": "OH", "addr:postcode": "43160", "name": "United Dairy Farmers", "phone": "740-335-4715", "brand": "United Dairy Farmers", "brand:wikidata": "Q7887677"}, "geometry": {"type": "Point", "coordinates": [-83.424514, 39.549934]}},
{"type": "Feature", "id": "Fnvserj1S9jWQ4TT4Lp-Ya1tD2w=", "properties": {"ref": "2108", "@spider": "united_dairy_farmers", "addr:full": "6525 Tussing Rd", "addr:city": "Reynoldsburg", "addr:state": "OH", "addr:postcode": "43068", "name": "United Dairy Farmers", "phone": "614-860-1805", "brand": "United Dairy Farmers", "brand:wikidata": "Q7887677"}, "geometry": {"type": "Point", "coordinates": [-82.804219, 39.925875]}},
{"type": "Feature", "id": "gwHOXJs_WZLKODFoG-d9FteRzw4=", "properties": {"ref": "2107", "@spider": "united_dairy_farmers", "addr:full": "8480 N High St", "addr:city": "Columbus", "addr:state": "OH", "addr:postcode": "43235", "name": "United Dairy Farmers", "phone": "614-848-3359", "brand": "United Dairy Farmers", "brand:wikidata": "Q7887677"}, "geometry": {"type": "Point", "coordinates": [-83.016829, 40.136442]}},
{"type": "Feature", "id": "-2Xxj9J6-elx6cDlOM_-uOkYJFo=", "properties": {"ref": "2106", "@spider": "united_dairy_farmers", "addr:full": "7580 Worthington Galena", "addr:city": "Columbus", "addr:state": "OH", "addr:postcode": "43085", "name": "United Dairy Farmers", "phone": "614-885-7499", "brand": "United Dairy Farmers", "brand:wikidata": "Q7887677"}, "geometry": {"type": "Point", "coordinates": [-82.987283, 40.118977]}},
{"type": "Feature", "id": "4Sv3MNF4d3Zk1El_52af3ib1OU8=", "properties": {"ref": "2105", "@spider": "united_dairy_farmers", "addr:full": "1560 Chase Ave", "addr:city": "Cincinnati", "addr:state": "OH", "addr:postcode": "45223", "name": "United Dairy Farmers", "phone": "513-542-7538", "brand": "United Dairy Farmers", "brand:wikidata": "Q7887677"}, "geometry": {"type": "Point", "coordinates": [-84.539387, 39.163423]}},
{"type": "Feature", "id": "1sg0M9-f8DvgXCC2S-zkV-PZeSU=", "properties": {"ref": "2104", "@spider": "united_dairy_farmers", "addr:full": "530 S Hague Ave", "addr:city": "Columbus", "addr:state": "OH", "addr:postcode": "43204", "name": "United Dairy Farmers", "phone": "614-272-2373", "brand": "United Dairy Farmers", "brand:wikidata": "Q7887677"}, "geometry": {"type": "Point", "coordinates": [-83.072998, 39.943715]}},
{"type": "Feature", "id": "BpK2lZcK4oHLku5zFvJmzpAi-Xw=", "properties": {"ref": "2103", "@spider": "united_dairy_farmers", "addr:full": "1043 W Broad", "addr:city": "Columbus", "addr:state": "OH", "addr:postcode": "43222", "name": "United Dairy Farmers", "phone": "614-228-8487", "brand": "United Dairy Farmers", "brand:wikidata": "Q7887677"}, "geometry": {"type": "Point", "coordinates": [-83.028378, 39.95868]}},
{"type": "Feature", "id": "ecuk_FkMPYSnuMFafVZCBQPfar8=", "properties": {"ref": "2102", "@spider": "united_dairy_farmers", "addr:full": "993 King Ave", "addr:city": "Columbus", "addr:state": "OH", "addr:postcode": "43212", "name": "United Dairy Farmers", "phone": "614-294-0414", "brand": "United Dairy Farmers", "brand:wikidata": "Q7887677"}, "geometry": {"type": "Point", "coordinates": [-83.033569, 39.991036]}},
{"type": "Feature", "id": "sXdzJil9-WtGBh0DSi7PdzXJ2Tg=", "properties": {"ref": "2101", "@spider": "united_dairy_farmers", "addr:full": "3728 Karl Rd", "addr:city": "Columbus", "addr:state": "OH", "addr:postcode": "43224", "name": "United Dairy Farmers", "phone": "614-262-3518", "brand": "United Dairy Farmers", "brand:wikidata": "Q7887677"}, "geometry": {"type": "Point", "coordinates": [-82.977153, 40.042822]}},
{"type": "Feature", "id": "ptbSqd-P2LgY5hr8KKpsvOMye_o=", "properties": {"ref": "2100", "@spider": "united_dairy_farmers", "addr:full": "123 W Williams St", "addr:city": "Delaware", "addr:state": "OH", "addr:postcode": "43015", "name": "United Dairy Farmers", "phone": "740-369-1484", "brand": "United Dairy Farmers", "brand:wikidata": "Q7887677"}, "geometry": {"type": "Point", "coordinates": [-83.075765, 40.296012]}},
{"type": "Feature", "id": "gCuf4qjunU5a05fLnCjdbKVAHiU=", "properties": {"ref": "2099", "@spider": "united_dairy_farmers", "addr:full": "4374 E Broad", "addr:city": "Whitehall", "addr:state": "OH", "addr:postcode": "43213", "name": "United Dairy Farmers", "phone": "614-235-0417", "brand": "United Dairy Farmers", "brand:wikidata": "Q7887677"}, "geometry": {"type": "Point", "coordinates": [-82.884579, 39.97504]}},
{"type": "Feature", "id": "rXHuR26ZmnQKcq-EnUmD73OCKFQ=", "properties": {"ref": "2098", "@spider": "united_dairy_farmers", "addr:full": "3388 Indianola Ave", "addr:city": "Columbus", "addr:state": "OH", "addr:postcode": "43214", "name": "United Dairy Farmers", "phone": "614-261-6654", "brand": "United Dairy Farmers", "brand:wikidata": "Q7887677"}, "geometry": {"type": "Point", "coordinates": [-83.000909, 40.032809]}},
{"type": "Feature", "id": "xOEPmpeES9aRQ3rIUQp9l33m31E=", "properties": {"ref": "2097", "@spider": "united_dairy_farmers", "addr:full": "1680 N High", "addr:city": "Columbus", "addr:state": "OH", "addr:postcode": "43201", "name": "United Dairy Farmers", "phone": "614-299-3431", "brand": "United Dairy Farmers", "brand:wikidata": "Q7887677"}, "geometry": {"type": "Point", "coordinates": [-83.007261, 39.99685]}},
{"type": "Feature", "id": "y3cht09oeC2cw6J5hEnsxYZKB0s=", "properties": {"ref": "2096", "@spider": "united_dairy_farmers", "addr:full": "701 S Sandusky St", "addr:city": "Bucyrus", "addr:state": "OH", "addr:postcode": "44820", "name": "United Dairy Farmers", "phone": "419-562-5043", "brand": "United Dairy Farmers", "brand:wikidata": "Q7887677"}, "geometry": {"type": "Point", "coordinates": [-82.975522, 40.800664]}},
{"type": "Feature", "id": "Gfco5-P25pgLcxRL5rmTzPyDKsw=", "properties": {"ref": "2095", "@spider": "united_dairy_farmers", "addr:full": "2516 Southwest Blvd", "addr:city": "Grove City", "addr:state": "OH", "addr:postcode": "43123", "name": "United Dairy Farmers", "phone": "614-875-0193", "brand": "United Dairy Farmers", "brand:wikidata": "Q7887677"}, "geometry": {"type": "Point", "coordinates": [-83.069367, 39.889345]}},
{"type": "Feature", "id": "CIegz49Gt9lpf-gsUs6JpAh7P-w=", "properties": {"ref": "2094", "@spider": "united_dairy_farmers", "addr:full": "2094 N High", "addr:city": "Columbus", "addr:state": "OH", "addr:postcode": "43201", "name": "United Dairy Farmers", "phone": "614-294-6509", "brand": "United Dairy Farmers", "brand:wikidata": "Q7887677"}, "geometry": {"type": "Point", "coordinates": [-83.00891, 40.005145]}},
{"type": "Feature", "id": "JDPPijyhZx562Lv1YEkI4pmzxo8=", "properties": {"ref": "2093", "@spider": "united_dairy_farmers", "addr:full": "9665 Sawmill Rd", "addr:city": "Powell", "addr:state": "OH", "addr:postcode": "43065", "name": "United Dairy Farmers", "phone": "614-718-9600", "brand": "United Dairy Farmers", "brand:wikidata": "Q7887677"}, "geometry": {"type": "Point", "coordinates": [-83.088285, 40.157756]}},
{"type": "Feature", "id": "mC1Zh4m-kDZisoHk4iPQqhpLfsQ=", "properties": {"ref": "2092", "@spider": "united_dairy_farmers", "addr:full": "5025 Tuttle Crossing Blvd", "addr:city": "Dublin", "addr:state": "OH", "addr:postcode": "43016", "name": "United Dairy Farmers", "phone": "614-793-2001", "brand": "United Dairy Farmers", "brand:wikidata": "Q7887677"}, "geometry": {"type": "Point", "coordinates": [-83.127086, 40.076667]}},
{"type": "Feature", "id": "eEZToSaK6ISBIR0MdDMb3mc57M8=", "properties": {"ref": "2091", "@spider": "united_dairy_farmers", "addr:full": "1930 Hard Rd", "addr:city": "Columbus", "addr:state": "OH", "addr:postcode": "43235", "name": "United Dairy Farmers", "phone": "614-792-1509", "brand": "United Dairy Farmers", "brand:wikidata": "Q7887677"}, "geometry": {"type": "Point", "coordinates": [-83.067319, 40.117447]}},
{"type": "Feature", "id": "lV8zqS76w3MCg5OF_7KXlWvIkXE=", "properties": {"ref": "2090", "@spider": "united_dairy_farmers", "addr:full": "6686 E. Main St", "addr:city": "Reynoldsburg", "addr:state": "OH", "addr:postcode": "43068", "name": "United Dairy Farmers", "phone": "614-863-6696", "brand": "United Dairy Farmers", "brand:wikidata": "Q7887677"}, "geometry": {"type": "Point", "coordinates": [-82.819562, 39.955113]}},
{"type": "Feature", "id": "yo8h_pGkdWB9B5_QowmKg99izH4=", "properties": {"ref": "2089", "@spider": "united_dairy_farmers", "addr:full": "5370 N High", "addr:city": "Columbus", "addr:state": "OH", "addr:postcode": "43214", "name": "United Dairy Farmers", "phone": "614-846-4800", "brand": "United Dairy Farmers", "brand:wikidata": "Q7887677"}, "geometry": {"type": "Point", "coordinates": [-83.018837, 40.072273]}},
{"type": "Feature", "id": "XCeP5jxAspTkkJf1KsPi7210ZZo=", "properties": {"ref": "2088", "@spider": "united_dairy_farmers", "addr:full": "3555 Broadway", "addr:city": "Grove City", "addr:state": "OH", "addr:postcode": "43123", "name": "United Dairy Farmers", "phone": "614-875-0003", "brand": "United Dairy Farmers", "brand:wikidata": "Q7887677"}, "geometry": {"type": "Point", "coordinates": [-83.085721, 39.891391]}},
{"type": "Feature", "id": "pfYABnDsdsUUz_SX6m5mR2g7Kqk=", "properties": {"ref": "2087", "@spider": "united_dairy_farmers", "addr:full": "2204 W Dublin-Granville", "addr:city": "Worthington", "addr:state": "OH", "addr:postcode": "43085", "name": "United Dairy Farmers", "phone": "614-436-4889", "brand": "United Dairy Farmers", "brand:wikidata": "Q7887677"}, "geometry": {"type": "Point", "coordinates": [-83.049575, 40.090012]}},
{"type": "Feature", "id": "QXTE-g6tn3ZGlyrsW_cmZo7u8T0=", "properties": {"ref": "2086", "@spider": "united_dairy_farmers", "addr:full": "3535 S. Clime", "addr:city": "Columbus", "addr:state": "OH", "addr:postcode": "43228", "name": "United Dairy Farmers", "phone": "614-274-6280", "brand": "United Dairy Farmers", "brand:wikidata": "Q7887677"}, "geometry": {"type": "Point", "coordinates": [-83.125661, 39.966378]}},
{"type": "Feature", "id": "wF1FOJBZKIOnNlOMTigFNSlyLmA=", "properties": {"ref": "2085", "@spider": "united_dairy_farmers", "addr:full": "4640 Cemetery Rd", "addr:city": "Hilliard", "addr:state": "OH", "addr:postcode": "43026", "name": "United Dairy Farmers", "phone": "614-876-6195", "brand": "United Dairy Farmers", "brand:wikidata": "Q7887677"}, "geometry": {"type": "Point", "coordinates": [-83.138625, 40.031981]}},
{"type": "Feature", "id": "V2AOveu8Wb8JEFp9sZOAnw8UdXQ=", "properties": {"ref": "2084", "@spider": "united_dairy_farmers", "addr:full": "5614 Tylersville Rd", "addr:city": "Mason", "addr:state": "OH", "addr:postcode": "45040", "name": "United Dairy Farmers", "phone": "513-398-6886", "brand": "United Dairy Farmers", "brand:wikidata": "Q7887677"}, "geometry": {"type": "Point", "coordinates": [-84.331025, 39.352098]}},
{"type": "Feature", "id": "K8b_nCFux_ugU66RnqY0C46u1Xk=", "properties": {"ref": "2083", "@spider": "united_dairy_farmers", "addr:full": "2660 Noe Bixby", "addr:city": "Columbus", "addr:state": "OH", "addr:postcode": "43227", "name": "United Dairy Farmers", "phone": "614-863-3242", "brand": "United Dairy Farmers", "brand:wikidata": "Q7887677"}, "geometry": {"type": "Point", "coordinates": [-82.864131, 39.922201]}},
{"type": "Feature", "id": "xQU3Gxq_x3WwzRTYvNiLrwPC6qc=", "properties": {"ref": "2082", "@spider": "united_dairy_farmers", "addr:full": "6712 Dixie Hwy", "addr:city": "Florence", "addr:state": "KY", "addr:postcode": "41042", "name": "United Dairy Farmers", "phone": "859-371-7216", "brand": "United Dairy Farmers", "brand:wikidata": "Q7887677"}, "geometry": {"type": "Point", "coordinates": [-84.619579, 39.004735]}},
{"type": "Feature", "id": "maf3tcaYrCFsFwXBgkwrfF58o0s=", "properties": {"ref": "2081", "@spider": "united_dairy_farmers", "addr:full": "4269 Plainville", "addr:city": "Cincinnati", "addr:state": "OH", "addr:postcode": "45227", "name": "United Dairy Farmers", "phone": "513-271-6354", "brand": "United Dairy Farmers", "brand:wikidata": "Q7887677"}, "geometry": {"type": "Point", "coordinates": [-84.359939, 39.142005]}},
{"type": "Feature", "id": "4Shr0FIaqrD_FBYGNtheI5OsXMs=", "properties": {"ref": "2080", "@spider": "united_dairy_farmers", "addr:full": "4308 Kellogg Ave", "addr:city": "Cincinnati", "addr:state": "OH", "addr:postcode": "45226", "name": "United Dairy Farmers", "phone": "513-321-1259", "brand": "United Dairy Farmers", "brand:wikidata": "Q7887677"}, "geometry": {"type": "Point", "coordinates": [-84.432503, 39.10189]}},
{"type": "Feature", "id": "2eCrVFS_jR3uU3z8qWVLB7WiBxk=", "properties": {"ref": "2079", "@spider": "united_dairy_farmers", "addr:full": "501 W. National Rd", "addr:city": "Englewood", "addr:state": "OH", "addr:postcode": "45322", "name": "United Dairy Farmers", "phone": "937-540-1056", "brand": "United Dairy Farmers", "brand:wikidata": "Q7887677"}, "geometry": {"type": "Point", "coordinates": [-84.298501, 39.872816]}},
{"type": "Feature", "id": "WofqPKPjZvroQvRUCciZIriFQ2Y=", "properties": {"ref": "2078", "@spider": "united_dairy_farmers", "addr:full": "950 West State St.", "addr:city": "Trenton", "addr:state": "OH", "addr:postcode": "45067", "name": "United Dairy Farmers", "phone": "513-988-6098", "brand": "United Dairy Farmers", "brand:wikidata": "Q7887677"}, "geometry": {"type": "Point", "coordinates": [-84.475243, 39.480848]}},
{"type": "Feature", "id": "70dEHdRtyfIHlgQP2R4n5XhbECM=", "properties": {"ref": "2077", "@spider": "united_dairy_farmers", "addr:full": "3026 Harshman Road", "addr:city": "Dayton", "addr:state": "OH", "addr:postcode": "45424", "name": "United Dairy Farmers", "phone": "937-235-6457", "brand": "United Dairy Farmers", "brand:wikidata": "Q7887677"}, "geometry": {"type": "Point", "coordinates": [-84.130044, 39.815488]}},
{"type": "Feature", "id": "ExtNU5AUWLmXu5ni6YaoqV-heeA=", "properties": {"ref": "2076", "@spider": "united_dairy_farmers", "addr:full": "7910 Dayton Road", "addr:city": "Fairborn", "addr:state": "OH", "addr:postcode": "45324", "name": "United Dairy Farmers", "phone": "937-864-0461", "brand": "United Dairy Farmers", "brand:wikidata": "Q7887677"}, "geometry": {"type": "Point", "coordinates": [-83.964629, 39.861703]}},
{"type": "Feature", "id": "BP1uf2Iwdw9IR4hzYp0K9lqpvx4=", "properties": {"ref": "2075", "@spider": "united_dairy_farmers", "addr:full": "210 Miami St", "addr:city": "Urbana", "addr:state": "OH", "addr:postcode": "43078", "name": "United Dairy Farmers", "phone": "937-653-5760", "brand": "United Dairy Farmers", "brand:wikidata": "Q7887677"}, "geometry": {"type": "Point", "coordinates": [-83.765377, 40.10895]}},
{"type": "Feature", "id": "qZfuSOWnM9A0jUaIXzk1byfFFDY=", "properties": {"ref": "2074", "@spider": "united_dairy_farmers", "addr:full": "301 W. Central Ave", "addr:city": "Springboro", "addr:state": "OH", "addr:postcode": "45066", "name": "United Dairy Farmers", "phone": "937-748-3073", "brand": "United Dairy Farmers", "brand:wikidata": "Q7887677"}, "geometry": {"type": "Point", "coordinates": [-84.238841, 39.558626]}},
{"type": "Feature", "id": "qf4W2xAxAmAshYv02fqxaIQaFwM=", "properties": {"ref": "2073", "@spider": "united_dairy_farmers", "addr:full": "6691 Salem Pike", "addr:city": "Clayton", "addr:state": "OH", "addr:postcode": "45315", "name": "United Dairy Farmers", "phone": "937-832-2066", "brand": "United Dairy Farmers", "brand:wikidata": "Q7887677"}, "geometry": {"type": "Point", "coordinates": [-84.31077, 39.840959]}},
{"type": "Feature", "id": "XMYpVUx7effFBsP9mYmHULpVDJs=", "properties": {"ref": "2072", "@spider": "united_dairy_farmers", "addr:full": "340 West 2nd St", "addr:city": "Xenia", "addr:state": "OH", "addr:postcode": "45385", "name": "United Dairy Farmers", "phone": "937-376-1460", "brand": "United Dairy Farmers", "brand:wikidata": "Q7887677"}, "geometry": {"type": "Point", "coordinates": [-83.934166, 39.683491]}},
{"type": "Feature", "id": "83xwiH4n_EuDJ3cUtfpEkcpuHQc=", "properties": {"ref": "2071", "@spider": "united_dairy_farmers", "addr:full": "1943 Siebenthaler", "addr:city": "Dayton", "addr:state": "OH", "addr:postcode": "45414", "name": "United Dairy Farmers", "phone": "937-276-5603", "brand": "United Dairy Farmers", "brand:wikidata": "Q7887677"}, "geometry": {"type": "Point", "coordinates": [-84.195122, 39.79989]}},
{"type": "Feature", "id": "sVUcd8vPzmHfiTEzAtrk5TMJFVw=", "properties": {"ref": "2070", "@spider": "united_dairy_farmers", "addr:full": "1217 Brown St", "addr:city": "Dayton", "addr:state": "OH", "addr:postcode": "45409", "name": "United Dairy Farmers", "phone": "937-461-5301", "brand": "United Dairy Farmers", "brand:wikidata": "Q7887677"}, "geometry": {"type": "Point", "coordinates": [-84.182373, 39.741417]}},
{"type": "Feature", "id": "gy793KDCdPFFi6tbHw0G8HS6AW8=", "properties": {"ref": "2069", "@spider": "united_dairy_farmers", "addr:full": "5275 Beechmont Ave", "addr:city": "Cincinnati", "addr:state": "OH", "addr:postcode": "45230", "name": "United Dairy Farmers", "phone": "513-231-2877", "brand": "United Dairy Farmers", "brand:wikidata": "Q7887677"}, "geometry": {"type": "Point", "coordinates": [-84.395895, 39.105689]}},
{"type": "Feature", "id": "xTFs7E5cxu7X85prkr1HrN7A-8I=", "properties": {"ref": "2068", "@spider": "united_dairy_farmers", "addr:full": "7224 Taylorsville Rd", "addr:city": "Huber Hts", "addr:state": "OH", "addr:postcode": "45424", "name": "United Dairy Farmers", "phone": "937-236-5907", "brand": "United Dairy Farmers", "brand:wikidata": "Q7887677"}, "geometry": {"type": "Point", "coordinates": [-84.105824, 39.860672]}},
{"type": "Feature", "id": "suJruovs9oMxNRB8SRKnHJlvQZQ=", "properties": {"ref": "2067", "@spider": "united_dairy_farmers", "addr:full": "8733 North Dixie Dr", "addr:city": "Dayton", "addr:state": "OH", "addr:postcode": "45414", "name": "United Dairy Farmers", "phone": "937-898-6471", "brand": "United Dairy Farmers", "brand:wikidata": "Q7887677"}, "geometry": {"type": "Point", "coordinates": [-84.199118, 39.857826]}},
{"type": "Feature", "id": "yxnkpdM6XHMi6PTQtAXQ0zN8G4U=", "properties": {"ref": "2066", "@spider": "united_dairy_farmers", "addr:full": "2200 East Dorathy Ln", "addr:city": "Kettering", "addr:state": "OH", "addr:postcode": "45420", "name": "United Dairy Farmers", "phone": "937-294-3015", "brand": "United Dairy Farmers", "brand:wikidata": "Q7887677"}, "geometry": {"type": "Point", "coordinates": [-84.123291, 39.702488]}},
{"type": "Feature", "id": "v54L1ZfmeEEuoZ5szP-V_PHDwPg=", "properties": {"ref": "2065", "@spider": "united_dairy_farmers", "addr:full": "1666 Woodman Dr", "addr:city": "Dayton", "addr:state": "OH", "addr:postcode": "45432", "name": "United Dairy Farmers", "phone": "937-252-6417", "brand": "United Dairy Farmers", "brand:wikidata": "Q7887677"}, "geometry": {"type": "Point", "coordinates": [-84.121838, 39.732335]}},
{"type": "Feature", "id": "yJlm6JUpTO1A7ognvjUjqLrja-0=", "properties": {"ref": "2064", "@spider": "united_dairy_farmers", "addr:full": "3410 Madison Pike", "addr:city": "Ft Wright", "addr:state": "KY", "addr:postcode": "41017", "name": "United Dairy Farmers", "phone": "859-341-2388", "brand": "United Dairy Farmers", "brand:wikidata": "Q7887677"}, "geometry": {"type": "Point", "coordinates": [-84.532465, 39.0342]}},
{"type": "Feature", "id": "BmtmqobwYqMSJ0gSC7pX5YB9KD4=", "properties": {"ref": "2063", "@spider": "united_dairy_farmers", "addr:full": "702 Main St", "addr:city": "Milford", "addr:state": "OH", "addr:postcode": "45150", "name": "United Dairy Farmers", "phone": "513-831-6435", "brand": "United Dairy Farmers", "brand:wikidata": "Q7887677"}, "geometry": {"type": "Point", "coordinates": [-84.284589, 39.177073]}},
{"type": "Feature", "id": "3t7cL2WWS7iZIDMQJtQZ35Hrtz4=", "properties": {"ref": "2062", "@spider": "united_dairy_farmers", "addr:full": "3985 Mason-Montgomery Rd", "addr:city": "Mason", "addr:state": "OH", "addr:postcode": "45040", "name": "United Dairy Farmers", "phone": "513-204-2837", "brand": "United Dairy Farmers", "brand:wikidata": "Q7887677"}, "geometry": {"type": "Point", "coordinates": [-84.309413, 39.379777]}},
{"type": "Feature", "id": "yHB1DZpiJ0B6nte7chP2iNYbxz8=", "properties": {"ref": "2061", "@spider": "united_dairy_farmers", "addr:full": "8274 Vine Street", "addr:city": "Cincinnati", "addr:state": "OH", "addr:postcode": "45216", "name": "United Dairy Farmers", "phone": "513-761-0678", "brand": "United Dairy Farmers", "brand:wikidata": "Q7887677"}, "geometry": {"type": "Point", "coordinates": [-84.473642, 39.212176]}},
{"type": "Feature", "id": "J7Cja7pYX7uVlWnTHIqIlpXH_UY=", "properties": {"ref": "2060", "@spider": "united_dairy_farmers", "addr:full": "4118 North Bend Road", "addr:city": "Cincinnati", "addr:state": "OH", "addr:postcode": "45211", "name": "United Dairy Farmers", "phone": "513-389-0273", "brand": "United Dairy Farmers", "brand:wikidata": "Q7887677"}, "geometry": {"type": "Point", "coordinates": [-84.605879, 39.16432]}},
{"type": "Feature", "id": "5eou9SjH2bC0O0H7OKv6Tq_H_H8=", "properties": {"ref": "2059", "@spider": "united_dairy_farmers", "addr:full": "2585 State Rt 122", "addr:city": "Franklin", "addr:state": "OH", "addr:postcode": "45036", "name": "United Dairy Farmers", "phone": "937-743-9090", "brand": "United Dairy Farmers", "brand:wikidata": "Q7887677"}, "geometry": {"type": "Point", "coordinates": [-84.154945, 39.493877]}},
{"type": "Feature", "id": "Ac1wY-WKp22Ebs87tIkSLYWCeEo=", "properties": {"ref": "2058", "@spider": "united_dairy_farmers", "addr:full": "109 E Main St", "addr:city": "Owensville", "addr:state": "OH", "addr:postcode": "45160", "name": "United Dairy Farmers", "phone": "513-732-0810", "brand": "United Dairy Farmers", "brand:wikidata": "Q7887677"}, "geometry": {"type": "Point", "coordinates": [-84.135061, 39.122816]}},
{"type": "Feature", "id": "HY9A38xhF9e-cD6su_vOvAbZOEg=", "properties": {"ref": "2057", "@spider": "united_dairy_farmers", "addr:full": "9022 Princeton-Glendale", "addr:city": "West Chester", "addr:state": "OH", "addr:postcode": "45011", "name": "United Dairy Farmers", "phone": "513-682-5903", "brand": "United Dairy Farmers", "brand:wikidata": "Q7887677"}, "geometry": {"type": "Point", "coordinates": [-84.462877, 39.332296]}},
{"type": "Feature", "id": "MmUTiwDLY_BPm5-pTvXy9LTUPsE=", "properties": {"ref": "2056", "@spider": "united_dairy_farmers", "addr:full": "101 N Verity Pkwy", "addr:city": "Middletown", "addr:state": "OH", "addr:postcode": "45042", "name": "United Dairy Farmers", "phone": "513-217-5486", "brand": "United Dairy Farmers", "brand:wikidata": "Q7887677"}, "geometry": {"type": "Point", "coordinates": [-84.401449, 39.517044]}},
{"type": "Feature", "id": "1IAzQ6OOJlSLO0PA8uGZJTwNzwc=", "properties": {"ref": "2055", "@spider": "united_dairy_farmers", "addr:full": "4905 Delhi Pike", "addr:city": "Cincinnati", "addr:state": "OH", "addr:postcode": "45238", "name": "United Dairy Farmers", "phone": "513-451-0451", "brand": "United Dairy Farmers", "brand:wikidata": "Q7887677"}, "geometry": {"type": "Point", "coordinates": [-84.605817, 39.095071]}},
{"type": "Feature", "id": "s772y1qTNOd7R4HNSqSfwKeCUIY=", "properties": {"ref": "2054", "@spider": "united_dairy_farmers", "addr:full": "4041 Turkeyfoot Rd", "addr:city": "Independence", "addr:state": "KY", "addr:postcode": "41051", "name": "United Dairy Farmers", "phone": "859-282-6380", "brand": "United Dairy Farmers", "brand:wikidata": "Q7887677"}, "geometry": {"type": "Point", "coordinates": [-84.586633, 38.994017]}},
{"type": "Feature", "id": "U9rJ9jfSEgLmOGOGLnC_ijYEB5A=", "properties": {"ref": "2053", "@spider": "united_dairy_farmers", "addr:full": "5800 Glenway Avenue", "addr:city": "Cincinnati", "addr:state": "OH", "addr:postcode": "45238", "name": "United Dairy Farmers", "phone": "513-347-3340", "brand": "United Dairy Farmers", "brand:wikidata": "Q7887677"}, "geometry": {"type": "Point", "coordinates": [-84.614414, 39.136741]}},
{"type": "Feature", "id": "j5NHRoVYdaqSCMwftKm2UJDcY30=", "properties": {"ref": "2052", "@spider": "united_dairy_farmers", "addr:full": "9242 Alexandria Pike", "addr:city": "Alexandria", "addr:state": "KY", "addr:postcode": "41001", "name": "United Dairy Farmers", "phone": "859-448-0250", "brand": "United Dairy Farmers", "brand:wikidata": "Q7887677"}, "geometry": {"type": "Point", "coordinates": [-84.394318, 38.940521]}},
{"type": "Feature", "id": "p1AJv7Q6XcNJB7zALEku7pkocbM=", "properties": {"ref": "2051", "@spider": "united_dairy_farmers", "addr:full": "4101 E. Galbraith Rd", "addr:city": "Cincinnati", "addr:state": "OH", "addr:postcode": "45236", "name": "United Dairy Farmers", "phone": "513-891-1140", "brand": "United Dairy Farmers", "brand:wikidata": "Q7887677"}, "geometry": {"type": "Point", "coordinates": [-84.399076, 39.208303]}},
{"type": "Feature", "id": "MfURrqh7_Qei4ncD7kjBS3fZ8LE=", "properties": {"ref": "2050", "@spider": "united_dairy_farmers", "addr:full": "2055 Centennial Blvd", "addr:city": "Independence", "addr:state": "KY", "addr:postcode": "41051", "name": "United Dairy Farmers", "phone": "859-356-0790", "brand": "United Dairy Farmers", "brand:wikidata": "Q7887677"}, "geometry": {"type": "Point", "coordinates": [-84.54745, 38.923041]}},
{"type": "Feature", "id": "4umQjXad22VY_dxDgLrW4aA-W_U=", "properties": {"ref": "2049", "@spider": "united_dairy_farmers", "addr:full": "6300 Cincinnati-Dayton Rd", "addr:city": "Middletown", "addr:state": "OH", "addr:postcode": "45044", "name": "United Dairy Farmers", "phone": "513-755-1501", "brand": "United Dairy Farmers", "brand:wikidata": "Q7887677"}, "geometry": {"type": "Point", "coordinates": [-84.370828, 39.391564]}},
{"type": "Feature", "id": "TMvvBLmZKRGubzxrcX9SXd-SXNQ=", "properties": {"ref": "2048", "@spider": "united_dairy_farmers", "addr:full": "3911 Tylersville Rd", "addr:city": "Hamilton", "addr:state": "OH", "addr:postcode": "45011", "name": "United Dairy Farmers", "phone": "513-874-1940", "brand": "United Dairy Farmers", "brand:wikidata": "Q7887677"}, "geometry": {"type": "Point", "coordinates": [-84.491056, 39.362406]}},
{"type": "Feature", "id": "76zsy8-pksgv9Bs54MWxhAkXvqE=", "properties": {"ref": "2047", "@spider": "united_dairy_farmers", "addr:full": "5000 Princeton Rd", "addr:city": "Liberty Twp", "addr:state": "OH", "addr:postcode": "45011", "name": "United Dairy Farmers", "phone": "513-892-6600", "brand": "United Dairy Farmers", "brand:wikidata": "Q7887677"}, "geometry": {"type": "Point", "coordinates": [-84.453899, 39.388357]}},
{"type": "Feature", "id": "fR2YdSaFmhUXv5s9e3BQKlQ1f_o=", "properties": {"ref": "2046", "@spider": "united_dairy_farmers", "addr:full": "9203 Reading Rd", "addr:city": "Cincinnati", "addr:state": "OH", "addr:postcode": "45215", "name": "United Dairy Farmers", "phone": "513-563-0350", "brand": "United Dairy Farmers", "brand:wikidata": "Q7887677"}, "geometry": {"type": "Point", "coordinates": [-84.43831, 39.227555]}},
{"type": "Feature", "id": "vA5C4J94i6UyWihAzsQQuyfj-xY=", "properties": {"ref": "2045", "@spider": "united_dairy_farmers", "addr:full": "1135 Steffen Lane", "addr:city": "Wilder", "addr:state": "KY", "addr:postcode": "41076", "name": "United Dairy Farmers", "phone": "859-441-5040", "brand": "United Dairy Farmers", "brand:wikidata": "Q7887677"}, "geometry": {"type": "Point", "coordinates": [-84.479179, 39.01782]}},
{"type": "Feature", "id": "sXpjYelNTVuBiMhzGy9gEsqnH9g=", "properties": {"ref": "2044", "@spider": "united_dairy_farmers", "addr:full": "9759 Montgomery Rd", "addr:city": "Cincinnati", "addr:state": "OH", "addr:postcode": "45242", "name": "United Dairy Farmers", "phone": "513-791-0712", "brand": "United Dairy Farmers", "brand:wikidata": "Q7887677"}, "geometry": {"type": "Point", "coordinates": [-84.351692, 39.233757]}},
{"type": "Feature", "id": "VF7R_yIF9UCwbBL-GtD6eSKPjK4=", "properties": {"ref": "2043", "@spider": "united_dairy_farmers", "addr:full": "100 Chamber Drive", "addr:city": "Milford", "addr:state": "OH", "addr:postcode": "45150", "name": "United Dairy Farmers", "phone": "513-831-2257", "brand": "United Dairy Farmers", "brand:wikidata": "Q7887677"}, "geometry": {"type": "Point", "coordinates": [-84.29438, 39.17534]}},
{"type": "Feature", "id": "-BHv88Db_3zuNSVw-P74ALZprtQ=", "properties": {"ref": "2042", "@spider": "united_dairy_farmers", "addr:full": "4899 Cleves-Warsaw Pk", "addr:city": "Cincinnati", "addr:state": "OH", "addr:postcode": "45238", "name": "United Dairy Farmers", "phone": "513-921-3932", "brand": "United Dairy Farmers", "brand:wikidata": "Q7887677"}, "geometry": {"type": "Point", "coordinates": [-84.599565, 39.118316]}},
{"type": "Feature", "id": "PrJM06idZeJx0kmP9C2F0rBSLU4=", "properties": {"ref": "2041", "@spider": "united_dairy_farmers", "addr:full": "915 North Broadway", "addr:city": "Lebanon", "addr:state": "OH", "addr:postcode": "45036", "name": "United Dairy Farmers", "phone": "513-932-1025", "brand": "United Dairy Farmers", "brand:wikidata": "Q7887677"}, "geometry": {"type": "Point", "coordinates": [-84.204705, 39.449845]}},
{"type": "Feature", "id": "GAkvDZBK6rELjNFesRLkKUaOh-s=", "properties": {"ref": "2040", "@spider": "united_dairy_farmers", "addr:full": "5654 Vine St", "addr:city": "Cincinnati", "addr:state": "OH", "addr:postcode": "45216", "name": "United Dairy Farmers", "phone": "513-242-3895", "brand": "United Dairy Farmers", "brand:wikidata": "Q7887677"}, "geometry": {"type": "Point", "coordinates": [-84.49196, 39.183037]}},
{"type": "Feature", "id": "0EXJubU98NttowuJ9SOYUmkP8Bo=", "properties": {"ref": "2039", "@spider": "united_dairy_farmers", "addr:full": "5023 Montgomery Rd", "addr:city": "Cincinnati", "addr:state": "OH", "addr:postcode": "45212", "name": "United Dairy Farmers", "phone": "513-531-0241", "brand": "United Dairy Farmers", "brand:wikidata": "Q7887677"}, "geometry": {"type": "Point", "coordinates": [-84.453515, 39.166919]}},
{"type": "Feature", "id": "nmdjsnVsOcd78qnSm8d4X9Uswas=", "properties": {"ref": "2038", "@spider": "united_dairy_farmers", "addr:full": "855 West Eads Pkwy", "addr:city": "Lawrenceburg", "addr:state": "IN", "addr:postcode": "47025", "name": "United Dairy Farmers", "phone": "812-537-0502", "brand": "United Dairy Farmers", "brand:wikidata": "Q7887677"}, "geometry": {"type": "Point", "coordinates": [-84.842878, 39.120577]}},
{"type": "Feature", "id": "sNlncSOrx6FfLr7JRi5q7KAffoY=", "properties": {"ref": "2037", "@spider": "united_dairy_farmers", "addr:full": "145 Fairfield Ave", "addr:city": "Bellevue", "addr:state": "KY", "addr:postcode": "41073", "name": "United Dairy Farmers", "phone": "859-581-1070", "brand": "United Dairy Farmers", "brand:wikidata": "Q7887677"}, "geometry": {"type": "Point", "coordinates": [-84.486253, 39.104053]}},
{"type": "Feature", "id": "xwHY1q1ynoqwF7BC3CXikBOHL2M=", "properties": {"ref": "2036", "@spider": "united_dairy_farmers", "addr:full": "2086 North Bend Rd", "addr:city": "Hebron", "addr:state": "KY", "addr:postcode": "41048", "name": "United Dairy Farmers", "phone": "859-586-1800", "brand": "United Dairy Farmers", "brand:wikidata": "Q7887677"}, "geometry": {"type": "Point", "coordinates": [-84.712188, 39.088891]}},
{"type": "Feature", "id": "FN0qch5GTElS1tN4QkL-i-BByD8=", "properties": {"ref": "2035", "@spider": "united_dairy_farmers", "addr:full": "5692 Rapid Run Rd", "addr:city": "Cincinnati", "addr:state": "OH", "addr:postcode": "45238", "name": "United Dairy Farmers", "phone": "513-922-0200", "brand": "United Dairy Farmers", "brand:wikidata": "Q7887677"}, "geometry": {"type": "Point", "coordinates": [-84.635422, 39.111857]}},
{"type": "Feature", "id": "qT5x_CkrAgoF6gcan7vDjhQhews=", "properties": {"ref": "2034", "@spider": "united_dairy_farmers", "addr:full": "4332 River Road", "addr:city": "Cincinnati", "addr:state": "OH", "addr:postcode": "45204", "name": "United Dairy Farmers", "phone": "513-347-6191", "brand": "United Dairy Farmers", "brand:wikidata": "Q7887677"}, "geometry": {"type": "Point", "coordinates": [-84.620971, 39.077123]}},
{"type": "Feature", "id": "2LvcZGk4qlvnSi7txl6M4GtRbzI=", "properties": {"ref": "2033", "@spider": "united_dairy_farmers", "addr:full": "701 Wooster Pike", "addr:city": "Terrace Park", "addr:state": "OH", "addr:postcode": "45174", "name": "United Dairy Farmers", "phone": "513-831-9707", "brand": "United Dairy Farmers", "brand:wikidata": "Q7887677"}, "geometry": {"type": "Point", "coordinates": [-84.308688, 39.165615]}},
{"type": "Feature", "id": "VH26dZcbl-mV0_xVhtFv_CoMgiA=", "properties": {"ref": "2032", "@spider": "united_dairy_farmers", "addr:full": "7956 Mason-Montgomery", "addr:city": "Mason", "addr:state": "OH", "addr:postcode": "45040", "name": "United Dairy Farmers", "phone": "513-398-3818", "brand": "United Dairy Farmers", "brand:wikidata": "Q7887677"}, "geometry": {"type": "Point", "coordinates": [-84.31237, 39.323518]}},
{"type": "Feature", "id": "JbjnO5-TPx3LWe0c245I1kjyKdU=", "properties": {"ref": "2031", "@spider": "united_dairy_farmers", "addr:full": "8635 Haines Drive", "addr:city": "Florence", "addr:state": "KY", "addr:postcode": "41042", "name": "United Dairy Farmers", "phone": "859-384-4727", "brand": "United Dairy Farmers", "brand:wikidata": "Q7887677"}, "geometry": {"type": "Point", "coordinates": [-84.664296, 38.973724]}},
{"type": "Feature", "id": "qC2vMWArVEdA5tCFC_Ry64LRs4Q=", "properties": {"ref": "2030", "@spider": "united_dairy_farmers", "addr:full": "6075 Harrison Ave", "addr:city": "Cincinnati", "addr:state": "OH", "addr:postcode": "45247", "name": "United Dairy Farmers", "phone": "513-574-3480", "brand": "United Dairy Farmers", "brand:wikidata": "Q7887677"}, "geometry": {"type": "Point", "coordinates": [-84.64753, 39.180926]}},
{"type": "Feature", "id": "sKsPfrm5AdlIWQJxpd2jlra0qA0=", "properties": {"ref": "2029", "@spider": "united_dairy_farmers", "addr:full": "920 North Bend Rd", "addr:city": "Cincinnati", "addr:state": "OH", "addr:postcode": "45224", "name": "United Dairy Farmers", "phone": "513-681-4925", "brand": "United Dairy Farmers", "brand:wikidata": "Q7887677"}, "geometry": {"type": "Point", "coordinates": [-84.520912, 39.201206]}},
{"type": "Feature", "id": "8zoGNCfDHCb7gBjsA3fYFxGvDn4=", "properties": {"ref": "2028", "@spider": "united_dairy_farmers", "addr:full": "961 Cinti-Batavia Pike", "addr:city": "Batavia", "addr:state": "OH", "addr:postcode": "45103", "name": "United Dairy Farmers", "phone": "513-752-4039", "brand": "United Dairy Farmers", "brand:wikidata": "Q7887677"}, "geometry": {"type": "Point", "coordinates": [-84.157048, 39.025905]}},
{"type": "Feature", "id": "Nc_LQaNWSqu68CpFsPK7RVHurwI=", "properties": {"ref": "2027", "@spider": "united_dairy_farmers", "addr:full": "5540 Dixie Hwy", "addr:city": "Fairfield", "addr:state": "OH", "addr:postcode": "45014", "name": "United Dairy Farmers", "phone": "513-829-4831", "brand": "United Dairy Farmers", "brand:wikidata": "Q7887677"}, "geometry": {"type": "Point", "coordinates": [-84.522848, 39.333304]}},
{"type": "Feature", "id": "P1ztZBfGr9_L1eqttiOzGSkllpg=", "properties": {"ref": "2026", "@spider": "united_dairy_farmers", "addr:full": "6401 Branch Hill\\/Guinea Pike", "addr:city": "Loveland", "addr:state": "OH", "addr:postcode": "45140", "name": "United Dairy Farmers", "phone": "513-677-3096", "brand": "United Dairy Farmers", "brand:wikidata": "Q7887677"}, "geometry": {"type": "Point", "coordinates": [-84.294418, 39.245581]}},
{"type": "Feature", "id": "P5xU35B9a-XH4XeLYwOJvcEnHdA=", "properties": {"ref": "2025", "@spider": "united_dairy_farmers", "addr:full": "469 Wards Corner Rd", "addr:city": "Loveland", "addr:state": "OH", "addr:postcode": "45140", "name": "United Dairy Farmers", "phone": "513-831-2829", "brand": "United Dairy Farmers", "brand:wikidata": "Q7887677"}, "geometry": {"type": "Point", "coordinates": [-84.28227, 39.222788]}},
{"type": "Feature", "id": "JYHIad-QCQVWArtPSR1zwWqmdc0=", "properties": {"ref": "2024", "@spider": "united_dairy_farmers", "addr:full": "1170 Kemper Meadows Dr", "addr:city": "Cincinnati", "addr:state": "OH", "addr:postcode": "45240", "name": "United Dairy Farmers", "phone": "513-742-3185", "brand": "United Dairy Farmers", "brand:wikidata": "Q7887677"}, "geometry": {"type": "Point", "coordinates": [-84.527766, 39.292498]}},
{"type": "Feature", "id": "fVuYCDBwfU324PN9hvPJPJ59e6w=", "properties": {"ref": "2023", "@spider": "united_dairy_farmers", "addr:full": "1239 U.S. 50", "addr:city": "Milford", "addr:state": "OH", "addr:postcode": "45150", "name": "United Dairy Farmers", "phone": "513-576-1630", "brand": "United Dairy Farmers", "brand:wikidata": "Q7887677"}, "geometry": {"type": "Point", "coordinates": [-84.237105, 39.137849]}},
{"type": "Feature", "id": "hK8s2zpIX-fZpRk_5X6JD6NlYGE=", "properties": {"ref": "2022", "@spider": "united_dairy_farmers", "addr:full": "509 Licking Pike", "addr:city": "Wilder", "addr:state": "KY", "addr:postcode": "41071", "name": "United Dairy Farmers", "phone": "859-291-2234", "brand": "United Dairy Farmers", "brand:wikidata": "Q7887677"}, "geometry": {"type": "Point", "coordinates": [-84.486547, 39.056665]}},
{"type": "Feature", "id": "tOVCTbjETTSACz5GmuUF4jxStsA=", "properties": {"ref": "2021", "@spider": "united_dairy_farmers", "addr:full": "12191 Mosteller Rd", "addr:city": "Cincinnati", "addr:state": "OH", "addr:postcode": "45241", "name": "United Dairy Farmers", "phone": "513-772-6630", "brand": "United Dairy Farmers", "brand:wikidata": "Q7887677"}, "geometry": {"type": "Point", "coordinates": [-84.427182, 39.298287]}},
{"type": "Feature", "id": "aJADnLffyyMtJJ3iKMDVxhzVlWI=", "properties": {"ref": "2020", "@spider": "united_dairy_farmers", "addr:full": "2200 Winemiller Lane", "addr:city": "Batavia", "addr:state": "OH", "addr:postcode": "45103", "name": "United Dairy Farmers", "phone": "513-732-0979", "brand": "United Dairy Farmers", "brand:wikidata": "Q7887677"}, "geometry": {"type": "Point", "coordinates": [-84.152795, 39.083098]}},
{"type": "Feature", "id": "c1g2i73WxgRnU0hBpka1Vvcxj7k=", "properties": {"ref": "2019", "@spider": "united_dairy_farmers", "addr:full": "7197 Beechmont Ave", "addr:city": "Cincinnati", "addr:state": "OH", "addr:postcode": "45230", "name": "United Dairy Farmers", "phone": "513-231-8324", "brand": "United Dairy Farmers", "brand:wikidata": "Q7887677"}, "geometry": {"type": "Point", "coordinates": [-84.35875, 39.072743]}},
{"type": "Feature", "id": "XiU4935iYRxwlFlQgRggand3cLQ=", "properties": {"ref": "2018", "@spider": "united_dairy_farmers", "addr:full": "5311 Madison Rd", "addr:city": "Cincinnati", "addr:state": "OH", "addr:postcode": "45227", "name": "United Dairy Farmers", "phone": "513-271-3306", "brand": "United Dairy Farmers", "brand:wikidata": "Q7887677"}, "geometry": {"type": "Point", "coordinates": [-84.4034, 39.161183]}},
{"type": "Feature", "id": "OwUhSw8c8NEmamzvgyTE4yf5v4I=", "properties": {"ref": "2017", "@spider": "united_dairy_farmers", "addr:full": "12147 Montgomery Rd", "addr:city": "Cincinnati", "addr:state": "OH", "addr:postcode": "45249", "name": "United Dairy Farmers", "phone": "513-677-8540", "brand": "United Dairy Farmers", "brand:wikidata": "Q7887677"}, "geometry": {"type": "Point", "coordinates": [-84.300573, 39.289861]}},
{"type": "Feature", "id": "HTEHaLjFsMLRo3KG3OBjaKig5KI=", "properties": {"ref": "2016", "@spider": "united_dairy_farmers", "addr:full": "6643 St Rt 48", "addr:city": "Maineville", "addr:state": "OH", "addr:postcode": "45039", "name": "United Dairy Farmers", "phone": "513-683-7090", "brand": "United Dairy Farmers", "brand:wikidata": "Q7887677"}, "geometry": {"type": "Point", "coordinates": [-84.243763, 39.316973]}},
{"type": "Feature", "id": "aLShm8PpuFpU0YrUpAI0ONEOW5w=", "properties": {"ref": "2015", "@spider": "united_dairy_farmers", "addr:full": "1788 Ohio Pike", "addr:city": "Amelia", "addr:state": "OH", "addr:postcode": "45102", "addr:country": "US", "name": "United Dairy Farmers", "phone": "513-797-7430", "brand": "United Dairy Farmers", "brand:wikidata": "Q7887677"}, "geometry": {"type": "Point", "coordinates": [-84.200614, 39.01892]}},
{"type": "Feature", "id": "zm-vIUYQ6kmQF4csoFUg7NPSydo=", "properties": {"ref": "2014", "@spider": "united_dairy_farmers", "addr:full": "1124 St Gregory St", "addr:city": "Cincinnati", "addr:state": "OH", "addr:postcode": "45202", "name": "United Dairy Farmers", "phone": "513-723-1900", "brand": "United Dairy Farmers", "brand:wikidata": "Q7887677"}, "geometry": {"type": "Point", "coordinates": [-84.502584, 39.109356]}},
{"type": "Feature", "id": "7SCHsPYiseeqRJ0GSjSXLFrO4Cw=", "properties": {"ref": "2013", "@spider": "united_dairy_farmers", "addr:full": "9420 Loveland-Madeira Rd", "addr:city": "Cincinnati", "addr:state": "OH", "addr:postcode": "45242", "name": "United Dairy Farmers", "phone": "513-793-8145", "brand": "United Dairy Farmers", "brand:wikidata": "Q7887677"}, "geometry": {"type": "Point", "coordinates": [-84.325032, 39.227401]}},
{"type": "Feature", "id": "39byUqVEj6z8P3MgFPbe6fcY6U4=", "properties": {"ref": "2012", "@spider": "united_dairy_farmers", "addr:full": "711 Ohio Pike", "addr:city": "Cincinnati", "addr:state": "OH", "addr:postcode": "45245", "name": "United Dairy Farmers", "phone": "513-752-4549", "brand": "United Dairy Farmers", "brand:wikidata": "Q7887677"}, "geometry": {"type": "Point", "coordinates": [-84.286782, 39.065288]}},
{"type": "Feature", "id": "fOaoRGW5X-R4odAOICB3Oqz_S64=", "properties": {"ref": "2011", "@spider": "united_dairy_farmers", "addr:full": "101 West State St", "addr:city": "Georgetown", "addr:state": "OH", "addr:postcode": "45121", "name": "United Dairy Farmers", "phone": "937-378-3854", "brand": "United Dairy Farmers", "brand:wikidata": "Q7887677"}, "geometry": {"type": "Point", "coordinates": [-83.912042, 38.86795]}},
{"type": "Feature", "id": "8lJ3ZrQsZCHUHwxavaborWZHJyg=", "properties": {"ref": "2010", "@spider": "united_dairy_farmers", "addr:full": "6066 Limaburg Rd", "addr:city": "Burlington", "addr:state": "KY", "addr:postcode": "41005", "name": "United Dairy Farmers", "phone": "859-371-9549", "brand": "United Dairy Farmers", "brand:wikidata": "Q7887677"}, "geometry": {"type": "Point", "coordinates": [-84.687465, 39.017948]}},
{"type": "Feature", "id": "fBZFj9BcpJB23_RyA9n3eK0Pheg=", "properties": {"ref": "2008", "@spider": "united_dairy_farmers", "addr:full": "130 Main St", "addr:city": "Batavia", "addr:state": "OH", "addr:postcode": "45103", "name": "United Dairy Farmers", "phone": "513-732-6924", "brand": "United Dairy Farmers", "brand:wikidata": "Q7887677"}, "geometry": {"type": "Point", "coordinates": [-84.178341, 39.077993]}},
{"type": "Feature", "id": "54F0wIr-9NO5uT6qw-F4A29E1lo=", "properties": {"ref": "2007", "@spider": "united_dairy_farmers", "addr:full": "6813 Hamilton Ave", "addr:city": "Cincinnati", "addr:state": "OH", "addr:postcode": "45224", "name": "United Dairy Farmers", "phone": "513-729-3727", "brand": "United Dairy Farmers", "brand:wikidata": "Q7887677"}, "geometry": {"type": "Point", "coordinates": [-84.549594, 39.216355]}},
{"type": "Feature", "id": "cmXAbYCExvldEHxCXn81s16FzJk=", "properties": {"ref": "2006", "@spider": "united_dairy_farmers", "addr:full": "861 Eastgate South Dr", "addr:city": "Cincinnati", "addr:state": "OH", "addr:postcode": "45245", "name": "United Dairy Farmers", "phone": "513-753-8448", "brand": "United Dairy Farmers", "brand:wikidata": "Q7887677"}, "geometry": {"type": "Point", "coordinates": [-84.266771, 39.094642]}},
{"type": "Feature", "id": "fI_l752qoTAKoJjrTvQYb9eDX68=", "properties": {"ref": "2005", "@spider": "united_dairy_farmers", "addr:full": "11886 Hamilton Ave", "addr:city": "Cincinnati", "addr:state": "OH", "addr:postcode": "45231", "name": "United Dairy Farmers", "phone": "513-825-4422", "brand": "United Dairy Farmers", "brand:wikidata": "Q7887677"}, "geometry": {"type": "Point", "coordinates": [-84.563164, 39.29958]}},
{"type": "Feature", "id": "HxdaxVgV-RPzhoga8sS4SGKh7BM=", "properties": {"ref": "2004", "@spider": "united_dairy_farmers", "addr:full": "5571 Bridgetown Rd", "addr:city": "Cincinnati", "addr:state": "OH", "addr:postcode": "45248", "name": "United Dairy Farmers", "phone": "513-574-1134", "brand": "United Dairy Farmers", "brand:wikidata": "Q7887677"}, "geometry": {"type": "Point", "coordinates": [-84.631712, 39.158017]}},
{"type": "Feature", "id": "1InyYdYy6tCo1UDC2WxVa6uHjcg=", "properties": {"ref": "2003", "@spider": "united_dairy_farmers", "addr:full": "7111 Vine St", "addr:city": "Cincinnati", "addr:state": "OH", "addr:postcode": "45216", "name": "United Dairy Farmers", "phone": "513-821-0929", "brand": "United Dairy Farmers", "brand:wikidata": "Q7887677"}, "geometry": {"type": "Point", "coordinates": [-84.479899, 39.194772]}},
{"type": "Feature", "id": "cyBvqbgGXGQC_OtruV2jZeunygw=", "properties": {"ref": "2002", "@spider": "united_dairy_farmers", "addr:full": "395 East Main St", "addr:city": "Wilmington", "addr:state": "OH", "addr:postcode": "45177", "name": "United Dairy Farmers", "phone": "937-382-0784", "brand": "United Dairy Farmers", "brand:wikidata": "Q7887677"}, "geometry": {"type": "Point", "coordinates": [-83.821846, 39.445807]}},
{"type": "Feature", "id": "-5pjKFh4dgeTo-R7S_aqS9lZMBU=", "properties": {"ref": "2001", "@spider": "united_dairy_farmers", "addr:full": "3610 Blue Rock Rd", "addr:city": "Cincinnati", "addr:state": "OH", "addr:postcode": "45247", "name": "United Dairy Farmers", "phone": "513-741-3600", "brand": "United Dairy Farmers", "brand:wikidata": "Q7887677"}, "geometry": {"type": "Point", "coordinates": [-84.599561, 39.21301]}},
{"type": "Feature", "id": "8uPsvOtAx7x8u9VKQlhBHGgb6x0=", "properties": {"ref": "2000", "@spider": "united_dairy_farmers", "addr:full": "101 West High St", "addr:city": "Oxford", "addr:state": "OH", "addr:postcode": "45056", "name": "United Dairy Farmers", "phone": "513-523-2507", "brand": "United Dairy Farmers", "brand:wikidata": "Q7887677"}, "geometry": {"type": "Point", "coordinates": [-84.744807, 39.510381]}},
{"type": "Feature", "id": "RXFD72Bc5mMFsKzpi2Il4RKX0C8=", "properties": {"ref": "1999", "@spider": "united_dairy_farmers", "addr:full": "3325 Clifton Ave", "addr:city": "Cincinnati", "addr:state": "OH", "addr:postcode": "45220", "name": "United Dairy Farmers", "phone": "513-751-5132", "brand": "United Dairy Farmers", "brand:wikidata": "Q7887677"}, "geometry": {"type": "Point", "coordinates": [-84.519502, 39.142129]}},
{"type": "Feature", "id": "B4s_VZKzFbp4B7224eIWlqkQVCQ=", "properties": {"ref": "1998", "@spider": "united_dairy_farmers", "addr:full": "3030 Burnet Ave", "addr:city": "Cincinnati", "addr:state": "OH", "addr:postcode": "45219", "name": "United Dairy Farmers", "phone": "513-861-6444", "brand": "United Dairy Farmers", "brand:wikidata": "Q7887677"}, "geometry": {"type": "Point", "coordinates": [-84.500994, 39.134363]}},
{"type": "Feature", "id": "u6sUq4JetPp_86__zsfGOPniE5U=", "properties": {"ref": "1997", "@spider": "united_dairy_farmers", "addr:full": "1873 Highway 28", "addr:city": "Goshen", "addr:state": "OH", "addr:postcode": "45122", "name": "United Dairy Farmers", "phone": "513-722-2003", "brand": "United Dairy Farmers", "brand:wikidata": "Q7887677"}, "geometry": {"type": "Point", "coordinates": [-84.160157, 39.231934]}},
{"type": "Feature", "id": "BKEQSVAJnAN8S3nDDbBAbEYitlM=", "properties": {"ref": "1996", "@spider": "united_dairy_farmers", "addr:full": "6701 Beechmont Ave", "addr:city": "Cincinnati", "addr:state": "OH", "addr:postcode": "45230", "name": "United Dairy Farmers", "phone": "513-232-8248", "brand": "United Dairy Farmers", "brand:wikidata": "Q7887677"}, "geometry": {"type": "Point", "coordinates": [-84.374551, 39.08303]}},
{"type": "Feature", "id": "wigo45VhmndhXDGqLfWOwuKGts0=", "properties": {"ref": "1995", "@spider": "united_dairy_farmers", "addr:full": "2607 Victory Pkwy", "addr:city": "Cincinnati", "addr:state": "OH", "addr:postcode": "45206", "name": "United Dairy Farmers", "phone": "513-861-6099", "brand": "United Dairy Farmers", "brand:wikidata": "Q7887677"}, "geometry": {"type": "Point", "coordinates": [-84.484503, 39.127257]}},
{"type": "Feature", "id": "wyDYGg-fuzag6sl3hBsh0JbLxAU=", "properties": {"ref": "1994", "@spider": "united_dairy_farmers", "addr:full": "2151 Losantiville Rd", "addr:city": "Cincinnati", "addr:state": "OH", "addr:postcode": "45237", "name": "United Dairy Farmers", "phone": "513-531-5006", "brand": "United Dairy Farmers", "brand:wikidata": "Q7887677"}, "geometry": {"type": "Point", "coordinates": [-84.452608, 39.190985]}},
{"type": "Feature", "id": "4_n9BfyIM-95mcU4D2cypdGeRqI=", "properties": {"ref": "1993", "@spider": "united_dairy_farmers", "addr:full": "3941 Montgomery Rd", "addr:city": "Norwood", "addr:state": "OH", "addr:postcode": "45212", "name": "United Dairy Farmers", "phone": "513-396-8820", "brand": "United Dairy Farmers", "brand:wikidata": "Q7887677"}, "geometry": {"type": "Point", "coordinates": [-84.463405, 39.151549]}},
{"type": "Feature", "id": "YFDDXeWCKkP_Ql_1CN9wa-9Vfag=", "properties": {"ref": "1992", "@spider": "united_dairy_farmers", "addr:full": "2913 Boudinot Ave", "addr:city": "Cincinnati", "addr:state": "OH", "addr:postcode": "45238", "name": "United Dairy Farmers", "phone": "513-661-4455", "brand": "United Dairy Farmers", "brand:wikidata": "Q7887677"}, "geometry": {"type": "Point", "coordinates": [-84.604831, 39.136686]}},
{"type": "Feature", "id": "AqMJ8Kpy1oYNNUcH4B7rmQxr76c=", "properties": {"ref": "1991", "@spider": "united_dairy_farmers", "addr:full": "10565 Harrison Ave", "addr:city": "Harrison", "addr:state": "OH", "addr:postcode": "45030", "name": "United Dairy Farmers", "phone": "513-367-0069", "brand": "United Dairy Farmers", "brand:wikidata": "Q7887677"}, "geometry": {"type": "Point", "coordinates": [-84.793349, 39.252162]}},
{"type": "Feature", "id": "BejtdTja0zepuOBXMyoIQyhomS8=", "properties": {"ref": "1990", "@spider": "united_dairy_farmers", "addr:full": "233 North High St", "addr:city": "Hillsboro", "addr:state": "OH", "addr:postcode": "45133", "name": "United Dairy Farmers", "phone": "937-393-3751", "brand": "United Dairy Farmers", "brand:wikidata": "Q7887677"}, "geometry": {"type": "Point", "coordinates": [-83.611164, 39.204432]}},
{"type": "Feature", "id": "k_33NWEwPEwiweR0VIgErKsQixg=", "properties": {"ref": "1989", "@spider": "united_dairy_farmers", "addr:full": "9594 Cincinnati-Columbus Rd", "addr:city": "Pisgah", "addr:state": "OH", "addr:postcode": "45241", "name": "United Dairy Farmers", "phone": "513-777-4194", "brand": "United Dairy Farmers", "brand:wikidata": "Q7887677"}, "geometry": {"type": "Point", "coordinates": [-84.379669, 39.310866]}},
{"type": "Feature", "id": "kmzRJGIAL6aTE4Gxen6ExJDbunU=", "properties": {"ref": "1988", "@spider": "united_dairy_farmers", "addr:full": "2203 Queen City Ave", "addr:city": "Cincinnati", "addr:state": "OH", "addr:postcode": "45214", "name": "United Dairy Farmers", "phone": "513-481-6722", "brand": "United Dairy Farmers", "brand:wikidata": "Q7887677"}, "geometry": {"type": "Point", "coordinates": [-84.574003, 39.127464]}},
{"type": "Feature", "id": "jdaIHT06IJnYhGovUahR9d4C3rI=", "properties": {"ref": "1987", "@spider": "united_dairy_farmers", "addr:full": "2669 West U.S. 22 & 3", "addr:city": "Maineville", "addr:state": "OH", "addr:postcode": "45039", "name": "United Dairy Farmers", "phone": "513-677-0224", "brand": "United Dairy Farmers", "brand:wikidata": "Q7887677"}, "geometry": {"type": "Point", "coordinates": [-84.271716, 39.310113]}},
{"type": "Feature", "id": "tux7KDgHKRqSlRFS5KGEi-Af12g=", "properties": {"ref": "1986", "@spider": "united_dairy_farmers", "addr:full": "3174 Linwood Ave", "addr:city": "Cincinnati", "addr:state": "OH", "addr:postcode": "45208", "name": "United Dairy Farmers", "phone": "513-321-2080", "brand": "United Dairy Farmers", "brand:wikidata": "Q7887677"}, "geometry": {"type": "Point", "coordinates": [-84.430181, 39.129553]}},
{"type": "Feature", "id": "MuBT9LeYM732fEteQ-7uSCH_TEI=", "properties": {"ref": "1985", "@spider": "united_dairy_farmers", "addr:full": "3502 Main St", "addr:city": "Cincinnati", "addr:state": "OH", "addr:postcode": "45244", "name": "United Dairy Farmers", "phone": "513-561-6680", "brand": "United Dairy Farmers", "brand:wikidata": "Q7887677"}, "geometry": {"type": "Point", "coordinates": [-84.361803, 39.12467]}},
{"type": "Feature", "id": "rb8NjAMvF-FYD3u_lDGFUfGol8c=", "properties": {"ref": "1984", "@spider": "united_dairy_farmers", "addr:full": "608 South State St", "addr:city": "Harrison", "addr:state": "OH", "addr:postcode": "45030", "name": "United Dairy Farmers", "phone": "513-367-4001", "brand": "United Dairy Farmers", "brand:wikidata": "Q7887677"}, "geometry": {"type": "Point", "coordinates": [-84.819828, 39.256188]}},
{"type": "Feature", "id": "dDzkAH96ve6yBB2Ej0H8EY6_kWw=", "properties": {"ref": "1983", "@spider": "united_dairy_farmers", "addr:full": "2010 Eight Mile Rd", "addr:city": "Cincinnati", "addr:state": "OH", "addr:postcode": "45244", "name": "United Dairy Farmers", "phone": "513-474-6861", "brand": "United Dairy Farmers", "brand:wikidata": "Q7887677"}, "geometry": {"type": "Point", "coordinates": [-84.321847, 39.088212]}},
{"type": "Feature", "id": "Jw-0PKL8A0Ab0bFNwaQRmNVS3S0=", "properties": {"ref": "1982", "@spider": "united_dairy_farmers", "addr:full": "10811 Hamilton Ave", "addr:city": "Cincinnati", "addr:state": "OH", "addr:postcode": "45231", "name": "United Dairy Farmers", "phone": "513-851-2368", "brand": "United Dairy Farmers", "brand:wikidata": "Q7887677"}, "geometry": {"type": "Point", "coordinates": [-84.562241, 39.273306]}},
{"type": "Feature", "id": "IdEeBU_-57cUUhqomjntRUjw53k=", "properties": {"ref": "1965", "@spider": "united_dairy_farmers", "addr:full": "8577 Dixie Highway", "addr:city": "Florence", "addr:state": "KY", "addr:postcode": "41042", "name": "United Dairy Farmers", "phone": "859-371-7005", "brand": "United Dairy Farmers", "brand:wikidata": "Q7887677"}, "geometry": {"type": "Point", "coordinates": [-84.619451, 38.95819]}},
{"type": "Feature", "id": "Nn1r-tZusSxClutiu8_hhQBAoYM=", "properties": {"ref": "1964", "@spider": "united_dairy_farmers", "addr:full": "9100 Cincinnati-Dayton Road", "addr:city": "West Chester", "addr:state": "OH", "addr:postcode": "45069", "name": "United Dairy Farmers", "phone": "513-777-4816", "brand": "United Dairy Farmers", "brand:wikidata": "Q7887677"}, "geometry": {"type": "Point", "coordinates": [-84.40536, 39.336058]}},
{"type": "Feature", "id": "CwnsEL0E9m4UUEM1lHrGXPOkDuE=", "properties": {"ref": "1963", "@spider": "united_dairy_farmers", "addr:full": "2023 State Route 131", "addr:city": "Batavia", "addr:state": "OH", "addr:postcode": "45103", "name": "United Dairy Farmers", "phone": "513-625-0999", "brand": "United Dairy Farmers", "brand:wikidata": "Q7887677"}, "geometry": {"type": "Point", "coordinates": [-84.159001, 39.172406]}},
{"type": "Feature", "id": "_pul1ypYQsDypjvlNHSUMJMdDa4=", "properties": {"ref": "1962", "@spider": "united_dairy_farmers", "addr:full": "7043 Montgomery Rd", "addr:city": "Cincinnati", "addr:state": "OH", "addr:postcode": "45236", "addr:country": "US", "name": "United Dairy Farmers", "phone": "513-891-1522", "brand": "United Dairy Farmers", "brand:wikidata": "Q7887677"}, "geometry": {"type": "Point", "coordinates": [-84.403997, 39.19245]}}]}