{"type":"FeatureCollection","features":[{"type": "Feature", "id": "4PaM5idUK8OpkmIwGW8v3aXCCf0=", "properties": {"ref": "forest-park", "@spider": "usavingsbank", "addr:street_address": "1160 Kemper Meadow Dr", "addr:city": "Cincinnati", "addr:state": "OH", "addr:postcode": "45240", "addr:country": "US", "name": "Forest Park", "phone": "(513) 589-8500", "website": "https://usavingsbank.com/find-a-branch-atm/locations/forest-park/", "opening_hours": "Mo-Th 09:00-17:00; Fr 09:00-18:00; Sa 09:00-13:00", "brand": "Union Savings Bank", "brand:wikidata": "Q69206498"}, "geometry": {"type": "Point", "coordinates": [-84.5221187, 39.2930641]}},
{"type": "Feature", "id": "LwACYsGtTHCRKdivGmT3Ox5bAZU=", "properties": {"ref": "reynoldsburg", "@spider": "usavingsbank", "addr:street_address": "1320 Brice Rd", "addr:city": "Reynoldsburg", "addr:state": "OH", "addr:postcode": "43068", "addr:country": "US", "name": "Reynoldsburg", "phone": "(614) 861-9003", "website": "https://usavingsbank.com/find-a-branch-atm/locations/reynoldsburg/", "opening_hours": "Mo-Th 09:00-17:00; Fr 09:00-18:00; Sa 09:00-13:00", "brand": "Union Savings Bank", "brand:wikidata": "Q69206498"}, "geometry": {"type": "Point", "coordinates": [-82.828508, 39.9525193]}},
{"type": "Feature", "id": "lz7LvEBeQcKlEMt_skvrGW6XlOk=", "properties": {"ref": "columbus", "@spider": "usavingsbank", "addr:street_address": "1330 Morse Rd", "addr:city": "Columbus", "addr:state": "OH", "addr:postcode": "43229", "addr:country": "US", "name": "Columbus", "phone": "(614) 781-8896", "website": "https://usavingsbank.com/find-a-branch-atm/locations/columbus/", "opening_hours": "Mo-Th 09:00-17:00; Fr 09:00-18:00; Sa 09:00-13:00", "brand": "Union Savings Bank", "brand:wikidata": "Q69206498"}, "geometry": {"type": "Point", "coordinates": [-82.9832099, 40.061403]}},
{"type": "Feature", "id": "0hfjVC6G3EVbwwIuo_bic1zOcoc=", "properties": {"ref": "lancaster", "@spider": "usavingsbank", "addr:street_address": "1654 E Main St", "addr:city": "Lancaster", "addr:state": "OH", "addr:postcode": "43130", "addr:country": "US", "name": "Lancaster", "phone": "(740) 653-3730", "website": "https://usavingsbank.com/find-a-branch-atm/locations/lancaster/", "opening_hours": "Mo-Th 09:00-17:00; Fr 09:00-18:00; Sa 09:00-13:00", "brand": "Union Savings Bank", "brand:wikidata": "Q69206498"}, "geometry": {"type": "Point", "coordinates": [-82.5674628, 39.7142536]}},
{"type": "Feature", "id": "zGsFayX5PXzTleAcZKf2na_Ws0k=", "properties": {"ref": "dublin", "@spider": "usavingsbank", "addr:street_address": "3550 W Dublin Granville Rd", "addr:city": "Columbus", "addr:state": "OH", "addr:postcode": "43235", "addr:country": "US", "name": "Dublin", "phone": "(614) 761-9700", "website": "https://usavingsbank.com/find-a-branch-atm/locations/dublin/", "opening_hours": "Mo-Th 09:00-17:00; Fr 09:00-18:00; Sa 09:00-13:00", "brand": "Union Savings Bank", "brand:wikidata": "Q69206498"}, "geometry": {"type": "Point", "coordinates": [-83.0843274, 40.0937901]}},
{"type": "Feature", "id": "d4lU2V8omdQ7bYx-_gFladFYM-I=", "properties": {"ref": "westerville", "@spider": "usavingsbank", "addr:street_address": "44 S State St", "addr:city": "Westerville", "addr:state": "OH", "addr:postcode": "43081", "addr:country": "US", "name": "Westerville", "phone": "(614) 882-2286", "website": "https://usavingsbank.com/find-a-branch-atm/locations/westerville/", "opening_hours": "Mo-Th 09:00-17:00; Fr 09:00-18:00; Sa 09:00-13:00", "brand": "Union Savings Bank", "brand:wikidata": "Q69206498"}, "geometry": {"type": "Point", "coordinates": [-82.9308322, 40.12492]}},
{"type": "Feature", "id": "T5rf4p0bwnJfy4ey8wAaReAmntw=", "properties": {"ref": "grove-city", "@spider": "usavingsbank", "addr:street_address": "4090 Hoover Rd", "addr:city": "Grove City", "addr:state": "OH", "addr:postcode": "43123", "addr:country": "US", "name": "Grove City", "phone": "(614) 317-9700", "website": "https://usavingsbank.com/find-a-branch-atm/locations/grove-city/", "opening_hours": "Mo-Th 09:00-17:00; Fr 09:00-18:00; Sa 09:00-13:00", "brand": "Union Savings Bank", "brand:wikidata": "Q69206498"}, "geometry": {"type": "Point", "coordinates": [-83.0692608, 39.8795575]}},
{"type": "Feature", "id": "_jT3IKiQGEBTz_qvhZ4klSsJN3Q=", "properties": {"ref": "upper-arlington", "@spider": "usavingsbank", "addr:street_address": "3250 Northwest Blvd", "addr:city": "Upper Arlington", "addr:state": "OH", "addr:postcode": "43221", "addr:country": "US", "name": "Upper Arlington", "phone": "(614) 545-5626", "website": "https://usavingsbank.com/find-a-branch-atm/locations/upper-arlington/", "opening_hours": "Mo-Th 09:00-17:00; Fr 09:00-18:00; Sa 09:00-13:00", "brand": "Union Savings Bank", "brand:wikidata": "Q69206498"}, "geometry": {"type": "Point", "coordinates": [-83.0566509, 40.0239665]}},
{"type": "Feature", "id": "0V-1K47ZJdnAQyE2Vw2cmK2one0=", "properties": {"ref": "kettering", "@spider": "usavingsbank", "addr:street_address": "3030 Woodman Dr", "addr:city": "Kettering", "addr:state": "OH", "addr:postcode": "45420", "addr:country": "US", "name": "Kettering", "phone": "(937) 643-2700", "website": "https://usavingsbank.com/find-a-branch-atm/locations/kettering/", "opening_hours": "Mo-Th 09:00-17:00; Fr 09:00-18:00; Sa 09:00-13:00", "brand": "Union Savings Bank", "brand:wikidata": "Q69206498"}, "geometry": {"type": "Point", "coordinates": [-84.1229397, 39.7006416]}},
{"type": "Feature", "id": "DPAD5Tt7puRDb4EnhJryxSqs1jk=", "properties": {"ref": "englewood", "@spider": "usavingsbank", "addr:street_address": "525 W National Rd", "addr:city": "Englewood", "addr:state": "OH", "addr:postcode": "45322", "addr:country": "US", "name": "Englewood", "phone": "(937) 832-8200", "website": "https://usavingsbank.com/find-a-branch-atm/locations/englewood/", "opening_hours": "Mo-Th 09:00-17:00; Fr 09:00-18:00; Sa 09:00-13:00", "brand": "Union Savings Bank", "brand:wikidata": "Q69206498"}, "geometry": {"type": "Point", "coordinates": [-84.3137549, 39.8770866]}},
{"type": "Feature", "id": "dAodxIZhWYQEVOTcpaK3zk0JMOc=", "properties": {"ref": "fairborn", "@spider": "usavingsbank", "addr:street_address": "2794 Colonel Glenn Hwy", "addr:city": "Fairborn", "addr:state": "OH", "addr:postcode": "45324", "addr:country": "US", "name": "Fairborn", "phone": "(937) 431-3663", "website": "https://usavingsbank.com/find-a-branch-atm/locations/fairborn/", "opening_hours": "Mo-Th 09:00-17:00; Fr 09:00-18:00; Sa 09:00-13:00", "brand": "Union Savings Bank", "brand:wikidata": "Q69206498"}, "geometry": {"type": "Point", "coordinates": [-84.058012, 39.777884]}},
{"type": "Feature", "id": "2qavlQ8S5HIg8oRIabXTtTRpYws=", "properties": {"ref": "troy", "@spider": "usavingsbank", "addr:street_address": "14 S Weston Rd", "addr:city": "Troy", "addr:state": "OH", "addr:postcode": "45373", "addr:country": "US", "name": "Troy", "phone": "(937) 335-4199", "website": "https://usavingsbank.com/find-a-branch-atm/locations/troy/", "opening_hours": "Mo-Th 09:00-17:00; Fr 09:00-18:00; Sa 09:00-13:00", "brand": "Union Savings Bank", "brand:wikidata": "Q69206498"}, "geometry": {"type": "Point", "coordinates": [-84.2297419, 40.0501118]}},
{"type": "Feature", "id": "xpY359LLmHQKS4IACUK-7MO4EGk=", "properties": {"ref": "franklin", "@spider": "usavingsbank", "addr:street_address": "1040 E 2nd St", "addr:city": "Franklin", "addr:state": "OH", "addr:postcode": "45005", "addr:country": "US", "name": "Franklin", "phone": "(937) 748-0844", "website": "https://usavingsbank.com/find-a-branch-atm/locations/franklin/", "opening_hours": "Mo-Th 09:00-17:00; Fr 09:00-18:00; Sa 09:00-13:00", "brand": "Union Savings Bank", "brand:wikidata": "Q69206498"}, "geometry": {"type": "Point", "coordinates": [-84.2840546, 39.5638045]}},
{"type": "Feature", "id": "o1R6NraniCy_pEk5f4kt37YVcr4=", "properties": {"ref": "miamisburg", "@spider": "usavingsbank", "addr:street_address": "20 Prestige Plaza Dr", "addr:city": "Miamisburg", "addr:state": "OH", "addr:postcode": "45342", "addr:country": "US", "name": "Miamisburg", "phone": "(937) 281-0741", "website": "https://usavingsbank.com/find-a-branch-atm/locations/miamisburg/", "opening_hours": "Mo-Th 09:00-17:00; Fr 09:00-18:00; Sa 09:00-13:00", "brand": "Union Savings Bank", "brand:wikidata": "Q69206498"}, "geometry": {"type": "Point", "coordinates": [-84.227365, 39.6377184]}},
{"type": "Feature", "id": "kPI27mUGPW6jvKcNHS-Zms7vKHA=", "properties": {"ref": "xenia", "@spider": "usavingsbank", "addr:street_address": "100 E Market St", "addr:city": "Xenia", "addr:state": "OH", "addr:postcode": "45385", "addr:country": "US", "name": "Xenia", "phone": "(937) 347-1020", "website": "https://usavingsbank.com/find-a-branch-atm/locations/xenia/", "opening_hours": "Mo 09:00-18:00; Tu-Th 09:00-17:00; Fr 09:00-18:00; Sa 09:00-13:00", "brand": "Union Savings Bank", "brand:wikidata": "Q69206498"}, "geometry": {"type": "Point", "coordinates": [-83.9278817, 39.6864534]}},
{"type": "Feature", "id": "dETx8EIOv8xbgxZx5tfNqRJJtkE=", "properties": {"ref": "indianapolis", "@spider": "usavingsbank", "addr:street_address": "5881 E 82nd St", "addr:city": "Indianapolis", "addr:state": "IN", "addr:postcode": "46250", "addr:country": "US", "name": "Indianapolis", "phone": "(317) 843-1006", "website": "https://usavingsbank.com/find-a-branch-atm/locations/indianapolis/", "opening_hours": "Mo-Th 09:00-17:00; Fr 09:00-18:00; Sa 09:00-13:00", "brand": "Union Savings Bank", "brand:wikidata": "Q69206498"}, "geometry": {"type": "Point", "coordinates": [-86.0676958, 39.9045759]}},
{"type": "Feature", "id": "wikZAmZZmFMtL0icNYO1n1_7jqw=", "properties": {"ref": "governors-hill-branch", "@spider": "usavingsbank", "addr:street_address": "8805 Governors Hill Dr", "addr:city": "Cincinnati", "addr:state": "OH", "addr:postcode": "45249", "addr:country": "US", "name": "Governor's Hill (Branch)", "phone": "513-774-4700", "website": "https://usavingsbank.com/find-a-branch-atm/locations/governors-hill-branch/", "opening_hours": "Mo 09:00-18:00; Tu-Th 09:00-17:00; Fr 09:00-18:00; Sa 09:00-13:00", "brand": "Union Savings Bank", "brand:wikidata": "Q69206498"}, "geometry": {"type": "Point", "coordinates": [-84.3180399, 39.2880689]}},
{"type": "Feature", "id": "TALWpbQRosePHtvlT9WGoNWfrhM=", "properties": {"ref": "kemper", "@spider": "usavingsbank", "addr:street_address": "8534 E Kemper Road", "addr:city": "Cincinnati", "addr:state": "OH", "addr:postcode": "45249", "addr:country": "US", "name": "Kemper", "phone": "(513) 247-0300", "website": "https://usavingsbank.com/find-a-branch-atm/locations/kemper/", "opening_hours": "Mo-Th 09:00-17:00; Fr 09:00-18:00; Sa 09:00-13:00", "brand": "Union Savings Bank", "brand:wikidata": "Q69206498"}, "geometry": {"type": "Point", "coordinates": [-84.32800274881552, 39.273828301849505]}},
{"type": "Feature", "id": "EKpz0PwPU0qG1fvHMS84ge-HLAs=", "properties": {"ref": "governors-hill-corporate", "@spider": "usavingsbank", "addr:street_address": "8805 Governors Hill Drive", "addr:city": "Cincinnati", "addr:state": "OH", "addr:postcode": "45249", "addr:country": "US", "name": "Governor's Hill (Corporate)", "phone": "513-247-0300", "website": "https://usavingsbank.com/find-a-branch-atm/locations/governors-hill-corporate/", "opening_hours": "Mo-Fr 08:00-17:00", "brand": "Union Savings Bank", "brand:wikidata": "Q69206498"}, "geometry": {"type": "Point", "coordinates": [-84.31797161609828, 39.28884700040139]}},
{"type": "Feature", "id": "B4UqX8zRvDQADl4g7lXrs1F0bQ4=", "properties": {"ref": "centerville", "@spider": "usavingsbank", "addr:street_address": "5651 Farhills Ave", "addr:city": "Centerville", "addr:state": "OH", "addr:postcode": "45429", "addr:country": "US", "name": "Centerville", "phone": "(937) 434-1254", "website": "https://usavingsbank.com/find-a-branch-atm/locations/centerville/", "opening_hours": "Mo-Th 09:00-17:00; Fr 09:00-18:00; Sa 09:00-13:00", "brand": "Union Savings Bank", "brand:wikidata": "Q69206498"}, "geometry": {"type": "Point", "coordinates": [-84.1614454, 39.6647137]}},
{"type": "Feature", "id": "0htr2_9fleAeU9QiF-3t6f0Loj4=", "properties": {"ref": "western-hills", "@spider": "usavingsbank", "addr:street_address": "6393 Glenway Ave", "addr:city": "Cincinnati", "addr:state": "OH", "addr:postcode": "45211", "addr:country": "US", "name": "Western Hills", "phone": "(513) 598-8400", "website": "https://usavingsbank.com/find-a-branch-atm/locations/western-hills/", "opening_hours": "Mo-Th 09:00-17:00; Fr 09:00-18:00; Sa 09:00-13:00", "brand": "Union Savings Bank", "brand:wikidata": "Q69206498"}, "geometry": {"type": "Point", "coordinates": [-84.6280282, 39.1490173]}},
{"type": "Feature", "id": "Dbq_yaW6IY1zSZ1InRDHZT1YRI4=", "properties": {"ref": "hamilton", "@spider": "usavingsbank", "addr:street_address": "1225 Main St", "addr:city": "Hamilton", "addr:state": "OH", "addr:postcode": "45013", "addr:country": "US", "name": "Hamilton", "phone": "(513) 863-2300", "website": "https://usavingsbank.com/find-a-branch-atm/locations/hamilton/", "opening_hours": "Mo-Th 09:00-17:00; Fr 09:00-18:00; Sa 09:00-13:00", "brand": "Union Savings Bank", "brand:wikidata": "Q69206498"}, "geometry": {"type": "Point", "coordinates": [-84.5868012, 39.4171541]}},
{"type": "Feature", "id": "rUcYF_8nAvrgqHa1Zr6xi-zLwvQ=", "properties": {"ref": "beechmont", "@spider": "usavingsbank", "addr:street_address": "2137 Beechmont Ave", "addr:city": "Cincinnati", "addr:state": "OH", "addr:postcode": "45230", "addr:country": "US", "name": "Beechmont", "phone": "(513) 232-9000", "website": "https://usavingsbank.com/find-a-branch-atm/locations/beechmont/", "opening_hours": "Mo-Th 09:00-17:00; Fr 09:00-18:00; Sa 09:00-13:00", "brand": "Union Savings Bank", "brand:wikidata": "Q69206498"}, "geometry": {"type": "Point", "coordinates": [-84.3872632, 39.0938332]}},
{"type": "Feature", "id": "2hHN8lBiyA5YK1CAV37gQyAer6E=", "properties": {"ref": "loveland", "@spider": "usavingsbank", "addr:street_address": "510 W Loveland Ave", "addr:city": "Loveland", "addr:state": "OH", "addr:postcode": "45140", "addr:country": "US", "name": "Loveland", "phone": "(513) 683-1531", "website": "https://usavingsbank.com/find-a-branch-atm/locations/loveland/", "opening_hours": "Mo-Th 09:00-17:00; Fr 09:00-18:00; Sa 09:00-13:00", "brand": "Union Savings Bank", "brand:wikidata": "Q69206498"}, "geometry": {"type": "Point", "coordinates": [-84.2642677, 39.2692727]}},
{"type": "Feature", "id": "V6423El3ZJ1PLH0e-E9-8OXrbeo=", "properties": {"ref": "north-college-hill", "@spider": "usavingsbank", "addr:street_address": "6701 Hamilton Ave", "addr:city": "Cincinnati", "addr:state": "OH", "addr:postcode": "45224", "addr:country": "US", "name": "North College Hill", "phone": "(513) 931-8400", "website": "https://usavingsbank.com/find-a-branch-atm/locations/north-college-hill/", "opening_hours": "Mo-Th 09:00-17:00; Fr 09:00-18:00; Sa 09:00-13:00", "brand": "Union Savings Bank", "brand:wikidata": "Q69206498"}, "geometry": {"type": "Point", "coordinates": [-84.5492983, 39.2144576]}},
{"type": "Feature", "id": "JNfrv7kSMvb9BCqQszxa1bz7qtA=", "properties": {"ref": "deer-park", "@spider": "usavingsbank", "addr:street_address": "8320 Plainfield Rd", "addr:city": "Cincinnati", "addr:state": "OH", "addr:postcode": "45236", "addr:country": "US", "name": "Deer Park", "phone": "(513) 791-3400", "website": "https://usavingsbank.com/find-a-branch-atm/locations/deer-park/", "opening_hours": "Mo-Th 09:00-17:00; Fr 09:00-18:00; Sa 09:00-13:00", "brand": "Union Savings Bank", "brand:wikidata": "Q69206498"}, "geometry": {"type": "Point", "coordinates": [-84.3987159, 39.2092817]}},
{"type": "Feature", "id": "xNe3T_NM8Z5DQ1sK8KW1EfRag1c=", "properties": {"ref": "fairfield", "@spider": "usavingsbank", "addr:street_address": "721 Wessel Dr", "addr:city": "Fairfield", "addr:state": "OH", "addr:postcode": "45014", "addr:country": "US", "name": "Fairfield", "phone": "(513) 829-9111", "website": "https://usavingsbank.com/find-a-branch-atm/locations/fairfield/", "opening_hours": "Mo-Th 09:00-17:00; Fr 09:00-18:00; Sa 09:00-13:00", "brand": "Union Savings Bank", "brand:wikidata": "Q69206498"}, "geometry": {"type": "Point", "coordinates": [-84.5558671, 39.335344]}},
{"type": "Feature", "id": "78asjj4MkAt8Ml3iLQcVyFRjOh4=", "properties": {"ref": "hyde-park", "@spider": "usavingsbank", "addr:street_address": "2691 Madison Rd", "addr:city": "Cincinnati", "addr:state": "OH", "addr:postcode": "45208", "addr:country": "US", "name": "Hyde Park", "phone": "(513) 842-9000", "website": "https://usavingsbank.com/find-a-branch-atm/locations/hyde-park/", "opening_hours": "Mo-Th 09:00-17:00; Fr 09:00-18:00; Sa 09:00-13:00", "brand": "Union Savings Bank", "brand:wikidata": "Q69206498"}, "geometry": {"type": "Point", "coordinates": [-84.4430096, 39.1451306]}},
{"type": "Feature", "id": "gtlGWQQEZ3nJIdYN6nKs5X_3SSM=", "properties": {"ref": "eastgate", "@spider": "usavingsbank", "addr:street_address": "843 Eastgate S Dr", "addr:city": "Cincinnati", "addr:state": "OH", "addr:postcode": "45245", "addr:country": "US", "name": "Eastgate", "phone": "(513) 201-2100", "website": "https://usavingsbank.com/find-a-branch-atm/locations/eastgate/", "opening_hours": "Mo-Th 09:00-17:00; Fr 09:00-18:00; Sa 09:00-13:00", "brand": "Union Savings Bank", "brand:wikidata": "Q69206498"}, "geometry": {"type": "Point", "coordinates": [-84.2649941, 39.0938167]}},
{"type": "Feature", "id": "4_FfHunDgU6MDbURz_5gVN6LOos=", "properties": {"ref": "west-chester", "@spider": "usavingsbank", "addr:street_address": "7615 Voice of America Centre Dr", "addr:city": "West Chester", "addr:state": "OH", "addr:postcode": "45069", "addr:country": "US", "name": "West Chester", "phone": "(513) 759-1200", "website": "https://usavingsbank.com/find-a-branch-atm/locations/west-chester/", "opening_hours": "Mo-Th 09:00-17:00; Fr 09:00-18:00; Sa 09:00-13:00", "brand": "Union Savings Bank", "brand:wikidata": "Q69206498"}, "geometry": {"type": "Point", "coordinates": [-84.3632886, 39.3570385]}},
{"type": "Feature", "id": "ntF4SmZQqQIs15BTMKJnlAUyMyI=", "properties": {"ref": "kenwood", "@spider": "usavingsbank", "addr:street_address": "7435 Kenwood Rd.", "addr:city": "Cincinnati", "addr:state": "OH", "addr:postcode": "45236", "addr:country": "US", "name": "Kenwood", "phone": "(513) 745-2724", "website": "https://usavingsbank.com/find-a-branch-atm/locations/kenwood/", "opening_hours": "Mo-Fr 09:00-17:00; Sa 09:00-13:00", "brand": "Union Savings Bank", "brand:wikidata": "Q69206498"}, "geometry": {"type": "Point", "coordinates": [-84.3808062, 39.1979946]}},
{"type": "Feature", "id": "119Q_PbuZou7wqVaQJYJUxdWmIU=", "properties": {"ref": "bloomington", "@spider": "usavingsbank", "addr:street_address": "2237 S Curry Pk", "addr:city": "Bloomington", "addr:state": "IN", "addr:postcode": "47403", "addr:country": "US", "name": "Bloomington", "phone": "(812) 323-7200", "website": "https://usavingsbank.com/find-a-branch-atm/locations/bloomington/", "opening_hours": "Mo-Fr 09:00-17:00; Sa 09:00-13:00", "brand": "Union Savings Bank", "brand:wikidata": "Q69206498"}, "geometry": {"type": "Point", "coordinates": [-86.5822802, 39.1447079]}},
{"type": "Feature", "id": "Nfn7VvcaAj6Yf-HmRZyP63o7-pQ=", "properties": {"ref": "columbus-in", "@spider": "usavingsbank", "addr:street_address": "2655 Central Ave", "addr:city": "Columbus", "addr:state": "IN", "addr:postcode": "47201", "addr:country": "US", "name": "Columbus, IN", "phone": "(812) 378-9906", "website": "https://usavingsbank.com/find-a-branch-atm/locations/columbus-in/", "opening_hours": "Mo-Th 09:00-17:00; Fr 09:00-18:00; Sa 09:00-13:00", "brand": "Union Savings Bank", "brand:wikidata": "Q69206498"}, "geometry": {"type": "Point", "coordinates": [-85.9037378, 39.2259867]}},
{"type": "Feature", "id": "OvsU8ffOrFRazb53yzJjWN9J32g=", "properties": {"ref": "fort-wayne", "@spider": "usavingsbank", "addr:street_address": "1491 W Dupont Rd", "addr:city": "Fort Wayne", "addr:state": "IN", "addr:postcode": "46825", "addr:country": "US", "name": "Fort Wayne", "phone": "(260) 451-2080", "website": "https://usavingsbank.com/find-a-branch-atm/locations/fort-wayne/", "opening_hours": "Mo-Th 09:00-17:00; Fr 09:00-18:00; Sa 09:00-13:00", "brand": "Union Savings Bank", "brand:wikidata": "Q69206498"}, "geometry": {"type": "Point", "coordinates": [-85.162433, 41.177237]}},
{"type": "Feature", "id": "D2VI1xy36FaJF_sRWbqvDbmKofQ=", "properties": {"ref": "greenwood", "@spider": "usavingsbank", "addr:street_address": "91 Byrd Way", "addr:city": "Greenwood", "addr:state": "IN", "addr:postcode": "46143", "addr:country": "US", "name": "Greenwood", "phone": "(317) 865-1166", "website": "https://usavingsbank.com/find-a-branch-atm/locations/greenwood/", "opening_hours": "Mo-Th 09:00-17:00; Fr 09:00-18:00; Sa 09:00-13:00", "brand": "Union Savings Bank", "brand:wikidata": "Q69206498"}, "geometry": {"type": "Point", "coordinates": [-86.0772809, 39.6133271]}},
{"type": "Feature", "id": "SVq26EvTNqcBpVqXRsNVyt8bXI4=", "properties": {"ref": "gibsonia", "@spider": "usavingsbank", "addr:street_address": "5556 William Flynn Hwy", "addr:city": "Gibsonia", "addr:state": "PA", "addr:postcode": "15044", "addr:country": "US", "name": "Gibsonia", "phone": "(724) 443-3700", "website": "https://usavingsbank.com/find-a-branch-atm/locations/gibsonia/", "opening_hours": "Mo 09:00-18:00; Tu-Th 09:00-17:00; Fr 09:00-18:00; Sa 09:00-13:00", "brand": "Union Savings Bank", "brand:wikidata": "Q69206498"}, "geometry": {"type": "Point", "coordinates": [-79.9398404, 40.6329288]}},
{"type": "Feature", "id": "FfuApjoAQuRSZ0FlgdAZ_m8qus4=", "properties": {"ref": "upper-st-clair", "@spider": "usavingsbank", "addr:street_address": "1614 Washington Rd", "addr:city": "Pittsburgh", "addr:state": "PA", "addr:postcode": "15241", "addr:country": "US", "name": "Upper St Clair", "phone": "(412) 835-4600", "website": "https://usavingsbank.com/find-a-branch-atm/locations/upper-st-clair/", "opening_hours": "Mo 09:00-18:00; Tu-Th 09:00-17:00; Fr 09:00-18:00; Sa 09:00-13:00", "brand": "Union Savings Bank", "brand:wikidata": "Q69206498"}, "geometry": {"type": "Point", "coordinates": [-80.0510244, 40.3525541]}}]}