{"type":"FeatureCollection","features":[{"type": "Feature", "id": "j1PdWNTgcURRymbHypUFcflutuQ=", "properties": {"ref": "baldwin-park-15", "@spider": "vallarta", "cuisine": "latin_american", "official_name": "Vallarta Supermarkets", "shop": "supermarket", "addr:full": "13940 Ramona Blvd", "addr:city": "Baldwin Park", "addr:state": "CA", "addr:postcode": "91706", "addr:country": "US", "name": "Baldwin Park #15", "phone": "(626) 480-8960", "website": "https://vallartasupermarkets.com/store-locations/baldwin-park-15/", "opening_hours": "Mo-Su 07:00-22:00", "brand": "Vallarta Supermarkets", "brand:wikidata": "Q7911833", "nsi_id": "vallarta-dde59d"}},
{"type": "Feature", "id": "4WpvOv4bMkhsNjWA4rUJyhHTzvE=", "properties": {"ref": "lancaster-14", "@spider": "vallarta", "cuisine": "latin_american", "official_name": "Vallarta Supermarkets", "shop": "supermarket", "addr:full": "1801 West Ave. I", "addr:city": "Lancaster", "addr:state": "CA", "addr:postcode": "93534", "addr:country": "US", "name": "Lancaster #14", "phone": "(661) 951-0233", "website": "https://vallartasupermarkets.com/store-locations/lancaster-14/", "opening_hours": "Mo-Su 07:00-22:00", "brand": "Vallarta Supermarkets", "brand:wikidata": "Q7911833", "nsi_id": "vallarta-dde59d"}},
{"type": "Feature", "id": "NQe6euBD_l2A1H8E07_KwAI82sg=", "properties": {"ref": "canoga-park-12", "@spider": "vallarta", "cuisine": "latin_american", "official_name": "Vallarta Supermarkets", "shop": "supermarket", "addr:full": "8201 Topanga Canyon Blvd", "addr:city": "Canoga Park", "addr:state": "CA", "addr:postcode": "91304", "addr:country": "US", "name": "Canoga Park #12", "phone": "(818) 444-5060", "website": "https://vallartasupermarkets.com/store-locations/canoga-park-12/", "opening_hours": "Mo-Su 07:00-22:00", "brand": "Vallarta Supermarkets", "brand:wikidata": "Q7911833", "nsi_id": "vallarta-dde59d"}},
{"type": "Feature", "id": "Hsne2-VRpyPIOrRwlR_DFbj7STY=", "properties": {"ref": "canoga-park-11", "@spider": "vallarta", "cuisine": "latin_american", "official_name": "Vallarta Supermarkets", "shop": "supermarket", "addr:full": "21208 Sherman Way", "addr:city": "Canoga Park", "addr:state": "CA", "addr:postcode": "91303", "addr:country": "US", "name": "Canoga Park #11", "phone": "(818) 346-1665", "website": "https://vallartasupermarkets.com/store-locations/canoga-park-11/", "opening_hours": "Mo-Su 07:00-23:00", "brand": "Vallarta Supermarkets", "brand:wikidata": "Q7911833", "nsi_id": "vallarta-dde59d"}},
{"type": "Feature", "id": "kx9uiX71NQ6B6TMnvNSL3ns1RK0=", "properties": {"ref": "fresno-10", "@spider": "vallarta", "cuisine": "latin_american", "official_name": "Vallarta Supermarkets", "shop": "supermarket", "addr:full": "4831 E Butler Ave.", "addr:city": "Fresno", "addr:state": "CA", "addr:postcode": "93727", "addr:country": "US", "name": "Fresno #10", "phone": "(559) 455-0179", "website": "https://vallartasupermarkets.com/store-locations/fresno-10/", "opening_hours": "Mo-Su 07:00-22:00", "brand": "Vallarta Supermarkets", "brand:wikidata": "Q7911833", "nsi_id": "vallarta-dde59d"}},
{"type": "Feature", "id": "qRo-WFLIATAkrSlzYuIpX7bzMM8=", "properties": {"ref": "north-hollywood-9", "@spider": "vallarta", "cuisine": "latin_american", "official_name": "Vallarta Supermarkets", "shop": "supermarket", "addr:full": "10859 Oxnard St.", "addr:city": "North Hollywood", "addr:state": "CA", "addr:postcode": "91606", "addr:country": "US", "name": "North Hollywood #9", "phone": "(818) 509-2932", "website": "https://vallartasupermarkets.com/store-locations/north-hollywood-9/", "opening_hours": "Mo-Su 07:00-21:00", "brand": "Vallarta Supermarkets", "brand:wikidata": "Q7911833", "nsi_id": "vallarta-dde59d"}},
{"type": "Feature", "id": "ObfIj8YWR3IyjFckpfzCvxvzouo=", "properties": {"ref": "palmdale-4", "@spider": "vallarta", "cuisine": "latin_american", "official_name": "Vallarta Supermarkets", "shop": "supermarket", "addr:full": "440 E. Palmdale Blvd.", "addr:city": "Palmdale", "addr:state": "CA", "addr:postcode": "93550", "addr:country": "US", "name": "Palmdale #4", "phone": "(661) 266-1398", "website": "https://vallartasupermarkets.com/store-locations/palmdale-4/", "opening_hours": "Mo-Su 07:00-22:00", "brand": "Vallarta Supermarkets", "brand:wikidata": "Q7911833", "nsi_id": "vallarta-dde59d"}},
{"type": "Feature", "id": "Q7oqy8Peg3HXe0H2u56It8d3iis=", "properties": {"ref": "van-nuys-2", "@spider": "vallarta", "cuisine": "latin_american", "official_name": "Vallarta Supermarkets", "shop": "supermarket", "addr:full": "13715 Vanowen St", "addr:city": "Van Nuys", "addr:state": "CA", "addr:postcode": "91405", "addr:country": "US", "name": "Van Nuys #2", "phone": "(818) 786-4703", "website": "https://vallartasupermarkets.com/store-locations/van-nuys-2/", "opening_hours": "Mo-Su 07:00-22:00", "brand": "Vallarta Supermarkets", "brand:wikidata": "Q7911833", "nsi_id": "vallarta-dde59d"}},
{"type": "Feature", "id": "67iAekx7z9byrzeQnZLsDdtR2Xs=", "properties": {"ref": "panorama-city-3", "@spider": "vallarta", "cuisine": "latin_american", "official_name": "Vallarta Supermarkets", "shop": "supermarket", "addr:full": "9134 Van Nuys Blvd", "addr:city": "Panorama City", "addr:state": "CA", "addr:postcode": "91402", "addr:country": "US", "name": "Panorama City #3", "phone": "(818) 894-4949", "website": "https://vallartasupermarkets.com/store-locations/panorama-city-3/", "opening_hours": "Mo-Su 07:00-22:00", "brand": "Vallarta Supermarkets", "brand:wikidata": "Q7911833", "nsi_id": "vallarta-dde59d"}},
{"type": "Feature", "id": "jIzQTseH1s25_cUEQyDasc67h3Y=", "properties": {"ref": "sylmar-7", "@spider": "vallarta", "cuisine": "latin_american", "official_name": "Vallarta Supermarkets", "shop": "supermarket", "addr:full": "13820 Foothill Blvd.", "addr:city": "Sylmar", "addr:state": "CA", "addr:postcode": "91342", "addr:country": "US", "name": "Sylmar #7", "phone": "(818) 362-7577", "website": "https://vallartasupermarkets.com/store-locations/sylmar-7/", "opening_hours": "Mo-Su 07:00-22:00", "brand": "Vallarta Supermarkets", "brand:wikidata": "Q7911833", "nsi_id": "vallarta-dde59d"}},
{"type": "Feature", "id": "MhBvKjcJbymubdOHMVuhMKdlLfk=", "properties": {"ref": "fresno-29", "@spider": "vallarta", "cuisine": "latin_american", "official_name": "Vallarta Supermarkets", "shop": "supermarket", "addr:full": "3850 N Cedar Ave", "addr:city": "Fresno", "addr:state": "CA", "addr:postcode": "93726", "addr:country": "US", "name": "Fresno #29", "phone": "(559) 476-3070", "website": "https://vallartasupermarkets.com/store-locations/fresno-29/", "opening_hours": "Mo-Su 07:00-22:00", "brand": "Vallarta Supermarkets", "brand:wikidata": "Q7911833", "nsi_id": "vallarta-dde59d"}},
{"type": "Feature", "id": "Pows9iwfRxITX5_2LjD65GYFUIE=", "properties": {"ref": "bakersfield-28", "@spider": "vallarta", "cuisine": "latin_american", "official_name": "Vallarta Supermarkets", "shop": "supermarket", "addr:full": "1515 Panama Lane", "addr:city": "Bakersfield", "addr:state": "CA", "addr:postcode": "93307", "addr:country": "US", "name": "Bakersfield #28", "phone": "(661) 241-6430", "website": "https://vallartasupermarkets.com/store-locations/bakersfield-28/", "opening_hours": "Mo-Su 07:00-22:00", "brand": "Vallarta Supermarkets", "brand:wikidata": "Q7911833", "nsi_id": "vallarta-dde59d"}},
{"type": "Feature", "id": "BJWfOABCted6JAXfrGAvTHifjtE=", "properties": {"ref": "lancaster-27", "@spider": "vallarta", "cuisine": "latin_american", "official_name": "Vallarta Supermarkets", "shop": "supermarket", "addr:full": "815 E. Ave K", "addr:city": "Lancaster", "addr:state": "CA", "addr:postcode": "93535", "addr:country": "US", "name": "Lancaster #27", "phone": "(661) 974-7002", "website": "https://vallartasupermarkets.com/store-locations/lancaster-27/", "opening_hours": "Mo-Su 07:00-22:00", "brand": "Vallarta Supermarkets", "brand:wikidata": "Q7911833", "nsi_id": "vallarta-dde59d"}},
{"type": "Feature", "id": "DWEc03oSs9asb9ykXpYrMUAZnNM=", "properties": {"ref": "arleta-26", "@spider": "vallarta", "cuisine": "latin_american", "official_name": "Vallarta Supermarkets", "shop": "supermarket", "addr:full": "9011 Woodman Ave.", "addr:city": "Arleta", "addr:state": "CA", "addr:postcode": "91331", "addr:country": "US", "name": "Arleta #26", "phone": "(818) 920-2700", "website": "https://vallartasupermarkets.com/store-locations/arleta-26/", "opening_hours": "Mo-Su 07:00-23:00", "brand": "Vallarta Supermarkets", "brand:wikidata": "Q7911833", "nsi_id": "vallarta-dde59d"}},
{"type": "Feature", "id": "ZSdZl2VgtovdM6FKRhx9_s7uB0s=", "properties": {"ref": "north-hills-8", "@spider": "vallarta", "cuisine": "latin_american", "official_name": "Vallarta Supermarkets", "shop": "supermarket", "addr:full": "9136 Sepulveda Blvd.", "addr:city": "North Hills", "addr:state": "CA", "addr:postcode": "91343", "addr:country": "US", "name": "North Hills #8", "phone": "(818) 892-0923", "website": "https://vallartasupermarkets.com/store-locations/north-hills-8/", "opening_hours": "Mo-Su 07:00-23:00", "brand": "Vallarta Supermarkets", "brand:wikidata": "Q7911833", "nsi_id": "vallarta-dde59d"}},
{"type": "Feature", "id": "InB6wtMZ4lSXKy-liC3UNQnbLxk=", "properties": {"ref": "valley-glen-1", "@spider": "vallarta", "cuisine": "latin_american", "official_name": "Vallarta Supermarkets", "shop": "supermarket", "addr:full": "13051 Victory Blvd.", "addr:city": "Valley Glen", "addr:state": "CA", "addr:postcode": "91606", "addr:country": "US", "name": "Valley Glen #1", "phone": "(818) 760-7021", "website": "https://vallartasupermarkets.com/store-locations/valley-glen-1/", "opening_hours": "Mo-Su 07:00-22:00", "brand": "Vallarta Supermarkets", "brand:wikidata": "Q7911833", "nsi_id": "vallarta-dde59d"}},
{"type": "Feature", "id": "7A1wHiAeAZpC8Zt9MR52gm7Gq4g=", "properties": {"ref": "indio-54", "@spider": "vallarta", "cuisine": "latin_american", "official_name": "Vallarta Supermarkets", "shop": "supermarket", "addr:full": "42425 Jackson St", "addr:city": "Indio", "addr:state": "CA", "addr:postcode": "92203", "addr:country": "US", "name": "Indio #54", "phone": "(442) 324-0006", "website": "https://vallartasupermarkets.com/store-locations/indio-54/", "opening_hours": "Mo-Su 07:00-22:00", "brand": "Vallarta Supermarkets", "brand:wikidata": "Q7911833", "nsi_id": "vallarta-dde59d"}},
{"type": "Feature", "id": "Qjr6V_3x1Sss9KE788sspYRD95k=", "properties": {"ref": "bakersfield-53-rosedale-hwy", "@spider": "vallarta", "cuisine": "latin_american", "official_name": "Vallarta Supermarkets", "shop": "supermarket", "addr:full": "8200 Rosedale Hwy", "addr:city": "Bakersfield", "addr:state": "CA", "addr:postcode": "93312", "addr:country": "US", "name": "Bakersfield #53", "phone": "(661) 410-5007", "website": "https://vallartasupermarkets.com/store-locations/bakersfield-53-rosedale-hwy/", "opening_hours": "Mo-Su 07:00-22:00", "brand": "Vallarta Supermarkets", "brand:wikidata": "Q7911833", "nsi_id": "vallarta-dde59d"}},
{"type": "Feature", "id": "QSjNwRn3iQ8E7THN_GU8jnb_6vM=", "properties": {"ref": "van-nuys-6", "@spider": "vallarta", "cuisine": "latin_american", "official_name": "Vallarta Supermarkets", "shop": "supermarket", "addr:full": "16040 Sherman Way", "addr:city": "Van Nuys", "addr:state": "CA", "addr:postcode": "91406", "addr:country": "US", "name": "Van Nuys #6", "phone": "(818) 290-5131", "website": "https://vallartasupermarkets.com/store-locations/van-nuys-6/", "opening_hours": "Mo-Su 07:00-22:00", "brand": "Vallarta Supermarkets", "brand:wikidata": "Q7911833", "nsi_id": "vallarta-dde59d"}},
{"type": "Feature", "id": "bBMWawK5YWdtPh2IuXCaw16t5Cc=", "properties": {"ref": "madera-52", "@spider": "vallarta", "cuisine": "latin_american", "official_name": "Vallarta Supermarkets", "shop": "supermarket", "addr:full": "1467 Country Club Dr.", "addr:city": "Madera", "addr:state": "CA", "addr:postcode": "93638", "addr:country": "US", "name": "Madera #52", "phone": "(559) 664-5711", "website": "https://vallartasupermarkets.com/store-locations/madera-52/", "opening_hours": "Mo-Su 07:00-22:00", "brand": "Vallarta Supermarkets", "brand:wikidata": "Q7911833", "nsi_id": "vallarta-dde59d"}},
{"type": "Feature", "id": "DcmsRx4Ty1bZZVsU4eeAEHt5pa0=", "properties": {"ref": "east-los-angeles-25", "@spider": "vallarta", "cuisine": "latin_american", "official_name": "Vallarta Supermarkets", "shop": "supermarket", "addr:full": "3425 Whittier Blvd.", "addr:city": "Los Angeles", "addr:state": "CA", "addr:postcode": "90023", "addr:country": "US", "name": "Los Angeles #25", "phone": "(323) 980-4400", "website": "https://vallartasupermarkets.com/store-locations/east-los-angeles-25/", "opening_hours": "Mo-Su 07:00-22:00", "brand": "Vallarta Supermarkets", "brand:wikidata": "Q7911833", "nsi_id": "vallarta-dde59d"}},
{"type": "Feature", "id": "ZxHmU4fk8XAj9gsbA7IlYgqYnSU=", "properties": {"ref": "winnetka-24", "@spider": "vallarta", "cuisine": "latin_american", "official_name": "Vallarta Supermarkets", "shop": "supermarket", "addr:full": "19725 Vanowen St.", "addr:city": "Winnetka", "addr:state": "CA", "addr:postcode": "91306", "addr:country": "US", "name": "Winnetka #24", "phone": "(818) 716-5704", "website": "https://vallartasupermarkets.com/store-locations/winnetka-24/", "opening_hours": "Mo-Su 07:00-23:00", "brand": "Vallarta Supermarkets", "brand:wikidata": "Q7911833", "nsi_id": "vallarta-dde59d"}},
{"type": "Feature", "id": "zy5sWlEUIX812OEEKSaLohgi-Ic=", "properties": {"ref": "pasadena-51", "@spider": "vallarta", "cuisine": "latin_american", "official_name": "Vallarta Supermarkets", "shop": "supermarket", "addr:full": "655 N Fair Oaks Ave", "addr:city": "Pasadena", "addr:state": "CA", "addr:postcode": "91103", "addr:country": "US", "name": "Pasadena #51", "phone": "(626) 204-6960", "website": "https://vallartasupermarkets.com/store-locations/pasadena-51/", "opening_hours": "Mo-Su 07:00-22:00", "brand": "Vallarta Supermarkets", "brand:wikidata": "Q7911833", "nsi_id": "vallarta-dde59d"}},
{"type": "Feature", "id": "2ZUHEVq0FfoHrUq9Znwhtw8yldQ=", "properties": {"ref": "whittier-50", "@spider": "vallarta", "cuisine": "latin_american", "official_name": "Vallarta Supermarkets", "shop": "supermarket", "addr:full": "8510 Painter Ave Suite \"L\"", "addr:city": "Whittier", "addr:state": "CA", "addr:postcode": "90602", "addr:country": "US", "name": "Whittier #50", "phone": "(562) 758-6464", "website": "https://vallartasupermarkets.com/store-locations/whittier-50/", "opening_hours": "Mo-Su 07:00-22:00", "brand": "Vallarta Supermarkets", "brand:wikidata": "Q7911833", "nsi_id": "vallarta-dde59d"}},
{"type": "Feature", "id": "Ysg189FCn_b3Fh2s4cFj78nHIgM=", "properties": {"ref": "northridge-5", "@spider": "vallarta", "cuisine": "latin_american", "official_name": "Vallarta Supermarkets", "shop": "supermarket", "addr:full": "8453 Reseda Blvd.", "addr:city": "Northridge", "addr:state": "CA", "addr:postcode": "91324", "addr:country": "US", "name": "Northridge #5", "phone": "(818) 576-1280", "website": "https://vallartasupermarkets.com/store-locations/northridge-5/", "opening_hours": "Mo-Su 07:00-23:00", "brand": "Vallarta Supermarkets", "brand:wikidata": "Q7911833", "nsi_id": "vallarta-dde59d"}},
{"type": "Feature", "id": "HxHDGV3Xm5BkgWVdNv6sJJRDHN4=", "properties": {"ref": "downey-48", "@spider": "vallarta", "cuisine": "latin_american", "official_name": "Vallarta Supermarkets", "shop": "supermarket", "addr:full": "7900 Imperial Hwy", "addr:city": "Downey", "addr:state": "CA", "addr:postcode": "90242", "addr:country": "US", "name": "Downey #48", "phone": "(562) 231-5656", "website": "https://vallartasupermarkets.com/store-locations/downey-48/", "opening_hours": "Mo-Su 07:00-22:00", "brand": "Vallarta Supermarkets", "brand:wikidata": "Q7911833", "nsi_id": "vallarta-dde59d"}},
{"type": "Feature", "id": "fcK3o6g4uh-O8v2Pdu10Dm-GWX4=", "properties": {"ref": "pacoima-18", "@spider": "vallarta", "cuisine": "latin_american", "official_name": "Vallarta Supermarkets", "shop": "supermarket", "addr:full": "10175 N. San Fernando Rd.", "addr:city": "Pacoima", "addr:state": "CA", "addr:postcode": "91331", "addr:country": "US", "name": "Pacoima #18", "phone": "(818) 897-9700", "website": "https://vallartasupermarkets.com/store-locations/pacoima-18/", "opening_hours": "Mo-Su 07:00-22:00", "brand": "Vallarta Supermarkets", "brand:wikidata": "Q7911833", "nsi_id": "vallarta-dde59d"}},
{"type": "Feature", "id": "JzP7_H992CEDHDUs30M1vJHdukc=", "properties": {"ref": "santa-maria-46", "@spider": "vallarta", "cuisine": "latin_american", "official_name": "Vallarta Supermarkets", "shop": "supermarket", "addr:full": "1482 South Broadway", "addr:city": "Santa Maria", "addr:state": "CA", "addr:postcode": "93454", "addr:country": "US", "name": "Santa Maria #46", "phone": "(805) 925-2905", "website": "https://vallartasupermarkets.com/store-locations/santa-maria-46/", "opening_hours": "Mo-Su 07:00-22:00", "brand": "Vallarta Supermarkets", "brand:wikidata": "Q7911833", "nsi_id": "vallarta-dde59d"}},
{"type": "Feature", "id": "IqW__8wr6-exmPc-8C_UpL03P-4=", "properties": {"ref": "hesperia-45", "@spider": "vallarta", "cuisine": "latin_american", "official_name": "Vallarta Supermarkets", "shop": "supermarket", "addr:full": "17390 Main Street", "addr:city": "Hesperia", "addr:state": "CA", "addr:postcode": "92345", "addr:country": "US", "name": "Hesperia #45", "phone": "(442) 600-3020", "website": "https://vallartasupermarkets.com/store-locations/hesperia-45/", "opening_hours": "Mo-Su 07:00-22:00", "brand": "Vallarta Supermarkets", "brand:wikidata": "Q7911833", "nsi_id": "vallarta-dde59d"}},
{"type": "Feature", "id": "TWHruPC993dz5oEvPXutr3xy1v4=", "properties": {"ref": "oxnard-44", "@spider": "vallarta", "cuisine": "latin_american", "official_name": "Vallarta Supermarkets", "shop": "supermarket", "addr:full": "2690 North Vineyard Avenue", "addr:city": "Oxnard", "addr:state": "CA", "addr:postcode": "93036", "addr:country": "US", "name": "Oxnard #44", "phone": "(805) 983-3403", "website": "https://vallartasupermarkets.com/store-locations/oxnard-44/", "opening_hours": "Mo-Su 07:00-22:00", "brand": "Vallarta Supermarkets", "brand:wikidata": "Q7911833", "nsi_id": "vallarta-dde59d"}},
{"type": "Feature", "id": "6HdYQ29w11V3Y13F6njpDFkR8k0=", "properties": {"ref": "arvin-39", "@spider": "vallarta", "cuisine": "latin_american", "official_name": "Vallarta Supermarkets", "shop": "supermarket", "addr:full": "600 Bear Mountain Blvd", "addr:city": "Arvin", "addr:state": "CA", "addr:postcode": "93203", "addr:country": "US", "name": "Arvin #39", "phone": "(661) 854-3505", "website": "https://vallartasupermarkets.com/store-locations/arvin-39/", "opening_hours": "Mo-Su 07:00-22:00", "brand": "Vallarta Supermarkets", "brand:wikidata": "Q7911833", "nsi_id": "vallarta-dde59d"}},
{"type": "Feature", "id": "l8gWKvKYFf4JStfCcOUkVcmRbxw=", "properties": {"ref": "palmdale-38", "@spider": "vallarta", "cuisine": "latin_american", "official_name": "Vallarta Supermarkets", "shop": "supermarket", "addr:full": "38118 47th St East", "addr:city": "Palmdale", "addr:state": "CA", "addr:postcode": "93552", "addr:country": "US", "name": "Palmdale #38", "phone": "(661) 208-4276", "website": "https://vallartasupermarkets.com/store-locations/palmdale-38/", "opening_hours": "Mo-Su 07:00-22:00", "brand": "Vallarta Supermarkets", "brand:wikidata": "Q7911833", "nsi_id": "vallarta-dde59d"}},
{"type": "Feature", "id": "8MS-w8fDBqHTGE9SgOFmjfbEEtQ=", "properties": {"ref": "anaheim-37", "@spider": "vallarta", "cuisine": "latin_american", "official_name": "Vallarta Supermarkets", "shop": "supermarket", "addr:full": "2394 West Lincoln Ave", "addr:city": "Anaheim", "addr:state": "CA", "addr:postcode": "92801", "addr:country": "US", "name": "Anaheim #37", "phone": "(714) 300-0778", "website": "https://vallartasupermarkets.com/store-locations/anaheim-37/", "opening_hours": "Mo-Su 07:00-22:00", "brand": "Vallarta Supermarkets", "brand:wikidata": "Q7911833", "nsi_id": "vallarta-dde59d"}},
{"type": "Feature", "id": "7magQOJlyjEjOu_mKPHb5L3l7Is=", "properties": {"ref": "fresno-49", "@spider": "vallarta", "cuisine": "latin_american", "official_name": "Vallarta Supermarkets", "shop": "supermarket", "addr:full": "1951 West Clinton Avenue", "addr:city": "Fresno", "addr:state": "CA", "addr:postcode": "93705", "addr:country": "US", "name": "Fresno #49", "phone": "(559) 476-3920", "website": "https://vallartasupermarkets.com/store-locations/fresno-49/", "opening_hours": "Mo-Su 07:00-22:00", "brand": "Vallarta Supermarkets", "brand:wikidata": "Q7911833", "nsi_id": "vallarta-dde59d"}},
{"type": "Feature", "id": "PyjFwyMeeL-X3Kza2GvVQIz4YDE=", "properties": {"ref": "national-city-36", "@spider": "vallarta", "cuisine": "latin_american", "official_name": "Vallarta Supermarkets", "shop": "supermarket", "addr:full": "901 Euclid Ave", "addr:city": "National City", "addr:state": "CA", "addr:postcode": "91950", "addr:country": "US", "name": "National City #36", "phone": "(619) 472-1683", "website": "https://vallartasupermarkets.com/store-locations/national-city-36/", "opening_hours": "Mo-Su 07:00-22:00", "brand": "Vallarta Supermarkets", "brand:wikidata": "Q7911833", "nsi_id": "vallarta-dde59d"}},
{"type": "Feature", "id": "op0pESRbWpMfoK17p7jqaoaw9Rc=", "properties": {"ref": "simi-valley-35", "@spider": "vallarta", "cuisine": "latin_american", "official_name": "Vallarta Supermarkets", "shop": "supermarket", "addr:full": "1357 East Los Angeles Ave", "addr:city": "Simi Valley", "addr:state": "CA", "addr:postcode": "93065", "addr:country": "US", "name": "Simi Valley #35", "phone": "(805) 520-6468", "website": "https://vallartasupermarkets.com/store-locations/simi-valley-35/", "opening_hours": "Mo-Su 07:00-22:00", "brand": "Vallarta Supermarkets", "brand:wikidata": "Q7911833", "nsi_id": "vallarta-dde59d"}},
{"type": "Feature", "id": "MI0YAJte6LCiwATlBAvyVxdts4Y=", "properties": {"ref": "canyon-country-47", "@spider": "vallarta", "cuisine": "latin_american", "official_name": "Vallarta Supermarkets", "shop": "supermarket", "addr:full": "18571 Soledad Canyon Rd", "addr:city": "Canyon Country", "addr:state": "CA", "addr:postcode": "91351", "addr:country": "US", "name": "Canyon Country #47", "phone": "(661) 347-7390", "website": "https://vallartasupermarkets.com/store-locations/canyon-country-47/", "opening_hours": "Mo-Su 07:00-22:00", "brand": "Vallarta Supermarkets", "brand:wikidata": "Q7911833", "nsi_id": "vallarta-dde59d"}},
{"type": "Feature", "id": "VtPUCVP7cWBMUYBiMNklU_fPo1U=", "properties": {"ref": "visalia-33", "@spider": "vallarta", "cuisine": "latin_american", "official_name": "Vallarta Supermarkets", "shop": "supermarket", "addr:full": "3112 N. Dinuba Blvd.", "addr:city": "Visalia", "addr:state": "CA", "addr:postcode": "93291", "addr:country": "US", "name": "Visalia #33", "phone": "(559) 802-1933", "website": "https://vallartasupermarkets.com/store-locations/visalia-33/", "brand": "Vallarta Supermarkets", "brand:wikidata": "Q7911833", "nsi_id": "vallarta-dde59d"}},
{"type": "Feature", "id": "nfIeZP9PsnVJ_E-b5OlevZ0jTWg=", "properties": {"ref": "porterville-32", "@spider": "vallarta", "cuisine": "latin_american", "official_name": "Vallarta Supermarkets", "shop": "supermarket", "addr:full": "305 E. Olive Ave", "addr:city": "Porterville", "addr:state": "CA", "addr:postcode": "93257", "addr:country": "US", "name": "Porterville #32", "phone": "(559) 306-1325", "website": "https://vallartasupermarkets.com/store-locations/porterville-32/", "opening_hours": "Mo-Su 07:00-22:00", "brand": "Vallarta Supermarkets", "brand:wikidata": "Q7911833", "nsi_id": "vallarta-dde59d"}},
{"type": "Feature", "id": "waKC3h-NHq8J64Q1U6R8Rvxj3OI=", "properties": {"ref": "santa-maria-31", "@spider": "vallarta", "cuisine": "latin_american", "official_name": "Vallarta Supermarkets", "shop": "supermarket", "addr:full": "1875 N. Broadway Blvd.", "addr:city": "Santa Maria", "addr:state": "CA", "addr:postcode": "93454", "addr:country": "US", "name": "Santa Maria #31", "phone": "(805) 349-9490", "website": "https://vallartasupermarkets.com/store-locations/santa-maria-31/", "opening_hours": "Mo-Su 07:00-22:00", "brand": "Vallarta Supermarkets", "brand:wikidata": "Q7911833", "nsi_id": "vallarta-dde59d"}},
{"type": "Feature", "id": "khDYX7RYFN4JYt_J-LBbVfwsxUg=", "properties": {"ref": "escondido-30", "@spider": "vallarta", "cuisine": "latin_american", "official_name": "Vallarta Supermarkets", "shop": "supermarket", "addr:full": "1315 East Valley Parkway", "addr:city": "Escondido", "addr:state": "CA", "addr:postcode": "92027", "addr:country": "US", "name": "Escondido #30", "phone": "(760) 291-0375", "website": "https://vallartasupermarkets.com/store-locations/escondido-30/", "opening_hours": "Mo-Su 07:00-22:00", "brand": "Vallarta Supermarkets", "brand:wikidata": "Q7911833", "nsi_id": "vallarta-dde59d"}},
{"type": "Feature", "id": "0RJOIK8LON_3o0Y1lEwrn4weEkw=", "properties": {"ref": "san-fernando-43", "@spider": "vallarta", "cuisine": "latin_american", "official_name": "Vallarta Supermarkets", "shop": "supermarket", "addr:full": "757 S. Workman St.", "addr:city": "San Fernando", "addr:state": "CA", "addr:postcode": "91340", "addr:country": "US", "name": "San Fernando #43", "phone": "(818) 365-8603", "website": "https://vallartasupermarkets.com/store-locations/san-fernando-43/", "opening_hours": "Mo-Su 07:00-22:00", "brand": "Vallarta Supermarkets", "brand:wikidata": "Q7911833", "nsi_id": "vallarta-dde59d"}},
{"type": "Feature", "id": "WiQ-u78WKpr6MLGdVxoDDgWU8Wo=", "properties": {"ref": "bakersfield-40", "@spider": "vallarta", "cuisine": "latin_american", "official_name": "Vallarta Supermarkets", "shop": "supermarket", "addr:full": "2705 South \"H\" Street", "addr:city": "Bakersfield", "addr:state": "CA", "addr:postcode": "93304", "addr:country": "US", "name": "Bakersfield #40", "phone": "(661) 397-4490", "website": "https://vallartasupermarkets.com/store-locations/bakersfield-40/", "opening_hours": "Mo-Su 07:00-22:00", "brand": "Vallarta Supermarkets", "brand:wikidata": "Q7911833", "nsi_id": "vallarta-dde59d"}},
{"type": "Feature", "id": "aXlUNzxbAVLM-664MgF3W9m95MI=", "properties": {"ref": "valencia-19", "@spider": "vallarta", "cuisine": "latin_american", "official_name": "Vallarta Supermarkets", "shop": "supermarket", "addr:full": "23449 Lyons Ave", "addr:city": "Valencia", "addr:state": "CA", "addr:postcode": "91355", "addr:country": "US", "name": "Valencia #19", "phone": "(661) 260-1110", "website": "https://vallartasupermarkets.com/store-locations/valencia-19/", "opening_hours": "Mo-Su 07:00-22:00", "brand": "Vallarta Supermarkets", "brand:wikidata": "Q7911833", "nsi_id": "vallarta-dde59d"}},
{"type": "Feature", "id": "XFkwvwyw2tAqlsP37bARERe5snE=", "properties": {"ref": "delano-42", "@spider": "vallarta", "cuisine": "latin_american", "official_name": "Vallarta Supermarkets", "shop": "supermarket", "addr:full": "820 Main Street", "addr:city": "Delano", "addr:state": "CA", "addr:postcode": "93215", "addr:country": "US", "name": "Delano #42", "phone": "(661) 725-8920", "website": "https://vallartasupermarkets.com/store-locations/delano-42/", "opening_hours": "Mo-Su 07:00-22:00", "brand": "Vallarta Supermarkets", "brand:wikidata": "Q7911833", "nsi_id": "vallarta-dde59d"}},
{"type": "Feature", "id": "DeYg6Gi30abOw1z7jjdY-RhSRY0=", "properties": {"ref": "bakersfield-41", "@spider": "vallarta", "cuisine": "latin_american", "official_name": "Vallarta Supermarkets", "shop": "supermarket", "addr:full": "2309 Niles Point", "addr:city": "Bakersfield", "addr:state": "CA", "addr:postcode": "93306", "addr:country": "US", "name": "Bakersfield #41", "phone": "(661) 869-1076", "website": "https://vallartasupermarkets.com/store-locations/bakersfield-41/", "opening_hours": "Mo-Su 07:00-22:00", "brand": "Vallarta Supermarkets", "brand:wikidata": "Q7911833", "nsi_id": "vallarta-dde59d"}},
{"type": "Feature", "id": "FQ4GXK4ii92AYr27WvaRzxf04Bs=", "properties": {"ref": "burbank-17", "@spider": "vallarta", "cuisine": "latin_american", "official_name": "Vallarta Supermarkets", "shop": "supermarket", "addr:full": "10950 Sherman Way", "addr:city": "Burbank", "addr:state": "CA", "addr:postcode": "91505", "addr:country": "US", "name": "Burbank #17", "phone": "(818) 526-0081", "website": "https://vallartasupermarkets.com/store-locations/burbank-17/", "opening_hours": "Mo-Su 07:00-22:00", "brand": "Vallarta Supermarkets", "brand:wikidata": "Q7911833", "nsi_id": "vallarta-dde59d"}},
{"type": "Feature", "id": "GpVqeQs83GiTFtNP-a-vAsqiCRQ=", "properties": {"ref": "tulare-34", "@spider": "vallarta", "cuisine": "latin_american", "official_name": "Vallarta Supermarkets", "shop": "supermarket", "addr:full": "1111 N. Cherry St.", "addr:city": "Tulare", "addr:state": "CA", "addr:postcode": "93274", "addr:country": "US", "name": "Tulare #34", "phone": "(559) 366-1410", "website": "https://vallartasupermarkets.com/store-locations/tulare-34/", "opening_hours": "Mo-Su 07:00-22:00", "brand": "Vallarta Supermarkets", "brand:wikidata": "Q7911833", "nsi_id": "vallarta-dde59d"}},
{"type": "Feature", "id": "ryYMOhjE1kycih7ppiWvlaOyApc=", "properties": {"ref": "victorville-22", "@spider": "vallarta", "cuisine": "latin_american", "official_name": "Vallarta Supermarkets", "shop": "supermarket", "addr:full": "12351 Mariposa Rd", "addr:city": "Victorville", "addr:state": "CA", "addr:postcode": "92395", "addr:country": "US", "name": "Victorville #22", "phone": "(760) 243-1246", "website": "https://vallartasupermarkets.com/store-locations/victorville-22/", "opening_hours": "Mo-Su 07:00-22:00", "brand": "Vallarta Supermarkets", "brand:wikidata": "Q7911833", "nsi_id": "vallarta-dde59d"}},
{"type": "Feature", "id": "HqE6G15lNup5FFQzjmd6_QQMl0c=", "properties": {"ref": "oxnard-21", "@spider": "vallarta", "cuisine": "latin_american", "official_name": "Vallarta Supermarkets", "shop": "supermarket", "addr:full": "1050 South A Street", "addr:city": "Oxnard", "addr:state": "CA", "addr:postcode": "93030", "addr:country": "US", "name": "Oxnard #21", "phone": "(805) 240-1400", "website": "https://vallartasupermarkets.com/store-locations/oxnard-21/", "opening_hours": "Mo-Su 07:00-22:00", "brand": "Vallarta Supermarkets", "brand:wikidata": "Q7911833", "nsi_id": "vallarta-dde59d"}},
{"type": "Feature", "id": "-XTfQr0D_S4hN0dnHOZxdCBwjzs=", "properties": {"ref": "delano-23", "@spider": "vallarta", "cuisine": "latin_american", "official_name": "Vallarta Supermarkets", "shop": "supermarket", "addr:full": "1840 Cecil Ave.", "addr:city": "Delano", "addr:state": "CA", "addr:postcode": "93215", "addr:country": "US", "name": "Delano #23", "phone": "(661) 725-9283", "website": "https://vallartasupermarkets.com/store-locations/delano-23/", "opening_hours": "Mo-Su 07:00-22:00", "brand": "Vallarta Supermarkets", "brand:wikidata": "Q7911833", "nsi_id": "vallarta-dde59d"}},
{"type": "Feature", "id": "JwdjpMZiiRc5bu8wO_m4myVMX4w=", "properties": {"ref": "palmdale-20", "@spider": "vallarta", "cuisine": "latin_american", "official_name": "Vallarta Supermarkets", "shop": "supermarket", "addr:full": "1803 E. Palmdale Blvd.", "addr:city": "Palmdale", "addr:state": "CA", "addr:postcode": "93550", "addr:country": "US", "name": "Palmdale #20", "phone": "(661) 273-1120", "website": "https://vallartasupermarkets.com/store-locations/palmdale-20/", "opening_hours": "Mo-Su 07:00-22:00", "brand": "Vallarta Supermarkets", "brand:wikidata": "Q7911833", "nsi_id": "vallarta-dde59d"}},
{"type": "Feature", "id": "aPkPeASxs31FDfYmyIXaFLxvF9A=", "properties": {"ref": "bakersfield-16", "@spider": "vallarta", "cuisine": "latin_american", "official_name": "Vallarta Supermarkets", "shop": "supermarket", "addr:full": "5951 East Niles Ave", "addr:city": "Bakersfield", "addr:state": "CA", "addr:postcode": "93306", "addr:country": "US", "name": "Bakersfield #16", "phone": "(661) 366-4916", "website": "https://vallartasupermarkets.com/store-locations/bakersfield-16/", "opening_hours": "Mo-Su 07:00-22:00", "brand": "Vallarta Supermarkets", "brand:wikidata": "Q7911833", "nsi_id": "vallarta-dde59d"}}]}