{"type":"FeatureCollection","features":[{"type": "Feature", "id": "K-C9sb21054MMjQskrZD15yJwtk=", "properties": {"ref": "basingstoke", "@spider": "vapestore_gb", "addr:full": "Vapestore Basingstoke, 16 Church Street, Basingstoke, Hampshire, RG21 7QH", "addr:postcode": "RG21 7QH", "addr:country": "GB", "website": "https://www.vapestore.co.uk/vapestore-basingstoke", "contact:email": "basingstoke@vapestore.co.uk", "brand": "vapestore"}, "geometry": {"type": "Point", "coordinates": [-1.0877759335390635, 51.26348035800673]}},
{"type": "Feature", "id": "lWOH83Aqjdvg7_A354qCoQ6wZTI=", "properties": {"ref": "reading", "@spider": "vapestore_gb", "addr:full": "7-9 Cross Street, Reading, Berkshire, RG1 1ST, 9.00am to 6.00pm, 11am to 5pm", "addr:postcode": "RG1 1ST", "addr:country": "GB", "name": "Vapestore Reading", "website": "https://www.vapestore.co.uk/vapestore-reading", "contact:email": "reading@vapestore.co.uk", "brand": "vapestore"}},
{"type": "Feature", "id": "H3DV_2of8Nm-uuyGoXUmjooNSLk=", "properties": {"ref": "portsmouth", "@spider": "vapestore_gb", "addr:full": "11 Crasswell Street, Portsmouth, Hampshire, PO1 1HA, 9.00am to 6.00pm, 10.30am to 4.30pm", "addr:postcode": "PO1 1HA", "addr:country": "GB", "name": "Vapestore Portsmouth", "website": "https://www.vapestore.co.uk/vapestore-portsmouth", "contact:email": "portsmouth@vapestore.co.uk", "brand": "vapestore"}},
{"type": "Feature", "id": "LWkX8o58YAFvGiCslAJddNXzi54=", "properties": {"ref": "guildford", "@spider": "vapestore_gb", "addr:full": "21 Swan Lane, Guildford, GU1 4EQ, 9.00am to 6.00pm, 10am to 5pm", "addr:postcode": "GU1 4EQ", "addr:country": "GB", "name": "Vapestore Guildford", "website": "https://www.vapestore.co.uk/vapestore-guildford", "contact:email": "guildford@vapestore.co.uk", "brand": "vapestore"}, "geometry": {"type": "Point", "coordinates": [-0.576700884239989, 51.23594827959146]}},
{"type": "Feature", "id": "wCAajdCPpJ66H3sWukPZraCxbK4=", "properties": {"ref": "chichester", "@spider": "vapestore_gb", "addr:full": "41 East Street, Chichester, West Sussex, PO19 1HX, 9.00am to 6.00pm, 10am to 5pm", "addr:postcode": "PO19 1HX", "addr:country": "GB", "name": "Vapestore Chichester", "website": "https://www.vapestore.co.uk/vapestore-chichester", "contact:email": "chichester@vapestore.co.uk", "brand": "vapestore"}, "geometry": {"type": "Point", "coordinates": [-0.7777275842545731, 50.83633597953054]}},
{"type": "Feature", "id": "4qx90BzIfSdlEUVTdv-GuhzL1jQ=", "properties": {"ref": "brighton", "@spider": "vapestore_gb", "addr:full": "79 North Street, Brighton, East Sussex, BN1 1ZA, 9.00am to 7.00pm, 11am to 5pm", "addr:postcode": "BN1 1ZA", "addr:country": "GB", "name": "Vapestore Brighton", "website": "https://www.vapestore.co.uk/vapestore-brighton", "contact:email": "brighton@vapestore.co.uk", "brand": "vapestore"}},
{"type": "Feature", "id": "bYCccx69_TKrBIRee5S7ogicvMc=", "properties": {"ref": "bracknell", "@spider": "vapestore_gb", "addr:full": "Unit G4 Princess Square, Bracknell, RG12 1LS", "addr:postcode": "RG12 1LS", "addr:country": "GB", "name": "Vapestore Bracknell", "website": "https://www.vapestore.co.uk/vapestore-bracknell", "contact:email": "bracknell@vapestore.co.uk", "brand": "vapestore"}, "geometry": {"type": "Point", "coordinates": [-0.7527976479773097, 51.415461379520146]}},
{"type": "Feature", "id": "5DZr7YHhsQyNnTb-RFJvK82jHBo=", "properties": {"ref": "bournemouth", "@spider": "vapestore_gb", "addr:full": "47 Commercial Road, Bournemouth, Dorset, BH2 5RH, 9.00am to 6.00pm, 10am to 5pm", "addr:postcode": "BH2 5RH", "addr:country": "GB", "name": "Vapestore Bournemouth", "website": "https://www.vapestore.co.uk/vapestore-bournemouth", "contact:email": "bournemouth@vapestore.co.uk", "brand": "vapestore"}},
{"type": "Feature", "id": "_2e-S56WU32_BETbM19Q7loBVF0=", "properties": {"ref": "homepage-queen", "@spider": "vapestore_gb", "addr:country": "GB", "website": "https://www.vapestore.co.uk/vapestore-homepage-queen", "brand": "vapestore"}},
{"type": "Feature", "id": "1esmFvjqOmDAkvqJhrKrtIJp1kA=", "properties": {"ref": "bognor-regis", "@spider": "vapestore_gb", "addr:full": "1 Water Tower Buildings, London Road, Bognor Regis, West Sussex, PO21 1PN, 9.00am to 6.00pm, 10am to 5pm", "addr:postcode": "PO21 1PN", "addr:country": "GB", "name": "Vapestore Bognor Regis", "website": "https://www.vapestore.co.uk/vapestore-bognor-regis", "contact:email": "bognor@vapestore.co.uk", "brand": "vapestore"}, "geometry": {"type": "Point", "coordinates": [-0.6766042848570949, 50.78528037952299]}},
{"type": "Feature", "id": "awgBYqBUUJG-jTNVdGNXnflbnaw=", "properties": {"ref": "burslem", "@spider": "vapestore_gb", "addr:full": "13 Market Place, Burslem, Stoke on Trent, ST6 3AA", "addr:postcode": "ST6 3AA", "addr:country": "GB", "name": "Vapestore Burslem", "website": "https://www.vapestore.co.uk/vapestore-burslem", "contact:email": "burslem@vapestore.co.uk", "brand": "vapestore"}, "geometry": {"type": "Point", "coordinates": [-2.1994447841728784, 53.04554477991708]}},
{"type": "Feature", "id": "gGnk-4mp7njut2U9bpX9v55pE5M=", "properties": {"ref": "worthing", "@spider": "vapestore_gb", "addr:full": "86 Montague Street, Worthing, West Sussex, BN11 3HF, 9.00am to 6.00pm, 10.30am to 4.30pm", "addr:postcode": "BN11 3HF", "addr:country": "GB", "name": "Vapestore Worthing", "website": "https://www.vapestore.co.uk/vapestore-worthing", "contact:email": "worthing@vapestore.co.uk", "brand": "vapestore"}, "geometry": {"type": "Point", "coordinates": [-0.37284196292749644, 50.81380617631839]}},
{"type": "Feature", "id": "sFa3uzgi97qhtO5mB7zk3huki_c=", "properties": {"ref": "redhill", "@spider": "vapestore_gb", "addr:full": "2B High Street, Redhill, Surrey, RH1 1RH, 9.00am to 6.00pm, 10am to 4pm", "addr:postcode": "RH1 1RH", "addr:country": "GB", "name": "Vapestore Redhill", "website": "https://www.vapestore.co.uk/vapestore-redhill", "contact:email": "redhill@vapestore.co.uk", "brand": "vapestore"}}]}