{"type":"FeatureCollection","features":[{"type": "Feature", "id": "Mhmckf2lySYPnOH1BIsBHw_iM80=", "properties": {"ref": "Vapiano Aachen Franzstra\u00dfe", "@spider": "vapiano_us", "amenity": "restaurant", "cuisine": "italian", "addr:full": "Aachen Franzstrasse 51, 52064", "addr:street": "Franzstrasse 51", "addr:city": "Aachen", "addr:country": "DE", "name": "Vapiano", "phone": "+49 (0)24155924290", "website": "https://us.vapiano.com//en/restaurants/vapiano-aachen-franzstrasse-51-1/", "brand": "Vapiano", "brand:wikidata": "Q506252", "nsi_id": "vapiano-2fabb0"}, "geometry": {"type": "Point", "coordinates": [6.085129, 50.770358]}},
{"type": "Feature", "id": "CJwPRDdYHUkBc1QPCsyzB9psgjo=", "properties": {"ref": "Vapiano Abu Dahabi", "@spider": "vapiano_us", "amenity": "restaurant", "cuisine": "italian", "addr:full": "Abu Dhabi, UAE MARINA MALL, First Floor, PO BOX 4033", "addr:street": "MARINA MALL, First Floor", "addr:city": "Abu Dhabi, UAE", "addr:country": "AE", "name": "Vapiano", "phone": "0097126792746 / 0097126770905", "website": "https://us.vapiano.com//en/restaurants/detail/restaurant-details/-242d08bac9/", "brand": "Vapiano", "brand:wikidata": "Q506252", "nsi_id": "vapiano-2fabb0"}, "geometry": {"type": "Point", "coordinates": [54.321514, 24.476059]}},
{"type": "Feature", "id": "hXAzknft51VTZ6Nq7GM2PAsEhik=", "properties": {"ref": "Vapiano Aix en provence", "@spider": "vapiano_us", "amenity": "restaurant", "cuisine": "italian", "addr:full": "Aix en provence Place du general de gaulle, 13100", "addr:street": "Place du general de gaulle", "addr:city": "Aix en provence", "addr:country": "FR", "name": "Vapiano", "phone": "0428318926", "website": "https://us.vapiano.com//en/restaurants/detail/restaurant-details/-c8552373e9/", "brand": "Vapiano", "brand:wikidata": "Q506252", "nsi_id": "vapiano-2fabb0"}, "geometry": {"type": "Point", "coordinates": [5.44556, 43.525717]}},
{"type": "Feature", "id": "hSU0ABBPlJ31Rh3lG1U8l0mPkec=", "properties": {"ref": "Vapiano Al Ain", "@spider": "vapiano_us", "amenity": "restaurant", "cuisine": "italian", "addr:full": "Abu Dhabi, UAE BAWADI MALL, Ground Floor, PO BOX 4033", "addr:street": "BAWADI MALL, Ground Floor", "addr:city": "Abu Dhabi, UAE", "addr:country": "AE", "name": "Vapiano", "phone": "0097137833709", "website": "https://us.vapiano.com//en/restaurants/detail/restaurant-details/-955672cdfe/", "brand": "Vapiano", "brand:wikidata": "Q506252", "nsi_id": "vapiano-2fabb0"}, "geometry": {"type": "Point", "coordinates": [55.807462, 24.160237]}},
{"type": "Feature", "id": "vBFuY0ED658bZF2Zr4YwuTHHQrg=", "properties": {"ref": "Vapiano Almere Citymall", "@spider": "vapiano_us", "amenity": "restaurant", "cuisine": "italian", "addr:full": "VH Almere Schutterstraat 17, 1315", "addr:street": "Schutterstraat 17", "addr:city": "VH Almere", "addr:country": "Holland", "name": "Vapiano", "phone": "+31 367 603 160", "website": "https://us.vapiano.com//en/restaurants/vapiano-almere-citymall-schutterstraat-17/", "brand": "Vapiano", "brand:wikidata": "Q506252", "nsi_id": "vapiano-2fabb0"}, "geometry": {"type": "Point", "coordinates": [5.21901, 52.370451]}},
{"type": "Feature", "id": "0zM2iHnt6B1Yhy9r3EMbKHotKD4=", "properties": {"ref": "Vapiano Amsterdam Oosterdokskade", "@spider": "vapiano_us", "amenity": "restaurant", "cuisine": "italian", "addr:full": "Amsterdam Oosterdokskade 145, 1011 DL", "addr:street": "Oosterdokskade 145", "addr:city": "Amsterdam", "addr:country": "Holland", "name": "Vapiano", "phone": "+31 20 420 18 25", "website": "https://us.vapiano.com//en/restaurants/vapiano-amsterdam-1-oosterdokskade-145-1/", "brand": "Vapiano", "brand:wikidata": "Q506252", "nsi_id": "vapiano-2fabb0"}, "geometry": {"type": "Point", "coordinates": [4.90865, 52.37558]}},
{"type": "Feature", "id": "g-hAobyerpRbdpiViAy88S7mIec=", "properties": {"ref": "Vapiano Amsterdam Rembrandtplein", "@spider": "vapiano_us", "amenity": "restaurant", "cuisine": "italian", "addr:full": "Amsterdam Amstelstraat 2-4, 1017 DA", "addr:street": "Amstelstraat 2-4", "addr:city": "Amsterdam", "addr:country": "Holland", "name": "Vapiano", "phone": "+31 20 76 70 800", "website": "https://us.vapiano.com//en/restaurants/vapiano-amsterdam-2-amstelstraat-2-4-1/", "brand": "Vapiano", "brand:wikidata": "Q506252", "nsi_id": "vapiano-2fabb0"}, "geometry": {"type": "Point", "coordinates": [4.898197, 52.36618]}},
{"type": "Feature", "id": "mJ0BOLTeXjMvWX4w0eFlGjjD6MQ=", "properties": {"ref": "Vapiano Augsburg Fuggerstra\u00dfe", "@spider": "vapiano_us", "amenity": "restaurant", "cuisine": "italian", "addr:full": "Augsburg Fuggerstra\u00dfe 20, 86150", "addr:street": "Fuggerstra\u00dfe 20", "addr:city": "Augsburg", "addr:country": "DE", "name": "Vapiano", "phone": "+49 (0)82124131990", "website": "https://us.vapiano.com//en/restaurants/vapiano-augsburg-fuggerstrasse-20-1/", "brand": "Vapiano", "brand:wikidata": "Q506252", "nsi_id": "vapiano-2fabb0"}, "geometry": {"type": "Point", "coordinates": [10.893153, 48.369137]}},
{"type": "Feature", "id": "65Pxvdp1zM1zmVT1e_Im8f-hdqA=", "properties": {"ref": "Vapiano Bahrain", "@spider": "vapiano_us", "amenity": "restaurant", "cuisine": "italian", "addr:full": "Manama Sh. Khalifa Highway, BHR", "addr:street": "Sh. Khalifa Highway", "addr:city": "Manama", "addr:country": "Kingdom of Bahrain", "name": "Vapiano", "phone": "+97317491391", "website": "https://us.vapiano.com//en/restaurants/vapiano-bahrain-sh-khalifa-highway-1/", "brand": "Vapiano", "brand:wikidata": "Q506252", "nsi_id": "vapiano-2fabb0"}, "geometry": {"type": "Point", "coordinates": [50.58333, 26.23967]}},
{"type": "Feature", "id": "HQYs7w7aIBED6u9yvfrByiJTli0=", "properties": {"ref": "Vapiano Baku", "@spider": "vapiano_us", "amenity": "restaurant", "cuisine": "italian", "addr:full": "Baku 5, U.Hajibaiov, AZ1001", "addr:street": "5, U.Hajibaiov", "addr:city": "Baku", "addr:country": "AZ", "name": "Vapiano", "phone": "+994 503216139", "website": "https://us.vapiano.com//en/restaurants/vapiano-baku-5-uhajibaiov-1/", "brand": "Vapiano", "brand:wikidata": "Q506252", "nsi_id": "vapiano-2fabb0"}, "geometry": {"type": "Point", "coordinates": [49.840797, 40.371409]}},
{"type": "Feature", "id": "5bA-45TQXSAcrhQgEQEwvRSKkps=", "properties": {"ref": "Vapiano Basel Sternengasse", "@spider": "vapiano_us", "amenity": "restaurant", "cuisine": "italian", "addr:full": "Basel Sternengasse 19, 4051", "addr:street": "Sternengasse 19", "addr:city": "Basel", "addr:country": "CH", "name": "Vapiano", "phone": "+41 (0) 61 272 72-22", "website": "https://us.vapiano.com//en/restaurants/vapiano-basel-sternengasse-19/", "brand": "Vapiano", "brand:wikidata": "Q506252", "nsi_id": "vapiano-2fabb0"}, "geometry": {"type": "Point", "coordinates": [7.59259, 47.551496]}},
{"type": "Feature", "id": "pG80owDVPYjE0dvrOY0yTXcO6sM=", "properties": {"ref": "Vapiano Berlin Alexanderplatz", "@spider": "vapiano_us", "amenity": "restaurant", "cuisine": "italian", "addr:full": "Berlin Rathausstr.6, 10178", "addr:street": "Rathausstr.6", "addr:city": "Berlin", "addr:country": "DE", "name": "Vapiano", "phone": "+49 (0) 30 27890400", "website": "https://us.vapiano.com//en/restaurants/vapiano-berlin-alexanderplatz-rathausstr6-2/", "brand": "Vapiano", "brand:wikidata": "Q506252", "nsi_id": "vapiano-2fabb0"}, "geometry": {"type": "Point", "coordinates": [13.410511, 52.520761]}},
{"type": "Feature", "id": "oQOPkeFXyACQrQQItDp6-lzah_w=", "properties": {"ref": "Vapiano Berlin Augsburger Str.", "@spider": "vapiano_us", "amenity": "restaurant", "cuisine": "italian", "addr:full": "Berlin Augsburger Strasse 43, 10789", "addr:street": "Augsburger Strasse 43", "addr:city": "Berlin", "addr:country": "DE", "name": "Vapiano", "phone": "+49 (0)3088714195", "website": "https://us.vapiano.com//en/restaurants/vapiano-berlin-1-augsburger-strasse-43-1/", "brand": "Vapiano", "brand:wikidata": "Q506252", "nsi_id": "vapiano-2fabb0"}, "geometry": {"type": "Point", "coordinates": [13.33168, 52.50289]}},
{"type": "Feature", "id": "hJEgus9b1yKO1V3U44LYUPCLgfY=", "properties": {"ref": "Vapiano Berlin Checkpoint Charlie", "@spider": "vapiano_us", "amenity": "restaurant", "cuisine": "italian", "addr:full": "Berlin Friedrichstrasse 50-55, 10117", "addr:street": "Friedrichstrasse 50-55", "addr:city": "Berlin", "addr:country": "Deutschalnd", "name": "Vapiano", "phone": "030 2060 7530", "website": "https://us.vapiano.com//en/restaurants/detail/restaurant-details/-0f0c313590/", "brand": "Vapiano", "brand:wikidata": "Q506252", "nsi_id": "vapiano-2fabb0"}, "geometry": {"type": "Point", "coordinates": [13.390374, 52.509052]}},
{"type": "Feature", "id": "OGShzjVx-bq3_A1GuKIimHeLGRY=", "properties": {"ref": "Vapiano Berlin Europa-Center", "@spider": "vapiano_us", "amenity": "restaurant", "cuisine": "italian", "addr:full": "Berlin Tauentzienstra\u00dfe 9-12, 10789", "addr:street": "Tauentzienstra\u00dfe 9-12", "addr:city": "Berlin", "addr:country": "DE", "name": "Vapiano", "phone": "+49 (0)30 23 005 060", "website": "https://us.vapiano.com//en/restaurants/vapiano-berlin-europa-center-tauentzienstrasse-9-12-1/", "brand": "Vapiano", "brand:wikidata": "Q506252", "nsi_id": "vapiano-2fabb0"}, "geometry": {"type": "Point", "coordinates": [13.336858, 52.504472]}},
{"type": "Feature", "id": "stJz4Q3bu9ncCmmdpVSVA_EhIPs=", "properties": {"ref": "Vapiano Berlin Mittelstrasse", "@spider": "vapiano_us", "amenity": "restaurant", "cuisine": "italian", "addr:full": "Berlin Mittelstrasse 51-52, 10117", "addr:street": "Mittelstrasse 51-52", "addr:city": "Berlin", "addr:country": "DE", "name": "Vapiano", "phone": "+49 (0)3050154100", "website": "https://us.vapiano.com//en/restaurants/vapiano-berlin-3-mittelstrasse-51-52-1/", "brand": "Vapiano", "brand:wikidata": "Q506252", "nsi_id": "vapiano-2fabb0"}, "geometry": {"type": "Point", "coordinates": [13.38807, 52.51789]}},
{"type": "Feature", "id": "0KWYOiWEtQ3jFJPilSk78WB76ug=", "properties": {"ref": "Vapiano Berlin Potsdamer Platz", "@spider": "vapiano_us", "amenity": "restaurant", "cuisine": "italian", "addr:full": "Berlin Potsdamer Platz 5, 10785", "addr:street": "Potsdamer Platz 5", "addr:city": "Berlin", "addr:country": "DE", "name": "Vapiano", "phone": "+49 (0)3023005005", "website": "https://us.vapiano.com//en/restaurants/vapiano-berlin-2-potsdamer-platz-5-1/", "brand": "Vapiano", "brand:wikidata": "Q506252", "nsi_id": "vapiano-2fabb0"}, "geometry": {"type": "Point", "coordinates": [13.37601, 52.51039]}},
{"type": "Feature", "id": "z0bd2cFPHho2Zmy6QCxfieaYcsE=", "properties": {"ref": "Vapiano Berlin Washingtonplatz", "@spider": "vapiano_us", "amenity": "restaurant", "cuisine": "italian", "addr:full": "Berlin Washingtonplatz 2, 10557", "addr:street": "Washingtonplatz 2", "addr:city": "Berlin", "addr:country": "DE", "name": "Vapiano", "phone": "+49 (0)30 224 887 00", "website": "https://us.vapiano.com//en/restaurants/vapiano-berlin-4-washingtonplatz-2-1/", "brand": "Vapiano", "brand:wikidata": "Q506252", "nsi_id": "vapiano-2fabb0"}, "geometry": {"type": "Point", "coordinates": [13.368875, 52.524185]}},
{"type": "Feature", "id": "YRjjfL8diy48gxMNAIeq8_b5hiE=", "properties": {"ref": "Vapiano Bern Bogensch\u00fctzenstrasse", "@spider": "vapiano_us", "amenity": "restaurant", "cuisine": "italian", "addr:full": "Bern Bogensch\u00fctzenstrasse 9, 3008", "addr:street": "Bogensch\u00fctzenstrasse 9", "addr:city": "Bern", "addr:country": "CH", "name": "Vapiano", "phone": "+41 31 305 00 40", "website": "https://us.vapiano.com//en/restaurants/vapiano-bern-1-bogenschuetzenstrasse-9/", "brand": "Vapiano", "brand:wikidata": "Q506252", "nsi_id": "vapiano-2fabb0"}, "geometry": {"type": "Point", "coordinates": [7.43802, 46.947745]}},
{"type": "Feature", "id": "G2t_kN4OZI_G6nv0xKpULzXJKtg=", "properties": {"ref": "Vapiano Bielefeld Niederwall", "@spider": "vapiano_us", "amenity": "restaurant", "cuisine": "italian", "addr:full": "Bielefeld Niederwall 26, 33602", "addr:street": "Niederwall 26", "addr:city": "Bielefeld", "addr:country": "DE", "name": "Vapiano", "phone": "+49(0) 52198628580", "website": "https://us.vapiano.com//en/restaurants/vapiano-bielefeld-niederwall-26-1/", "brand": "Vapiano", "brand:wikidata": "Q506252", "nsi_id": "vapiano-2fabb0"}, "geometry": {"type": "Point", "coordinates": [8.534185, 52.020177]}},
{"type": "Feature", "id": "rVaLJ4xRMMTlESxhRFoy0ybZBzI=", "properties": {"ref": "Vapiano Bochum Husemannplatz", "@spider": "vapiano_us", "amenity": "restaurant", "cuisine": "italian", "addr:full": "Bochum Husemannplatz 6-7, 44787", "addr:street": "Husemannplatz 6-7", "addr:city": "Bochum", "addr:country": "DE", "name": "Vapiano", "phone": "+49 (0)234 962 939 70", "website": "https://us.vapiano.com//en/restaurants/vapiano-bochum-husemannplatz-6-7-1/", "brand": "Vapiano", "brand:wikidata": "Q506252", "nsi_id": "vapiano-2fabb0"}, "geometry": {"type": "Point", "coordinates": [7.216716, 51.480459]}},
{"type": "Feature", "id": "wGXPBAWaldA3-LGu76erBXXAHn8=", "properties": {"ref": "Vapiano Bonn M\u00fcnsterplatz", "@spider": "vapiano_us", "amenity": "restaurant", "cuisine": "italian", "addr:full": "Bonn In der S\u00fcrst 1, 53113", "addr:street": "In der S\u00fcrst 1", "addr:city": "Bonn", "addr:country": "DE", "name": "Vapiano", "phone": "+49(0)22897661219", "website": "https://us.vapiano.com//en/restaurants/vapiano-bonn-2-in-der-suerst-1-1/", "brand": "Vapiano", "brand:wikidata": "Q506252", "nsi_id": "vapiano-2fabb0"}, "geometry": {"type": "Point", "coordinates": [7.098944, 50.733332]}},
{"type": "Feature", "id": "x1Lg8qzWqHZjbCKi_APVW5fo8dY=", "properties": {"ref": "Vapiano Bonn Ollenhauerstra\u00dfe", "@spider": "vapiano_us", "amenity": "restaurant", "cuisine": "italian", "addr:full": "Bonn Ollenhauerstrasse 1, 53113", "addr:street": "Ollenhauerstrasse 1", "addr:city": "Bonn", "addr:country": "DE", "name": "Vapiano", "phone": "+49 (0)2286290606", "website": "https://us.vapiano.com//en/restaurants/vapiano-bonn-ollenhauerstrasse-1-1/", "brand": "Vapiano", "brand:wikidata": "Q506252", "nsi_id": "vapiano-2fabb0"}, "geometry": {"type": "Point", "coordinates": [7.12713, 50.71021]}},
{"type": "Feature", "id": "9eLVj92SjrzliBtEYyA9OGGWwJ0=", "properties": {"ref": "Vapiano Braunschweig Ritterbrunnen", "@spider": "vapiano_us", "amenity": "restaurant", "cuisine": "italian", "addr:full": "Braunschweig Ritterbrunnen 4, 38100", "addr:street": "Ritterbrunnen 4", "addr:city": "Braunschweig", "addr:country": "DE", "name": "Vapiano", "phone": "+49 (0)5313902826", "website": "https://us.vapiano.com//en/restaurants/vapiano-braunschweig-ritterbrunnen-4-1/", "brand": "Vapiano", "brand:wikidata": "Q506252", "nsi_id": "vapiano-2fabb0"}, "geometry": {"type": "Point", "coordinates": [10.527851, 52.264857]}},
{"type": "Feature", "id": "0o5ApX1DVTuIqJZ7efzg2WG542w=", "properties": {"ref": "Vapiano Bremen Knochenhauerstrasse", "@spider": "vapiano_us", "amenity": "restaurant", "cuisine": "italian", "addr:full": "Bremen Knochenhauerstrasse 16-17, 28195", "addr:street": "Knochenhauerstrasse 16-17", "addr:city": "Bremen", "addr:country": "DE", "name": "Vapiano", "phone": "+49 (0)4211683847", "website": "https://us.vapiano.com//en/restaurants/vapiano-bremen-knochenhauerstrasse-16-17-1/", "brand": "Vapiano", "brand:wikidata": "Q506252", "nsi_id": "vapiano-2fabb0"}, "geometry": {"type": "Point", "coordinates": [8.80712, 53.07879]}},
{"type": "Feature", "id": "r4DGfVvyYxqZkJejQ09GaUwoi6k=", "properties": {"ref": "Vapiano Budapest Alkot\u00e1s \u00fat Mom Park", "@spider": "vapiano_us", "amenity": "restaurant", "cuisine": "italian", "addr:full": "Budapest Alkot\u00e1s \u00fat 53, 1123", "addr:street": "Alkot\u00e1s \u00fat 53", "addr:city": "Budapest", "addr:country": "HU", "name": "Vapiano", "phone": "+36 1710 1790", "website": "https://us.vapiano.com//en/restaurants/vapiano-mom-park-alkotas-ut-53-1/", "brand": "Vapiano", "brand:wikidata": "Q506252", "nsi_id": "vapiano-2fabb0"}, "geometry": {"type": "Point", "coordinates": [19.02392, 47.49073]}},
{"type": "Feature", "id": "xiHhjKNGWGKyu57STmDMpbzGo8s=", "properties": {"ref": "Vapiano Budapest B\u00e9csi Corner", "@spider": "vapiano_us", "amenity": "restaurant", "cuisine": "italian", "addr:full": "Budapest B\u00e9csi Corner, 1023", "addr:street": "B\u00e9csi Corner", "addr:city": "Budapest", "addr:country": "HU", "name": "Vapiano", "phone": "+36 33 60 610", "website": "https://us.vapiano.com//en/restaurants/vapiano-becsi-corner-becsi-corner-1/", "brand": "Vapiano", "brand:wikidata": "Q506252", "nsi_id": "vapiano-2fabb0"}, "geometry": {"type": "Point", "coordinates": [18.97842, 47.59599]}},
{"type": "Feature", "id": "oJwVZLK07ySCzN2WBDomcaKgOMk=", "properties": {"ref": "Vapiano Budapest Fashion Street", "@spider": "vapiano_us", "amenity": "restaurant", "cuisine": "italian", "addr:full": "Budapest Fahion Street B\u00e9csi Utca 5., 1052", "addr:street": "Fahion Street B\u00e9csi Utca 5.", "addr:city": "Budapest", "addr:country": "HU", "name": "Vapiano", "phone": "+36 14 11 08 64", "website": "https://us.vapiano.com//en/restaurants/vapiano-fashion-street-fahion-street-becsi-utca-5-1/", "brand": "Vapiano", "brand:wikidata": "Q506252", "nsi_id": "vapiano-2fabb0"}, "geometry": {"type": "Point", "coordinates": [19.05218, 47.49635]}},
{"type": "Feature", "id": "W-UwAr92fK6xLnjhzlnkMZiAdYQ=", "properties": {"ref": "Vapiano Budapest Westend", "@spider": "vapiano_us", "amenity": "restaurant", "cuisine": "italian", "addr:full": "Budapest V\u00e1ci \u00fat. 1-3, 1062", "addr:street": "V\u00e1ci \u00fat. 1-3", "addr:city": "Budapest", "addr:country": "HU", "name": "Vapiano", "phone": "+36 1 237 0055", "website": "https://us.vapiano.com//en/restaurants/vapiano-westend-vaci-ut-1-3-1/", "brand": "Vapiano", "brand:wikidata": "Q506252", "nsi_id": "vapiano-2fabb0"}, "geometry": {"type": "Point", "coordinates": [19.057582, 47.512275]}},
{"type": "Feature", "id": "6WFdUy31h_rgYTG3EvjZctEUgRE=", "properties": {"ref": "Vapiano C.C. DIAGONAL MAR", "@spider": "vapiano_us", "amenity": "restaurant", "cuisine": "italian", "addr:full": "Barcelona Avinguda Diagonal, 3, 08019", "addr:street": "Avinguda Diagonal, 3", "addr:city": "Barcelona", "addr:country": "Spanien", "name": "Vapiano", "phone": "+93 3563930", "website": "https://us.vapiano.com//en/restaurants/vapiano-cc-diagonal-mar-barcelona/", "brand": "Vapiano", "brand:wikidata": "Q506252", "nsi_id": "vapiano-2fabb0"}, "geometry": {"type": "Point", "coordinates": [2.216584, 41.409761]}},
{"type": "Feature", "id": "OXbc1NTqOxrilQz2oCc5_KnkT1c=", "properties": {"ref": "Vapiano Cairo", "@spider": "vapiano_us", "amenity": "restaurant", "cuisine": "italian", "addr:full": "Kairo Cairo Festival City, the village, level 2, 11835", "addr:street": "Cairo Festival City, the village, level 2", "addr:city": "Kairo", "addr:country": "\u00c4gypten", "name": "Vapiano", "phone": "01066481091", "website": "https://us.vapiano.com//en/restaurants/vapiano-cfc-cairo-5th-settelment/", "brand": "Vapiano", "brand:wikidata": "Q506252", "nsi_id": "vapiano-2fabb0"}, "geometry": {"type": "Point", "coordinates": [31.409554, 30.028514]}},
{"type": "Feature", "id": "KOF2xFIe28QDLY6T3PwyH6JANKA=", "properties": {"ref": "Vapiano Carso", "@spider": "vapiano_us", "amenity": "restaurant", "cuisine": "italian", "addr:full": " Lago Zurich #245., 11590", "addr:street": "Lago Zurich #245.", "addr:country": "MX", "name": "Vapiano", "phone": "9135 7023", "website": "https://us.vapiano.com//en/restaurants/vapiano-carso-mig-de-cervantes-saavedra-303/", "brand": "Vapiano", "brand:wikidata": "Q506252", "nsi_id": "vapiano-2fabb0"}, "geometry": {"type": "Point", "coordinates": [-99.17745, 19.43266]}},
{"type": "Feature", "id": "RpkcAX34D6jp6qtQRNDsCQtoXP4=", "properties": {"ref": "Vapiano Charlotte", "@spider": "vapiano_us", "amenity": "restaurant", "cuisine": "italian", "addr:full": "Charlotte 201 S. Tryon Street, NC 28202", "addr:street": "201 S. Tryon Street", "addr:city": "Charlotte", "addr:country": "US", "name": "Vapiano", "phone": "+1 704-332-2440", "website": "https://us.vapiano.com//en/restaurants/vapiano-charlotte-201-s-tryon-street-1/", "brand": "Vapiano", "brand:wikidata": "Q506252", "nsi_id": "vapiano-2fabb0"}, "geometry": {"type": "Point", "coordinates": [-80.84431, 35.22625]}},
{"type": "Feature", "id": "sh4XWDxCjsbktlcEO7nfOhqgW5A=", "properties": {"ref": "Vapiano Chemnitz Strasse der Nationen", "@spider": "vapiano_us", "amenity": "restaurant", "cuisine": "italian", "addr:full": "Chemnitz Strasse der Nationen 12, 09111", "addr:street": "Strasse der Nationen 12", "addr:city": "Chemnitz", "addr:country": "DE", "name": "Vapiano", "phone": "+49 (0) 371 3559 7301", "website": "https://us.vapiano.com//en/restaurants/vapiano-chemnitz-strasse-der-nationen-12-1/", "brand": "Vapiano", "brand:wikidata": "Q506252", "nsi_id": "vapiano-2fabb0"}, "geometry": {"type": "Point", "coordinates": [12.92398, 50.833887]}},
{"type": "Feature", "id": "ZMNXfKjFJSjuxZ2TSxi9ehyaTAU=", "properties": {"ref": "Vapiano Chessy Disney Village", "@spider": "vapiano_us", "amenity": "restaurant", "cuisine": "italian", "addr:full": "Chessy Avenue Paul Seramy, 77700", "addr:street": "Avenue Paul Seramy", "addr:city": "Chessy", "addr:country": "FR", "name": "Vapiano", "phone": "+33184148382", "website": "https://us.vapiano.com//en/restaurants/detail/restaurant-details/-f4991f4a49/", "brand": "Vapiano", "brand:wikidata": "Q506252", "nsi_id": "vapiano-2fabb0"}, "geometry": {"type": "Point", "coordinates": [2.785711, 48.865659]}},
{"type": "Feature", "id": "tJyO4VsgxNpbpZhb2W3eySVL9ek=", "properties": {"ref": "Vapiano Chicago Loop", "@spider": "vapiano_us", "amenity": "restaurant", "cuisine": "italian", "addr:full": "Chicago 44 S Wabash Avenue, IL 60603", "addr:street": "44 S Wabash Avenue", "addr:city": "Chicago", "addr:country": "US", "name": "Vapiano", "phone": "312 384 1960", "website": "https://us.vapiano.com//en/restaurants/vapiano-chicago-loop-44-s-wabash-avenue-1/", "brand": "Vapiano", "brand:wikidata": "Q506252", "nsi_id": "vapiano-2fabb0"}, "geometry": {"type": "Point", "coordinates": [-87.62668, 41.88114]}},
{"type": "Feature", "id": "HwrkChvqC1e5nzRgmN207hXrMYo=", "properties": {"ref": "Vapiano Chicago Riverside", "@spider": "vapiano_us", "amenity": "restaurant", "cuisine": "italian", "addr:full": "Chicago 222 S Riverside Plaza, IL 60606", "addr:street": "222 S Riverside Plaza", "addr:city": "Chicago", "addr:country": "US", "name": "Vapiano", "phone": "312 631 3336", "website": "https://us.vapiano.com//en/restaurants/detail/restaurant-details/-38c66fded5/", "brand": "Vapiano", "brand:wikidata": "Q506252", "nsi_id": "vapiano-2fabb0"}, "geometry": {"type": "Point", "coordinates": [-87.638678, 41.878523]}},
{"type": "Feature", "id": "pibE1mlKiBO53A-8YyLPkGZxZlQ=", "properties": {"ref": "Vapiano Chinatown", "@spider": "vapiano_us", "amenity": "restaurant", "cuisine": "italian", "addr:full": "Washington 623-625 H Street N.W, DC 20001", "addr:street": "623-625 H Street N.W", "addr:city": "Washington", "addr:country": "US", "name": "Vapiano", "phone": "+1 202-621-7636", "website": "https://us.vapiano.com//en/restaurants/vapiano-linz-hauptplatzschmidtorstrasse-1/", "brand": "Vapiano", "brand:wikidata": "Q506252", "nsi_id": "vapiano-2fabb0"}, "geometry": {"type": "Point", "coordinates": [-77.021122, 38.899895]}},
{"type": "Feature", "id": "g87CB90qWJgcQbKyXTW2C8Yx5tY=", "properties": {"ref": "Vapiano Colombia", "@spider": "vapiano_us", "amenity": "restaurant", "cuisine": "italian", "addr:full": "Bogot\u00e1 Cra. 12a #83-11, ", "addr:street": "Cra. 12a #83-11", "addr:city": "Bogot\u00e1", "addr:country": "CO", "name": "Vapiano", "phone": "57 (1) 2183165", "website": "https://us.vapiano.com//en/restaurants/detail/restaurant-details/-f4f80065a0/", "brand": "Vapiano", "brand:wikidata": "Q506252", "nsi_id": "vapiano-2fabb0"}, "geometry": {"type": "Point", "coordinates": [-74.053954, 4.66749]}},
{"type": "Feature", "id": "C13TEDom58haDmecpIXbuxqqeyo=", "properties": {"ref": "Vapiano Cr\u00e9teil G\u00e9n\u00e9ral de Gaulle", "@spider": "vapiano_us", "amenity": "restaurant", "cuisine": "italian", "addr:full": "Cr\u00e9teil 101 ave. du G\u00e9n\u00e9ral de Gaulle, 94000", "addr:street": "101 ave. du G\u00e9n\u00e9ral de Gaulle", "addr:city": "Cr\u00e9teil", "addr:country": "FR", "name": "Vapiano", "phone": "+33184145741", "website": "https://us.vapiano.com//en/restaurants/vapiano-creteil-101-ave-du-general-de-gaulle/", "brand": "Vapiano", "brand:wikidata": "Q506252", "nsi_id": "vapiano-2fabb0"}, "geometry": {"type": "Point", "coordinates": [2.456153, 48.77961]}},
{"type": "Feature", "id": "GkO2sdmNO79KzQYUaoZ8G83f28g=", "properties": {"ref": "Vapiano Darmstadt Markthalle im Carree", "@spider": "vapiano_us", "amenity": "restaurant", "cuisine": "italian", "addr:full": "Darmstadt Markthalle im Carree 4a, 64283", "addr:street": "Markthalle im Carree 4a", "addr:city": "Darmstadt", "addr:country": "DE", "name": "Vapiano", "phone": "06151 5010120", "website": "https://us.vapiano.com//en/restaurants/vapiano-darmstadt-2-markthalle-im-carree-4a/", "brand": "Vapiano", "brand:wikidata": "Q506252", "nsi_id": "vapiano-2fabb0"}, "geometry": {"type": "Point", "coordinates": [8.653024, 49.872082]}},
{"type": "Feature", "id": "nf9MAycBlSu5uqXR4zSk9N4OdSc=", "properties": {"ref": "Vapiano Darmstadt Rheinstrasse\u00a0", "@spider": "vapiano_us", "amenity": "restaurant", "cuisine": "italian", "addr:full": "Darmstadt Rheinstrasse 103, 64295", "addr:street": "Rheinstrasse 103", "addr:city": "Darmstadt", "addr:country": "DE", "name": "Vapiano", "phone": "+49 (0)61516675666", "website": "https://us.vapiano.com//en/restaurants/vapiano-darmstadt-rheinstrasse-103-1/", "brand": "Vapiano", "brand:wikidata": "Q506252", "nsi_id": "vapiano-2fabb0"}, "geometry": {"type": "Point", "coordinates": [8.63299, 49.8702]}},
{"type": "Feature", "id": "bgfC5Ir7maXsyOQH4WoxYj5hndo=", "properties": {"ref": "Vapiano den Haag Buitenhof", "@spider": "vapiano_us", "amenity": "restaurant", "cuisine": "italian", "addr:full": "Den Haag Buitenhof 45-51, 2513", "addr:street": "Buitenhof 45-51", "addr:city": "Den Haag", "addr:country": "Holland", "name": "Vapiano", "phone": "+31 (70) 365 06 87", "website": "https://us.vapiano.com//en/restaurants/vapiano-den-haag-buitenhof-45-51-1/", "brand": "Vapiano", "brand:wikidata": "Q506252", "nsi_id": "vapiano-2fabb0"}, "geometry": {"type": "Point", "coordinates": [4.30945, 52.0791]}},
{"type": "Feature", "id": "u93k0Wjhk-r0ZOG6WJO7eIbafEw=", "properties": {"ref": "Vapiano Donauzentrum", "@spider": "vapiano_us", "amenity": "restaurant", "cuisine": "italian", "addr:full": "Wien Wagramer Stra\u00dfe 79, Top 609a, A-1220", "addr:street": "Wagramer Stra\u00dfe 79, Top 609a", "addr:city": "Wien", "addr:country": "\u00d6sterreich", "name": "Vapiano", "phone": "+43 1 388 8585", "website": "https://us.vapiano.com//en/restaurants/detail/restaurant-details/-1cc592f04e/", "brand": "Vapiano", "brand:wikidata": "Q506252", "nsi_id": "vapiano-2fabb0"}, "geometry": {"type": "Point", "coordinates": [16.43368, 48.2417]}},
{"type": "Feature", "id": "1e5DMsmEKMPEJ99-IVGp1zhQ0Ow=", "properties": {"ref": "Vapiano Dortmund Silberstrasse", "@spider": "vapiano_us", "amenity": "restaurant", "cuisine": "italian", "addr:full": "Dortmund Silberstrasse 22, 44137", "addr:street": "Silberstrasse 22", "addr:city": "Dortmund", "addr:country": "DE", "name": "Vapiano", "phone": "+49 (0)2311206362", "website": "https://us.vapiano.com//en/restaurants/vapiano-dortmund-1-silberstrasse-22-1/", "brand": "Vapiano", "brand:wikidata": "Q506252", "nsi_id": "vapiano-2fabb0"}, "geometry": {"type": "Point", "coordinates": [7.463094, 51.51282]}},
{"type": "Feature", "id": "zkIS_q6WmG9txPkZBIpfroTmRUA=", "properties": {"ref": "Vapiano Dresden", "@spider": "vapiano_us", "amenity": "restaurant", "cuisine": "italian", "addr:full": "Dresden Sch\u00f6ssergasse 14, 01067", "addr:street": "Sch\u00f6ssergasse 14", "addr:city": "Dresden", "addr:country": "DE", "name": "Vapiano", "phone": "035185243043", "website": "https://us.vapiano.com//en/restaurants/vapiano-dresden-2/", "brand": "Vapiano", "brand:wikidata": "Q506252", "nsi_id": "vapiano-2fabb0"}, "geometry": {"type": "Point", "coordinates": [13.738422, 51.051916]}},
{"type": "Feature", "id": "M2OjHTMzqfqE9wAWdRlLBSOLtR0=", "properties": {"ref": "Vapiano Dresden St. Petersburger Strasse", "@spider": "vapiano_us", "amenity": "restaurant", "cuisine": "italian", "addr:full": "Dresden St. Petersburger Strasse 26, 01069", "addr:street": "St. Petersburger Strasse 26", "addr:city": "Dresden", "addr:country": "DE", "name": "Vapiano", "phone": "+49 (0)3514824864", "website": "https://us.vapiano.com//en/restaurants/vapiano-dresden-st-petersburger-strasse-26/", "brand": "Vapiano", "brand:wikidata": "Q506252", "nsi_id": "vapiano-2fabb0"}, "geometry": {"type": "Point", "coordinates": [13.73664, 51.0444]}},
{"type": "Feature", "id": "H5E6hm1ONsWoQrMrR9qXm0ISo0I=", "properties": {"ref": "Vapiano Dubai 1", "@spider": "vapiano_us", "amenity": "restaurant", "cuisine": "italian", "addr:full": "Dubai Dubai Media City, UAE", "addr:street": "Dubai Media City", "addr:city": "Dubai", "addr:country": "AE", "name": "Vapiano", "website": "https://us.vapiano.com//en/restaurants/vapiano-dubai-1-dubai-media-city-1/", "brand": "Vapiano", "brand:wikidata": "Q506252", "nsi_id": "vapiano-2fabb0"}, "geometry": {"type": "Point", "coordinates": [55.15759, 25.09614]}},
{"type": "Feature", "id": "ujWoMNmoINf9GYoF-m7jEN6jQQ0=", "properties": {"ref": "Vapiano Dubai 2", "@spider": "vapiano_us", "amenity": "restaurant", "cuisine": "italian", "addr:full": "Dubai Under construction, UAE", "addr:street": "Under construction", "addr:city": "Dubai", "addr:country": "AE", "name": "Vapiano", "website": "https://us.vapiano.com//en/restaurants/vapiano-dubai-2-dubai-malllg-shop-nr92-1/", "brand": "Vapiano", "brand:wikidata": "Q506252", "nsi_id": "vapiano-2fabb0"}, "geometry": {"type": "Point", "coordinates": [55.27757, 25.19957]}},
{"type": "Feature", "id": "hmajgRPgb2u_MZ9lKam_bIOek98=", "properties": {"ref": "Vapiano Duisburg Schifferstrasse", "@spider": "vapiano_us", "amenity": "restaurant", "cuisine": "italian", "addr:full": "Duisburg Schifferstrasse 196, 47059", "addr:street": "Schifferstrasse 196", "addr:city": "Duisburg", "addr:country": "DE", "name": "Vapiano", "phone": "+49 (0)2037139302", "website": "https://us.vapiano.com//en/restaurants/vapiano-duisburg-schifferstrasse-196-1/", "brand": "Vapiano", "brand:wikidata": "Q506252", "nsi_id": "vapiano-2fabb0"}, "geometry": {"type": "Point", "coordinates": [6.776286, 51.442499]}},
{"type": "Feature", "id": "aVfkiYf8oAkX0y7E-2mtaGzq-3E=", "properties": {"ref": "Vapiano D\u00fcsseldorf Hammer Str.", "@spider": "vapiano_us", "amenity": "restaurant", "cuisine": "italian", "addr:full": "D\u00fcsseldorf Hammer Stra\u00dfe 17, 40219", "addr:street": "Hammer Stra\u00dfe 17", "addr:city": "D\u00fcsseldorf", "addr:country": "DE", "name": "Vapiano", "phone": "0211 99433299", "website": "https://us.vapiano.com//en/restaurants/vapiano-duesseldorf-3/", "brand": "Vapiano", "brand:wikidata": "Q506252", "nsi_id": "vapiano-2fabb0"}, "geometry": {"type": "Point", "coordinates": [6.754894, 51.214152]}},
{"type": "Feature", "id": "jRhU6Q8o_RO6IUehkbCyW0nxMeY=", "properties": {"ref": "Vapiano D\u00fcsseldorf Kaiserswerther Strasse", "@spider": "vapiano_us", "amenity": "restaurant", "cuisine": "italian", "addr:full": "D\u00fcsseldorf Kaiserswerther Strasse 229, 40474", "addr:street": "Kaiserswerther Strasse 229", "addr:city": "D\u00fcsseldorf", "addr:country": "DE", "name": "Vapiano", "phone": "+49 (0)21198487868", "website": "https://us.vapiano.com//en/restaurants/vapiano-duesseldorf-2-kaiserwerther-strasse-229-1/", "brand": "Vapiano", "brand:wikidata": "Q506252", "nsi_id": "vapiano-2fabb0"}, "geometry": {"type": "Point", "coordinates": [6.76506, 51.25001]}},
{"type": "Feature", "id": "ANodSGHeUw6GDLGaPaa3nd99qt0=", "properties": {"ref": "Vapiano D\u00fcsseldorf K\u00f6nigsallee", "@spider": "vapiano_us", "amenity": "restaurant", "cuisine": "italian", "addr:full": "D\u00fcsseldorf K\u00f6nigsallee 60d / Gr\u00fcnstra\u00dfe, 40212", "addr:street": "K\u00f6nigsallee 60d / Gr\u00fcnstra\u00dfe", "addr:city": "D\u00fcsseldorf", "addr:country": "Deutschland", "name": "Vapiano", "phone": "0211/ 868 141 25", "website": "https://us.vapiano.com//en/restaurants/detail/restaurant-details/-53d8c8328d/", "brand": "Vapiano", "brand:wikidata": "Q506252", "nsi_id": "vapiano-2fabb0"}, "geometry": {"type": "Point", "coordinates": [6.779779, 51.222133]}},
{"type": "Feature", "id": "FTMEqZ7m6wSelKYUywqyqkMbuZo=", "properties": {"ref": "Vapiano D\u00fcsseldorf Martin-Luther-Platz\u00a0", "@spider": "vapiano_us", "amenity": "restaurant", "cuisine": "italian", "addr:full": "D\u00fcsseldorf Martin-Luther-Platz 28, 40212", "addr:street": "Martin-Luther-Platz 28", "addr:city": "D\u00fcsseldorf", "addr:country": "DE", "name": "Vapiano", "phone": "+49 (0)2116173366", "website": "https://us.vapiano.com//en/restaurants/vapiano-duesseldorf-1-martin-luther-platz-28-1/", "brand": "Vapiano", "brand:wikidata": "Q506252", "nsi_id": "vapiano-2fabb0"}, "geometry": {"type": "Point", "coordinates": [6.78179, 51.224796]}},
{"type": "Feature", "id": "xp2J-YReuUciNq6n3uo8UEPsjwg=", "properties": {"ref": "Vapiano East Side Mall", "@spider": "vapiano_us", "amenity": "restaurant", "cuisine": "italian", "addr:full": "Berlin Tamara-Danz-Stra\u00dfe 11, 10243", "addr:street": "Tamara-Danz-Stra\u00dfe 11", "addr:city": "Berlin", "addr:country": "Deutschland", "name": "Vapiano", "phone": "030/ 27587500", "website": "https://us.vapiano.com//en/restaurants/detail/restaurant-details/-b77e807081/", "brand": "Vapiano", "brand:wikidata": "Q506252", "nsi_id": "vapiano-2fabb0"}, "geometry": {"type": "Point", "coordinates": [13.44683, 52.50553]}},
{"type": "Feature", "id": "YaOSgjrOmJMzOxAG1a7qdKd_sJE=", "properties": {"ref": "Vapiano Edinburgh", "@spider": "vapiano_us", "amenity": "restaurant", "cuisine": "italian", "addr:full": "Edinburgh 7 South St David Street, EH2 2BD", "addr:street": "7 South St David Street", "addr:city": "Edinburgh", "addr:postcode": "EH2 2BD", "addr:country": "GB", "name": "Vapiano", "phone": "0044 131 285 6123", "website": "https://us.vapiano.com//en/restaurants/detail/restaurant-details/-c8dbc14c29/", "brand": "Vapiano", "brand:wikidata": "Q506252", "nsi_id": "vapiano-2fabb0"}, "geometry": {"type": "Point", "coordinates": [-3.193375, 55.95309]}},
{"type": "Feature", "id": "8qFMDMQJyFD_oRblh_bcsQxwgrU=", "properties": {"ref": "Vapiano Eindhoven Heuvel Galerie", "@spider": "vapiano_us", "amenity": "restaurant", "cuisine": "italian", "addr:full": "Eindhoven Heuvel Galerie 198, 5611 DK", "addr:street": "Heuvel Galerie 198", "addr:city": "Eindhoven", "addr:country": "Holland", "name": "Vapiano", "phone": "+31 (0) 407602070", "website": "https://us.vapiano.com//en/restaurants/vapiano-eindhoven-1-heuvelgalerie-198/", "brand": "Vapiano", "brand:wikidata": "Q506252", "nsi_id": "vapiano-2fabb0"}, "geometry": {"type": "Point", "coordinates": [5.479499, 51.439654]}},
{"type": "Feature", "id": "YHHZv9aqkz11oVSYYI7JeLWsOpk=", "properties": {"ref": "Vapiano Emporia", "@spider": "vapiano_us", "amenity": "restaurant", "cuisine": "italian", "addr:full": "Malm\u00f6 Hyllie Boulevard 19, 215 32", "addr:street": "Hyllie Boulevard 19", "addr:city": "Malm\u00f6", "addr:country": "SE", "name": "Vapiano", "phone": "+46 (0) 40 64 39 540", "website": "https://us.vapiano.com//en/restaurants/vapiano-emporia-hyllie-boulevard-19-1/", "brand": "Vapiano", "brand:wikidata": "Q506252", "nsi_id": "vapiano-2fabb0"}, "geometry": {"type": "Point", "coordinates": [12.97462, 55.56362]}},
{"type": "Feature", "id": "n3T7FeQZSPvIy86c4KCDl_VxAE8=", "properties": {"ref": "Vapiano Essen Rathenaustrasse", "@spider": "vapiano_us", "amenity": "restaurant", "cuisine": "italian", "addr:full": "Essen Rathenaustrasse 2, 45127", "addr:street": "Rathenaustrasse 2", "addr:city": "Essen", "addr:country": "DE", "name": "Vapiano", "phone": "+49 (0)2012486567", "website": "https://us.vapiano.com//en/restaurants/vapiano-essen-rathenaustrasse-2-1/", "brand": "Vapiano", "brand:wikidata": "Q506252", "nsi_id": "vapiano-2fabb0"}, "geometry": {"type": "Point", "coordinates": [7.012169, 51.45403]}},
{"type": "Feature", "id": "fDlXr9WSC7QoPfOgB7V_y9r_93M=", "properties": {"ref": "Vapiano Essen R\u00fcttenscheider Str.", "@spider": "vapiano_us", "amenity": "restaurant", "cuisine": "italian", "addr:full": "Essen R\u00fcttenscheider Str. 149, 45130", "addr:street": "R\u00fcttenscheider Str. 149", "addr:city": "Essen", "addr:country": "Deutschland", "name": "Vapiano", "phone": "0201/ 87917635", "website": "https://us.vapiano.com//en/restaurants/detail/restaurant-details/-8d18fa8b08/", "brand": "Vapiano", "brand:wikidata": "Q506252", "nsi_id": "vapiano-2fabb0"}, "geometry": {"type": "Point", "coordinates": [7.005069, 51.434252]}},
{"type": "Feature", "id": "bFP-p57FlK7hgNDIV5-rnzTqQaw=", "properties": {"ref": "Vapiano Foorum Tallinn", "@spider": "vapiano_us", "amenity": "restaurant", "cuisine": "italian", "addr:full": "Tallinn Hobujaama 10, 10151", "addr:street": "Hobujaama 10", "addr:city": "Tallinn", "addr:country": "EE", "name": "Vapiano", "phone": "+37 2 682 9010", "website": "https://us.vapiano.com//en/restaurants/detail/restaurant-details/-a7a6806bef/", "brand": "Vapiano", "brand:wikidata": "Q506252", "nsi_id": "vapiano-2fabb0"}, "geometry": {"type": "Point", "coordinates": [24.759, 59.43867]}},
{"type": "Feature", "id": "8Ixm6ftj_oHAY8eW6ZIXbFjKno8=", "properties": {"ref": "Vapiano Frankfurt Bockenheimer", "@spider": "vapiano_us", "amenity": "restaurant", "cuisine": "italian", "addr:full": "Frankfurt am Main Bockenheimer Landstrasse 24, 60323", "addr:street": "Bockenheimer Landstrasse 24", "addr:city": "Frankfurt am Main", "addr:country": "DE", "name": "Vapiano", "phone": "+49 (0)6971033647", "website": "https://us.vapiano.com//en/restaurants/vapiano-frankfurt-2-bockenheimer-landstrasse-24-1/", "brand": "Vapiano", "brand:wikidata": "Q506252", "nsi_id": "vapiano-2fabb0"}, "geometry": {"type": "Point", "coordinates": [8.66668, 50.11728]}},
{"type": "Feature", "id": "8iTAvW2AsqRRwFAhwTpMVDTa6v4=", "properties": {"ref": "Vapiano Frankfurt Goetheplatz", "@spider": "vapiano_us", "amenity": "restaurant", "cuisine": "italian", "addr:full": "Frankfurt Goetheplatz 1-3, 60313", "addr:street": "Goetheplatz 1-3", "addr:city": "Frankfurt", "addr:country": "DE", "name": "Vapiano", "phone": "+49 (0)6992887888", "website": "https://us.vapiano.com//en/restaurants/vapiano-frankfurt-1-goetheplatz-1-3-1/", "brand": "Vapiano", "brand:wikidata": "Q506252", "nsi_id": "vapiano-2fabb0"}, "geometry": {"type": "Point", "coordinates": [8.67584, 50.11283]}},
{"type": "Feature", "id": "R2NY5pgNAw9c2-udt_buWClECxE=", "properties": {"ref": "Vapiano Frankfurt Hanauer", "@spider": "vapiano_us", "amenity": "restaurant", "cuisine": "italian", "addr:full": "Frankfurt Hanauer Landstrasse 150, 60314", "addr:street": "Hanauer Landstrasse 150", "addr:city": "Frankfurt", "addr:country": "DE", "name": "Vapiano", "phone": "+49 (0)6940565758", "website": "https://us.vapiano.com//en/restaurants/vapiano-frankfurt-3-hanauer-landstrasse-150-1/", "brand": "Vapiano", "brand:wikidata": "Q506252", "nsi_id": "vapiano-2fabb0"}, "geometry": {"type": "Point", "coordinates": [8.71836, 50.11308]}},
{"type": "Feature", "id": "bUA0HvOG4_J_zFYG8x9c8kusRqY=", "properties": {"ref": "Vapiano Freiburg Quartier am Fahnenbergplatz", "@spider": "vapiano_us", "amenity": "restaurant", "cuisine": "italian", "addr:full": "Freiburg im Breisgau Quartier am Fahnenbergplatz, 79098", "addr:street": "Quartier am Fahnenbergplatz", "addr:city": "Freiburg im Breisgau", "addr:country": "DE", "name": "Vapiano", "phone": "+49 (0)76128538010", "website": "https://us.vapiano.com//en/restaurants/vapiano-freiburg-quartier-am-fahnenbergplatz-1/", "brand": "Vapiano", "brand:wikidata": "Q506252", "nsi_id": "vapiano-2fabb0"}, "geometry": {"type": "Point", "coordinates": [7.847872, 47.998016]}},
{"type": "Feature", "id": "crD6SswBLGePogFgiI68OGtW4a8=", "properties": {"ref": "Vapiano Fribourg Rue Saint-Pierre", "@spider": "vapiano_us", "amenity": "restaurant", "cuisine": "italian", "addr:full": "Fribourg Rue Saint-Pierre 6, 1700", "addr:street": "Rue Saint-Pierre 6", "addr:city": "Fribourg", "addr:country": "CH", "name": "Vapiano", "phone": "+41 26 321 47 80", "website": "https://us.vapiano.com//en/restaurants/vapiano-fribourg-rue-saint-pierre-6/", "brand": "Vapiano", "brand:wikidata": "Q506252", "nsi_id": "vapiano-2fabb0"}, "geometry": {"type": "Point", "coordinates": [7.1551, 46.80371]}},
{"type": "Feature", "id": "zEKmdBf6FzTT2QzH8DycPQPKLf8=", "properties": {"ref": "Vapiano F\u00fcrth Poppenreuther Stra\u00dfe", "@spider": "vapiano_us", "amenity": "restaurant", "cuisine": "italian", "addr:full": "F\u00fcrth Poppenreuther Str. 50, 90765", "addr:street": "Poppenreuther Str. 50", "addr:city": "F\u00fcrth", "addr:country": "DE", "name": "Vapiano", "phone": "+49 (0) 911 75 66 39 10", "website": "https://us.vapiano.com//en/restaurants/vapiano-fuerth-1/", "brand": "Vapiano", "brand:wikidata": "Q506252", "nsi_id": "vapiano-2fabb0"}, "geometry": {"type": "Point", "coordinates": [11.00452, 49.481114]}},
{"type": "Feature", "id": "Z39jRkd5IlhMNdJlpV84B76ooBI=", "properties": {"ref": "Vapiano Gamla Stan", "@spider": "vapiano_us", "amenity": "restaurant", "cuisine": "italian", "addr:full": "Stockholm Munkbrogatan 8, 111 27", "addr:street": "Munkbrogatan 8", "addr:city": "Stockholm", "addr:country": "SE", "name": "Vapiano", "phone": "+46 (0) 8 222 940", "website": "https://us.vapiano.com//en/restaurants/vapiano-gamla-stan-munkbrogatan-8-1/", "brand": "Vapiano", "brand:wikidata": "Q506252", "nsi_id": "vapiano-2fabb0"}, "geometry": {"type": "Point", "coordinates": [18.06802, 59.32341]}},
{"type": "Feature", "id": "aRHBUyxzbJ56Fu6I2723YaJGtLc=", "properties": {"ref": "Vapiano Gen\u00e8ve Place Saint-Gervais", "@spider": "vapiano_us", "amenity": "restaurant", "cuisine": "italian", "addr:full": "Gen\u00e8ve Place Saint-Gervais 3, CH-1201", "addr:street": "Place Saint-Gervais 3", "addr:city": "Gen\u00e8ve", "addr:country": "CH", "name": "Vapiano", "phone": "+41223013232", "website": "https://us.vapiano.com//en/restaurants/detail/restaurant-details/-3f268c9140/", "brand": "Vapiano", "brand:wikidata": "Q506252", "nsi_id": "vapiano-2fabb0"}, "geometry": {"type": "Point", "coordinates": [6.14244, 46.20612]}},
{"type": "Feature", "id": "bRNEkOL6ydDza4NTFMiGNgGbo-g=", "properties": {"ref": "Vapiano G\u00f6ttingen Weender Landstrasse", "@spider": "vapiano_us", "amenity": "restaurant", "cuisine": "italian", "addr:full": "G\u00f6ttingen Weender Landstrasse 1, 37073", "addr:street": "Weender Landstrasse 1", "addr:city": "G\u00f6ttingen", "addr:country": "DE", "name": "Vapiano", "phone": "+49 (0)5515008000", "website": "https://us.vapiano.com//en/restaurants/vapiano-goettingen-weender-landstrasse-1-1/", "brand": "Vapiano", "brand:wikidata": "Q506252", "nsi_id": "vapiano-2fabb0"}, "geometry": {"type": "Point", "coordinates": [9.93375, 51.53768]}},
{"type": "Feature", "id": "wwgzOUcSmxq3D1AChioZ6DrEWos=", "properties": {"ref": "Vapiano Gran Via", "@spider": "vapiano_us", "amenity": "restaurant", "cuisine": "italian", "addr:full": "Barcelona Gran Via de les Corts Catalanes 630, 8007", "addr:street": "Gran Via de les Corts Catalanes 630", "addr:city": "Barcelona", "addr:country": "ES", "name": "Vapiano", "website": "https://us.vapiano.com//en/restaurants/detail/restaurant-details/-52b3fa24f6/", "brand": "Vapiano", "brand:wikidata": "Q506252", "nsi_id": "vapiano-2fabb0"}, "geometry": {"type": "Point", "coordinates": [2.1677, 41.38866]}},
{"type": "Feature", "id": "Ni2AL1-fAliFB_WPC8ETL5Ad0CE=", "properties": {"ref": "Vapiano Graz 2", "@spider": "vapiano_us", "amenity": "restaurant", "cuisine": "italian", "addr:full": "Graz Murpark Graz, Ostbahnstra\u00dfe 3, A-8041", "addr:street": "Murpark Graz, Ostbahnstra\u00dfe 3", "addr:city": "Graz", "addr:country": "\u00d6sterreich", "name": "Vapiano", "phone": "+43 316 418181", "website": "https://us.vapiano.com//en/restaurants/detail/restaurant-details/-ef66b4bc0b/", "brand": "Vapiano", "brand:wikidata": "Q506252", "nsi_id": "vapiano-2fabb0"}, "geometry": {"type": "Point", "coordinates": [15.46218, 47.04075]}},
{"type": "Feature", "id": "Gs_7g2M9hR154IMU1ok8kzarc3E=", "properties": {"ref": "Vapiano Graz Sparkassenplatz", "@spider": "vapiano_us", "amenity": "restaurant", "cuisine": "italian", "addr:full": " Sparkassenplatz 4, A-8010", "addr:street": "Sparkassenplatz 4", "addr:country": "AT", "name": "Vapiano", "phone": "+ 43 (0) 316 839 898", "website": "https://us.vapiano.com//en/restaurants/vapiano-graz-sparkassenplatz-4/", "brand": "Vapiano", "brand:wikidata": "Q506252", "nsi_id": "vapiano-2fabb0"}, "geometry": {"type": "Point", "coordinates": [15.437432, 47.069611]}},
{"type": "Feature", "id": "OZwaeoAyC0aAO0YvKvhUrqGFVtk=", "properties": {"ref": "Vapiano Groningen Nieuwe Markt", "@spider": "vapiano_us", "amenity": "restaurant", "cuisine": "italian", "addr:full": "Groningen Poelestraat 16 - 18, 9712 KA", "addr:street": "Poelestraat 16 - 18", "addr:city": "Groningen", "addr:country": "Niederlande", "name": "Vapiano", "phone": "+31 (0) 50 760 1880", "website": "https://us.vapiano.com//en/restaurants/detail/restaurant-details/-addc6f0755/", "brand": "Vapiano", "brand:wikidata": "Q506252", "nsi_id": "vapiano-2fabb0"}, "geometry": {"type": "Point", "coordinates": [6.569783, 53.218341]}},
{"type": "Feature", "id": "su-ymtvSOYyzcjImDY015mi7ADI=", "properties": {"ref": "Vapiano Hagen Elbersufer /M\u00e4rkischer Ring", "@spider": "vapiano_us", "amenity": "restaurant", "cuisine": "italian", "addr:full": "Hagen Elbersufer 1/M\u00e4rkischer Ring88, 58095", "addr:street": "Elbersufer 1/M\u00e4rkischer Ring88", "addr:city": "Hagen", "addr:country": "DE", "name": "Vapiano", "phone": "+49 (0)23312044751", "website": "https://us.vapiano.com//en/restaurants/vapiano-hagen-elbersufer-1maerkischer-ring88-1/", "brand": "Vapiano", "brand:wikidata": "Q506252", "nsi_id": "vapiano-2fabb0"}, "geometry": {"type": "Point", "coordinates": [7.47844, 51.35842]}},
{"type": "Feature", "id": "ZMtd_RTFb1OMATBoqSZ6zVlDvqc=", "properties": {"ref": "Vapiano Hamburg G\u00e4nsemarkt", "@spider": "vapiano_us", "amenity": "restaurant", "cuisine": "italian", "addr:full": "Hamburg G\u00e4nsemarkt 24, 20354", "addr:street": "G\u00e4nsemarkt 24", "addr:city": "Hamburg", "addr:country": "DE", "name": "Vapiano", "phone": "040-3501 8940", "website": "https://us.vapiano.com//en/restaurants/vapiano-hamburg-gaensemarkt/", "brand": "Vapiano", "brand:wikidata": "Q506252", "nsi_id": "vapiano-2fabb0"}, "geometry": {"type": "Point", "coordinates": [9.988312, 53.554777]}},
{"type": "Feature", "id": "zSuylGDLbmy6f3pcq9gplpmHgIA=", "properties": {"ref": "Vapiano Hamburg Kurze M\u00fchren", "@spider": "vapiano_us", "amenity": "restaurant", "cuisine": "italian", "addr:full": "Hamburg Kurze M\u00fchren 20, 20095", "addr:street": "Kurze M\u00fchren 20", "addr:city": "Hamburg", "addr:country": "DE", "name": "Vapiano", "phone": "+49 (0)4030384746", "website": "https://us.vapiano.com//en/restaurants/vapiano-hamburg-3-kurze-muehren-20-1/", "brand": "Vapiano", "brand:wikidata": "Q506252", "nsi_id": "vapiano-2fabb0"}, "geometry": {"type": "Point", "coordinates": [10.00286, 53.55305]}},
{"type": "Feature", "id": "da0cguR0IKvbFqVTu7alCoX0cBY=", "properties": {"ref": "Vapiano Hamburg Neue Gro\u00dfe Bergstrasse", "@spider": "vapiano_us", "amenity": "restaurant", "cuisine": "italian", "addr:full": "Hamburg Neue Gro\u00dfe Bergstrasse 15, 22767", "addr:street": "Neue Gro\u00dfe Bergstrasse 15", "addr:city": "Hamburg", "addr:country": "DE", "name": "Vapiano", "phone": "+49 (0)40 38083344", "website": "https://us.vapiano.com//en/restaurants/vapiano-hamburg-altona/", "brand": "Vapiano", "brand:wikidata": "Q506252", "nsi_id": "vapiano-2fabb0"}, "geometry": {"type": "Point", "coordinates": [9.93942, 53.55178]}},
{"type": "Feature", "id": "4h4GLSvUrySTpaJcdxMuHYDV4bg=", "properties": {"ref": "Vapiano Hamburg Rothenbaum", "@spider": "vapiano_us", "amenity": "restaurant", "cuisine": "italian", "addr:full": "Hamburg Rothenbaumchaussee 76, 20148", "addr:street": "Rothenbaumchaussee 76", "addr:city": "Hamburg", "addr:country": "DE", "name": "Vapiano", "phone": "+49 (0)4036111780", "website": "https://us.vapiano.com//en/restaurants/vapiano-hamburg-2-rothenbaumchaussee-76-1/", "brand": "Vapiano", "brand:wikidata": "Q506252", "nsi_id": "vapiano-2fabb0"}, "geometry": {"type": "Point", "coordinates": [9.98916, 53.57147]}},
{"type": "Feature", "id": "5pYv_DiU_KzYPsYXADUz_jku5Nk=", "properties": {"ref": "Vapiano Hannover Ernst-August-Platz", "@spider": "vapiano_us", "amenity": "restaurant", "cuisine": "italian", "addr:full": "Hannover Ernst-August-Platz 1, 30159", "addr:street": "Ernst-August-Platz 1", "addr:city": "Hannover", "addr:country": "Deutschland", "name": "Vapiano", "phone": "0511 21346070", "website": "https://us.vapiano.com//en/restaurants/detail/restaurant-details/-7c91c41f1b/", "brand": "Vapiano", "brand:wikidata": "Q506252", "nsi_id": "vapiano-2fabb0"}, "geometry": {"type": "Point", "coordinates": [9.735169, 52.374321]}},
{"type": "Feature", "id": "geWiJMo8lNY8oKVoqiBrFKj-fEw=", "properties": {"ref": "Vapiano Hannover Heiliger Strasse", "@spider": "vapiano_us", "amenity": "restaurant", "cuisine": "italian", "addr:full": "Hannover Heiliger Strasse 3, 30159", "addr:street": "Heiliger Strasse 3", "addr:city": "Hannover", "addr:country": "DE", "name": "Vapiano", "phone": "+49(0)51135395988", "website": "https://us.vapiano.com//en/restaurants/vapiano-hannover-heiliger-strasse-3-1/", "brand": "Vapiano", "brand:wikidata": "Q506252", "nsi_id": "vapiano-2fabb0"}, "geometry": {"type": "Point", "coordinates": [9.73537, 52.37427]}},
{"type": "Feature", "id": "RspOztS8_R8oM8IfZc6YtmXxFuE=", "properties": {"ref": "Vapiano Heidelberg Hauptstra\u00dfe", "@spider": "vapiano_us", "amenity": "restaurant", "cuisine": "italian", "addr:full": "Heidelberg Hauptstra\u00dfe 190, 69117", "addr:street": "Hauptstra\u00dfe 190", "addr:city": "Heidelberg", "addr:country": "Deutschland", "name": "Vapiano", "phone": "06221/7180018", "website": "https://us.vapiano.com//en/restaurants/detail/restaurant-details/-616cec5622/", "brand": "Vapiano", "brand:wikidata": "Q506252", "nsi_id": "vapiano-2fabb0"}, "geometry": {"type": "Point", "coordinates": [8.70993, 49.41182]}},
{"type": "Feature", "id": "hdtmQi6jkSDF-FOTnp-7U0ZPdbw=", "properties": {"ref": "Vapiano Heilbronn Kaiserstrasse", "@spider": "vapiano_us", "amenity": "restaurant", "cuisine": "italian", "addr:full": "Heilbronn Kaiserstrasse 27, 74072", "addr:street": "Kaiserstrasse 27", "addr:city": "Heilbronn", "addr:country": "DE", "name": "Vapiano", "phone": "+49 (0)71319199950", "website": "https://us.vapiano.com//en/restaurants/vapiano-heilbronn-kaiserstrasse-27-1/", "brand": "Vapiano", "brand:wikidata": "Q506252", "nsi_id": "vapiano-2fabb0"}, "geometry": {"type": "Point", "coordinates": [9.220849, 49.141924]}},
{"type": "Feature", "id": "oLzYVcQ1kGvATVWWxO9tP8rtZ-Q=", "properties": {"ref": "Vapiano Hildesheim Arnekenstra\u00dfe", "@spider": "vapiano_us", "amenity": "restaurant", "cuisine": "italian", "addr:full": "Hildesheim Arnekenstra\u00dfe 3, 31134", "addr:street": "Arnekenstra\u00dfe 3", "addr:city": "Hildesheim", "addr:country": "DE", "name": "Vapiano", "phone": "+49 (0) 5121 9973110", "website": "https://us.vapiano.com//en/restaurants/vapiano-hildesheim-arnekenstrasse-3-1/", "brand": "Vapiano", "brand:wikidata": "Q506252", "nsi_id": "vapiano-2fabb0"}, "geometry": {"type": "Point", "coordinates": [9.951166, 52.154987]}},
{"type": "Feature", "id": "hwYMI6wWTEjIJCMxS9hhgh0qZDU=", "properties": {"ref": "Vapiano Ingolstadt Am Westpark", "@spider": "vapiano_us", "amenity": "restaurant", "cuisine": "italian", "addr:full": "Ingolstadt Am Westpark 6, 85057", "addr:street": "Am Westpark 6", "addr:city": "Ingolstadt", "addr:country": "DE", "name": "Vapiano", "phone": "+49 (0)84137070877", "website": "https://us.vapiano.com//en/restaurants/vapiano-ingolstadt-am-westpark-6-1/", "brand": "Vapiano", "brand:wikidata": "Q506252", "nsi_id": "vapiano-2fabb0"}, "geometry": {"type": "Point", "coordinates": [11.38911, 48.7756]}},
{"type": "Feature", "id": "n-oVxcAvxr2GeIBC_4L5_tYRZ1o=", "properties": {"ref": "Vapiano Ingolstadt Erni-Singerl-Stra\u00dfe", "@spider": "vapiano_us", "amenity": "restaurant", "cuisine": "italian", "addr:full": "Ingolstadt Erni-Singerl-Str. 1, 85053", "addr:street": "Erni-Singerl-Str. 1", "addr:city": "Ingolstadt", "addr:country": "DE", "name": "Vapiano", "phone": "+49 (0) 841-88188700", "website": "https://us.vapiano.com//en/restaurants/detail/restaurant-details/-b81b38ee39/", "brand": "Vapiano", "brand:wikidata": "Q506252", "nsi_id": "vapiano-2fabb0"}, "geometry": {"type": "Point", "coordinates": [11.440431, 48.758889]}},
{"type": "Feature", "id": "dVh-iq37-ln8x13DdELPbyjihnU=", "properties": {"ref": "Vapiano Innsbruck Bleichenweg", "@spider": "vapiano_us", "amenity": "restaurant", "cuisine": "italian", "addr:full": "Innsbruck Bleichenweg 18, A-6020", "addr:street": "Bleichenweg 18", "addr:city": "Innsbruck", "addr:country": "AT", "name": "Vapiano", "phone": "+43 (0)512342650", "website": "https://us.vapiano.com//en/restaurants/vapiano-innsbruck-1-bleichenweg-18/", "brand": "Vapiano", "brand:wikidata": "Q506252", "nsi_id": "vapiano-2fabb0"}, "geometry": {"type": "Point", "coordinates": [11.43372, 47.26247]}},
{"type": "Feature", "id": "yTS3tPp7cvRPMGECtgqQ0weZWdw=", "properties": {"ref": "Vapiano Innsbruck Leopoldstrasse", "@spider": "vapiano_us", "amenity": "restaurant", "cuisine": "italian", "addr:full": "Innsbruck Leopoldstrasse 1, A-6020", "addr:street": "Leopoldstrasse 1", "addr:city": "Innsbruck", "addr:country": "AT", "name": "Vapiano", "phone": "+ 43 (0) 512 56 73 50", "website": "https://us.vapiano.com//en/restaurants/vapiano-innsbruck-2-leopoldstrasse-1/", "brand": "Vapiano", "brand:wikidata": "Q506252", "nsi_id": "vapiano-2fabb0"}, "geometry": {"type": "Point", "coordinates": [11.396931, 47.258179]}},
{"type": "Feature", "id": "Tb8uaDDnpaHBsmEd-H_lkr6RSfY=", "properties": {"ref": "Vapiano Itis", "@spider": "vapiano_us", "amenity": "restaurant", "cuisine": "italian", "addr:full": "Helsinki ITIS shopping centre It\u00e4katu 1-7, 00930", "addr:street": "ITIS shopping centre It\u00e4katu 1-7", "addr:city": "Helsinki", "addr:country": "Finnland", "name": "Vapiano", "phone": "+358405007059", "website": "https://us.vapiano.com//en/restaurants/detail/restaurant-details/-92717a11d9/", "brand": "Vapiano", "brand:wikidata": "Q506252", "nsi_id": "vapiano-2fabb0"}, "geometry": {"type": "Point", "coordinates": [25.08404, 60.21277]}},
{"type": "Feature", "id": "GAO8wKwKPrQ8amag9W0trKcHWxw=", "properties": {"ref": "Vapiano Kaiserslautern Richard-Wagner-Stra\u00dfe", "@spider": "vapiano_us", "amenity": "restaurant", "cuisine": "italian", "addr:full": "Kaiserslautern Richard-Wagner-Str. 1, 67655", "addr:street": "Richard-Wagner-Str. 1", "addr:city": "Kaiserslautern", "addr:country": "DE", "name": "Vapiano", "phone": "0631 41474747", "website": "https://us.vapiano.com//en/restaurants/vapiano-kaiserslautern/", "brand": "Vapiano", "brand:wikidata": "Q506252", "nsi_id": "vapiano-2fabb0"}, "geometry": {"type": "Point", "coordinates": [7.766627, 49.443854]}},
{"type": "Feature", "id": "v9g4_wM0Vp9uZpN5GbVOy5w5Ocw=", "properties": {"ref": "Vapiano Karlsruhe Karlstrasse", "@spider": "vapiano_us", "amenity": "restaurant", "cuisine": "italian", "addr:full": "Karlsruhe Karlstrasse 11, 76133", "addr:street": "Karlstrasse 11", "addr:city": "Karlsruhe", "addr:country": "DE", "name": "Vapiano", "phone": "+49 (0)72195788480", "website": "https://us.vapiano.com//en/restaurants/vapiano-karlsruhe-karlstrasse-11-1/", "brand": "Vapiano", "brand:wikidata": "Q506252", "nsi_id": "vapiano-2fabb0"}, "geometry": {"type": "Point", "coordinates": [8.395186, 49.010765]}},
{"type": "Feature", "id": "3M-0f9KjUyvadvfjvtrSzmFpYNw=", "properties": {"ref": "Vapiano Kassel Neue Fahrt", "@spider": "vapiano_us", "amenity": "restaurant", "cuisine": "italian", "addr:full": "Kassel Neue Fahrt 11, 34117", "addr:street": "Neue Fahrt 11", "addr:city": "Kassel", "addr:country": "DE", "name": "Vapiano", "phone": "+49 (0)56192196570", "website": "https://us.vapiano.com//en/restaurants/vapiano-kassel-neue-fahrt-11-1/", "brand": "Vapiano", "brand:wikidata": "Q506252", "nsi_id": "vapiano-2fabb0"}, "geometry": {"type": "Point", "coordinates": [9.494116, 51.314857]}},
{"type": "Feature", "id": "L8g3PrfreGn4rwb358T6P8NqAHM=", "properties": {"ref": "Vapiano Khobar", "@spider": "vapiano_us", "amenity": "restaurant", "cuisine": "italian", "addr:full": "Khobar Mall of Dhahran, Gate Nr. 11, 31952", "addr:street": "Mall of Dhahran, Gate Nr. 11", "addr:city": "Khobar", "addr:country": "Saudi Arabien", "name": "Vapiano", "website": "https://us.vapiano.com//en/restaurants/vapiano-khobar-mall-of-dhahran-gate-nr-11-1/", "brand": "Vapiano", "brand:wikidata": "Q506252", "nsi_id": "vapiano-2fabb0"}, "geometry": {"type": "Point", "coordinates": [50.17103, 26.3063]}},
{"type": "Feature", "id": "KIiT-WhRWMqukJOH9DvaO20H__w=", "properties": {"ref": "Vapiano Kiel Kaistrasse", "@spider": "vapiano_us", "amenity": "restaurant", "cuisine": "italian", "addr:full": "Kiel Kaistrasse 51, 24114", "addr:street": "Kaistrasse 51", "addr:city": "Kiel", "addr:country": "DE", "name": "Vapiano", "phone": "+49 (0)4312485900", "website": "https://us.vapiano.com//en/restaurants/vapiano-kiel-kaistrasse-51-1/", "brand": "Vapiano", "brand:wikidata": "Q506252", "nsi_id": "vapiano-2fabb0"}, "geometry": {"type": "Point", "coordinates": [10.13412, 54.3151]}},
{"type": "Feature", "id": "sAPimm5nDhrt5g2YaWYAxLxoUKI=", "properties": {"ref": "Vapiano Kiew 1", "@spider": "vapiano_us", "amenity": "restaurant", "cuisine": "italian", "addr:full": " Krasnoarmeyskaya 1-3/2,, ", "addr:street": "Krasnoarmeyskaya 1-3/2,", "addr:country": "UA", "name": "Vapiano", "phone": "+380675248595", "website": "https://us.vapiano.com//en/restaurants/vapiano-kiew-1-krasnoarmeyskaya-1-32-2/", "brand": "Vapiano", "brand:wikidata": "Q506252", "nsi_id": "vapiano-2fabb0"}, "geometry": {"type": "Point", "coordinates": [30.520642, 50.44171]}},
{"type": "Feature", "id": "kdQGaJl0_1eKsLTviS_IRp85bRQ=", "properties": {"ref": "Vapiano Koblenz Zentralplatz", "@spider": "vapiano_us", "amenity": "restaurant", "cuisine": "italian", "addr:full": "Koblenz Zentralplatz 2, 56068", "addr:street": "Zentralplatz 2", "addr:city": "Koblenz", "addr:country": "DE", "name": "Vapiano", "phone": "+49 (0) 26197367823", "website": "https://us.vapiano.com//en/restaurants/vapiano-koblenz-zentralplatz-2-1/", "brand": "Vapiano", "brand:wikidata": "Q506252", "nsi_id": "vapiano-2fabb0"}, "geometry": {"type": "Point", "coordinates": [7.596243, 50.357927]}},
{"type": "Feature", "id": "qFQXYPU62lLgEt--hCGCqlxsPtA=", "properties": {"ref": "Vapiano K\u00f6ln An der Rechtschule", "@spider": "vapiano_us", "amenity": "restaurant", "cuisine": "italian", "addr:full": "K\u00f6ln An der Rechtschule 3, 50667", "addr:street": "An der Rechtschule 3", "addr:city": "K\u00f6ln", "addr:country": "DE", "name": "Vapiano", "phone": "+49 221-27 74 61 50", "website": "https://us.vapiano.com//en/restaurants/detail/restaurant-details/-244ba49a62/", "brand": "Vapiano", "brand:wikidata": "Q506252", "nsi_id": "vapiano-2fabb0"}, "geometry": {"type": "Point", "coordinates": [6.956144, 50.940113]}},
{"type": "Feature", "id": "SKUAZjxwr3QBaI_K_7_Ya5d6uZ8=", "properties": {"ref": "Vapiano K\u00f6ln Constantinstrasse", "@spider": "vapiano_us", "amenity": "restaurant", "cuisine": "italian", "addr:full": "K\u00f6ln Constantinstrasse 87-89, 50679", "addr:street": "Constantinstrasse 87-89", "addr:city": "K\u00f6ln", "addr:country": "DE", "name": "Vapiano", "phone": "+49 (0)2218008833", "website": "https://us.vapiano.com//en/restaurants/vapiano-koeln-1-constantinstrasse-87-89-1/", "brand": "Vapiano", "brand:wikidata": "Q506252", "nsi_id": "vapiano-2fabb0"}, "geometry": {"type": "Point", "coordinates": [6.97611, 50.93965]}},
{"type": "Feature", "id": "c4PsvKl0WwfrNQBikfTaU2Di_5c=", "properties": {"ref": "Vapiano K\u00f6ln Habsburger Ring", "@spider": "vapiano_us", "amenity": "restaurant", "cuisine": "italian", "addr:full": "K\u00f6ln Habsburger Ring 2-12, 50674", "addr:street": "Habsburger Ring 2-12", "addr:city": "K\u00f6ln", "addr:country": "DE", "name": "Vapiano", "phone": "+49 (0)22120196151", "website": "https://us.vapiano.com//en/restaurants/vapiano-koeln-2-habsburger-ring-2-12-1/", "brand": "Vapiano", "brand:wikidata": "Q506252", "nsi_id": "vapiano-2fabb0"}, "geometry": {"type": "Point", "coordinates": [6.939195, 50.93495]}},
{"type": "Feature", "id": "EHV48kVyC9XXWL5TuJm-y6xV96g=", "properties": {"ref": "Vapiano K\u00f6ln Im Mediapark", "@spider": "vapiano_us", "amenity": "restaurant", "cuisine": "italian", "addr:full": "K\u00f6ln Im Mediapark 1, 50670", "addr:street": "Im Mediapark 1", "addr:city": "K\u00f6ln", "addr:country": "DE", "name": "Vapiano", "phone": "+49 (0)22117071477", "website": "https://us.vapiano.com//en/restaurants/vapiano-koeln-cinedom-im-mediapark-1/", "brand": "Vapiano", "brand:wikidata": "Q506252", "nsi_id": "vapiano-2fabb0"}, "geometry": {"type": "Point", "coordinates": [6.94399, 50.94764]}},
{"type": "Feature", "id": "nphJHVMKi3KG9v5LeqLSF-JleLo=", "properties": {"ref": "Vapiano K\u00f6ln Im Zollhafen", "@spider": "vapiano_us", "amenity": "restaurant", "cuisine": "italian", "addr:full": "K\u00f6ln Im Zollhafen 2-4, 50678", "addr:street": "Im Zollhafen 2-4", "addr:city": "K\u00f6ln", "addr:country": "Deutschland", "name": "Vapiano", "phone": "0221 31080808", "website": "https://us.vapiano.com//en/restaurants/detail/restaurant-details/-e9f7ff1848/", "brand": "Vapiano", "brand:wikidata": "Q506252", "nsi_id": "vapiano-2fabb0"}, "geometry": {"type": "Point", "coordinates": [6.965769499999965, 50.9281043]}},
{"type": "Feature", "id": "6Sm9h3g61hFlA_Ej3424GT5O1bs=", "properties": {"ref": "Vapiano Krefeld Petersstrasse", "@spider": "vapiano_us", "amenity": "restaurant", "cuisine": "italian", "addr:full": "Krefeld Petersstrasse 120, 47798", "addr:street": "Petersstrasse 120", "addr:city": "Krefeld", "addr:country": "DE", "name": "Vapiano", "phone": "+49 (0)21511549978", "website": "https://us.vapiano.com//en/restaurants/vapiano-krefeld-petersstrasse-120-1/", "brand": "Vapiano", "brand:wikidata": "Q506252", "nsi_id": "vapiano-2fabb0"}, "geometry": {"type": "Point", "coordinates": [6.56497, 51.33186]}},
{"type": "Feature", "id": "yqE0SgQRDfhNc2q8h2b1AxHiPTk=", "properties": {"ref": "Vapiano Kungsport", "@spider": "vapiano_us", "amenity": "restaurant", "cuisine": "italian", "addr:full": "G\u00f6teborg \u00d6stra Hamngatan 35, 41110", "addr:street": "\u00d6stra Hamngatan 35", "addr:city": "G\u00f6teborg", "addr:country": "SE", "name": "Vapiano", "phone": "+46 (0) 31 357 91 50", "website": "https://us.vapiano.com//en/restaurants/vapiano-kungsport-oestra-hamngatan-35-1/", "brand": "Vapiano", "brand:wikidata": "Q506252", "nsi_id": "vapiano-2fabb0"}, "geometry": {"type": "Point", "coordinates": [11.968644, 57.705221]}},
{"type": "Feature", "id": "IMLB_H3Hg7pU-o_P7VDcT_28CBg=", "properties": {"ref": "Vapiano La Reunion", "@spider": "vapiano_us", "amenity": "restaurant", "cuisine": "italian", "addr:full": "Saint-Denis de La R\u00e9union 10 place Sarda Garriga, 97400", "addr:street": "10 place Sarda Garriga", "addr:city": "Saint-Denis de La R\u00e9union", "addr:country": "FR", "name": "Vapiano", "phone": "0262 93 91 23", "website": "https://us.vapiano.com//en/restaurants/vapiano-hildesheim/", "brand": "Vapiano", "brand:wikidata": "Q506252", "nsi_id": "vapiano-2fabb0"}, "geometry": {"type": "Point", "coordinates": [55.44845, -20.873145]}},
{"type": "Feature", "id": "w7CLWnQU7cQXH27LX6xzxad9UYk=", "properties": {"ref": "Vapiano La Reunion 2", "@spider": "vapiano_us", "amenity": "restaurant", "cuisine": "italian", "addr:full": "Saint Pierre / La R\u00e9union 3 rue de la Poudri\u00e8re, 97410", "addr:street": "3 rue de la Poudri\u00e8re", "addr:city": "Saint Pierre / La R\u00e9union", "addr:country": "Frankreich", "name": "Vapiano", "phone": "0262 25 50 69", "website": "https://us.vapiano.com//en/restaurants/detail/restaurant-details/-ff925beb62/", "brand": "Vapiano", "brand:wikidata": "Q506252", "nsi_id": "vapiano-2fabb0"}, "geometry": {"type": "Point", "coordinates": [55.457474, -21.337204]}},
{"type": "Feature", "id": "JkwBF3XO6NSNo_pmVf6b2FHm4mU=", "properties": {"ref": "Vapiano la Valentine", "@spider": "vapiano_us", "amenity": "restaurant", "cuisine": "italian", "addr:full": "Marseille Mont\u00e9e du Commandant Robien, 13011", "addr:street": "Mont\u00e9e du Commandant Robien", "addr:city": "Marseille", "addr:country": "FR", "name": "Vapiano", "phone": "+33428316745", "website": "https://us.vapiano.com//en/restaurants/detail/restaurant-details/-4480c19af0/", "brand": "Vapiano", "brand:wikidata": "Q506252", "nsi_id": "vapiano-2fabb0"}, "geometry": {"type": "Point", "coordinates": [5.485489, 43.289915]}},
{"type": "Feature", "id": "AqCrzfzvaVb8-8IhfYk0V158rco=", "properties": {"ref": "Vapiano Lausanne Place de la Gare", "@spider": "vapiano_us", "amenity": "restaurant", "cuisine": "italian", "addr:full": " Place de la Gare 4, 1003", "addr:street": "Place de la Gare 4", "addr:country": "CH", "name": "Vapiano", "phone": "+41 21 320 48 48", "website": "https://us.vapiano.com//en/restaurants/vapiano-lausanne-place-de-la-gare-4/", "brand": "Vapiano", "brand:wikidata": "Q506252", "nsi_id": "vapiano-2fabb0"}, "geometry": {"type": "Point", "coordinates": [6.62973, 46.5175]}},
{"type": "Feature", "id": "SUJ1xaFa1UYoSc8NPwbtSQ0Z21k=", "properties": {"ref": "Vapiano Leipzig Augustusplatz", "@spider": "vapiano_us", "amenity": "restaurant", "cuisine": "italian", "addr:full": "Leipzig Augustusplatz 11, 04109", "addr:street": "Augustusplatz 11", "addr:city": "Leipzig", "addr:country": "DE", "name": "Vapiano", "phone": "+49 (0)3412535454", "website": "https://us.vapiano.com//en/restaurants/vapiano-leipzig-augustusplatz-11-1/", "brand": "Vapiano", "brand:wikidata": "Q506252", "nsi_id": "vapiano-2fabb0"}, "geometry": {"type": "Point", "coordinates": [12.379999, 51.339124]}},
{"type": "Feature", "id": "tELCV6ubfppEY1nIX5gLVbYDYWc=", "properties": {"ref": "Vapiano Linz Hauptplatz/Schmidtorstrasse", "@spider": "vapiano_us", "amenity": "restaurant", "cuisine": "italian", "addr:full": "Linz Hauptplatz/Schmidtorstrasse 1, 4020", "addr:street": "Hauptplatz/Schmidtorstrasse 1", "addr:city": "Linz", "addr:country": "AT", "name": "Vapiano", "phone": "+ 43 (0) 732 77 65 77", "website": "https://us.vapiano.com//en/restaurants/vapiano-linz-hauptplatzschmidtorstrasse-1-1/", "brand": "Vapiano", "brand:wikidata": "Q506252", "nsi_id": "vapiano-2fabb0"}, "geometry": {"type": "Point", "coordinates": [14.287332, 48.304897]}},
{"type": "Feature", "id": "IGXB5DNZG3WL3_Phqx5nypaFAlQ=", "properties": {"ref": "Vapiano London Bankside Southwark Street", "@spider": "vapiano_us", "amenity": "restaurant", "cuisine": "italian", "addr:full": "London 90 B Southwark Street, SE1 0FD", "addr:street": "90 B Southwark Street", "addr:city": "London", "addr:postcode": "SE1 0FD", "addr:country": "GB", "name": "Vapiano", "phone": "+44 (0) 207 593 2010", "website": "https://us.vapiano.com//en/restaurants/vapiano-bankside-90-b-southwark-street-1/", "brand": "Vapiano", "brand:wikidata": "Q506252", "nsi_id": "vapiano-2fabb0"}, "geometry": {"type": "Point", "coordinates": [-0.098395, 51.50536]}},
{"type": "Feature", "id": "R-NRcxnTdPhshyXJocbKdbIUe8c=", "properties": {"ref": "Vapiano London Great Portland St", "@spider": "vapiano_us", "amenity": "restaurant", "cuisine": "italian", "addr:full": "London 19-21 Great Portland Street, W1W 8QB", "addr:street": "19-21 Great Portland Street", "addr:city": "London", "addr:postcode": "W1W 8QB", "addr:country": "GB", "name": "Vapiano", "phone": "020 7268 0082", "website": "https://us.vapiano.com//en/restaurants/vapiano-lwiw-12a-hnatiuka-str/", "brand": "Vapiano", "brand:wikidata": "Q506252", "nsi_id": "vapiano-2fabb0"}, "geometry": {"type": "Point", "coordinates": [-0.14126, 51.5164]}},
{"type": "Feature", "id": "O0ZwMU6QbVzvOnXlQd5Mkl-pO10=", "properties": {"ref": "Vapiano Luxembourg Place de la Gare", "@spider": "vapiano_us", "amenity": "restaurant", "cuisine": "italian", "addr:full": "Luxembourg 28-32 Place de la Gare, L-1616", "addr:street": "28-32 Place de la Gare", "addr:city": "Luxembourg", "addr:country": "LU", "name": "Vapiano", "phone": "(+352) 26 48 39 22", "website": "https://us.vapiano.com//en/restaurants/vapiano-luxembourg-gare-28-32-place-de-la-gare-1/", "brand": "Vapiano", "brand:wikidata": "Q506252", "nsi_id": "vapiano-2fabb0"}, "geometry": {"type": "Point", "coordinates": [6.132406, 49.598283]}},
{"type": "Feature", "id": "EZ0re2x1uykRH4WL73ILWb2xoUk=", "properties": {"ref": "Vapiano Lyon Cours Charlemagne", "@spider": "vapiano_us", "amenity": "restaurant", "cuisine": "italian", "addr:full": "Lyon 112 Cours Charlemagne, 69002", "addr:street": "112 Cours Charlemagne", "addr:city": "Lyon", "addr:country": "FR", "name": "Vapiano", "phone": "+33428316313", "website": "https://us.vapiano.com//en/restaurants/vapiano-lyon-2-112-cours-charlemagne-1/", "brand": "Vapiano", "brand:wikidata": "Q506252", "nsi_id": "vapiano-2fabb0"}, "geometry": {"type": "Point", "coordinates": [4.81911, 45.74084]}},
{"type": "Feature", "id": "QU80dk3FBM6orXEEoNEZgUd6rxI=", "properties": {"ref": "Vapiano M Street", "@spider": "vapiano_us", "amenity": "restaurant", "cuisine": "italian", "addr:full": "Washington 1800 M Street N.W., DC 20036", "addr:street": "1800 M Street N.W.", "addr:city": "Washington", "addr:country": "US", "name": "Vapiano", "phone": "+1 202 640-1868", "website": "https://us.vapiano.com//en/restaurants/vapiano-m-street-1800-m-street-nw-1/", "brand": "Vapiano", "brand:wikidata": "Q506252", "nsi_id": "vapiano-2fabb0"}, "geometry": {"type": "Point", "coordinates": [-77.04203, 38.90524]}},
{"type": "Feature", "id": "fotIvMyE97_hVFuiOzDNuRkc_Z8=", "properties": {"ref": "Vapiano Magdeburg Ulrichplatz", "@spider": "vapiano_us", "amenity": "restaurant", "cuisine": "italian", "addr:full": "Magdeburg Ulrichplatz 1, 39104", "addr:street": "Ulrichplatz 1", "addr:city": "Magdeburg", "addr:country": "DE", "name": "Vapiano", "phone": "+49 391 99089902", "website": "https://us.vapiano.com//en/restaurants/vapiano-magdeburg/", "brand": "Vapiano", "brand:wikidata": "Q506252", "nsi_id": "vapiano-2fabb0"}, "geometry": {"type": "Point", "coordinates": [11.634599, 52.13032]}},
{"type": "Feature", "id": "ZPEKLCOJJCSgkqeTweNwwGTdSy0=", "properties": {"ref": "Vapiano Magnificent Mile", "@spider": "vapiano_us", "amenity": "restaurant", "cuisine": "italian", "addr:full": "Chicago IL 58 E Ontario Street, 60611", "addr:street": "58 E Ontario Street", "addr:city": "Chicago IL", "addr:country": "US", "name": "Vapiano", "phone": "312 631 3656", "website": "https://us.vapiano.com//en/restaurants/detail/restaurant-details/-c4d3019643/", "brand": "Vapiano", "brand:wikidata": "Q506252", "nsi_id": "vapiano-2fabb0"}, "geometry": {"type": "Point", "coordinates": [-87.626022, 41.893475]}},
{"type": "Feature", "id": "XEeC03KhVhJpCsdp0to5E9yu_XE=", "properties": {"ref": "Vapiano Mainz Rheinstrasse", "@spider": "vapiano_us", "amenity": "restaurant", "cuisine": "italian", "addr:full": "Mainz Rheinstrasse 4 G, 55116", "addr:street": "Rheinstrasse 4 G", "addr:city": "Mainz", "addr:country": "DE", "name": "Vapiano", "phone": "+49 (0)6131629490", "website": "https://us.vapiano.com//en/restaurants/vapiano-mainz-rheinstrasse-4-g-1/", "brand": "Vapiano", "brand:wikidata": "Q506252", "nsi_id": "vapiano-2fabb0"}, "geometry": {"type": "Point", "coordinates": [8.279217, 49.996126]}},
{"type": "Feature", "id": "wY3_SeI55zXSgq8lF7ez7-0ZUs8=", "properties": {"ref": "Vapiano Mall of Scandinavia", "@spider": "vapiano_us", "amenity": "restaurant", "cuisine": "italian", "addr:full": "Solna Stj\u00e4rntorget 2 eller Evenemangsgatan 14 C., 16979", "addr:street": "Stj\u00e4rntorget 2 eller Evenemangsgatan 14 C.", "addr:city": "Solna", "addr:country": "SE", "name": "Vapiano", "phone": "+46 (0) 8 5110 4660", "website": "https://us.vapiano.com//en/restaurants/vapiano-mall-of-scandinavia-stjaernvaegen-2-e-14c/", "brand": "Vapiano", "brand:wikidata": "Q506252", "nsi_id": "vapiano-2fabb0"}, "geometry": {"type": "Point", "coordinates": [18.000971, 59.370933]}},
{"type": "Feature", "id": "YDBl4HJ03JB4vrGnNgysKJ8a-So=", "properties": {"ref": "Vapiano Manchester The Corn Exchange", "@spider": "vapiano_us", "amenity": "restaurant", "cuisine": "italian", "addr:full": "Manchester Unit 13, The Corn Exchange, M4 3TR", "addr:street": "Unit 13, The Corn Exchange", "addr:city": "Manchester", "addr:postcode": "M4 3TR", "addr:country": "GB", "name": "Vapiano", "phone": "+44(0) 161 3487 590", "website": "https://us.vapiano.com//en/restaurants/vapiano-manchester-unit-13-the-corn-exchange/", "brand": "Vapiano", "brand:wikidata": "Q506252", "nsi_id": "vapiano-2fabb0"}, "geometry": {"type": "Point", "coordinates": [-2.243182, 53.485018]}},
{"type": "Feature", "id": "UndLYpF-XZQB5zkWdZpWkgxz8YM=", "properties": {"ref": "Vapiano Mannheim Friedrichsplatz", "@spider": "vapiano_us", "amenity": "restaurant", "cuisine": "italian", "addr:full": "Mannheim Friedrichsplatz 1, 68165", "addr:street": "Friedrichsplatz 1", "addr:city": "Mannheim", "addr:country": "DE", "name": "Vapiano", "phone": "+49 (0)6211259777", "website": "https://us.vapiano.com//en/restaurants/vapiano-mannheim-friedrichsplatz-1-1/", "brand": "Vapiano", "brand:wikidata": "Q506252", "nsi_id": "vapiano-2fabb0"}, "geometry": {"type": "Point", "coordinates": [8.47583, 49.48502]}},
{"type": "Feature", "id": "IW-IfIc9FwhLREOt9pJTG-syZ48=", "properties": {"ref": "Vapiano Marseille Avenue du Prado", "@spider": "vapiano_us", "amenity": "restaurant", "cuisine": "italian", "addr:full": "Marseille 20 Avenue du Prado, 13006", "addr:street": "20 Avenue du Prado", "addr:city": "Marseille", "addr:country": "FR", "name": "Vapiano", "phone": "+33428315588", "website": "https://us.vapiano.com//en/restaurants/vapiano-marseille-1-20-avenue-du-prado-1/", "brand": "Vapiano", "brand:wikidata": "Q506252", "nsi_id": "vapiano-2fabb0"}, "geometry": {"type": "Point", "coordinates": [5.38421, 43.2845]}},
{"type": "Feature", "id": "ztefvG3uw6mN985oDYjlhVLLTns=", "properties": {"ref": "Vapiano Marseille Quai du Lazaret", "@spider": "vapiano_us", "amenity": "restaurant", "cuisine": "italian", "addr:full": "Marseille 9 Quai du Lazaret, 13002", "addr:street": "9 Quai du Lazaret", "addr:city": "Marseille", "addr:country": "FR", "name": "Vapiano", "phone": "+33428314656", "website": "https://us.vapiano.com//en/restaurants/vapiano-marseille-2-9-quai-du-lazaret-1/", "brand": "Vapiano", "brand:wikidata": "Q506252", "nsi_id": "vapiano-2fabb0"}, "geometry": {"type": "Point", "coordinates": [5.364857, 43.306032]}},
{"type": "Feature", "id": "sNMZpNRyv7AkxxMSVKu-2XKGIaE=", "properties": {"ref": "Vapiano Metz Place Saint Jacques", "@spider": "vapiano_us", "amenity": "restaurant", "cuisine": "italian", "addr:full": "Metz Place Saint Jacques, 57000", "addr:street": "Place Saint Jacques", "addr:city": "Metz", "addr:country": "FR", "name": "Vapiano", "phone": "+33374117242", "website": "https://us.vapiano.com//en/restaurants/detail/restaurant-details/-5f60550f1b/", "brand": "Vapiano", "brand:wikidata": "Q506252", "nsi_id": "vapiano-2fabb0"}, "geometry": {"type": "Point", "coordinates": [6.176525, 49.118192]}},
{"type": "Feature", "id": "V51lPQafRI0WDzUmjWDRGMbHmyk=", "properties": {"ref": "Vapiano Mikonkatu", "@spider": "vapiano_us", "amenity": "restaurant", "cuisine": "italian", "addr:full": "Helsinki Mikonkatu 15, 00100", "addr:street": "Mikonkatu 15", "addr:city": "Helsinki", "addr:country": "FI", "name": "Vapiano", "phone": "00358(0) 9698 1225", "website": "https://us.vapiano.com//en/restaurants/vapiano-helsinki-mikonkatu-15-1/", "brand": "Vapiano", "brand:wikidata": "Q506252", "nsi_id": "vapiano-2fabb0"}, "geometry": {"type": "Point", "coordinates": [24.94516, 60.17136]}},
{"type": "Feature", "id": "uqqPwWV3HwncOIBkFTluiIFPBkI=", "properties": {"ref": "Vapiano M\u00f6nchengladbach Am Minto", "@spider": "vapiano_us", "amenity": "restaurant", "cuisine": "italian", "addr:full": "M\u00f6nchengladbach Am Minto 1, 41061", "addr:street": "Am Minto 1", "addr:city": "M\u00f6nchengladbach", "addr:country": "DE", "name": "Vapiano", "phone": "02161 2949730", "website": "https://us.vapiano.com//en/restaurants/vapiano-moenchengladbach/", "brand": "Vapiano", "brand:wikidata": "Q506252", "nsi_id": "vapiano-2fabb0"}, "geometry": {"type": "Point", "coordinates": [6.437575, 51.194668]}},
{"type": "Feature", "id": "ErNUuNfT-6GQU68NArnn2dtfIBw=", "properties": {"ref": "Vapiano Monterrey Parque Arboleda", "@spider": "vapiano_us", "amenity": "restaurant", "cuisine": "italian", "addr:full": "San Pedro, Garza Garc\u00eda Ave. Roble 660 Valle del Campestre San Pedro, Garza Garc\u00eda, NL. Mx CP 66265, ", "addr:street": "Ave. Roble 660 Valle del Campestre San Pedro, Garza Garc\u00eda, NL. Mx CP 66265", "addr:city": "San Pedro, Garza Garc\u00eda", "addr:country": "Mexiko", "name": "Vapiano", "website": "https://us.vapiano.com//en/restaurants/detail/restaurant-details/-55cdcbed38/", "brand": "Vapiano", "brand:wikidata": "Q506252", "nsi_id": "vapiano-2fabb0"}, "geometry": {"type": "Point", "coordinates": [-100.356684, 25.649222]}},
{"type": "Feature", "id": "C3sLNmEB2xwzleSqaHdXfibRBlQ=", "properties": {"ref": "Vapiano M\u00fcnchen Hackerbr\u00fccke", "@spider": "vapiano_us", "amenity": "restaurant", "cuisine": "italian", "addr:full": "M\u00fcnchen Hackerbr\u00fccke 4, 80335", "addr:street": "Hackerbr\u00fccke 4", "addr:city": "M\u00fcnchen", "addr:country": "DE", "name": "Vapiano", "phone": "+49 (0)8954540893", "website": "https://us.vapiano.com//en/restaurants/vapiano-muenchen-2-hackerbruecke-4-1/", "brand": "Vapiano", "brand:wikidata": "Q506252", "nsi_id": "vapiano-2fabb0"}, "geometry": {"type": "Point", "coordinates": [11.548637, 48.142679]}},
{"type": "Feature", "id": "pRtMVmMUvfHq3vF5cgczKe9aaUI=", "properties": {"ref": "Vapiano M\u00fcnchen Richard-Strau\u00df", "@spider": "vapiano_us", "amenity": "restaurant", "cuisine": "italian", "addr:full": "M\u00fcnchen Richard-Strau\u00df-Strasse 80-82, 81679", "addr:street": "Richard-Strau\u00df-Strasse 80-82", "addr:city": "M\u00fcnchen", "addr:country": "DE", "name": "Vapiano", "phone": "+49 (0)8992008998", "website": "https://us.vapiano.com//en/restaurants/vapiano-muenchen-3-richard-strauss-strasse-80-82-1/", "brand": "Vapiano", "brand:wikidata": "Q506252", "nsi_id": "vapiano-2fabb0"}, "geometry": {"type": "Point", "coordinates": [11.616437, 48.147601]}},
{"type": "Feature", "id": "lQ_XpYhFqguwvn_WqeXN4fInn_Q=", "properties": {"ref": "Vapiano M\u00fcnchen Theatinerstr.", "@spider": "vapiano_us", "amenity": "restaurant", "cuisine": "italian", "addr:full": "M\u00fcnchen Theatinerstra\u00dfe 15, 80333", "addr:street": "Theatinerstra\u00dfe 15", "addr:city": "M\u00fcnchen", "addr:country": "DE", "name": "Vapiano", "phone": "+49 (0)89206065860", "website": "https://us.vapiano.com//en/restaurants/vapiano-muenchen-1-theatinerstrasse-15-1/", "brand": "Vapiano", "brand:wikidata": "Q506252", "nsi_id": "vapiano-2fabb0"}, "geometry": {"type": "Point", "coordinates": [11.57621, 48.1407]}},
{"type": "Feature", "id": "x9T8HaznJoN_HbXUuCRThl9gW2Q=", "properties": {"ref": "Vapiano M\u00fcnster Hafenplatz", "@spider": "vapiano_us", "amenity": "restaurant", "cuisine": "italian", "addr:full": "M\u00fcnster Hafenplatz 10, 48155", "addr:street": "Hafenplatz 10", "addr:city": "M\u00fcnster", "addr:country": "DE", "name": "Vapiano", "phone": "+49 (0)25191586061", "website": "https://us.vapiano.com//en/restaurants/vapiano-muenster-2/", "brand": "Vapiano", "brand:wikidata": "Q506252", "nsi_id": "vapiano-2fabb0"}, "geometry": {"type": "Point", "coordinates": [7.637758, 51.951335]}},
{"type": "Feature", "id": "g_qx5Nx-0sfQBSuxiwgTFzoJUN8=", "properties": {"ref": "Vapiano M\u00fcnster K\u00f6nigsstrasse", "@spider": "vapiano_us", "amenity": "restaurant", "cuisine": "italian", "addr:full": "M\u00fcnster K\u00f6nigsstrasse 51, 48143", "addr:street": "K\u00f6nigsstrasse 51", "addr:city": "M\u00fcnster", "addr:country": "DE", "name": "Vapiano", "phone": "+49 (0)2511625193", "website": "https://us.vapiano.com//en/restaurants/vapiano-muenster-koenigsstrasse-51-1/", "brand": "Vapiano", "brand:wikidata": "Q506252", "nsi_id": "vapiano-2fabb0"}, "geometry": {"type": "Point", "coordinates": [7.62563, 51.95979]}},
{"type": "Feature", "id": "-2PbHJQ8Xm8lnRoOEKUXKOoj8Bw=", "properties": {"ref": "Vapiano Nantes", "@spider": "vapiano_us", "amenity": "restaurant", "cuisine": "italian", "addr:full": "Saint-Herblain Centre Commercial Atlantis, 44800", "addr:street": "Centre Commercial Atlantis", "addr:city": "Saint-Herblain", "addr:country": "FR", "name": "Vapiano", "phone": "+33257545196", "website": "https://us.vapiano.com//en/restaurants/vapiano-nantes-com-atlantis-zone-commerciale-atlantis/", "brand": "Vapiano", "brand:wikidata": "Q506252", "nsi_id": "vapiano-2fabb0"}, "geometry": {"type": "Point", "coordinates": [-1.631489, 47.224207]}},
{"type": "Feature", "id": "TppTsIzZvRMVUrxwAlIXp3nNkyM=", "properties": {"ref": "Vapiano New York City", "@spider": "vapiano_us", "amenity": "restaurant", "cuisine": "italian", "addr:full": "New York 113 University Place, NY 10003", "addr:street": "113 University Place", "addr:city": "New York", "addr:country": "US", "name": "Vapiano", "phone": "+1 212.777.9477", "website": "https://us.vapiano.com//en/restaurants/vapiano-new-york-city-113-university-place-1/", "brand": "Vapiano", "brand:wikidata": "Q506252", "nsi_id": "vapiano-2fabb0"}, "geometry": {"type": "Point", "coordinates": [-73.99232, 40.73433]}},
{"type": "Feature", "id": "p6n95GXs28dAo00pAkXs2azXYVk=", "properties": {"ref": "Vapiano N\u00fcrnberg K\u00f6nigstrasse", "@spider": "vapiano_us", "amenity": "restaurant", "cuisine": "italian", "addr:full": "N\u00fcrnberg K\u00f6nigstrasse 17, 90402", "addr:street": "K\u00f6nigstrasse 17", "addr:city": "N\u00fcrnberg", "addr:country": "DE", "name": "Vapiano", "phone": "+49 (0)9112146330", "website": "https://us.vapiano.com//en/restaurants/vapiano-nuernberg-koenigstrasse-17-1/", "brand": "Vapiano", "brand:wikidata": "Q506252", "nsi_id": "vapiano-2fabb0"}, "geometry": {"type": "Point", "coordinates": [11.078157, 49.451339]}},
{"type": "Feature", "id": "1CeVFwncTDN07dJeaBQSavk0aqc=", "properties": {"ref": "Vapiano N\u00f8rreport", "@spider": "vapiano_us", "amenity": "restaurant", "cuisine": "italian", "addr:full": "K\u00f8benhavn K Frederiksborggade 5, 1360", "addr:street": "Frederiksborggade 5", "addr:city": "K\u00f8benhavn K", "addr:country": "D\u00e4nemark", "name": "Vapiano", "phone": "+ 45 70 25 70 70", "website": "https://us.vapiano.com//en/restaurants/detail/restaurant-details/-3a76158757/", "brand": "Vapiano", "brand:wikidata": "Q506252", "nsi_id": "vapiano-2fabb0"}, "geometry": {"type": "Point", "coordinates": [12.572921, 55.682977]}},
{"type": "Feature", "id": "v_IETQzsayrZg5b2BgH4nCJWR2c=", "properties": {"ref": "Vapiano Oldenburg Kasinoplatz", "@spider": "vapiano_us", "amenity": "restaurant", "cuisine": "italian", "addr:full": "Oldenburg Kasinoplatz 3, 26122", "addr:street": "Kasinoplatz 3", "addr:city": "Oldenburg", "addr:country": "DE", "name": "Vapiano", "phone": "+49 (0)4412172882", "website": "https://us.vapiano.com//en/restaurants/vapiano-oldenburg-kasinoplatz-3-1/", "brand": "Vapiano", "brand:wikidata": "Q506252", "nsi_id": "vapiano-2fabb0"}, "geometry": {"type": "Point", "coordinates": [8.21328, 53.13829]}},
{"type": "Feature", "id": "7tYKmlaalzrI0yV5SP1qBm4bXBc=", "properties": {"ref": "Vapiano Osnabr\u00fcck Herrenteichstrasse", "@spider": "vapiano_us", "amenity": "restaurant", "cuisine": "italian", "addr:full": "Osnabr\u00fcck Herrenteichstrasse 11, 49074", "addr:street": "Herrenteichstrasse 11", "addr:city": "Osnabr\u00fcck", "addr:country": "DE", "name": "Vapiano", "phone": "+49 (0)5413303655", "website": "https://us.vapiano.com//en/restaurants/vapiano-osnabrueck-herrenteichstrasse-11-1/", "brand": "Vapiano", "brand:wikidata": "Q506252", "nsi_id": "vapiano-2fabb0"}, "geometry": {"type": "Point", "coordinates": [8.04625, 52.27587]}},
{"type": "Feature", "id": "W8ZTKKxgKQ31tfSJQCkkPFG_Lyk=", "properties": {"ref": "Vapiano Paris Cour Saint Emilion", "@spider": "vapiano_us", "amenity": "restaurant", "cuisine": "italian", "addr:full": "Paris 60 / 62 cour Saint Emilion, 75012", "addr:street": "60 / 62 cour Saint Emilion", "addr:city": "Paris", "addr:country": "FR", "name": "Vapiano", "phone": "+33184143793", "website": "https://us.vapiano.com//en/restaurants/vapiano-bercy/", "brand": "Vapiano", "brand:wikidata": "Q506252", "nsi_id": "vapiano-2fabb0"}, "geometry": {"type": "Point", "coordinates": [2.386789, 48.833032]}},
{"type": "Feature", "id": "MXrV8sRz0Yh6LVM6iz1RCiuP8-E=", "properties": {"ref": "Vapiano Paris Place du D\u00f4me Centre", "@spider": "vapiano_us", "amenity": "restaurant", "cuisine": "italian", "addr:full": "Paris La D\u00e9fense 2, Place du D\u00f4me Centre, 92800", "addr:street": "2, Place du D\u00f4me Centre", "addr:city": "Paris La D\u00e9fense", "addr:country": "FR", "name": "Vapiano", "phone": "+33185154510", "website": "https://us.vapiano.com//en/restaurants/vapiano-paris-1-2-place-du-dome-centre-1/", "brand": "Vapiano", "brand:wikidata": "Q506252", "nsi_id": "vapiano-2fabb0"}, "geometry": {"type": "Point", "coordinates": [2.236271, 48.890828]}},
{"type": "Feature", "id": "xk0M25yk3n6rb9K0GGLm4L5Bxm8=", "properties": {"ref": "Vapiano Paris Rue Marbeuf", "@spider": "vapiano_us", "amenity": "restaurant", "cuisine": "italian", "addr:full": "Paris 36 rue Marbeuf, 75008", "addr:street": "36 rue Marbeuf", "addr:city": "Paris", "addr:country": "FR", "name": "Vapiano", "phone": "+33184147004", "website": "https://us.vapiano.com//en/restaurants/vapiano-marbeuf-36-rue-marbeuf/", "brand": "Vapiano", "brand:wikidata": "Q506252", "nsi_id": "vapiano-2fabb0"}, "geometry": {"type": "Point", "coordinates": [2.305606, 48.869419]}},
{"type": "Feature", "id": "3xtwJ-acazgCHNG8D3OUUrHbQB4=", "properties": {"ref": "Vapiano Parque Arauco", "@spider": "vapiano_us", "amenity": "restaurant", "cuisine": "italian", "addr:full": "Las Condes (frente a pasarela peatonal que cruza Avda. Kennedy) Mall Parque Arauco Avenida Presidente Kennedy 5415, Loc. 393, ", "addr:street": "Mall Parque Arauco Avenida Presidente Kennedy 5415, Loc. 393", "addr:city": "Las Condes (frente a pasarela peatonal que cruza Avda. Kennedy)", "addr:country": "CL", "name": "Vapiano", "phone": "+56 2 32026319", "website": "https://us.vapiano.com//en/restaurants/vapiano-parque-arauco-avenida-kennedy-5415-loc-393-6/", "brand": "Vapiano", "brand:wikidata": "Q506252", "nsi_id": "vapiano-2fabb0"}, "geometry": {"type": "Point", "coordinates": [-70.578322, -33.401143]}},
{"type": "Feature", "id": "G1-JL0DCIRuK11so96PICw44cXM=", "properties": {"ref": "Vapiano Parque Toreo", "@spider": "vapiano_us", "amenity": "restaurant", "cuisine": "italian", "addr:full": " Blvd. Manuel \u00c1vila Camacho #5., 53390", "addr:street": "Blvd. Manuel \u00c1vila Camacho #5.", "addr:country": "MX", "name": "Vapiano", "phone": "9135 7023", "website": "https://us.vapiano.com//en/restaurants/vapiano-parque-toreo-blvd-manuel-avila-camacho-456/", "brand": "Vapiano", "brand:wikidata": "Q506252", "nsi_id": "vapiano-2fabb0"}, "geometry": {"type": "Point", "coordinates": [-99.2453, 19.46308]}},
{"type": "Feature", "id": "llTx4x2ew3-UyJmFFOdTbTfutUQ=", "properties": {"ref": "Vapiano Pedro de Valdivia", "@spider": "vapiano_us", "amenity": "restaurant", "cuisine": "italian", "addr:full": "Providencia Avenida Providencia 1984, ", "addr:street": "Avenida Providencia 1984", "addr:city": "Providencia", "addr:country": "CL", "name": "Vapiano", "phone": "+5622 233 5698", "website": "https://us.vapiano.com//en/restaurants/detail/restaurant-details/-8411105c62/", "brand": "Vapiano", "brand:wikidata": "Q506252", "nsi_id": "vapiano-2fabb0"}, "geometry": {"type": "Point", "coordinates": [-70.612667, -33.423722]}},
{"type": "Feature", "id": "0PApkl-iV8X90La1KRwinhOVeUk=", "properties": {"ref": "Vapiano Praha 1 Myslbek Na P\u0159\u00edkop\u011b", "@spider": "vapiano_us", "amenity": "restaurant", "cuisine": "italian", "addr:full": "Praha NG Myslbek Na P\u0159\u00edkop\u011b 19-21, 110 00", "addr:street": "NG Myslbek Na P\u0159\u00edkop\u011b 19-21", "addr:city": "Praha", "addr:country": "\u010de\u0161tina", "name": "Vapiano", "phone": "(+420) 246 086 621", "website": "https://us.vapiano.com//en/restaurants/detail/restaurant-details/-3ddc8a4251/", "brand": "Vapiano", "brand:wikidata": "Q506252", "nsi_id": "vapiano-2fabb0"}, "geometry": {"type": "Point", "coordinates": [14.4248163, 50.0862506]}},
{"type": "Feature", "id": "WF_dR_ONckvuCcfMNnqXf6apmwE=", "properties": {"ref": "VAPIANO Praha 1 Quadrio Sp\u00e1len\u00e1", "@spider": "vapiano_us", "amenity": "restaurant", "cuisine": "italian", "addr:full": "Praha OC Quadrio Sp\u00e1len\u00e1 2121/22, 110 00", "addr:street": "OC Quadrio Sp\u00e1len\u00e1 2121/22", "addr:city": "Praha", "addr:country": "\u010de\u0161tina", "name": "Vapiano", "phone": "(+420) 225 017 160", "website": "https://us.vapiano.com//en/restaurants/detail/restaurant-details/-96916569ef/", "brand": "Vapiano", "brand:wikidata": "Q506252", "nsi_id": "vapiano-2fabb0"}, "geometry": {"type": "Point", "coordinates": [14.419685, 50.081131]}},
{"type": "Feature", "id": "JUsauUmhLIH6TQ72G0kPAC_GghE=", "properties": {"ref": "Vapiano Praha 4 Chodov Roztylsk\u00e1", "@spider": "vapiano_us", "amenity": "restaurant", "cuisine": "italian", "addr:full": "Praha 4 Westfield Chodov Roztylsk\u00e1 2321/19, 148 00", "addr:street": "Westfield Chodov Roztylsk\u00e1 2321/19", "addr:city": "Praha 4", "addr:country": "\u010de\u0161tina", "name": "Vapiano", "phone": "(+420) 246 086 626", "website": "https://us.vapiano.com//en/restaurants/detail/restaurant-details/-b581f377e6/", "brand": "Vapiano", "brand:wikidata": "Q506252", "nsi_id": "vapiano-2fabb0"}, "geometry": {"type": "Point", "coordinates": [14.490996, 50.032069]}},
{"type": "Feature", "id": "qpJooHzyczOZEOkj5XjHletbJu0=", "properties": {"ref": "Vapiano Puteaux 4 Temps", "@spider": "vapiano_us", "amenity": "restaurant", "cuisine": "italian", "addr:full": "Puteaux Centre Commercial les 4 Temps (niveau 2) \u2013 la D\u00e9fense, 92800", "addr:street": "Centre Commercial les 4 Temps (niveau 2) \u2013 la D\u00e9fense", "addr:city": "Puteaux", "addr:country": "FR", "name": "Vapiano", "phone": "+33185155158", "website": "https://us.vapiano.com//en/restaurants/detail/restaurant-details/-78ef28bfa2/", "brand": "Vapiano", "brand:wikidata": "Q506252", "nsi_id": "vapiano-2fabb0"}, "geometry": {"type": "Point", "coordinates": [2.234496, 48.891556]}},
{"type": "Feature", "id": "nkBiJ4UK4y4EVxWsqFoTkZnX7yA=", "properties": {"ref": "Vapiano Qatar", "@spider": "vapiano_us", "amenity": "restaurant", "cuisine": "italian", "addr:full": "Doha West Bay, The Gate Mall, P.O. BOX 22238", "addr:street": "West Bay, The Gate Mall", "addr:city": "Doha", "addr:country": "QA", "name": "Vapiano", "phone": "0097444077188", "website": "https://us.vapiano.com//en/restaurants/vapiano-qatar-west-bay-the-gate-mall-1/", "brand": "Vapiano", "brand:wikidata": "Q506252", "nsi_id": "vapiano-2fabb0"}, "geometry": {"type": "Point", "coordinates": [51.43919, 25.25473]}},
{"type": "Feature", "id": "xOSaSRHSYM9juV6kS6EQNFjxC70=", "properties": {"ref": "Vapiano Raji\u0107eva", "@spider": "vapiano_us", "amenity": "restaurant", "cuisine": "italian", "addr:full": "Beograd Knez Mihailova 54, ", "addr:street": "Knez Mihailova 54", "addr:city": "Beograd", "addr:country": "Serbien", "name": "Vapiano", "phone": "011/4041110", "website": "https://us.vapiano.com//en/restaurants/detail/restaurant-details/-3793c687ad/", "brand": "Vapiano", "brand:wikidata": "Q506252", "nsi_id": "vapiano-2fabb0"}, "geometry": {"type": "Point", "coordinates": [20.453682, 44.819913]}},
{"type": "Feature", "id": "aGGqZX5YiK4BXlm7c97APrwE5pk=", "properties": {"ref": "Vapiano Reforma", "@spider": "vapiano_us", "amenity": "restaurant", "cuisine": "italian", "addr:full": " Paseo de la Reforma #250., 06630", "addr:street": "Paseo de la Reforma #250.", "addr:country": "MX", "name": "Vapiano", "phone": "9135 7023", "website": "https://us.vapiano.com//en/restaurants/detail/restaurant-details/testfiliale-uk-kurt-schuhmacher-str-22/", "brand": "Vapiano", "brand:wikidata": "Q506252", "nsi_id": "vapiano-2fabb0"}, "geometry": {"type": "Point", "coordinates": [-99.16269, 19.42826]}},
{"type": "Feature", "id": "WqCm8zbIV_7PBPUXO2xOpPt0-Zo=", "properties": {"ref": "Vapiano Riad", "@spider": "vapiano_us", "amenity": "restaurant", "cuisine": "italian", "addr:full": "Riad Localizer Mall,Thalia Street, 12222", "addr:street": "Localizer Mall,Thalia Street", "addr:city": "Riad", "addr:country": "Saudi Arabien", "name": "Vapiano", "website": "https://us.vapiano.com//en/restaurants/vapiano-riad-localizer-mallthalia-street-1/", "brand": "Vapiano", "brand:wikidata": "Q506252", "nsi_id": "vapiano-2fabb0"}, "geometry": {"type": "Point", "coordinates": [46.69177, 24.69902]}},
{"type": "Feature", "id": "lNWwSVYqLlhmri6otL8pIQkpn5M=", "properties": {"ref": "Vapiano Ribeir\u00e3o Preto", "@spider": "vapiano_us", "amenity": "restaurant", "cuisine": "italian", "addr:full": " Av. Jos\u00e9 Adolfo Bianco Molina, 2331", "addr:street": "Av. Jos\u00e9 Adolfo Bianco Molina", "addr:country": "BR", "name": "Vapiano", "phone": "(16) 3620-8040", "website": "https://us.vapiano.com//en/restaurants/vapiano-ribeirao-preto-av-jose-adolfo-bianco-molina/", "brand": "Vapiano", "brand:wikidata": "Q506252", "nsi_id": "vapiano-2fabb0"}, "geometry": {"type": "Point", "coordinates": [-47.808768, -21.212088]}},
{"type": "Feature", "id": "-K45jD6ONTCjLI0SNKupc-YkMzE=", "properties": {"ref": "Vapiano Rostock Neuer Markt", "@spider": "vapiano_us", "amenity": "restaurant", "cuisine": "italian", "addr:full": "Rostock Neuer Markt 9, 18055", "addr:street": "Neuer Markt 9", "addr:city": "Rostock", "addr:country": "DE", "name": "Vapiano", "phone": "+49 (0)38137577930", "website": "https://us.vapiano.com//en/restaurants/vapiano-rostock-neuer-markt-9-1/", "brand": "Vapiano", "brand:wikidata": "Q506252", "nsi_id": "vapiano-2fabb0"}, "geometry": {"type": "Point", "coordinates": [12.139368, 54.088156]}},
{"type": "Feature", "id": "exXXsQYXftb7Kv0MgIZcblXKD0g=", "properties": {"ref": "Vapiano Rotterdam Binnenrotte", "@spider": "vapiano_us", "amenity": "restaurant", "cuisine": "italian", "addr:full": "Rotterdam Binnenrotte 140-148, 3011 HC", "addr:street": "Binnenrotte 140-148", "addr:city": "Rotterdam", "addr:country": "Holland", "name": "Vapiano", "phone": "+31 (0)104129872", "website": "https://us.vapiano.com//en/restaurants/vapiano-rotterdam-1-binnenrotte-140-148-1/", "brand": "Vapiano", "brand:wikidata": "Q506252", "nsi_id": "vapiano-2fabb0"}, "geometry": {"type": "Point", "coordinates": [4.48612, 51.9226]}},
{"type": "Feature", "id": "WiiLRYuhy-5sS8e5034ECeJwCbQ=", "properties": {"ref": "Vapiano Rotterdam Plaza", "@spider": "vapiano_us", "amenity": "restaurant", "cuisine": "italian", "addr:full": "Rotterdam Plaza 24, 3012 CW", "addr:street": "Plaza 24", "addr:city": "Rotterdam", "addr:country": "Holland", "name": "Vapiano", "phone": "+31 (0) 10 30 33 100", "website": "https://us.vapiano.com//en/restaurants/vapiano-rotterdam-2-plaza-24-1/", "brand": "Vapiano", "brand:wikidata": "Q506252", "nsi_id": "vapiano-2fabb0"}, "geometry": {"type": "Point", "coordinates": [4.47327, 51.92291]}},
{"type": "Feature", "id": "fHCAZmgXNJApuINHUbNrTUwFPT4=", "properties": {"ref": "Vapiano Saarbr\u00fccken Bahnhofstrasse", "@spider": "vapiano_us", "amenity": "restaurant", "cuisine": "italian", "addr:full": "Saarbr\u00fccken Bahnhofstrasse 22, 66111", "addr:street": "Bahnhofstrasse 22", "addr:city": "Saarbr\u00fccken", "addr:country": "DE", "name": "Vapiano", "phone": "+49 (0)6813799111", "website": "https://us.vapiano.com//en/restaurants/vapiano-saarbruecken-bahnhofstrasse-22-1/", "brand": "Vapiano", "brand:wikidata": "Q506252", "nsi_id": "vapiano-2fabb0"}, "geometry": {"type": "Point", "coordinates": [6.99526, 49.233926]}},
{"type": "Feature", "id": "EYmsDSJTOm4qG9fRQ43E9QP2lUE=", "properties": {"ref": "Vapiano Samara", "@spider": "vapiano_us", "amenity": "restaurant", "cuisine": "italian", "addr:full": " Antonio Dovali Jaime #70., 01210", "addr:street": "Antonio Dovali Jaime #70.", "addr:country": "MX", "name": "Vapiano", "phone": "9135 7023", "website": "https://us.vapiano.com//en/restaurants/vapiano-berlin-europa-center-tauentzienstrasse-9-12/", "brand": "Vapiano", "brand:wikidata": "Q506252", "nsi_id": "vapiano-2fabb0"}, "geometry": {"type": "Point", "coordinates": [-99.25873, 19.36714]}},
{"type": "Feature", "id": "7H_WLTOLwUiP3hea5Lb-qSTlzFk=", "properties": {"ref": "Vapiano S\u00e3o Paulo", "@spider": "vapiano_us", "amenity": "restaurant", "cuisine": "italian", "addr:full": "Sao Paulo R. Joaquim Floriano 422, 04534-002", "addr:street": "R. Joaquim Floriano 422", "addr:city": "Sao Paulo", "addr:country": "BR", "name": "Vapiano", "phone": "(11) 3167-5228", "website": "https://us.vapiano.com//en/restaurants/vapiano-sao-paulo-r-joaquim-floriano-422-2/", "brand": "Vapiano", "brand:wikidata": "Q506252", "nsi_id": "vapiano-2fabb0"}, "geometry": {"type": "Point", "coordinates": [-46.674078, -23.584471]}},
{"type": "Feature", "id": "MaIIJnfdQJBSmR7mdqyVVjLPg9U=", "properties": {"ref": "Vapiano Sarajevo Franca Lehara", "@spider": "vapiano_us", "amenity": "restaurant", "cuisine": "italian", "addr:full": "Sarajevo Franca Lehara 2, 73000", "addr:street": "Franca Lehara 2", "addr:city": "Sarajevo", "addr:country": "Bosnien-Herzegowina", "name": "Vapiano", "phone": "+387 (0) 33956-954", "website": "https://us.vapiano.com//en/restaurants/vapiano-sarajevo-franca-lehara-2-2/", "brand": "Vapiano", "brand:wikidata": "Q506252", "nsi_id": "vapiano-2fabb0"}, "geometry": {"type": "Point", "coordinates": [18.40413, 43.85698]}},
{"type": "Feature", "id": "z-YN2yKrkA9BnIYM3im_3Zv9EL0=", "properties": {"ref": "Vapiano Schlo\u00dfstra\u00dfe", "@spider": "vapiano_us", "amenity": "restaurant", "cuisine": "italian", "addr:full": "Berlin Schlo\u00dfstra\u00dfe 11-12, 12163", "addr:street": "Schlo\u00dfstra\u00dfe 11-12", "addr:city": "Berlin", "addr:country": "Deutschland", "name": "Vapiano", "phone": "030/ 80100840", "website": "https://us.vapiano.com//en/restaurants/detail/restaurant-details/-cafe6f6a49/", "brand": "Vapiano", "brand:wikidata": "Q506252", "nsi_id": "vapiano-2fabb0"}, "geometry": {"type": "Point", "coordinates": [13.32539, 52.46216]}},
{"type": "Feature", "id": "rPhnBu7rehHv-NKnEDu5Di6SpWs=", "properties": {"ref": "Vapiano Shanghai", "@spider": "vapiano_us", "amenity": "restaurant", "cuisine": "italian", "addr:full": "Shanghai No. 24-26, Fucheng RD, 200120", "addr:street": "No. 24-26, Fucheng RD", "addr:city": "Shanghai", "addr:country": "CN", "name": "Vapiano", "phone": "+86 21 50777718", "website": "https://us.vapiano.com//en/restaurants/vapiano-shanghai-no-24-26-fucheng-rd/", "brand": "Vapiano", "brand:wikidata": "Q506252", "nsi_id": "vapiano-2fabb0"}, "geometry": {"type": "Point", "coordinates": [121.498286, 31.235594]}},
{"type": "Feature", "id": "FqEns2cjAQUrOD2BF0HmN4JfOTw=", "properties": {"ref": "Vapiano Sharja", "@spider": "vapiano_us", "amenity": "restaurant", "cuisine": "italian", "addr:full": "Sharja Centre-East Atrium, Level 2, UAE", "addr:street": "Centre-East Atrium, Level 2", "addr:city": "Sharja", "addr:country": "AE", "name": "Vapiano", "website": "https://us.vapiano.com//en/restaurants/vapiano-sharja-centre-east-atrium-level-2-1/", "brand": "Vapiano", "brand:wikidata": "Q506252", "nsi_id": "vapiano-2fabb0"}, "geometry": {"type": "Point", "coordinates": [55.35285, 25.2791]}},
{"type": "Feature", "id": "_eehTB-EbTW8bv1HhB9qQ2Cpgng=", "properties": {"ref": "Vapiano Solaris Tallinn", "@spider": "vapiano_us", "amenity": "restaurant", "cuisine": "italian", "addr:full": "Tallinn Solaris keskus Estonia Pst. 9, 10143", "addr:street": "Solaris keskus Estonia Pst. 9", "addr:city": "Tallinn", "addr:country": "EE", "name": "Vapiano", "phone": "+372 628 5999", "website": "https://us.vapiano.com//en/restaurants/vapiano-solaris-tallinn-estonia-pst-9-2/", "brand": "Vapiano", "brand:wikidata": "Q506252", "nsi_id": "vapiano-2fabb0"}, "geometry": {"type": "Point", "coordinates": [24.75193, 59.43312]}},
{"type": "Feature", "id": "wVwO9p7RSViysLWMvZGW56wgvOE=", "properties": {"ref": "Vapiano Soul", "@spider": "vapiano_us", "amenity": "restaurant", "cuisine": "italian", "addr:full": "Surfers Paradise Soul Retail / Cavill Avenue, QLD 4217", "addr:street": "Soul Retail / Cavill Avenue", "addr:city": "Surfers Paradise", "addr:country": "AU", "name": "Vapiano", "phone": "+61 7 5538 8967", "website": "https://us.vapiano.com//en/restaurants/vapiano-gold-coast-soul-retail-cavill-avenue-1/", "brand": "Vapiano", "brand:wikidata": "Q506252", "nsi_id": "vapiano-2fabb0"}, "geometry": {"type": "Point", "coordinates": [153.42954, -28.00218]}},
{"type": "Feature", "id": "BMLJZrfXKh0dJs41HWaC4u6yK-o=", "properties": {"ref": "Vapiano St Giles Square / Tottenham Court Road", "@spider": "vapiano_us", "amenity": "restaurant", "cuisine": "italian", "addr:full": "London Centre Point 12 St. Giles Square, WC2H 8PA", "addr:street": "Centre Point 12 St. Giles Square", "addr:city": "London", "addr:postcode": "WC2H 8PA", "addr:country": "GB", "name": "Vapiano", "phone": "00442039725420", "website": "https://us.vapiano.com//en/restaurants/detail/restaurant-details/-83b8c88ed7/", "brand": "Vapiano", "brand:wikidata": "Q506252", "nsi_id": "vapiano-2fabb0"}, "geometry": {"type": "Point", "coordinates": [-0.1281, 51.51449]}},
{"type": "Feature", "id": "-1cYdb0FmkONNxbKl0ldfUN2jPk=", "properties": {"ref": "Vapiano Strasbourg Quai Kl\u00e9ber", "@spider": "vapiano_us", "amenity": "restaurant", "cuisine": "italian", "addr:full": "Strasbourg 2, Quai Kl\u00e9ber, 67000", "addr:street": "2, Quai Kl\u00e9ber", "addr:city": "Strasbourg", "addr:country": "FR", "name": "Vapiano", "phone": "+33374112333", "website": "https://us.vapiano.com//en/restaurants/vapiano-strasbourg-2-quai-kleber-1/", "brand": "Vapiano", "brand:wikidata": "Q506252", "nsi_id": "vapiano-2fabb0"}, "geometry": {"type": "Point", "coordinates": [7.74442, 48.585622]}},
{"type": "Feature", "id": "eJWifxcs9F5gJn0I23OAvXtom4o=", "properties": {"ref": "Vapiano Stureplan", "@spider": "vapiano_us", "amenity": "restaurant", "cuisine": "italian", "addr:full": "Stockholm Sturegatan 12, 114 36", "addr:street": "Sturegatan 12", "addr:city": "Stockholm", "addr:country": "SE", "name": "Vapiano", "phone": "+46 (0)8 662 20 11", "website": "https://us.vapiano.com//en/restaurants/vapiano-stureplan-sturegatan-12-1/", "brand": "Vapiano", "brand:wikidata": "Q506252", "nsi_id": "vapiano-2fabb0"}, "geometry": {"type": "Point", "coordinates": [18.07417, 59.33752]}},
{"type": "Feature", "id": "erEaR0UIYBGx4J9wbBuGPrSNNOU=", "properties": {"ref": "Vapiano Stuttgart Bolzstrasse", "@spider": "vapiano_us", "amenity": "restaurant", "cuisine": "italian", "addr:full": "Stuttgart Bolzstrasse 7, 70173", "addr:street": "Bolzstrasse 7", "addr:city": "Stuttgart", "addr:country": "DE", "name": "Vapiano", "phone": "+49 (0)7112296706", "website": "https://us.vapiano.com//en/restaurants/vapiano-stuttgart-1-bolzstrasse-7-1/", "brand": "Vapiano", "brand:wikidata": "Q506252", "nsi_id": "vapiano-2fabb0"}, "geometry": {"type": "Point", "coordinates": [9.177596, 48.78006]}},
{"type": "Feature", "id": "C2Qy-X4QtpSWJ5QngjkccsQ95nc=", "properties": {"ref": "Vapiano Stuttgart Schlo\u00dfstr.", "@spider": "vapiano_us", "amenity": "restaurant", "cuisine": "italian", "addr:full": "Stuttgart Schlo\u00dfstrasse 70, 70176", "addr:street": "Schlo\u00dfstrasse 70", "addr:city": "Stuttgart", "addr:country": "DE", "name": "Vapiano", "phone": "+49 (0)71169947997", "website": "https://us.vapiano.com//en/restaurants/vapiano-stuttgart-2-schlossstrasse-70-1/", "brand": "Vapiano", "brand:wikidata": "Q506252", "nsi_id": "vapiano-2fabb0"}, "geometry": {"type": "Point", "coordinates": [9.1649, 48.7774]}},
{"type": "Feature", "id": "JgW5XHg36NEs1uqb--7upEjD4Iw=", "properties": {"ref": "Vapiano Taichung", "@spider": "vapiano_us", "amenity": "restaurant", "cuisine": "italian", "addr:full": "Taichung City No. 219, Zhongxing St. West Di, 403", "addr:street": "No. 219, Zhongxing St. West Di", "addr:city": "Taichung City", "addr:country": "TW", "name": "Vapiano", "phone": "+886 4 2326 5151", "website": "https://us.vapiano.com//en/restaurants/vapiano-taichung-no-219-zhongxing-st-west-di-1/", "brand": "Vapiano", "brand:wikidata": "Q506252", "nsi_id": "vapiano-2fabb0"}, "geometry": {"type": "Point", "coordinates": [121.566148, 25.035629]}},
{"type": "Feature", "id": "hJloME5c9Hk2rYIaOq1cXRe84n4=", "properties": {"ref": "Vapiano Taipeh", "@spider": "vapiano_us", "amenity": "restaurant", "cuisine": "italian", "addr:full": "Taipeh 10F.-2, No.12, Songsh\u00f2u Rd, 110", "addr:street": "10F.-2, No.12, Songsh\u00f2u Rd", "addr:city": "Taipeh", "addr:country": "TW", "name": "Vapiano", "phone": "+886 2 2722 7111", "website": "https://us.vapiano.com//en/restaurants/vapiano-taipeh-10f-2-no12-songshou-rd-1/", "brand": "Vapiano", "brand:wikidata": "Q506252", "nsi_id": "vapiano-2fabb0"}, "geometry": {"type": "Point", "coordinates": [121.56607, 25.03567]}},
{"type": "Feature", "id": "hsjvvYGpdRR3fBuxLQLNoujc1m0=", "properties": {"ref": "Vapiano Tartu", "@spider": "vapiano_us", "amenity": "restaurant", "cuisine": "italian", "addr:full": "Tartu Kvartal keskus, Riia 2, 51013", "addr:street": "Kvartal keskus, Riia 2", "addr:city": "Tartu", "addr:country": "EE", "name": "Vapiano", "phone": "3726830092", "website": "https://us.vapiano.com//en/restaurants/detail/restaurant-details/-62949b9cee/", "brand": "Vapiano", "brand:wikidata": "Q506252", "nsi_id": "vapiano-2fabb0"}, "geometry": {"type": "Point", "coordinates": [26.729007, 58.377043]}},
{"type": "Feature", "id": "UXvvsvdRbsx1718X84Vzp8iwneA=", "properties": {"ref": "Vapiano Tilburg Piusplein", "@spider": "vapiano_us", "amenity": "restaurant", "cuisine": "italian", "addr:full": "Tilburg Piusplein 65, 5038 WP", "addr:street": "Piusplein 65", "addr:city": "Tilburg", "addr:country": "Holland", "name": "Vapiano", "phone": "+31 (0) 137621700", "website": "https://us.vapiano.com//en/restaurants/vapiano-tilburg-1-piusplein-65/", "brand": "Vapiano", "brand:wikidata": "Q506252", "nsi_id": "vapiano-2fabb0"}, "geometry": {"type": "Point", "coordinates": [5.09099, 51.555696]}},
{"type": "Feature", "id": "dfnoBhdsnuFIeydf9_mGRwrtyUg=", "properties": {"ref": "Vapiano Tivoli Garden The Edge", "@spider": "vapiano_us", "amenity": "restaurant", "cuisine": "italian", "addr:full": "K\u00f8benhavn V Bernstorffsgade/Vesterbrogade 3, 1630", "addr:street": "Bernstorffsgade/Vesterbrogade 3", "addr:city": "K\u00f8benhavn V", "addr:country": "D\u00e4nemark", "name": "Vapiano", "phone": "+45 70257070", "website": "https://us.vapiano.com//en/restaurants/detail/restaurant-details/-62fd28732a/", "brand": "Vapiano", "brand:wikidata": "Q506252", "nsi_id": "vapiano-2fabb0"}, "geometry": {"type": "Point", "coordinates": [12.565809, 55.673807]}},
{"type": "Feature", "id": "22Ey0eEP0lvUwkBiGSVDHNV-Mds=", "properties": {"ref": "Vapiano Tlalnepantla", "@spider": "vapiano_us", "amenity": "restaurant", "cuisine": "italian", "addr:full": " Sor Juana In\u00e9s de la Cruz #280., 54033", "addr:street": "Sor Juana In\u00e9s de la Cruz #280.", "addr:country": "MX", "name": "Vapiano", "phone": "9135 7023", "website": "https://us.vapiano.com//en/restaurants/vapiano-mexico-5-vapiano-mexico-5/", "brand": "Vapiano", "brand:wikidata": "Q506252", "nsi_id": "vapiano-2fabb0"}, "geometry": {"type": "Point", "coordinates": [-99.20444, 19.53957]}},
{"type": "Feature", "id": "GnejMDhPVJJWz89vgdMi_B51j8U=", "properties": {"ref": "Vapiano Tower Bridge", "@spider": "vapiano_us", "amenity": "restaurant", "cuisine": "italian", "addr:full": "London 2 Potters Fields, One Tower Bridge, SE1 2SG", "addr:street": "2 Potters Fields, One Tower Bridge", "addr:city": "London", "addr:postcode": "SE1 2SG", "addr:country": "GB", "name": "Vapiano", "phone": "02039415550", "website": "https://us.vapiano.com//en/restaurants/detail/restaurant-details/-b34623bd85/", "brand": "Vapiano", "brand:wikidata": "Q506252", "nsi_id": "vapiano-2fabb0"}, "geometry": {"type": "Point", "coordinates": [-0.07879, 51.50363]}},
{"type": "Feature", "id": "L2zzhalxffNv2_-uZKQBfgV1OmU=", "properties": {"ref": "Vapiano \u00dclemiste Tallinn", "@spider": "vapiano_us", "amenity": "restaurant", "cuisine": "italian", "addr:full": "Tallinn Suur-S\u00f5jam\u00e4e 4, 11415", "addr:street": "Suur-S\u00f5jam\u00e4e 4", "addr:city": "Tallinn", "addr:country": "Eesti", "name": "Vapiano", "phone": "+372 55545311", "website": "https://us.vapiano.com//en/restaurants/detail/restaurant-details/-27f4903113/", "brand": "Vapiano", "brand:wikidata": "Q506252", "nsi_id": "vapiano-2fabb0"}, "geometry": {"type": "Point", "coordinates": [24.79405, 59.42157]}},
{"type": "Feature", "id": "3zh5E1Llh739u2_GKUNy7VK08JI=", "properties": {"ref": "Vapiano Ulm", "@spider": "vapiano_us", "amenity": "restaurant", "cuisine": "italian", "addr:full": "Ulm Neue Stra\u00dfe 75, 89073", "addr:street": "Neue Stra\u00dfe 75", "addr:city": "Ulm", "addr:country": "Deutschland", "name": "Vapiano", "website": "https://us.vapiano.com//en/restaurants/detail/restaurant-details/-ddffeb75f4/", "brand": "Vapiano", "brand:wikidata": "Q506252", "nsi_id": "vapiano-2fabb0"}, "geometry": {"type": "Point", "coordinates": [9.99269, 48.3976]}},
{"type": "Feature", "id": "UOMs-yiyPkRhpZGo_1bFs-AFB1k=", "properties": {"ref": "Vapiano Utrecht Hoog Catharijne", "@spider": "vapiano_us", "amenity": "restaurant", "cuisine": "italian", "addr:full": "ED Utrecht Stationsplein 4, 3511", "addr:street": "Stationsplein 4", "addr:city": "ED Utrecht", "addr:country": "Niederlande", "name": "Vapiano", "phone": "+31 30 200 69 30", "website": "https://us.vapiano.com//en/restaurants/detail/restaurant-details/-69abe1ff11/", "brand": "Vapiano", "brand:wikidata": "Q506252", "nsi_id": "vapiano-2fabb0"}, "geometry": {"type": "Point", "coordinates": [5.110414, 52.090148]}},
{"type": "Feature", "id": "GvsI-2GS3SmPQQ3wkFhPo-fBEm4=", "properties": {"ref": "Vapiano Utrecht Leidsche Rijn", "@spider": "vapiano_us", "amenity": "restaurant", "cuisine": "italian", "addr:full": "CH Utrecht Brusselplein 83, 3541", "addr:street": "Brusselplein 83", "addr:city": "CH Utrecht", "addr:country": "Niederlande", "name": "Vapiano", "phone": "030-7606930", "website": "https://us.vapiano.com//en/restaurants/detail/restaurant-details/-6ba8abec86/", "brand": "Vapiano", "brand:wikidata": "Q506252", "nsi_id": "vapiano-2fabb0"}, "geometry": {"type": "Point", "coordinates": [5.06553, 52.0981]}},
{"type": "Feature", "id": "i3BYUP_pfaYydHqE7_bUzfKcCj4=", "properties": {"ref": "Vapiano Vallejo", "@spider": "vapiano_us", "amenity": "restaurant", "cuisine": "italian", "addr:full": " Calz. Vallejo #1090, 02340", "addr:street": "Calz. Vallejo #1090", "addr:country": "MX", "name": "Vapiano", "phone": "9135 7023", "website": "https://us.vapiano.com//en/restaurants/detail/restaurant-details/-6f53d74d92/", "brand": "Vapiano", "brand:wikidata": "Q506252", "nsi_id": "vapiano-2fabb0"}, "geometry": {"type": "Point", "coordinates": [-99.151298, 19.486834]}},
{"type": "Feature", "id": "hm9FBLPCkuM7gkWFyfo9zPm3Z88=", "properties": {"ref": "Vapiano Vasagatan", "@spider": "vapiano_us", "amenity": "restaurant", "cuisine": "italian", "addr:full": "Stockholm Vasagatan 16, 111 20", "addr:street": "Vasagatan 16", "addr:city": "Stockholm", "addr:country": "SE", "name": "Vapiano", "phone": "+46(0)8- 401 19 90", "website": "https://us.vapiano.com//en/restaurants/detail/restaurant-details/-8998b24855/", "brand": "Vapiano", "brand:wikidata": "Q506252", "nsi_id": "vapiano-2fabb0"}, "geometry": {"type": "Point", "coordinates": [18.059967, 59.33025]}},
{"type": "Feature", "id": "GWhUehdj8J3ju6u42EkQqgdgcuA=", "properties": {"ref": "Vapiano Villages Nature", "@spider": "vapiano_us", "amenity": "restaurant", "cuisine": "italian", "addr:full": "Bailly-Romainvilliers 1, rue du Pr\u00e9 Merlans, 77700", "addr:street": "1, rue du Pr\u00e9 Merlans", "addr:city": "Bailly-Romainvilliers", "addr:country": "FR", "name": "Vapiano", "phone": "+33185152056", "website": "https://us.vapiano.com//en/restaurants/vapiano-villages-nature-rue-du-pre-merlans-1/", "brand": "Vapiano", "brand:wikidata": "Q506252", "nsi_id": "vapiano-2fabb0"}, "geometry": {"type": "Point", "coordinates": [2.804099, 48.830804]}},
{"type": "Feature", "id": "2tVNmLJPXFr-CTwTAyHcZwX_2Vw=", "properties": {"ref": "Vapiano Vilnius", "@spider": "vapiano_us", "amenity": "restaurant", "cuisine": "italian", "addr:full": "Vilnius Konstitucijos Pr. 7A, 01055", "addr:street": "Konstitucijos Pr. 7A", "addr:city": "Vilnius", "addr:country": "LT", "name": "Vapiano", "phone": "+370 5 238 3489", "website": "https://us.vapiano.com//en/restaurants/vapiano-vilnius-konstitucijos-pr-7a-1/", "brand": "Vapiano", "brand:wikidata": "Q506252", "nsi_id": "vapiano-2fabb0"}, "geometry": {"type": "Point", "coordinates": [25.2767, 54.69635]}},
{"type": "Feature", "id": "qTzn2U9GMgDY3azWUHCsgaWFaEw=", "properties": {"ref": "Vapiano V\u00f6sendorf SCS Kaufhaus", "@spider": "vapiano_us", "amenity": "restaurant", "cuisine": "italian", "addr:full": "V\u00f6sendorf SCS Kaufhaus A. Eingang 7, A-2334", "addr:street": "SCS Kaufhaus A. Eingang 7", "addr:city": "V\u00f6sendorf", "addr:country": "AT", "name": "Vapiano", "phone": "+ 43 (0) 16981515", "website": "https://us.vapiano.com//en/restaurants/vapiano-scs-scs-kaufhaus-a-eingang-7/", "brand": "Vapiano", "brand:wikidata": "Q506252", "nsi_id": "vapiano-2fabb0"}, "geometry": {"type": "Point", "coordinates": [16.319004, 48.112056]}},
{"type": "Feature", "id": "ZObRR-yfOVb6QIh-Ijj0zEFfU4c=", "properties": {"ref": "Vapiano Warszawa AL. JEROZOLIMSKIE", "@spider": "vapiano_us", "amenity": "restaurant", "cuisine": "italian", "addr:full": "Warszawa AL. JEROZOLIMSKIE 63, 00-697", "addr:street": "AL. JEROZOLIMSKIE 63", "addr:city": "Warszawa", "addr:country": "PL", "name": "Vapiano", "phone": "+48 22 852 49 65", "website": "https://us.vapiano.com//en/restaurants/vapiano-warszawa-2-al-jerozolimskie-63-1/", "brand": "Vapiano", "brand:wikidata": "Q506252", "nsi_id": "vapiano-2fabb0"}, "geometry": {"type": "Point", "coordinates": [21.00566, 52.22833]}},
{"type": "Feature", "id": "6pKeB4pSoDW2rfcehyAg__UhtC8=", "properties": {"ref": "Vapiano Warszawa UL. WOLOSKA", "@spider": "vapiano_us", "amenity": "restaurant", "cuisine": "italian", "addr:full": "Warszawa UL. WOLOSKA 12, 02-697", "addr:street": "UL. WOLOSKA 12", "addr:city": "Warszawa", "addr:country": "PL", "name": "Vapiano", "phone": "+48 600 325 883", "website": "https://us.vapiano.com//en/restaurants/vapiano-warszawa-3-ul-woloska-12-1/", "brand": "Vapiano", "brand:wikidata": "Q506252", "nsi_id": "vapiano-2fabb0"}, "geometry": {"type": "Point", "coordinates": [21.00204, 52.19072]}},
{"type": "Feature", "id": "xJV-Gy_HyiXkdGo0uV15FlUHqVQ=", "properties": {"ref": "Vapiano Wien Europaplatz", "@spider": "vapiano_us", "amenity": "restaurant", "cuisine": "italian", "addr:full": "Wien Europaplatz 1, A-1150", "addr:street": "Europaplatz 1", "addr:city": "Wien", "addr:country": "AT", "name": "Vapiano", "phone": "+43 (0) 1 962 15 15", "website": "https://us.vapiano.com//en/restaurants/vapiano-westbahnhof-europaplatz-1/", "brand": "Vapiano", "brand:wikidata": "Q506252", "nsi_id": "vapiano-2fabb0"}, "geometry": {"type": "Point", "coordinates": [16.33798, 48.19577]}},
{"type": "Feature", "id": "jQU4IE62CLNzR_wQfvvaqy642Jc=", "properties": {"ref": "Vapiano Wien Hauptbahnhof", "@spider": "vapiano_us", "amenity": "restaurant", "cuisine": "italian", "addr:full": "Wien Gertrude-Fr\u00f6hlich-Sandner-Stra\u00dfe 13A, Top1, 1100", "addr:street": "Gertrude-Fr\u00f6hlich-Sandner-Stra\u00dfe 13A, Top1", "addr:city": "Wien", "addr:country": "\u00d6sterreich", "name": "Vapiano", "phone": "+43 (1) 388 33 33", "website": "https://us.vapiano.com//en/restaurants/detail/restaurant-details/-25843da623/", "brand": "Vapiano", "brand:wikidata": "Q506252", "nsi_id": "vapiano-2fabb0"}, "geometry": {"type": "Point", "coordinates": [16.37793, 48.18376]}},
{"type": "Feature", "id": "_lsqrRgGuufFNUrZXAZxf-qe4lQ=", "properties": {"ref": "Vapiano Wien Herrengasse", "@spider": "vapiano_us", "amenity": "restaurant", "cuisine": "italian", "addr:full": "Wien Herrengasse 6-8, A-1010", "addr:street": "Herrengasse 6-8", "addr:city": "Wien", "addr:country": "AT", "name": "Vapiano", "phone": "+43 (0) 1 533 7272", "website": "https://us.vapiano.com//en/restaurants/vapiano-herrengasse-herrengsasse-6-8/", "brand": "Vapiano", "brand:wikidata": "Q506252", "nsi_id": "vapiano-2fabb0"}, "geometry": {"type": "Point", "coordinates": [16.36615, 48.20923]}},
{"type": "Feature", "id": "Uyt1KHSo3TQuWMiXWYtVyy6nCTg=", "properties": {"ref": "Vapiano Wien Landstrasser Hauptstrasse", "@spider": "vapiano_us", "amenity": "restaurant", "cuisine": "italian", "addr:full": "Wien Landstrasser Hauptstrasse 1 D, A-1030", "addr:street": "Landstrasser Hauptstrasse 1 D", "addr:city": "Wien", "addr:country": "AT", "name": "Vapiano", "phone": "+ 43 (0) 17107373", "website": "https://us.vapiano.com//en/restaurants/vapiano-wien-mitte-landstrasser-hauptstrasse-1-d/", "brand": "Vapiano", "brand:wikidata": "Q506252", "nsi_id": "vapiano-2fabb0"}, "geometry": {"type": "Point", "coordinates": [16.38339, 48.20659]}},
{"type": "Feature", "id": "Booq7IdyU0iNscqhaBfVsvUmdjk=", "properties": {"ref": "Vapiano Wien Praterstra\u00dfe", "@spider": "vapiano_us", "amenity": "restaurant", "cuisine": "italian", "addr:full": "Wien Praterstrasse 24-26, A-1020", "addr:street": "Praterstrasse 24-26", "addr:city": "Wien", "addr:country": "AT", "name": "Vapiano", "phone": "+43 (0)12122323", "website": "https://us.vapiano.com//en/restaurants/vapiano-praterstrasse-praterstrasse-24-26/", "brand": "Vapiano", "brand:wikidata": "Q506252", "nsi_id": "vapiano-2fabb0"}, "geometry": {"type": "Point", "coordinates": [16.38333, 48.21366]}},
{"type": "Feature", "id": "4QF-YIwB4Mwaop2A5NrfiZoEeuI=", "properties": {"ref": "Vapiano Wien Theobaldgasse", "@spider": "vapiano_us", "amenity": "restaurant", "cuisine": "italian", "addr:full": "Wien Theobaldgasse 19, A-1060", "addr:street": "Theobaldgasse 19", "addr:city": "Wien", "addr:country": "AT", "name": "Vapiano", "phone": "+43 (0) 1 581 1212", "website": "https://us.vapiano.com//en/restaurants/vapiano-mariahilfer-strasse-theobaldgasse-19/", "brand": "Vapiano", "brand:wikidata": "Q506252", "nsi_id": "vapiano-2fabb0"}, "geometry": {"type": "Point", "coordinates": [16.35853, 48.20043]}},
{"type": "Feature", "id": "0cb68mWV2EV6f7EewU2XcQHHaN8=", "properties": {"ref": "Vapiano Wien Walfischgasse", "@spider": "vapiano_us", "amenity": "restaurant", "cuisine": "italian", "addr:full": "Wien Walfischgasse 11, A-1010", "addr:street": "Walfischgasse 11", "addr:city": "Wien", "addr:country": "AT", "name": "Vapiano", "phone": "+ 43 (0) 15122277", "website": "https://us.vapiano.com//en/restaurants/vapiano-moulin-rouge-walfischgasse-11/", "brand": "Vapiano", "brand:wikidata": "Q506252", "nsi_id": "vapiano-2fabb0"}, "geometry": {"type": "Point", "coordinates": [16.37192, 48.20333]}},
{"type": "Feature", "id": "kwycJTeyp8RA8ha0U4PMLiptXRw=", "properties": {"ref": "Vapiano Wiesbaden Wilhelmstra\u00dfe", "@spider": "vapiano_us", "amenity": "restaurant", "cuisine": "italian", "addr:full": "Wiesbaden Wilhelmstra\u00dfe 52 e-f, 65183", "addr:street": "Wilhelmstra\u00dfe 52 e-f", "addr:city": "Wiesbaden", "addr:country": "DE", "name": "Vapiano", "phone": "+49 (0)6111608773", "website": "https://us.vapiano.com//en/restaurants/vapiano-wiesbaden-wilhelmstrasse-52-e-f-1/", "brand": "Vapiano", "brand:wikidata": "Q506252", "nsi_id": "vapiano-2fabb0"}, "geometry": {"type": "Point", "coordinates": [8.24341, 50.08415]}},
{"type": "Feature", "id": "iltj1HhwkLJK4Ipv5K3Ot_Oidzo=", "properties": {"ref": "Vapiano Wolfsburg Porschestra\u00dfe", "@spider": "vapiano_us", "amenity": "restaurant", "cuisine": "italian", "addr:full": "Wolfsburg Porschestra\u00dfe 26-30, 38440", "addr:street": "Porschestra\u00dfe 26-30", "addr:city": "Wolfsburg", "addr:country": "DE", "name": "Vapiano", "phone": "+49 (0)53618905122", "website": "https://us.vapiano.com//en/restaurants/vapiano-wolfsburg-porschestrasse-26-30-1/", "brand": "Vapiano", "brand:wikidata": "Q506252", "nsi_id": "vapiano-2fabb0"}, "geometry": {"type": "Point", "coordinates": [10.790218, 52.425802]}},
{"type": "Feature", "id": "qDleFew_nyvke5VCP_lfNTSer44=", "properties": {"ref": "Vapiano Wroc\u0142aw", "@spider": "vapiano_us", "amenity": "restaurant", "cuisine": "italian", "addr:full": "Wroc\u0142aw ul. Sucha 1, 50-086", "addr:street": "ul. Sucha 1", "addr:city": "Wroc\u0142aw", "addr:country": "Polska", "name": "Vapiano", "phone": "790 730 784", "website": "https://us.vapiano.com//en/restaurants/detail/restaurant-details/-a0996bec53/", "brand": "Vapiano", "brand:wikidata": "Q506252", "nsi_id": "vapiano-2fabb0"}, "geometry": {"type": "Point", "coordinates": [17.033823, 51.096578]}},
{"type": "Feature", "id": "dJHwxT1Y9vS2Qg7yIyK0IO8Q-HY=", "properties": {"ref": "Vapiano Wuppertal Alexanderstra\u00dfe", "@spider": "vapiano_us", "amenity": "restaurant", "cuisine": "italian", "addr:full": "Wuppertal Alexanderstr. 1, 42103", "addr:street": "Alexanderstr. 1", "addr:city": "Wuppertal", "addr:country": "DE", "name": "Vapiano", "phone": "+49 (0)20276949515", "website": "https://us.vapiano.com//en/restaurants/vapiano-wuppertal-alexanderstr-1-1/", "brand": "Vapiano", "brand:wikidata": "Q506252", "nsi_id": "vapiano-2fabb0"}, "geometry": {"type": "Point", "coordinates": [7.14347, 51.25496]}},
{"type": "Feature", "id": "AeoNXBFZAMRBeaulBQyaAXZhuHw=", "properties": {"ref": "Vapiano Z\u00fcrich Kalanderplatz", "@spider": "vapiano_us", "amenity": "restaurant", "cuisine": "italian", "addr:full": "Z\u00fcrich Kalanderplatz 9, 8045", "addr:street": "Kalanderplatz 9", "addr:city": "Z\u00fcrich", "addr:country": "CH", "name": "Vapiano", "phone": "+41 (0) 44 201 15-25", "website": "https://us.vapiano.com//en/restaurants/vapiano-zuerich-1-kalanderplatz-9-1/", "brand": "Vapiano", "brand:wikidata": "Q506252", "nsi_id": "vapiano-2fabb0"}, "geometry": {"type": "Point", "coordinates": [8.52287, 47.3585]}},
{"type": "Feature", "id": "ECPsPDWlUDEgoynLeliebTVcbZw=", "properties": {"ref": "Vapiano Z\u00fcrich R\u00e4mistrasse", "@spider": "vapiano_us", "amenity": "restaurant", "cuisine": "italian", "addr:full": "Z\u00fcrich R\u00e4mistrasse 8, 8001", "addr:street": "R\u00e4mistrasse 8", "addr:city": "Z\u00fcrich", "addr:country": "CH", "name": "Vapiano", "phone": "+41 (0) 44 252 0062", "website": "https://us.vapiano.com//en/restaurants/vapiano-zuerich-2-raemistrasse-8-1/", "brand": "Vapiano", "brand:wikidata": "Q506252", "nsi_id": "vapiano-2fabb0"}, "geometry": {"type": "Point", "coordinates": [8.54608, 47.36778]}},
{"type": "Feature", "id": "k987rK415PGQrkIxxF0sA0mLWQ8=", "properties": {"ref": "Vapianoa Luxembourg John F. Kennedy", "@spider": "vapiano_us", "amenity": "restaurant", "cuisine": "italian", "addr:full": "Luxembourg 44 AV. John F. Kennedy, L-1855", "addr:street": "44 AV. John F. Kennedy", "addr:city": "Luxembourg", "addr:country": "LU", "name": "Vapiano", "phone": "(+352) 27 84 82 84", "website": "https://us.vapiano.com//en/restaurants/vapiano-luxembourg-1-44-av-john-f-kennedy-1/", "brand": "Vapiano", "brand:wikidata": "Q506252", "nsi_id": "vapiano-2fabb0"}, "geometry": {"type": "Point", "coordinates": [6.16214, 49.62664]}},
{"type": "Feature", "id": "G-wu0fYHY2JImlF5HdhZy-JdObc=", "properties": {"ref": "Vapinao Kuwait", "@spider": "vapiano_us", "amenity": "restaurant", "cuisine": "italian", "addr:full": " Mezzanine Floor, Grand Avenues, P.O. BOX 5132", "addr:street": "Mezzanine Floor, Grand Avenues", "addr:country": "KW", "name": "Vapiano", "phone": "+95622597172", "website": "https://us.vapiano.com//en/restaurants/detail/restaurant-details/vapinao-kuwait-salem-al-mubarak-st-block-2-1/", "brand": "Vapiano", "brand:wikidata": "Q506252", "nsi_id": "vapiano-2fabb0"}, "geometry": {"type": "Point", "coordinates": [48.073136, 29.34164]}}]}