{"type":"FeatureCollection","features":[{"type": "Feature", "id": "0dPkS-_Yvpp91O45HHYT3pYBMH4=", "properties": {"ref": "0", "@spider": "vitalant", "healthcare": "blood_donation", "addr:full": "1989 W Elliot Rd #32", "addr:city": "Chandler", "addr:state": "AZ", "addr:postcode": "85224", "name": "Chandler", "website": "https://www.vitalant.org/Locations2/Arizona/Chandler-Donor-Center", "brand": "Vitalant", "brand:wikidata": "Q7887528", "nsi_id": "vitalant-cf4bd7"}, "geometry": {"type": "Point", "coordinates": [-111.87484, 33.349]}},
{"type": "Feature", "id": "xA8kOi9fIiXwKA7NLUqJC9PJWX0=", "properties": {"ref": "1", "@spider": "vitalant", "healthcare": "blood_donation", "addr:full": "18583 N 59th Ave", "addr:city": "Glendale", "addr:state": "AZ", "addr:postcode": "85308", "name": "Glendale", "website": "https://www.vitalant.org/Locations2/Arizona/Glendale-Donor-Center", "brand": "Vitalant", "brand:wikidata": "Q7887528", "nsi_id": "vitalant-cf4bd7"}, "geometry": {"type": "Point", "coordinates": [-112.18637, 33.65429]}},
{"type": "Feature", "id": "q3v6wQRSq8V0MHVrTYxRk-yfO98=", "properties": {"ref": "2", "@spider": "vitalant", "healthcare": "blood_donation", "addr:full": "14270 W indian School Rd", "addr:city": "Goodyear", "addr:state": "AZ", "addr:postcode": "85395", "name": "Goodyear", "website": "https://www.vitalant.org/Locations2/Arizona/Goodyear-Donor-Center", "brand": "Vitalant", "brand:wikidata": "Q7887528", "nsi_id": "vitalant-cf4bd7"}, "geometry": {"type": "Point", "coordinates": [-112.3656, 33.48652]}},
{"type": "Feature", "id": "1SwlXtmjDpoFUYejRhDqePjo6aw=", "properties": {"ref": "3", "@spider": "vitalant", "healthcare": "blood_donation", "addr:full": "5757 North Black Canyon Highway", "addr:city": "Phoenix", "addr:state": "AZ", "addr:postcode": "85015-2209", "name": "Phoenix", "website": "https://www.vitalant.org/Locations2/Arizona/Phoenix-Donor-Center", "brand": "Vitalant", "brand:wikidata": "Q7887528", "nsi_id": "vitalant-cf4bd7"}, "geometry": {"type": "Point", "coordinates": [-112.11204, 33.55502]}},
{"type": "Feature", "id": "-c-ZqravFJw_wqvb8KLKnCXbkbU=", "properties": {"ref": "4", "@spider": "vitalant", "healthcare": "blood_donation", "addr:full": "1337 S Gilbert Rd #101", "addr:city": "Mesa", "addr:state": "AZ", "addr:postcode": "85204", "name": "Mesa", "website": "https://www.vitalant.org/Locations2/Arizona/Mesa-Donor-Center", "brand": "Vitalant", "brand:wikidata": "Q7887528", "nsi_id": "vitalant-cf4bd7"}, "geometry": {"type": "Point", "coordinates": [-111.7877, 33.39148]}},
{"type": "Feature", "id": "9fSe2kYvzz2QDakJVrFwPYHB4F0=", "properties": {"ref": "5", "@spider": "vitalant", "healthcare": "blood_donation", "addr:full": "15170 N Hayden Place", "addr:city": "Scottsdale ", "addr:state": "AZ", "addr:postcode": "85260", "name": "Scottsdale", "website": "https://www.vitalant.org/Locations2/Arizona/Scottsdale-Donor-Center", "brand": "Vitalant", "brand:wikidata": "Q7887528", "nsi_id": "vitalant-cf4bd7"}, "geometry": {"type": "Point", "coordinates": [-111.90374, 33.623276]}},
{"type": "Feature", "id": "CRnnYYp_9Jqjf9ABIb5NLiOpwVg=", "properties": {"ref": "6", "@spider": "vitalant", "healthcare": "blood_donation", "addr:full": "1524 W. 14th St. #120", "addr:city": "Tempe", "addr:state": "AZ", "addr:postcode": "85281", "name": "Tempe", "website": "https://vitalant.org/Locations2/Arizona/Tempe-Donor-Center", "brand": "Vitalant", "brand:wikidata": "Q7887528", "nsi_id": "vitalant-cf4bd7"}, "geometry": {"type": "Point", "coordinates": [-111.96504, 33.41418]}},
{"type": "Feature", "id": "9SbDThkH14yvmegjyMdXGFMeMkw=", "properties": {"ref": "7", "@spider": "vitalant", "healthcare": "blood_donation", "addr:full": "25 Hillcroft Way", "addr:city": "Walnut Creek", "addr:state": "CA", "addr:postcode": "94597", "name": "Walnut Creek", "website": "https://vitalant.org/Locations2/Bay-Area/Walnut-Creek-Donation-Site", "brand": "Vitalant", "brand:wikidata": "Q7887528", "nsi_id": "vitalant-cf4bd7"}, "geometry": {"type": "Point", "coordinates": [-122.05969, 37.91479]}},
{"type": "Feature", "id": "8qpT-IG6Pdil93DbvZTxyK5Y0Xs=", "properties": {"ref": "8", "@spider": "vitalant", "healthcare": "blood_donation", "addr:full": "8425 Sierra College Blvd.  Ste D", "addr:city": "Granite Bay ", "addr:state": "CA", "addr:postcode": "95945", "name": "Granite Bay", "website": "https://www.vitalant.org/Locations2/Northern-California/Granite-Bay", "brand": "Vitalant", "brand:wikidata": "Q7887528", "nsi_id": "vitalant-cf4bd7"}, "geometry": {"type": "Point", "coordinates": [-121.224928, 38.745493]}},
{"type": "Feature", "id": "MIsBmI-W3gNp8a5eQGEVPbxtr5k=", "properties": {"ref": "9", "@spider": "vitalant", "healthcare": "blood_donation", "addr:full": "759 Sutton Way", "addr:city": "Grass Valley", "addr:state": "CA", "addr:postcode": "95945", "name": "Grass Valley", "website": "https://www.vitalant.org/Locations2/Northern-California/Grass-Valley", "brand": "Vitalant", "brand:wikidata": "Q7887528", "nsi_id": "vitalant-cf4bd7"}, "geometry": {"type": "Point", "coordinates": [-121.0347138, 39.2334148]}},
{"type": "Feature", "id": "SVODX72sfsh9VECt8dIL5gZ2HYc=", "properties": {"ref": "10", "@spider": "vitalant", "healthcare": "blood_donation", "addr:full": "10529 Fairway Drive", "addr:city": "Roseville", "addr:state": "CA", "addr:postcode": "95678", "name": "Roseville", "website": "https://www.vitalant.org/Locations2/Northern-California/Roseville", "brand": "Vitalant", "brand:wikidata": "Q7887528", "nsi_id": "vitalant-cf4bd7"}, "geometry": {"type": "Point", "coordinates": [-121.29327, 38.793378]}},
{"type": "Feature", "id": "cnSmuqYV6Uu-gTxdz48k2ZFooMw=", "properties": {"ref": "11", "@spider": "vitalant", "healthcare": "blood_donation", "addr:full": "4119 Broad St #100", "addr:city": "San Luis Obispo", "addr:state": "CA", "addr:postcode": "93401", "name": "San Luis Obispo", "website": "https://www.vitalant.org/Locations2/Central-Coast-California/San-Luis-Obispo-Donation-Center", "brand": "Vitalant", "brand:wikidata": "Q7887528", "nsi_id": "vitalant-cf4bd7"}, "geometry": {"type": "Point", "coordinates": [-120.642101, 35.245724]}},
{"type": "Feature", "id": "3CY_BEViy_9qfT8gHzuHiuyUGdQ=", "properties": {"ref": "12", "@spider": "vitalant", "healthcare": "blood_donation", "addr:full": "4213 State St", "addr:city": "Santa Barbara", "addr:state": "CA", "addr:postcode": "93110", "name": "Santa Barbara", "website": "https://www.vitalant.org/Locations2/Central-Coast-California/Santa-Barbara-Donation-Center", "brand": "Vitalant", "brand:wikidata": "Q7887528", "nsi_id": "vitalant-cf4bd7"}, "geometry": {"type": "Point", "coordinates": [-119.76355, 34.440193]}},
{"type": "Feature", "id": "bUGUSG6cht0p46cskIRx5dgZxA8=", "properties": {"ref": "13", "@spider": "vitalant", "healthcare": "blood_donation", "addr:full": "2223 Eastman Ave Ste A", "addr:city": "Ventura", "addr:state": "CA", "addr:postcode": "93003", "name": "Ventura", "website": "https://www.vitalant.org/Locations2/Central-Coast-California/Ventura-Donation-Center", "brand": "Vitalant", "brand:wikidata": "Q7887528", "nsi_id": "vitalant-cf4bd7"}, "geometry": {"type": "Point", "coordinates": [-119.230898, 34.252714]}},
{"type": "Feature", "id": "Po1XRxW5gohg2tgx3y7zG0NqfBQ=", "properties": {"ref": "14", "@spider": "vitalant", "healthcare": "blood_donation", "addr:full": "1770 South Broadway", "addr:city": "Santa Maria", "addr:state": "CA", "addr:postcode": "93454", "name": "Santa Maria", "website": "https://www.vitalant.org/Locations2/Central-Coast-California/Santa-Maria-Donation-Center", "brand": "Vitalant", "brand:wikidata": "Q7887528", "nsi_id": "vitalant-cf4bd7"}, "geometry": {"type": "Point", "coordinates": [-120.434953, 34.927993]}},
{"type": "Feature", "id": "cc5j9dUzCf0jjQG24XwD_ejuK4E=", "properties": {"ref": "15", "@spider": "vitalant", "healthcare": "blood_donation", "addr:full": "48 2nd Avenue", "addr:city": "San Mateo", "addr:state": "CA", "addr:postcode": "94401", "name": "San Mateo", "website": "https://www.vitalant.org/Locations2/Bay-Area/Peninsula-San-Mateo", "brand": "Vitalant", "brand:wikidata": "Q7887528", "nsi_id": "vitalant-cf4bd7"}, "geometry": {"type": "Point", "coordinates": [-122.326238, 37.563912]}},
{"type": "Feature", "id": "ry5ut1-KKAK0ayYKhmuvCsOPNnY=", "properties": {"ref": "16", "@spider": "vitalant", "healthcare": "blood_donation", "addr:full": "2575 Coit Drive", "addr:city": "San Jose", "addr:state": "CA", "addr:postcode": "95124", "name": "San Jose", "website": "https://vitalant.org/Locations2/Bay-Area/San-Jose-Donation-Site", "brand": "Vitalant", "brand:wikidata": "Q7887528", "nsi_id": "vitalant-cf4bd7"}, "geometry": {"type": "Point", "coordinates": [-121.924057, 37.274601]}},
{"type": "Feature", "id": "ieggHIFANAXaqdk2xyAlkvUkHnU=", "properties": {"ref": "17", "@spider": "vitalant", "healthcare": "blood_donation", "addr:full": "10 Sequoia Road", "addr:city": "San Rafael", "addr:state": "CA", "addr:postcode": "94903", "name": "San Rafael", "website": "https://vitalant.org/Locations2/Bay-Area/San-Rafael-Donation-Site", "brand": "Vitalant", "brand:wikidata": "Q7887528", "nsi_id": "vitalant-cf4bd7"}, "geometry": {"type": "Point", "coordinates": [-122.53591, 37.99398]}},
{"type": "Feature", "id": "YqcszkavZMs9H-HXq_Vzhi6s4tw=", "properties": {"ref": "18", "@spider": "vitalant", "healthcare": "blood_donation", "addr:full": "11990 Heritage Oak Place", "addr:city": "Auburn", "addr:state": "CA", "addr:postcode": "95603", "name": "Auburn", "website": "https://www.vitalant.org/Locations2/Northern-California/Auburn", "brand": "Vitalant", "brand:wikidata": "Q7887528", "nsi_id": "vitalant-cf4bd7"}, "geometry": {"type": "Point", "coordinates": [-121.09939, 38.940617]}},
{"type": "Feature", "id": "GoTJfoAzy4YWQBblSqSxQo5knNs=", "properties": {"ref": "19", "@spider": "vitalant", "healthcare": "blood_donation", "addr:full": "555 Rio Lindo Ave", "addr:city": "Chico", "addr:state": "CA", "addr:postcode": "95926", "name": "Chico", "website": "https://www.vitalant.org/Locations2/Northern-California/Chico", "brand": "Vitalant", "brand:wikidata": "Q7887528", "nsi_id": "vitalant-cf4bd7"}, "geometry": {"type": "Point", "coordinates": [-121.84856, 39.754684]}},
{"type": "Feature", "id": "peFIi0oXgVN-knE5bq72uVEY-bI=", "properties": {"ref": "20", "@spider": "vitalant", "healthcare": "blood_donation", "addr:full": "1801 Hanover Drive", "addr:city": "Davis ", "addr:state": "CA", "addr:postcode": "95616", "name": "Davis", "website": "https://www.vitalant.org/Locations2/Northern-California/Davis", "brand": "Vitalant", "brand:wikidata": "Q7887528", "nsi_id": "vitalant-cf4bd7"}, "geometry": {"type": "Point", "coordinates": [-121.75634, 38.559242]}},
{"type": "Feature", "id": "EEn-KDAme7Pq4eRCPsGKRTs1_QY=", "properties": {"ref": "21", "@spider": "vitalant", "healthcare": "blood_donation", "addr:full": "9267 Laguna Springs Dr", "addr:city": "Elk Grove", "addr:state": "CA", "addr:postcode": "95758", "name": "Elk Grove", "website": "https://www.vitalant.org/Locations2/Northern-California/Elk-Grove", "brand": "Vitalant", "brand:wikidata": "Q7887528", "nsi_id": "vitalant-cf4bd7"}, "geometry": {"type": "Point", "coordinates": [-121.43597, 38.42391]}},
{"type": "Feature", "id": "GtBvLcPR9nIeS_xaOLys8KI6biw=", "properties": {"ref": "22", "@spider": "vitalant", "healthcare": "blood_donation", "addr:full": "11713 Fair Oaks Blvd", "addr:city": "Fair Oaks", "addr:state": "CA", "addr:postcode": "95628", "name": "Fair Oaks", "website": "https://www.vitalant.org/Locations2/Northern-California/Fair-Oaks", "brand": "Vitalant", "brand:wikidata": "Q7887528", "nsi_id": "vitalant-cf4bd7"}, "geometry": {"type": "Point", "coordinates": [-121.26216, 38.66436]}},
{"type": "Feature", "id": "HfxGb2qQsfZnxpzjpYwet4xdt9U=", "properties": {"ref": "23", "@spider": "vitalant", "healthcare": "blood_donation", "addr:full": "1325 Gateway Blvd", "addr:city": "Fairfield", "addr:state": "CA", "addr:postcode": "94533", "name": "Fairfield", "website": "https://www.vitalant.org/Locations2/Bay-Area/North-Bay-Fairfield", "brand": "Vitalant", "brand:wikidata": "Q7887528", "nsi_id": "vitalant-cf4bd7"}, "geometry": {"type": "Point", "coordinates": [-122.05073, 38.26243]}},
{"type": "Feature", "id": "17lFFJAcO7g8qOPsbrw9TWvZ47I=", "properties": {"ref": "24", "@spider": "vitalant", "healthcare": "blood_donation", "addr:full": "150 Natoma Station Drive", "addr:city": "Folsom", "addr:state": "CA", "addr:postcode": "95630", "name": "Folsom", "website": "https://www.vitalant.org/Locations2/Northern-California/Folsom", "brand": "Vitalant", "brand:wikidata": "Q7887528", "nsi_id": "vitalant-cf4bd7"}, "geometry": {"type": "Point", "coordinates": [-121.18764, 38.64524]}},
{"type": "Feature", "id": "YfqCu1zzWVqQKcK12wcXZkl7aac=", "properties": {"ref": "25", "@spider": "vitalant", "healthcare": "blood_donation", "addr:full": "382 East Yosemite Ave", "addr:city": "Merced", "addr:state": "CA", "addr:postcode": "95340", "name": "Merced", "website": "https://www.vitalant.org/Locations2/Northern-California/Merced", "brand": "Vitalant", "brand:wikidata": "Q7887528", "nsi_id": "vitalant-cf4bd7"}, "geometry": {"type": "Point", "coordinates": [-120.46415, 37.33212]}},
{"type": "Feature", "id": "J9yxTGwADm2BzPU3diF1VPmSEUs=", "properties": {"ref": "26", "@spider": "vitalant", "healthcare": "blood_donation", "addr:full": "3230 Beard Rd", "addr:city": "Napa", "addr:state": "CA", "addr:postcode": "94558", "name": "Napa", "website": "https://www.vitalant.org/Locations2/Bay-Area/Napa", "brand": "Vitalant", "brand:wikidata": "Q7887528", "nsi_id": "vitalant-cf4bd7"}, "geometry": {"type": "Point", "coordinates": [-122.29549, 38.32199]}},
{"type": "Feature", "id": "B4T6AuhdAWvD3YHcyKvsDT7ySRE=", "properties": {"ref": "27", "@spider": "vitalant", "healthcare": "blood_donation", "addr:full": "4278 Golden Center Dr", "addr:city": "Placerville ", "addr:state": "CA", "addr:postcode": "95667", "name": "Placerville", "website": "https://www.vitalant.org/Locations2/Northern-California/Placerville", "brand": "Vitalant", "brand:wikidata": "Q7887528", "nsi_id": "vitalant-cf4bd7"}, "geometry": {"type": "Point", "coordinates": [-120.829414, 38.70714]}},
{"type": "Feature", "id": "ngqSHyP1HV97a9iDGII8gAVutZs=", "properties": {"ref": "28", "@spider": "vitalant", "healthcare": "blood_donation", "addr:full": "2680 Larkspur Lane", "addr:city": "Redding ", "addr:state": "CA", "addr:postcode": "96002", "name": "Redding", "website": "https://www.vitalant.org/Locations2/Northern-California/Redding-(Shasta)", "brand": "Vitalant", "brand:wikidata": "Q7887528", "nsi_id": "vitalant-cf4bd7"}, "geometry": {"type": "Point", "coordinates": [-122.35546, 40.568203]}},
{"type": "Feature", "id": "VvClLA2jkqLOJ8wAIcM27iqu9aA=", "properties": {"ref": "29", "@spider": "vitalant", "healthcare": "blood_donation", "addr:full": "1608 Q St", "addr:city": "Sacramento", "addr:state": "CA", "addr:postcode": "95811", "name": "Midtown (Sacramento)", "website": "https://www.vitalant.org/Locations2/Northern-California/Sacramento-(Midtown)", "brand": "Vitalant", "brand:wikidata": "Q7887528", "nsi_id": "vitalant-cf4bd7"}, "geometry": {"type": "Point", "coordinates": [-121.488365, 38.570312]}},
{"type": "Feature", "id": "aGkqqlZwvj7lA8AJfhvsb3nF0W0=", "properties": {"ref": "30", "@spider": "vitalant", "healthcare": "blood_donation", "addr:full": "3099 Fair Oaks Blvd", "addr:city": "Sacramento", "addr:state": "CA", "addr:postcode": "95864", "name": "Sierra Oaks (Sacramento)", "website": "https://www.vitalant.org/Locations2/Northern-California/Sacramento-(Sierra-Oaks)", "brand": "Vitalant", "brand:wikidata": "Q7887528", "nsi_id": "vitalant-cf4bd7"}, "geometry": {"type": "Point", "coordinates": [-121.401794, 38.57413]}},
{"type": "Feature", "id": "1Ve-WocnffjXUVh2BbU7m2pFBlI=", "properties": {"ref": "31", "@spider": "vitalant", "healthcare": "blood_donation", "addr:full": "250 Bush St", "addr:city": "San Francisico", "addr:state": "CA", "addr:postcode": "94104", "name": "Downtown", "website": "https://www.vitalant.org/Locations2/Bay-Area/San-Francisco,-Downtown", "brand": "Vitalant", "brand:wikidata": "Q7887528", "nsi_id": "vitalant-cf4bd7"}, "geometry": {"type": "Point", "coordinates": [-122.401794, 37.79105]}},
{"type": "Feature", "id": "Z9j9k4zEaj3dMAYtVdMj3ngV90w=", "properties": {"ref": "32", "@spider": "vitalant", "healthcare": "blood_donation", "addr:full": "270 Masonic Ave", "addr:city": "San Francisco ", "addr:state": "CA", "addr:postcode": "94118", "name": "Irwin", "website": "https://www.vitalant.org/Locations2/Bay-Area/San-Francisco,-Masonic-Turk", "brand": "Vitalant", "brand:wikidata": "Q7887528", "nsi_id": "vitalant-cf4bd7"}, "geometry": {"type": "Point", "coordinates": [-122.44704, 37.77887]}},
{"type": "Feature", "id": "_uSVh-zKw171yjm7RJgL6gz6SlY=", "properties": {"ref": "33", "@spider": "vitalant", "healthcare": "blood_donation", "addr:full": "3505 Industrial Drive", "addr:city": "Santa Rosa", "addr:state": "CA", "addr:postcode": "95403", "name": "Santa Rosa", "website": "https://www.vitalant.org/Locations2/Bay-Area/Santa-Rosa", "brand": "Vitalant", "brand:wikidata": "Q7887528", "nsi_id": "vitalant-cf4bd7"}, "geometry": {"type": "Point", "coordinates": [-122.737885, 38.47686]}},
{"type": "Feature", "id": "YyBIcFGj2ul6GbLtANPzgqY4iZE=", "properties": {"ref": "34", "@spider": "vitalant", "healthcare": "blood_donation", "addr:full": "1290 Stabler Lane, Ste 830", "addr:city": "Yuba City", "addr:state": "CA", "addr:postcode": "95993", "name": "Yuba City", "website": "https://www.vitalant.org/Locations2/Northern-California/Yuba-City", "brand": "Vitalant", "brand:wikidata": "Q7887528", "nsi_id": "vitalant-cf4bd7"}, "geometry": {"type": "Point", "coordinates": [-121.64397, 39.147568]}},
{"type": "Feature", "id": "RC6P_4m10vSCVi6gaZ3-N9QhrhU=", "properties": {"ref": "35", "@spider": "vitalant", "healthcare": "blood_donation", "addr:full": "3113 28th St.", "addr:city": "Boulder", "addr:state": "CO", "addr:postcode": "80304", "name": "Boulder", "website": "https://www.vitalant.org/Locations2/Colorado/Boulder-donation-center", "brand": "Vitalant", "brand:wikidata": "Q7887528", "nsi_id": "vitalant-cf4bd7"}, "geometry": {"type": "Point", "coordinates": [-105.25845, 40.02554]}},
{"type": "Feature", "id": "1Jt2x_WhBxL00PAmqRdp-Hk1JMM=", "properties": {"ref": "36", "@spider": "vitalant", "healthcare": "blood_donation", "addr:full": "3670 Austin Bluffs Pkwy., Ste #110", "addr:city": "Colorado Springs", "addr:state": "CO", "addr:postcode": "80918", "name": "Colorado Springs", "website": "https://www.vitalant.org/Locations2/Colorado/Colorado-Springs-donation-center", "brand": "Vitalant", "brand:wikidata": "Q7887528", "nsi_id": "vitalant-cf4bd7"}, "geometry": {"type": "Point", "coordinates": [-104.74204, 38.9309]}},
{"type": "Feature", "id": "_TeYopknb2Bdc0DaQc_JPh1mxMM=", "properties": {"ref": "37", "@spider": "vitalant", "healthcare": "blood_donation", "addr:full": "13952 Denver West Pkwy", "addr:city": "Golden", "addr:state": "CO", "addr:postcode": "80401", "name": "Denver West", "website": "https://www.vitalant.org/Locations2/Colorado/Denver-West-donation-center", "brand": "Vitalant", "brand:wikidata": "Q7887528", "nsi_id": "vitalant-cf4bd7"}, "geometry": {"type": "Point", "coordinates": [-105.15531, 39.74405]}},
{"type": "Feature", "id": "qtzWer8Bq3qEU0v2LOdL1YItgrM=", "properties": {"ref": "38", "@spider": "vitalant", "healthcare": "blood_donation", "addr:full": "541 W. Highlands Ranch Pkwy.", "addr:city": "Highlands Ranch", "addr:state": "CO", "addr:postcode": "80129", "name": "Highlands Ranch", "website": "https://www.vitalant.org/Locations2/Colorado/Highlands-Ranch-donation-center", "brand": "Vitalant", "brand:wikidata": "Q7887528", "nsi_id": "vitalant-cf4bd7"}, "geometry": {"type": "Point", "coordinates": [-104.99513, 39.5505]}},
{"type": "Feature", "id": "opgDwDg9wgqa_3ofcHy3lTQjkG0=", "properties": {"ref": "39", "@spider": "vitalant", "healthcare": "blood_donation", "addr:full": "717 Yosemite St.", "addr:city": "Denver", "addr:state": "CO", "addr:postcode": "80230", "name": "Denver - Lowry", "website": "https://www.vitalant.org/Locations2/Colorado/Lowry-donation-center", "brand": "Vitalant", "brand:wikidata": "Q7887528", "nsi_id": "vitalant-cf4bd7"}, "geometry": {"type": "Point", "coordinates": [-104.88848, 39.72723]}},
{"type": "Feature", "id": "ylUJQxQXHULAmUpjHwVJrTCqDZ8=", "properties": {"ref": "40", "@spider": "vitalant", "healthcare": "blood_donation", "addr:full": "10259 S. Parker Rd. Ste. #104", "addr:city": "Parker", "addr:state": "CO", "addr:postcode": "80134", "name": "Parker", "website": "https://www.vitalant.org/Locations2/Colorado/Parker-donation-center", "brand": "Vitalant", "brand:wikidata": "Q7887528", "nsi_id": "vitalant-cf4bd7"}, "geometry": {"type": "Point", "coordinates": [-104.76747, 39.53091]}},
{"type": "Feature", "id": "kIXwSBEH3tJ1cufdpSIlGq8oaYY=", "properties": {"ref": "41", "@spider": "vitalant", "healthcare": "blood_donation", "addr:full": "5066 S. Wadsworth Blvd., Ste 111", "addr:city": "Littleton", "addr:state": "CO", "addr:postcode": "80123", "name": "Southwest Littleton", "website": "https://www.vitalant.org/Locations2/Colorado/Southwest-Littleton-donation-center", "brand": "Vitalant", "brand:wikidata": "Q7887528", "nsi_id": "vitalant-cf4bd7"}, "geometry": {"type": "Point", "coordinates": [-105.089, 39.62566]}},
{"type": "Feature", "id": "oJVToYF44mI2mAAj-44RSDtM9BM=", "properties": {"ref": "42", "@spider": "vitalant", "healthcare": "blood_donation", "addr:full": "960 W. 124th Ave.", "addr:city": "Westminster", "addr:state": "CO", "addr:postcode": "80234", "name": "Westminster", "website": "https://www.vitalant.org/Locations2/Colorado/Westminster-donation-center", "brand": "Vitalant", "brand:wikidata": "Q7887528", "nsi_id": "vitalant-cf4bd7"}, "geometry": {"type": "Point", "coordinates": [-104.99856, 39.92115]}},
{"type": "Feature", "id": "qrQkWb0f5oPRO94Bbe28JfvD900=", "properties": {"ref": "43", "@spider": "vitalant", "healthcare": "blood_donation", "addr:full": "561 25 Road, Suite 102", "addr:city": "Grand Junction", "addr:state": "CO", "addr:postcode": "81505", "name": "Grand Junction", "website": "https://www.vitalant.org/locations/grand-junction", "brand": "Vitalant", "brand:wikidata": "Q7887528", "nsi_id": "vitalant-cf4bd7"}, "geometry": {"type": "Point", "coordinates": [-108.590240702001, 39.0860905618176]}},
{"type": "Feature", "id": "VARsA6dOhrEPO9yTftvnysl_pO0=", "properties": {"ref": "44", "@spider": "vitalant", "healthcare": "blood_donation", "addr:full": "1831 65th Ave, Unit 2", "addr:city": "Greeley", "addr:state": "CO", "addr:postcode": "80634", "name": "Greeley", "website": "https://www.vitalant.org/Locations2/Colorado/Greeley-donation-center", "brand": "Vitalant", "brand:wikidata": "Q7887528", "nsi_id": "vitalant-cf4bd7"}, "geometry": {"type": "Point", "coordinates": [-104.78516, 40.40878]}},
{"type": "Feature", "id": "5WJMTFuwCw-HkRhIKVj0-DeHOxc=", "properties": {"ref": "45", "@spider": "vitalant", "healthcare": "blood_donation", "addr:full": "405 W. Neider Ave", "addr:city": "Couer d\\'Alene", "addr:state": "ID", "addr:postcode": "83815", "name": "Couer d\\'Alene", "website": "https://www.vitalant.org/Locations2/Washington,-Idaho/Coeur-d-Alene", "brand": "Vitalant", "brand:wikidata": "Q7887528", "nsi_id": "vitalant-cf4bd7"}, "geometry": {"type": "Point", "coordinates": [-116.79206, 47.70725]}},
{"type": "Feature", "id": "LKIcunA3IQIC0A2HYfmG0K7K5XU=", "properties": {"ref": "46", "@spider": "vitalant", "healthcare": "blood_donation", "addr:full": "1213 21st Street", "addr:city": "Lewiston", "addr:state": "ID", "addr:postcode": "83501", "name": "Lewiston", "website": "https://www.vitalant.org/Locations2/Washington,-Idaho/Lewiston", "brand": "Vitalant", "brand:wikidata": "Q7887528", "nsi_id": "vitalant-cf4bd7"}, "geometry": {"type": "Point", "coordinates": [-117.00195, 46.40182]}},
{"type": "Feature", "id": "EzvGJbFCr64Da-3YuSZq8nUewJw=", "properties": {"ref": "47", "@spider": "vitalant", "healthcare": "blood_donation", "addr:full": "2436 Main St", "addr:city": "Evanston", "addr:state": "IL", "addr:postcode": "60202", "name": "Evanston", "website": "https://www.vitalant.org/Locations2/Illinois/Evanston", "brand": "Vitalant", "brand:wikidata": "Q7887528", "nsi_id": "vitalant-cf4bd7"}, "geometry": {"type": "Point", "coordinates": [-87.707695, 42.033688]}},
{"type": "Feature", "id": "lQt6vifloFN7qHiIYzlajvViLUY=", "properties": {"ref": "48", "@spider": "vitalant", "healthcare": "blood_donation", "addr:full": "2510 Waukegan Road", "addr:city": "Glenview", "addr:state": "IL", "addr:postcode": "60025", "name": "Glenview", "website": "https://www.vitalant.org/Locations2/Illinois/Glenview", "brand": "Vitalant", "brand:wikidata": "Q7887528", "nsi_id": "vitalant-cf4bd7"}, "geometry": {"type": "Point", "coordinates": [-87.79906, 42.105972]}},
{"type": "Feature", "id": "-28xw8G40kMxGBZf7lGXyu20nbg=", "properties": {"ref": "49", "@spider": "vitalant", "healthcare": "blood_donation", "addr:full": "2764 Aurora Ave.", "addr:city": "Naperville", "addr:state": "IL", "addr:postcode": "60540", "name": "Naperville", "website": "https://www.vitalant.org/Locations2/Illinois/Naperville", "brand": "Vitalant", "brand:wikidata": "Q7887528", "nsi_id": "vitalant-cf4bd7"}, "geometry": {"type": "Point", "coordinates": [-88.20591, 41.762276]}},
{"type": "Feature", "id": "dhYv1HdO7arZ23ZXfoFkmrgMt8Q=", "properties": {"ref": "50", "@spider": "vitalant", "healthcare": "blood_donation", "addr:full": "9517 S Cicero Ave", "addr:city": "Oak Lawn", "addr:state": "IL", "addr:postcode": "60543", "name": "Oak Lawn", "website": "https://www.vitalant.org/Locations2/Illinois/Oak-Lawn", "brand": "Vitalant", "brand:wikidata": "Q7887528", "nsi_id": "vitalant-cf4bd7"}, "geometry": {"type": "Point", "coordinates": [-87.740776, 41.719677]}},
{"type": "Feature", "id": "RmhkCkgAoMeRmVcRzcmtr4bnVWw=", "properties": {"ref": "51", "@spider": "vitalant", "healthcare": "blood_donation", "addr:full": "211 W. Golf Road", "addr:city": "Schaumburg", "addr:state": "IL", "addr:postcode": "60195", "name": "Schaumburg", "website": "https://www.vitalant.org/Locations2/Illinois/Schaumburg", "brand": "Vitalant", "brand:wikidata": "Q7887528", "nsi_id": "vitalant-cf4bd7"}, "geometry": {"type": "Point", "coordinates": [-88.085, 42.049095]}},
{"type": "Feature", "id": "Ad7qlRlDHcxraYHKYqvHJBCjPPM=", "properties": {"ref": "52", "@spider": "vitalant", "healthcare": "blood_donation", "addr:full": "1133 Fairview Ave.", "addr:city": "Westmont", "addr:state": "IL", "addr:postcode": "60559", "name": "Westmont", "website": "https://www.vitalant.org/Locations2/Illinois/Westmont", "brand": "Vitalant", "brand:wikidata": "Q7887528", "nsi_id": "vitalant-cf4bd7"}, "geometry": {"type": "Point", "coordinates": [-87.99384, 41.77433]}},
{"type": "Feature", "id": "8QPi7u4u1uknqGvrFEkXTQdPMPs=", "properties": {"ref": "53", "@spider": "vitalant", "healthcare": "blood_donation", "addr:full": "223 Waukegan Rd", "addr:city": "Lake Bluff", "addr:state": "IL", "addr:postcode": "60044", "name": "Lake Bluff", "website": "https://www.vitalant.org/Locations2/Illinois/Lake-Bluff", "brand": "Vitalant", "brand:wikidata": "Q7887528", "nsi_id": "vitalant-cf4bd7"}, "geometry": {"type": "Point", "coordinates": [-87.875761, 42.279286]}},
{"type": "Feature", "id": "eF46rkRSRHhe_41KSMo7Tm7Czf8=", "properties": {"ref": "54", "@spider": "vitalant", "healthcare": "blood_donation", "addr:full": "25 W Rand Road", "addr:city": "Arlington Heights", "addr:state": "IL", "addr:postcode": "60004", "name": "Arlington Heights", "website": "https://www.vitalant.org/Locations2/Illinois/Arlington-Heights", "brand": "Vitalant", "brand:wikidata": "Q7887528", "nsi_id": "vitalant-cf4bd7"}, "geometry": {"type": "Point", "coordinates": [-87.982816, 42.112958]}},
{"type": "Feature", "id": "2JaAdw0oaP7aaQANNGT2fRjXibs=", "properties": {"ref": "55", "@spider": "vitalant", "healthcare": "blood_donation", "addr:full": "5316 N Milwaukee Ave", "addr:city": "Chicago", "addr:state": "IL", "addr:postcode": "60630", "name": "Jefferson Park", "website": "https://www.vitalant.org/Locations2/Illinois/Jefferson-Park", "brand": "Vitalant", "brand:wikidata": "Q7887528", "nsi_id": "vitalant-cf4bd7"}, "geometry": {"type": "Point", "coordinates": [-87.76976, 41.976725]}},
{"type": "Feature", "id": "PZqphpk9vC-yKC-mjNWOlE0z3ac=", "properties": {"ref": "56", "@spider": "vitalant", "healthcare": "blood_donation", "addr:full": "1523 W Fullerton Ave", "addr:city": "Chicago", "addr:state": "IL", "addr:postcode": "60614", "name": "Lincoln Park", "website": "https://www.vitalant.org/Locations2/Illinois/Lincoln-Park", "brand": "Vitalant", "brand:wikidata": "Q7887528", "nsi_id": "vitalant-cf4bd7"}, "geometry": {"type": "Point", "coordinates": [-87.666724, 41.92479]}},
{"type": "Feature", "id": "u3Z6nx92wH3Q9V3qZYLnIdVKfOE=", "properties": {"ref": "57", "@spider": "vitalant", "healthcare": "blood_donation", "addr:full": "100 W Randolph St", "addr:city": "Chicago", "addr:state": "IL", "addr:postcode": "60601", "name": "State of IL", "website": "https://www.vitalant.org/Locations2/Illinois/State-of-Illinois", "brand": "Vitalant", "brand:wikidata": "Q7887528", "nsi_id": "vitalant-cf4bd7"}, "geometry": {"type": "Point", "coordinates": [-87.631726, 41.885165]}},
{"type": "Feature", "id": "Kpsy3u2xQOYz-cnwW8yFNlegopA=", "properties": {"ref": "58", "@spider": "vitalant", "healthcare": "blood_donation", "addr:full": "5250-1 Grand Ave", "addr:city": "Gurnee", "addr:state": "IL", "addr:postcode": "60031", "name": "Gurnee", "website": "https://www.vitalant.org/Locations2/Illinois/Gurnee", "brand": "Vitalant", "brand:wikidata": "Q7887528", "nsi_id": "vitalant-cf4bd7"}, "geometry": {"type": "Point", "coordinates": [-87.932824, 42.376682]}},
{"type": "Feature", "id": "I6Ec7Xfye0YtgH-xMrSRCupLEiM=", "properties": {"ref": "59", "@spider": "vitalant", "healthcare": "blood_donation", "addr:full": "11120 W 179th Street", "addr:city": "Orland Park", "addr:state": "IL", "addr:postcode": "60467", "name": "Orland Park", "website": "https://www.vitalant.org/Locations2/Illinois/Orland-Park", "brand": "Vitalant", "brand:wikidata": "Q7887528", "nsi_id": "vitalant-cf4bd7"}, "geometry": {"type": "Point", "coordinates": [-87.888703, 41.564391]}},
{"type": "Feature", "id": "bwlYSZdjAMOSoSWauJ3XNjtBQYY=", "properties": {"ref": "60", "@spider": "vitalant", "healthcare": "blood_donation", "addr:full": "100 E. Roosevelt Rd", "addr:city": "Villa Park", "addr:state": "IL", "addr:postcode": "60181", "name": "Villa Park", "website": "https://www.vitalant.org/Locations2/Illinois/Villa-Park", "brand": "Vitalant", "brand:wikidata": "Q7887528", "nsi_id": "vitalant-cf4bd7"}, "geometry": {"type": "Point", "coordinates": [-87.97562, 41.861198]}},
{"type": "Feature", "id": "dhcI3J_VCuCp9o2XPlfWYVPRSp8=", "properties": {"ref": "61", "@spider": "vitalant", "healthcare": "blood_donation", "addr:full": "5150 Northwest Highway", "addr:city": "Crystal Lake", "addr:state": "IL", "addr:postcode": "60014", "name": "Crystal Lake", "website": "https://www.vitalant.org/Locations2/Illinois/Crystal-Lake", "brand": "Vitalant", "brand:wikidata": "Q7887528", "nsi_id": "vitalant-cf4bd7"}, "geometry": {"type": "Point", "coordinates": [-88.298807, 42.226266]}},
{"type": "Feature", "id": "O7dB1C6emj6bMTiHm-4TooI_PCw=", "properties": {"ref": "62", "@spider": "vitalant", "healthcare": "blood_donation", "addr:full": "5050 N Cumberland Ave", "addr:city": "Norridge", "addr:state": "IL", "addr:postcode": "60706", "name": "Norridge", "website": "https://www.vitalant.org/Locations2/Illinois/Norridge", "brand": "Vitalant", "brand:wikidata": "Q7887528", "nsi_id": "vitalant-cf4bd7"}, "geometry": {"type": "Point", "coordinates": [-87.83763, 41.971904]}},
{"type": "Feature", "id": "WxqjqO_GPE6GRVAyqYOEWr-YGg8=", "properties": {"ref": "63", "@spider": "vitalant", "healthcare": "blood_donation", "addr:full": "1503 Bertrand Dr", "addr:city": "Lafayette", "addr:state": "LA", "addr:postcode": "70506", "name": "Lafayette", "website": "https://www.vitalant.org/Locations2/Southeast-Region-(AL,-AR,-LA,-MO,-MS,-TN)/Lafayette,-LA-Donation-Center", "brand": "Vitalant", "brand:wikidata": "Q7887528", "nsi_id": "vitalant-cf4bd7"}, "geometry": {"type": "Point", "coordinates": [-92.053117, 30.222376]}},
{"type": "Feature", "id": "R8igC3x_sd0DdxRIuUYYaS_ufAM=", "properties": {"ref": "64", "@spider": "vitalant", "healthcare": "blood_donation", "addr:full": "8234 One Calais Ave", "addr:city": "Baton Rouge", "addr:state": "LA", "addr:postcode": "70809", "name": "Baton Rouge", "website": "https://www.vitalant.org/Locations2/Southeast-Region-(AL,-AR,-LA,-MO,-MS,-TN)/Baton-Rouge,-LA-Donation-Center", "brand": "Vitalant", "brand:wikidata": "Q7887528", "nsi_id": "vitalant-cf4bd7"}, "geometry": {"type": "Point", "coordinates": [-91.099075, 30.404558]}},
{"type": "Feature", "id": "CxVWxvkAleBee14lONzcVetsmkA=", "properties": {"ref": "65", "@spider": "vitalant", "healthcare": "blood_donation", "addr:full": "1234 David Dr", "addr:city": "Morgan City", "addr:state": "LA", "addr:postcode": "70380", "name": "Morgan City", "website": "https://www.vitalant.org/Locations2/Southeast-Region-(AL,-AR,-LA,-MO,-MS,-TN)/Morgan-City,-LA-Donation-Center", "brand": "Vitalant", "brand:wikidata": "Q7887528", "nsi_id": "vitalant-cf4bd7"}, "geometry": {"type": "Point", "coordinates": [-91.198654, 29.708927]}},
{"type": "Feature", "id": "941UFdvV9DJLjPocXc2UEqeUEVc=", "properties": {"ref": "66", "@spider": "vitalant", "healthcare": "blood_donation", "addr:full": "4326 S Eason Blvd", "addr:city": "Tupelo", "addr:state": "MS", "addr:postcode": "38801", "name": "Tupelo", "website": "https://www.vitalant.org/Locations2/Southeast-Region-(AL,-AR,-LA,-MO,-MS,-TN)/Tupelo,-MS-Donation-Center", "brand": "Vitalant", "brand:wikidata": "Q7887528", "nsi_id": "vitalant-cf4bd7"}, "geometry": {"type": "Point", "coordinates": [-88.71423, 34.23598]}},
{"type": "Feature", "id": "2fdu6AGENNZ_IL5mfZiaQljRPxE=", "properties": {"ref": "67", "@spider": "vitalant", "healthcare": "blood_donation", "addr:full": "805 S. 28th Ave.", "addr:city": "Hattiesburg", "addr:state": "MS", "addr:postcode": "39402", "name": "Hattiesburg", "website": "https://www.vitalant.org/Locations2/Southeast-Region-(AL,-AR,-LA,-MO,-MS,-TN)/Hattiesburg,-MS-Donation-Center", "brand": "Vitalant", "brand:wikidata": "Q7887528", "nsi_id": "vitalant-cf4bd7"}, "geometry": {"type": "Point", "coordinates": [-89.33117, 31.311361]}},
{"type": "Feature", "id": "6MPAtiqILGoasTkCqlcI-osKifs=", "properties": {"ref": "68", "@spider": "vitalant", "healthcare": "blood_donation", "addr:full": "1055 Goodman Road East", "addr:city": "Southaven", "addr:state": "MS", "addr:postcode": "38671", "name": "Southaven", "website": "https://www.vitalant.org/Locations2/Southeast-Region-(AL,-AR,-LA,-MO,-MS,-TN)/Desoto-Donation-Center", "brand": "Vitalant", "brand:wikidata": "Q7887528", "nsi_id": "vitalant-cf4bd7"}, "geometry": {"type": "Point", "coordinates": [-89.97104, 34.96261]}},
{"type": "Feature", "id": "O-ngjWjd1XGBYUA4scOG422WzHM=", "properties": {"ref": "69", "@spider": "vitalant", "healthcare": "blood_donation", "addr:full": "1444 Grand Ave", "addr:city": "Billings", "addr:state": "MT", "addr:postcode": "59102", "name": "Billings", "website": "https://www.vitalant.org/Locations2/North-Dakota,-South-Dakota,-Montana/Billings", "brand": "Vitalant", "brand:wikidata": "Q7887528", "nsi_id": "vitalant-cf4bd7"}, "geometry": {"type": "Point", "coordinates": [-108.55346, 45.783408]}},
{"type": "Feature", "id": "CfrBv7wC-b4ZzEGG_-HLmKOTCzQ=", "properties": {"ref": "70", "@spider": "vitalant", "healthcare": "blood_donation", "addr:full": "3745 Harrison Ave", "addr:city": "Butte", "addr:state": "MT", "addr:postcode": "59701", "name": "Butte", "website": "https://www.vitalant.org/Locations2/North-Dakota,-South-Dakota,-Montana/Butte-Donation-Center", "brand": "Vitalant", "brand:wikidata": "Q7887528", "nsi_id": "vitalant-cf4bd7"}, "geometry": {"type": "Point", "coordinates": [-112.509751, 45.968484]}},
{"type": "Feature", "id": "KVu8Wb2nlakBjEz52pOONpRx4Ys=", "properties": {"ref": "71", "@spider": "vitalant", "healthcare": "blood_donation", "addr:full": "3231 11th St S", "addr:city": "Fargo", "addr:state": "ND", "addr:postcode": "58104", "name": "Fargo", "website": "https://www.vitalant.org/Locations2/North-Dakota,-South-Dakota,-Montana/Fargo-Donation-Center", "brand": "Vitalant", "brand:wikidata": "Q7887528", "nsi_id": "vitalant-cf4bd7"}, "geometry": {"type": "Point", "coordinates": [-96.799033, 46.831274]}},
{"type": "Feature", "id": "L69ebyDSUYaWOA5v5Z1cwqZ9JjU=", "properties": {"ref": "72", "@spider": "vitalant", "healthcare": "blood_donation", "addr:full": "517 S 7th St", "addr:city": "Bismarck", "addr:state": "ND", "addr:postcode": "58504", "name": "Bismarck", "website": "https://www.vitalant.org/Locations2/North-Dakota,-South-Dakota,-Montana/Bismarck-Donation-Center", "brand": "Vitalant", "brand:wikidata": "Q7887528", "nsi_id": "vitalant-cf4bd7"}, "geometry": {"type": "Point", "coordinates": [-100.780967, 46.800418]}},
{"type": "Feature", "id": "cTP7qjsm6YmAJEnEHlNFErQR5Dg=", "properties": {"ref": "73", "@spider": "vitalant", "healthcare": "blood_donation", "addr:full": "1919 N Broadway", "addr:city": "Minot", "addr:state": "ND", "addr:postcode": "58703", "name": "Minot", "website": "https://www.vitalant.org/Locations2/North-Dakota,-South-Dakota,-Montana/Minot-Donation-Center", "brand": "Vitalant", "brand:wikidata": "Q7887528", "nsi_id": "vitalant-cf4bd7"}, "geometry": {"type": "Point", "coordinates": [-101.296681, 48.255161]}},
{"type": "Feature", "id": "lWxcvsJYBuye8Swj1YCAZLftEGw=", "properties": {"ref": "74", "@spider": "vitalant", "healthcare": "blood_donation", "addr:full": "One West Ridgewood Ave", "addr:city": "Paramus", "addr:state": "NJ", "addr:postcode": "07652", "name": "Paramus", "website": "https://www.vitalant.org/Locations2/New-Jersey/Paramus-Donor-Center-Location", "brand": "Vitalant", "brand:wikidata": "Q7887528", "nsi_id": "vitalant-cf4bd7"}, "geometry": {"type": "Point", "coordinates": [-74.082438, 40.969591]}},
{"type": "Feature", "id": "sICPcB2gldovwGsPKjItZmwPZ0c=", "properties": {"ref": "75", "@spider": "vitalant", "healthcare": "blood_donation", "addr:full": "1259 Route 46 East", "addr:city": "Parsippany", "addr:state": "NJ", "addr:postcode": "07054", "name": "Parsippany", "website": "https://www.vitalant.org/Locations2/New-Jersey/Parsippany-Donor-Center", "brand": "Vitalant", "brand:wikidata": "Q7887528", "nsi_id": "vitalant-cf4bd7"}, "geometry": {"type": "Point", "coordinates": [-74.413425, 40.859388]}},
{"type": "Feature", "id": "2Vr8BFUySHac6qSJvm7flD__-nw=", "properties": {"ref": "76", "@spider": "vitalant", "healthcare": "blood_donation", "addr:full": "63 Beaverbrook Rd.", "addr:city": "Lincoln Park", "addr:state": "NJ", "addr:postcode": "07035", "name": "Lincoln Park", "website": "https://www.vitalant.org/Locations2/New-Jersey/Lincoln-Park-Donor-Center", "brand": "Vitalant", "brand:wikidata": "Q7887528", "nsi_id": "vitalant-cf4bd7"}, "geometry": {"type": "Point", "coordinates": [-74.31099, 40.926167]}},
{"type": "Feature", "id": "k0lZGRZVQLpGe3TqI8wmrKV8X94=", "properties": {"ref": "77", "@spider": "vitalant", "healthcare": "blood_donation", "addr:full": "102 Chestnut Ridge Rd", "addr:city": "Montvale ", "addr:state": "NJ", "addr:postcode": "07645", "name": "Montvale", "website": "https://www.vitalant.org/Locations2/New-Jersey/Montvale-Donor-Center", "brand": "Vitalant", "brand:wikidata": "Q7887528", "nsi_id": "vitalant-cf4bd7"}, "geometry": {"type": "Point", "coordinates": [-74.0682, 41.055588]}},
{"type": "Feature", "id": "YA7ePqrjsRHJgLEnq4eAeISN6xg=", "properties": {"ref": "78", "@spider": "vitalant", "healthcare": "blood_donation", "addr:full": "1200 Commerce Dr", "addr:city": "Las Cruces", "addr:state": "NM", "addr:postcode": "88011", "name": "Las Cruces", "website": "https://www.vitalant.org/Locations2/New-Mexico,-Southwest-Colorado,-El-Paso,-TX/Las-Cruces,-NM-Center", "brand": "Vitalant", "brand:wikidata": "Q7887528", "nsi_id": "vitalant-cf4bd7"}, "geometry": {"type": "Point", "coordinates": [-106.76319, 32.34934]}},
{"type": "Feature", "id": "2K25JGZUQ4IlcBxV7zue9HRf2nc=", "properties": {"ref": "79", "@spider": "vitalant", "healthcare": "blood_donation", "addr:full": "475 E 20th St", "addr:city": "Farmington", "addr:state": "NM", "addr:postcode": "87401", "name": "Farmington", "website": "https://www.vitalant.org/Locations2/New-Mexico,-Southwest-Colorado,-El-Paso,-TX/Farmington,-NM-Center", "brand": "Vitalant", "brand:wikidata": "Q7887528", "nsi_id": "vitalant-cf4bd7"}, "geometry": {"type": "Point", "coordinates": [-108.20058, 36.7477]}},
{"type": "Feature", "id": "S4NjHkQbXuYR3QozHBkmsoP2b2k=", "properties": {"ref": "80", "@spider": "vitalant", "healthcare": "blood_donation", "addr:full": "2003 Southern Blvd SE #122", "addr:city": "Rio Rancho", "addr:state": "NM", "addr:postcode": "87124", "name": "Rio Rancho", "website": "https://www.vitalant.org/Locations2/New-Mexico,-Southwest-Colorado,-El-Paso,-TX/Rio-Rancho,-NM-Center", "brand": "Vitalant", "brand:wikidata": "Q7887528", "nsi_id": "vitalant-cf4bd7"}, "geometry": {"type": "Point", "coordinates": [-106.6947, 35.24245]}},
{"type": "Feature", "id": "zi27jcyTHgf8-L0apYepIgV_62s=", "properties": {"ref": "81", "@spider": "vitalant", "healthcare": "blood_donation", "addr:full": "2801 Rodeo Road", "addr:city": "Santa Fe", "addr:state": "NM", "addr:postcode": "87505", "name": "Santa Fe", "website": "https://www.vitalant.org/Locations2/New-Mexico,-Southwest-Colorado,-El-Paso,-TX/Santa-Fe,-NM-Center", "brand": "Vitalant", "brand:wikidata": "Q7887528", "nsi_id": "vitalant-cf4bd7"}, "geometry": {"type": "Point", "coordinates": [-105.984094, 35.639426]}},
{"type": "Feature", "id": "VfFPsylsvFkHuGenmbEtVtI11H4=", "properties": {"ref": "82", "@spider": "vitalant", "healthcare": "blood_donation", "addr:full": "1515 University Blvd NE", "addr:city": "Albuquerque", "addr:state": "NM", "addr:postcode": "87102", "name": "Albuquerque", "website": "https://www.vitalant.org/Locations2/New-Mexico,-Southwest-Colorado,-El-Paso,-TX/Albuquerque-,-NM-Center", "brand": "Vitalant", "brand:wikidata": "Q7887528", "nsi_id": "vitalant-cf4bd7"}, "geometry": {"type": "Point", "coordinates": [-106.62847, 35.09977]}},
{"type": "Feature", "id": "sOxfD_FBAdiH162xiU_mP6k6lpg=", "properties": {"ref": "83", "@spider": "vitalant", "healthcare": "blood_donation", "addr:full": "6930 W Charleston Blvd", "addr:city": "Las Vegas", "addr:state": "NV", "addr:postcode": "89117", "name": "Las Vegas Main", "website": "https://www.vitalant.org/Locations2/Southern-Nevada/Northwest-Craig", "brand": "Vitalant", "brand:wikidata": "Q7887528", "nsi_id": "vitalant-cf4bd7"}, "geometry": {"type": "Point", "coordinates": [-115.24967, 36.1597]}},
{"type": "Feature", "id": "tL80XcbsivtK5sIEqtvsDPQDMHU=", "properties": {"ref": "84", "@spider": "vitalant", "healthcare": "blood_donation", "addr:full": "601 Whitney Ranch Dr #20", "addr:city": "Henderson", "addr:state": "NV", "addr:postcode": "89014", "name": "Henderson", "website": "https://www.vitalant.org/Locations2/Southern-Nevada/Henderson-Green-Valley", "brand": "Vitalant", "brand:wikidata": "Q7887528", "nsi_id": "vitalant-cf4bd7"}, "geometry": {"type": "Point", "coordinates": [-115.0534, 36.06418]}},
{"type": "Feature", "id": "srDl7aGq90WBs2v_-AvXJh9tn9I=", "properties": {"ref": "85", "@spider": "vitalant", "healthcare": "blood_donation", "addr:full": "4950 W Craig Rd", "addr:city": "Las Vegas ", "addr:state": "NV", "addr:postcode": "89117", "name": "Las Vegas Northwest", "website": "https://www.vitalant.org/Locations2/Southern-Nevada/Northwest-Craig", "brand": "Vitalant", "brand:wikidata": "Q7887528", "nsi_id": "vitalant-cf4bd7"}, "geometry": {"type": "Point", "coordinates": [-115.2098, 36.24048]}},
{"type": "Feature", "id": "OjLq4cxZjBSv46IkMY1fGM3RsPo=", "properties": {"ref": "86", "@spider": "vitalant", "healthcare": "blood_donation", "addr:full": "1125 Terminal Way", "addr:city": "Reno", "addr:state": "NV", "addr:postcode": "89502", "name": "Reno", "website": "https://www.vitalant.org/Locations2/Northern-Nevada/Reno-Donation-Center", "brand": "Vitalant", "brand:wikidata": "Q7887528", "nsi_id": "vitalant-cf4bd7"}, "geometry": {"type": "Point", "coordinates": [-119.7783435, 39.514653]}},
{"type": "Feature", "id": "MNAKXe4ArpHZ1I-_NGPqSUbGDIw=", "properties": {"ref": "87", "@spider": "vitalant", "healthcare": "blood_donation", "addr:full": "256 E Winnie Ln", "addr:city": "Carson City", "addr:state": "NV", "addr:postcode": "89706", "name": "Carson City", "website": "https://www.vitalant.org/Locations2/Northern-Nevada/Carson-City-Donation-Center", "brand": "Vitalant", "brand:wikidata": "Q7887528", "nsi_id": "vitalant-cf4bd7"}, "geometry": {"type": "Point", "coordinates": [-119.764712, 39.179687]}},
{"type": "Feature", "id": "jiGKyGrdocbCl6B8BP3yVFx6_vQ=", "properties": {"ref": "88", "@spider": "vitalant", "healthcare": "blood_donation", "addr:full": "4670 Sparks Boulevard", "addr:city": "Sparks", "addr:state": "NV", "addr:postcode": "89436", "name": "Sparks", "website": "https://www.vitalant.org/Locations2/Northern-Nevada/Sparks-Donation-Center", "brand": "Vitalant", "brand:wikidata": "Q7887528", "nsi_id": "vitalant-cf4bd7"}, "geometry": {"type": "Point", "coordinates": [-119.723465, 39.577524]}},
{"type": "Feature", "id": "HGqlZu-goNaJJqiOcAcewdSmHIo=", "properties": {"ref": "89", "@spider": "vitalant", "healthcare": "blood_donation", "addr:full": "710 Leona Street", "addr:city": "Elyria", "addr:state": "OH", "addr:postcode": "44035", "name": "Elyria", "website": "https://www.vitalant.org/Locations2/Ohio/Leona-Street-Elyria", "brand": "Vitalant", "brand:wikidata": "Q7887528", "nsi_id": "vitalant-cf4bd7"}, "geometry": {"type": "Point", "coordinates": [-82.11984, 41.402267]}},
{"type": "Feature", "id": "1s9J3AqBvqEkLuD1sqPUoerIsHE=", "properties": {"ref": "90", "@spider": "vitalant", "healthcare": "blood_donation", "addr:full": "18100 Jefferson Park Road", "addr:city": "Middleburg Heights", "addr:state": "OH", "addr:postcode": "44130", "name": "Middleburg Heights", "website": "https://www.vitalant.org/Locations2/Ohio/Jefferson-Park-Road-Middleburg-Heights", "brand": "Vitalant", "brand:wikidata": "Q7887528", "nsi_id": "vitalant-cf4bd7"}, "geometry": {"type": "Point", "coordinates": [-81.82807, 41.37616]}},
{"type": "Feature", "id": "gydMWX3Azscimtovsh_2JMXxAbk=", "properties": {"ref": "91", "@spider": "vitalant", "healthcare": "blood_donation", "addr:full": "4119 Tuscarawas Street W", "addr:city": "Canton", "addr:state": "OH", "addr:postcode": "44708", "name": "Canton", "website": "https://www.vitalant.org/Locations2/Ohio/Tuscarawas-Street-Canton", "brand": "Vitalant", "brand:wikidata": "Q7887528", "nsi_id": "vitalant-cf4bd7"}, "geometry": {"type": "Point", "coordinates": [-81.423019, 40.796915]}},
{"type": "Feature", "id": "KBvJgb4UY02qwMI0EM_CkJhHISA=", "properties": {"ref": "92", "@spider": "vitalant", "healthcare": "blood_donation", "addr:full": "252 College Avenue", "addr:city": "Beaver", "addr:state": "PA", "addr:postcode": "15009", "name": "Beaver", "website": "https://vitalant.org/Locations2/Pennsylvania-Pittsburgh/Beaver-County-Donation-Site", "brand": "Vitalant", "brand:wikidata": "Q7887528", "nsi_id": "vitalant-cf4bd7"}, "geometry": {"type": "Point", "coordinates": [-80.30378, 40.69484]}},
{"type": "Feature", "id": "u1aWQIjrWHp80_KlQjulzXhX67I=", "properties": {"ref": "93", "@spider": "vitalant", "healthcare": "blood_donation", "addr:full": "1034 Park Avenue", "addr:city": "Meadville", "addr:state": "PA", "addr:postcode": "16335", "name": "Meadville", "website": "https://vitalant.org/Locations2/Pennsylvania-Pittsburgh/Crawford-County-Donation-Site", "brand": "Vitalant", "brand:wikidata": "Q7887528", "nsi_id": "vitalant-cf4bd7"}, "geometry": {"type": "Point", "coordinates": [-80.15431, 41.63528]}},
{"type": "Feature", "id": "J2_GCblxjmJ0tnulM85bNgHPb9c=", "properties": {"ref": "94", "@spider": "vitalant", "healthcare": "blood_donation", "addr:full": "1342 South Center Street", "addr:city": "Grove City", "addr:state": "PA", "addr:postcode": "16127", "name": "Grove City", "website": "https://vitalant.org/Locations2/Pennsylvania-Pittsburgh/Mercer-County-Donation-Site", "brand": "Vitalant", "brand:wikidata": "Q7887528", "nsi_id": "vitalant-cf4bd7"}, "geometry": {"type": "Point", "coordinates": [-80.11291, 41.15517]}},
{"type": "Feature", "id": "VEe3wRkhFlTKtWnVcxyMqGMDmRY=", "properties": {"ref": "95", "@spider": "vitalant", "healthcare": "blood_donation", "addr:full": "255 Center Church Road", "addr:city": "McMurray", "addr:state": "PA", "addr:postcode": "15317", "name": "McMurray", "website": "https://vitalant.org/Locations2/Pennsylvania-Pittsburgh/Peters-Township-Donation-Site", "brand": "Vitalant", "brand:wikidata": "Q7887528", "nsi_id": "vitalant-cf4bd7"}, "geometry": {"type": "Point", "coordinates": [-80.10737, 40.28106]}},
{"type": "Feature", "id": "HupAPafHwW740MQi6e0MiwEXd1c=", "properties": {"ref": "96", "@spider": "vitalant", "healthcare": "blood_donation", "addr:full": "150 Old Pond Road", "addr:city": "Bridgeville", "addr:state": "PA", "addr:postcode": "15017", "name": "Bridgeville", "website": "https://vitalant.org/Locations2/Pennsylvania-Pittsburgh/South-Fayette-Donation-Site", "brand": "Vitalant", "brand:wikidata": "Q7887528", "nsi_id": "vitalant-cf4bd7"}, "geometry": {"type": "Point", "coordinates": [-80.12052, 40.35422]}},
{"type": "Feature", "id": "EKhgxQUleBZLLPd4ALKTNdPTN4E=", "properties": {"ref": "97", "@spider": "vitalant", "healthcare": "blood_donation", "addr:full": "240 Wellness Way", "addr:city": "Washington ", "addr:state": "PA", "addr:postcode": "15301", "name": "Washington", "website": "https://vitalant.org/Locations2/Pennsylvania-Pittsburgh/Washington-County-Donation-Site", "brand": "Vitalant", "brand:wikidata": "Q7887528", "nsi_id": "vitalant-cf4bd7"}, "geometry": {"type": "Point", "coordinates": [-80.2139275, 40.192935]}},
{"type": "Feature", "id": "f0DHSPxceNIEPHn6NgwEv4v0qGU=", "properties": {"ref": "98", "@spider": "vitalant", "healthcare": "blood_donation", "addr:full": "6044 Route 30", "addr:city": "Greensburg", "addr:state": "PA", "addr:postcode": "16066", "name": "Greensburg", "website": "https://www.vitalant.org/Locations2/Pennsylvania-Pittsburgh/Greensburg-Donation-Center", "brand": "Vitalant", "brand:wikidata": "Q7887528", "nsi_id": "vitalant-cf4bd7"}, "geometry": {"type": "Point", "coordinates": [-79.576076, 40.30602]}},
{"type": "Feature", "id": "6M2CZ-yItDAhfG8XymxuJ7HGix8=", "properties": {"ref": "99", "@spider": "vitalant", "healthcare": "blood_donation", "addr:full": "4075 Monroeville Blvd", "addr:city": "Monroeville", "addr:state": "PA", "addr:postcode": "15146", "name": "Monroeville", "website": "https://www.vitalant.org/Locations2/Pennsylvania-Pittsburgh/Monroeville-Donation-Center", "brand": "Vitalant", "brand:wikidata": "Q7887528", "nsi_id": "vitalant-cf4bd7"}, "geometry": {"type": "Point", "coordinates": [-79.764398, 40.425925]}},
{"type": "Feature", "id": "GXgIVdctICF-Em3h0xYyjY-3n9I=", "properties": {"ref": "100", "@spider": "vitalant", "healthcare": "blood_donation", "addr:full": "9365 McKnight Rd", "addr:city": "Pittsburgh", "addr:state": "PA", "addr:postcode": "15237", "name": "North Hills", "website": "https://www.vitalant.org/Locations2/Pennsylvania-Pittsburgh/North-Hills-Donation-Center", "brand": "Vitalant", "brand:wikidata": "Q7887528", "nsi_id": "vitalant-cf4bd7"}, "geometry": {"type": "Point", "coordinates": [-80.025495, 40.574619]}},
{"type": "Feature", "id": "j3hTqzcKauI3WoqmyTaVXiR-xL8=", "properties": {"ref": "101", "@spider": "vitalant", "healthcare": "blood_donation", "addr:full": "127 Oneida Valley Road", "addr:city": "Butler", "addr:state": "PA", "addr:postcode": "16001", "name": "Butler", "website": "https://www.vitalant.org/Locations2/Pennsylvania-Pittsburgh/Butler-Donation-Center", "brand": "Vitalant", "brand:wikidata": "Q7887528", "nsi_id": "vitalant-cf4bd7"}, "geometry": {"type": "Point", "coordinates": [-79.8758, 40.877955]}},
{"type": "Feature", "id": "4pmE9lVL4G81eIiuJQXU9TubVeU=", "properties": {"ref": "102", "@spider": "vitalant", "healthcare": "blood_donation", "addr:full": "1005 Beaver Grade Road", "addr:city": "Coraopolis", "addr:state": "PA", "addr:postcode": "15108", "name": "Moon Township", "website": "https://www.vitalant.org/Locations2/Pennsylvania-Pittsburgh/Moon-Township-Donation-Center", "brand": "Vitalant", "brand:wikidata": "Q7887528", "nsi_id": "vitalant-cf4bd7"}, "geometry": {"type": "Point", "coordinates": [-80.2074, 40.50536]}},
{"type": "Feature", "id": "Whi66wiwmVuhYuM1DO51dQP-m2Y=", "properties": {"ref": "103", "@spider": "vitalant", "healthcare": "blood_donation", "addr:full": "20421 Route 19", "addr:city": "Cranberry Township", "addr:state": "PA", "addr:postcode": "16066", "name": "Cranberry Township", "website": "https://www.vitalant.org/Locations2/Pennsylvania-Pittsburgh/Cranberry-Donation-Center", "brand": "Vitalant", "brand:wikidata": "Q7887528", "nsi_id": "vitalant-cf4bd7"}, "geometry": {"type": "Point", "coordinates": [-80.104416, 40.694565]}},
{"type": "Feature", "id": "eaAKddHPc_2ktuZWWGzLbEUC7xI=", "properties": {"ref": "104", "@spider": "vitalant", "healthcare": "blood_donation", "addr:full": "429 Fourth Ave", "addr:city": "Pittsburgh ", "addr:state": "PA", "addr:postcode": "15219", "name": "Downtown", "website": "https://www.vitalant.org/Locations2/Pennsylvania-Pittsburgh/Downtown-Pittsburgh-Donation-Center", "brand": "Vitalant", "brand:wikidata": "Q7887528", "nsi_id": "vitalant-cf4bd7"}, "geometry": {"type": "Point", "coordinates": [-79.99926, 40.438625]}},
{"type": "Feature", "id": "HuUwiPV3-7RDB0DOtaUIcq40Za0=", "properties": {"ref": "105", "@spider": "vitalant", "healthcare": "blood_donation", "addr:full": "2585 Freeport Road", "addr:city": "Pittburgh", "addr:state": "PA", "addr:postcode": "15238", "name": "Fox Chapel/Harmar", "website": "https://www.vitalant.org/Locations2/Pennsylvania-Pittsburgh/Harmar-Fox-Chapel-Donation-Center", "brand": "Vitalant", "brand:wikidata": "Q7887528", "nsi_id": "vitalant-cf4bd7"}, "geometry": {"type": "Point", "coordinates": [-79.83543, 40.537758]}},
{"type": "Feature", "id": "U3Xs8OQHTp8xOY0uXUniT_752r0=", "properties": {"ref": "106", "@spider": "vitalant", "healthcare": "blood_donation", "addr:full": "875 Greentree Road", "addr:city": "Pittsburgh", "addr:state": "PA", "addr:postcode": "15220", "name": "Greentree", "website": "https://www.vitalant.org/Locations2/Pennsylvania-Pittsburgh/Parkway-Center-Donation-Center", "brand": "Vitalant", "brand:wikidata": "Q7887528", "nsi_id": "vitalant-cf4bd7"}, "geometry": {"type": "Point", "coordinates": [-80.04135, 40.426563]}},
{"type": "Feature", "id": "tJfkspdoV_bFwDo2daZFoFI770s=", "properties": {"ref": "107", "@spider": "vitalant", "healthcare": "blood_donation", "addr:full": "4701 Baptist Rd.", "addr:city": "Pittsburgh", "addr:state": "PA", "addr:postcode": "15227", "name": "South Hills", "website": "https://www.vitalant.org/Locations2/Pennsylvania-Pittsburgh/South-Hills-Donation-Center", "brand": "Vitalant", "brand:wikidata": "Q7887528", "nsi_id": "vitalant-cf4bd7"}, "geometry": {"type": "Point", "coordinates": [-79.99405, 40.36073]}},
{"type": "Feature", "id": "DmCeCAwh0sVgCHBdWvxuHGvY9tI=", "properties": {"ref": "108", "@spider": "vitalant", "healthcare": "blood_donation", "addr:full": "2209 W Omaha St", "addr:city": "Rapid City", "addr:state": "SD", "addr:postcode": "57702", "name": "Rapid City", "website": "https://www.vitalant.org/Locations2/North-Dakota,-South-Dakota,-Montana/Rapid-City-donation-center", "brand": "Vitalant", "brand:wikidata": "Q7887528", "nsi_id": "vitalant-cf4bd7"}, "geometry": {"type": "Point", "coordinates": [-103.255391, 44.084087]}},
{"type": "Feature", "id": "r7til36427WSDSXSfqy-vtuIJGY=", "properties": {"ref": "109", "@spider": "vitalant", "healthcare": "blood_donation", "addr:full": "131 N Roosevelt St", "addr:city": "Aberdeen", "addr:state": "SD", "addr:postcode": "57401", "name": "Aberdeen", "website": "https://www.vitalant.org/Locations2/North-Dakota,-South-Dakota,-Montana/Aberdeen-Donation-Center", "brand": "Vitalant", "brand:wikidata": "Q7887528", "nsi_id": "vitalant-cf4bd7"}, "geometry": {"type": "Point", "coordinates": [-98.454026, 45.466507]}},
{"type": "Feature", "id": "HtMa1Tcvtyc_57CHwxZ3Q7yTXcg=", "properties": {"ref": "110", "@spider": "vitalant", "healthcare": "blood_donation", "addr:full": "2095 Exeter Rd", "addr:city": "Germantown", "addr:state": "TN", "addr:postcode": "38138", "name": "Germantown", "website": "https://www.vitalant.org/Locations2/Southeast-Region-(AL,-AR,-LA,-MO,-MS,-TN)/Germantown-Donation-Center", "brand": "Vitalant", "brand:wikidata": "Q7887528", "nsi_id": "vitalant-cf4bd7"}, "geometry": {"type": "Point", "coordinates": [-89.803952, 35.091724]}},
{"type": "Feature", "id": "Tn0VOByBFjUH7mo4VGFM7-zheWU=", "properties": {"ref": "111", "@spider": "vitalant", "healthcare": "blood_donation", "addr:full": "4702 Spotswood Ave.", "addr:city": "Memphis", "addr:state": "TN", "addr:postcode": "38117", "name": "East", "website": "https://www.vitalant.org/Locations2/Southeast-Region-(AL,-AR,-LA,-MO,-MS,-TN)/East-Donation-Center", "brand": "Vitalant", "brand:wikidata": "Q7887528", "nsi_id": "vitalant-cf4bd7"}, "geometry": {"type": "Point", "coordinates": [-89.90425, 35.112015]}},
{"type": "Feature", "id": "eyiJihhUZHXt3OqAqWDa6pTFESQ=", "properties": {"ref": "112", "@spider": "vitalant", "healthcare": "blood_donation", "addr:full": "1045 Madison Ave", "addr:city": "Memphis", "addr:state": "TN", "addr:postcode": "38104", "name": "Paul W. Barrett Jr.", "website": "https://www.vitalant.org/Locations2/Southeast-Region-(AL,-AR,-LA,-MO,-MS,-TN)/Paul-W-Barret-Jr-Donation-Center", "brand": "Vitalant", "brand:wikidata": "Q7887528", "nsi_id": "vitalant-cf4bd7"}, "geometry": {"type": "Point", "coordinates": [-90.026085, 35.139812]}},
{"type": "Feature", "id": "7aTZ2bJfn8PiMxhEKSrbbSntln8=", "properties": {"ref": "113", "@spider": "vitalant", "healthcare": "blood_donation", "addr:full": "7505 US Highway 64", "addr:city": "Bartlett", "addr:state": "TN", "addr:postcode": "38133", "name": "Bartlett", "website": "https://www.vitalant.org/Locations2/Southeast-Region-(AL,-AR,-LA,-MO,-MS,-TN)/Bartlett-Donation-Center", "brand": "Vitalant", "brand:wikidata": "Q7887528", "nsi_id": "vitalant-cf4bd7"}, "geometry": {"type": "Point", "coordinates": [-89.813086, 35.204057]}},
{"type": "Feature", "id": "cJXrOMrxJi82PnfS1_GSrhkBUXs=", "properties": {"ref": "114", "@spider": "vitalant", "healthcare": "blood_donation", "addr:full": "1338 N Zaragosa Rd", "addr:city": "El Paso", "addr:state": "TX", "addr:postcode": "79912", "name": "El Paso East", "website": "https://www.vitalant.org/Locations2/New-Mexico,-Southwest-Colorado,-El-Paso,-TX/El-Paxo,-Texas-East-Side-Center", "brand": "Vitalant", "brand:wikidata": "Q7887528", "nsi_id": "vitalant-cf4bd7"}, "geometry": {"type": "Point", "coordinates": [-106.229442, 31.797652]}},
{"type": "Feature", "id": "Ds69rrIRxbBSvaHgabwf9ucxX_8=", "properties": {"ref": "115", "@spider": "vitalant", "healthcare": "blood_donation", "addr:full": "424 S Mesa Hills Dr", "addr:city": "El Paso", "addr:state": "TX", "addr:postcode": "79912", "name": "El Paso West", "website": "https://www.vitalant.org/Locations2/New-Mexico,-Southwest-Colorado,-El-Paso,-TX/El-Paso,-Texas-West-Side-Center", "brand": "Vitalant", "brand:wikidata": "Q7887528", "nsi_id": "vitalant-cf4bd7"}, "geometry": {"type": "Point", "coordinates": [-106.5288, 31.81765]}},
{"type": "Feature", "id": "-djRtiK1WWsf7Ikli5nMeFdcyms=", "properties": {"ref": "116", "@spider": "vitalant", "healthcare": "blood_donation", "addr:full": "4706 N Midkiff Rd", "addr:city": "Midland", "addr:state": "TX", "addr:postcode": "79705", "name": "Midland", "website": "https://www.vitalant.org/Locations2/West-Texas/Midland,-Texas-Center", "brand": "Vitalant", "brand:wikidata": "Q7887528", "nsi_id": "vitalant-cf4bd7"}, "geometry": {"type": "Point", "coordinates": [-102.128331, 32.035578]}},
{"type": "Feature", "id": "7fTyJ2VtxwNyuc_z1a9tnyK4k2g=", "properties": {"ref": "117", "@spider": "vitalant", "healthcare": "blood_donation", "addr:full": "2020 W Beauregard Ave", "addr:city": "San Angelo", "addr:state": "TX", "addr:postcode": "76901", "name": "San Angelo", "website": "https://www.vitalant.org/Locations2/West-Texas/San-Angelo,-Texas-Center", "brand": "Vitalant", "brand:wikidata": "Q7887528", "nsi_id": "vitalant-cf4bd7"}, "geometry": {"type": "Point", "coordinates": [-100.463623, 31.452379]}},
{"type": "Feature", "id": "SSDL75I3wkHs37V6JAS1kBdmwNo=", "properties": {"ref": "118", "@spider": "vitalant", "healthcare": "blood_donation", "addr:full": "610 N Ed Carey Dr", "addr:city": "Harlingen", "addr:state": "TX", "addr:postcode": "78550", "name": "Harlingen", "website": "https://www.vitalant.org/Locations2/Rio-Grande-Valley/Harlingen,-Texas-Center", "brand": "Vitalant", "brand:wikidata": "Q7887528", "nsi_id": "vitalant-cf4bd7"}, "geometry": {"type": "Point", "coordinates": [-97.663065, 26.209625]}},
{"type": "Feature", "id": "JHMxRIUoAXHf91jtuxgfD1mSGm8=", "properties": {"ref": "119", "@spider": "vitalant", "healthcare": "blood_donation", "addr:full": "1400 S 6th St", "addr:city": "McAllen", "addr:state": "TX", "addr:postcode": "78501", "name": "McAllen", "website": "https://www.vitalant.org/Locations2/Rio-Grande-Valley/McAllen-,-Texas-Center", "brand": "Vitalant", "brand:wikidata": "Q7887528", "nsi_id": "vitalant-cf4bd7"}, "geometry": {"type": "Point", "coordinates": [-98.22852, 26.19057]}},
{"type": "Feature", "id": "fRzcIPPi9CtWXHqTTkM_QQgqcc0=", "properties": {"ref": "120", "@spider": "vitalant", "healthcare": "blood_donation", "addr:full": "2523 48th St", "addr:city": "Lubbock", "addr:state": "TX", "addr:postcode": "79413", "name": "Lubbock", "website": "https://www.vitalant.org/Locations2/West-Texas/Lubbock,-Texas-Center", "brand": "Vitalant", "brand:wikidata": "Q7887528", "nsi_id": "vitalant-cf4bd7"}, "geometry": {"type": "Point", "coordinates": [-101.8716, 33.55036]}},
{"type": "Feature", "id": "NFZqqs8MRkGgl_CgB-bPLefHyEI=", "properties": {"ref": "121", "@spider": "vitalant", "healthcare": "blood_donation", "addr:full": "Samaritan Healthcare Bldg, 801 E Wheeler Rd", "addr:city": "Moses Lake", "addr:state": "WA", "addr:postcode": "98837", "name": "Moses Lake", "website": "https://www.vitalant.org/Locations2/Washington,-Idaho/Moses-Lake", "brand": "Vitalant", "brand:wikidata": "Q7887528", "nsi_id": "vitalant-cf4bd7"}, "geometry": {"type": "Point", "coordinates": [-119.26527, 47.12867]}},
{"type": "Feature", "id": "3M7hHhvr8kIDsYHkL4ihnOauzj4=", "properties": {"ref": "122", "@spider": "vitalant", "healthcare": "blood_donation", "addr:full": "10403 North Newport Highway", "addr:city": "Spokane", "addr:state": "WA", "addr:postcode": "99218", "name": "North Spokane", "website": "https://www.vitalant.org/Locations2/Washington,-Idaho/North-Spokane", "brand": "Vitalant", "brand:wikidata": "Q7887528", "nsi_id": "vitalant-cf4bd7"}, "geometry": {"type": "Point", "coordinates": [-117.39805, 47.753696]}},
{"type": "Feature", "id": "Up5VUqYnxWxxGliT7lqtEm19mcg=", "properties": {"ref": "123", "@spider": "vitalant", "healthcare": "blood_donation", "addr:full": "12117 E. Mission Ave", "addr:city": "Spokane Valley", "addr:state": "WA", "addr:postcode": "99206", "name": "Spokane Valley", "website": "https://www.vitalant.org/Locations2/Washington,-Idaho/Spokane-Valley", "brand": "Vitalant", "brand:wikidata": "Q7887528", "nsi_id": "vitalant-cf4bd7"}, "geometry": {"type": "Point", "coordinates": [-117.2419, 47.671654]}},
{"type": "Feature", "id": "fixuArNF0rk3CWL9lRqdXGNwCp4=", "properties": {"ref": "124", "@spider": "vitalant", "healthcare": "blood_donation", "addr:full": "210 W. Cataldo Ave.", "addr:city": "Spokane", "addr:state": "WA", "addr:postcode": "99201", "name": "Spokane", "website": "https://www.vitalant.org/Locations2/Washington,-Idaho/Spokane-(Downtown)", "brand": "Vitalant", "brand:wikidata": "Q7887528", "nsi_id": "vitalant-cf4bd7"}, "geometry": {"type": "Point", "coordinates": [-117.414885, 47.66641]}},
{"type": "Feature", "id": "NMNO5jx44lSLtXvw1HNaV_saTqo=", "properties": {"ref": "125", "@spider": "vitalant", "healthcare": "blood_donation", "addr:full": "300 Three Springs Drive", "addr:city": "Weirton", "addr:state": "WV", "addr:postcode": "26062", "name": "Weirton", "website": "https://vitalant.org/Locations2/Pennsylvania-Pittsburgh/St-Thomas-Episcopal-Church", "brand": "Vitalant", "brand:wikidata": "Q7887528", "nsi_id": "vitalant-cf4bd7"}, "geometry": {"type": "Point", "coordinates": [-80.5512909, 40.3981779]}},
{"type": "Feature", "id": "UjJk-kcKq-xrDTDiDuBZb3VQunk=", "properties": {"ref": "126", "@spider": "vitalant", "healthcare": "blood_donation", "addr:full": "120\u00a0Medical Park Drive", "addr:city": "Bridgeport", "addr:state": "WV", "addr:postcode": "26330", "name": "Bridgeport", "website": "https://vitalant.org/Locations2/Pennsylvania-Pittsburgh/Bridgeport,-WV-Donation-Site", "brand": "Vitalant", "brand:wikidata": "Q7887528", "nsi_id": "vitalant-cf4bd7"}, "geometry": {"type": "Point", "coordinates": [-80.2417565, 39.3323702]}},
{"type": "Feature", "id": "9e-Uj6-XO1jjXAHaMtA_sA-Jz6w=", "properties": {"ref": "127", "@spider": "vitalant", "healthcare": "blood_donation", "addr:full": "800 Medical Park Drive", "addr:city": "Wheeling", "addr:state": "WV", "addr:postcode": "26003", "name": "Wheeling", "website": "https://vitalant.org/Locations2/Pennsylvania-Pittsburgh/Wheeling-WV-Donation-Site", "brand": "Vitalant", "brand:wikidata": "Q7887528", "nsi_id": "vitalant-cf4bd7"}, "geometry": {"type": "Point", "coordinates": [-80.6843366840887, 40.0603839981517]}},
{"type": "Feature", "id": "qYAdw-G5u4AdQNaNTn_qtl5izNs=", "properties": {"ref": "128", "@spider": "vitalant", "healthcare": "blood_donation", "addr:full": "112 E 8th Ave", "addr:city": "Cheyenne", "addr:state": "WY", "addr:postcode": "82001", "name": "Cheyenne", "website": "https://www.vitalant.org/Locations2/Wyoming,-Nebraska/Cheyenne-donation-center", "brand": "Vitalant", "brand:wikidata": "Q7887528", "nsi_id": "vitalant-cf4bd7"}, "geometry": {"type": "Point", "coordinates": [-104.82198, 41.15374]}},
{"type": "Feature", "id": "hacUWMzg8YwPKK9Hahu8GacjLRM=", "properties": {"ref": "129", "@spider": "vitalant", "healthcare": "blood_donation", "addr:full": "2801 E 2nd St", "addr:city": "Casper", "addr:state": "WY", "addr:postcode": "82609", "name": "Casper", "website": "https://www.vitalant.org/Locations2/Wyoming,-Nebraska/Casper-donation-center", "brand": "Vitalant", "brand:wikidata": "Q7887528", "nsi_id": "vitalant-cf4bd7"}, "geometry": {"type": "Point", "coordinates": [-106.28959, 42.84847]}}]}