{"type":"FeatureCollection","features":[{"type": "Feature", "id": "9ktyW0mLoHHvOVi7GJHu-F_qbYo=", "properties": {"ref": "21", "category": null, "@spider": "vitalia", "shop": "health_food", "addr:street": "Berliner Freiheit 3 D", "addr:city": "Bremen", "addr:postcode": "28327", "addr:country": "DE", "name": "VITALIA Reformhaus Bremen Berliner Freiheit", "phone": "0421 462604", "opening_hours": "Mo 09:00-19:00; Tu 08:30-19:00; We 09:00-19:00; Th 08:30-19:00; Fr 09:00-19:00; Sa 08:00-16:00; Su 00:00-24:00", "brand": "Vitalia Reformhaus", "brand:wikidata": "Q2528558", "nsi_id": "vitaliareformhaus-f6f874"}, "geometry": {"type": "Point", "coordinates": [8.89287, 53.08116]}},
{"type": "Feature", "id": "5DK6b71_iBdb4O6FrCXAfvs5824=", "properties": {"ref": "62", "category": null, "@spider": "vitalia", "shop": "health_food", "addr:street": "Marienplatz  5 - 7", "addr:city": "Schwerin", "addr:postcode": "19053", "addr:country": "DE", "name": "VITALIA Reformhaus Schwerin Schlosspark-Center", "phone": "0385 563527", "opening_hours": "Mo-Su 09:00-20:00", "brand": "Vitalia Reformhaus", "brand:wikidata": "Q2528558", "nsi_id": "vitaliareformhaus-f6f874"}, "geometry": {"type": "Point", "coordinates": [11.4087099, 53.6286257]}},
{"type": "Feature", "id": "lKnC-AM6tpByiB88Q4VJ3c2oFfA=", "properties": {"ref": "47", "category": null, "@spider": "vitalia", "shop": "health_food", "addr:street": "Marktplatz 2", "addr:city": "Neubrandenburg", "addr:postcode": "17033", "addr:country": "DE", "name": "VITALIA Reformhaus Neubrandenburg Marktplatz-Center", "phone": "0395 5823339", "opening_hours": "Mo-Sa 09:30-20:00; Su 00:00-20:00", "brand": "Vitalia Reformhaus", "brand:wikidata": "Q2528558", "nsi_id": "vitaliareformhaus-f6f874"}, "geometry": {"type": "Point", "coordinates": [13.2595059, 53.5573835]}},
{"type": "Feature", "id": "eI0wjisXUffIJfQiUKJastuaIGE=", "properties": {"ref": "31", "category": null, "@spider": "vitalia", "shop": "health_food", "addr:street": "Rabanusstr. 14 - 16", "addr:city": "Fulda", "addr:postcode": "36037", "addr:country": "DE", "name": "VITALIA Reformhaus Fulda", "phone": "0661 38017407", "opening_hours": "Mo-Sa 08:00-20:00; Su 00:00-20:00", "brand": "Vitalia Reformhaus", "brand:wikidata": "Q2528558", "nsi_id": "vitaliareformhaus-f6f874"}, "geometry": {"type": "Point", "coordinates": [9.67854, 50.55289]}},
{"type": "Feature", "id": "gApZa2MjM6NvvzGULBDO4kHGAk0=", "properties": {"ref": "56", "category": null, "@spider": "vitalia", "shop": "health_food", "addr:street": "Babelsberger Stra\u00dfe 16", "addr:city": "Potsdam", "addr:postcode": "14473", "addr:country": "DE", "name": "VITALIA Reformhaus Potsdam Bahnhofspassagen", "phone": "0331 20127815", "opening_hours": "Mo-Fr 07:00-20:00; Sa 10:00-20:00; Su 00:00-24:00", "brand": "Vitalia Reformhaus", "brand:wikidata": "Q2528558", "nsi_id": "vitaliareformhaus-f6f874"}, "geometry": {"type": "Point", "coordinates": [13.0666926, 52.3923103]}},
{"type": "Feature", "id": "WjNO-aEfV93pV1TgKl6H1oMeeO8=", "properties": {"ref": "18", "category": null, "@spider": "vitalia", "shop": "health_food", "addr:street": "Wilmersdorferstr. 46", "addr:city": "Berlin", "addr:postcode": "10627", "addr:country": "DE", "name": "VITALIA Reformhaus Berlin Wilma Shoppen", "phone": "030 31016426", "opening_hours": "Mo-Su 10:00-20:00", "brand": "Vitalia Reformhaus", "brand:wikidata": "Q2528558", "nsi_id": "vitaliareformhaus-f6f874"}, "geometry": {"type": "Point", "coordinates": [13.304722, 52.509274]}},
{"type": "Feature", "id": "OUtsbO3_Llzw7n1QOwb7vD8AzC8=", "properties": {"ref": "8", "category": null, "@spider": "vitalia", "shop": "health_food", "addr:street": "Badstra\u00dfe 4  ", "addr:city": "Berlin", "addr:postcode": "13357", "addr:country": "DE", "name": "VITALIA Reformhaus Berlin Gesundbrunnen Center", "phone": "030 49308921", "opening_hours": "Mo-Su 10:00-20:00", "brand": "Vitalia Reformhaus", "brand:wikidata": "Q2528558", "nsi_id": "vitaliareformhaus-f6f874"}, "geometry": {"type": "Point", "coordinates": [13.3879516, 52.549678]}},
{"type": "Feature", "id": "DPkjHyVXGsgf5PzVnffG5g9NyZM=", "properties": {"ref": "13", "category": null, "@spider": "vitalia", "shop": "health_food", "addr:street": "Ludwigkirchstr. 3", "addr:city": "Berlin", "addr:postcode": "10719", "addr:country": "DE", "name": "VITALIA Reformhaus Berlin Ludwigkirchstra\u00dfe", "phone": "030 88625571", "opening_hours": "Mo-Fr 09:00-19:00; Sa 09:00-16:00; Su 09:00-19:00", "brand": "Vitalia Reformhaus", "brand:wikidata": "Q2528558", "nsi_id": "vitaliareformhaus-f6f874"}, "geometry": {"type": "Point", "coordinates": [13.32154, 52.49816]}},
{"type": "Feature", "id": "vQEFKLPcz-emoOQbQS1ji3FtjRY=", "properties": {"ref": "17", "category": null, "@spider": "vitalia", "shop": "health_food", "addr:street": "Sch\u00f6nhauser Allee 78 - 80", "addr:city": "Berlin", "addr:postcode": "10439", "addr:country": "DE", "name": "VITALIA Reformhaus Berlin Sch\u00f6nhauser Allee Arcaden ", "phone": "030 44652668", "opening_hours": "Mo-Su 09:00-20:00", "brand": "Vitalia Reformhaus", "brand:wikidata": "Q2528558", "nsi_id": "vitaliareformhaus-f6f874"}, "geometry": {"type": "Point", "coordinates": [13.4137684, 52.5486934]}},
{"type": "Feature", "id": "SrLR_L66LYHtJCUS1fmbiIJto6c=", "properties": {"ref": "7", "category": null, "@spider": "vitalia", "shop": "health_food", "addr:street": "Friedrichstra\u00dfe 141", "addr:city": "Berlin", "addr:postcode": "10117", "addr:country": "DE", "name": "VITALIA Reformhaus Berlin Friedrichstra\u00dfe", "phone": "030 20619964", "opening_hours": "Mo-Fr 07:00-20:00; Sa-Su 11:00-20:00", "brand": "Vitalia Reformhaus", "brand:wikidata": "Q2528558", "nsi_id": "vitaliareformhaus-f6f874"}, "geometry": {"type": "Point", "coordinates": [13.3878611, 52.520014]}},
{"type": "Feature", "id": "c-IBGSShXMSOl7vwu0YCzDauZmg=", "properties": {"ref": "15", "category": null, "@spider": "vitalia", "shop": "health_food", "addr:street": "R\u00fcdesheimer Str. 2", "addr:city": "Berlin", "addr:postcode": "14197", "addr:country": "DE", "name": "VITALIA Reformhaus Berlin R\u00fcdesheimer Stra\u00dfe", "phone": "030 8221993", "opening_hours": "Mo-Fr 09:00-19:00; Sa 09:00-15:00; Su 09:00-19:00", "brand": "Vitalia Reformhaus", "brand:wikidata": "Q2528558", "nsi_id": "vitaliareformhaus-f6f874"}, "geometry": {"type": "Point", "coordinates": [13.3143347, 52.4736031]}},
{"type": "Feature", "id": "8h_2SQpihyjSLVkYf9Q0zMbUHMw=", "properties": {"ref": "3", "category": null, "@spider": "vitalia", "shop": "health_food", "addr:street": "Dircksenstra\u00dfe 2", "addr:city": "Berlin", "addr:postcode": "10178", "addr:country": "DE", "name": "VITALIA Reformhaus Berlin Alexanderplatz", "phone": "030 24729503", "opening_hours": "Mo-Fr 08:00-20:00; Sa 11:00-19:00; Su 00:00-24:00", "brand": "Vitalia Reformhaus", "brand:wikidata": "Q2528558", "nsi_id": "vitaliareformhaus-f6f874"}, "geometry": {"type": "Point", "coordinates": [13.4111476, 52.5215563]}},
{"type": "Feature", "id": "-Z0xDwWbaj0FxwF9HSfhXgDl13Q=", "properties": {"ref": "10", "category": null, "@spider": "vitalia", "shop": "health_food", "addr:street": "Richert-von-Weizs\u00e4cker-Platz 1 - 2", "addr:city": "Berlin", "addr:postcode": "10827", "addr:country": "DE", "name": "VITALIA Reformhaus Berlin Kaiser-Wilhelm-Passage", "phone": "030 7814437", "opening_hours": "Mo-Su 09:00-20:00", "brand": "Vitalia Reformhaus", "brand:wikidata": "Q2528558", "nsi_id": "vitaliareformhaus-f6f874"}, "geometry": {"type": "Point", "coordinates": [13.356392, 52.485982]}},
{"type": "Feature", "id": "WLm7-GOXDmyBiizSR978H6LF5yg=", "properties": {"ref": "16", "category": null, "@spider": "vitalia", "shop": "health_food", "addr:street": "Walther-Schreiber-Platz 1", "addr:city": "Berlin", "addr:postcode": "12161", "addr:country": "DE", "name": "VITALIA Reformhaus Berlin Schloss-Stra\u00dfen-Center", "phone": "030 85405216", "opening_hours": "Mo-Sa 09:00-20:00; Su 00:00-20:00", "brand": "Vitalia Reformhaus", "brand:wikidata": "Q2528558", "nsi_id": "vitaliareformhaus-f6f874"}, "geometry": {"type": "Point", "coordinates": [13.3276814, 52.4654799]}},
{"type": "Feature", "id": "fP7jdF_5kk3mwakWCjRptfkcJJg=", "properties": {"ref": "5", "category": null, "@spider": "vitalia", "shop": "health_food", "addr:street": "Schlossstr. 34 - 36", "addr:city": "Berlin", "addr:postcode": "12163", "addr:country": "DE", "name": "VITALIA Reformhaus Berlin Das Schloss", "phone": "030 79746448", "opening_hours": "Mo-Su 09:30-20:00", "brand": "Vitalia Reformhaus", "brand:wikidata": "Q2528558", "nsi_id": "vitaliareformhaus-f6f874"}, "geometry": {"type": "Point", "coordinates": [13.3210808, 52.457979]}},
{"type": "Feature", "id": "_9Ko4pYDXYc_TDS7skbmzUz3QSU=", "properties": {"ref": "12", "category": null, "@spider": "vitalia", "shop": "health_food", "addr:street": "Kottbusser Damm 99", "addr:city": "Berlin", "addr:postcode": "10967", "addr:country": "DE", "name": "VITALIA Reformhaus Berlin Kottbusser Damm", "phone": "030 69567982", "opening_hours": "Mo-Fr 09:30-19:00; Sa 09:30-17:00; Su 09:30-19:00", "brand": "Vitalia Reformhaus", "brand:wikidata": "Q2528558", "nsi_id": "vitaliareformhaus-f6f874"}, "geometry": {"type": "Point", "coordinates": [13.42139, 52.49473]}},
{"type": "Feature", "id": "YjRYVjkq68_3sHiUjVPxLtXztpQ=", "properties": {"ref": "14", "category": null, "@spider": "vitalia", "shop": "health_food", "addr:street": "Frankfurter Allee 113", "addr:city": "Berlin", "addr:postcode": "10365", "addr:country": "DE", "name": "VITALIA Reformhaus Berlin Ring-Center", "phone": "030 55488088", "opening_hours": "Mo-Su 09:00-20:00", "brand": "Vitalia Reformhaus", "brand:wikidata": "Q2528558", "nsi_id": "vitaliareformhaus-f6f874"}, "geometry": {"type": "Point", "coordinates": [13.4766585, 52.5143523]}},
{"type": "Feature", "id": "mDED-ef4RNGI-QxyKhRIAUhWNzc=", "properties": {"ref": "4", "category": null, "@spider": "vitalia", "shop": "health_food", "addr:street": "Anzengruberstr. 2", "addr:city": "Berlin", "addr:postcode": "12043", "addr:country": "DE", "name": "VITALIA Reformhaus Berlin Anzengruberstra\u00dfe", "phone": "030 6813545", "opening_hours": "Mo-Fr 09:00-19:30; Sa 09:00-16:00; Su 09:00-19:30", "brand": "Vitalia Reformhaus", "brand:wikidata": "Q2528558", "nsi_id": "vitaliareformhaus-f6f874"}, "geometry": {"type": "Point", "coordinates": [13.4378146, 52.4800759]}},
{"type": "Feature", "id": "a9RGKD6DgQR7WMBrmXOnLeJI3YI=", "properties": {"ref": "6", "category": null, "@spider": "vitalia", "shop": "health_food", "addr:street": "Marzahner Promenade 1", "addr:city": "Berlin", "addr:postcode": "12679", "addr:country": "DE", "name": "VITALIA Reformhaus Berlin Eastgate", "phone": "030 93662201", "opening_hours": "Mo-Sa 09:30-20:00; Su 00:00-20:00", "brand": "Vitalia Reformhaus", "brand:wikidata": "Q2528558", "nsi_id": "vitaliareformhaus-f6f874"}, "geometry": {"type": "Point", "coordinates": [13.5426394, 52.5428222]}},
{"type": "Feature", "id": "-g8srps2KvwDCRwBVfqDaK6yMWc=", "properties": {"ref": "9", "category": null, "@spider": "vitalia", "shop": "health_food", "addr:street": "Johannisthaler Chaussee 295 ", "addr:city": "Berlin", "addr:postcode": "12351", "addr:country": "DE", "name": "VITALIA Reformhaus Berlin Gropius Passagen", "phone": "030 6032870", "opening_hours": "Mo-Su 09:30-20:00", "brand": "Vitalia Reformhaus", "brand:wikidata": "Q2528558", "nsi_id": "vitaliareformhaus-f6f874"}, "geometry": {"type": "Point", "coordinates": [13.4575231, 52.431565]}},
{"type": "Feature", "id": "9ypH4thiQp3XBWI9-eXxMwzwhvE=", "properties": {"ref": "11", "category": null, "@spider": "vitalia", "shop": "health_food", "addr:street": "Bahnhofstra\u00dfe 33 - 38   ", "addr:city": "Berlin", "addr:postcode": "12555", "addr:country": "DE", "name": "VITALIA Reformhaus Berlin Forum K\u00f6penick", "phone": "030 65070583", "opening_hours": "Mo-Sa 09:00-20:00; Su 00:00-20:00", "brand": "Vitalia Reformhaus", "brand:wikidata": "Q2528558", "nsi_id": "vitaliareformhaus-f6f874"}, "geometry": {"type": "Point", "coordinates": [13.5775023, 52.4581599]}},
{"type": "Feature", "id": "AeGpc9uKhQZgB7Wh-x6U3hjI-0M=", "properties": {"ref": "26", "category": null, "@spider": "vitalia", "shop": "health_food", "addr:street": "Leopoldstr. 17", "addr:city": "Ettlingen", "addr:postcode": "76275", "addr:country": "DE", "name": "VITALIA Reformhaus Ettlingen ", "phone": "07243 31156", "opening_hours": "Mo-Fr 09:00-18:00; Sa 09:00-14:00; Su 00:00-18:00", "brand": "Vitalia Reformhaus", "brand:wikidata": "Q2528558", "nsi_id": "vitaliareformhaus-f6f874"}, "geometry": {"type": "Point", "coordinates": [8.40835, 48.94021]}},
{"type": "Feature", "id": "I3rT28k6gyMgDSa74ZhhXKESLag=", "properties": {"ref": "81", "category": null, "@spider": "vitalia", "shop": "health_food", "addr:street": "Marktplatz 16", "addr:city": "W\u00fcrzburg", "addr:postcode": "97070", "addr:country": "DE", "name": "VITALIA Reformhaus W\u00fcrzburg // Verkaufsoffener Sonntag am 30.10.2022 wir sind von 13-18 Uhr f\u00fcr Sie ge\u00f6ffnet", "phone": "0931 35986186", "opening_hours": "Mo-Sa 08:30-19:00; Su 00:00-19:00", "brand": "Vitalia Reformhaus", "brand:wikidata": "Q2528558", "nsi_id": "vitaliareformhaus-f6f874"}, "geometry": {"type": "Point", "coordinates": [9.9298724, 49.7940676]}},
{"type": "Feature", "id": "cFix-bGUjEMkmzVUN45hYUA3Q9o=", "properties": {"ref": "43", "category": null, "@spider": "vitalia", "shop": "health_food", "addr:street": "Willy-Brandt-Platz 5", "addr:city": "Leipzig", "addr:postcode": "4109", "addr:country": "DE", "name": "VITALIA Reformhaus Leipzig Promenaden Hauptbahnhof", "phone": "0341 9617551", "opening_hours": "Mo-Sa 09:00-20:00; Su 12:00-18:00", "brand": "Vitalia Reformhaus", "brand:wikidata": "Q2528558", "nsi_id": "vitaliareformhaus-f6f874"}, "geometry": {"type": "Point", "coordinates": [12.3811123, 51.3442873]}},
{"type": "Feature", "id": "vC2AJFOlxeNQixZM_u_N54Few4E=", "properties": {"ref": "44", "category": null, "@spider": "vitalia", "shop": "health_food", "addr:street": "Heinkelstra\u00dfe 1 - 11", "addr:city": "Ludwigsburg", "addr:postcode": "71634", "addr:country": "DE", "name": "VITALIA Reformhaus Ludwigsburg Breuningerland", "phone": "07141 2987068", "opening_hours": "Mo-Fr 10:00-20:00; Sa 09:30-20:00; Su 00:00-20:00", "brand": "Vitalia Reformhaus", "brand:wikidata": "Q2528558", "nsi_id": "vitaliareformhaus-f6f874"}, "geometry": {"type": "Point", "coordinates": [9.1516286, 48.9215114]}},
{"type": "Feature", "id": "2lvooSJn9kTiquZiX5pyNfTyKts=", "properties": {"ref": "83", "category": null, "@spider": "vitalia", "shop": "health_food", "addr:street": "Oberlinden 2", "addr:city": "Freiburg", "addr:postcode": "79098", "addr:country": "DE", "name": "VITALIA Reformhaus Freiburg Oberlinden", "phone": "0761 21727783", "opening_hours": "Mo-Sa 09:00-18:00; Su 00:00-18:00", "brand": "Vitalia Reformhaus", "brand:wikidata": "Q2528558", "nsi_id": "vitaliareformhaus-f6f874"}, "geometry": {"type": "Point", "coordinates": [7.85348, 47.99368]}},
{"type": "Feature", "id": "FTY4TGaXQ5c7dLAGewI0uwtJ6wc=", "properties": {"ref": "27", "category": null, "@spider": "vitalia", "shop": "health_food", "addr:street": "Schwarzwaldstra\u00dfe 78", "addr:city": "Freiburg", "addr:postcode": "79117", "addr:country": "DE", "name": "VITALIA Reformhaus Freiburg ZO - Zentrum Oberwiehre ", "phone": "0761 7043432", "opening_hours": "Mo-Sa 09:00-20:00; Su 00:00-20:00", "brand": "Vitalia Reformhaus", "brand:wikidata": "Q2528558", "nsi_id": "vitaliareformhaus-f6f874"}, "geometry": {"type": "Point", "coordinates": [7.870846, 47.9879892]}},
{"type": "Feature", "id": "AJmv8N8_46z6jnHPfICgQE7wo0o=", "properties": {"ref": "64", "category": null, "@spider": "vitalia", "shop": "health_food", "addr:street": "Tilsiter Str. 15", "addr:city": "Sindelfingen", "addr:postcode": "71065", "addr:country": "DE", "name": "VITALIA Reformhaus Sindelfingen Breuningerland", "phone": "07031 879017", "opening_hours": "Mo-We 09:30-20:00; Th 09:30-22:00; Fr-Sa 09:30-20:00; Su 00:00-20:00", "brand": "Vitalia Reformhaus", "brand:wikidata": "Q2528558", "nsi_id": "vitaliareformhaus-f6f874"}, "geometry": {"type": "Point", "coordinates": [9.0316905, 48.7042204]}},
{"type": "Feature", "id": "7YZV3Sd8WBRlkGaZgex0r1F_ufI=", "properties": {"ref": "65", "category": null, "@spider": "vitalia", "shop": "health_food", "addr:street": "Klettpassage 14 + 15", "addr:city": "Stuttgart", "addr:postcode": "70173", "addr:country": "DE", "name": "VITALIA Reformhaus Stuttgart Klettpassage", "phone": "0711 2237457", "brand": "Vitalia Reformhaus", "brand:wikidata": "Q2528558", "nsi_id": "vitaliareformhaus-f6f874"}, "geometry": {"type": "Point", "coordinates": [9.1811313, 48.7832826]}},
{"type": "Feature", "id": "hQP8r-nAwIFCsvrxj6qYpx_VPDg=", "properties": {"ref": "69", "category": null, "@spider": "vitalia", "shop": "health_food", "addr:street": "Schwabenplatz 1", "addr:city": "Stuttgart", "addr:postcode": "70563", "addr:country": "DE", "name": "VITALIA Reformhaus Stuttgart Vaihingen Schwabengalerie", "phone": "0711 8825844", "opening_hours": "Mo-Sa 09:00-20:00; Su 00:00-20:00", "brand": "Vitalia Reformhaus", "brand:wikidata": "Q2528558", "nsi_id": "vitaliareformhaus-f6f874"}, "geometry": {"type": "Point", "coordinates": [9.1088437, 48.7305429]}},
{"type": "Feature", "id": "pooE1t2cyui7s6KSQdNXtqMO6o4=", "properties": {"ref": "63", "category": null, "@spider": "vitalia", "shop": "health_food", "addr:street": "Hirschstr. 18", "addr:city": "Stuttgart", "addr:postcode": "70173", "addr:country": "DE", "name": "VITALIA Reformhaus Stuttgart Hirschstra\u00dfe ", "phone": "0711 2237458", "opening_hours": "Mo 09:30-19:00; Tu 09:00-19:00; We 09:30-19:00; Th 09:00-19:00; Fr 09:30-19:00; Sa 09:00-19:00; Su 00:00-19:00", "brand": "Vitalia Reformhaus", "brand:wikidata": "Q2528558", "nsi_id": "vitaliareformhaus-f6f874"}, "geometry": {"type": "Point", "coordinates": [9.176985, 48.775007]}},
{"type": "Feature", "id": "nS6l_JdFFyZGS4kj_eTJDImS9ho=", "properties": {"ref": "66", "category": null, "@spider": "vitalia", "shop": "health_food", "addr:street": "Kirchheimer Str. 50", "addr:city": "Stuttgart", "addr:postcode": "70619", "addr:country": "DE", "name": "VITALIA Reformhaus Stuttgart Sillenbuch", "phone": "0711 474538", "opening_hours": "Mo-Fr 09:00-19:00; Sa 09:00-18:00; Su 00:00-19:00", "brand": "Vitalia Reformhaus", "brand:wikidata": "Q2528558", "nsi_id": "vitaliareformhaus-f6f874"}, "geometry": {"type": "Point", "coordinates": [9.21153, 48.74526]}},
{"type": "Feature", "id": "WEX35SrZx0SjrGPD7aWd-XY_1F8=", "properties": {"ref": "93", "category": null, "@spider": "vitalia", "shop": "health_food", "addr:street": "B\u00e4renplatz 2", "addr:city": "St. Georgen", "addr:postcode": "78112", "addr:country": "DE", "name": "VITALIA Reformhaus St. Georgen", "phone": "07724 6330", "opening_hours": "Mo-Fr 09:00-18:00; Sa 08:30-13:00; Su 00:00-18:00", "brand": "Vitalia Reformhaus", "brand:wikidata": "Q2528558", "nsi_id": "vitaliareformhaus-f6f874"}, "geometry": {"type": "Point", "coordinates": [8.33235, 48.12621]}},
{"type": "Feature", "id": "gpzSdQTVzFBSwpYC5Ld6wKgfxmE=", "properties": {"ref": "91", "category": null, "@spider": "vitalia", "shop": "health_food", "addr:street": "K\u00f6nigstr. 39", "addr:city": "Rottenburg am Neck", "addr:postcode": "72108", "addr:country": "DE", "name": "VITALIA Reformhaus Rottenburg ehem. Reformhaus Hiber", "phone": "07472 1822", "opening_hours": "Mo-Fr 09:00-18:00; Sa 09:00-14:00; Su 00:00-18:00", "brand": "Vitalia Reformhaus", "brand:wikidata": "Q2528558", "nsi_id": "vitaliareformhaus-f6f874"}, "geometry": {"type": "Point", "coordinates": [8.9327629, 48.4759622]}},
{"type": "Feature", "id": "Q5UV8N39TpzF0pRX7FgFN0yJnMI=", "properties": {"ref": "72", "category": null, "@spider": "vitalia", "shop": "health_food", "addr:street": "Kornhausstr. 19", "addr:city": "T\u00fcbingen", "addr:postcode": "72070", "addr:country": "DE", "name": "VITALIA Reformhaus T\u00fcbingen", "phone": "07071 51102", "opening_hours": "Mo-Fr 09:00-18:00; Sa 09:00-15:00; Su 00:00-18:00", "brand": "Vitalia Reformhaus", "brand:wikidata": "Q2528558", "nsi_id": "vitaliareformhaus-f6f874"}, "geometry": {"type": "Point", "coordinates": [9.0522487, 48.5209447]}},
{"type": "Feature", "id": "SVHqlDf0adoMZJvnwYlKYFBaWYA=", "properties": {"ref": "74", "category": null, "@spider": "vitalia", "shop": "health_food", "addr:street": "Obere Stra\u00dfe 8", "addr:city": "Villingen-Schwenningen", "addr:postcode": "78050", "addr:country": "DE", "name": "VITALIA Reformhaus Villingen-Schwenningen ", "phone": "07721 24643", "opening_hours": "Mo-Fr 09:00-18:00; Sa 08:00-15:00; Su 00:00-18:00", "brand": "Vitalia Reformhaus", "brand:wikidata": "Q2528558", "nsi_id": "vitaliareformhaus-f6f874"}, "geometry": {"type": "Point", "coordinates": [8.46008, 48.06034]}},
{"type": "Feature", "id": "l65mQyimw743iaQ9WcxH5tnIGZQ=", "properties": {"ref": "92", "category": null, "@spider": "vitalia", "shop": "health_food", "addr:street": "Hauptstr. 17", "addr:city": "Rottweil", "addr:postcode": "78628", "addr:country": "DE", "name": "VITALIA Reformhaus Rottweil ehem. Reformhaus Gabler", "phone": "0741 8289", "opening_hours": "Mo-Fr 09:00-18:00; Sa 08:00-13:00; Su 00:00-18:00", "brand": "Vitalia Reformhaus", "brand:wikidata": "Q2528558", "nsi_id": "vitaliareformhaus-f6f874"}, "geometry": {"type": "Point", "coordinates": [8.6250135, 48.1676375]}},
{"type": "Feature", "id": "xTX-Qv860y6J1WlMi3_Jlnkt2p0=", "properties": {"ref": "90", "category": null, "@spider": "vitalia", "shop": "health_food", "addr:street": "Friedrichstra\u00dfe 24", "addr:city": "Balingen", "addr:postcode": "72336", "addr:country": "DE", "name": "VITALIA Reformhaus Balingen ehem. Reformhaus Schmitt", "phone": "07433 7520", "opening_hours": "Mo-Fr 09:00-18:30; Sa 09:00-14:00; Su 09:00-18:30", "brand": "Vitalia Reformhaus", "brand:wikidata": "Q2528558", "nsi_id": "vitaliareformhaus-f6f874"}, "geometry": {"type": "Point", "coordinates": [8.8512166, 48.2745422]}},
{"type": "Feature", "id": "RJgAczv29gF_j_AS2Hn4bfr-Dbw=", "properties": {"ref": "58", "category": null, "@spider": "vitalia", "shop": "health_food", "addr:street": "Steinachstra\u00dfe 16", "addr:city": "Reutlingen", "addr:postcode": "72770", "addr:country": "DE", "name": "VITALIA Reformhaus Reutlingen Betzingen ", "phone": "07121 578638", "opening_hours": "Mo-Fr 09:00-18:00; Sa 09:00-13:00; Su 00:00-18:00", "brand": "Vitalia Reformhaus", "brand:wikidata": "Q2528558", "nsi_id": "vitaliareformhaus-f6f874"}, "geometry": {"type": "Point", "coordinates": [9.1785856, 48.4994724]}},
{"type": "Feature", "id": "nbwEA9VtpmCOMujQ-kliEip1vvg=", "properties": {"ref": "45", "category": null, "@spider": "vitalia", "shop": "health_food", "addr:street": "Grabenstra\u00dfe 2", "addr:city": "M\u00f6ssingen", "addr:postcode": "72116", "addr:country": "DE", "name": "VITALIA Reformhaus M\u00f6ssingen ", "phone": "07473 6577", "opening_hours": "Mo-Fr 09:00-18:30; Sa 09:00-13:00; Su 00:00-18:30", "brand": "Vitalia Reformhaus", "brand:wikidata": "Q2528558", "nsi_id": "vitaliareformhaus-f6f874"}, "geometry": {"type": "Point", "coordinates": [9.0581441, 48.4054146]}},
{"type": "Feature", "id": "M2BBYrO8sNKmh4Z70JlHpnJJRsE=", "properties": {"ref": "59", "category": null, "@spider": "vitalia", "shop": "health_food", "addr:street": "Wilhelmstra\u00dfe 78", "addr:city": "Reutlingen", "addr:postcode": "72764", "addr:country": "DE", "name": "VITALIA Reformhaus Reutlingen Wilhelmstra\u00dfe", "phone": "07121 3043318", "opening_hours": "Mo-Su 08:30-18:00", "brand": "Vitalia Reformhaus", "brand:wikidata": "Q2528558", "nsi_id": "vitaliareformhaus-f6f874"}, "geometry": {"type": "Point", "coordinates": [9.2127832, 48.4910667]}},
{"type": "Feature", "id": "P4Rn2AD-p4CmrfF9tPpbyDPix0A=", "properties": {"ref": "57", "category": null, "@spider": "vitalia", "shop": "health_food", "addr:street": "Alteburgstra\u00dfe 47", "addr:city": "Reutlingen", "addr:postcode": "72762", "addr:country": "DE", "name": "VITALIA Reformhaus Reutlingen Alteburgstra\u00dfe", "phone": "07121 923853", "opening_hours": "Mo-Fr 09:00-18:30; Sa 09:00-14:00; Su 00:00-18:30", "brand": "Vitalia Reformhaus", "brand:wikidata": "Q2528558", "nsi_id": "vitaliareformhaus-f6f874"}, "geometry": {"type": "Point", "coordinates": [9.2041245, 48.4845196]}},
{"type": "Feature", "id": "ez-D8ui_uLqqHDi_tUubzy1Uw58=", "properties": {"ref": "89", "category": null, "@spider": "vitalia", "shop": "health_food", "addr:street": "Sonnenstra\u00dfe 1", "addr:city": "Albstadt-Ebingen", "addr:postcode": "72458", "addr:country": "DE", "name": "VITALIA Reformhaus Albstadt-Ebingen ehem. Reformhaus Schmitt", "phone": "07431 51123", "opening_hours": "Mo-Fr 09:00-18:00; Sa 09:00-13:00; Su 00:00-18:00", "brand": "Vitalia Reformhaus", "brand:wikidata": "Q2528558", "nsi_id": "vitaliareformhaus-f6f874"}, "geometry": {"type": "Point", "coordinates": [9.0239204, 48.2127082]}},
{"type": "Feature", "id": "-4o0iV2oolHOjBij1qlMBpz9JlQ=", "properties": {"ref": "30", "category": null, "@spider": "vitalia", "shop": "health_food", "addr:street": "Schwabacher Str. 18", "addr:city": "F\u00fcrth", "addr:postcode": "90762", "addr:country": "DE", "name": "VITALIA Reformhaus F\u00fcrth ", "phone": "0911 97920632", "opening_hours": "Mo-Fr 09:00-19:00; Sa 09:00-18:00; Su 00:00-19:00", "brand": "Vitalia Reformhaus", "brand:wikidata": "Q2528558", "nsi_id": "vitaliareformhaus-f6f874"}, "geometry": {"type": "Point", "coordinates": [10.988747, 49.4751048]}},
{"type": "Feature", "id": "6T5-Yq4l3WYYqGiUtD02IuA2_nk=", "properties": {"ref": "52", "category": null, "@spider": "vitalia", "shop": "health_food", "addr:street": "\u00c4u\u00dfere Bayreuther Str. 80", "addr:city": "N\u00fcrnberg", "addr:postcode": "90491", "addr:country": "DE", "name": "VITALIA Reformhaus N\u00fcrnberg Mercado ", "phone": "0911 5695909", "opening_hours": "Mo-Sa 09:30-20:00; Su 00:00-20:00", "brand": "Vitalia Reformhaus", "brand:wikidata": "Q2528558", "nsi_id": "vitaliareformhaus-f6f874"}, "geometry": {"type": "Point", "coordinates": [11.1016603, 49.4704247]}},
{"type": "Feature", "id": "OPsgiJMmGp7dxxE5di7NFyvkb5U=", "properties": {"ref": "88", "category": null, "@spider": "vitalia", "shop": "health_food", "addr:street": "Breite Gasse 42", "addr:city": "N\u00fcrnberg", "addr:postcode": "90402", "addr:country": "DE", "name": "VITALIA Reformhaus N\u00fcrnberg Breite Gasse", "phone": "0911 23697800", "opening_hours": "Mo-Sa 10:00-18:00; Su 00:00-18:00", "brand": "Vitalia Reformhaus", "brand:wikidata": "Q2528558", "nsi_id": "vitaliareformhaus-f6f874"}, "geometry": {"type": "Point", "coordinates": [11.0749343, 49.4502031]}},
{"type": "Feature", "id": "e-Ofnpz4CVWBptLq5slShXhv9zQ=", "properties": {"ref": "51", "category": null, "@spider": "vitalia", "shop": "health_food", "addr:street": "Glogauer Str. 30 - 38", "addr:city": "N\u00fcrnberg", "addr:postcode": "90473", "addr:country": "DE", "name": "VITALIA Reformhaus N\u00fcrnberg Franken-Center", "phone": "0911 8122394", "opening_hours": "Mo-Sa 09:00-20:00; Su 00:00-20:00", "brand": "Vitalia Reformhaus", "brand:wikidata": "Q2528558", "nsi_id": "vitaliareformhaus-f6f874"}, "geometry": {"type": "Point", "coordinates": [11.13478, 49.40356]}},
{"type": "Feature", "id": "QWbOlRcWbgFn2ZcYLd15e91MCDo=", "properties": {"ref": "85", "category": null, "@spider": "vitalia", "shop": "health_food", "addr:street": "Dammstr. 1", "addr:city": "Neumarkt i. d. Opf.", "addr:postcode": "92318", "addr:country": "DE", "name": "VITALIA Reformhaus Neumarkt Neuer Markt", "phone": "09181 4629437", "opening_hours": "Mo-Sa 10:00-19:00; Su 00:00-19:00", "brand": "Vitalia Reformhaus", "brand:wikidata": "Q2528558", "nsi_id": "vitaliareformhaus-f6f874"}, "geometry": {"type": "Point", "coordinates": [11.4582232, 49.2832316]}},
{"type": "Feature", "id": "iv9CZLP-N1ma76VkMrX27vtIhNA=", "properties": {"ref": "35", "category": null, "@spider": "vitalia", "shop": "health_food", "addr:street": "Marktplatz 7", "addr:city": "G\u00fcnzburg", "addr:postcode": "89312", "addr:country": "DE", "name": "VITALIA Reformhaus G\u00fcnzburg ", "phone": "08221 9643374", "opening_hours": "Mo-Fr 09:00-18:00; Sa 09:00-13:00; Su 00:00-18:00", "brand": "Vitalia Reformhaus", "brand:wikidata": "Q2528558", "nsi_id": "vitaliareformhaus-f6f874"}, "geometry": {"type": "Point", "coordinates": [10.27774, 48.45567]}},
{"type": "Feature", "id": "Dabh8owcP3W64TDSzTb4VZHoXnw=", "properties": {"ref": "23", "category": null, "@spider": "vitalia", "shop": "health_food", "addr:street": "Kaiser-Karl-Stra\u00dfe 3", "addr:city": "Donauw\u00f6rth", "addr:postcode": "86609", "addr:country": "DE", "name": "VITALIA Reformhaus Donauw\u00f6rth ", "phone": "0906 7055751", "opening_hours": "Mo-Fr 08:30-19:00; Sa 08:30-18:00; Su 08:30-19:00", "brand": "Vitalia Reformhaus", "brand:wikidata": "Q2528558", "nsi_id": "vitaliareformhaus-f6f874"}, "geometry": {"type": "Point", "coordinates": [10.755221, 48.7109671]}},
{"type": "Feature", "id": "LSbe1rXU8LZr2MQXleIe3yjj4OI=", "properties": {"ref": "94", "category": null, "@spider": "vitalia", "shop": "health_food", "addr:street": "Zeppelinstr. 3", "addr:city": "Weingarten", "addr:postcode": "88250", "addr:country": "DE", "name": "VITALIA Reformhaus Weingarten", "phone": "0751 52244", "opening_hours": "Mo-Tu 08:30-18:00; We 08:00-18:00; Th-Fr 08:30-18:00; Sa 08:30-13:00; Su 00:00-24:00", "brand": "Vitalia Reformhaus", "brand:wikidata": "Q2528558", "nsi_id": "vitaliareformhaus-f6f874"}, "geometry": {"type": "Point", "coordinates": [9.6411531, 47.8080375]}},
{"type": "Feature", "id": "UT41cIN5n8l6w2HdEA83x4E1Ak0=", "properties": {"ref": "38", "category": null, "@spider": "vitalia", "shop": "health_food", "addr:street": "Am Westpark 6", "addr:city": "Ingolstadt", "addr:postcode": "85057", "addr:country": "DE", "name": "VITALIA Reformhaus Ingolstadt Westpark Center", "phone": "0841 485847", "opening_hours": "Mo-Sa 09:30-20:00; Su 00:00-20:00", "brand": "Vitalia Reformhaus", "brand:wikidata": "Q2528558", "nsi_id": "vitaliareformhaus-f6f874"}, "geometry": {"type": "Point", "coordinates": [11.3889437, 48.7745991]}},
{"type": "Feature", "id": "0FmIKGxG5ONsjFBM20mAYP2SfuI=", "properties": {"ref": "49", "category": null, "@spider": "vitalia", "shop": "health_food", "addr:street": "Georg-Odemer-Str. 2 b", "addr:city": "Neus\u00e4\u00df", "addr:postcode": "86356", "addr:country": "DE", "name": "VITALIA Reformhaus Neus\u00e4\u00df ", "phone": "0821 466593", "opening_hours": "Mo-Fr 09:00-18:00; Sa 08:30-13:00; Su 00:00-18:00", "brand": "Vitalia Reformhaus", "brand:wikidata": "Q2528558", "nsi_id": "vitaliareformhaus-f6f874"}, "geometry": {"type": "Point", "coordinates": [10.8212495, 48.3942006]}},
{"type": "Feature", "id": "p0MVP4zfQdBriQzUKusgHdmpoDk=", "properties": {"ref": "2", "category": null, "@spider": "vitalia", "shop": "health_food", "addr:street": "Augsburger Str. 9 1/5", "addr:city": "Augsburg", "addr:postcode": "86157", "addr:country": "DE", "name": "VITALIA Reformhaus Augsburg Pfersee", "phone": "0821 544672", "opening_hours": "Mo-Fr 08:30-19:00; Sa 08:00-16:00; Su 00:30-19:00", "brand": "Vitalia Reformhaus", "brand:wikidata": "Q2528558", "nsi_id": "vitaliareformhaus-f6f874"}, "geometry": {"type": "Point", "coordinates": [10.8747375, 48.36369469]}},
{"type": "Feature", "id": "uxFyCCZtDTq7OMkBJC8S91Nij44=", "properties": {"ref": "1", "category": null, "@spider": "vitalia", "shop": "health_food", "addr:street": "Maximilianstr. 14", "addr:city": "Augsburg", "addr:postcode": "86150", "addr:country": "DE", "name": "VITALIA Reformhaus Augsburg Maxpassage", "phone": "0821 50873882", "opening_hours": "Mo-Sa 09:00-19:00; Su 00:00-19:00", "brand": "Vitalia Reformhaus", "brand:wikidata": "Q2528558", "nsi_id": "vitaliareformhaus-f6f874"}, "geometry": {"type": "Point", "coordinates": [10.8978969, 48.3677487]}},
{"type": "Feature", "id": "U6I_vBxWoINt144VI4VTxle9h5M=", "properties": {"ref": "29", "category": null, "@spider": "vitalia", "shop": "health_food", "addr:street": "Obere Hauptstr. 43", "addr:city": "Freising", "addr:postcode": "85354", "addr:country": "DE", "name": "VITALIA Reformhaus Freising ", "phone": "08161 92145", "opening_hours": "Mo-Fr 09:00-18:00; Sa 09:00-14:00; Su 00:00-14:00", "brand": "Vitalia Reformhaus", "brand:wikidata": "Q2528558", "nsi_id": "vitaliareformhaus-f6f874"}, "geometry": {"type": "Point", "coordinates": [11.74084, 48.39895]}},
{"type": "Feature", "id": "1ruMyA8ACfUy8I-rLq5QotmSJxY=", "properties": {"ref": "33", "category": null, "@spider": "vitalia", "shop": "health_food", "addr:street": "Untere Bahnhofstra\u00dfe 51", "addr:city": "Germering", "addr:postcode": "82110", "addr:country": "DE", "name": "VITALIA Reformhaus Germering ", "phone": "089 80070509", "opening_hours": "Mo-Sa 08:00-20:00; Su 00:00-20:00", "brand": "Vitalia Reformhaus", "brand:wikidata": "Q2528558", "nsi_id": "vitaliareformhaus-f6f874"}, "geometry": {"type": "Point", "coordinates": [11.3659663, 48.1283761]}},
{"type": "Feature", "id": "Vkz-Ng-3kZh5Kaif1eusQWvUFhU=", "properties": {"ref": "37", "category": null, "@spider": "vitalia", "shop": "health_food", "addr:street": "M\u00fchlfelder Str. 8 -10", "addr:city": "Herrsching", "addr:postcode": "82211", "addr:country": "DE", "name": "VITALIA Reformhaus Herrsching ", "phone": "08152 5704", "opening_hours": "Mo-Fr 08:00-20:00; Sa 08:00-18:00; Su 00:00-20:00", "brand": "Vitalia Reformhaus", "brand:wikidata": "Q2528558", "nsi_id": "vitaliareformhaus-f6f874"}, "geometry": {"type": "Point", "coordinates": [11.1765111, 47.9980584]}},
{"type": "Feature", "id": "ZgeRxjRJDMkCF6e35a1NM_FPshI=", "properties": {"ref": "82", "category": null, "@spider": "vitalia", "shop": "health_food", "addr:street": "Bunzlauer Str. 11", "addr:city": "M\u00fcnchen", "addr:postcode": "80992", "addr:country": "DE", "name": "VITALIA Reformhaus M\u00fcnchen Moosach", "phone": "089 15892512", "opening_hours": "Mo-Fr 09:00-19:00; Sa 09:00-15:00; Su 09:00-19:00", "brand": "Vitalia Reformhaus", "brand:wikidata": "Q2528558", "nsi_id": "vitaliareformhaus-f6f874"}, "geometry": {"type": "Point", "coordinates": [11.5074945, 48.1803541]}},
{"type": "Feature", "id": "xHCia39davhoYlrt8zeIuvvJBtQ=", "properties": {"ref": "53", "category": null, "@spider": "vitalia", "shop": "health_food", "addr:street": "Hanauer Str. 68", "addr:city": "M\u00fcnchen", "addr:postcode": "80993", "addr:country": "DE", "name": "VITALIA Reformhaus M\u00fcnchen OEZ", "phone": "089 14904254", "opening_hours": "Mo-Sa 09:00-20:00; Su 00:00-19:00", "brand": "Vitalia Reformhaus", "brand:wikidata": "Q2528558", "nsi_id": "vitaliareformhaus-f6f874"}, "geometry": {"type": "Point", "coordinates": [11.5316432, 48.1833287]}},
{"type": "Feature", "id": "QRO3UVaAGdffket4rPjcpCoMyTw=", "properties": {"ref": "42", "category": null, "@spider": "vitalia", "shop": "health_food", "addr:street": "J\u00f6rgstra\u00dfe 1", "addr:city": "M\u00fcnchen", "addr:postcode": "80689", "addr:country": "DE", "name": "VITALIA Reformhaus M\u00fcnchen Laimer Platz", "phone": "089 562557", "opening_hours": "Mo-Sa 07:00-20:00; Su 00:00-20:00", "brand": "Vitalia Reformhaus", "brand:wikidata": "Q2528558", "nsi_id": "vitaliareformhaus-f6f874"}, "geometry": {"type": "Point", "coordinates": [11.5021632, 48.1352492]}},
{"type": "Feature", "id": "2087f2kVaJp6B2wS5lbACDbVcnI=", "properties": {"ref": "79", "category": null, "@spider": "vitalia", "shop": "health_food", "addr:street": "Winthirstr. 10", "addr:city": "M\u00fcnchen", "addr:postcode": "80639", "addr:country": "DE", "name": "VITALIA Reformhaus M\u00fcnchen Winthirstra\u00dfe", "phone": "089 1678730", "opening_hours": "Mo-Fr 08:00-20:00; Sa 08:00-18:00; Su 00:00-20:00", "brand": "Vitalia Reformhaus", "brand:wikidata": "Q2528558", "nsi_id": "vitaliareformhaus-f6f874"}, "geometry": {"type": "Point", "coordinates": [11.5307252, 48.1537348]}},
{"type": "Feature", "id": "00bUj5QyRotRD-Ak1jgCLr6nPRU=", "properties": {"ref": "41", "category": null, "@spider": "vitalia", "shop": "health_food", "addr:street": "Hohenzollernstr. 88", "addr:city": "M\u00fcnchen", "addr:postcode": "80796", "addr:country": "DE", "name": "VITALIA Reformhaus M\u00fcnchen Kurf\u00fcrstenplatz", "phone": "089 3007729", "opening_hours": "Mo-Fr 09:00-19:00; Sa 09:00-16:00; Su 09:00-19:00", "brand": "Vitalia Reformhaus", "brand:wikidata": "Q2528558", "nsi_id": "vitaliareformhaus-f6f874"}, "geometry": {"type": "Point", "coordinates": [11.574287, 48.1605777]}},
{"type": "Feature", "id": "-HSusDsDhO3-GOO2aA4qvZpE7A4=", "properties": {"ref": "84", "category": null, "@spider": "vitalia", "shop": "health_food", "addr:street": "Hohenzollernstr. 26", "addr:city": "M\u00fcnchen", "addr:postcode": "80801", "addr:country": "DE", "name": "VITALIA Reformhaus M\u00fcnchen Hohenzollernstra\u00dfe", "phone": "089 34076716", "opening_hours": "Mo-Su 09:00-19:00", "brand": "Vitalia Reformhaus", "brand:wikidata": "Q2528558", "nsi_id": "vitaliareformhaus-f6f874"}, "geometry": {"type": "Point", "coordinates": [11.5819988, 48.1599786]}},
{"type": "Feature", "id": "-kjTs1s51OVrnhk-TCeVF0LLIsk=", "properties": {"ref": "68", "category": null, "@spider": "vitalia", "shop": "health_food", "addr:street": "Maximilianstr. 19", "addr:city": "Starnberg", "addr:postcode": "82319", "addr:country": "DE", "name": "VITALIA Reformhaus Starnberg ", "phone": "08151 12732", "opening_hours": "Mo-Fr 09:00-18:00; Sa 09:00-13:00; Su 00:00-24:00", "brand": "Vitalia Reformhaus", "brand:wikidata": "Q2528558", "nsi_id": "vitaliareformhaus-f6f874"}, "geometry": {"type": "Point", "coordinates": [11.3438776, 47.9994878]}},
{"type": "Feature", "id": "d9ATlHkdvDBPTYnpMe7XACYcq1U=", "properties": {"ref": "24", "category": null, "@spider": "vitalia", "shop": "health_food", "addr:street": "Engadiner Stra\u00dfe 2", "addr:city": "M\u00fcnchen", "addr:postcode": "81475", "addr:country": "DE", "name": "VITALIA Reformhaus M\u00fcnchen Engadiner Stra\u00dfe", "phone": "089 7596221", "opening_hours": "Mo-Fr 09:00-18:00; Sa 08:30-13:00; Su 00:00-24:00", "brand": "Vitalia Reformhaus", "brand:wikidata": "Q2528558", "nsi_id": "vitaliareformhaus-f6f874"}, "geometry": {"type": "Point", "coordinates": [11.4806806, 48.0894631]}},
{"type": "Feature", "id": "ggKNgD6SweZyD2wblVsLFLVnqYc=", "properties": {"ref": "78", "category": null, "@spider": "vitalia", "shop": "health_food", "addr:street": "Winterthurer Str. 2", "addr:city": "M\u00fcnchen", "addr:postcode": "81476", "addr:country": "DE", "name": "VITALIA Reformhaus M\u00fcnchen Winterthurer Stra\u00dfe", "phone": "089 7596110", "opening_hours": "Mo-Fr 08:30-18:00; Sa 08:30-13:00; Su 00:00-18:00", "brand": "Vitalia Reformhaus", "brand:wikidata": "Q2528558", "nsi_id": "vitaliareformhaus-f6f874"}, "geometry": {"type": "Point", "coordinates": [11.4968126, 48.0954565]}},
{"type": "Feature", "id": "BcvMvvymQ7IX-suoEXjxhslnDfM=", "properties": {"ref": "67", "category": null, "@spider": "vitalia", "shop": "health_food", "addr:street": "Karlsplatz UG", "addr:city": "M\u00fcnchen", "addr:postcode": "80335", "addr:country": "DE", "name": "VITALIA Reformhaus M\u00fcnchen Stachus Passagen", "phone": "089 54885941", "opening_hours": "Mo-Sa 09:00-19:00; Su 00:00-24:00", "brand": "Vitalia Reformhaus", "brand:wikidata": "Q2528558", "nsi_id": "vitaliareformhaus-f6f874"}, "geometry": {"type": "Point", "coordinates": [11.5658544, 48.1395253]}},
{"type": "Feature", "id": "J1UvLsJAloqeyiy9DE6cVNT1Yek=", "properties": {"ref": "73", "category": null, "@spider": "vitalia", "shop": "health_food", "addr:street": "Rosental 6", "addr:city": "M\u00fcnchen", "addr:postcode": "80331", "addr:country": "DE", "name": "VITALIA Reformhaus M\u00fcnchen Viktualienmarkt", "phone": "089 2603145", "opening_hours": "Mo-Fr 08:00-19:00; Sa 08:00-18:00; Su 00:00-24:00", "brand": "Vitalia Reformhaus", "brand:wikidata": "Q2528558", "nsi_id": "vitaliareformhaus-f6f874"}, "geometry": {"type": "Point", "coordinates": [11.5752956, 48.1354127]}},
{"type": "Feature", "id": "HONTnyn4GHg8gc_SWGzumIGutj4=", "properties": {"ref": "76", "category": null, "@spider": "vitalia", "shop": "health_food", "addr:street": "P\u00f6ltnerstr. 14", "addr:city": "Weilheim", "addr:postcode": "82362", "addr:country": "DE", "name": "VITALIA Reformhaus Weilheim ", "phone": "0881 9253410", "opening_hours": "Mo-Fr 09:00-18:00; Sa 09:00-14:00; Su 00:00-24:00", "brand": "Vitalia Reformhaus", "brand:wikidata": "Q2528558", "nsi_id": "vitaliareformhaus-f6f874"}, "geometry": {"type": "Point", "coordinates": [11.1416893, 47.8381929]}},
{"type": "Feature", "id": "3U7KBYCUtl2TcTL6ui2lvTHoLl0=", "properties": {"ref": "71", "category": null, "@spider": "vitalia", "shop": "health_food", "addr:street": "Thalkirchner Str. 137", "addr:city": "M\u00fcnchen", "addr:postcode": "81371", "addr:country": "DE", "name": "VITALIA Reformhaus M\u00fcnchen Thalkirchner Stra\u00dfe", "phone": "089 78508128", "opening_hours": "Mo-Sa 08:00-20:00; Su 00:00-20:00", "brand": "Vitalia Reformhaus", "brand:wikidata": "Q2528558", "nsi_id": "vitaliareformhaus-f6f874"}, "geometry": {"type": "Point", "coordinates": [11.54905, 48.112]}},
{"type": "Feature", "id": "JvUnke4pOUG2TC5-68s6P2Ww6R4=", "properties": {"ref": "40", "category": null, "@spider": "vitalia", "shop": "health_food", "addr:street": "Humboldstr. 42", "addr:city": "M\u00fcnchen", "addr:postcode": "81543", "addr:country": "DE", "name": "VITALIA Reformhaus M\u00fcnchen Kolumbusplatz", "phone": "089 44141262", "opening_hours": "Mo-Su 08:00-20:00", "brand": "Vitalia Reformhaus", "brand:wikidata": "Q2528558", "nsi_id": "vitaliareformhaus-f6f874"}, "geometry": {"type": "Point", "coordinates": [11.5762486, 48.1189673]}},
{"type": "Feature", "id": "8TmyQ4jNOB-ih0tOhh4e4K9yFNo=", "properties": {"ref": "86", "category": null, "@spider": "vitalia", "shop": "health_food", "addr:street": "Wei\u00dfenburger Stra\u00dfe 12", "addr:city": "M\u00fcnchen", "addr:postcode": "81667", "addr:country": "DE", "name": "VITALIA Reformhaus M\u00fcnchen Wei\u00dfenburger Platz ", "phone": "089 61468644", "opening_hours": "Mo-Sa 09:00-20:00; Su 00:00-24:00", "brand": "Vitalia Reformhaus", "brand:wikidata": "Q2528558", "nsi_id": "vitaliareformhaus-f6f874"}, "geometry": {"type": "Point", "coordinates": [11.5967539, 48.1283429]}},
{"type": "Feature", "id": "8h_uwDeEpbxC2M6o63FQ3bRQQLs=", "properties": {"ref": "77", "category": null, "@spider": "vitalia", "shop": "health_food", "addr:street": "Gr\u00fcnwalder Str. 14", "addr:city": "M\u00fcnchen", "addr:postcode": "81547", "addr:country": "DE", "name": "VITALIA Reformhaus M\u00fcnchen Wettersteinplatz", "phone": "089 62009085", "opening_hours": "Mo-Sa 08:00-20:00; Su 00:00-20:00", "brand": "Vitalia Reformhaus", "brand:wikidata": "Q2528558", "nsi_id": "vitaliareformhaus-f6f874"}, "geometry": {"type": "Point", "coordinates": [11.574148, 48.1090763]}},
{"type": "Feature", "id": "NQUXUvmJ_f9bVfnHNpKGUguFlqw=", "properties": {"ref": "25", "category": null, "@spider": "vitalia", "shop": "health_food", "addr:street": "Johann-Auer-Stra\u00dfe 4", "addr:city": "Erding", "addr:postcode": "85435", "addr:country": "DE", "name": "VITALIA Reformhaus Erding West Park ", "phone": "08122 2286058", "opening_hours": "Mo-Sa 09:00-19:00; Su 00:00-19:00", "brand": "Vitalia Reformhaus", "brand:wikidata": "Q2528558", "nsi_id": "vitaliareformhaus-f6f874"}, "geometry": {"type": "Point", "coordinates": [11.8892736, 48.3068438]}},
{"type": "Feature", "id": "V4bwmFRVpR5TIYgk7J6KXtdMAuM=", "properties": {"ref": "34", "category": null, "@spider": "vitalia", "shop": "health_food", "addr:street": "Rathausstr. 1", "addr:city": "Gr\u00fcnwald", "addr:postcode": "82031", "addr:country": "DE", "name": "VITALIA Reformhaus Gr\u00fcnwald ", "phone": "089 6414094", "opening_hours": "Mo-Fr 08:30-18:30; Sa 08:30-14:00; Su 00:00-18:30", "brand": "Vitalia Reformhaus", "brand:wikidata": "Q2528558", "nsi_id": "vitaliareformhaus-f6f874"}, "geometry": {"type": "Point", "coordinates": [11.5221348, 48.0403509]}},
{"type": "Feature", "id": "aP14uzz4i-TVodmrQPOlaXof1mQ=", "properties": {"ref": "55", "category": null, "@spider": "vitalia", "shop": "health_food", "addr:street": "Thomas-Dehler-Str. 12", "addr:city": "M\u00fcnchen", "addr:postcode": "81737", "addr:country": "DE", "name": "VITALIA Reformhaus M\u00fcnchen PEP", "phone": "089 6371626", "opening_hours": "Mo-Sa 09:00-20:00; Su 00:00-20:00", "brand": "Vitalia Reformhaus", "brand:wikidata": "Q2528558", "nsi_id": "vitaliareformhaus-f6f874"}, "geometry": {"type": "Point", "coordinates": [11.64507, 48.09995]}},
{"type": "Feature", "id": "RnAKgKXfR96Wha4WHE-abwEtfY4=", "properties": {"ref": "75", "category": null, "@spider": "vitalia", "shop": "health_food", "addr:street": "K\u00e4stlenstr. 32", "addr:city": "M\u00fcnchen", "addr:postcode": "81827", "addr:country": "DE", "name": "VITALIA Reformhaus M\u00fcnchen Wasserburger Landstra\u00dfe", "phone": "089 4305221", "opening_hours": "Mo-Fr 08:00-20:00; Sa 08:00-18:00; Su 00:00-20:00", "brand": "Vitalia Reformhaus", "brand:wikidata": "Q2528558", "nsi_id": "vitaliareformhaus-f6f874"}, "geometry": {"type": "Point", "coordinates": [11.69496, 48.11508]}},
{"type": "Feature", "id": "PkCwAb2Srb1H9cpdSKP6n6RcAgU=", "properties": {"ref": "80", "category": null, "@spider": "vitalia", "shop": "health_food", "addr:street": "Bahnhofstr. 25", "addr:city": "Wolfratshausen", "addr:postcode": "82515", "addr:country": "DE", "name": "VITALIA Reformhaus Wolfratshausen", "phone": "08171 410704", "opening_hours": "Mo-Fr 09:00-18:00; Sa 09:00-14:00; Su 09:00-18:00", "brand": "Vitalia Reformhaus", "brand:wikidata": "Q2528558", "nsi_id": "vitaliareformhaus-f6f874"}, "geometry": {"type": "Point", "coordinates": [11.4253503, 47.9153868]}},
{"type": "Feature", "id": "xrKQXLkRdlxpkhrHKfjMmLTmDcw=", "properties": {"ref": "36", "category": null, "@spider": "vitalia", "shop": "health_food", "addr:street": "Leibstr. 1", "addr:city": "Haar", "addr:postcode": "85540", "addr:country": "DE", "name": "VITALIA Reformhaus Haar ", "phone": "089 4605779", "opening_hours": "Mo-Fr 09:00-18:00; Sa 09:00-14:00; Su 00:00-18:00", "brand": "Vitalia Reformhaus", "brand:wikidata": "Q2528558", "nsi_id": "vitaliareformhaus-f6f874"}, "geometry": {"type": "Point", "coordinates": [11.73147, 48.10769]}},
{"type": "Feature", "id": "47AWbzcv2UPf7HJGMdP7a1hj4Bs=", "properties": {"ref": "39", "category": null, "@spider": "vitalia", "shop": "health_food", "addr:street": "Rosenheimer Landstra\u00dfe 113", "addr:city": "Ottobrunn", "addr:postcode": "85521", "addr:country": "DE", "name": "VITALIA Reformhaus Ottobrunn (Neuer\u00f6ffnung nach Umzug am 24.11.2022 um 9 Uhr)", "phone": "089 9014 4365", "opening_hours": "Mo-Fr 08:00-18:00; Sa 08:00-14:00; Su 00:00-18:00", "brand": "Vitalia Reformhaus", "brand:wikidata": "Q2528558", "nsi_id": "vitaliareformhaus-f6f874"}, "geometry": {"type": "Point", "coordinates": [11.667804, 48.0561651]}},
{"type": "Feature", "id": "25yBL1QEJVm6RwMFXpG7zFiVTww=", "properties": {"ref": "46", "category": null, "@spider": "vitalia", "shop": "health_food", "addr:street": "Obermarkt 9", "addr:city": "Murnau", "addr:postcode": "82418", "addr:country": "DE", "name": "VITALIA Reformhaus Murnau", "phone": "08841 5489", "opening_hours": "Mo-Fr 08:30-18:30; Sa 08:30-14:00; Su 00:00-18:30", "brand": "Vitalia Reformhaus", "brand:wikidata": "Q2528558", "nsi_id": "vitaliareformhaus-f6f874"}, "geometry": {"type": "Point", "coordinates": [11.2008406, 47.6787293]}},
{"type": "Feature", "id": "IC_hqmNr778_iTtp64PePZrgmGk=", "properties": {"ref": "22", "category": null, "@spider": "vitalia", "shop": "health_food", "addr:street": "Hans-Kr\u00e4mer-Str. 24", "addr:city": "Deggendorf", "addr:postcode": "94469", "addr:country": "DE", "name": "VITALIA Reformhaus Deggendorf ", "phone": "0991 2705464", "opening_hours": "Mo-Fr 09:00-18:00; Sa 09:00-16:00; Su 09:00-18:00", "brand": "Vitalia Reformhaus", "brand:wikidata": "Q2528558", "nsi_id": "vitaliareformhaus-f6f874"}, "geometry": {"type": "Point", "coordinates": [12.95864, 48.82938]}},
{"type": "Feature", "id": "ERfz7cAi87e7UZueFdFw1XFNXhY=", "properties": {"ref": "54", "category": null, "@spider": "vitalia", "shop": "health_food", "addr:street": "Ludwig-M\u00e4rz-Str. 2", "addr:city": "Penzberg", "addr:postcode": "82377", "addr:country": "DE", "name": "VITALIA Reformhaus Penzberg ", "phone": "08856 803968", "opening_hours": "Mo-Fr 08:30-18:30; Sa 08:30-14:00; Su 00:00-18:30", "brand": "Vitalia Reformhaus", "brand:wikidata": "Q2528558", "nsi_id": "vitaliareformhaus-f6f874"}, "geometry": {"type": "Point", "coordinates": [11.3742811, 47.7495804]}},
{"type": "Feature", "id": "rlLDVvKXFN18D_ZqqPEmDCvIIj8=", "properties": {"ref": "32", "category": null, "@spider": "vitalia", "shop": "health_food", "addr:street": "Bahnhofstr. 16", "addr:city": "Garmisch- Partenkirchen/", "addr:postcode": "82467", "addr:country": "DE", "name": "VITALIA Reformhaus Garmisch-Partenkirchen", "phone": "08821 969065", "opening_hours": "Mo-Fr 08:30-18:30; Sa 08:30-14:00; Su 00:00-18:45", "brand": "Vitalia Reformhaus", "brand:wikidata": "Q2528558", "nsi_id": "vitaliareformhaus-f6f874"}, "geometry": {"type": "Point", "coordinates": [11.1015023, 47.4927378]}},
{"type": "Feature", "id": "8C3vcv_zpISQ0uria68qxZWdDJM=", "properties": {"ref": "20", "category": null, "@spider": "vitalia", "shop": "health_food", "addr:street": "Lenggrieser Stra\u00dfe 33", "addr:city": "Bad T\u00f6lz", "addr:postcode": "83646", "addr:country": "DE", "name": "VITALIA Reformhaus Bad T\u00f6lz ", "phone": "08041 794308", "opening_hours": "Mo-Fr 08:00-19:00; Sa 08:00-18:00; Su 00:00-19:00", "brand": "Vitalia Reformhaus", "brand:wikidata": "Q2528558", "nsi_id": "vitaliareformhaus-f6f874"}, "geometry": {"type": "Point", "coordinates": [11.5609, 47.75558]}},
{"type": "Feature", "id": "RrB2ewAuh8u3VO3G9B_gGbuRcfQ=", "properties": {"ref": "87", "category": null, "@spider": "vitalia", "shop": "health_food", "addr:street": "Karwendelstr. 2", "addr:city": "Lenggries", "addr:postcode": "83661", "addr:country": "DE", "name": "VITALIA Reformhaus Lenggries", "phone": "08042 2666", "opening_hours": "Mo-Fr 08:30-18:00; Sa 08:30-13:00; Su 00:00-18:00", "brand": "Vitalia Reformhaus", "brand:wikidata": "Q2528558", "nsi_id": "vitaliareformhaus-f6f874"}, "geometry": {"type": "Point", "coordinates": [11.576797, 47.680574]}},
{"type": "Feature", "id": "Q4rLgJdd1cNu6qIpKPTQACxGdNo=", "properties": {"ref": "95", "category": null, "@spider": "vitalia", "shop": "health_food", "addr:street": "M\u00fcller-zu-Bruck-Str. 3", "addr:city": "Bruckm\u00fchl", "addr:postcode": "83052", "addr:country": "DE", "name": "Mangfall Bio von VITALIA", "phone": "080627250400", "opening_hours": "Mo-Fr 08:30-18:00; Sa 08:30-12:30; Su 00:30-18:00", "brand": "Vitalia Reformhaus", "brand:wikidata": "Q2528558", "nsi_id": "vitaliareformhaus-f6f874"}, "geometry": {"type": "Point", "coordinates": [11.9138152, 47.8820028]}},
{"type": "Feature", "id": "SaPC-ZzIm-WSL1eo6gjETahfz-M=", "properties": {"ref": "70", "category": null, "@spider": "vitalia", "shop": "health_food", "addr:street": "Seestra\u00dfe 11", "addr:city": "Tegernsee", "addr:postcode": "83684", "addr:country": "DE", "name": "VITALIA Reformhaus Tegernsee ", "phone": "08022 187920", "opening_hours": "Mo-Fr 08:00-19:00; Sa 08:00-18:00; Su 00:00-19:00", "brand": "Vitalia Reformhaus", "brand:wikidata": "Q2528558", "nsi_id": "vitaliareformhaus-f6f874"}, "geometry": {"type": "Point", "coordinates": [11.75484, 47.70945]}},
{"type": "Feature", "id": "RupJyxe-UeWRzI6rrF8Peg2o4gk=", "properties": {"ref": "19", "category": null, "@spider": "vitalia", "shop": "health_food", "addr:street": "Rosenheimer Str. 5 ", "addr:city": "Bad Aibling", "addr:postcode": "83043", "addr:country": "DE", "name": "VITALIA Reformhaus Bad Aibling ", "phone": "08061 5753", "opening_hours": "Mo-Fr 08:30-19:00; Sa 08:30-14:00; Su 08:00-19:00", "brand": "Vitalia Reformhaus", "brand:wikidata": "Q2528558", "nsi_id": "vitaliareformhaus-f6f874"}, "geometry": {"type": "Point", "coordinates": [12.0109894, 47.863273]}},
{"type": "Feature", "id": "vw6e8m2u1uHwjWUvxtU283j7KKg=", "properties": {"ref": "60", "category": null, "@spider": "vitalia", "shop": "health_food", "addr:street": "Prinzregentenstr. 6 - 8", "addr:city": "Rosenheim", "addr:postcode": "83022", "addr:country": "DE", "name": "VITALIA Reformhaus Rosenheim", "phone": "08031 32416", "opening_hours": "Mo-Fr 08:30-18:30; Sa 08:30-16:00; Su 08:30-18:30", "brand": "Vitalia Reformhaus", "brand:wikidata": "Q2528558", "nsi_id": "vitaliareformhaus-f6f874"}, "geometry": {"type": "Point", "coordinates": [12.1253118, 47.8557545]}},
{"type": "Feature", "id": "_6IXj6t0NoN6VCucNOIUz4dpY6c=", "properties": {"ref": "48", "category": null, "@spider": "vitalia", "shop": "health_food", "addr:street": "Simbacher Str. 30 b", "addr:city": "Neu\u00f6tting", "addr:postcode": "84524", "addr:country": "DE", "name": "VITALIA Reformhaus Neu\u00f6tting", "phone": "08671 884073", "opening_hours": "Mo-Fr 08:00-19:00; Sa 08:00-18:00; Su 00:00-19:00", "brand": "Vitalia Reformhaus", "brand:wikidata": "Q2528558", "nsi_id": "vitaliareformhaus-f6f874"}, "geometry": {"type": "Point", "coordinates": [12.70625, 48.23932]}},
{"type": "Feature", "id": "df-tyv721uFpDYsPxg1N1oahxGc=", "properties": {"ref": "28", "category": null, "@spider": "vitalia", "shop": "health_food", "addr:street": "Industriestra\u00dfe 6", "addr:city": "Freilassing", "addr:postcode": "83395", "addr:country": "DE", "name": "VITALIA Reformhaus Freilassing ", "phone": "08654 64605", "opening_hours": "Mo-Fr 09:00-18:00; Sa 09:00-15:00; Su 00:00-18:00", "brand": "Vitalia Reformhaus", "brand:wikidata": "Q2528558", "nsi_id": "vitaliareformhaus-f6f874"}, "geometry": {"type": "Point", "coordinates": [12.9677342, 47.8445176]}}]}