{"type":"FeatureCollection","features":[{"type": "Feature", "id": "9KdzpizJLjLX6NR4Is8DDNnrFDA=", "properties": {"ref": "1225499293", "@spider": "viva_chicken", "addr:full": "1617 Elizabeth Ave, Charlotte, NC, 28204, United States", "name": "Elizabeth", "brand": "Viva Chicken"}, "geometry": {"type": "Point", "coordinates": [-80.82594, 35.21345]}},
{"type": "Feature", "id": "XWn-JgddX-KYS-Ih6516PVLdiHs=", "properties": {"ref": "1177756410", "@spider": "viva_chicken", "addr:full": "1139 Woodruff Rd, Greenville, SC, United States", "name": "Woodruff", "brand": "Viva Chicken"}, "geometry": {"type": "Point", "coordinates": [-82.29487, 34.82539]}},
{"type": "Feature", "id": "EZidhhig1opcq2T1CX7G_fV8k1k=", "properties": {"ref": "1669320921", "@spider": "viva_chicken", "addr:full": "11641 Waverly Center Dr, Charlotte, NC, United States", "name": "Waverly", "brand": "Viva Chicken"}, "geometry": {"type": "Point", "coordinates": [-80.7687, 35.05305]}},
{"type": "Feature", "id": "E-Vv0Y9de60ZBXOPwLm-MMZqjGg=", "properties": {"ref": "970345296", "@spider": "viva_chicken", "addr:full": "1183 E 100 S, St George, Utah, 84790, United States", "name": "Saint George", "brand": "Viva Chicken"}, "geometry": {"type": "Point", "coordinates": [-113.55832, 37.10669]}},
{"type": "Feature", "id": "AA5T_MFgFu2xL-z7RlQwLGB8hPI=", "properties": {"ref": "98934452", "@spider": "viva_chicken", "addr:full": "12206 Copper Way, Charlotte, NC, United States", "name": "Ballantyne", "brand": "Viva Chicken"}, "geometry": {"type": "Point", "coordinates": [-80.84427, 35.0707]}},
{"type": "Feature", "id": "dZk0o_peR1AArSEzgB_Dl0YCaM4=", "properties": {"ref": "216310787", "@spider": "viva_chicken", "addr:full": "2205 E Franklin Blvd, Gastonia, NC, United States", "name": "Gastonia", "brand": "Viva Chicken"}, "geometry": {"type": "Point", "coordinates": [-81.14026, 35.26143]}},
{"type": "Feature", "id": "elAs8HXOrSyTUDUWCNYBhtimYLc=", "properties": {"ref": "1229025194", "@spider": "viva_chicken", "addr:full": "3493 Burke Mill Rd, Winston-Salem, NC, United States", "name": "Winston-Salem", "brand": "Viva Chicken"}, "geometry": {"type": "Point", "coordinates": [-80.3131318, 36.0590131]}},
{"type": "Feature", "id": "JCQz5572eO2RGHZ3C-htijwNqRI=", "properties": {"ref": "1705609807", "@spider": "viva_chicken", "addr:full": "3624 Pelham Rd, Greenville, 29615, Greenville, SC, United States", "name": "Pelham", "brand": "Viva Chicken"}, "geometry": {"type": "Point", "coordinates": [-82.2690859, 34.8600274]}},
{"type": "Feature", "id": "aS9tlmoo3EcNbco8OODwmbsQZww=", "properties": {"ref": "943075468", "@spider": "viva_chicken", "addr:full": "4500 Park Rd, Charlotte, NC, United States", "name": "Park Road", "brand": "Viva Chicken"}, "geometry": {"type": "Point", "coordinates": [-80.85116, 35.16991]}},
{"type": "Feature", "id": "OOwl17ip0rlfgFgHMPmEUxqcIAo=", "properties": {"ref": "1639851817", "@spider": "viva_chicken", "addr:full": "506 Nexton Square Dr, Summerville, SC, 29486, United States", "name": "Summerville", "brand": "Viva Chicken"}, "geometry": {"type": "Point", "coordinates": [-80.1410267, 33.0417616]}},
{"type": "Feature", "id": "u94u02YYBABN-iXMG4SM_VHNCrY=", "properties": {"ref": "72506920", "@spider": "viva_chicken", "addr:full": "6461 Old Monroe Rd, Indian Trail, NC, United States", "name": "Sun Valley", "brand": "Viva Chicken"}, "geometry": {"type": "Point", "coordinates": [-80.64925, 35.04988]}},
{"type": "Feature", "id": "1boDNrHy8MXhOYAhK5mkb6aQXAs=", "properties": {"ref": "2119083748", "@spider": "viva_chicken", "addr:full": "8694 Concord Mills Blvd, Concord, NC, United States", "name": "Concord", "brand": "Viva Chicken"}, "geometry": {"type": "Point", "coordinates": [-80.72996, 35.37514]}},
{"type": "Feature", "id": "qaIL5hQwt9yYwxuu28-87EoLVcg=", "properties": {"ref": "821789314", "@spider": "viva_chicken", "addr:full": "9121 Sam Furr Rd, Huntersville, NC, United States", "name": "Huntersville", "brand": "Viva Chicken"}, "geometry": {"type": "Point", "coordinates": [-80.87247, 35.44294]}},
{"type": "Feature", "id": "KeMKEY94KKxssFaGucA1_YM1Mdg=", "properties": {"ref": "19254888", "@spider": "viva_chicken", "addr:full": "9695 Redstone Dr, Fort Mill, SC, United States", "name": "RedStone", "brand": "Viva Chicken"}, "geometry": {"type": "Point", "coordinates": [-80.85393, 34.99886]}},
{"type": "Feature", "id": "qKIXikqzuwogMa5sJaJV8M8_Zw0=", "properties": {"ref": "563422428", "@spider": "viva_chicken", "addr:full": "W Wendover Ave, Greensboro, NC, 27407, United States", "name": "Greensboro", "brand": "Viva Chicken"}, "geometry": {"type": "Point", "coordinates": [-79.88793, 36.05791]}}]}