{"type":"FeatureCollection","features":[{"type": "Feature", "id": "OXJJT7CEr0FMxBLkT_7vsce96Bw=", "properties": {"ref": "105", "@spider": "vivacom_bg", "brand:bg": "\u0412\u0438\u0432\u0430\u043a\u043e\u043c", "brand:en": "Vivacom", "name:bg": "\u0412\u0438\u0432\u0430\u043a\u043e\u043c", "name:en": "Vivacom", "shop": "telecommunication", "addr:country": "BG", "name": "VIVACOM \u0421\u0442\u0430\u0440\u0430 \u0417\u0430\u0433\u043e\u0440\u0430, \u0431\u0443\u043b. \u0426\u0430\u0440 \u0421\u0438\u043c\u0435\u043e\u043d \u0412\u0435\u043b\u0438\u043a\u0438 124", "phone": "042600466", "opening_hours": "Mo-Fr 09:00-18:30; Sa 10:00-17:00", "brand": "Vivacom", "brand:wikidata": "Q7937522", "nsi_id": "vivacom-5ceaa9"}, "geometry": {"type": "Point", "coordinates": [25.63216, 42.4249]}},
{"type": "Feature", "id": "5yPyQi1bEj8xOdfu0fgciETk9-Y=", "properties": {"ref": "106", "@spider": "vivacom_bg", "brand:bg": "\u0412\u0438\u0432\u0430\u043a\u043e\u043c", "brand:en": "Vivacom", "name:bg": "\u0412\u0438\u0432\u0430\u043a\u043e\u043c", "name:en": "Vivacom", "shop": "telecommunication", "addr:country": "BG", "name": "VIVACOM \u041f\u043b\u0435\u0432\u0435\u043d, \u043f\u043b. \u0421\u0432\u043e\u0431\u043e\u0434\u0430 25, MALL \u0426\u0435\u043d\u0442\u044a\u0440", "phone": "064801803", "opening_hours": "Mo-Sa 09:00-19:00", "brand": "Vivacom", "brand:wikidata": "Q7937522", "nsi_id": "vivacom-5ceaa9"}, "geometry": {"type": "Point", "coordinates": [24.6183439394, 43.4098139467]}},
{"type": "Feature", "id": "FD4IrqFoGFGciVMP0SDVZWK8gOg=", "properties": {"ref": "109", "@spider": "vivacom_bg", "brand:bg": "\u0412\u0438\u0432\u0430\u043a\u043e\u043c", "brand:en": "Vivacom", "name:bg": "\u0412\u0438\u0432\u0430\u043a\u043e\u043c", "name:en": "Vivacom", "shop": "telecommunication", "addr:country": "BG", "name": "VIVACOM \u041f\u0440\u043e\u0432\u0430\u0434\u0438\u044f, \u043f\u043b. \u0426\u0435\u043d\u0442\u0440\u0430\u043b\u0435\u043d \u041a\u0438\u043d\u043e \u0442\u0435\u0430\u0442\u044a\u0440 &amp;amp;quot;\u041d. \u0419. \u0412\u0430\u043f\u0446\u0430\u0440\u043e\u0432&amp;amp;quot;", "phone": "051846072", "opening_hours": "Mo-Fr 09:00-19:00", "brand": "Vivacom", "brand:wikidata": "Q7937522", "nsi_id": "vivacom-5ceaa9"}, "geometry": {"type": "Point", "coordinates": [27.443966285, 43.1773364385]}},
{"type": "Feature", "id": "pz0vgqUg4mlldRzWQeN_nH7Lwr8=", "properties": {"ref": "110", "@spider": "vivacom_bg", "brand:bg": "\u0412\u0438\u0432\u0430\u043a\u043e\u043c", "brand:en": "Vivacom", "name:bg": "\u0412\u0438\u0432\u0430\u043a\u043e\u043c", "name:en": "Vivacom", "shop": "telecommunication", "addr:country": "BG", "name": "VIVACOM \u0420\u0443\u0441\u0435, \u0431\u0443\u043b. \u041b\u0438\u043f\u043d\u0438\u043a 6, \u041a\u0430\u0443\u0444\u043b\u0430\u043d\u0434", "phone": "082823030", "opening_hours": "Mo-Su 08:00-21:00", "brand": "Vivacom", "brand:wikidata": "Q7937522", "nsi_id": "vivacom-5ceaa9"}, "geometry": {"type": "Point", "coordinates": [25.9661220339, 43.845621055]}},
{"type": "Feature", "id": "PLleAcCP01V3uS0zdnQfx7LEXF4=", "properties": {"ref": "112", "@spider": "vivacom_bg", "brand:bg": "\u0412\u0438\u0432\u0430\u043a\u043e\u043c", "brand:en": "Vivacom", "name:bg": "\u0412\u0438\u0432\u0430\u043a\u043e\u043c", "name:en": "Vivacom", "shop": "telecommunication", "addr:country": "BG", "name": "VIVACOM \u0421\u0438\u043b\u0438\u0441\u0442\u0440\u0430, \u043f\u043b. \u0421\u0432\u043e\u0431\u043e\u0434\u0430 6", "phone": "086882005", "opening_hours": "Mo-Fr 09:00-19:00; Sa 10:00-17:00", "brand": "Vivacom", "brand:wikidata": "Q7937522", "nsi_id": "vivacom-5ceaa9"}, "geometry": {"type": "Point", "coordinates": [27.26225, 44.11998]}},
{"type": "Feature", "id": "2_laJmSvP1WPXrJDXUA1G1YeggI=", "properties": {"ref": "113", "@spider": "vivacom_bg", "brand:bg": "\u0412\u0438\u0432\u0430\u043a\u043e\u043c", "brand:en": "Vivacom", "name:bg": "\u0412\u0438\u0432\u0430\u043a\u043e\u043c", "name:en": "Vivacom", "shop": "telecommunication", "addr:country": "BG", "name": "VIVACOM \u0421\u043b\u044a\u043d\u0447\u0435\u0432 \u0431\u0440\u044f\u0433, \u0443\u043b. \u041f\u044a\u0440\u0432\u0430", "phone": "055422200", "opening_hours": "Mo-Fr 09:00-19:00", "brand": "Vivacom", "brand:wikidata": "Q7937522", "nsi_id": "vivacom-5ceaa9"}, "geometry": {"type": "Point", "coordinates": [27.708621855, 42.6937821542]}},
{"type": "Feature", "id": "GH5yB7rYqzX_WQdC8C_eIjQyEF0=", "properties": {"ref": "115", "@spider": "vivacom_bg", "brand:bg": "\u0412\u0438\u0432\u0430\u043a\u043e\u043c", "brand:en": "Vivacom", "name:bg": "\u0412\u0438\u0432\u0430\u043a\u043e\u043c", "name:en": "Vivacom", "shop": "telecommunication", "addr:country": "BG", "name": "VIVACOM \u0421\u043e\u0444\u0438\u044f, \u0443\u043b. \u0410\u043b\u0435\u043a\u0441\u0430\u043d\u0434\u044a\u0440 \u0421\u0442\u0430\u043c\u0431\u043e\u043b\u0438\u0439\u0441\u043a\u0438 101, \u041c\u041e\u041b \u0421\u043e\u0444\u0438\u044f", "phone": "029877474", "opening_hours": "Mo-Su 11:00-20:00", "brand": "Vivacom", "brand:wikidata": "Q7937522", "nsi_id": "vivacom-5ceaa9"}, "geometry": {"type": "Point", "coordinates": [23.3080017974, 42.6985935281]}},
{"type": "Feature", "id": "7LNHXoWNYYNeSWYC5hVvmwent4E=", "properties": {"ref": "117", "@spider": "vivacom_bg", "brand:bg": "\u0412\u0438\u0432\u0430\u043a\u043e\u043c", "brand:en": "Vivacom", "name:bg": "\u0412\u0438\u0432\u0430\u043a\u043e\u043c", "name:en": "Vivacom", "shop": "telecommunication", "addr:country": "BG", "name": "VIVACOM \u0421\u043e\u0444\u0438\u044f, \u0436\u043a. \u041c\u043b\u0430\u0434\u043e\u0441\u0442 3, \u0443\u043b. \u0424\u0438\u043b\u0438\u043f \u0410\u0432\u0440\u0430\u043c\u043e\u0432 3, \u041a\u0430\u0443\u0444\u043b\u0430\u043d\u0434", "phone": "029754411", "opening_hours": "Mo-Sa 08:00-21:00; Su 09:00-21:00", "brand": "Vivacom", "brand:wikidata": "Q7937522", "nsi_id": "vivacom-5ceaa9"}, "geometry": {"type": "Point", "coordinates": [23.37952, 42.64586]}},
{"type": "Feature", "id": "N-JYkS3FZaPfQe5xUy_p2RO4KOk=", "properties": {"ref": "118", "@spider": "vivacom_bg", "brand:bg": "\u0412\u0438\u0432\u0430\u043a\u043e\u043c", "brand:en": "Vivacom", "name:bg": "\u0412\u0438\u0432\u0430\u043a\u043e\u043c", "name:en": "Vivacom", "shop": "telecommunication", "addr:country": "BG", "name": "VIVACOM \u0421\u043e\u0444\u0438\u044f, \u043a\u0432. \u0413\u0435\u043e \u041c\u0438\u043b\u0435\u0432, \u0443\u043b. \u041a\u043e\u0441\u0442\u0430 \u041b\u0443\u043b\u0447\u0435\u0432 52,Sky City", "phone": "028702112", "opening_hours": "Mo-Su 10:00-21:00", "brand": "Vivacom", "brand:wikidata": "Q7937522", "nsi_id": "vivacom-5ceaa9"}, "geometry": {"type": "Point", "coordinates": [23.3678825, 42.6792384658]}},
{"type": "Feature", "id": "mqWaWPn2mrR3IeleQm7u-Fl6ctQ=", "properties": {"ref": "119", "@spider": "vivacom_bg", "brand:bg": "\u0412\u0438\u0432\u0430\u043a\u043e\u043c", "brand:en": "Vivacom", "name:bg": "\u0412\u0438\u0432\u0430\u043a\u043e\u043c", "name:en": "Vivacom", "shop": "telecommunication", "addr:country": "BG", "name": "VIVACOM \u0421\u043e\u0444\u0438\u044f, \u0436\u043a. \u0414\u0440\u0443\u0436\u0431\u0430, \u0443\u043b. \u0425\u0430\u0439\u0434\u0435\u043b\u0431\u0435\u0440\u0433 1, \u041a\u0430\u0443\u0444\u043b\u0430\u043d\u0434", "phone": "029745555", "opening_hours": "Mo-Sa 08:00-21:00; Su 09:00-20:00", "brand": "Vivacom", "brand:wikidata": "Q7937522", "nsi_id": "vivacom-5ceaa9"}, "geometry": {"type": "Point", "coordinates": [23.3988903125, 42.6567343175]}},
{"type": "Feature", "id": "wvSsscEXu_Y0ThkL9YgY5rn1S5o=", "properties": {"ref": "121", "@spider": "vivacom_bg", "brand:bg": "\u0412\u0438\u0432\u0430\u043a\u043e\u043c", "brand:en": "Vivacom", "name:bg": "\u0412\u0438\u0432\u0430\u043a\u043e\u043c", "name:en": "Vivacom", "shop": "telecommunication", "addr:country": "BG", "name": "VIVACOM \u0421\u043e\u043f\u043e\u0442, \u0443\u043b. \u0418\u0432\u0430\u043d \u0412\u0430\u0437\u043e\u0432 40\u0410", "phone": "031348982", "opening_hours": "Mo-Fr 09:00-18:00", "brand": "Vivacom", "brand:wikidata": "Q7937522", "nsi_id": "vivacom-5ceaa9"}, "geometry": {"type": "Point", "coordinates": [24.7539852022, 42.6538297644]}},
{"type": "Feature", "id": "ShpE1Bq09a43JrXx9Lu4pqnBDiM=", "properties": {"ref": "122", "@spider": "vivacom_bg", "brand:bg": "\u0412\u0438\u0432\u0430\u043a\u043e\u043c", "brand:en": "Vivacom", "name:bg": "\u0412\u0438\u0432\u0430\u043a\u043e\u043c", "name:en": "Vivacom", "shop": "telecommunication", "addr:country": "BG", "name": "VIVACOM \u041a\u0430\u0440\u043b\u043e\u0432\u043e, \u0443\u043b. \u041f\u0435\u0442\u043a\u043e \u0421\u044a\u0431\u0435\u0432 2\u0410", "phone": "033599071", "opening_hours": "Mo-Fr 09:00-19:00; Sa 10:00-17:00", "brand": "Vivacom", "brand:wikidata": "Q7937522", "nsi_id": "vivacom-5ceaa9"}, "geometry": {"type": "Point", "coordinates": [24.8046078625, 42.6436224572]}},
{"type": "Feature", "id": "QdrB80JIgSuewWegGCm2YOAAMW4=", "properties": {"ref": "123", "@spider": "vivacom_bg", "brand:bg": "\u0412\u0438\u0432\u0430\u043a\u043e\u043c", "brand:en": "Vivacom", "name:bg": "\u0412\u0438\u0432\u0430\u043a\u043e\u043c", "name:en": "Vivacom", "shop": "telecommunication", "addr:country": "BG", "name": "VIVACOM \u0412\u0430\u0440\u043d\u0430, \u0431\u0443\u043b.\u0412\u043b.\u0412\u0430\u0440\u043d\u0435\u043d\u0447\u0438\u043a 186, MALL \u0412\u0430\u0440\u043d\u0430", "phone": "052732150", "opening_hours": "Mo-Su 10:00-20:00", "brand": "Vivacom", "brand:wikidata": "Q7937522", "nsi_id": "vivacom-5ceaa9"}, "geometry": {"type": "Point", "coordinates": [27.8896176737, 43.2194953975]}},
{"type": "Feature", "id": "m7wFqO-eBxm8r9gKTOWMJYoN2Uk=", "properties": {"ref": "124", "@spider": "vivacom_bg", "brand:bg": "\u0412\u0438\u0432\u0430\u043a\u043e\u043c", "brand:en": "Vivacom", "name:bg": "\u0412\u0438\u0432\u0430\u043a\u043e\u043c", "name:en": "Vivacom", "shop": "telecommunication", "addr:country": "BG", "name": "VIVACOM \u0411\u0443\u0440\u0433\u0430\u0441, \u0443\u043b. \u0410\u043b\u0435\u043a\u0441\u0430\u043d\u0434\u0440\u043e\u0432\u0441\u043a\u0430 114", "phone": "056533355", "opening_hours": "Mo-Fr 09:00-19:30", "brand": "Vivacom", "brand:wikidata": "Q7937522", "nsi_id": "vivacom-5ceaa9"}, "geometry": {"type": "Point", "coordinates": [27.46872, 42.50213]}},
{"type": "Feature", "id": "6yY3KXgmwH2B6Wj8jp5Cqyaerto=", "properties": {"ref": "125", "@spider": "vivacom_bg", "brand:bg": "\u0412\u0438\u0432\u0430\u043a\u043e\u043c", "brand:en": "Vivacom", "name:bg": "\u0412\u0438\u0432\u0430\u043a\u043e\u043c", "name:en": "Vivacom", "shop": "telecommunication", "addr:country": "BG", "name": "VIVACOM \u041f\u0435\u0440\u043d\u0438\u043a, \u0443\u043b. \u0422\u044a\u0440\u0433\u043e\u0432\u0441\u043a\u0430 22", "phone": "076640255", "opening_hours": "Mo-Su 09:00-18:00", "brand": "Vivacom", "brand:wikidata": "Q7937522", "nsi_id": "vivacom-5ceaa9"}, "geometry": {"type": "Point", "coordinates": [23.03016, 42.60425]}},
{"type": "Feature", "id": "O3qlAyWoeD4rB9stq5C_QqF3pKQ=", "properties": {"ref": "126", "@spider": "vivacom_bg", "brand:bg": "\u0412\u0438\u0432\u0430\u043a\u043e\u043c", "brand:en": "Vivacom", "name:bg": "\u0412\u0438\u0432\u0430\u043a\u043e\u043c", "name:en": "Vivacom", "shop": "telecommunication", "addr:country": "BG", "name": "VIVACOM \u0421\u043e\u0444\u0438\u044f, \u041c\u041e\u041b \u0421\u0435\u0440\u0434\u0438\u043a\u0430, \u0431\u0443\u043b. \u0421\u0438\u0442\u043d\u044f\u043a\u043e\u0432\u043e", "phone": "029442303", "opening_hours": "Mo-Su 10:00-22:00", "brand": "Vivacom", "brand:wikidata": "Q7937522", "nsi_id": "vivacom-5ceaa9"}, "geometry": {"type": "Point", "coordinates": [23.353795, 42.6910188592]}},
{"type": "Feature", "id": "ddz5BRB1f5fqbr_8NZoFFsh1xXs=", "properties": {"ref": "128", "@spider": "vivacom_bg", "brand:bg": "\u0412\u0438\u0432\u0430\u043a\u043e\u043c", "brand:en": "Vivacom", "name:bg": "\u0412\u0438\u0432\u0430\u043a\u043e\u043c", "name:en": "Vivacom", "shop": "telecommunication", "addr:country": "BG", "name": "VIVACOM \u041f\u0430\u0437\u0430\u0440\u0434\u0436\u0438\u043a, \u0431\u0443\u043b. \u0411\u044a\u043b\u0433\u0430\u0440\u0438\u044f 5", "phone": "034460370", "opening_hours": "Mo-Fr 09:00-19:00", "brand": "Vivacom", "brand:wikidata": "Q7937522", "nsi_id": "vivacom-5ceaa9"}, "geometry": {"type": "Point", "coordinates": [24.3317214931, 42.1883967899]}},
{"type": "Feature", "id": "Ik6TZTqc21F6dO4uVKe3kKw9014=", "properties": {"ref": "129", "@spider": "vivacom_bg", "brand:bg": "\u0412\u0438\u0432\u0430\u043a\u043e\u043c", "brand:en": "Vivacom", "name:bg": "\u0412\u0438\u0432\u0430\u043a\u043e\u043c", "name:en": "Vivacom", "shop": "telecommunication", "addr:country": "BG", "name": "VIVACOM \u0421\u0442\u0430\u0440\u0430 \u0417\u0430\u0433\u043e\u0440\u0430, \u0443\u043b. \u041f\u0435\u0442\u043a\u043e \u0432\u043e\u0439\u0432\u043e\u0434\u0430 20, \u0411\u0438\u043b\u0430", "phone": "042672050", "opening_hours": "Mo-Sa 09:00-20:00", "brand": "Vivacom", "brand:wikidata": "Q7937522", "nsi_id": "vivacom-5ceaa9"}, "geometry": {"type": "Point", "coordinates": [25.6082094918, 42.4197711354]}},
{"type": "Feature", "id": "2lZ59_JYhWfj8LJa7dpZxwR1b0I=", "properties": {"ref": "130", "@spider": "vivacom_bg", "brand:bg": "\u0412\u0438\u0432\u0430\u043a\u043e\u043c", "brand:en": "Vivacom", "name:bg": "\u0412\u0438\u0432\u0430\u043a\u043e\u043c", "name:en": "Vivacom", "shop": "telecommunication", "addr:country": "BG", "name": "VIVACOM \u041c\u043e\u043d\u0442\u0430\u043d\u0430, \u0443\u043b. \u0421\u043b\u0430\u0432\u044f\u043d\u0441\u043a\u0430 \u21162 / \u0443\u043b. \u0422\u0440\u0435\u0442\u0438 \u043c\u0430\u0440\u0442 \u211651", "phone": "096300119", "opening_hours": "Mo-Fr 09:00-19:00; Sa 10:00-17:00", "brand": "Vivacom", "brand:wikidata": "Q7937522", "nsi_id": "vivacom-5ceaa9"}, "geometry": {"type": "Point", "coordinates": [23.2276787377, 43.4080275416]}},
{"type": "Feature", "id": "85Cub9ZCyPzXFpqreDpZIklW3oA=", "properties": {"ref": "131", "@spider": "vivacom_bg", "brand:bg": "\u0412\u0438\u0432\u0430\u043a\u043e\u043c", "brand:en": "Vivacom", "name:bg": "\u0412\u0438\u0432\u0430\u043a\u043e\u043c", "name:en": "Vivacom", "shop": "telecommunication", "addr:country": "BG", "name": "VIVACOM \u0411\u0443\u0440\u0433\u0430\u0441, \u0436\u043a \u041f. \u0420. \u0421\u043b\u0430\u0432\u0435\u0439\u043a\u043e\u0432 \u0431\u043b. 80 ", "phone": "056581080", "opening_hours": "Mo-Fr 09:00-19:30", "brand": "Vivacom", "brand:wikidata": "Q7937522", "nsi_id": "vivacom-5ceaa9"}, "geometry": {"type": "Point", "coordinates": [27.4545704357, 42.5172805392]}},
{"type": "Feature", "id": "GXunMLH-X49h0n6vyxvl7sojL3U=", "properties": {"ref": "133", "@spider": "vivacom_bg", "brand:bg": "\u0412\u0438\u0432\u0430\u043a\u043e\u043c", "brand:en": "Vivacom", "name:bg": "\u0412\u0438\u0432\u0430\u043a\u043e\u043c", "name:en": "Vivacom", "shop": "telecommunication", "addr:country": "BG", "name": "VIVACOM \u0412\u0430\u0440\u043d\u0430, \u0436.\u043a. \u0412\u043b\u0430\u0434\u0438\u0441\u043b\u0430\u0432\u043e\u0432\u043e, \u0431\u0443\u043b. \u041a\u043e\u043d\u0441\u0442\u0430\u043d\u0442\u0438\u043d \u0438 \u0424\u0440\u0443\u0436\u0438\u043d 420", "phone": "052521510", "opening_hours": "Mo-Fr 09:00-19:00; Sa 10:00-17:00", "brand": "Vivacom", "brand:wikidata": "Q7937522", "nsi_id": "vivacom-5ceaa9"}, "geometry": {"type": "Point", "coordinates": [27.8461628651, 43.246574565]}},
{"type": "Feature", "id": "UvQuqpKkm20pNGZCTr1gq_ErCRA=", "properties": {"ref": "134", "@spider": "vivacom_bg", "brand:bg": "\u0412\u0438\u0432\u0430\u043a\u043e\u043c", "brand:en": "Vivacom", "name:bg": "\u0412\u0438\u0432\u0430\u043a\u043e\u043c", "name:en": "Vivacom", "shop": "telecommunication", "addr:country": "BG", "name": "VIVACOM \u0414\u0443\u043f\u043d\u0438\u0446\u0430, \u0443\u043b. \u041d\u0438\u043a\u043e\u043b\u0430\u0435\u0432\u0441\u043a\u0430 2\u0410", "phone": "070141120", "opening_hours": "Mo-Fr 09:30-16:30", "brand": "Vivacom", "brand:wikidata": "Q7937522", "nsi_id": "vivacom-5ceaa9"}, "geometry": {"type": "Point", "coordinates": [23.11866, 42.26521]}},
{"type": "Feature", "id": "cgZbPv5eTDlyCWrbKf3AW2La52Y=", "properties": {"ref": "135", "@spider": "vivacom_bg", "brand:bg": "\u0412\u0438\u0432\u0430\u043a\u043e\u043c", "brand:en": "Vivacom", "name:bg": "\u0412\u0438\u0432\u0430\u043a\u043e\u043c", "name:en": "Vivacom", "shop": "telecommunication", "addr:country": "BG", "name": "VIVACOM \u0415\u043b\u0445\u043e\u0432\u043e, \u0443\u043b. \u0422\u044a\u0440\u0433\u043e\u0432\u0441\u043a\u0430 19", "phone": "047882216", "opening_hours": "Mo-Fr 09:00-18:00", "brand": "Vivacom", "brand:wikidata": "Q7937522", "nsi_id": "vivacom-5ceaa9"}, "geometry": {"type": "Point", "coordinates": [26.5666806075, 42.1721528373]}},
{"type": "Feature", "id": "2Uszk83BMtU3VYvZAqCwgXXDCq4=", "properties": {"ref": "136", "@spider": "vivacom_bg", "brand:bg": "\u0412\u0438\u0432\u0430\u043a\u043e\u043c", "brand:en": "Vivacom", "name:bg": "\u0412\u0438\u0432\u0430\u043a\u043e\u043c", "name:en": "Vivacom", "shop": "telecommunication", "addr:country": "BG", "name": "VIVACOM \u041c\u043e\u043c\u0447\u0438\u043b\u0433\u0440\u0430\u0434, \u0443\u043b. \u0413\u044e\u043c\u044e\u0440\u0434\u0436\u0438\u043d\u0441\u043a\u0430 30", "phone": "036316664", "opening_hours": "Mo-Fr 09:00-18:00", "brand": "Vivacom", "brand:wikidata": "Q7937522", "nsi_id": "vivacom-5ceaa9"}, "geometry": {"type": "Point", "coordinates": [25.4093397033, 41.5275523379]}},
{"type": "Feature", "id": "8K7QbbJssnPsAbNoodlQIN6ZQI4=", "properties": {"ref": "137", "@spider": "vivacom_bg", "brand:bg": "\u0412\u0438\u0432\u0430\u043a\u043e\u043c", "brand:en": "Vivacom", "name:bg": "\u0412\u0438\u0432\u0430\u043a\u043e\u043c", "name:en": "Vivacom", "shop": "telecommunication", "addr:country": "BG", "name": "VIVACOM \u041f\u0435\u0449\u0435\u0440\u0430, \u041f\u0435\u0449\u0435\u0440\u0430 \u043f\u043b. \u0411\u044a\u043b\u0433\u0430\u0440\u0438\u044f", "phone": "035066651", "opening_hours": "Mo-Fr 09:00-19:00", "brand": "Vivacom", "brand:wikidata": "Q7937522", "nsi_id": "vivacom-5ceaa9"}, "geometry": {"type": "Point", "coordinates": [24.3007843531, 42.0318583891]}},
{"type": "Feature", "id": "By2_joxJB-hXufRmj4L5P3zSRQ4=", "properties": {"ref": "138", "@spider": "vivacom_bg", "brand:bg": "\u0412\u0438\u0432\u0430\u043a\u043e\u043c", "brand:en": "Vivacom", "name:bg": "\u0412\u0438\u0432\u0430\u043a\u043e\u043c", "name:en": "Vivacom", "shop": "telecommunication", "addr:country": "BG", "name": "VIVACOM \u041f\u043b\u043e\u0432\u0434\u0438\u0432, \u0431\u0443\u043b. \u0411\u044a\u043b\u0433\u0430\u0440\u0438\u044f 63", "phone": "032950035", "opening_hours": "Mo-Fr 09:00-19:30", "brand": "Vivacom", "brand:wikidata": "Q7937522", "nsi_id": "vivacom-5ceaa9"}, "geometry": {"type": "Point", "coordinates": [24.7373633663, 42.1593386833]}},
{"type": "Feature", "id": "OT2Dd_3vX30YNjLfQsI2ZSwn1iw=", "properties": {"ref": "183", "@spider": "vivacom_bg", "brand:bg": "\u0412\u0438\u0432\u0430\u043a\u043e\u043c", "brand:en": "Vivacom", "name:bg": "\u0412\u0438\u0432\u0430\u043a\u043e\u043c", "name:en": "Vivacom", "shop": "telecommunication", "addr:country": "BG", "name": "VIVACOM \u0414\u0443\u043b\u043e\u0432\u043e, \u0443\u043b. \u0412\u0430\u0441\u0438\u043b \u041b\u0435\u0432\u0441\u043a\u0438  11", "phone": "086422150", "opening_hours": "Mo-Fr 09:00-18:00", "brand": "Vivacom", "brand:wikidata": "Q7937522", "nsi_id": "vivacom-5ceaa9"}, "geometry": {"type": "Point", "coordinates": [27.14096, 43.82518]}},
{"type": "Feature", "id": "RBiil1J2VC67moypU2vZaM0I_Rs=", "properties": {"ref": "184", "@spider": "vivacom_bg", "brand:bg": "\u0412\u0438\u0432\u0430\u043a\u043e\u043c", "brand:en": "Vivacom", "name:bg": "\u0412\u0438\u0432\u0430\u043a\u043e\u043c", "name:en": "Vivacom", "shop": "telecommunication", "addr:country": "BG", "name": "VIVACOM \u041f\u043e\u043c\u043e\u0440\u0438\u0435, \u0443\u043b. \u041a\u043d\u044f\u0437 \u0411\u043e\u0440\u0438\u0441 I 59", "phone": "059622115", "opening_hours": "Mo-Fr 09:00-19:00", "brand": "Vivacom", "brand:wikidata": "Q7937522", "nsi_id": "vivacom-5ceaa9"}, "geometry": {"type": "Point", "coordinates": [27.598196560669, 42.573462545762]}},
{"type": "Feature", "id": "fUWPrvRYAWrCapdmlwXQ1_8L4j0=", "properties": {"ref": "185", "@spider": "vivacom_bg", "brand:bg": "\u0412\u0438\u0432\u0430\u043a\u043e\u043c", "brand:en": "Vivacom", "name:bg": "\u0412\u0438\u0432\u0430\u043a\u043e\u043c", "name:en": "Vivacom", "shop": "telecommunication", "addr:country": "BG", "name": "VIVACOM \u0420\u0430\u0434\u043d\u0435\u0432\u043e, \u0443\u043b. \u0413.\u0414\u0438\u043c\u0438\u0442\u0440\u043e\u0432 3", "phone": "041782061", "opening_hours": "Mo-Fr 09:00-19:00", "brand": "Vivacom", "brand:wikidata": "Q7937522", "nsi_id": "vivacom-5ceaa9"}, "geometry": {"type": "Point", "coordinates": [25.9339970769, 42.2897725986]}},
{"type": "Feature", "id": "PgihBkPia_gaol8JSgKHXGnb5EI=", "properties": {"ref": "186", "@spider": "vivacom_bg", "brand:bg": "\u0412\u0438\u0432\u0430\u043a\u043e\u043c", "brand:en": "Vivacom", "name:bg": "\u0412\u0438\u0432\u0430\u043a\u043e\u043c", "name:en": "Vivacom", "shop": "telecommunication", "addr:country": "BG", "name": "VIVACOM \u0412\u0430\u0440\u043d\u0430, \u0443\u043b. \u0421\u043e\u0444\u0440\u043e\u043d\u0438\u0439 \u0412\u0440\u0430\u0447\u0430\u043d\u0441\u043a\u0438 30", "phone": "052630062", "opening_hours": "Mo-Fr 09:00-19:00", "brand": "Vivacom", "brand:wikidata": "Q7937522", "nsi_id": "vivacom-5ceaa9"}, "geometry": {"type": "Point", "coordinates": [27.9135616184, 43.1989988517]}},
{"type": "Feature", "id": "I1oCDivA4mKY-i3srJvmkamfxWE=", "properties": {"ref": "187", "@spider": "vivacom_bg", "brand:bg": "\u0412\u0438\u0432\u0430\u043a\u043e\u043c", "brand:en": "Vivacom", "name:bg": "\u0412\u0438\u0432\u0430\u043a\u043e\u043c", "name:en": "Vivacom", "shop": "telecommunication", "addr:country": "BG", "name": "VIVACOM \u0427\u0435\u043f\u0435\u043b\u0430\u0440\u0435, \u0443\u043b. \u0414\u0438\u0447\u043e \u041f\u0435\u0442\u0440\u043e\u0432 2", "phone": "030512075", "opening_hours": "Mo-Fr 09:00-18:00", "brand": "Vivacom", "brand:wikidata": "Q7937522", "nsi_id": "vivacom-5ceaa9"}, "geometry": {"type": "Point", "coordinates": [24.68027, 41.72546]}},
{"type": "Feature", "id": "mA5hRVly6vKj81Nz1KZm_iQcM9c=", "properties": {"ref": "188", "@spider": "vivacom_bg", "brand:bg": "\u0412\u0438\u0432\u0430\u043a\u043e\u043c", "brand:en": "Vivacom", "name:bg": "\u0412\u0438\u0432\u0430\u043a\u043e\u043c", "name:en": "Vivacom", "shop": "telecommunication", "addr:country": "BG", "name": "VIVACOM \u0418\u0445\u0442\u0438\u043c\u0430\u043d, \u0443\u043b. \u0426\u0430\u0440 \u041e\u0441\u0432\u043e\u0431\u043e\u0434\u0438\u0442\u0435\u043b 109", "phone": "072480026", "opening_hours": "Mo-Fr 09:00-18:00", "brand": "Vivacom", "brand:wikidata": "Q7937522", "nsi_id": "vivacom-5ceaa9"}, "geometry": {"type": "Point", "coordinates": [23.8160656113, 42.4380594894]}},
{"type": "Feature", "id": "aMJGx-kyOxhpEvQuOddW3PTlmHo=", "properties": {"ref": "189", "@spider": "vivacom_bg", "brand:bg": "\u0412\u0438\u0432\u0430\u043a\u043e\u043c", "brand:en": "Vivacom", "name:bg": "\u0412\u0438\u0432\u0430\u043a\u043e\u043c", "name:en": "Vivacom", "shop": "telecommunication", "addr:country": "BG", "name": "VIVACOM \u041a\u0430\u0440\u043d\u043e\u0431\u0430\u0442, \u0443\u043b. \u0411\u044a\u043b\u0433\u0430\u0440\u0438\u044f 9", "phone": "055922036", "opening_hours": "Mo-Fr 09:00-19:00", "brand": "Vivacom", "brand:wikidata": "Q7937522", "nsi_id": "vivacom-5ceaa9"}, "geometry": {"type": "Point", "coordinates": [26.98419914, 42.6489511971]}},
{"type": "Feature", "id": "vE6fVZG1GG595gDwC8OsKF4KrSQ=", "properties": {"ref": "190", "@spider": "vivacom_bg", "brand:bg": "\u0412\u0438\u0432\u0430\u043a\u043e\u043c", "brand:en": "Vivacom", "name:bg": "\u0412\u0438\u0432\u0430\u043a\u043e\u043c", "name:en": "Vivacom", "shop": "telecommunication", "addr:country": "BG", "name": "VIVACOM \u041c\u0430\u0434\u0430\u043d, \u0443\u043b. \u041e\u0431\u0435\u0434\u0438\u043d\u0435\u043d\u0438\u0435 18", "phone": "030822035", "opening_hours": "Mo-Fr 09:00-18:00", "brand": "Vivacom", "brand:wikidata": "Q7937522", "nsi_id": "vivacom-5ceaa9"}, "geometry": {"type": "Point", "coordinates": [24.9393157825, 41.5004261733]}},
{"type": "Feature", "id": "K3srzwrnUNQUyYhyFaInyCySr8Q=", "properties": {"ref": "191", "@spider": "vivacom_bg", "brand:bg": "\u0412\u0438\u0432\u0430\u043a\u043e\u043c", "brand:en": "Vivacom", "name:bg": "\u0412\u0438\u0432\u0430\u043a\u043e\u043c", "name:en": "Vivacom", "shop": "telecommunication", "addr:country": "BG", "name": "VIVACOM \u0414\u0440\u044f\u043d\u043e\u0432\u043e, \u0443\u043b. \u0428\u0438\u043f\u043a\u0430 130", "phone": "067671042", "opening_hours": "Mo-Fr 09:00-18:00", "brand": "Vivacom", "brand:wikidata": "Q7937522", "nsi_id": "vivacom-5ceaa9"}, "geometry": {"type": "Point", "coordinates": [25.4734943025, 42.9745395462]}},
{"type": "Feature", "id": "O3Js8KG3ZoZps6EPI8dTzw_O7pQ=", "properties": {"ref": "192", "@spider": "vivacom_bg", "brand:bg": "\u0412\u0438\u0432\u0430\u043a\u043e\u043c", "brand:en": "Vivacom", "name:bg": "\u0412\u0438\u0432\u0430\u043a\u043e\u043c", "name:en": "Vivacom", "shop": "telecommunication", "addr:country": "BG", "name": "VIVACOM \u0420\u0430\u0434\u043e\u043c\u0438\u0440, \u043f\u043b. \u0421\u0432\u043e\u0431\u043e\u0434\u0430 14", "phone": "077780031", "opening_hours": "Mo-Fr 09:00-19:00", "brand": "Vivacom", "brand:wikidata": "Q7937522", "nsi_id": "vivacom-5ceaa9"}, "geometry": {"type": "Point", "coordinates": [22.9649555867, 42.5472488396]}},
{"type": "Feature", "id": "jnNSuALs9_4Qb5r_c18fenb-Gus=", "properties": {"ref": "193", "@spider": "vivacom_bg", "brand:bg": "\u0412\u0438\u0432\u0430\u043a\u043e\u043c", "brand:en": "Vivacom", "name:bg": "\u0412\u0438\u0432\u0430\u043a\u043e\u043c", "name:en": "Vivacom", "shop": "telecommunication", "addr:country": "BG", "name": "VIVACOM \u041f\u043e\u043f\u043e\u0432\u043e, \u0431\u0443\u043b. \u0411\u044a\u043b\u0433\u0430\u0440\u0438\u044f 68\u0410", "phone": "060840094", "opening_hours": "Mo-Fr 09:00-19:00", "brand": "Vivacom", "brand:wikidata": "Q7937522", "nsi_id": "vivacom-5ceaa9"}, "geometry": {"type": "Point", "coordinates": [26.2276449813, 43.3488821854]}},
{"type": "Feature", "id": "ab5jhQHKzKtiOYGxqoO9Xc-MSjM=", "properties": {"ref": "194", "@spider": "vivacom_bg", "brand:bg": "\u0412\u0438\u0432\u0430\u043a\u043e\u043c", "brand:en": "Vivacom", "name:bg": "\u0412\u0438\u0432\u0430\u043a\u043e\u043c", "name:en": "Vivacom", "shop": "telecommunication", "addr:country": "BG", "name": "VIVACOM \u0412\u0435\u043b\u0438\u043a\u0438 \u041f\u0440\u0435\u0441\u043b\u0430\u0432, \u0443\u043b. \u0425\u0440\u0438\u0441\u0442\u043e \u0411\u043e\u0442\u0435\u0432 2", "phone": "053842385", "opening_hours": "Mo-Fr 09:00-19:00", "brand": "Vivacom", "brand:wikidata": "Q7937522", "nsi_id": "vivacom-5ceaa9"}, "geometry": {"type": "Point", "coordinates": [26.8146963949, 43.1612835699]}},
{"type": "Feature", "id": "oaKUlOn55sj1Eq8zqoobscMAJqY=", "properties": {"ref": "195", "@spider": "vivacom_bg", "brand:bg": "\u0412\u0438\u0432\u0430\u043a\u043e\u043c", "brand:en": "Vivacom", "name:bg": "\u0412\u0438\u0432\u0430\u043a\u043e\u043c", "name:en": "Vivacom", "shop": "telecommunication", "addr:country": "BG", "name": "VIVACOM \u041f\u043b\u043e\u0432\u0434\u0438\u0432, \u0443\u043b. \u041c\u0430\u0440\u0438\u044f \u041b\u0443\u0438\u0437\u0430 12", "phone": "032260384", "opening_hours": "Mo-Fr 09:00-19:00", "brand": "Vivacom", "brand:wikidata": "Q7937522", "nsi_id": "vivacom-5ceaa9"}, "geometry": {"type": "Point", "coordinates": [24.7556, 42.14469]}},
{"type": "Feature", "id": "6HUS859pSBvhWdQSbFWsa1uva4o=", "properties": {"ref": "196", "@spider": "vivacom_bg", "brand:bg": "\u0412\u0438\u0432\u0430\u043a\u043e\u043c", "brand:en": "Vivacom", "name:bg": "\u0412\u0438\u0432\u0430\u043a\u043e\u043c", "name:en": "Vivacom", "shop": "telecommunication", "addr:country": "BG", "name": "VIVACOM \u0412\u0435\u043b\u0438\u043a\u043e \u0422\u044a\u0440\u043d\u043e\u0432\u043e, \u0443\u043b. \u0425\u0440\u0438\u0441\u0442\u043e \u0414\u043e\u043d\u0435\u0432 2", "phone": "062600486", "opening_hours": "Mo-Fr 09:00-19:00", "brand": "Vivacom", "brand:wikidata": "Q7937522", "nsi_id": "vivacom-5ceaa9"}, "geometry": {"type": "Point", "coordinates": [25.60725, 43.07108]}},
{"type": "Feature", "id": "VwSFarGaUGpabgqSp_y_KVgKTgQ=", "properties": {"ref": "197", "@spider": "vivacom_bg", "brand:bg": "\u0412\u0438\u0432\u0430\u043a\u043e\u043c", "brand:en": "Vivacom", "name:bg": "\u0412\u0438\u0432\u0430\u043a\u043e\u043c", "name:en": "Vivacom", "shop": "telecommunication", "addr:country": "BG", "name": "VIVACOM \u0415\u043b\u0438\u043d \u041f\u0435\u043b\u0438\u043d, \u0431\u0443\u043b. \u0421\u043e\u0444\u0438\u044f 17", "phone": "072566021", "opening_hours": "Mo-Fr 09:00-18:00", "brand": "Vivacom", "brand:wikidata": "Q7937522", "nsi_id": "vivacom-5ceaa9"}, "geometry": {"type": "Point", "coordinates": [23.5997671153, 42.6709730943]}},
{"type": "Feature", "id": "XCoWAjk3m09jDHpHjV-c3IDMGd4=", "properties": {"ref": "198", "@spider": "vivacom_bg", "brand:bg": "\u0412\u0438\u0432\u0430\u043a\u043e\u043c", "brand:en": "Vivacom", "name:bg": "\u0412\u0438\u0432\u0430\u043a\u043e\u043c", "name:en": "Vivacom", "shop": "telecommunication", "addr:country": "BG", "name": "VIVACOM \u041b\u0443\u043a\u043e\u0432\u0438\u0442, \u0443\u043b. \u0412\u044a\u0437\u0440\u0430\u0436\u0434\u0430\u043d\u0435 88", "phone": "069750008", "opening_hours": "Mo-Fr 09:00-19:00", "brand": "Vivacom", "brand:wikidata": "Q7937522", "nsi_id": "vivacom-5ceaa9"}, "geometry": {"type": "Point", "coordinates": [24.1631221641, 43.2070478294]}},
{"type": "Feature", "id": "18A4FYuQNNoTQOjwQYSym2thuDI=", "properties": {"ref": "199", "@spider": "vivacom_bg", "brand:bg": "\u0412\u0438\u0432\u0430\u043a\u043e\u043c", "brand:en": "Vivacom", "name:bg": "\u0412\u0438\u0432\u0430\u043a\u043e\u043c", "name:en": "Vivacom", "shop": "telecommunication", "addr:country": "BG", "name": "VIVACOM \u041d\u043e\u0432\u0438 \u043f\u0430\u0437\u0430\u0440, \u0443\u043b. \u0420\u0430\u043a\u043e\u0432\u0441\u043a\u0430 4", "phone": "053722029", "opening_hours": "Mo-Fr 09:00-19:00", "brand": "Vivacom", "brand:wikidata": "Q7937522", "nsi_id": "vivacom-5ceaa9"}, "geometry": {"type": "Point", "coordinates": [27.19285, 43.34541]}},
{"type": "Feature", "id": "dgp3vEMrw3EDWH7BUlOaUi-Leyo=", "properties": {"ref": "201", "@spider": "vivacom_bg", "brand:bg": "\u0412\u0438\u0432\u0430\u043a\u043e\u043c", "brand:en": "Vivacom", "name:bg": "\u0412\u0438\u0432\u0430\u043a\u043e\u043c", "name:en": "Vivacom", "shop": "telecommunication", "addr:country": "BG", "name": "VIVACOM \u0421\u043e\u0444\u0438\u044f, \u043a\u0432. \u0425\u0430\u0434\u0436\u0438 \u0414\u0438\u043c\u0438\u0442\u044a\u0440, \u0443\u043b. \u0420\u0435\u0437\u0431\u0430\u0440\u0441\u043a\u0430 7\u0411, \u041a\u0430\u0443\u0444\u043b\u0430\u043d\u0434", "phone": "028400419", "opening_hours": "Mo-Sa 08:00-21:00; Su 09:00-20:00", "brand": "Vivacom", "brand:wikidata": "Q7937522", "nsi_id": "vivacom-5ceaa9"}, "geometry": {"type": "Point", "coordinates": [23.3540627544, 42.7130613743]}},
{"type": "Feature", "id": "5UHv4y0GNlLHzeW5YrhBpNJ8j00=", "properties": {"ref": "202", "@spider": "vivacom_bg", "brand:bg": "\u0412\u0438\u0432\u0430\u043a\u043e\u043c", "brand:en": "Vivacom", "name:bg": "\u0412\u0438\u0432\u0430\u043a\u043e\u043c", "name:en": "Vivacom", "shop": "telecommunication", "addr:country": "BG", "name": "VIVACOM \u0421\u043e\u0444\u0438\u044f, \u043a\u0432. \u041a\u0440\u0430\u0441\u043d\u0430 \u043f\u043e\u043b\u044f\u043d\u0430, \u044a\u0433\u044a\u043b \u0431\u0443\u043b. \u0412\u0430\u0440\u0434\u0430\u0440 \u0438 \u0431\u0443\u043b. \u0412\u044a\u0437\u043a\u0440\u0435\u0441\u0435\u043d\u0438\u0435", "phone": "028222999", "opening_hours": "Mo-Fr 09:00-19:30; Sa 10:00-17:00", "brand": "Vivacom", "brand:wikidata": "Q7937522", "nsi_id": "vivacom-5ceaa9"}, "geometry": {"type": "Point", "coordinates": [23.2869842852, 42.6959967351]}},
{"type": "Feature", "id": "6VjVbRpMBaIL1tpzUbyWHSzi748=", "properties": {"ref": "203", "@spider": "vivacom_bg", "brand:bg": "\u0412\u0438\u0432\u0430\u043a\u043e\u043c", "brand:en": "Vivacom", "name:bg": "\u0412\u0438\u0432\u0430\u043a\u043e\u043c", "name:en": "Vivacom", "shop": "telecommunication", "addr:country": "BG", "name": "VIVACOM \u0421\u043e\u0444\u0438\u044f, \u0431\u0443\u043b. \u0426\u0430\u0440\u0438\u0433\u0440\u0430\u0434\u0441\u043a\u043e \u0448\u043e\u0441\u0435 115, The Mall", "phone": "028787844", "opening_hours": "Mo-Su 10:00-22:00", "brand": "Vivacom", "brand:wikidata": "Q7937522", "nsi_id": "vivacom-5ceaa9"}, "geometry": {"type": "Point", "coordinates": [23.3834842099, 42.6609231685]}},
{"type": "Feature", "id": "mMTYLtHPiCaiZIhQ0MB2h-hSpQg=", "properties": {"ref": "204", "@spider": "vivacom_bg", "brand:bg": "\u0412\u0438\u0432\u0430\u043a\u043e\u043c", "brand:en": "Vivacom", "name:bg": "\u0412\u0438\u0432\u0430\u043a\u043e\u043c", "name:en": "Vivacom", "shop": "telecommunication", "addr:country": "BG", "name": "VIVACOM \u0411\u044f\u043b\u0430, \u0443\u043b. \u0425\u0430\u0434\u0436\u0438 \u0414\u0438\u043c\u0438\u0442\u044a\u0440 11", "phone": "081772004", "opening_hours": "Mo-Fr 09:00-19:00", "brand": "Vivacom", "brand:wikidata": "Q7937522", "nsi_id": "vivacom-5ceaa9"}, "geometry": {"type": "Point", "coordinates": [25.737629263, 43.458801844]}},
{"type": "Feature", "id": "O-S5zDyScU5vixpW5PgByHi03CQ=", "properties": {"ref": "205", "@spider": "vivacom_bg", "brand:bg": "\u0412\u0438\u0432\u0430\u043a\u043e\u043c", "brand:en": "Vivacom", "name:bg": "\u0412\u0438\u0432\u0430\u043a\u043e\u043c", "name:en": "Vivacom", "shop": "telecommunication", "addr:country": "BG", "name": "VIVACOM \u0413\u044a\u043b\u044a\u0431\u043e\u0432\u043e, \u0431\u0443\u043b. \u0420\u0435\u043f\u0443\u0431\u043b\u0438\u043a\u0430 4", "phone": "041860238", "opening_hours": "Mo-Fr 09:00-18:00", "brand": "Vivacom", "brand:wikidata": "Q7937522", "nsi_id": "vivacom-5ceaa9"}, "geometry": {"type": "Point", "coordinates": [25.8761182887, 42.1424526658]}},
{"type": "Feature", "id": "tKjqQUsWUou7FTJI7rzu6m2xzvE=", "properties": {"ref": "206", "@spider": "vivacom_bg", "brand:bg": "\u0412\u0438\u0432\u0430\u043a\u043e\u043c", "brand:en": "Vivacom", "name:bg": "\u0412\u0438\u0432\u0430\u043a\u043e\u043c", "name:en": "Vivacom", "shop": "telecommunication", "addr:country": "BG", "name": "VIVACOM \u0415\u0442\u0440\u043e\u043f\u043e\u043b\u0435, \u0431\u0443\u043b. \u0420\u0443\u0441\u043a\u0438 112", "phone": "072062049", "opening_hours": "Mo-Fr 09:00-19:00", "brand": "Vivacom", "brand:wikidata": "Q7937522", "nsi_id": "vivacom-5ceaa9"}, "geometry": {"type": "Point", "coordinates": [23.9951045287, 42.8323901917]}},
{"type": "Feature", "id": "_jE7BJEEC6G7z8um4tWedak3zOw=", "properties": {"ref": "207", "@spider": "vivacom_bg", "brand:bg": "\u0412\u0438\u0432\u0430\u043a\u043e\u043c", "brand:en": "Vivacom", "name:bg": "\u0412\u0438\u0432\u0430\u043a\u043e\u043c", "name:en": "Vivacom", "shop": "telecommunication", "addr:country": "BG", "name": "VIVACOM \u041a\u0430\u0432\u0430\u0440\u043d\u0430, \u0443\u043b. \u0411\u044a\u043b\u0433\u0430\u0440\u0438\u044f 59", "phone": "057082098", "opening_hours": "Mo-Fr 09:00-18:00", "brand": "Vivacom", "brand:wikidata": "Q7937522", "nsi_id": "vivacom-5ceaa9"}, "geometry": {"type": "Point", "coordinates": [28.338488987, 43.4359028519]}},
{"type": "Feature", "id": "6bzROwZJ7cWHq3uEZap1SDaJmxk=", "properties": {"ref": "208", "@spider": "vivacom_bg", "brand:bg": "\u0412\u0438\u0432\u0430\u043a\u043e\u043c", "brand:en": "Vivacom", "name:bg": "\u0412\u0438\u0432\u0430\u043a\u043e\u043c", "name:en": "Vivacom", "shop": "telecommunication", "addr:country": "BG", "name": "VIVACOM \u0411\u0430\u043b\u0447\u0438\u043a, \u0443\u043b. \u0427\u0435\u0440\u043d\u043e \u043c\u043e\u0440\u0435 5", "phone": "057972104", "opening_hours": "Mo-Fr 09:00-18:00", "brand": "Vivacom", "brand:wikidata": "Q7937522", "nsi_id": "vivacom-5ceaa9"}, "geometry": {"type": "Point", "coordinates": [28.1659249561, 43.4057081083]}},
{"type": "Feature", "id": "lRxpA9hR72EfmWsqY1-hOx_I-0U=", "properties": {"ref": "209", "@spider": "vivacom_bg", "brand:bg": "\u0412\u0438\u0432\u0430\u043a\u043e\u043c", "brand:en": "Vivacom", "name:bg": "\u0412\u0438\u0432\u0430\u043a\u043e\u043c", "name:en": "Vivacom", "shop": "telecommunication", "addr:country": "BG", "name": "VIVACOM \u0427\u0438\u0440\u043f\u0430\u043d, \u0443\u043b. \u0414\u0438\u043c\u043e \u041d\u0435\u0434\u0435\u0432 1", "phone": "041692045", "opening_hours": "Mo-Fr 09:00-18:00", "brand": "Vivacom", "brand:wikidata": "Q7937522", "nsi_id": "vivacom-5ceaa9"}, "geometry": {"type": "Point", "coordinates": [25.3258207329, 42.1984804403]}},
{"type": "Feature", "id": "eSZaDeVqgMP2Go_0LC6AYD5kETE=", "properties": {"ref": "210", "@spider": "vivacom_bg", "brand:bg": "\u0412\u0438\u0432\u0430\u043a\u043e\u043c", "brand:en": "Vivacom", "name:bg": "\u0412\u0438\u0432\u0430\u043a\u043e\u043c", "name:en": "Vivacom", "shop": "telecommunication", "addr:country": "BG", "name": "VIVACOM \u0420\u0430\u043a\u043e\u0432\u0441\u043a\u0438, \u0443\u043b. \u041f\u0435\u0442\u044a\u0440 \u0411\u043e\u0433\u0434\u0430\u043d 75 ", "phone": "031513233", "opening_hours": "Mo-Fr 09:00-18:00", "brand": "Vivacom", "brand:wikidata": "Q7937522", "nsi_id": "vivacom-5ceaa9"}, "geometry": {"type": "Point", "coordinates": [24.9419181931, 42.2715503708]}},
{"type": "Feature", "id": "4xjY6XKEV2pS3jk2CXaVYGpLiCI=", "properties": {"ref": "211", "@spider": "vivacom_bg", "brand:bg": "\u0412\u0438\u0432\u0430\u043a\u043e\u043c", "brand:en": "Vivacom", "name:bg": "\u0412\u0438\u0432\u0430\u043a\u043e\u043c", "name:en": "Vivacom", "shop": "telecommunication", "addr:country": "BG", "name": "VIVACOM \u0425\u0438\u0441\u0430\u0440\u044f, \u0443\u043b. \u0418\u0432\u0430\u043d \u0412\u0430\u0437\u043e\u0432 40", "phone": "033762042", "opening_hours": "Mo-Fr 09:00-18:00", "brand": "Vivacom", "brand:wikidata": "Q7937522", "nsi_id": "vivacom-5ceaa9"}, "geometry": {"type": "Point", "coordinates": [24.7027655404, 42.5038790254]}},
{"type": "Feature", "id": "dJTJdwHa2kxjh6jtGLhq036m7Fw=", "properties": {"ref": "212", "@spider": "vivacom_bg", "brand:bg": "\u0412\u0438\u0432\u0430\u043a\u043e\u043c", "brand:en": "Vivacom", "name:bg": "\u0412\u0438\u0432\u0430\u043a\u043e\u043c", "name:en": "Vivacom", "shop": "telecommunication", "addr:country": "BG", "name": "VIVACOM \u0426\u0430\u0440\u0435\u0432\u043e, \u0443\u043b. \u0425\u0430\u043d \u0410\u0441\u043f\u0430\u0440\u0443\u0445 30", "phone": "059052087", "opening_hours": "Mo-Fr 09:00-18:00", "brand": "Vivacom", "brand:wikidata": "Q7937522", "nsi_id": "vivacom-5ceaa9"}, "geometry": {"type": "Point", "coordinates": [27.8523461241, 42.1713209092]}},
{"type": "Feature", "id": "02j7DKNoHXlThkq_3GmA87NyUIY=", "properties": {"ref": "213", "@spider": "vivacom_bg", "brand:bg": "\u0412\u0438\u0432\u0430\u043a\u043e\u043c", "brand:en": "Vivacom", "name:bg": "\u0412\u0438\u0432\u0430\u043a\u043e\u043c", "name:en": "Vivacom", "shop": "telecommunication", "addr:country": "BG", "name": "VIVACOM \u0414\u0435\u0432\u0438\u043d, \u0443\u043b. \u041e\u0441\u0432\u043e\u0431\u043e\u0436\u0434\u0435\u043d\u0438\u0435 32", "phone": "030412129", "opening_hours": "Mo-Fr 09:00-18:00", "brand": "Vivacom", "brand:wikidata": "Q7937522", "nsi_id": "vivacom-5ceaa9"}, "geometry": {"type": "Point", "coordinates": [24.3993663483, 41.7426477304]}},
{"type": "Feature", "id": "lCeUZQ_o_O72QlB8aRIrR2vEu5U=", "properties": {"ref": "215", "@spider": "vivacom_bg", "brand:bg": "\u0412\u0438\u0432\u0430\u043a\u043e\u043c", "brand:en": "Vivacom", "name:bg": "\u0412\u0438\u0432\u0430\u043a\u043e\u043c", "name:en": "Vivacom", "shop": "telecommunication", "addr:country": "BG", "name": "VIVACOM \u0421\u043e\u0444\u0438\u044f, \u0436.\u043a. \u041b\u044e\u043b\u0438\u043d-8, \u0431\u0443\u043b. \u0426\u0430\u0440\u0438\u0446\u0430 \u0419\u043e\u0430\u043d\u0430 70, \u0431\u043b. \u0410", "phone": "028241924", "opening_hours": "Mo-Fr 09:00-19:30", "brand": "Vivacom", "brand:wikidata": "Q7937522", "nsi_id": "vivacom-5ceaa9"}, "geometry": {"type": "Point", "coordinates": [23.25783, 42.71871]}},
{"type": "Feature", "id": "AscC-HPUK8y8maTgE7NNrM-QYlQ=", "properties": {"ref": "216", "@spider": "vivacom_bg", "brand:bg": "\u0412\u0438\u0432\u0430\u043a\u043e\u043c", "brand:en": "Vivacom", "name:bg": "\u0412\u0438\u0432\u0430\u043a\u043e\u043c", "name:en": "Vivacom", "shop": "telecommunication", "addr:country": "BG", "name": "VIVACOM \u0411\u0443\u0440\u0433\u0430\u0441, \u041c\u041e\u041b \u0413\u0430\u043b\u0435\u0440\u0438\u044f, \u0431\u0443\u043b. \u042f\u043d\u043a\u043e \u041a\u043e\u043c\u0438\u0442\u043e\u0432 6", "phone": "056589919", "opening_hours": "Mo-Su 10:00-21:00", "brand": "Vivacom", "brand:wikidata": "Q7937522", "nsi_id": "vivacom-5ceaa9"}, "geometry": {"type": "Point", "coordinates": [27.4538093953, 42.5128834892]}},
{"type": "Feature", "id": "upaHvcep4sMo1dqOJl0jwqRewRw=", "properties": {"ref": "217", "@spider": "vivacom_bg", "brand:bg": "\u0412\u0438\u0432\u0430\u043a\u043e\u043c", "brand:en": "Vivacom", "name:bg": "\u0412\u0438\u0432\u0430\u043a\u043e\u043c", "name:en": "Vivacom", "shop": "telecommunication", "addr:country": "BG", "name": "VIVACOM \u0411\u0443\u0440\u0433\u0430\u0441, \u0443\u043b. \u0421\u0432. \u0421\u0432. \u041a\u0438\u0440\u0438\u043b \u0438 \u041c\u0435\u0442\u043e\u0434\u0438\u0439 2", "phone": "056820256", "opening_hours": "Mo-Fr 09:00-19:30; Sa 10:00-17:00", "brand": "Vivacom", "brand:wikidata": "Q7937522", "nsi_id": "vivacom-5ceaa9"}, "geometry": {"type": "Point", "coordinates": [27.47201, 42.49555]}},
{"type": "Feature", "id": "SGqsgaztuE5XrzlPjlIL3trytsA=", "properties": {"ref": "218", "@spider": "vivacom_bg", "brand:bg": "\u0412\u0438\u0432\u0430\u043a\u043e\u043c", "brand:en": "Vivacom", "name:bg": "\u0412\u0438\u0432\u0430\u043a\u043e\u043c", "name:en": "Vivacom", "shop": "telecommunication", "addr:country": "BG", "name": "VIVACOM \u0421\u0430\u043d\u0434\u0430\u043d\u0441\u043a\u0438, \u0443\u043b. \u041c\u0430\u043a\u0435\u0434\u043e\u043d\u0438\u044f 18", "phone": "074630327", "opening_hours": "Mo-Fr 09:00-19:00; Sa 10:00-17:00", "brand": "Vivacom", "brand:wikidata": "Q7937522", "nsi_id": "vivacom-5ceaa9"}, "geometry": {"type": "Point", "coordinates": [23.278855881, 41.5626596292]}},
{"type": "Feature", "id": "xwnA7xgn0EiS60ZH6PoPnzwYak4=", "properties": {"ref": "219", "@spider": "vivacom_bg", "brand:bg": "\u0412\u0438\u0432\u0430\u043a\u043e\u043c", "brand:en": "Vivacom", "name:bg": "\u0412\u0438\u0432\u0430\u043a\u043e\u043c", "name:en": "Vivacom", "shop": "telecommunication", "addr:country": "BG", "name": "VIVACOM \u0421\u043e\u0444\u0438\u044f, \u0431\u0443\u043b. \u041b\u043e\u043c\u0441\u043a\u043e \u0448\u043e\u0441\u0435 \u0431\u043b.171", "phone": "028361189", "opening_hours": "Mo-Fr 09:00-19:30; Sa 10:00-17:00", "brand": "Vivacom", "brand:wikidata": "Q7937522", "nsi_id": "vivacom-5ceaa9"}, "geometry": {"type": "Point", "coordinates": [23.3024297839, 42.7261240296]}},
{"type": "Feature", "id": "uxX5QSbTXgTDd9QMaSQgCw88brM=", "properties": {"ref": "220", "@spider": "vivacom_bg", "brand:bg": "\u0412\u0438\u0432\u0430\u043a\u043e\u043c", "brand:en": "Vivacom", "name:bg": "\u0412\u0438\u0432\u0430\u043a\u043e\u043c", "name:en": "Vivacom", "shop": "telecommunication", "addr:country": "BG", "name": "VIVACOM \u0421\u043e\u0444\u0438\u044f, \u043a\u0432. \u041e\u0431\u0435\u043b\u044f, \u0443\u043b. \u0410\u043a\u0430\u0434. \u0414\u043c\u0438\u0442\u0440\u0438\u0439 \u041b\u0438\u0445\u0430\u0447\u043e\u0432 58 \u0410", "phone": "028341596", "opening_hours": "Mo-Fr 09:00-19:30", "brand": "Vivacom", "brand:wikidata": "Q7937522", "nsi_id": "vivacom-5ceaa9"}, "geometry": {"type": "Point", "coordinates": [23.277193087311, 42.741895446601]}},
{"type": "Feature", "id": "kx--nRViPbWiJ0CFucCo9_G6ShM=", "properties": {"ref": "222", "@spider": "vivacom_bg", "brand:bg": "\u0412\u0438\u0432\u0430\u043a\u043e\u043c", "brand:en": "Vivacom", "name:bg": "\u0412\u0438\u0432\u0430\u043a\u043e\u043c", "name:en": "Vivacom", "shop": "telecommunication", "addr:country": "BG", "name": "VIVACOM \u0421\u043e\u0444\u0438\u044f, \u041c\u043e\u043b \u0411\u044a\u043b\u0433\u0430\u0440\u0438\u044f, \u0431\u0443\u043b.\u0411\u044a\u043b\u0433\u0430\u0440\u0438\u044f", "phone": "029950933", "opening_hours": "Mo-Su 10:00-21:00", "brand": "Vivacom", "brand:wikidata": "Q7937522", "nsi_id": "vivacom-5ceaa9"}, "geometry": {"type": "Point", "coordinates": [23.2882242113, 42.6647452879]}},
{"type": "Feature", "id": "1-5sP39hoOGWARxl34X24NsNl4s=", "properties": {"ref": "223", "@spider": "vivacom_bg", "brand:bg": "\u0412\u0438\u0432\u0430\u043a\u043e\u043c", "brand:en": "Vivacom", "name:bg": "\u0412\u0438\u0432\u0430\u043a\u043e\u043c", "name:en": "Vivacom", "shop": "telecommunication", "addr:country": "BG", "name": "VIVACOM \u0421\u043e\u0444\u0438\u044f, \u043a\u0432. \u041b\u044e\u043b\u0438\u043d 6, \u0431\u043b. 601 \u0411", "phone": "029942193", "opening_hours": "Mo-Fr 09:00-19:30; Sa 10:00-17:00", "brand": "Vivacom", "brand:wikidata": "Q7937522", "nsi_id": "vivacom-5ceaa9"}, "geometry": {"type": "Point", "coordinates": [23.2516081231, 42.7150398832]}},
{"type": "Feature", "id": "kiy_ud7uXUYrEmj-ADYpGGHSEsE=", "properties": {"ref": "225", "@spider": "vivacom_bg", "brand:bg": "\u0412\u0438\u0432\u0430\u043a\u043e\u043c", "brand:en": "Vivacom", "name:bg": "\u0412\u0438\u0432\u0430\u043a\u043e\u043c", "name:en": "Vivacom", "shop": "telecommunication", "addr:country": "BG", "name": "VIVACOM \u041a\u043d\u0435\u0436\u0430, \u0443\u043b. \u041c\u0430\u0440\u0438\u043d \u0411\u043e\u0435\u0432 68", "phone": "091326389", "opening_hours": "Mo-Fr 09:00-19:00", "brand": "Vivacom", "brand:wikidata": "Q7937522", "nsi_id": "vivacom-5ceaa9"}, "geometry": {"type": "Point", "coordinates": [24.0801389643, 43.4955841229]}},
{"type": "Feature", "id": "Zs1b4XiX30XXkXJ7WeDo9eCH0DI=", "properties": {"ref": "139", "@spider": "vivacom_bg", "brand:bg": "\u0412\u0438\u0432\u0430\u043a\u043e\u043c", "brand:en": "Vivacom", "name:bg": "\u0412\u0438\u0432\u0430\u043a\u043e\u043c", "name:en": "Vivacom", "shop": "telecommunication", "addr:country": "BG", "name": "VIVACOM \u041f\u043b\u043e\u0432\u0434\u0438\u0432, \u0436.\u043a. \u0422\u0440\u0430\u043a\u0438\u044f \u0431\u043b. 100, \u0422\u044a\u0440\u0433\u043e\u0432\u0441\u043a\u0438\u044f \u0446\u0435\u043d\u0442\u044a\u0440", "phone": "032680072", "opening_hours": "Mo-Fr 09:00-18:30", "brand": "Vivacom", "brand:wikidata": "Q7937522", "nsi_id": "vivacom-5ceaa9"}, "geometry": {"type": "Point", "coordinates": [24.7955508663, 42.131843605]}},
{"type": "Feature", "id": "Xezr18cNY1Sn1lokLj3AJJ0l5G4=", "properties": {"ref": "140", "@spider": "vivacom_bg", "brand:bg": "\u0412\u0438\u0432\u0430\u043a\u043e\u043c", "brand:en": "Vivacom", "name:bg": "\u0412\u0438\u0432\u0430\u043a\u043e\u043c", "name:en": "Vivacom", "shop": "telecommunication", "addr:country": "BG", "name": "VIVACOM \u041f\u043b\u043e\u0432\u0434\u0438\u0432, \u0443\u043b. \u0420\u0430\u0439\u043a\u043e \u0414\u0430\u0441\u043a\u0430\u043b\u043e\u0432 25", "phone": "032622007", "opening_hours": "Mo-Fr 09:00-19:30; Sa 10:00-17:00", "brand": "Vivacom", "brand:wikidata": "Q7937522", "nsi_id": "vivacom-5ceaa9"}, "geometry": {"type": "Point", "coordinates": [24.7472331064, 42.15025609]}},
{"type": "Feature", "id": "rKTf653T65Nh92bKZZNlzDpEJ-c=", "properties": {"ref": "141", "@spider": "vivacom_bg", "brand:bg": "\u0412\u0438\u0432\u0430\u043a\u043e\u043c", "brand:en": "Vivacom", "name:bg": "\u0412\u0438\u0432\u0430\u043a\u043e\u043c", "name:en": "Vivacom", "shop": "telecommunication", "addr:country": "BG", "name": "VIVACOM \u0420\u0430\u0437\u043b\u043e\u0433, \u0443\u043b. \u0428\u0435\u0439\u043d\u043e\u0432\u043e 8", "phone": "074780036", "opening_hours": "Mo-Fr 09:00-18:00", "brand": "Vivacom", "brand:wikidata": "Q7937522", "nsi_id": "vivacom-5ceaa9"}, "geometry": {"type": "Point", "coordinates": [23.466924, 41.886059]}},
{"type": "Feature", "id": "7K9IEKA_pSkHTz_KGLCehfeKXJ8=", "properties": {"ref": "142", "@spider": "vivacom_bg", "brand:bg": "\u0412\u0438\u0432\u0430\u043a\u043e\u043c", "brand:en": "Vivacom", "name:bg": "\u0412\u0438\u0432\u0430\u043a\u043e\u043c", "name:en": "Vivacom", "shop": "telecommunication", "addr:country": "BG", "name": "VIVACOM \u0421\u0430\u043c\u043e\u043a\u043e\u0432, \u0431\u0443\u043b. \u0418\u0441\u043a\u044a\u0440 111", "phone": "072260066", "opening_hours": "Mo-Fr 09:00-19:00", "brand": "Vivacom", "brand:wikidata": "Q7937522", "nsi_id": "vivacom-5ceaa9"}, "geometry": {"type": "Point", "coordinates": [23.55612489, 42.3350316252]}},
{"type": "Feature", "id": "etxKSt6E3R2zzcELLGlsnMX6ot0=", "properties": {"ref": "144", "@spider": "vivacom_bg", "brand:bg": "\u0412\u0438\u0432\u0430\u043a\u043e\u043c", "brand:en": "Vivacom", "name:bg": "\u0412\u0438\u0432\u0430\u043a\u043e\u043c", "name:en": "Vivacom", "shop": "telecommunication", "addr:country": "BG", "name": "VIVACOM \u0425\u0430\u0440\u043c\u0430\u043d\u043b\u0438, \u0431\u0443\u043b.\u0411\u044a\u043b\u0433\u0430\u0440\u0438\u044f 6", "phone": "037382003", "opening_hours": "Mo-Fr 09:00-18:00", "brand": "Vivacom", "brand:wikidata": "Q7937522", "nsi_id": "vivacom-5ceaa9"}, "geometry": {"type": "Point", "coordinates": [25.9186432124, 41.9230968083]}},
{"type": "Feature", "id": "UN5lr6zYiviXvu9W-97JO4nMdyU=", "properties": {"ref": "145", "@spider": "vivacom_bg", "brand:bg": "\u0412\u0438\u0432\u0430\u043a\u043e\u043c", "brand:en": "Vivacom", "name:bg": "\u0412\u0438\u0432\u0430\u043a\u043e\u043c", "name:en": "Vivacom", "shop": "telecommunication", "addr:country": "BG", "name": "VIVACOM \u0421\u043b\u0438\u0432\u0435\u043d, \u0431\u0443\u043b. \u0413\u0435\u043e\u0440\u0433\u0438 \u0414\u0430\u043d\u0447\u0435\u0432 30, \u041a\u0430\u0443\u0444\u043b\u0430\u043d\u0434", "phone": "044668077", "opening_hours": "Mo-Sa 09:00-21:00; Su 09:00-20:00", "brand": "Vivacom", "brand:wikidata": "Q7937522", "nsi_id": "vivacom-5ceaa9"}, "geometry": {"type": "Point", "coordinates": [26.34172, 42.68302]}},
{"type": "Feature", "id": "BWKWfiytuMn7cQpOet_9k0oDSME=", "properties": {"ref": "146", "@spider": "vivacom_bg", "brand:bg": "\u0412\u0438\u0432\u0430\u043a\u043e\u043c", "brand:en": "Vivacom", "name:bg": "\u0412\u0438\u0432\u0430\u043a\u043e\u043c", "name:en": "Vivacom", "shop": "telecommunication", "addr:country": "BG", "name": "VIVACOM \u0421\u043e\u0444\u0438\u044f, \u0443\u043b. \u0413\u0440\u0430\u0444 \u0418\u0433\u043d\u0430\u0442\u0438\u0435\u0432 47\u0410", "phone": "029885997", "opening_hours": "Mo-Fr 09:00-19:00", "brand": "Vivacom", "brand:wikidata": "Q7937522", "nsi_id": "vivacom-5ceaa9"}, "geometry": {"type": "Point", "coordinates": [23.3298921875, 42.6876690908]}},
{"type": "Feature", "id": "iEoAnGw7Fl64xopr6uueAffnqN0=", "properties": {"ref": "147", "@spider": "vivacom_bg", "brand:bg": "\u0412\u0438\u0432\u0430\u043a\u043e\u043c", "brand:en": "Vivacom", "name:bg": "\u0412\u0438\u0432\u0430\u043a\u043e\u043c", "name:en": "Vivacom", "shop": "telecommunication", "addr:country": "BG", "name": "VIVACOM \u041f\u043b\u043e\u0432\u0434\u0438\u0432, \u0443\u043b. \u041f\u0435\u0440\u0443\u0449\u0438\u0446\u0430 8, Mall", "phone": "032250292", "opening_hours": "Mo-Su 10:00-21:00", "brand": "Vivacom", "brand:wikidata": "Q7937522", "nsi_id": "vivacom-5ceaa9"}, "geometry": {"type": "Point", "coordinates": [24.7202467203, 42.1416343708]}},
{"type": "Feature", "id": "wSLcjrTiKTYpy_aJdK-jF9mcv-Q=", "properties": {"ref": "149", "@spider": "vivacom_bg", "brand:bg": "\u0412\u0438\u0432\u0430\u043a\u043e\u043c", "brand:en": "Vivacom", "name:bg": "\u0412\u0438\u0432\u0430\u043a\u043e\u043c", "name:en": "Vivacom", "shop": "telecommunication", "addr:country": "BG", "name": "VIVACOM \u042f\u043c\u0431\u043e\u043b, \u0443\u043b. \u0422\u044a\u0440\u0433\u043e\u0432\u0441\u043a\u0430 16", "phone": "046663055", "opening_hours": "Mo-Fr 09:00-19:00; Sa 10:00-17:00", "brand": "Vivacom", "brand:wikidata": "Q7937522", "nsi_id": "vivacom-5ceaa9"}, "geometry": {"type": "Point", "coordinates": [26.50768, 42.48281]}},
{"type": "Feature", "id": "uQUHgQyW9Lw93faydynAFZASxeo=", "properties": {"ref": "150", "@spider": "vivacom_bg", "brand:bg": "\u0412\u0438\u0432\u0430\u043a\u043e\u043c", "brand:en": "Vivacom", "name:bg": "\u0412\u0438\u0432\u0430\u043a\u043e\u043c", "name:en": "Vivacom", "shop": "telecommunication", "addr:country": "BG", "name": "VIVACOM \u0411\u0443\u0440\u0433\u0430\u0441, \u0431\u0443\u043b. \u0422\u0440\u0430\u043d\u0441\u043f\u043e\u0440\u0442\u043d\u0430 \u0411\u0443\u0440\u0433\u0430\u0441, \u041f\u043b\u0430\u0437\u0430 \u041c\u041e\u041b", "phone": "056590699", "opening_hours": "Mo-Su 10:00-19:00", "brand": "Vivacom", "brand:wikidata": "Q7937522", "nsi_id": "vivacom-5ceaa9"}, "geometry": {"type": "Point", "coordinates": [27.4569320226, 42.5303194511]}},
{"type": "Feature", "id": "rRAGgN_l3vnSQJFgcUNZZPLRgIA=", "properties": {"ref": "152", "@spider": "vivacom_bg", "brand:bg": "\u0412\u0438\u0432\u0430\u043a\u043e\u043c", "brand:en": "Vivacom", "name:bg": "\u0412\u0438\u0432\u0430\u043a\u043e\u043c", "name:en": "Vivacom", "shop": "telecommunication", "addr:country": "BG", "name": "VIVACOM \u0422\u044a\u0440\u0433\u043e\u0432\u0438\u0449\u0435, \u0443\u043b. \u0412\u0435\u043b\u0438\u043a\u043e \u0422\u044a\u0440\u043d\u043e\u0432\u043e 2", "phone": "060166075", "opening_hours": "Mo-Fr 09:00-19:00", "brand": "Vivacom", "brand:wikidata": "Q7937522", "nsi_id": "vivacom-5ceaa9"}, "geometry": {"type": "Point", "coordinates": [26.56913, 43.25034]}},
{"type": "Feature", "id": "ovxnfprYfd6C-NAUATJ_9tOGU2g=", "properties": {"ref": "154", "@spider": "vivacom_bg", "brand:bg": "\u0412\u0438\u0432\u0430\u043a\u043e\u043c", "brand:en": "Vivacom", "name:bg": "\u0412\u0438\u0432\u0430\u043a\u043e\u043c", "name:en": "Vivacom", "shop": "telecommunication", "addr:country": "BG", "name": "VIVACOM \u0411\u0435\u0440\u043a\u043e\u0432\u0438\u0446\u0430, \u0443\u043b. \u041d\u0438\u043a\u043e\u043b\u0430\u0435\u0432\u0441\u043a\u0430 4", "phone": "095388622", "opening_hours": "Mo-Fr 09:00-18:00", "brand": "Vivacom", "brand:wikidata": "Q7937522", "nsi_id": "vivacom-5ceaa9"}, "geometry": {"type": "Point", "coordinates": [23.1256250786, 43.2378049667]}},
{"type": "Feature", "id": "gcRmo8CZuV8ZlyjVaonuJHX_2R4=", "properties": {"ref": "155", "@spider": "vivacom_bg", "brand:bg": "\u0412\u0438\u0432\u0430\u043a\u043e\u043c", "brand:en": "Vivacom", "name:bg": "\u0412\u0438\u0432\u0430\u043a\u043e\u043c", "name:en": "Vivacom", "shop": "telecommunication", "addr:country": "BG", "name": "VIVACOM \u0412\u0438\u0434\u0438\u043d, \u0431\u0443\u043b. \u041f\u0430\u043d\u043e\u043d\u0438\u044f 41, \u0445\u0438\u043f\u0435\u0440\u043c\u0430\u0440\u043a\u0435\u0442 \u041a\u0430\u0443\u0444\u043b\u0430\u043d\u0434", "phone": "094600310", "opening_hours": "Mo-Sa 08:00-20:00; Su 08:00-20:00", "brand": "Vivacom", "brand:wikidata": "Q7937522", "nsi_id": "vivacom-5ceaa9"}, "geometry": {"type": "Point", "coordinates": [22.869756819, 43.9999015421]}},
{"type": "Feature", "id": "C-iO3tkI-d00fOGCV11bBzbppgE=", "properties": {"ref": "156", "@spider": "vivacom_bg", "brand:bg": "\u0412\u0438\u0432\u0430\u043a\u043e\u043c", "brand:en": "Vivacom", "name:bg": "\u0412\u0438\u0432\u0430\u043a\u043e\u043c", "name:en": "Vivacom", "shop": "telecommunication", "addr:country": "BG", "name": "VIVACOM \u0413\u0430\u0431\u0440\u043e\u0432\u043e, \u0431\u0443\u043b. \u041c\u043e\u0433\u0438\u043b\u044c\u043e\u0432 47, \u041c\u043e\u043b \u0422\u0435\u0440\u0440\u0430", "phone": "066800032", "opening_hours": "Mo-Su 10:00-20:00", "brand": "Vivacom", "brand:wikidata": "Q7937522", "nsi_id": "vivacom-5ceaa9"}, "geometry": {"type": "Point", "coordinates": [25.312925623, 42.887012962]}},
{"type": "Feature", "id": "oPMu-x-UsQibQS6xDUG3ZR_3NGA=", "properties": {"ref": "157", "@spider": "vivacom_bg", "brand:bg": "\u0412\u0438\u0432\u0430\u043a\u043e\u043c", "brand:en": "Vivacom", "name:bg": "\u0412\u0438\u0432\u0430\u043a\u043e\u043c", "name:en": "Vivacom", "shop": "telecommunication", "addr:country": "BG", "name": "VIVACOM \u041f\u0435\u0440\u043d\u0438\u043a, \u043a\u0432. \u0418\u0437\u0442\u043e\u043a, \u0443\u043b. \u041b\u0435\u043d\u0438\u043d\u0441\u043a\u0438 \u043f\u0440\u043e\u0441\u043f\u0435\u043a\u0442 17", "phone": "076671012", "opening_hours": "Mo-Fr 09:00-18:00", "brand": "Vivacom", "brand:wikidata": "Q7937522", "nsi_id": "vivacom-5ceaa9"}, "geometry": {"type": "Point", "coordinates": [23.0994799106, 42.6094931789]}},
{"type": "Feature", "id": "N3rYEOTDa3o04YEh_YmPGf9uNfo=", "properties": {"ref": "158", "@spider": "vivacom_bg", "brand:bg": "\u0412\u0438\u0432\u0430\u043a\u043e\u043c", "brand:en": "Vivacom", "name:bg": "\u0412\u0438\u0432\u0430\u043a\u043e\u043c", "name:en": "Vivacom", "shop": "telecommunication", "addr:country": "BG", "name": "VIVACOM \u041a\u0430\u0437\u0430\u043d\u043b\u044a\u043a, \u0431\u0443\u043b. \u0410\u043b. \u0411\u0430\u0442\u0435\u043d\u0431\u0435\u0440\u0433 1, \u0422\u044a\u0440\u0433. \u043a\u043e\u043c\u043f\u043b\u0435\u043a\u0441 \u0413\u0423\u041c, \u0442\u044a\u0440\u0433. \u043e\u0431\u0435\u043a\u0442\u0438 No 12 \u0438 14", "phone": "043162011", "opening_hours": "Mo-Fr 09:00-19:00; Sa 10:00-17:00", "brand": "Vivacom", "brand:wikidata": "Q7937522", "nsi_id": "vivacom-5ceaa9"}, "geometry": {"type": "Point", "coordinates": [25.39412, 42.61855]}},
{"type": "Feature", "id": "QB--QVDg9ux3qFoS_L2CRF3kLeg=", "properties": {"ref": "159", "@spider": "vivacom_bg", "brand:bg": "\u0412\u0438\u0432\u0430\u043a\u043e\u043c", "brand:en": "Vivacom", "name:bg": "\u0412\u0438\u0432\u0430\u043a\u043e\u043c", "name:en": "Vivacom", "shop": "telecommunication", "addr:country": "BG", "name": "VIVACOM \u041d\u0435\u0441\u0435\u0431\u044a\u0440, \u0443\u043b. \u0425\u0430\u043d \u041a\u0440\u0443\u043c 29", "phone": "055444470", "opening_hours": "Mo-Fr 09:00-19:00", "brand": "Vivacom", "brand:wikidata": "Q7937522", "nsi_id": "vivacom-5ceaa9"}, "geometry": {"type": "Point", "coordinates": [27.71539, 42.66425]}},
{"type": "Feature", "id": "fgkZosTbuZgsfKTTvpOayQjec00=", "properties": {"ref": "161", "@spider": "vivacom_bg", "brand:bg": "\u0412\u0438\u0432\u0430\u043a\u043e\u043c", "brand:en": "Vivacom", "name:bg": "\u0412\u0438\u0432\u0430\u043a\u043e\u043c", "name:en": "Vivacom", "shop": "telecommunication", "addr:country": "BG", "name": "VIVACOM \u0422\u0440\u044f\u0432\u043d\u0430, \u0443\u043b. \u0410\u043d\u0433\u0435\u043b \u041a\u044a\u043d\u0447\u0435\u0432 50", "phone": "067762299", "opening_hours": "Mo-Fr 09:00-18:00", "brand": "Vivacom", "brand:wikidata": "Q7937522", "nsi_id": "vivacom-5ceaa9"}, "geometry": {"type": "Point", "coordinates": [25.492563, 42.867115]}},
{"type": "Feature", "id": "0nQ2-psZE8DOHdl2Gw0BGGxia0A=", "properties": {"ref": "162", "@spider": "vivacom_bg", "brand:bg": "\u0412\u0438\u0432\u0430\u043a\u043e\u043c", "brand:en": "Vivacom", "name:bg": "\u0412\u0438\u0432\u0430\u043a\u043e\u043c", "name:en": "Vivacom", "shop": "telecommunication", "addr:country": "BG", "name": "VIVACOM \u041b\u043e\u043c, \u0443\u043b.\u0421\u043b\u0430\u0432\u044f\u043d\u0441\u043a\u0430 7\u0412", "phone": "097161311", "opening_hours": "Mo-Fr 09:00-19:00", "brand": "Vivacom", "brand:wikidata": "Q7937522", "nsi_id": "vivacom-5ceaa9"}, "geometry": {"type": "Point", "coordinates": [23.23843, 43.81897]}},
{"type": "Feature", "id": "h9k15pV1uskKLRahu8o_vk7lCyI=", "properties": {"ref": "164", "@spider": "vivacom_bg", "brand:bg": "\u0412\u0438\u0432\u0430\u043a\u043e\u043c", "brand:en": "Vivacom", "name:bg": "\u0412\u0438\u0432\u0430\u043a\u043e\u043c", "name:en": "Vivacom", "shop": "telecommunication", "addr:country": "BG", "name": "VIVACOM \u041f\u0438\u0440\u0434\u043e\u043f, \u0443\u043b. \u0426\u0430\u0440 \u041e\u0441\u0432\u043e\u0431\u043e\u0434\u0438\u0442\u0435\u043b \u0431\u043b. \u04112", "phone": "071815810", "opening_hours": "Mo-Fr 09:00-19:00", "brand": "Vivacom", "brand:wikidata": "Q7937522", "nsi_id": "vivacom-5ceaa9"}, "geometry": {"type": "Point", "coordinates": [24.17828, 42.69979]}},
{"type": "Feature", "id": "phbXzbER7iGCFyBrVRpNUFcndW0=", "properties": {"ref": "165", "@spider": "vivacom_bg", "brand:bg": "\u0412\u0438\u0432\u0430\u043a\u043e\u043c", "brand:en": "Vivacom", "name:bg": "\u0412\u0438\u0432\u0430\u043a\u043e\u043c", "name:en": "Vivacom", "shop": "telecommunication", "addr:country": "BG", "name": "VIVACOM \u0413\u043e\u0446\u0435 \u0414\u0435\u043b\u0447\u0435\u0432, \u0443\u043b. \u041a\u0430\u0432\u0430\u043b\u0430 1", "phone": "075160400", "opening_hours": "Mo-Fr 09:00-19:00; Sa 10:00-17:00", "brand": "Vivacom", "brand:wikidata": "Q7937522", "nsi_id": "vivacom-5ceaa9"}, "geometry": {"type": "Point", "coordinates": [23.7286582225, 41.5710794647]}},
{"type": "Feature", "id": "HjtxRbWeOJcUMAz0wU0sS_LGx9c=", "properties": {"ref": "166", "@spider": "vivacom_bg", "brand:bg": "\u0412\u0438\u0432\u0430\u043a\u043e\u043c", "brand:en": "Vivacom", "name:bg": "\u0412\u0438\u0432\u0430\u043a\u043e\u043c", "name:en": "Vivacom", "shop": "telecommunication", "addr:country": "BG", "name": "VIVACOM \u0412\u0430\u0440\u043d\u0430, \u0431\u0443\u043b. \u041a\u043d\u044f\u0437 \u0411\u043e\u0440\u0438\u0441 1,\u211613", "phone": "052603334", "opening_hours": "Mo-Fr 09:00-19:30", "brand": "Vivacom", "brand:wikidata": "Q7937522", "nsi_id": "vivacom-5ceaa9"}, "geometry": {"type": "Point", "coordinates": [27.91542917, 43.2035741252]}},
{"type": "Feature", "id": "NEmAbRZk1JUoeaYFTvNBB--UUsI=", "properties": {"ref": "167", "@spider": "vivacom_bg", "brand:bg": "\u0412\u0438\u0432\u0430\u043a\u043e\u043c", "brand:en": "Vivacom", "name:bg": "\u0412\u0438\u0432\u0430\u043a\u043e\u043c", "name:en": "Vivacom", "shop": "telecommunication", "addr:country": "BG", "name": "VIVACOM \u0412\u0430\u0440\u043d\u0430, \u043a\u0432. \u0410\u0441\u043f\u0430\u0440\u0443\u0445\u043e\u0432\u043e \u0443\u043b. \u0421\u0432.\u0421\u0432. \u041a\u0438\u0440\u0438\u043b \u0438 \u041c\u0435\u0442\u043e\u0434\u0438\u0439 41", "phone": "052370105", "opening_hours": "Mo-Fr 09:00-18:00", "brand": "Vivacom", "brand:wikidata": "Q7937522", "nsi_id": "vivacom-5ceaa9"}, "geometry": {"type": "Point", "coordinates": [27.89795, 43.1805]}},
{"type": "Feature", "id": "3pB2eVQv1g9XwbWi1QdzRUeW85M=", "properties": {"ref": "168", "@spider": "vivacom_bg", "brand:bg": "\u0412\u0438\u0432\u0430\u043a\u043e\u043c", "brand:en": "Vivacom", "name:bg": "\u0412\u0438\u0432\u0430\u043a\u043e\u043c", "name:en": "Vivacom", "shop": "telecommunication", "addr:country": "BG", "name": "VIVACOM \u0420\u0443\u0441\u0435, \u0431\u0443\u043b. \u041b\u0438\u043f\u043d\u0438\u043a 121, \u041c\u043e\u043b \u0420\u0443\u0441\u0435", "phone": "082890404", "opening_hours": "Mo-Su 10:30-20:00", "brand": "Vivacom", "brand:wikidata": "Q7937522", "nsi_id": "vivacom-5ceaa9"}, "geometry": {"type": "Point", "coordinates": [25.9887328, 43.8520269]}},
{"type": "Feature", "id": "hNHXX0zgRilLj5YunJZt8ZxO4ds=", "properties": {"ref": "169", "@spider": "vivacom_bg", "brand:bg": "\u0412\u0438\u0432\u0430\u043a\u043e\u043c", "brand:en": "Vivacom", "name:bg": "\u0412\u0438\u0432\u0430\u043a\u043e\u043c", "name:en": "Vivacom", "shop": "telecommunication", "addr:country": "BG", "name": "VIVACOM \u041f\u044a\u0440\u0432\u043e\u043c\u0430\u0439, \u0443\u043b. \u0414\u0438\u043c\u0438\u0442\u044a\u0440 \u0411\u043b\u0430\u0433\u043e\u0435\u0432 1", "phone": "033662018", "opening_hours": "Mo-Fr 09:00-18:00", "brand": "Vivacom", "brand:wikidata": "Q7937522", "nsi_id": "vivacom-5ceaa9"}, "geometry": {"type": "Point", "coordinates": [25.2233049807, 42.0996336083]}},
{"type": "Feature", "id": "yqr-J-HILpd90G50raBWb6F8-8M=", "properties": {"ref": "170", "@spider": "vivacom_bg", "brand:bg": "\u0412\u0438\u0432\u0430\u043a\u043e\u043c", "brand:en": "Vivacom", "name:bg": "\u0412\u0438\u0432\u0430\u043a\u043e\u043c", "name:en": "Vivacom", "shop": "telecommunication", "addr:country": "BG", "name": "VIVACOM \u041f\u0430\u043d\u0430\u0433\u044e\u0440\u0438\u0449\u0435, \u0443\u043b. \u0413\u0435\u043e\u0440\u0433\u0438 \u0411\u0435\u043d\u043a\u043e\u0432\u0441\u043a\u0438 6", "phone": "035761912", "opening_hours": "Mo-Fr 09:00-19:00", "brand": "Vivacom", "brand:wikidata": "Q7937522", "nsi_id": "vivacom-5ceaa9"}, "geometry": {"type": "Point", "coordinates": [24.1878902225, 42.5026426917]}},
{"type": "Feature", "id": "0bmG2UJgT1JChuBlcRhjmO44ZbM=", "properties": {"ref": "172", "@spider": "vivacom_bg", "brand:bg": "\u0412\u0438\u0432\u0430\u043a\u043e\u043c", "brand:en": "Vivacom", "name:bg": "\u0412\u0438\u0432\u0430\u043a\u043e\u043c", "name:en": "Vivacom", "shop": "telecommunication", "addr:country": "BG", "name": "VIVACOM \u041a\u044e\u0441\u0442\u0435\u043d\u0434\u0438\u043b, \u0443\u043b. \u0414\u0435\u043c\u043e\u043a\u0440\u0430\u0446\u0438\u044f 47", "phone": "078520610", "opening_hours": "Mo-Fr 09:00-19:00", "brand": "Vivacom", "brand:wikidata": "Q7937522", "nsi_id": "vivacom-5ceaa9"}, "geometry": {"type": "Point", "coordinates": [22.68983, 42.2805]}},
{"type": "Feature", "id": "qzhtBqxccswZZEGjRBDwrxeRZ7w=", "properties": {"ref": "173", "@spider": "vivacom_bg", "brand:bg": "\u0412\u0438\u0432\u0430\u043a\u043e\u043c", "brand:en": "Vivacom", "name:bg": "\u0412\u0438\u0432\u0430\u043a\u043e\u043c", "name:en": "Vivacom", "shop": "telecommunication", "addr:country": "BG", "name": "VIVACOM \u0421\u0442\u0430\u043c\u0431\u043e\u043b\u0438\u0439\u0441\u043a\u0438, \u0431\u0443\u043b. \u0422\u044a\u0440\u0433\u043e\u0432\u0441\u043a\u0438 60", "phone": "033961013", "opening_hours": "Mo-Fr 09:00-18:00", "brand": "Vivacom", "brand:wikidata": "Q7937522", "nsi_id": "vivacom-5ceaa9"}, "geometry": {"type": "Point", "coordinates": [24.5332324234, 42.13248153]}},
{"type": "Feature", "id": "L7RqjlLsivFoD5U4J-7A2Bt9uGg=", "properties": {"ref": "174", "@spider": "vivacom_bg", "brand:bg": "\u0412\u0438\u0432\u0430\u043a\u043e\u043c", "brand:en": "Vivacom", "name:bg": "\u0412\u0438\u0432\u0430\u043a\u043e\u043c", "name:en": "Vivacom", "shop": "telecommunication", "addr:country": "BG", "name": "VIVACOM \u041a\u0440\u0443\u043c\u043e\u0432\u0433\u0440\u0430\u0434, \u0443\u043b. \u0421\u044a\u0435\u0434\u0438\u043d\u0435\u043d\u0438\u0435 8", "phone": "036412512", "opening_hours": "Mo-Fr 09:00-18:00", "brand": "Vivacom", "brand:wikidata": "Q7937522", "nsi_id": "vivacom-5ceaa9"}, "geometry": {"type": "Point", "coordinates": [25.65465, 41.46953]}},
{"type": "Feature", "id": "IPCP6fggb_IZcpLkHbNeeIKvRSE=", "properties": {"ref": "175", "@spider": "vivacom_bg", "brand:bg": "\u0412\u0438\u0432\u0430\u043a\u043e\u043c", "brand:en": "Vivacom", "name:bg": "\u0412\u0438\u0432\u0430\u043a\u043e\u043c", "name:en": "Vivacom", "shop": "telecommunication", "addr:country": "BG", "name": "VIVACOM \u041b\u0435\u0432\u0441\u043a\u0438, \u0443\u043b. \u0410\u043b. \u0421\u0442\u0430\u043c\u0431\u043e\u043b\u0438\u0439\u0441\u043a\u0438 \u0431\u043b. \u041b\u044e\u043b\u044f\u043a 3", "phone": "065080000", "opening_hours": "Mo-Fr 09:00-18:00", "brand": "Vivacom", "brand:wikidata": "Q7937522", "nsi_id": "vivacom-5ceaa9"}, "geometry": {"type": "Point", "coordinates": [25.13986234, 43.3545704917]}},
{"type": "Feature", "id": "Qh40ia2rH9oKLOlZ4szhR1Dv7cU=", "properties": {"ref": "176", "@spider": "vivacom_bg", "brand:bg": "\u0412\u0438\u0432\u0430\u043a\u043e\u043c", "brand:en": "Vivacom", "name:bg": "\u0412\u0438\u0432\u0430\u043a\u043e\u043c", "name:en": "Vivacom", "shop": "telecommunication", "addr:country": "BG", "name": "VIVACOM \u041a\u043e\u0441\u0442\u0438\u043d\u0431\u0440\u043e\u0434, \u0443\u043b \u201e\u041b\u043e\u043c\u0441\u043a\u043e \u0448\u043e\u0441\u0435\u201c 26, \u0422\u044a\u0440\u0433\u043e\u0432\u0441\u043a\u0438 \u0446\u0435\u043d\u0442\u044a\u0440 \u201e\u0420\u0435\u0437\u043e\u043d\u0430\u043d\u0441\u201c", "phone": "072161053", "opening_hours": "Mo-Fr 09:00-18:00", "brand": "Vivacom", "brand:wikidata": "Q7937522", "nsi_id": "vivacom-5ceaa9"}, "geometry": {"type": "Point", "coordinates": [23.2167876, 42.8105558]}},
{"type": "Feature", "id": "CVB2kTNjbFb0Ek33XdgD_fH9RAE=", "properties": {"ref": "179", "@spider": "vivacom_bg", "brand:bg": "\u0412\u0438\u0432\u0430\u043a\u043e\u043c", "brand:en": "Vivacom", "name:bg": "\u0412\u0438\u0432\u0430\u043a\u043e\u043c", "name:en": "Vivacom", "shop": "telecommunication", "addr:country": "BG", "name": "VIVACOM \u041a\u043e\u0442\u0435\u043b, \u0443\u043b. \u0418\u0437\u0432\u043e\u0440\u0441\u043a\u0430 4", "phone": "045342029", "opening_hours": "Mo-Fr 09:00-18:00", "brand": "Vivacom", "brand:wikidata": "Q7937522", "nsi_id": "vivacom-5ceaa9"}, "geometry": {"type": "Point", "coordinates": [26.44496872, 42.889508075]}},
{"type": "Feature", "id": "HfRy1i5VA-6rKD9XwFUHVvAYpHU=", "properties": {"ref": "180", "@spider": "vivacom_bg", "brand:bg": "\u0412\u0438\u0432\u0430\u043a\u043e\u043c", "brand:en": "Vivacom", "name:bg": "\u0412\u0438\u0432\u0430\u043a\u043e\u043c", "name:en": "Vivacom", "shop": "telecommunication", "addr:country": "BG", "name": "VIVACOM \u0410\u0439\u0442\u043e\u0441, \u0443\u043b. \u0426\u0430\u0440 \u041e\u0441\u0432\u043e\u0431\u043e\u0434\u0438\u0442\u0435\u043b 11", "phone": "055826100", "opening_hours": "Mo-Fr 09:00-19:00", "brand": "Vivacom", "brand:wikidata": "Q7937522", "nsi_id": "vivacom-5ceaa9"}, "geometry": {"type": "Point", "coordinates": [27.25159, 42.70422]}},
{"type": "Feature", "id": "zjiXW3glsgKHnYMIK7bENYa3WPE=", "properties": {"ref": "181", "@spider": "vivacom_bg", "brand:bg": "\u0412\u0438\u0432\u0430\u043a\u043e\u043c", "brand:en": "Vivacom", "name:bg": "\u0412\u0438\u0432\u0430\u043a\u043e\u043c", "name:en": "Vivacom", "shop": "telecommunication", "addr:country": "BG", "name": "VIVACOM \u041e\u043c\u0443\u0440\u0442\u0430\u0433, \u043f\u043b. \u041d\u0435\u0437\u0430\u0432\u0438\u0441\u0438\u043c\u043e\u0441\u0442 2", "phone": "060562094", "opening_hours": "Mo-Fr 09:00-18:00", "brand": "Vivacom", "brand:wikidata": "Q7937522", "nsi_id": "vivacom-5ceaa9"}, "geometry": {"type": "Point", "coordinates": [26.41881, 43.10785]}},
{"type": "Feature", "id": "0x5vSZp6Ano1kPOT_DF4rj4UrPk=", "properties": {"ref": "182", "@spider": "vivacom_bg", "brand:bg": "\u0412\u0438\u0432\u0430\u043a\u043e\u043c", "brand:en": "Vivacom", "name:bg": "\u0412\u0438\u0432\u0430\u043a\u043e\u043c", "name:en": "Vivacom", "shop": "telecommunication", "addr:country": "BG", "name": "VIVACOM \u041a\u0443\u0431\u0440\u0430\u0442, \u043f\u043b. \u0412\u044a\u0437\u0440\u0430\u0436\u0434\u0430\u043d\u0435 2", "phone": "084872019", "opening_hours": "Mo-Fr 09:00-18:00", "brand": "Vivacom", "brand:wikidata": "Q7937522", "nsi_id": "vivacom-5ceaa9"}, "geometry": {"type": "Point", "coordinates": [26.5001532464, 43.7975989083]}},
{"type": "Feature", "id": "3aA4Z8KXl0l9Y8BjBn8BjBXOlJA=", "properties": {"ref": "227", "@spider": "vivacom_bg", "brand:bg": "\u0412\u0438\u0432\u0430\u043a\u043e\u043c", "brand:en": "Vivacom", "name:bg": "\u0412\u0438\u0432\u0430\u043a\u043e\u043c", "name:en": "Vivacom", "shop": "telecommunication", "addr:country": "BG", "name": "VIVACOM \u0421\u0442\u0430\u0440\u0430 \u0417\u0430\u0433\u043e\u0440\u0430, \u0443\u043b. \u201e\u0425\u0430\u043d \u0410\u0441\u043f\u0430\u0440\u0443\u0445\u201d 30, \u041c\u041e\u041b \u0413\u0430\u043b\u0435\u0440\u0438\u044f", "phone": "042230361", "opening_hours": "Mo-Su 10:00-20:00", "brand": "Vivacom", "brand:wikidata": "Q7937522", "nsi_id": "vivacom-5ceaa9"}, "geometry": {"type": "Point", "coordinates": [25.6319753163, 42.4378125667]}},
{"type": "Feature", "id": "3w8DP037R8GAk6rl38eRTLA8ot4=", "properties": {"ref": "229", "@spider": "vivacom_bg", "brand:bg": "\u0412\u0438\u0432\u0430\u043a\u043e\u043c", "brand:en": "Vivacom", "name:bg": "\u0412\u0438\u0432\u0430\u043a\u043e\u043c", "name:en": "Vivacom", "shop": "telecommunication", "addr:country": "BG", "name": "VIVACOM \u0414\u043e\u043b\u043d\u0438 \u0427\u0438\u0444\u043b\u0438\u043a, \u0443\u043b. \u0422\u0438\u0447\u0430 6", "phone": "051422075", "opening_hours": "Mo-Fr 09:00-18:00", "brand": "Vivacom", "brand:wikidata": "Q7937522", "nsi_id": "vivacom-5ceaa9"}, "geometry": {"type": "Point", "coordinates": [27.7193372654, 42.9924020981]}},
{"type": "Feature", "id": "By6PNxarfnQe2nPC-kGhnKqOAEc=", "properties": {"ref": "230", "@spider": "vivacom_bg", "brand:bg": "\u0412\u0438\u0432\u0430\u043a\u043e\u043c", "brand:en": "Vivacom", "name:bg": "\u0412\u0438\u0432\u0430\u043a\u043e\u043c", "name:en": "Vivacom", "shop": "telecommunication", "addr:country": "BG", "name": "VIVACOM \u0421\u043e\u0444\u0438\u044f, \u041c\u041e\u041b \u041f\u0430\u0440\u0430\u0434\u0430\u0439\u0437 \u0426\u0435\u043d\u0442\u044a\u0440, \u0431\u0443\u043b. \u0427\u0435\u0440\u043d\u0438 \u0432\u0440\u044a\u0445 100", "phone": "029950001", "opening_hours": "Mo-Su 10:00-21:00", "brand": "Vivacom", "brand:wikidata": "Q7937522", "nsi_id": "vivacom-5ceaa9"}, "geometry": {"type": "Point", "coordinates": [23.31576, 42.65802]}},
{"type": "Feature", "id": "s7MkCxnkjOG8-EafzEbFqtgRY8M=", "properties": {"ref": "231", "@spider": "vivacom_bg", "brand:bg": "\u0412\u0438\u0432\u0430\u043a\u043e\u043c", "brand:en": "Vivacom", "name:bg": "\u0412\u0438\u0432\u0430\u043a\u043e\u043c", "name:en": "Vivacom", "shop": "telecommunication", "addr:country": "BG", "name": "VIVACOM \u041f\u043b\u043e\u0432\u0434\u0438\u0432, \u0443\u043b. \u0418\u0432\u0430\u043d \u0412\u0430\u0437\u043e\u0432 61", "phone": "032260877", "opening_hours": "Mo-Fr 09:00-18:00", "brand": "Vivacom", "brand:wikidata": "Q7937522", "nsi_id": "vivacom-5ceaa9"}, "geometry": {"type": "Point", "coordinates": [24.7428717908, 42.1356403]}},
{"type": "Feature", "id": "HErOu0-PZuewosBJM4zJAAqGJvU=", "properties": {"ref": "232", "@spider": "vivacom_bg", "brand:bg": "\u0412\u0438\u0432\u0430\u043a\u043e\u043c", "brand:en": "Vivacom", "name:bg": "\u0412\u0438\u0432\u0430\u043a\u043e\u043c", "name:en": "Vivacom", "shop": "telecommunication", "addr:country": "BG", "name": "VIVACOM \u0421\u043e\u0444\u0438\u044f, \u0436.\u043a. \u041c\u043b\u0430\u0434\u043e\u0441\u0442 4, \u0411\u0438\u0437\u043d\u0435\u0441 \u041f\u0430\u0440\u043a \u0421\u043e\u0444\u0438\u044f \u0431\u043b. 10", "phone": "029742000", "opening_hours": "Mo-Fr 09:00-19:00", "brand": "Vivacom", "brand:wikidata": "Q7937522", "nsi_id": "vivacom-5ceaa9"}, "geometry": {"type": "Point", "coordinates": [23.3766569627, 42.6260969154]}},
{"type": "Feature", "id": "LS0JRJ4sWuDyg5hKxqHE_MDteF0=", "properties": {"ref": "234", "@spider": "vivacom_bg", "brand:bg": "\u0412\u0438\u0432\u0430\u043a\u043e\u043c", "brand:en": "Vivacom", "name:bg": "\u0412\u0438\u0432\u0430\u043a\u043e\u043c", "name:en": "Vivacom", "shop": "telecommunication", "addr:country": "BG", "name": "VIVACOM \u041f\u043b\u043e\u0432\u0434\u0438\u0432, \u0431\u0443\u043b. \u0412. \u0410\u043f\u0440\u0438\u043b\u043e\u0432 86", "phone": "032941255", "opening_hours": "Mo-Fr 09:00-18:30", "brand": "Vivacom", "brand:wikidata": "Q7937522", "nsi_id": "vivacom-5ceaa9"}, "geometry": {"type": "Point", "coordinates": [24.7316818408, 42.1457014674]}},
{"type": "Feature", "id": "B-ASQyvXDdtPvjxmPhqiM-iORQE=", "properties": {"ref": "235", "@spider": "vivacom_bg", "brand:bg": "\u0412\u0438\u0432\u0430\u043a\u043e\u043c", "brand:en": "Vivacom", "name:bg": "\u0412\u0438\u0432\u0430\u043a\u043e\u043c", "name:en": "Vivacom", "shop": "telecommunication", "addr:country": "BG", "name": "VIVACOM \u041f\u043b\u043e\u0432\u0434\u0438\u0432, \u0443\u043b. 6-\u0442\u0438 \u0441\u0435\u043f\u0442\u0435\u043c\u0432\u0440\u0438 \u2116150", "phone": "032660170", "opening_hours": "Mo-Fr 09:00-19:00", "brand": "Vivacom", "brand:wikidata": "Q7937522", "nsi_id": "vivacom-5ceaa9"}, "geometry": {"type": "Point", "coordinates": [24.7456486, 42.1509417]}},
{"type": "Feature", "id": "bgxqnUOSW1WM7mq9hVzOwNTf3z0=", "properties": {"ref": "520", "@spider": "vivacom_bg", "brand:bg": "\u0412\u0438\u0432\u0430\u043a\u043e\u043c", "brand:en": "Vivacom", "name:bg": "\u0412\u0438\u0432\u0430\u043a\u043e\u043c", "name:en": "Vivacom", "shop": "telecommunication", "addr:country": "BG", "name": "VIVACOM \u0421\u043e\u0444\u0438\u044f, \u043c-\u043d \u0424\u0430\u043d\u0442\u0430\u0441\u0442\u0438\u043a\u043e, \u0431\u0443\u043b. \u0421\u043b\u0438\u0432\u043d\u0438\u0446\u0430 \u0438 \u0443\u043b. \u0427\u0430\u0432\u0434\u0430\u0440\u0438\u0446\u0430", "phone": "028210455", "opening_hours": "Mo-Fr 09:00-19:00", "brand": "Vivacom", "brand:wikidata": "Q7937522", "nsi_id": "vivacom-5ceaa9"}, "geometry": {"type": "Point", "coordinates": [23.291963268262, 42.710182801286]}},
{"type": "Feature", "id": "W-hgH6_AS7gnbIJwDGVQNJRQE_k=", "properties": {"ref": "540", "@spider": "vivacom_bg", "brand:bg": "\u0412\u0438\u0432\u0430\u043a\u043e\u043c", "brand:en": "Vivacom", "name:bg": "\u0412\u0438\u0432\u0430\u043a\u043e\u043c", "name:en": "Vivacom", "shop": "telecommunication", "addr:country": "BG", "name": "VIVACOM - \u0421\u043e\u0444\u0438\u044f, \u0431\u0443\u043b. \u0426\u0430\u0440\u0438\u0433\u0440\u0430\u0434\u0441\u043a\u043e \u0448\u043e\u0441\u0435 20, \u0431\u043b. 10", "phone": "02 / 9676 515", "opening_hours": "Mo-Fr 09:00-19:30", "brand": "Vivacom", "brand:wikidata": "Q7937522", "nsi_id": "vivacom-5ceaa9"}, "geometry": {"type": "Point", "coordinates": [23.358571734918, 42.674791850556]}},
{"type": "Feature", "id": "70F_9P8zNp5e1EzS7e_nr63-4tc=", "properties": {"ref": "560", "@spider": "vivacom_bg", "brand:bg": "\u0412\u0438\u0432\u0430\u043a\u043e\u043c", "brand:en": "Vivacom", "name:bg": "\u0412\u0438\u0432\u0430\u043a\u043e\u043c", "name:en": "Vivacom", "shop": "telecommunication", "addr:country": "BG", "name": "VIVACOM \u0421\u043e\u0444\u0438\u044f, \u041e\u043a\u043e\u043b\u043e\u0432\u0440\u044a\u0441\u0442\u0435\u043d \u043f\u044a\u0442 216, \u0420\u0438\u043d\u0433 \u041c\u041e\u041b", "phone": "28622799", "opening_hours": "Mo-Su 10:00-21:00", "brand": "Vivacom", "brand:wikidata": "Q7937522", "nsi_id": "vivacom-5ceaa9"}, "geometry": {"type": "Point", "coordinates": [23.3525568, 42.6242974]}},
{"type": "Feature", "id": "ahRdFZkx-7leLS_vqFtRoIBe_gc=", "properties": {"ref": "620", "@spider": "vivacom_bg", "brand:bg": "\u0412\u0438\u0432\u0430\u043a\u043e\u043c", "brand:en": "Vivacom", "name:bg": "\u0412\u0438\u0432\u0430\u043a\u043e\u043c", "name:en": "Vivacom", "shop": "telecommunication", "addr:country": "BG", "name": "VIVACOM \u041f\u0430\u0432\u043b\u0438\u043a\u0435\u043d\u0438, \u043f\u043b. \u0421\u0432\u043e\u0431\u043e\u0434\u0430 37", "phone": "061052102", "opening_hours": "Mo-Fr 09:00-19:00", "brand": "Vivacom", "brand:wikidata": "Q7937522", "nsi_id": "vivacom-5ceaa9"}, "geometry": {"type": "Point", "coordinates": [25.3065925, 43.2387332]}},
{"type": "Feature", "id": "JPvZykyJqr6bJ_yfDQt6WwgKsYk=", "properties": {"ref": "740", "@spider": "vivacom_bg", "brand:bg": "\u0412\u0438\u0432\u0430\u043a\u043e\u043c", "brand:en": "Vivacom", "name:bg": "\u0412\u0438\u0432\u0430\u043a\u043e\u043c", "name:en": "Vivacom", "shop": "telecommunication", "addr:country": "BG", "name": "VIVACOM \u0410\u043a\u0441\u0430\u043a\u043e\u0432\u043e, \u0443\u043b. \u041f\u0435\u0442\u043a\u043e \u0412\u043e\u0439\u0432\u043e\u0434\u0430 \u21162\u0412 - \u0442\u044a\u0440\u0433. \u0426\u0435\u043d\u0442\u044a\u0440", "phone": "052762061", "opening_hours": "Mo-Fr 09:00-19:00", "brand": "Vivacom", "brand:wikidata": "Q7937522", "nsi_id": "vivacom-5ceaa9"}, "geometry": {"type": "Point", "coordinates": [27.8152167, 43.258294]}},
{"type": "Feature", "id": "xVyp4mGZIknnOEqo_00_A3_xadQ=", "properties": {"ref": "2363", "@spider": "vivacom_bg", "brand:bg": "\u0412\u0438\u0432\u0430\u043a\u043e\u043c", "brand:en": "Vivacom", "name:bg": "\u0412\u0438\u0432\u0430\u043a\u043e\u043c", "name:en": "Vivacom", "shop": "telecommunication", "addr:country": "BG", "name": "VIVACOM \u0412\u0435\u043b\u0438\u043a\u043e \u0422\u044a\u0440\u043d\u043e\u0432\u043e, \u0412\u0435\u043b\u0438\u043a\u043e \u0422\u044a\u0440\u043d\u043e\u0432\u043e, \u0443\u043b \u041d\u0438\u043a\u043e\u043b\u0430 \u0413\u0430\u0431\u0440\u043e\u0432\u0441\u043a\u0438  \u2116 39\u0411", "phone": "062670056", "opening_hours": "Mo-Fr 09:00-19:00; Sa 10:00-17:00", "brand": "Vivacom", "brand:wikidata": "Q7937522", "nsi_id": "vivacom-5ceaa9"}, "geometry": {"type": "Point", "coordinates": [25.620389688967, 43.073212126962]}},
{"type": "Feature", "id": "9D5qWzO1wtZvFOsos7QnZrU_MzY=", "properties": {"ref": "2360", "@spider": "vivacom_bg", "brand:bg": "\u0412\u0438\u0432\u0430\u043a\u043e\u043c", "brand:en": "Vivacom", "name:bg": "\u0412\u0438\u0432\u0430\u043a\u043e\u043c", "name:en": "Vivacom", "shop": "telecommunication", "addr:country": "BG", "name": "VIVACOM \u0411\u043b\u0430\u0433\u043e\u0435\u0432\u0433\u0440\u0430\u0434, \u0411\u043b\u0430\u0433\u043e\u0435\u0432\u0433\u0440\u0430\u0434, \u0443\u043b.\u0422\u043e\u0434\u043e\u0440 \u0410\u043b\u0435\u043a\u0441\u0430\u043d\u0434\u0440\u043e\u0432 24", "phone": "073870788", "opening_hours": "Mo-Fr 09:00-19:00; Sa 10:00-17:00", "brand": "Vivacom", "brand:wikidata": "Q7937522", "nsi_id": "vivacom-5ceaa9"}, "geometry": {"type": "Point", "coordinates": [23.099884696716, 42.019028924712]}},
{"type": "Feature", "id": "eqQJ3hRZVnmCz_ZwelqmbrvYs2s=", "properties": {"ref": "621", "@spider": "vivacom_bg", "brand:bg": "\u0412\u0438\u0432\u0430\u043a\u043e\u043c", "brand:en": "Vivacom", "name:bg": "\u0412\u0438\u0432\u0430\u043a\u043e\u043c", "name:en": "Vivacom", "shop": "telecommunication", "addr:country": "BG", "name": "VIVACOM \u0412\u0430\u0440\u043d\u0430, \u0443\u043b. \u201e\u0414\u0440\u0438\u043d\u201c \u2116 57-59, \u0431\u043b.53 ", "phone": "052602215", "opening_hours": "Mo-Fr 09:00-19:30; Sa 10:00-17:00", "brand": "Vivacom", "brand:wikidata": "Q7937522", "nsi_id": "vivacom-5ceaa9"}, "geometry": {"type": "Point", "coordinates": [27.903313, 43.2086994]}},
{"type": "Feature", "id": "kryqwqmBU5Ulbs9CSBWsgpUnRwI=", "properties": {"ref": "640", "@spider": "vivacom_bg", "brand:bg": "\u0412\u0438\u0432\u0430\u043a\u043e\u043c", "brand:en": "Vivacom", "name:bg": "\u0412\u0438\u0432\u0430\u043a\u043e\u043c", "name:en": "Vivacom", "shop": "telecommunication", "addr:country": "BG", "name": "VIVACOM \u041f\u043b\u0435\u0432\u0435\u043d, \u041f\u0430\u043d\u043e\u0440\u0430\u043c\u0430 \u041c\u041e\u041b \u043f\u043b. \u041c\u0438\u043d\u0434\u0438\u043b\u043a\u043e\u0432 \u2116 1", "phone": "064801288", "opening_hours": "Mo-Su 10:00-21:00", "brand": "Vivacom", "brand:wikidata": "Q7937522", "nsi_id": "vivacom-5ceaa9"}, "geometry": {"type": "Point", "coordinates": [24.614127874374, 43.419582767898]}},
{"type": "Feature", "id": "yUsLtcuB07dFGSnQc2vSSq105P8=", "properties": {"ref": "660", "@spider": "vivacom_bg", "brand:bg": "\u0412\u0438\u0432\u0430\u043a\u043e\u043c", "brand:en": "Vivacom", "name:bg": "\u0412\u0438\u0432\u0430\u043a\u043e\u043c", "name:en": "Vivacom", "shop": "telecommunication", "addr:country": "BG", "name": "VIVACOM \u0421\u043e\u0437\u043e\u043f\u043e\u043b, \u0443\u043b. \u0420\u0435\u043f\u0443\u0431\u043b\u0438\u043a\u0430\u043d\u0441\u043a\u0430 \u21168", "phone": "055022109", "opening_hours": "Mo-Fr 09:00-19:00", "brand": "Vivacom", "brand:wikidata": "Q7937522", "nsi_id": "vivacom-5ceaa9"}, "geometry": {"type": "Point", "coordinates": [27.69522, 42.4183111]}},
{"type": "Feature", "id": "VCrEjRD6YGLHwUDz7qLRO6Ch7zg=", "properties": {"ref": "680", "@spider": "vivacom_bg", "brand:bg": "\u0412\u0438\u0432\u0430\u043a\u043e\u043c", "brand:en": "Vivacom", "name:bg": "\u0412\u0438\u0432\u0430\u043a\u043e\u043c", "name:en": "Vivacom", "shop": "telecommunication", "addr:country": "BG", "name": "VIVACOM \u0422\u0435\u0440\u0432\u0435\u043b, \u0443\u043b. \u0425\u0430\u043d \u0410\u0441\u043f\u0430\u0440\u0443\u0445 \u2116 32", "phone": "057512005", "brand": "Vivacom", "brand:wikidata": "Q7937522", "nsi_id": "vivacom-5ceaa9"}, "geometry": {"type": "Point", "coordinates": [27.4110196, 43.7449871]}},
{"type": "Feature", "id": "OwGvzRYPzlLusfg8_Ry-gJK2QbQ=", "properties": {"ref": "741", "@spider": "vivacom_bg", "brand:bg": "\u0412\u0438\u0432\u0430\u043a\u043e\u043c", "brand:en": "Vivacom", "name:bg": "\u0412\u0438\u0432\u0430\u043a\u043e\u043c", "name:en": "Vivacom", "shop": "telecommunication", "addr:country": "BG", "name": "VIVACOM \u0420\u0443\u0441\u0435, \u043a\u0432. \u0414\u0440\u0443\u0436\u0431\u0430, \u0431\u0443\u043b. \u0425\u0440. \u0411\u043e\u0442\u0435\u0432 \u2116 38, \u041a\u0430\u0443\u0444\u043b\u0430\u043d\u0434", "phone": "082240036", "opening_hours": "Mo-Su 08:00-21:00", "brand": "Vivacom", "brand:wikidata": "Q7937522", "nsi_id": "vivacom-5ceaa9"}, "geometry": {"type": "Point", "coordinates": [25.9683769, 43.8331685]}},
{"type": "Feature", "id": "FTz_lPx4q-8trATFpgFAFr34WhM=", "properties": {"ref": "2361", "@spider": "vivacom_bg", "brand:bg": "\u0412\u0438\u0432\u0430\u043a\u043e\u043c", "brand:en": "Vivacom", "name:bg": "\u0412\u0438\u0432\u0430\u043a\u043e\u043c", "name:en": "Vivacom", "shop": "telecommunication", "addr:country": "BG", "name": "VIVACOM \u041d\u043e\u0432\u0430 \u0417\u0430\u0433\u043e\u0440\u0430, \u041d\u043e\u0432\u0430 \u0417\u0430\u0433\u043e\u0440\u0430, \u0443\u043b.\u0412\u0430\u0441\u0438\u043b \u041b\u0435\u0432\u0441\u043a\u0438 51", "phone": "045762112", "opening_hours": "Mo-Fr 09:00-19:00", "brand": "Vivacom", "brand:wikidata": "Q7937522", "nsi_id": "vivacom-5ceaa9"}, "geometry": {"type": "Point", "coordinates": [26.011894651169, 42.494741878824]}},
{"type": "Feature", "id": "z9RUzc60HF9Kt1Lay25pJl3Wscc=", "properties": {"ref": "2362", "@spider": "vivacom_bg", "brand:bg": "\u0412\u0438\u0432\u0430\u043a\u043e\u043c", "brand:en": "Vivacom", "name:bg": "\u0412\u0438\u0432\u0430\u043a\u043e\u043c", "name:en": "Vivacom", "shop": "telecommunication", "addr:country": "BG", "name": "VIVACOM \u0411\u043b\u0430\u0433\u043e\u0435\u0432\u0433\u0440\u0430\u0434, \u0411\u043e\u0442\u0435\u0432\u0433\u0440\u0430\u0434, \u043f\u043b. \u041e\u0441\u0432\u043e\u0431\u043e\u0436\u0434\u0435\u043d\u0438\u0435 5", "phone": "072366660", "opening_hours": "Mo-Fr 09:00-19:00; Sa 10:00-17:00", "brand": "Vivacom", "brand:wikidata": "Q7937522", "nsi_id": "vivacom-5ceaa9"}, "geometry": {"type": "Point", "coordinates": [23.793501370504, 42.907112801316]}},
{"type": "Feature", "id": "BeGmPEBz8O_jYDkRMg6VPLOZPPw=", "properties": {"ref": "2220", "@spider": "vivacom_bg", "brand:bg": "\u0412\u0438\u0432\u0430\u043a\u043e\u043c", "brand:en": "Vivacom", "name:bg": "\u0412\u0438\u0432\u0430\u043a\u043e\u043c", "name:en": "Vivacom", "shop": "telecommunication", "addr:country": "BG", "name": "VIVACOM \u041f\u043b\u043e\u0432\u0434\u0438\u0432, \u041f\u043b\u043e\u0432\u0434\u0438\u0432, \u0443\u043b. \u0413\u0435\u043e\u0440\u0433\u0438 \u0421\u0442\u0440\u0430\u043d\u0441\u043a\u0438 \u2116 3, \u041c\u041e\u041b \u041f\u043b\u0430\u0437\u0430", "phone": "032207340", "opening_hours": "Mo-Su 11:00-20:00", "brand": "Vivacom", "brand:wikidata": "Q7937522", "nsi_id": "vivacom-5ceaa9"}, "geometry": {"type": "Point", "coordinates": [24.78214499006, 42.144705996499]}},
{"type": "Feature", "id": "k2uqizeWBH7ySdP8Qnfw0O79OZs=", "properties": {"ref": "2140", "@spider": "vivacom_bg", "brand:bg": "\u0412\u0438\u0432\u0430\u043a\u043e\u043c", "brand:en": "Vivacom", "name:bg": "\u0412\u0438\u0432\u0430\u043a\u043e\u043c", "name:en": "Vivacom", "shop": "telecommunication", "addr:country": "BG", "name": "VIVACOM - \u0421\u043e\u0444\u0438\u044f, \u0436. \u043a. \u041d\u0430\u0434\u0435\u0436\u0434\u0430, \u0443\u043b. \u0425\u0430\u043d \u041a\u0443\u0431\u0440\u0430\u0442 61, \u041a\u0430\u0443\u0444\u043b\u0430\u043d\u0434", "phone": "028360182", "opening_hours": "Mo-Sa 08:00-21:00; Su 09:00-20:00", "brand": "Vivacom", "brand:wikidata": "Q7937522", "nsi_id": "vivacom-5ceaa9"}, "geometry": {"type": "Point", "coordinates": [23.2861464, 42.7282214]}},
{"type": "Feature", "id": "MLdMaBj8u4GllmxwjMERFwEP3m0=", "properties": {"ref": "2180", "@spider": "vivacom_bg", "brand:bg": "\u0412\u0438\u0432\u0430\u043a\u043e\u043c", "brand:en": "Vivacom", "name:bg": "\u0412\u0438\u0432\u0430\u043a\u043e\u043c", "name:en": "Vivacom", "shop": "telecommunication", "addr:country": "BG", "name": "VIVACOM \u0412\u0430\u0440\u043d\u0430, \u043a\u0432. \u0412\u0438\u043d\u0438\u0446\u0430, \u0443\u043b. \u0414\u0438\u043c\u0438\u0442\u044a\u0440 \u0421\u043e\u043b\u0443\u043d\u0441\u043a\u0438; \u0422\u0426 \u043e\u0431\u0435\u043a\u0442 4", "phone": "052589088", "opening_hours": "Mo-Fr 09:00-18:00", "brand": "Vivacom", "brand:wikidata": "Q7937522", "nsi_id": "vivacom-5ceaa9"}, "geometry": {"type": "Point", "coordinates": [27.9793236, 43.2462487]}},
{"type": "Feature", "id": "X_1ywSMVX_356UOFvr-80sr30NY=", "properties": {"ref": "2317", "@spider": "vivacom_bg", "brand:bg": "\u0412\u0438\u0432\u0430\u043a\u043e\u043c", "brand:en": "Vivacom", "name:bg": "\u0412\u0438\u0432\u0430\u043a\u043e\u043c", "name:en": "Vivacom", "shop": "telecommunication", "addr:country": "BG", "name": "VIVACOM \u0421\u043e\u0444\u0438\u044f, \u0421\u043e\u0444\u0438\u044f, \u041f\u043e\u0434\u0443\u044f\u043d\u0435 \u0443\u043b.\u0422\u043e\u0434\u043e\u0440\u0438\u043d\u0438 \u043a\u0443\u043a\u043b\u0438, \u0422.\u0426.&amp;amp;amp;quot;\u0422\u0430\u0431\u0438&amp;amp;amp;quot; ", "phone": "29454891", "opening_hours": "Mo-Fr 09:00-19:30", "brand": "Vivacom", "brand:wikidata": "Q7937522", "nsi_id": "vivacom-5ceaa9"}, "geometry": {"type": "Point", "coordinates": [23.325319, 42.696189]}},
{"type": "Feature", "id": "zHzkQ67bGZNtoU1HpvELq_HR5WQ=", "properties": {"ref": "2319", "@spider": "vivacom_bg", "brand:bg": "\u0412\u0438\u0432\u0430\u043a\u043e\u043c", "brand:en": "Vivacom", "name:bg": "\u0412\u0438\u0432\u0430\u043a\u043e\u043c", "name:en": "Vivacom", "shop": "telecommunication", "addr:country": "BG", "name": "VIVACOM \u0421\u043e\u0444\u0438\u044f, \u0421\u043e\u0444\u0438\u044f, \u0431\u0443\u043b. \u0410\u0440\u0441\u0435\u043d\u0430\u043b\u0441\u043a\u0438 2, \u041f\u0430\u0440\u043a \u0426\u0435\u043d\u0442\u044a\u0440 \u0421\u043e\u0444\u0438\u044f", "phone": "29643093", "opening_hours": "Mo-Su 10:00-21:00", "brand": "Vivacom", "brand:wikidata": "Q7937522", "nsi_id": "vivacom-5ceaa9"}, "geometry": {"type": "Point", "coordinates": [23.3202799, 42.6787145]}},
{"type": "Feature", "id": "QPObnWYS8qmy9AftCVakNcoAcdw=", "properties": {"ref": "2322", "@spider": "vivacom_bg", "brand:bg": "\u0412\u0438\u0432\u0430\u043a\u043e\u043c", "brand:en": "Vivacom", "name:bg": "\u0412\u0438\u0432\u0430\u043a\u043e\u043c", "name:en": "Vivacom", "shop": "telecommunication", "addr:country": "BG", "name": "VIVACOM \u0421\u043e\u0444\u0438\u044f, \u0421\u043e\u0444\u0438\u044f, \u0443\u043b.\u0413.\u0421.\u0420\u0430\u043a\u043e\u0432\u0441\u043a\u0438 113", "phone": "29819268", "opening_hours": "Mo-Fr 09:00-19:30", "brand": "Vivacom", "brand:wikidata": "Q7937522", "nsi_id": "vivacom-5ceaa9"}, "geometry": {"type": "Point", "coordinates": [23.2054199, 42.7599677]}},
{"type": "Feature", "id": "YUk4jgYvEz5QVctm7yfrfSBOU2A=", "properties": {"ref": "2323", "@spider": "vivacom_bg", "brand:bg": "\u0412\u0438\u0432\u0430\u043a\u043e\u043c", "brand:en": "Vivacom", "name:bg": "\u0412\u0438\u0432\u0430\u043a\u043e\u043c", "name:en": "Vivacom", "shop": "telecommunication", "addr:country": "BG", "name": "VIVACOM \u0421\u043e\u0444\u0438\u044f, \u0421\u043e\u0444\u0438\u044f, \u0436.\u043a. \u0414\u0440\u0443\u0436\u0431\u0430 1, \u0443\u043b. \u0418\u0432\u0430\u043d \u0410\u0440\u0430\u0431\u0430\u0434\u0436\u0438\u044f\u0442\u0430, \u0434\u043e \u0431\u043b. 18-\u043f\u0430\u0437\u0430\u0440\u0430", "phone": "28794028", "opening_hours": "Mo-Fr 09:00-19:30; Sa 10:00-17:00", "brand": "Vivacom", "brand:wikidata": "Q7937522", "nsi_id": "vivacom-5ceaa9"}, "geometry": {"type": "Point", "coordinates": [23.395751126522, 42.667911189391]}},
{"type": "Feature", "id": "BmBnxCiG4KggeUkp8u6jbC1OzEg=", "properties": {"ref": "2325", "@spider": "vivacom_bg", "brand:bg": "\u0412\u0438\u0432\u0430\u043a\u043e\u043c", "brand:en": "Vivacom", "name:bg": "\u0412\u0438\u0432\u0430\u043a\u043e\u043c", "name:en": "Vivacom", "shop": "telecommunication", "addr:country": "BG", "name": "VIVACOM \u0421\u043e\u0444\u0438\u044f, \u0421\u043e\u0444\u0438\u044f, \u041f\u0430\u0442\u0440\u0438\u0430\u0440\u0445 \u0415\u0432\u0442\u0438\u043c\u0438\u0439 98", "phone": "29533864", "opening_hours": "Mo-Fr 09:00-19:30", "brand": "Vivacom", "brand:wikidata": "Q7937522", "nsi_id": "vivacom-5ceaa9"}, "geometry": {"type": "Point", "coordinates": [23.325319, 42.696189]}},
{"type": "Feature", "id": "FOkjGO37V9bz1IScNXFuw983GWI=", "properties": {"ref": "2240", "@spider": "vivacom_bg", "brand:bg": "\u0412\u0438\u0432\u0430\u043a\u043e\u043c", "brand:en": "Vivacom", "name:bg": "\u0412\u0438\u0432\u0430\u043a\u043e\u043c", "name:en": "Vivacom", "shop": "telecommunication", "addr:country": "BG", "name": "VIVACOM \u0412\u0430\u0440\u043d\u0430,  \u0431\u0443\u043b. \u0421\u043b\u0438\u0432\u043d\u0438\u0446\u0430 \u2116185, \u041c\u041e\u041b \u0414\u0435\u043b\u0442\u0430 \u041f\u043b\u0430\u043d\u0435\u0442", "phone": "052589277", "opening_hours": "Mo-Su 10:00-21:00", "brand": "Vivacom", "brand:wikidata": "Q7937522", "nsi_id": "vivacom-5ceaa9"}, "geometry": {"type": "Point", "coordinates": [23.325319, 42.696189]}},
{"type": "Feature", "id": "wq6EwWgcdZJKCecEBOcJJQycdWI=", "properties": {"ref": "2281", "@spider": "vivacom_bg", "brand:bg": "\u0412\u0438\u0432\u0430\u043a\u043e\u043c", "brand:en": "Vivacom", "name:bg": "\u0412\u0438\u0432\u0430\u043a\u043e\u043c", "name:en": "Vivacom", "shop": "telecommunication", "addr:country": "BG", "name": "VIVACOM \u0425\u0430\u0441\u043a\u043e\u0432\u043e, \u0443\u043b. \u041e\u0442\u0435\u0446 \u041f\u0430\u0438\u0441\u0438\u0439 31", "phone": "038660064", "opening_hours": "Mo-Fr 09:00-19:00; Sa 10:00-17:00", "brand": "Vivacom", "brand:wikidata": "Q7937522", "nsi_id": "vivacom-5ceaa9"}, "geometry": {"type": "Point", "coordinates": [25.5542963, 41.9317697]}},
{"type": "Feature", "id": "b97olgjql3KmBRHWT22vgjTIEsg=", "properties": {"ref": "2327", "@spider": "vivacom_bg", "brand:bg": "\u0412\u0438\u0432\u0430\u043a\u043e\u043c", "brand:en": "Vivacom", "name:bg": "\u0412\u0438\u0432\u0430\u043a\u043e\u043c", "name:en": "Vivacom", "shop": "telecommunication", "addr:country": "BG", "name": "VIVACOM \u0421\u043e\u0444\u0438\u044f, \u0421\u043e\u0444\u0438\u044f, \u043a\u0432.\u00a0\u041e\u0432\u0447\u0430 \u041a\u0443\u043f\u0435\u043b 1 \u0443\u043b. &amp;amp;amp;quot;\u041c\u043e\u043d\u0442\u0435\u0432\u0438\u0434\u0435\u043e&amp;amp;amp;quot; \u0431\u043b. 419, \u0434\u043e \u0442\u0440\u0430\u0444\u043e\u043f\u043e\u0441\u0442\u0430", "phone": "29560092", "opening_hours": "Mo-Fr 09:00-19:30; Sa 10:00-17:00", "brand": "Vivacom", "brand:wikidata": "Q7937522", "nsi_id": "vivacom-5ceaa9"}, "geometry": {"type": "Point", "coordinates": [23.2515117, 42.6723056]}},
{"type": "Feature", "id": "_r-vnfdhhFF1By0XI3jM5WvT024=", "properties": {"ref": "2340", "@spider": "vivacom_bg", "brand:bg": "\u0412\u0438\u0432\u0430\u043a\u043e\u043c", "brand:en": "Vivacom", "name:bg": "\u0412\u0438\u0432\u0430\u043a\u043e\u043c", "name:en": "Vivacom", "shop": "telecommunication", "addr:country": "BG", "name": "VIVACOM \u0412\u0430\u0440\u043d\u0430, \u0413\u0440\u0430\u043d\u0434 \u041c\u041e\u041b \u0412\u0430\u0440\u043d\u0430, \u0443\u043b. \u0410\u043a\u0430\u0434. \u0421\u0430\u0445\u0430\u0440\u043e\u0432 \u2116 2", "phone": "052702311", "opening_hours": "Mo-Su 10:00-21:00", "brand": "Vivacom", "brand:wikidata": "Q7937522", "nsi_id": "vivacom-5ceaa9"}, "geometry": {"type": "Point", "coordinates": [27.750062652344, 43.103013503063]}},
{"type": "Feature", "id": "GnhPSAcVXuj3CRPSwfWjTY3NiqM=", "properties": {"ref": "2342", "@spider": "vivacom_bg", "brand:bg": "\u0412\u0438\u0432\u0430\u043a\u043e\u043c", "brand:en": "Vivacom", "name:bg": "\u0412\u0438\u0432\u0430\u043a\u043e\u043c", "name:en": "Vivacom", "shop": "telecommunication", "addr:country": "BG", "name": "VIVACOM \u041b\u043e\u0432\u0435\u0447, \u041b\u043e\u0432\u0435\u0447, \u0443\u043b.\u0422\u044a\u0440\u0433\u043e\u0432\u0441\u043a\u0430 \u211652", "phone": "68600223", "opening_hours": "Mo-Fr 09:00-19:00", "brand": "Vivacom", "brand:wikidata": "Q7937522", "nsi_id": "vivacom-5ceaa9"}, "geometry": {"type": "Point", "coordinates": [24.718555775403, 43.140450159325]}},
{"type": "Feature", "id": "iHuA59etSFC0BJhckcoTodvRHp4=", "properties": {"ref": "2343", "@spider": "vivacom_bg", "brand:bg": "\u0412\u0438\u0432\u0430\u043a\u043e\u043c", "brand:en": "Vivacom", "name:bg": "\u0412\u0438\u0432\u0430\u043a\u043e\u043c", "name:en": "Vivacom", "shop": "telecommunication", "addr:country": "BG", "name": "VIVACOM \u041a\u043e\u0441\u0442\u0435\u043d\u0435\u0446, \u041a\u043e\u0441\u0442\u0435\u043d\u0435\u0446, \u0443\u043b.\u0422\u044a\u0440\u0433\u043e\u0432\u0441\u043a\u0430 89", "phone": "071422404", "opening_hours": "Mo-Fr 09:00-18:00", "brand": "Vivacom", "brand:wikidata": "Q7937522", "nsi_id": "vivacom-5ceaa9"}, "geometry": {"type": "Point", "coordinates": [23.859676274893, 42.308856089128]}},
{"type": "Feature", "id": "DjocclcK4bb7Af-snARX3PKWfTw=", "properties": {"ref": "2380", "@spider": "vivacom_bg", "brand:bg": "\u0412\u0438\u0432\u0430\u043a\u043e\u043c", "brand:en": "Vivacom", "name:bg": "\u0412\u0438\u0432\u0430\u043a\u043e\u043c", "name:en": "Vivacom", "shop": "telecommunication", "addr:country": "BG", "name": "VIVACOM \u0421\u0432\u0438\u0449\u043e\u0432, \u0421\u0432\u0438\u0449\u043e\u0432, \u0443\u043b.\u0426\u0430\u0440 \u041e\u0441\u0432\u043e\u0431\u043e\u0434\u0438\u0442\u0435\u043b \u2116 86", "phone": "063164400", "opening_hours": "Mo-Fr 09:00-19:00", "brand": "Vivacom", "brand:wikidata": "Q7937522", "nsi_id": "vivacom-5ceaa9"}, "geometry": {"type": "Point", "coordinates": [25.348807817671, 43.61820067426]}},
{"type": "Feature", "id": "4DBVQjjWXOQw9M9fD8SavSwFFjI=", "properties": {"ref": "2382", "@spider": "vivacom_bg", "brand:bg": "\u0412\u0438\u0432\u0430\u043a\u043e\u043c", "brand:en": "Vivacom", "name:bg": "\u0412\u0438\u0432\u0430\u043a\u043e\u043c", "name:en": "Vivacom", "shop": "telecommunication", "addr:country": "BG", "name": "VIVACOM \u0413\u0430\u0431\u0440\u043e\u0432\u043e, \u0413\u0430\u0431\u0440\u043e\u0432\u043e, \u0443\u043b.\u0420\u0430\u0434\u0435\u0446\u043a\u0430 9", "phone": "066860490", "opening_hours": "Mo-Fr 09:00-19:00; Sa 10:00-17:00", "brand": "Vivacom", "brand:wikidata": "Q7937522", "nsi_id": "vivacom-5ceaa9"}, "geometry": {"type": "Point", "coordinates": [25.319251723999, 42.873125893451]}},
{"type": "Feature", "id": "hcuNyYPdnktgtXUluF-xrtpSVl8=", "properties": {"ref": "2383", "@spider": "vivacom_bg", "brand:bg": "\u0412\u0438\u0432\u0430\u043a\u043e\u043c", "brand:en": "Vivacom", "name:bg": "\u0412\u0438\u0432\u0430\u043a\u043e\u043c", "name:en": "Vivacom", "shop": "telecommunication", "addr:country": "BG", "name": "VIVACOM \u0421\u043b\u0438\u0432\u0435\u043d, \u0421\u043b\u0438\u0432\u0435\u043d, \u043f\u043b.\u0410\u043b.\u0421\u0442\u0430\u043c\u0431\u043e\u043b\u0438\u0439\u0441\u043a\u0438 \u21161", "phone": "044630055", "opening_hours": "Mo-Fr 09:00-19:00; Sa 10:00-17:00", "brand": "Vivacom", "brand:wikidata": "Q7937522", "nsi_id": "vivacom-5ceaa9"}, "geometry": {"type": "Point", "coordinates": [26.321313301271, 42.679532755666]}},
{"type": "Feature", "id": "2PLU7pueflVHmnJB4KkaDzWt3GY=", "properties": {"ref": "2384", "@spider": "vivacom_bg", "brand:bg": "\u0412\u0438\u0432\u0430\u043a\u043e\u043c", "brand:en": "Vivacom", "name:bg": "\u0412\u0438\u0432\u0430\u043a\u043e\u043c", "name:en": "Vivacom", "shop": "telecommunication", "addr:country": "BG", "name": "VIVACOM \u041a\u044a\u0440\u0434\u0436\u0430\u043b\u0438, \u041a\u044a\u0440\u0434\u0436\u0430\u043b\u0438, \u0431\u0443\u043b.\u0420\u0435\u043f\u0443\u0431\u043b\u0438\u043a\u0430\u043d\u0441\u043a\u0430 \u211631", "phone": "036161058", "opening_hours": "Mo-Fr 09:00-19:00", "brand": "Vivacom", "brand:wikidata": "Q7937522", "nsi_id": "vivacom-5ceaa9"}, "geometry": {"type": "Point", "coordinates": [25.367249854321, 41.644609793317]}},
{"type": "Feature", "id": "8pwm4120TpsM642wyV4PovcUw04=", "properties": {"ref": "1800", "@spider": "vivacom_bg", "brand:bg": "\u0412\u0438\u0432\u0430\u043a\u043e\u043c", "brand:en": "Vivacom", "name:bg": "\u0412\u0438\u0432\u0430\u043a\u043e\u043c", "name:en": "Vivacom", "shop": "telecommunication", "addr:country": "BG", "name": "VIVACOM \u0422\u044a\u0440\u0433\u043e\u0432\u0438\u0449\u0435, \u0443\u043b. \u0421\u044e\u0440\u0435\u043d 1", "phone": "60161751", "opening_hours": "Mo-Fr 09:00-19:00", "brand": "Vivacom", "brand:wikidata": "Q7937522", "nsi_id": "vivacom-5ceaa9"}, "geometry": {"type": "Point", "coordinates": [26.562259197235, 43.243002706829]}},
{"type": "Feature", "id": "gbb3m5JHOS312ccTKsQdUCttLUA=", "properties": {"ref": "1961", "@spider": "vivacom_bg", "brand:bg": "\u0412\u0438\u0432\u0430\u043a\u043e\u043c", "brand:en": "Vivacom", "name:bg": "\u0412\u0438\u0432\u0430\u043a\u043e\u043c", "name:en": "Vivacom", "shop": "telecommunication", "addr:country": "BG", "name": "VIVACOM \u041f\u043b\u043e\u0432\u0434\u0438\u0432, \u0443\u043b. \u201d\u041a\u0430\u043f. \u0420\u0430\u0439\u0447\u043e\u201d \u211656, \u0435\u0442.1, \u043e\u0431\u0435\u043a\u0442 1-69 \u0422\u0426 \u0413\u0440\u0430\u043d\u0434", "phone": "032660610", "opening_hours": "Mo-Fr 10:00-20:00; Sa-Su 10:00-17:00", "brand": "Vivacom", "brand:wikidata": "Q7937522", "nsi_id": "vivacom-5ceaa9"}, "geometry": {"type": "Point", "coordinates": [24.7563447, 42.1417052]}},
{"type": "Feature", "id": "7gwHuus0zZZpCTUGBNTARy8gDCs=", "properties": {"ref": "2120", "@spider": "vivacom_bg", "brand:bg": "\u0412\u0438\u0432\u0430\u043a\u043e\u043c", "brand:en": "Vivacom", "name:bg": "\u0412\u0438\u0432\u0430\u043a\u043e\u043c", "name:en": "Vivacom", "shop": "telecommunication", "addr:country": "BG", "name": "VIVACOM \u0412\u0430\u0440\u043d\u0430, \u043a\u0432. \u0411\u0440\u0438\u0437-\u044e\u0433, \u041a\u0430\u0443\u0444\u043b\u0430\u043d\u0434, \u0431\u0443\u043b. &amp;amp;amp;quot;\u041e\u0441\u043c\u0438 \u043f\u0440\u0438\u043c\u043e\u0440\u0441\u043a\u0438 \u043f\u043e\u043b\u043a&amp;amp;amp;quot;", "phone": "052589250", "opening_hours": "Mo-Sa 08:00-21:00; Su 09:00-20:00", "brand": "Vivacom", "brand:wikidata": "Q7937522", "nsi_id": "vivacom-5ceaa9"}, "geometry": {"type": "Point", "coordinates": [27.950121, 43.2263339]}},
{"type": "Feature", "id": "kgCAwhZPFHz69tkxoy-dSr4zF3w=", "properties": {"ref": "2326", "@spider": "vivacom_bg", "brand:bg": "\u0412\u0438\u0432\u0430\u043a\u043e\u043c", "brand:en": "Vivacom", "name:bg": "\u0412\u0438\u0432\u0430\u043a\u043e\u043c", "name:en": "Vivacom", "shop": "telecommunication", "addr:country": "BG", "name": "VIVACOM \u0421\u043e\u0444\u0438\u044f, \u0421\u043e\u0444\u0438\u044f, \u0431\u0443\u043b. \u0426\u0430\u0440\u0438\u0446\u0430 \u0419\u043e\u0430\u043d\u0430, \u041b\u044e\u043b\u0438\u043d 10, \u0431\u043b.154", "phone": "28241928", "opening_hours": "Mo-Fr 09:00-19:30", "brand": "Vivacom", "brand:wikidata": "Q7937522", "nsi_id": "vivacom-5ceaa9"}, "geometry": {"type": "Point", "coordinates": [23.268633931875, 42.71272792389]}},
{"type": "Feature", "id": "USbWhNEhQWN5hF_Ui2MwBB03_VU=", "properties": {"ref": "2289", "@spider": "vivacom_bg", "brand:bg": "\u0412\u0438\u0432\u0430\u043a\u043e\u043c", "brand:en": "Vivacom", "name:bg": "\u0412\u0438\u0432\u0430\u043a\u043e\u043c", "name:en": "Vivacom", "shop": "telecommunication", "addr:country": "BG", "name": "VIVACOM \u042f\u043c\u0431\u043e\u043b, \u042f\u043c\u0431\u043e\u043b, \u0443\u043b. \u0422\u044a\u0440\u0433\u043e\u0432\u0441\u043a\u0430 58", "phone": "046666200", "opening_hours": "Mo-Fr 09:00-19:00", "brand": "Vivacom", "brand:wikidata": "Q7937522", "nsi_id": "vivacom-5ceaa9"}, "geometry": {"type": "Point", "coordinates": [26.5130026, 42.4814765]}},
{"type": "Feature", "id": "bj_5Pnuku4p8W-nOS3W36yl4kjQ=", "properties": {"ref": "2260", "@spider": "vivacom_bg", "brand:bg": "\u0412\u0438\u0432\u0430\u043a\u043e\u043c", "brand:en": "Vivacom", "name:bg": "\u0412\u0438\u0432\u0430\u043a\u043e\u043c", "name:en": "Vivacom", "shop": "telecommunication", "addr:country": "BG", "name": "VIVACOM \u0411\u044f\u043b\u0430 \u0421\u043b\u0430\u0442\u0438\u043d\u0430, \u0443\u043b. \u0425\u0440.\u0411\u043e\u0442\u0435\u0432 14", "phone": "91582137", "opening_hours": "Mo-Fr 09:00-18:00", "brand": "Vivacom", "brand:wikidata": "Q7937522", "nsi_id": "vivacom-5ceaa9"}, "geometry": {"type": "Point", "coordinates": [23.9457856, 43.4690132]}},
{"type": "Feature", "id": "MDWaaA_R-hxcHu1ldN1iegKAUGw=", "properties": {"ref": "2291", "@spider": "vivacom_bg", "brand:bg": "\u0412\u0438\u0432\u0430\u043a\u043e\u043c", "brand:en": "Vivacom", "name:bg": "\u0412\u0438\u0432\u0430\u043a\u043e\u043c", "name:en": "Vivacom", "shop": "telecommunication", "addr:country": "BG", "name": "VIVACOM \u0412\u0440\u0430\u0446\u0430, \u0412\u0440\u0430\u0446\u0430, \u0443\u043b. \u041d\u0438\u043a\u043e\u043b\u0430 \u0412\u043e\u0439\u0432\u043e\u0434\u043e\u0432 10", "phone": "092630436", "opening_hours": "Mo-Fr 09:00-19:00; Sa 10:00-17:00", "brand": "Vivacom", "brand:wikidata": "Q7937522", "nsi_id": "vivacom-5ceaa9"}, "geometry": {"type": "Point", "coordinates": [23.55171, 43.2046152]}},
{"type": "Feature", "id": "yJ1AXdURiwP7446BOwbRWnTD1CM=", "properties": {"ref": "2299", "@spider": "vivacom_bg", "brand:bg": "\u0412\u0438\u0432\u0430\u043a\u043e\u043c", "brand:en": "Vivacom", "name:bg": "\u0412\u0438\u0432\u0430\u043a\u043e\u043c", "name:en": "Vivacom", "shop": "telecommunication", "addr:country": "BG", "name": "VIVACOM \u0413\u043e\u0440\u043d\u0430 \u041e\u0440\u044f\u0445\u043e\u0432\u0438\u0446\u0430, \u0413\u043e\u0440\u043d\u0430 \u041e\u0440\u044f\u0445\u043e\u0432\u0438\u0446\u0430, \u0443\u043b.\u0421\u0432.\u041a\u043d\u044f\u0437 \u0411\u043e\u0440\u0438\u0441 \u0406 \u21161 \u0432\u0445\u043e\u0434 \u0410-\u0411", "phone": "061860525", "opening_hours": "Mo-Fr 09:00-19:00; Sa 10:00-17:00", "brand": "Vivacom", "brand:wikidata": "Q7937522", "nsi_id": "vivacom-5ceaa9"}, "geometry": {"type": "Point", "coordinates": [25.6909731, 43.1223192]}},
{"type": "Feature", "id": "tD2euZKblvABn8KwUQ15bFUbBCE=", "properties": {"ref": "2312", "@spider": "vivacom_bg", "brand:bg": "\u0412\u0438\u0432\u0430\u043a\u043e\u043c", "brand:en": "Vivacom", "name:bg": "\u0412\u0438\u0432\u0430\u043a\u043e\u043c", "name:en": "Vivacom", "shop": "telecommunication", "addr:country": "BG", "name": "VIVACOM \u0421\u043e\u0444\u0438\u044f, \u0421\u043e\u0444\u0438\u044f, \u0436.\u043a \u0411\u0430\u043d\u0438\u0448\u043e\u0440\u0430, \u0443\u043b.\u0421\u043a\u043e\u043f\u0438\u0435 1, \u041a\u0430\u0443\u0444\u043b\u0430\u043d\u0434 ", "phone": "28335555", "opening_hours": "Mo-Sa 08:00-21:00; Su 08:00-20:00", "brand": "Vivacom", "brand:wikidata": "Q7937522", "nsi_id": "vivacom-5ceaa9"}, "geometry": {"type": "Point", "coordinates": [23.3024911, 42.7113463]}},
{"type": "Feature", "id": "_W47-PPziTmJ3p2_ZWFjYHmtOPA=", "properties": {"ref": "2318", "@spider": "vivacom_bg", "brand:bg": "\u0412\u0438\u0432\u0430\u043a\u043e\u043c", "brand:en": "Vivacom", "name:bg": "\u0412\u0438\u0432\u0430\u043a\u043e\u043c", "name:en": "Vivacom", "shop": "telecommunication", "addr:country": "BG", "name": "VIVACOM \u0421\u043e\u0444\u0438\u044f, \u0421\u043e\u0444\u0438\u044f, \u0431\u0443\u043b.\u041c.\u041b\u0443\u0438\u0437\u0430 \u2116 78", "phone": "28321168", "opening_hours": "Mo-Fr 09:00-19:30; Sa 10:00-17:00", "brand": "Vivacom", "brand:wikidata": "Q7937522", "nsi_id": "vivacom-5ceaa9"}, "geometry": {"type": "Point", "coordinates": [23.3238726, 42.7066462]}},
{"type": "Feature", "id": "d5tRWeCJhlIsx6HmN148Jm86lTo=", "properties": {"ref": "2320", "@spider": "vivacom_bg", "brand:bg": "\u0412\u0438\u0432\u0430\u043a\u043e\u043c", "brand:en": "Vivacom", "name:bg": "\u0412\u0438\u0432\u0430\u043a\u043e\u043c", "name:en": "Vivacom", "shop": "telecommunication", "addr:country": "BG", "name": "VIVACOM \u0421\u043e\u0444\u0438\u044f, \u0421\u043e\u0444\u0438\u044f, \u0431\u0443\u043b.\u0410\u043a\u0430\u0434.\u0411\u043e\u0440\u0438\u0441 \u0421\u0442\u0435\u0444\u0430\u043d\u043e\u0432 20", "phone": "29622321", "opening_hours": "Mo-Fr 09:00-19:30", "brand": "Vivacom", "brand:wikidata": "Q7937522", "nsi_id": "vivacom-5ceaa9"}, "geometry": {"type": "Point", "coordinates": [23.3414705, 42.6437774]}},
{"type": "Feature", "id": "cI67WGXOmUGv4-TKgAhiqofl0RE=", "properties": {"ref": "2324", "@spider": "vivacom_bg", "brand:bg": "\u0412\u0438\u0432\u0430\u043a\u043e\u043c", "brand:en": "Vivacom", "name:bg": "\u0412\u0438\u0432\u0430\u043a\u043e\u043c", "name:en": "Vivacom", "shop": "telecommunication", "addr:country": "BG", "name": "VIVACOM \u0421\u043e\u0444\u0438\u044f, \u0421\u043e\u0444\u0438\u044f, \u0443\u043b.\u041f\u0438\u0440\u043e\u0442\u0441\u043a\u0430 \u2116 8", "phone": "29950755", "opening_hours": "Mo-Fr 09:00-19:00", "brand": "Vivacom", "brand:wikidata": "Q7937522", "nsi_id": "vivacom-5ceaa9"}, "geometry": {"type": "Point", "coordinates": [23.3205334, 42.6995609]}},
{"type": "Feature", "id": "zIkmQ-XuRQkoVUbGcMvxDUnTkho=", "properties": {"ref": "1940", "@spider": "vivacom_bg", "brand:bg": "\u0412\u0438\u0432\u0430\u043a\u043e\u043c", "brand:en": "Vivacom", "name:bg": "\u0412\u0438\u0432\u0430\u043a\u043e\u043c", "name:en": "Vivacom", "shop": "telecommunication", "addr:country": "BG", "name": "VIVACOM \u0421\u043e\u0444\u0438\u044f, \u0436.\u043a. \u0425\u0430\u0434\u0436\u0438 \u0414\u0438\u043c\u0438\u0442\u044a\u0440, \u0443\u043b. \u041c\u0430\u043a\u0433\u0430\u0445\u0430\u043d, \u041f\u0430\u0437\u0430\u0440 - \u043f\u0430\u0432\u0438\u043b\u0438\u043e\u043d 45/3", "phone": "02/9676370", "opening_hours": "Mo-Fr 09:00-19:00", "brand": "Vivacom", "brand:wikidata": "Q7937522", "nsi_id": "vivacom-5ceaa9"}, "geometry": {"type": "Point", "coordinates": [23.350871754631, 42.706939126393]}},
{"type": "Feature", "id": "S8KtxgQqRrLvaOjrXwPromqu9wc=", "properties": {"ref": "2295", "@spider": "vivacom_bg", "brand:bg": "\u0412\u0438\u0432\u0430\u043a\u043e\u043c", "brand:en": "Vivacom", "name:bg": "\u0412\u0438\u0432\u0430\u043a\u043e\u043c", "name:en": "Vivacom", "shop": "telecommunication", "addr:country": "BG", "name": "VIVACOM \u0418\u0441\u043f\u0435\u0440\u0438\u0445, \u0418\u0441\u043f\u0435\u0440\u0438\u0445, \u0443\u043b.\u0412\u0430\u0441\u0438\u043b \u041b\u0435\u0432\u0441\u043a\u0438 \u2116 36", "phone": "084312241", "opening_hours": "Mo-Fr 09:00-18:00", "brand": "Vivacom", "brand:wikidata": "Q7937522", "nsi_id": "vivacom-5ceaa9"}, "geometry": {"type": "Point", "coordinates": [26.8310076, 43.7200925]}},
{"type": "Feature", "id": "j1oRjn7x4fiWnKDmT59Zqe5lAgw=", "properties": {"ref": "2301", "@spider": "vivacom_bg", "brand:bg": "\u0412\u0438\u0432\u0430\u043a\u043e\u043c", "brand:en": "Vivacom", "name:bg": "\u0412\u0438\u0432\u0430\u043a\u043e\u043c", "name:en": "Vivacom", "shop": "telecommunication", "addr:country": "BG", "name": "VIVACOM \u0427\u0435\u0440\u0432\u0435\u043d \u0411\u0440\u044f\u0433, \u0427\u0435\u0440\u0432\u0435\u043d \u0431\u0440\u044f\u0433, \u0443\u043b.\u0422\u044a\u0440\u0433\u043e\u0432\u0441\u043a\u0430 2", "phone": "065992400", "opening_hours": "Mo-Fr 09:00-19:00", "brand": "Vivacom", "brand:wikidata": "Q7937522", "nsi_id": "vivacom-5ceaa9"}, "geometry": {"type": "Point", "coordinates": [24.0805172, 43.2814333]}},
{"type": "Feature", "id": "usRGspmRbC89wwDp8Bvqqux_13I=", "properties": {"ref": "1780", "@spider": "vivacom_bg", "brand:bg": "\u0412\u0438\u0432\u0430\u043a\u043e\u043c", "brand:en": "Vivacom", "name:bg": "\u0412\u0438\u0432\u0430\u043a\u043e\u043c", "name:en": "Vivacom", "shop": "telecommunication", "addr:country": "BG", "name": "VIVACOM \u0414\u0438\u043c\u0438\u0442\u0440\u043e\u0432\u0433\u0440\u0430\u0434, \u0443\u043b. \u0420\u043e\u043c\u0435\u043d \u0420\u043e\u043b\u0430\u043d \u21167, \u041a\u0430\u0443\u0444\u043b\u0430\u043d\u0434", "phone": "039122318", "opening_hours": "Mo-Sa 09:00-20:00; Su 09:00-19:00", "brand": "Vivacom", "brand:wikidata": "Q7937522", "nsi_id": "vivacom-5ceaa9"}, "geometry": {"type": "Point", "coordinates": [25.5886998, 42.0583801]}},
{"type": "Feature", "id": "DMSmO4trMfajsIH3yhs7EmxzleQ=", "properties": {"ref": "1880", "@spider": "vivacom_bg", "brand:bg": "\u0412\u0438\u0432\u0430\u043a\u043e\u043c", "brand:en": "Vivacom", "name:bg": "\u0412\u0438\u0432\u0430\u043a\u043e\u043c", "name:en": "Vivacom", "shop": "telecommunication", "addr:country": "BG", "name": "VIVACOM \u041c\u043e\u043d\u0442\u0430\u043d\u0430, \u0431\u0443\u043b. 3 \u043c\u0430\u0440\u0442 \u2116 139\u0410 \u041a\u0430\u0443\u0444\u043b\u0430\u043d\u0434", "phone": "096300108", "opening_hours": "Mo-Sa 09:00-20:00; Su 09:00-19:00", "brand": "Vivacom", "brand:wikidata": "Q7937522", "nsi_id": "vivacom-5ceaa9"}, "geometry": {"type": "Point", "coordinates": [23.2273101, 43.4196418]}},
{"type": "Feature", "id": "dSrpPfF0fsiPf5Hayrk38-_gWlo=", "properties": {"ref": "1920", "@spider": "vivacom_bg", "brand:bg": "\u0412\u0438\u0432\u0430\u043a\u043e\u043c", "brand:en": "Vivacom", "name:bg": "\u0412\u0438\u0432\u0430\u043a\u043e\u043c", "name:en": "Vivacom", "shop": "telecommunication", "addr:country": "BG", "name": "VIVACOM \u041f\u043b\u043e\u0432\u0434\u0438\u0432, \u041f\u043b\u043e\u0432\u0434\u0438\u0432 \u041c\u041e\u041b, \u041c\u0430\u0440\u043a\u043e\u0432\u043e \u0442\u0435\u043f\u0435, \u0431\u0443\u043b. \u0420\u0443\u0441\u043a\u0438 \u211654", "phone": "032/207293", "opening_hours": "Mo-Su 11:00-20:00", "brand": "Vivacom", "brand:wikidata": "Q7937522", "nsi_id": "vivacom-5ceaa9"}, "geometry": {"type": "Point", "coordinates": [24.7410831, 42.1466376]}},
{"type": "Feature", "id": "WlHJRFZRrytNk9GpMxqMxtdDDWc=", "properties": {"ref": "2283", "@spider": "vivacom_bg", "brand:bg": "\u0412\u0438\u0432\u0430\u043a\u043e\u043c", "brand:en": "Vivacom", "name:bg": "\u0412\u0438\u0432\u0430\u043a\u043e\u043c", "name:en": "Vivacom", "shop": "telecommunication", "addr:country": "BG", "name": "VIVACOM \u0428\u0443\u043c\u0435\u043d, \u0428\u0443\u043c\u0435\u043d, \u0443\u043b.\u0425\u0430\u043d \u041e\u043c\u0443\u0440\u0442\u0430\u0433 \u21162", "phone": "054810525", "opening_hours": "Mo-Fr 09:00-19:00; Sa 10:00-17:00", "brand": "Vivacom", "brand:wikidata": "Q7937522", "nsi_id": "vivacom-5ceaa9"}, "geometry": {"type": "Point", "coordinates": [23.325319, 42.696189]}},
{"type": "Feature", "id": "ZkhljYMK0k-bMsjFZMVBaQYGF90=", "properties": {"ref": "2284", "@spider": "vivacom_bg", "brand:bg": "\u0412\u0438\u0432\u0430\u043a\u043e\u043c", "brand:en": "Vivacom", "name:bg": "\u0412\u0438\u0432\u0430\u043a\u043e\u043c", "name:en": "Vivacom", "shop": "telecommunication", "addr:country": "BG", "name": "VIVACOM \u041a\u043e\u0437\u043b\u043e\u0434\u0443\u0439, \u041a\u043e\u0437\u043bo\u0434\u0443\u0439, \u0443\u043b. \u0425\u0440\u0438\u0441\u0442\u043e \u0411\u043e\u0442\u0435\u0432 15", "phone": "097380084", "opening_hours": "Mo-Fr 09:00-19:00", "brand": "Vivacom", "brand:wikidata": "Q7937522", "nsi_id": "vivacom-5ceaa9"}, "geometry": {"type": "Point", "coordinates": [23.7271958, 43.7784258]}},
{"type": "Feature", "id": "1I7nJCis44PpuxaFVfnjErrY_Es=", "properties": {"ref": "2286", "@spider": "vivacom_bg", "brand:bg": "\u0412\u0438\u0432\u0430\u043a\u043e\u043c", "brand:en": "Vivacom", "name:bg": "\u0412\u0438\u0432\u0430\u043a\u043e\u043c", "name:en": "Vivacom", "shop": "telecommunication", "addr:country": "BG", "name": "VIVACOM \u0411\u0430\u043d\u0441\u043a\u043e, \u0411\u0430\u043d\u0441\u043a\u043e, \u043f\u043b.\u041d\u0438\u043a\u043e\u043b\u0430 \u0412\u0430\u043f\u0446\u0430\u0440\u043e\u0432 \u2116 6", "phone": "074984131", "opening_hours": "Mo-Fr 09:00-18:00", "brand": "Vivacom", "brand:wikidata": "Q7937522", "nsi_id": "vivacom-5ceaa9"}, "geometry": {"type": "Point", "coordinates": [23.4882126, 41.8370995]}},
{"type": "Feature", "id": "zI8ahm35wynvMTYLr8uGvHCJ7GE=", "properties": {"ref": "2287", "@spider": "vivacom_bg", "brand:bg": "\u0412\u0438\u0432\u0430\u043a\u043e\u043c", "brand:en": "Vivacom", "name:bg": "\u0412\u0438\u0432\u0430\u043a\u043e\u043c", "name:en": "Vivacom", "shop": "telecommunication", "addr:country": "BG", "name": "VIVACOM \u0421\u0432\u0438\u043b\u0435\u043d\u0433\u0440\u0430\u0434, \u0421\u0432\u0438\u043b\u0435\u043d\u0433\u0440\u0430\u0434, \u0431\u0443\u043b.\u0411\u044a\u043b\u0433\u0430\u0440\u0438\u044f 87", "phone": "037977721", "opening_hours": "Mo-Fr 09:00-19:00", "brand": "Vivacom", "brand:wikidata": "Q7937522", "nsi_id": "vivacom-5ceaa9"}, "geometry": {"type": "Point", "coordinates": [26.1993601, 41.7665444]}},
{"type": "Feature", "id": "WOl0N96I-KSyTFBHCh5pBZhVu98=", "properties": {"ref": "2288", "@spider": "vivacom_bg", "brand:bg": "\u0412\u0438\u0432\u0430\u043a\u043e\u043c", "brand:en": "Vivacom", "name:bg": "\u0412\u0438\u0432\u0430\u043a\u043e\u043c", "name:en": "Vivacom", "shop": "telecommunication", "addr:country": "BG", "name": "VIVACOM \u0421\u0432\u043e\u0433\u0435, \u0421\u0432\u043e\u0433\u0435, \u0443\u043b \u0426\u0430\u0440 \u0421\u0438\u043c\u0435\u043e\u043d 18 B", "phone": "072622300", "opening_hours": "Mo-Fr 09:00-19:00", "brand": "Vivacom", "brand:wikidata": "Q7937522", "nsi_id": "vivacom-5ceaa9"}, "geometry": {"type": "Point", "coordinates": [23.3454636, 42.9607091]}},
{"type": "Feature", "id": "HYF0HRFQwauJbvhzAVHzcIKRfIk=", "properties": {"ref": "2290", "@spider": "vivacom_bg", "brand:bg": "\u0412\u0438\u0432\u0430\u043a\u043e\u043c", "brand:en": "Vivacom", "name:bg": "\u0412\u0438\u0432\u0430\u043a\u043e\u043c", "name:en": "Vivacom", "shop": "telecommunication", "addr:country": "BG", "name": "VIVACOM \u041a\u0430\u0437\u0430\u043d\u043b\u044a\u043a, \u041a\u0430\u0437\u0430\u043d\u043b\u044a\u043a, \u0443\u043b. \u0413\u0435\u043d\u0435\u0440\u0430\u043b \u0421\u043a\u043e\u0431\u0435\u043b\u0435\u0432 8 ", "phone": "043165030", "opening_hours": "Mo-Fr 09:00-19:00; Sa 10:00-17:00", "brand": "Vivacom", "brand:wikidata": "Q7937522", "nsi_id": "vivacom-5ceaa9"}, "geometry": {"type": "Point", "coordinates": [25.3914755, 42.6201334]}},
{"type": "Feature", "id": "CuZlw4_Xi4i9CSkbsxykqZj1dHE=", "properties": {"ref": "2293", "@spider": "vivacom_bg", "brand:bg": "\u0412\u0438\u0432\u0430\u043a\u043e\u043c", "brand:en": "Vivacom", "name:bg": "\u0412\u0438\u0432\u0430\u043a\u043e\u043c", "name:en": "Vivacom", "shop": "telecommunication", "addr:country": "BG", "name": "VIVACOM \u0411\u043b\u0430\u0433\u043e\u0435\u0432\u0433\u0440\u0430\u0434, \u0411\u043b\u0430\u0433\u043e\u0435\u0432\u0433\u0440\u0430\u0434, \u0431\u0443\u043b. \u0421\u0432. \u0421\u0432. \u041a\u0438\u0440\u0438\u043b \u0438 \u041c\u0435\u0442\u043e\u0434\u0438\u0439 \u21163", "phone": "073880003", "opening_hours": "Mo-Fr 09:00-19:00; Sa 10:00-17:00", "brand": "Vivacom", "brand:wikidata": "Q7937522", "nsi_id": "vivacom-5ceaa9"}, "geometry": {"type": "Point", "coordinates": [23.0942986, 42.0200953]}},
{"type": "Feature", "id": "oSG-Lu7eVf9-ZWCmqvofRY-ai-Y=", "properties": {"ref": "2294", "@spider": "vivacom_bg", "brand:bg": "\u0412\u0438\u0432\u0430\u043a\u043e\u043c", "brand:en": "Vivacom", "name:bg": "\u0412\u0438\u0432\u0430\u043a\u043e\u043c", "name:en": "Vivacom", "shop": "telecommunication", "addr:country": "BG", "name": "VIVACOM \u0421\u0435\u0432\u043b\u0438\u0435\u0432\u043e, \u0421\u0435\u0432\u043b\u0438\u0435\u0432\u043e, \u0443\u043b.\u0425\u0440\u0438\u0441\u0442\u043e \u0421\u043f\u0438\u0440\u0438\u0434\u043e\u043d\u043e\u0432 9", "phone": "067581717", "opening_hours": "Mo-Fr 09:00-19:00; Sa 10:00-17:00", "brand": "Vivacom", "brand:wikidata": "Q7937522", "nsi_id": "vivacom-5ceaa9"}, "geometry": {"type": "Point", "coordinates": [25.10364, 43.02651]}},
{"type": "Feature", "id": "luLQItV2tZWd1zTCE9CYyh4Up9Y=", "properties": {"ref": "2280", "@spider": "vivacom_bg", "brand:bg": "\u0412\u0438\u0432\u0430\u043a\u043e\u043c", "brand:en": "Vivacom", "name:bg": "\u0412\u0438\u0432\u0430\u043a\u043e\u043c", "name:en": "Vivacom", "shop": "telecommunication", "addr:country": "BG", "name": "VIVACOM \u0425\u0430\u0441\u043a\u043e\u0432\u043e, \u0443\u043b. \u0421\u0430\u043d \u0421\u0442\u0435\u0444\u0430\u043d\u043e 5", "phone": "038660066", "opening_hours": "Mo-Fr 09:00-19:00", "brand": "Vivacom", "brand:wikidata": "Q7937522", "nsi_id": "vivacom-5ceaa9"}, "geometry": {"type": "Point", "coordinates": [25.5589082, 41.9318557]}},
{"type": "Feature", "id": "F0vO69FnfrlSa7H8H8R-CmCur74=", "properties": {"ref": "2282", "@spider": "vivacom_bg", "brand:bg": "\u0412\u0438\u0432\u0430\u043a\u043e\u043c", "brand:en": "Vivacom", "name:bg": "\u0412\u0438\u0432\u0430\u043a\u043e\u043c", "name:en": "Vivacom", "shop": "telecommunication", "addr:country": "BG", "name": "VIVACOM \u0428\u0443\u043c\u0435\u043d, \u0443\u043b. \u041b\u044e\u0431\u0435\u043d \u041a\u0430\u0440\u0430\u0432\u0435\u043b\u043e\u0432 \u21161", "phone": "054830880", "opening_hours": "Mo-Fr 09:00-19:00", "brand": "Vivacom", "brand:wikidata": "Q7937522", "nsi_id": "vivacom-5ceaa9"}, "geometry": {"type": "Point", "coordinates": [26.9361286, 43.2712398]}},
{"type": "Feature", "id": "oxnl_M35D7pcXsSx36QFnZHK57E=", "properties": {"ref": "2297", "@spider": "vivacom_bg", "brand:bg": "\u0412\u0438\u0432\u0430\u043a\u043e\u043c", "brand:en": "Vivacom", "name:bg": "\u0412\u0438\u0432\u0430\u043a\u043e\u043c", "name:en": "Vivacom", "shop": "telecommunication", "addr:country": "BG", "name": "VIVACOM \u0421\u043c\u043e\u043b\u044f\u043d, \u0421\u043c\u043e\u043b\u044f\u043d, \u0431\u0443\u043b.\u0411\u044a\u043b\u0433\u0430\u0440\u0438\u044f \u2116 97", "phone": "030168666", "opening_hours": "Mo-Fr 09:00-19:30; Sa 10:00-17:00", "brand": "Vivacom", "brand:wikidata": "Q7937522", "nsi_id": "vivacom-5ceaa9"}, "geometry": {"type": "Point", "coordinates": [24.6884446, 41.5804512]}},
{"type": "Feature", "id": "G8Td7WFOIFyoRWj3M55oZsVS5_s=", "properties": {"ref": "2298", "@spider": "vivacom_bg", "brand:bg": "\u0412\u0438\u0432\u0430\u043a\u043e\u043c", "brand:en": "Vivacom", "name:bg": "\u0412\u0438\u0432\u0430\u043a\u043e\u043c", "name:en": "Vivacom", "shop": "telecommunication", "addr:country": "BG", "name": "VIVACOM \u0412\u0435\u043b\u0438\u043d\u0433\u0440\u0430\u0434, \u0412\u0435\u043b\u0438\u043d\u0433\u0440\u0430\u0434, \u0431\u0443\u043b.\u0421\u044a\u0435\u0434\u0438\u043d\u0435\u043d\u0438\u0435 99", "phone": "035922221", "opening_hours": "Mo-Fr 09:00-19:00; Sa 10:00-17:00", "brand": "Vivacom", "brand:wikidata": "Q7937522", "nsi_id": "vivacom-5ceaa9"}, "geometry": {"type": "Point", "coordinates": [23.991217, 42.0268517]}},
{"type": "Feature", "id": "DPa1f-MvhTPwQeiya-5BzPxR0tU=", "properties": {"ref": "2300", "@spider": "vivacom_bg", "brand:bg": "\u0412\u0438\u0432\u0430\u043a\u043e\u043c", "brand:en": "Vivacom", "name:bg": "\u0412\u0438\u0432\u0430\u043a\u043e\u043c", "name:en": "Vivacom", "shop": "telecommunication", "addr:country": "BG", "name": "VIVACOM \u041c\u0435\u0437\u0434\u0440\u0430, \u041c\u0435\u0437\u0434\u0440\u0430, \u0443\u043b.\u0425\u0440.\u0411\u043e\u0442\u0435\u0432 28", "phone": "091092332", "opening_hours": "Mo-Fr 09:00-19:00", "brand": "Vivacom", "brand:wikidata": "Q7937522", "nsi_id": "vivacom-5ceaa9"}, "geometry": {"type": "Point", "coordinates": [23.7138922, 43.1425798]}},
{"type": "Feature", "id": "FBSU3_RgMyCHzD5A7Gp1oN6ZMqg=", "properties": {"ref": "2302", "@spider": "vivacom_bg", "brand:bg": "\u0412\u0438\u0432\u0430\u043a\u043e\u043c", "brand:en": "Vivacom", "name:bg": "\u0412\u0438\u0432\u0430\u043a\u043e\u043c", "name:en": "Vivacom", "shop": "telecommunication", "addr:country": "BG", "name": "VIVACOM \u0414\u043e\u0431\u0440\u0438\u0447, \u0414\u043e\u0431\u0440\u0438\u0447, \u043f\u043b.\u0421\u0432\u043e\u0431\u043e\u0434\u0430 9", "phone": "58600350", "opening_hours": "Mo-Sa 09:00-19:00; Su 10:00-17:00", "brand": "Vivacom", "brand:wikidata": "Q7937522", "nsi_id": "vivacom-5ceaa9"}, "geometry": {"type": "Point", "coordinates": [27.83004505323, 43.568417517483]}},
{"type": "Feature", "id": "o6JhvBEwloOojJJmY_-3iJa0Yes=", "properties": {"ref": "2303", "@spider": "vivacom_bg", "brand:bg": "\u0412\u0438\u0432\u0430\u043a\u043e\u043c", "brand:en": "Vivacom", "name:bg": "\u0412\u0438\u0432\u0430\u043a\u043e\u043c", "name:en": "Vivacom", "shop": "telecommunication", "addr:country": "BG", "name": "VIVACOM \u0412\u0435\u043b\u0438\u043a\u043e \u0422\u044a\u0440\u043d\u043e\u0432\u043e, \u0412\u0435\u043b\u0438\u043a\u043e \u0422\u044a\u0440\u043d\u043e\u0432\u043e, \u0443\u043b \u0412\u0430\u0441\u0438\u043b \u041b\u0435\u0432\u0441\u043a\u0438 12 \u0438 12 \u0410", "phone": "062600481", "opening_hours": "Mo-Fr 09:00-19:00; Sa 10:00-17:00", "brand": "Vivacom", "brand:wikidata": "Q7937522", "nsi_id": "vivacom-5ceaa9"}, "geometry": {"type": "Point", "coordinates": [25.6291585, 43.0798547]}},
{"type": "Feature", "id": "zJPIyRlaaz1RKMnurQEVcHTOcJI=", "properties": {"ref": "2304", "@spider": "vivacom_bg", "brand:bg": "\u0412\u0438\u0432\u0430\u043a\u043e\u043c", "brand:en": "Vivacom", "name:bg": "\u0412\u0438\u0432\u0430\u043a\u043e\u043c", "name:en": "Vivacom", "shop": "telecommunication", "addr:country": "BG", "name": "VIVACOM \u0412\u0430\u0440\u043d\u0430, \u0412\u0430\u0440\u043d\u0430, \u0431\u0443\u043b.\u0412\u043b\u0430\u0434\u0438\u0441\u043b\u0430\u0432 \u0412\u0430\u0440\u043d\u0435\u043d\u0447\u0438\u043a 18", "phone": "052640424", "opening_hours": "Mo-Fr 09:00-19:30; Sa 10:00-17:00", "brand": "Vivacom", "brand:wikidata": "Q7937522", "nsi_id": "vivacom-5ceaa9"}, "geometry": {"type": "Point", "coordinates": [27.9104453, 43.2071372]}},
{"type": "Feature", "id": "3vXgcGOpVVamgrk6_qqlOD8up_M=", "properties": {"ref": "2305", "@spider": "vivacom_bg", "brand:bg": "\u0412\u0438\u0432\u0430\u043a\u043e\u043c", "brand:en": "Vivacom", "name:bg": "\u0412\u0438\u0432\u0430\u043a\u043e\u043c", "name:en": "Vivacom", "shop": "telecommunication", "addr:country": "BG", "name": "VIVACOM \u0414\u043e\u0431\u0440\u0438\u0447, \u0443\u043b.\u041d\u0435\u0437\u0430\u0432\u0438\u0441\u0438\u043c\u043e\u0441\u0442 \u21162", "phone": "58600228", "opening_hours": "Mo-Fr 09:00-19:00", "brand": "Vivacom", "brand:wikidata": "Q7937522", "nsi_id": "vivacom-5ceaa9"}, "geometry": {"type": "Point", "coordinates": [27.8287135, 43.5698226]}},
{"type": "Feature", "id": "ho3nmOatXbReQBLYOGCoyVyyIq8=", "properties": {"ref": "2306", "@spider": "vivacom_bg", "brand:bg": "\u0412\u0438\u0432\u0430\u043a\u043e\u043c", "brand:en": "Vivacom", "name:bg": "\u0412\u0438\u0432\u0430\u043a\u043e\u043c", "name:en": "Vivacom", "shop": "telecommunication", "addr:country": "BG", "name": "VIVACOM \u0412\u0430\u0440\u043d\u0430, \u0412\u0430\u0440\u043d\u0430, \u043a\u0432. \u0412\u044a\u0437\u0440\u0430\u0436\u0434\u0430\u043d\u0435 \u0443\u043b.\u0420\u0435\u043f\u0443\u0431\u043b\u0438\u043a\u0430 60, \u041a\u0430\u0443\u0444\u043b\u0430\u043d\u0434", "phone": "52599630", "opening_hours": "Mo-Sa 08:00-21:00; Su 09:00-20:00", "brand": "Vivacom", "brand:wikidata": "Q7937522", "nsi_id": "vivacom-5ceaa9"}, "geometry": {"type": "Point", "coordinates": [27.923097320312, 43.222816091266]}},
{"type": "Feature", "id": "1FPIGdrWq44C0ut90Y8cySXQxkM=", "properties": {"ref": "2308", "@spider": "vivacom_bg", "brand:bg": "\u0412\u0438\u0432\u0430\u043a\u043e\u043c", "brand:en": "Vivacom", "name:bg": "\u0412\u0438\u0432\u0430\u043a\u043e\u043c", "name:en": "Vivacom", "shop": "telecommunication", "addr:country": "BG", "name": "VIVACOM \u0412\u0430\u0440\u043d\u0430, \u0431\u0443\u043b.\u041e\u0441\u043c\u0438 \u041f\u0440\u0438\u043c\u043e\u0440\u0441\u043a\u0438 \u041f\u043e\u043b\u043a 67-69", "phone": "52600850", "opening_hours": "Mo-Fr 09:00-19:30; Sa 10:00-17:00", "brand": "Vivacom", "brand:wikidata": "Q7937522", "nsi_id": "vivacom-5ceaa9"}, "geometry": {"type": "Point", "coordinates": [27.9195772, 43.2092386]}},
{"type": "Feature", "id": "oItsoCfPMfSCfdE1_pnpNjr2y3w=", "properties": {"ref": "2310", "@spider": "vivacom_bg", "brand:bg": "\u0412\u0438\u0432\u0430\u043a\u043e\u043c", "brand:en": "Vivacom", "name:bg": "\u0412\u0438\u0432\u0430\u043a\u043e\u043c", "name:en": "Vivacom", "shop": "telecommunication", "addr:country": "BG", "name": "VIVACOM \u0412\u0430\u0440\u043d\u0430, \u0412\u0430\u0440\u043d\u0430, \u0443\u043b  \u042f\u043d \u041f\u0430\u043b\u0430\u0445 \u211610,  \u0412\u0430\u0440\u043d\u0430 \u041f\u0430\u043b\u0430\u0441 \u0426\u0435\u043d\u0442\u044a\u0440", "phone": "52334435", "opening_hours": "Mo-Fr 08:00-19:00; Sa 10:00-18:00", "brand": "Vivacom", "brand:wikidata": "Q7937522", "nsi_id": "vivacom-5ceaa9"}, "geometry": {"type": "Point", "coordinates": [27.9146633, 43.2197812]}},
{"type": "Feature", "id": "v1LVv_0BppMUiK3kAOsSWLVuYEs=", "properties": {"ref": "2311", "@spider": "vivacom_bg", "brand:bg": "\u0412\u0438\u0432\u0430\u043a\u043e\u043c", "brand:en": "Vivacom", "name:bg": "\u0412\u0438\u0432\u0430\u043a\u043e\u043c", "name:en": "Vivacom", "shop": "telecommunication", "addr:country": "BG", "name": "VIVACOM \u0421\u043e\u0444\u0438\u044f, \u0421\u043e\u0444\u0438\u044f, \u0436.\u043a.\u041e\u0432\u0447\u0430 \u043a\u0443\u043f\u0435\u043b, \u0431\u0443\u043b.\u0426\u0430\u0440 \u0411\u043e\u0440\u0438\u0441 \u0406\u0406\u0406 187", "phone": "29555555", "opening_hours": "Mo-Fr 09:00-19:30; Sa 10:00-17:00", "brand": "Vivacom", "brand:wikidata": "Q7937522", "nsi_id": "vivacom-5ceaa9"}, "geometry": {"type": "Point", "coordinates": [23.2725628, 42.6713754]}},
{"type": "Feature", "id": "W6xUKRSME7hkaV7yy8z19VdsXKA=", "properties": {"ref": "2313", "@spider": "vivacom_bg", "brand:bg": "\u0412\u0438\u0432\u0430\u043a\u043e\u043c", "brand:en": "Vivacom", "name:bg": "\u0412\u0438\u0432\u0430\u043a\u043e\u043c", "name:en": "Vivacom", "shop": "telecommunication", "addr:country": "BG", "name": "VIVACOM \u0421\u043e\u0444\u0438\u044f, \u0421\u043e\u0444\u0438\u044f, \u043f\u043b. \u0421\u043b\u0430\u0432\u0435\u0439\u043a\u043e\u0432 10 ", "phone": "29882434", "opening_hours": "Mo-Fr 09:00-19:30", "brand": "Vivacom", "brand:wikidata": "Q7937522", "nsi_id": "vivacom-5ceaa9"}, "geometry": {"type": "Point", "coordinates": [23.3242613, 42.6924132]}},
{"type": "Feature", "id": "uerapaYZ6VN1ODcc61kiPbuuOSQ=", "properties": {"ref": "2314", "@spider": "vivacom_bg", "brand:bg": "\u0412\u0438\u0432\u0430\u043a\u043e\u043c", "brand:en": "Vivacom", "name:bg": "\u0412\u0438\u0432\u0430\u043a\u043e\u043c", "name:en": "Vivacom", "shop": "telecommunication", "addr:country": "BG", "name": "VIVACOM \u0421\u043e\u0444\u0438\u044f, \u0421\u043e\u0444\u0438\u044f, \u0431\u0443\u043b. \u041c\u0430\u0434\u0440\u0438\u0434 \u2116 16", "phone": "29951756", "opening_hours": "Mo-Fr 09:00-19:00", "brand": "Vivacom", "brand:wikidata": "Q7937522", "nsi_id": "vivacom-5ceaa9"}, "geometry": {"type": "Point", "coordinates": [23.3486625, 42.6960588]}},
{"type": "Feature", "id": "L4s89W__jLL8V5TIrFYxsV56XTg=", "properties": {"ref": "2315", "@spider": "vivacom_bg", "brand:bg": "\u0412\u0438\u0432\u0430\u043a\u043e\u043c", "brand:en": "Vivacom", "name:bg": "\u0412\u0438\u0432\u0430\u043a\u043e\u043c", "name:en": "Vivacom", "shop": "telecommunication", "addr:country": "BG", "name": "VIVACOM \u0421\u043e\u0444\u0438\u044f, \u0421\u043e\u0444\u0438\u044f, \u0436.\u043a. \u041a\u0440\u0430\u0441\u043d\u043e \u0441\u0435\u043b\u043e,  \u0443\u043b. \u0413\u043e\u0446\u0435 \u0414\u0435\u043b\u0447\u0435\u0432 7", "phone": "29584560", "opening_hours": "Mo-Fr 09:00-19:30; Sa 10:00-17:00", "brand": "Vivacom", "brand:wikidata": "Q7937522", "nsi_id": "vivacom-5ceaa9"}, "geometry": {"type": "Point", "coordinates": [23.325319, 42.696189]}},
{"type": "Feature", "id": "KxssVtj-YqD-7zJRIYj_EMwHVAA=", "properties": {"ref": "5280", "@spider": "vivacom_bg", "brand:bg": "\u0412\u0438\u0432\u0430\u043a\u043e\u043c", "brand:en": "Vivacom", "name:bg": "\u0412\u0438\u0432\u0430\u043a\u043e\u043c", "name:en": "Vivacom", "shop": "telecommunication", "addr:country": "BG", "name": "VIVACOM \u0412\u0438\u0434\u0438\u043d, \u0412\u0438\u0434\u0438\u043d, \u0443\u043b. \u0416\u0435\u043b\u0435\u0437\u0430\u0440\u0441\u043a\u0430 \u2116 2", "phone": "094601515", "opening_hours": "Mo-Fr 09:00-18:00", "brand": "Vivacom", "brand:wikidata": "Q7937522", "nsi_id": "vivacom-5ceaa9"}, "geometry": {"type": "Point", "coordinates": [22.875641294235, 43.985153057051]}},
{"type": "Feature", "id": "sUdR1WTw6X_eZu6odK4VquToZ-8=", "properties": {"ref": "5283", "@spider": "vivacom_bg", "brand:bg": "\u0412\u0438\u0432\u0430\u043a\u043e\u043c", "brand:en": "Vivacom", "name:bg": "\u0412\u0438\u0432\u0430\u043a\u043e\u043c", "name:en": "Vivacom", "shop": "telecommunication", "addr:country": "BG", "name": "VIVACOM \u041a\u044a\u0440\u0434\u0436\u0430\u043b\u0438, \u041a\u044a\u0440\u0434\u0436\u0430\u043b\u0438, \u0431\u0443\u043b. \u0411\u044a\u043b\u0433\u0430\u0440\u0438\u044f \u2116 56", "phone": "036161068", "opening_hours": "Mo-Fr 09:00-19:00; Sa 10:00-17:00", "brand": "Vivacom", "brand:wikidata": "Q7937522", "nsi_id": "vivacom-5ceaa9"}, "geometry": {"type": "Point", "coordinates": [25.368698247189, 41.644382097189]}},
{"type": "Feature", "id": "uxFfzqfyqoF_qb1bHMIpxjStV34=", "properties": {"ref": "5307", "@spider": "vivacom_bg", "brand:bg": "\u0412\u0438\u0432\u0430\u043a\u043e\u043c", "brand:en": "Vivacom", "name:bg": "\u0412\u0438\u0432\u0430\u043a\u043e\u043c", "name:en": "Vivacom", "shop": "telecommunication", "addr:country": "BG", "name": "VIVACOM \u041f\u043b\u0435\u0432\u0435\u043d, \u041f\u043b\u0435\u0432\u0435\u043d, \u043f\u043b. \u0412\u044a\u0437\u0440\u0430\u0436\u0434\u0430\u043d\u0435 3", "phone": "064803305", "opening_hours": "Mo-Fr 09:00-19:00", "brand": "Vivacom", "brand:wikidata": "Q7937522", "nsi_id": "vivacom-5ceaa9"}, "geometry": {"type": "Point", "coordinates": [24.620827688995, 43.407216925874]}},
{"type": "Feature", "id": "8fX3h8BrZ4uz6v3oXiDyuMyEdDE=", "properties": {"ref": "5308", "@spider": "vivacom_bg", "brand:bg": "\u0412\u0438\u0432\u0430\u043a\u043e\u043c", "brand:en": "Vivacom", "name:bg": "\u0412\u0438\u0432\u0430\u043a\u043e\u043c", "name:en": "Vivacom", "shop": "telecommunication", "addr:country": "BG", "name": "VIVACOM \u0413\u0430\u0431\u0440\u043e\u0432\u043e, \u0413\u0430\u0431\u0440\u043e\u0432\u043e, \u0443\u043b. \u041d\u0438\u043a\u043e\u043b\u0430\u0435\u0432\u0441\u043a\u0430 8 ", "phone": "066821605", "opening_hours": "Mo-Fr 09:00-19:00", "brand": "Vivacom", "brand:wikidata": "Q7937522", "nsi_id": "vivacom-5ceaa9"}, "geometry": {"type": "Point", "coordinates": [25.319639303202, 42.870646126527]}},
{"type": "Feature", "id": "JyiiW8PvZ_-PWfrWYsWcK9iJCvY=", "properties": {"ref": "5285", "@spider": "vivacom_bg", "brand:bg": "\u0412\u0438\u0432\u0430\u043a\u043e\u043c", "brand:en": "Vivacom", "name:bg": "\u0412\u0438\u0432\u0430\u043a\u043e\u043c", "name:en": "Vivacom", "shop": "telecommunication", "addr:country": "BG", "name": "VIVACOM \u0422\u0440\u043e\u044f\u043d, \u0422\u0440\u043e\u044f\u043d, \u0443\u043b. \u0412\u0430\u0441\u0438\u043b \u041b\u0435\u0432\u0441\u043a\u0438 102", "phone": "067054500", "opening_hours": "Mo-Fr 09:00-19:00; Sa 10:00-17:00", "brand": "Vivacom", "brand:wikidata": "Q7937522", "nsi_id": "vivacom-5ceaa9"}, "geometry": {"type": "Point", "coordinates": [24.713133573532, 42.887905925848]}},
{"type": "Feature", "id": "zDItNA33vq-MNXqUei6RZmfCtkc=", "properties": {"ref": "5381", "@spider": "vivacom_bg", "brand:bg": "\u0412\u0438\u0432\u0430\u043a\u043e\u043c", "brand:en": "Vivacom", "name:bg": "\u0412\u0438\u0432\u0430\u043a\u043e\u043c", "name:en": "Vivacom", "shop": "telecommunication", "addr:country": "BG", "name": "VIVACOM \u0425\u0430\u0441\u043a\u043e\u0432\u043e, \u0425\u0430\u0441\u043a\u043e\u0432\u043e, \u0431\u0443\u043b.&amp;quot;\u0421\u044a\u0435\u0434\u0438\u043d\u0435\u043d\u0438\u0435&amp;quot;44, \u041a\u0430\u0443\u0444\u043b\u0430\u043d\u0434", "phone": "038660550", "opening_hours": "Mo-Sa 09:00-20:00; Su 09:00-19:00", "brand": "Vivacom", "brand:wikidata": "Q7937522", "nsi_id": "vivacom-5ceaa9"}, "geometry": {"type": "Point", "coordinates": [25.566891431808, 41.931584391371]}},
{"type": "Feature", "id": "HYpb4Fc5G0LcY70RikVpE6IEe8w=", "properties": {"ref": "5301", "@spider": "vivacom_bg", "brand:bg": "\u0412\u0438\u0432\u0430\u043a\u043e\u043c", "brand:en": "Vivacom", "name:bg": "\u0412\u0438\u0432\u0430\u043a\u043e\u043c", "name:en": "Vivacom", "shop": "telecommunication", "addr:country": "BG", "name": "VIVACOM \u041f\u043b\u043e\u0432\u0434\u0438\u0432, \u041f\u043b\u043e\u0432\u0434\u0438\u0432, \u0431\u0443\u043b. \u041d\u0438\u043a\u043e\u043b\u0430 \u0412\u0430\u043f\u0446\u0430\u0440\u043e\u0432 52", "phone": "032674001", "opening_hours": "Mo-Fr 09:00-19:00; Sa 10:00-14:00", "brand": "Vivacom", "brand:wikidata": "Q7937522", "nsi_id": "vivacom-5ceaa9"}, "geometry": {"type": "Point", "coordinates": [24.738444172257, 42.125007878907]}},
{"type": "Feature", "id": "85DCNloXhO7p-7AGu4xJnndbvJI=", "properties": {"ref": "5360", "@spider": "vivacom_bg", "brand:bg": "\u0412\u0438\u0432\u0430\u043a\u043e\u043c", "brand:en": "Vivacom", "name:bg": "\u0412\u0438\u0432\u0430\u043a\u043e\u043c", "name:en": "Vivacom", "shop": "telecommunication", "addr:country": "BG", "name": "VIVACOM \u0421\u043e\u0444\u0438\u044f, \u0421\u043e\u0444\u0438\u044f, \u041f\u0430\u0437\u0430\u0440 \u0425\u0430\u0434\u0436\u0438 \u0414\u0438\u043c\u0438\u0442\u044a\u0440, \u0443\u043b. \u041c\u0430\u043a\u0433\u0430\u0445a\u043d \u043f\u0430\u0432. 45/3", "phone": "029676370", "opening_hours": "Mo-Fr 09:30-16:30; Sa 10:00-17:00", "brand": "Vivacom", "brand:wikidata": "Q7937522", "nsi_id": "vivacom-5ceaa9"}, "geometry": {"type": "Point", "coordinates": [23.353083426575, 42.707103327098]}},
{"type": "Feature", "id": "DFAey6bI68hiaC4jnsRQiOQsHeA=", "properties": {"ref": "5300", "@spider": "vivacom_bg", "brand:bg": "\u0412\u0438\u0432\u0430\u043a\u043e\u043c", "brand:en": "Vivacom", "name:bg": "\u0412\u0438\u0432\u0430\u043a\u043e\u043c", "name:en": "Vivacom", "shop": "telecommunication", "addr:country": "BG", "name": "VIVACOM \u041f\u043b\u043e\u0432\u0434\u0438\u0432, \u041f\u043b\u043e\u0432\u0434\u0438\u0432, \u0431\u0443\u043b. \u0411\u044a\u043b\u0433\u0430\u0440\u0438\u044f 17", "phone": "032965599", "opening_hours": "Mo-Fr 09:00-18:30; Sa 10:00-17:00", "brand": "Vivacom", "brand:wikidata": "Q7937522", "nsi_id": "vivacom-5ceaa9"}, "geometry": {"type": "Point", "coordinates": [24.76149263749, 42.157168704017]}},
{"type": "Feature", "id": "zdDFqdZiKfMdsMAFcgQSFqUUUnw=", "properties": {"ref": "5282", "@spider": "vivacom_bg", "brand:bg": "\u0412\u0438\u0432\u0430\u043a\u043e\u043c", "brand:en": "Vivacom", "name:bg": "\u0412\u0438\u0432\u0430\u043a\u043e\u043c", "name:en": "Vivacom", "shop": "telecommunication", "addr:country": "BG", "name": "VIVACOM \u0410\u0441\u0435\u043d\u043e\u0432\u0433\u0440\u0430\u0434, \u0410\u0441\u0435\u043d\u043e\u0432\u0433\u0440\u0430\u0434, \u043f\u043b. \u0410\u043a\u0430\u0434.\u041d\u0438\u043a\u043e\u043b\u0430\u0439 \u0425\u0430\u0439\u0442\u043e\u0432  \u2116 3", "phone": "033165060", "opening_hours": "Mo-Fr 09:00-19:00; Sa 10:00-17:00", "brand": "Vivacom", "brand:wikidata": "Q7937522", "nsi_id": "vivacom-5ceaa9"}, "geometry": {"type": "Point", "coordinates": [24.875292487854, 42.008854098128]}},
{"type": "Feature", "id": "ve2cT0B97kkDXqZxpGIBjtEpXYA=", "properties": {"ref": "5304", "@spider": "vivacom_bg", "brand:bg": "\u0412\u0438\u0432\u0430\u043a\u043e\u043c", "brand:en": "Vivacom", "name:bg": "\u0412\u0438\u0432\u0430\u043a\u043e\u043c", "name:en": "Vivacom", "shop": "telecommunication", "addr:country": "BG", "name": "VIVACOM \u0421\u0442\u0430\u0440\u0430 \u0417\u0430\u0433\u043e\u0440\u0430, \u0431\u0443\u043b. \u0426\u0430\u0440 \u0421\u0438\u043c\u0435\u043e\u043d \u0412\u0435\u043b\u0438\u043a\u0438 \u2116 93", "phone": "042230403", "opening_hours": "Mo-Fr 09:00-19:00; Sa 10:00-17:00", "brand": "Vivacom", "brand:wikidata": "Q7937522", "nsi_id": "vivacom-5ceaa9"}, "geometry": {"type": "Point", "coordinates": [25.622867055649, 42.424066651002]}},
{"type": "Feature", "id": "JUAJjFFaRTLtQxZb0KTpyyEunKQ=", "properties": {"ref": "5320", "@spider": "vivacom_bg", "brand:bg": "\u0412\u0438\u0432\u0430\u043a\u043e\u043c", "brand:en": "Vivacom", "name:bg": "\u0412\u0438\u0432\u0430\u043a\u043e\u043c", "name:en": "Vivacom", "shop": "telecommunication", "addr:country": "BG", "name": "VIVACOM \u041f\u0435\u0442\u0440\u0438\u0447, \u041f\u0435\u0442\u0440\u0438\u0447, \u0443\u043b. \u0426\u0430\u0440 \u0411\u043e\u0440\u0438\u0441 III \u2116 20", "phone": "074560350", "opening_hours": "Mo-Fr 09:00-19:00; Sa 10:00-17:00", "brand": "Vivacom", "brand:wikidata": "Q7937522", "nsi_id": "vivacom-5ceaa9"}, "geometry": {"type": "Point", "coordinates": [23.207306563854, 41.394789308149]}},
{"type": "Feature", "id": "6Gsfk5VI3FRRUPebX0QVV5EOexc=", "properties": {"ref": "5380", "@spider": "vivacom_bg", "brand:bg": "\u0412\u0438\u0432\u0430\u043a\u043e\u043c", "brand:en": "Vivacom", "name:bg": "\u0412\u0438\u0432\u0430\u043a\u043e\u043c", "name:en": "Vivacom", "shop": "telecommunication", "addr:country": "BG", "name": "VIVACOM \u041f\u043b\u043e\u0432\u0434\u0438\u0432, \u041f\u043b\u043e\u0432\u0434\u0438\u0432, \u0436.\u043a. \u0422\u0440\u0430\u043a\u0438\u044f, \u0431\u0443\u043b.\u041e\u0441\u0432\u043e\u0431\u043e\u0436\u0434\u0435\u043d\u0438\u0435 47, \u041a\u0430\u0443\u0444\u043b\u0430\u043d\u0434", "phone": "032994400", "opening_hours": "Mo-Sa 08:00-21:00; Su 09:00-20:00", "brand": "Vivacom", "brand:wikidata": "Q7937522", "nsi_id": "vivacom-5ceaa9"}, "geometry": {"type": "Point", "coordinates": [24.789571166039, 42.132893979653]}},
{"type": "Feature", "id": "0C-YxpNI1VuVr1JyzFVm_T55vd4=", "properties": {"ref": "5342", "@spider": "vivacom_bg", "brand:bg": "\u0412\u0438\u0432\u0430\u043a\u043e\u043c", "brand:en": "Vivacom", "name:bg": "\u0412\u0438\u0432\u0430\u043a\u043e\u043c", "name:en": "Vivacom", "shop": "telecommunication", "addr:country": "BG", "name": "VIVACOM \u041f\u043b\u0435\u0432\u0435\u043d, \u041f\u043b\u0435\u0432\u0435\u043d, \u0443\u043b. \u0421\u0430\u043d \u0421\u0442\u0435\u0444\u0430\u043d\u043e \u211680 \u041a\u0430\u0443\u0444\u043b\u0430\u043d\u0434", "phone": "064610474", "opening_hours": "Mo-Sa 09:00-20:00; Su 09:00-19:00", "brand": "Vivacom", "brand:wikidata": "Q7937522", "nsi_id": "vivacom-5ceaa9"}, "geometry": {"type": "Point", "coordinates": [24.620844125748, 43.395202043609]}},
{"type": "Feature", "id": "6VCLDiNZSE0QTwjHhu_NjXM8vbw=", "properties": {"ref": "5302", "@spider": "vivacom_bg", "brand:bg": "\u0412\u0438\u0432\u0430\u043a\u043e\u043c", "brand:en": "Vivacom", "name:bg": "\u0412\u0438\u0432\u0430\u043a\u043e\u043c", "name:en": "Vivacom", "shop": "telecommunication", "addr:country": "BG", "name": "VIVACOM \u041f\u0430\u0437\u0430\u0440\u0434\u0436\u0438\u043a, \u041f\u0430\u0437\u0430\u0440\u0434\u0436\u0438\u043a, \u0443\u043b. \u0410\u0441\u0435\u043d \u0417\u043b\u0430\u0442\u0430\u0440\u043e\u0432  \u211623", "phone": "034460366", "opening_hours": "Mo-Fr 09:00-19:00", "brand": "Vivacom", "brand:wikidata": "Q7937522", "nsi_id": "vivacom-5ceaa9"}, "geometry": {"type": "Point", "coordinates": [24.487433430458, 42.18838901954]}},
{"type": "Feature", "id": "Dx50GWy8n1OfBIQ2VnpLkkjEvAk=", "properties": {"ref": "5305", "@spider": "vivacom_bg", "brand:bg": "\u0412\u0438\u0432\u0430\u043a\u043e\u043c", "brand:en": "Vivacom", "name:bg": "\u0412\u0438\u0432\u0430\u043a\u043e\u043c", "name:en": "Vivacom", "shop": "telecommunication", "addr:country": "BG", "name": "VIVACOM \u0420\u0443\u0441\u0435, \u0420\u0443\u0441\u0435, \u043f\u043b. \u0421\u0440\u0435\u0434\u0435\u0446 1", "phone": "082828782", "opening_hours": "Mo-Fr 09:00-19:00", "brand": "Vivacom", "brand:wikidata": "Q7937522", "nsi_id": "vivacom-5ceaa9"}, "geometry": {"type": "Point", "coordinates": [25.951178439611, 43.848718124436]}},
{"type": "Feature", "id": "GMTVuriKRw5ComG5ziB1VBhUrXQ=", "properties": {"ref": "5306", "@spider": "vivacom_bg", "brand:bg": "\u0412\u0438\u0432\u0430\u043a\u043e\u043c", "brand:en": "Vivacom", "name:bg": "\u0412\u0438\u0432\u0430\u043a\u043e\u043c", "name:en": "Vivacom", "shop": "telecommunication", "addr:country": "BG", "name": "VIVACOM \u0420\u0430\u0437\u0433\u0440\u0430\u0434, \u0420\u0430\u0437\u0433\u0440\u0430\u0434, \u0443\u043b. \u0411\u044a\u043b\u0433\u0430\u0440\u0438\u044f \u2116 21 \u0431\u043b. \u041c\u0438\u0440", "phone": "084622647", "opening_hours": "Mo-Fr 09:00-19:00", "brand": "Vivacom", "brand:wikidata": "Q7937522", "nsi_id": "vivacom-5ceaa9"}, "geometry": {"type": "Point", "coordinates": [26.529980756754, 43.524044512416]}},
{"type": "Feature", "id": "D6yGIJls2lapL58Tla5tqFF7Lpc=", "properties": {"ref": "5341", "@spider": "vivacom_bg", "brand:bg": "\u0412\u0438\u0432\u0430\u043a\u043e\u043c", "brand:en": "Vivacom", "name:bg": "\u0412\u0438\u0432\u0430\u043a\u043e\u043c", "name:en": "Vivacom", "shop": "telecommunication", "addr:country": "BG", "name": "VIVACOM \u0411\u043b\u0430\u0433\u043e\u0435\u0432\u0433\u0440\u0430\u0434, \u0411\u043b\u0430\u0433\u043e\u0435\u0432\u0433\u0440\u0430\u0434,  \u0431\u0443\u043b. \u0421\u0432.\u0414\u0438\u043c\u0438\u0442\u044a\u0440 \u0421\u043e\u043b\u0443\u043d\u0441\u043a\u0438 21, \u041a\u0430\u0443\u0444\u043b\u0430\u043d\u0434 ", "phone": "073830728", "opening_hours": "Mo-Sa 09:00-22:00; Su 09:00-19:00", "brand": "Vivacom", "brand:wikidata": "Q7937522", "nsi_id": "vivacom-5ceaa9"}, "geometry": {"type": "Point", "coordinates": [23.093908735031, 42.010661536518]}},
{"type": "Feature", "id": "_AiUawR9uT1CFJ9Uw-Jp6HbYGs4=", "properties": {"ref": "5382", "@spider": "vivacom_bg", "brand:bg": "\u0412\u0438\u0432\u0430\u043a\u043e\u043c", "brand:en": "Vivacom", "name:bg": "\u0412\u0438\u0432\u0430\u043a\u043e\u043c", "name:en": "Vivacom", "shop": "telecommunication", "addr:country": "BG", "name": "VIVACOM \u041f\u0435\u0440\u043d\u0438\u043a, \u041f\u0435\u0440\u043d\u0438\u043a, \u0443\u043b. 6-\u0442\u0438 \u043c\u0430\u0439 \u2116 1, \u041a\u0430\u0443\u0444\u043b\u0430\u043d\u0434 ", "phone": "076600247", "opening_hours": "Mo-Su 08:00-20:00", "brand": "Vivacom", "brand:wikidata": "Q7937522", "nsi_id": "vivacom-5ceaa9"}, "geometry": {"type": "Point", "coordinates": [23.036785125732, 42.60812694645]}},
{"type": "Feature", "id": "Pb0qoxN7CE8JBtadJRoSgKjHAAY=", "properties": {"ref": "5286", "@spider": "vivacom_bg", "brand:bg": "\u0412\u0438\u0432\u0430\u043a\u043e\u043c", "brand:en": "Vivacom", "name:bg": "\u0412\u0438\u0432\u0430\u043a\u043e\u043c", "name:en": "Vivacom", "shop": "telecommunication", "addr:country": "BG", "name": "VIVACOM \u041f\u043b\u043e\u0432\u0434\u0438\u0432, \u041f\u043b\u043e\u0432\u0434\u0438\u0432, \u0431\u0443\u043b. \u201e\u041c\u0430\u043a\u0435\u0434\u043e\u043d\u0438\u044f\u201c 47-49     ", "phone": "032210312", "opening_hours": "Mo-Fr 09:00-19:00", "brand": "Vivacom", "brand:wikidata": "Q7937522", "nsi_id": "vivacom-5ceaa9"}, "geometry": {"type": "Point", "coordinates": [24.743748307228, 42.129106617005]}},
{"type": "Feature", "id": "uNHIX_rNvJ7x8ov7JvjGZIbNYi0=", "properties": {"ref": "5281", "@spider": "vivacom_bg", "brand:bg": "\u0412\u0438\u0432\u0430\u043a\u043e\u043c", "brand:en": "Vivacom", "name:bg": "\u0412\u0438\u0432\u0430\u043a\u043e\u043c", "name:en": "Vivacom", "shop": "telecommunication", "addr:country": "BG", "name": "VIVACOM \u041f\u043b\u043e\u0432\u0434\u0438\u0432, \u041f\u043b\u043e\u0432\u0434\u0438\u0432, \u0443\u043b. \u041a\u043d\u044f\u0437 \u0410\u043b\u0435\u043a\u0441\u0430\u043d\u0434\u044a\u0440 I \u2116 45", "phone": "032260853", "opening_hours": "Mo-Fr 09:00-19:30", "brand": "Vivacom", "brand:wikidata": "Q7937522", "nsi_id": "vivacom-5ceaa9"}, "geometry": {"type": "Point", "coordinates": [24.749791928047, 42.144007292972]}},
{"type": "Feature", "id": "OId1NUjm7J8oeZICVGgx6C-OxZU=", "properties": {"ref": "5284", "@spider": "vivacom_bg", "brand:bg": "\u0412\u0438\u0432\u0430\u043a\u043e\u043c", "brand:en": "Vivacom", "name:bg": "\u0412\u0438\u0432\u0430\u043a\u043e\u043c", "name:en": "Vivacom", "shop": "telecommunication", "addr:country": "BG", "name": "VIVACOM \u0422\u044a\u0440\u0433\u043e\u0432\u0438\u0449\u0435, \u0422\u044a\u0440\u0433\u043e\u0432\u0438\u0449\u0435, \u0443\u043b. \u0412\u0430\u0441\u0438\u043b \u041b\u0435\u0432\u0441\u043a\u0438 28", "phone": "060169300", "opening_hours": "Mo-Fr 09:00-19:00; Sa 10:00-17:00", "brand": "Vivacom", "brand:wikidata": "Q7937522", "nsi_id": "vivacom-5ceaa9"}, "geometry": {"type": "Point", "coordinates": [26.57266945433, 43.247775998516]}},
{"type": "Feature", "id": "DK2-SWX-E-BNrXZeKwk48qSux5Q=", "properties": {"ref": "5309", "@spider": "vivacom_bg", "brand:bg": "\u0412\u0438\u0432\u0430\u043a\u043e\u043c", "brand:en": "Vivacom", "name:bg": "\u0412\u0438\u0432\u0430\u043a\u043e\u043c", "name:en": "Vivacom", "shop": "telecommunication", "addr:country": "BG", "name": "VIVACOM \u041f\u043b\u0435\u0432\u0435\u043d, \u041f\u043b\u0435\u0432\u0435\u043d, \u0443\u043b. \u0414\u0430\u043d\u0430\u0438\u043b \u041f\u043e\u043f\u043e\u0432 13 ", "phone": "064822100", "opening_hours": "Mo-Fr 09:00-19:00; Sa 10:00-17:00", "brand": "Vivacom", "brand:wikidata": "Q7937522", "nsi_id": "vivacom-5ceaa9"}, "geometry": {"type": "Point", "coordinates": [24.616629638189, 43.414878847623]}},
{"type": "Feature", "id": "wmaZG4jev1iMX1gB6rx1y8wbOKg=", "properties": {"ref": "5310", "@spider": "vivacom_bg", "brand:bg": "\u0412\u0438\u0432\u0430\u043a\u043e\u043c", "brand:en": "Vivacom", "name:bg": "\u0412\u0438\u0432\u0430\u043a\u043e\u043c", "name:en": "Vivacom", "shop": "telecommunication", "addr:country": "BG", "name": "VIVACOM \u0422\u0435\u0442\u0435\u0432\u0435\u043d, \u0422\u0435\u0442\u0435\u0432\u0435\u043d, \u0443\u043b. \u0418\u0432\u0430\u043d \u0412\u0430\u0437\u043e\u0432 \u2116 24\u0410", "phone": "067852322", "opening_hours": "Mo-Fr 09:00-19:00", "brand": "Vivacom", "brand:wikidata": "Q7937522", "nsi_id": "vivacom-5ceaa9"}, "geometry": {"type": "Point", "coordinates": [24.262924790382, 42.917954655184]}},
{"type": "Feature", "id": "hSk_i0HqTCmNVUVbe7NjpxBSjO8=", "properties": {"ref": "5311", "@spider": "vivacom_bg", "brand:bg": "\u0412\u0438\u0432\u0430\u043a\u043e\u043c", "brand:en": "Vivacom", "name:bg": "\u0412\u0438\u0432\u0430\u043a\u043e\u043c", "name:en": "Vivacom", "shop": "telecommunication", "addr:country": "BG", "name": "VIVACOM \u0420\u0430\u0437\u0433\u0440\u0430\u0434, \u0420\u0430\u0437\u0433\u0440\u0430\u0434, \u0431\u0443\u043b. \u0411\u044a\u043b\u0433\u0430\u0440\u0438\u044f \u2116 11", "phone": "084620050", "opening_hours": "Mo-Fr 09:00-19:00", "brand": "Vivacom", "brand:wikidata": "Q7937522", "nsi_id": "vivacom-5ceaa9"}, "geometry": {"type": "Point", "coordinates": [26.525384187698, 43.524896162955]}},
{"type": "Feature", "id": "B4qIgQibI3z-JoAnfXheCCDm8eM=", "properties": {"ref": "5340", "@spider": "vivacom_bg", "brand:bg": "\u0412\u0438\u0432\u0430\u043a\u043e\u043c", "brand:en": "Vivacom", "name:bg": "\u0412\u0438\u0432\u0430\u043a\u043e\u043c", "name:en": "Vivacom", "shop": "telecommunication", "addr:country": "BG", "name": "VIVACOM \u0414\u0438\u043c\u0438\u0442\u0440\u043e\u0432\u0433\u0440\u0430\u0434, \u0414\u0438\u043c\u0438\u0442\u0440\u043e\u0432\u0433\u0440\u0430\u0434, \u0431\u0443\u043b. \u0414\u0438\u043c\u0438\u0442\u044a\u0440 \u0411\u043b\u0430\u0433\u043e\u0435\u0432 \u2116 9", "phone": "039124001", "opening_hours": "Mo-Fr 09:00-18:00", "brand": "Vivacom", "brand:wikidata": "Q7937522", "nsi_id": "vivacom-5ceaa9"}, "geometry": {"type": "Point", "coordinates": [25.592737197876, 42.055964566874]}},
{"type": "Feature", "id": "E8HTaPf7_wEHUIIZK8ifGjcsT_g=", "properties": {"ref": "5303", "@spider": "vivacom_bg", "brand:bg": "\u0412\u0438\u0432\u0430\u043a\u043e\u043c", "brand:en": "Vivacom", "name:bg": "\u0412\u0438\u0432\u0430\u043a\u043e\u043c", "name:en": "Vivacom", "shop": "telecommunication", "addr:country": "BG", "name": "VIVACOM \u0421\u0442\u0430\u0440\u0430 \u0417\u0430\u0433\u043e\u0440\u0430, \u0421\u0442\u0430\u0440\u0430 \u0417\u0430\u0433\u043e\u0440\u0430, \u0443\u043b. \u0421\u0432. \u041a\u043d\u044f\u0437 \u0411\u043e\u0440\u0438\u0441 81", "phone": "042660606", "opening_hours": "Mo-Fr 09:00-19:00; Sa 10:00-17:00", "brand": "Vivacom", "brand:wikidata": "Q7937522", "nsi_id": "vivacom-5ceaa9"}, "geometry": {"type": "Point", "coordinates": [25.633949943298, 42.425629856932]}},
{"type": "Feature", "id": "TXBTkpI8N0pwrAcjwiW0TMS5YZE=", "properties": {"ref": "6100", "@spider": "vivacom_bg", "brand:bg": "\u0412\u0438\u0432\u0430\u043a\u043e\u043c", "brand:en": "Vivacom", "name:bg": "\u0412\u0438\u0432\u0430\u043a\u043e\u043c", "name:en": "Vivacom", "shop": "telecommunication", "addr:country": "BG", "name": "VIVACOM \u041b\u043e\u0432\u0435\u0447, \u041b\u043e\u0432\u0435\u0447, \u0443\u043b. \u0422\u044a\u0440\u0433\u043e\u0432\u0441\u043a\u0430 44", "phone": "68600320", "opening_hours": "Mo-Fr 09:00-19:00", "brand": "Vivacom", "brand:wikidata": "Q7937522", "nsi_id": "vivacom-5ceaa9"}, "geometry": {"type": "Point", "coordinates": [24.7181428, 43.1385478]}},
{"type": "Feature", "id": "3eJe3chrYj91acwt1fAct4LFEyw=", "properties": {"ref": "6140", "@spider": "vivacom_bg", "brand:bg": "\u0412\u0438\u0432\u0430\u043a\u043e\u043c", "brand:en": "Vivacom", "name:bg": "\u0412\u0438\u0432\u0430\u043a\u043e\u043c", "name:en": "Vivacom", "shop": "telecommunication", "addr:country": "BG", "name": "VIVACOM \u0421\u043e\u0444\u0438\u044f, \u0431\u0443\u043b. \u0412\u0438\u0442\u043e\u0448\u0430 67", "phone": "029951559", "opening_hours": "Mo-Fr 09:00-19:30", "brand": "Vivacom", "brand:wikidata": "Q7937522", "nsi_id": "vivacom-5ceaa9"}, "geometry": {"type": "Point", "coordinates": [23.3193598, 42.6893924]}}]}