{"type":"FeatureCollection","features":[{"type": "Feature", "id": "35cbyDydIm_k3bilF7YXzU3Ep0Y=", "properties": {"ref": "7039", "@spider": "voyagecare", "addr:full": "1 & 2 Canterbury Close", "addr:city": "Rotherham", "addr:state": "South Yorkshire", "addr:postcode": "S65 2LW", "addr:country": "GB", "name": "Canterbury Close", "website": "https://www.voyagecare.com/wp-json/voyagecare/v1/services/null/null/null/null/0/0/500", "brand": "Voyage Care"}, "geometry": {"type": "Point", "coordinates": [-1.32467, 53.42665]}},
{"type": "Feature", "id": "aVV2wuqsgPSbcFBPTo2MqIIDKGU=", "properties": {"ref": "7040", "@spider": "voyagecare", "addr:full": "1 Longmore Road", "addr:city": "READING", "addr:state": "Whitley Wood", "addr:postcode": "RG2 8QG", "addr:country": "GB", "name": "Longmore Road", "website": "https://www.voyagecare.com/wp-json/voyagecare/v1/services/null/null/null/null/0/0/500", "brand": "Voyage Care"}, "geometry": {"type": "Point", "coordinates": [-0.95646, 51.41333]}},
{"type": "Feature", "id": "K9-bl4h5lOfIoygZCCZk2TtpbfA=", "properties": {"ref": "7041", "@spider": "voyagecare", "addr:full": "1 Uppingham Gardens", "addr:state": "Berkshire", "addr:postcode": "RG4 6SP", "addr:country": "GB", "name": "Uppingham Gardens", "website": "https://www.voyagecare.com/wp-json/voyagecare/v1/services/null/null/null/null/0/0/500", "brand": "Voyage Care"}, "geometry": {"type": "Point", "coordinates": [-0.95257, 51.4842]}},
{"type": "Feature", "id": "_S-voNlSSmrkrM7IP0oVWJaAzDk=", "properties": {"ref": "7043", "@spider": "voyagecare", "addr:full": "100 Glass House Hill", "addr:state": "Derbyshire", "addr:postcode": "DE5 9QT", "addr:country": "GB", "name": "Glasshouse Hill", "website": "https://www.voyagecare.com/wp-json/voyagecare/v1/services/null/null/null/null/0/0/500", "brand": "Voyage Care"}, "geometry": {"type": "Point", "coordinates": [-1.37605, 53.04528]}},
{"type": "Feature", "id": "0Pj6_O60nnZJ90vViXrX-WAYYUs=", "properties": {"ref": "57896", "@spider": "voyagecare", "addr:full": "128 Beech Hill", "addr:city": "Haywards Heath", "addr:postcode": "RH16 3TT", "addr:country": "GB", "name": "Beech Hill", "website": "https://www.voyagecare.com/wp-json/voyagecare/v1/services/null/null/null/null/0/0/500", "brand": "Voyage Care"}, "geometry": {"type": "Point", "coordinates": [-0.07835, 50.99788]}},
{"type": "Feature", "id": "87w5Nu_cMldgYXcY2M9BSAIBNt8=", "properties": {"ref": "7044", "@spider": "voyagecare", "addr:full": "13 Hutton Avenue", "addr:state": "County Durham", "addr:postcode": "TS26 9PW", "addr:country": "GB", "name": "Hutton Avenue", "website": "https://www.voyagecare.com/wp-json/voyagecare/v1/services/null/null/null/null/0/0/500", "brand": "Voyage Care"}, "geometry": {"type": "Point", "coordinates": [-1.22236, 54.68465]}},
{"type": "Feature", "id": "oJAVfsTiBXEjh08ANdqHyZ9bZI4=", "properties": {"ref": "7045", "@spider": "voyagecare", "addr:full": "130 Whitworth Road", "addr:state": "Wiltshire", "addr:postcode": "SN25 3BJ", "addr:country": "GB", "name": "Whitworth Road", "website": "https://www.voyagecare.com/wp-json/voyagecare/v1/services/null/null/null/null/0/0/500", "brand": "Voyage Care"}, "geometry": {"type": "Point", "coordinates": [-1.79094, 51.58352]}},
{"type": "Feature", "id": "KFL16aErQm4eOuMk1K-NNJP_xhQ=", "properties": {"ref": "7046", "@spider": "voyagecare", "addr:full": "16 Balnacraig Avenue", "addr:state": "Greater London", "addr:postcode": "NW10 1TH", "addr:country": "GB", "name": "Balnacraig Avenue (The Leaves)", "website": "https://www.voyagecare.com/wp-json/voyagecare/v1/services/null/null/null/null/0/0/500", "brand": "Voyage Care"}, "geometry": {"type": "Point", "coordinates": [-0.25067, 51.55767]}},
{"type": "Feature", "id": "plI76iukeyq7D_5ECccKVicASUo=", "properties": {"ref": "7047", "@spider": "voyagecare", "addr:full": "17 Walsworth Road", "addr:state": "Hertfordshire", "addr:postcode": "SG4 9SP", "addr:country": "GB", "name": "Walsworth Road", "website": "https://www.voyagecare.com/wp-json/voyagecare/v1/services/null/null/null/null/0/0/500", "brand": "Voyage Care"}, "geometry": {"type": "Point", "coordinates": [-0.27196, 51.95037]}},
{"type": "Feature", "id": "HX6MrhWoFZHf7fKOQK3HNCVR_SY=", "properties": {"ref": "7048", "@spider": "voyagecare", "addr:full": "182 Ashby Road", "addr:state": "Staffordshire", "addr:postcode": "DE15 0LB", "addr:country": "GB", "name": "Ashby Road (A)", "website": "https://www.voyagecare.com/wp-json/voyagecare/v1/services/null/null/null/null/0/0/500", "brand": "Voyage Care"}, "geometry": {"type": "Point", "coordinates": [-1.61374, 52.80432]}},
{"type": "Feature", "id": "sFbDconDn61GktHxqYoigL-LGFs=", "properties": {"ref": "7049", "@spider": "voyagecare", "addr:full": "183 Ashby Road", "addr:state": "Staffordshire", "addr:postcode": "DE15 0LB", "addr:country": "GB", "name": "Ashby Road (B)", "website": "https://www.voyagecare.com/wp-json/voyagecare/v1/services/null/null/null/null/0/0/500", "brand": "Voyage Care"}, "geometry": {"type": "Point", "coordinates": [-1.61374, 52.80432]}},
{"type": "Feature", "id": "xcf1zIdkfu6LJhVdGXVJxxULkMg=", "properties": {"ref": "7050", "@spider": "voyagecare", "addr:full": "198 Rossendale Road", "addr:state": "Lancashire", "addr:postcode": "BB11 5DE", "addr:country": "GB", "name": "Rossendale Road", "website": "https://www.voyagecare.com/wp-json/voyagecare/v1/services/null/null/null/null/0/0/500", "brand": "Voyage Care"}, "geometry": {"type": "Point", "coordinates": [-2.27229, 53.78047]}},
{"type": "Feature", "id": "YvOHPZflBFdebQ-kT_t_oEjWjDc=", "properties": {"ref": "7051", "@spider": "voyagecare", "addr:full": "20 Towngate East", "addr:state": "Lincolnshire", "addr:postcode": "PE6 8DR", "addr:country": "GB", "name": "Towngate East", "website": "https://www.voyagecare.com/wp-json/voyagecare/v1/services/null/null/null/null/0/0/500", "brand": "Voyage Care"}, "geometry": {"type": "Point", "coordinates": [-0.3215, 52.68333]}},
{"type": "Feature", "id": "c8FGJ2cz4hPNLuXD-BHzDYiXTrg=", "properties": {"ref": "57897", "@spider": "voyagecare", "addr:full": "22 Woodlands Road", "addr:city": "Reading", "addr:postcode": "RG4 9TE", "addr:country": "GB", "name": "Woodlands Road", "website": "https://www.voyagecare.com/wp-json/voyagecare/v1/services/null/null/null/null/0/0/500", "brand": "Voyage Care"}, "geometry": {"type": "Point", "coordinates": [-0.98434, 51.51979]}},
{"type": "Feature", "id": "A9sdtFRjCPkoax8ns21w-RQgmjE=", "properties": {"ref": "7053", "@spider": "voyagecare", "addr:full": "23 Cecil Road", "addr:state": "Derbyshire", "addr:postcode": "S18 2GW", "addr:country": "GB", "name": "Cecil Road", "website": "https://www.voyagecare.com/wp-json/voyagecare/v1/services/null/null/null/null/0/0/500", "brand": "Voyage Care"}, "geometry": {"type": "Point", "coordinates": [-1.47028, 53.30598]}},
{"type": "Feature", "id": "ts_5Bi2vtchnznVMW0w-566HQ9w=", "properties": {"ref": "7054", "@spider": "voyagecare", "addr:full": "235 Rugeley Road", "addr:state": "Staffordshire", "addr:postcode": "WS7 1NS", "addr:country": "GB", "name": "Rugeley Road", "website": "https://www.voyagecare.com/wp-json/voyagecare/v1/services/null/null/null/null/0/0/500", "brand": "Voyage Care"}, "geometry": {"type": "Point", "coordinates": [-1.934, 52.69]}},
{"type": "Feature", "id": "yAdTDQueVPUEHrjJExeJQHHEsjs=", "properties": {"ref": "7055", "@spider": "voyagecare", "addr:full": "St Marks Road", "addr:city": "Derby ", "addr:state": "Derbyshire", "addr:postcode": "DE21 6AH", "addr:country": "GB", "name": "St Marks Road", "website": "https://www.voyagecare.com/wp-json/voyagecare/v1/services/null/null/null/null/0/0/500", "brand": "Voyage Care"}, "geometry": {"type": "Point", "coordinates": [-1.45814, 52.9267]}},
{"type": "Feature", "id": "1SPvlLJzTRrBhTDEJDZ8POt26N4=", "properties": {"ref": "44363", "@spider": "voyagecare", "addr:full": "25 Spring Garden Lane", "addr:postcode": "TS7 9JB", "addr:country": "GB", "name": "Spring Garden Lane", "website": "https://www.voyagecare.com/wp-json/voyagecare/v1/services/null/null/null/null/0/0/500", "brand": "Voyage Care"}, "geometry": {"type": "Point", "coordinates": [-1.17408, 54.53939]}},
{"type": "Feature", "id": "o7Cthh2nDSJlHyMQ-HJS0nsYww4=", "properties": {"ref": "57898", "@spider": "voyagecare", "addr:full": "25 Welby Close", "addr:city": "Maidenhead", "addr:postcode": "SL6 3PY", "addr:country": "GB", "name": "Welby Close", "website": "https://www.voyagecare.com/wp-json/voyagecare/v1/services/null/null/null/null/0/0/500", "brand": "Voyage Care"}, "geometry": {"type": "Point", "coordinates": [-0.75584, 51.51069]}},
{"type": "Feature", "id": "1N6ajN7y6KVIqt_SdLUb9CUFCYc=", "properties": {"ref": "7056", "@spider": "voyagecare", "addr:full": "26 St Marks Road", "addr:state": "Derbyshire", "addr:postcode": "DE21 6AH", "addr:country": "GB", "name": "St Marks Road", "website": "https://www.voyagecare.com/wp-json/voyagecare/v1/services/null/null/null/null/0/0/500", "brand": "Voyage Care"}, "geometry": {"type": "Point", "coordinates": [-1.45795, 52.92664]}},
{"type": "Feature", "id": "XKRcTdaPZrF1SgRpstOmwJZ610o=", "properties": {"ref": "7057", "@spider": "voyagecare", "addr:full": "28-30 Woolston Road", "addr:state": "Hampshire", "addr:postcode": "SO31 5FQ", "addr:country": "GB", "name": "Woolston Road", "website": "https://www.voyagecare.com/wp-json/voyagecare/v1/services/null/null/null/null/0/0/500", "brand": "Voyage Care"}, "geometry": {"type": "Point", "coordinates": [-1.33772, 50.87811]}},
{"type": "Feature", "id": "jWLZTT6qaR8cb5oQySGpAauj9qY=", "properties": {"ref": "57899", "@spider": "voyagecare", "addr:full": "29 Briants Avenue", "addr:city": "Reading", "addr:postcode": "RG4 5AY", "addr:country": "GB", "name": "Briants Avenue", "website": "https://www.voyagecare.com/wp-json/voyagecare/v1/services/null/null/null/null/0/0/500", "brand": "Voyage Care"}, "geometry": {"type": "Point", "coordinates": [-0.95964, 51.46661]}},
{"type": "Feature", "id": "RPng5Zu9e9WWCApddEz6lxSgiGA=", "properties": {"ref": "7058", "@spider": "voyagecare", "addr:full": "2a & 2b Mayfair", "addr:state": "Berkshire", "addr:postcode": "RG30 4QY", "addr:country": "GB", "name": "Mayfair", "website": "https://www.voyagecare.com/wp-json/voyagecare/v1/services/null/null/null/null/0/0/500", "brand": "Voyage Care"}, "geometry": {"type": "Point", "coordinates": [-1.04437, 51.45543]}},
{"type": "Feature", "id": "Ue-DNwcUvzYjPx2x2xIpshJnY-I=", "properties": {"ref": "7059", "@spider": "voyagecare", "addr:full": "31 Abbotts Road", "addr:state": "West Midlands", "addr:postcode": "B24 8HE", "addr:country": "GB", "name": "Abbots Road", "website": "https://www.voyagecare.com/wp-json/voyagecare/v1/services/null/null/null/null/0/0/500", "brand": "Voyage Care"}, "geometry": {"type": "Point", "coordinates": [-1.84239, 52.50928]}},
{"type": "Feature", "id": "DXwabvpG9HLAXLwxpnxUbNIE7CM=", "properties": {"ref": "7060", "@spider": "voyagecare", "addr:full": "351 Maidstone Road", "addr:state": "Kent", "addr:postcode": "ME8 0HU", "addr:country": "GB", "name": "Maidstone Road", "website": "https://www.voyagecare.com/wp-json/voyagecare/v1/services/null/null/null/null/0/0/500", "brand": "Voyage Care"}, "geometry": {"type": "Point", "coordinates": [0.59174, 51.35381]}},
{"type": "Feature", "id": "r6grOupJsC6e3lw0EAMzJ6xRiGA=", "properties": {"ref": "57900", "@spider": "voyagecare", "addr:full": "4 Pages Orchard", "addr:city": "Reading", "addr:postcode": "RG4 9LW", "addr:country": "GB", "name": "Pages Orchard", "website": "https://www.voyagecare.com/wp-json/voyagecare/v1/services/null/null/null/null/0/0/500", "brand": "Voyage Care"}, "geometry": {"type": "Point", "coordinates": [-0.98636, 51.51536]}},
{"type": "Feature", "id": "_24sAB0KXEOoEZzRvIzmWkGyEE8=", "properties": {"ref": "7061", "@spider": "voyagecare", "addr:full": "43 Station Road", "addr:state": "Berkshire", "addr:postcode": "TW19 5ND", "addr:country": "GB", "name": "Station Road", "website": "https://www.voyagecare.com/wp-json/voyagecare/v1/services/null/null/null/null/0/0/500", "brand": "Voyage Care"}, "geometry": {"type": "Point", "coordinates": [-0.55187, 51.45806]}},
{"type": "Feature", "id": "055QbGmKFIHPskN0jrSRliOvhDU=", "properties": {"ref": "7062", "@spider": "voyagecare", "addr:full": "45 Hall Green Road", "addr:state": "West Midlands", "addr:postcode": "B71 3JS", "addr:country": "GB", "name": "Hall Green Road", "website": "https://www.voyagecare.com/wp-json/voyagecare/v1/services/null/null/null/null/0/0/500", "brand": "Voyage Care"}, "geometry": {"type": "Point", "coordinates": [-1.9854, 52.54541]}},
{"type": "Feature", "id": "DNfn31hEGR4Vq5AVlWhKOf25s7U=", "properties": {"ref": "7063", "@spider": "voyagecare", "addr:full": "46 London Road", "addr:city": "Gloucester", "addr:state": "Gloucestershire", "addr:postcode": "GL1 3NZ", "addr:country": "GB", "name": "London Road", "website": "https://www.voyagecare.com/wp-json/voyagecare/v1/services/null/null/null/null/0/0/500", "brand": "Voyage Care"}, "geometry": {"type": "Point", "coordinates": [-2.23616, 51.86771]}},
{"type": "Feature", "id": "l5xIdidKWXM5TpMTsl6UCr-Cbv0=", "properties": {"ref": "7064", "@spider": "voyagecare", "addr:full": "Cedar Road", "addr:state": "West Midlands", "addr:postcode": "DY1 4HW", "addr:country": "GB", "name": "Cedar Road", "website": "https://www.voyagecare.com/wp-json/voyagecare/v1/services/null/null/null/null/0/0/500", "brand": "Voyage Care"}, "geometry": {"type": "Point", "coordinates": [-2.09061, 52.5204]}},
{"type": "Feature", "id": "CvtSFPvl8mcFYtXgo8rvBDFagi4=", "properties": {"ref": "57901", "@spider": "voyagecare", "addr:full": "49 Stolford Rise", "addr:city": "Milton Keynes", "addr:postcode": "MK4 3DW", "addr:country": "GB", "name": "Stolford Rise", "website": "https://www.voyagecare.com/wp-json/voyagecare/v1/services/null/null/null/null/0/0/500", "brand": "Voyage Care"}, "geometry": {"type": "Point", "coordinates": [0.78402, 51.99911]}},
{"type": "Feature", "id": "jyzAEdIcWXaI9RFcM4lZlZUUxho=", "properties": {"ref": "44118", "@spider": "voyagecare", "addr:full": "50 Burton Road", "addr:state": "Staffordshire", "addr:postcode": "DE14 3DN", "addr:country": "GB", "name": "Burton Road", "website": "https://www.voyagecare.com/wp-json/voyagecare/v1/services/null/null/null/null/0/0/500", "brand": "Voyage Care"}, "geometry": {"type": "Point", "coordinates": [-1.64973, 52.78876]}},
{"type": "Feature", "id": "MemJe3P6Vk3T5hK0yPvOe8YdL40=", "properties": {"ref": "7066", "@spider": "voyagecare", "addr:full": "52 Carville Road", "addr:state": "Tyne and Wear", "addr:postcode": "NE28 6AB", "addr:country": "GB", "name": "Carville Road", "website": "https://www.voyagecare.com/wp-json/voyagecare/v1/services/null/null/null/null/0/0/500", "brand": "Voyage Care"}, "geometry": {"type": "Point", "coordinates": [-1.53383, 54.98808]}},
{"type": "Feature", "id": "agBs-5I4vwU1RxQ3cc3Vw0W5Yx8=", "properties": {"ref": "57902", "@spider": "voyagecare", "addr:full": "52 Porthcawl Green,", "addr:city": "Mlton Keynes", "addr:postcode": "MK4 3AL", "addr:country": "GB", "name": "Porthcawl Green", "website": "https://www.voyagecare.com/wp-json/voyagecare/v1/services/null/null/null/null/0/0/500", "brand": "Voyage Care"}, "geometry": {"type": "Point", "coordinates": [-0.77503, 51.99763]}},
{"type": "Feature", "id": "qw-hr1iR3v7E2neKqU2zdu9h6ns=", "properties": {"ref": "7067", "@spider": "voyagecare", "addr:full": "579 Maidstone Road", "addr:state": "Kent", "addr:postcode": "ME8 0LQ", "addr:country": "GB", "name": "Maidstone Road", "website": "https://www.voyagecare.com/wp-json/voyagecare/v1/services/null/null/null/null/0/0/500", "brand": "Voyage Care"}, "geometry": {"type": "Point", "coordinates": [0.58837, 51.34115]}},
{"type": "Feature", "id": "oDEIkoQMtDjkF_Qtbqf8VvdiIt4=", "properties": {"ref": "7068", "@spider": "voyagecare", "addr:full": "60 Cobham Road", "addr:state": "Surrey", "addr:postcode": "KT22 9JS", "addr:country": "GB", "name": "Cobham Road", "website": "https://www.voyagecare.com/wp-json/voyagecare/v1/services/null/null/null/null/0/0/500", "brand": "Voyage Care"}, "geometry": {"type": "Point", "coordinates": [-0.34827, 51.29333]}},
{"type": "Feature", "id": "Nu5ZBIzc7FNOCbEKCDjZXCae0cM=", "properties": {"ref": "7069", "@spider": "voyagecare", "addr:full": "66 Dudley Street", "addr:state": "West Midlands", "addr:postcode": "B70 9LU", "addr:country": "GB", "name": "Dudley Street", "website": "https://www.voyagecare.com/wp-json/voyagecare/v1/services/null/null/null/null/0/0/500", "brand": "Voyage Care"}, "geometry": {"type": "Point", "coordinates": [-2.01014, 52.52576]}},
{"type": "Feature", "id": "dpDWdsC-lBpr8QZocDZM94GK64s=", "properties": {"ref": "7070", "@spider": "voyagecare", "addr:full": "694 Pinner Road", "addr:state": "Greater London", "addr:postcode": "HA5 5QY", "addr:country": "GB", "name": "Pinner Road", "website": "https://www.voyagecare.com/wp-json/voyagecare/v1/services/null/null/null/null/0/0/500", "brand": "Voyage Care"}, "geometry": {"type": "Point", "coordinates": [-0.37255, 51.59104]}},
{"type": "Feature", "id": "7F4Ob794R7pkydJKYOeaVAQTF7w=", "properties": {"ref": "7071", "@spider": "voyagecare", "addr:full": "703 Burton Road", "addr:state": "Derbyshire", "addr:postcode": "DE11 0DL", "addr:country": "GB", "name": "Burton Road", "website": "https://www.voyagecare.com/wp-json/voyagecare/v1/services/null/null/null/null/0/0/500", "brand": "Voyage Care"}, "geometry": {"type": "Point", "coordinates": [-1.55853, 52.78854]}},
{"type": "Feature", "id": "5nRM0yQm7QvKZezm48-y4RY4YHc=", "properties": {"ref": "7073", "@spider": "voyagecare", "addr:full": "9 Rosslyn Crescent", "addr:state": "Greater London", "addr:postcode": "HA9 7NZ", "addr:country": "GB", "name": "Rosslyn Crescent", "website": "https://www.voyagecare.com/wp-json/voyagecare/v1/services/null/null/null/null/0/0/500", "brand": "Voyage Care"}, "geometry": {"type": "Point", "coordinates": [-0.29786, 51.56125]}},
{"type": "Feature", "id": "G7I4Zz6WF5k5U1lskP_iS-TWGFc=", "properties": {"ref": "7074", "@spider": "voyagecare", "addr:full": "Abbey Gardens", "addr:state": "Dumfries", "addr:postcode": "DG2 0QB", "addr:country": "GB", "name": "Abbey Gardens", "website": "https://www.voyagecare.com/wp-json/voyagecare/v1/services/null/null/null/null/0/0/500", "brand": "Voyage Care"}, "geometry": {"type": "Point", "coordinates": [-3.6256, 55.08044]}},
{"type": "Feature", "id": "rxQU6X30XRIYBk5IIMrGmXTQbnw=", "properties": {"ref": "7076", "@spider": "voyagecare", "addr:full": "Killingbeck Drive", "addr:state": "West Yorkshire", "addr:postcode": "LS14 6UF", "addr:country": "GB", "name": "Acorns Autism Community Support", "website": "https://www.voyagecare.com/wp-json/voyagecare/v1/services/null/null/null/null/0/0/500", "brand": "Voyage Care"}, "geometry": {"type": "Point", "coordinates": [-1.48115, 53.80496]}},
{"type": "Feature", "id": "9mgE6XqDN7AcDASiz0dQ0HWt9DA=", "properties": {"ref": "7077", "@spider": "voyagecare", "addr:full": "Mimosa Lodge", "addr:state": "England", "addr:postcode": "Boorley Green", "addr:country": "GB", "name": "Activities", "website": "https://www.voyagecare.com/wp-json/voyagecare/v1/services/null/null/null/null/0/0/500", "brand": "Voyage Care"}, "geometry": {"type": "Point", "coordinates": [-1.28018, 50.92678]}},
{"type": "Feature", "id": "z0BaZZ4Cm--6mU0aHbZqt18AMiQ=", "properties": {"ref": "7081", "@spider": "voyagecare", "addr:full": "Agricola House", "addr:state": "Greater Manchester", "addr:postcode": "Tottington", "addr:country": "GB", "name": "Agricola House", "website": "https://www.voyagecare.com/wp-json/voyagecare/v1/services/null/null/null/null/0/0/500", "brand": "Voyage Care"}, "geometry": {"type": "Point", "coordinates": [-2.33594, 53.61561]}},
{"type": "Feature", "id": "i1ZCIF8OUzOCP2-1JTIiV9Lymuk=", "properties": {"ref": "7085", "@spider": "voyagecare", "addr:full": "17 Cambridge Road", "addr:state": "Kent", "addr:postcode": "Walmer", "addr:country": "GB", "name": "Anro House", "website": "https://www.voyagecare.com/wp-json/voyagecare/v1/services/null/null/null/null/0/0/500", "brand": "Voyage Care"}, "geometry": {"type": "Point", "coordinates": [1.4018, 51.21013]}},
{"type": "Feature", "id": "4DNpFutkksa6T6ZKCh3hmIP2zE4=", "properties": {"ref": "7087", "@spider": "voyagecare", "addr:full": "18 Aqueduct Road", "addr:state": "West Midlands", "addr:postcode": "B90 1BT", "addr:country": "GB", "name": "Aqueduct Road", "website": "https://www.voyagecare.com/wp-json/voyagecare/v1/services/null/null/null/null/0/0/500", "brand": "Voyage Care"}, "geometry": {"type": "Point", "coordinates": [-1.85183, 52.40608]}},
{"type": "Feature", "id": "MC1VuD0nFdj9P5xgOvm-WwhEFWA=", "properties": {"ref": "7088", "@spider": "voyagecare", "addr:full": "514 Arnold Road", "addr:state": "Nottinghamshire", "addr:postcode": "NG5 5HN", "addr:country": "GB", "name": "Arnold Road", "website": "https://www.voyagecare.com/wp-json/voyagecare/v1/services/null/null/null/null/0/0/500", "brand": "Voyage Care"}, "geometry": {"type": "Point", "coordinates": [-1.15499, 52.99542]}},
{"type": "Feature", "id": "HZ26xV76jnvdULWfUFHywZlfcWs=", "properties": {"ref": "7092", "@spider": "voyagecare", "addr:full": "Rakemakers", "addr:state": "Hampshire", "addr:postcode": "GU34 4ED", "addr:country": "GB", "name": "Ashdale", "website": "https://www.voyagecare.com/wp-json/voyagecare/v1/services/null/null/null/null/0/0/500", "brand": "Voyage Care"}, "geometry": {"type": "Point", "coordinates": [-0.97487, 51.14765]}},
{"type": "Feature", "id": "EjPHP1Dton8PoH1xJikORHsy4Fg=", "properties": {"ref": "7093", "@spider": "voyagecare", "addr:full": "Ashleigh House", "addr:state": "Somerset", "addr:postcode": "TA1 1BZ", "addr:country": "GB", "name": "Ashleigh House", "website": "https://www.voyagecare.com/wp-json/voyagecare/v1/services/null/null/null/null/0/0/500", "brand": "Voyage Care"}, "geometry": {"type": "Point", "coordinates": [-3.11136, 51.02307]}},
{"type": "Feature", "id": "klXI83alhU3SKbMjf_qgV_4eqUc=", "properties": {"ref": "7097", "@spider": "voyagecare", "addr:full": "Astbury View", "addr:state": "West Midlands", "addr:postcode": "Bloxwich", "addr:country": "GB", "name": "Astbury View", "website": "https://www.voyagecare.com/wp-json/voyagecare/v1/services/null/null/null/null/0/0/500", "brand": "Voyage Care"}, "geometry": {"type": "Point", "coordinates": [-2.01321, 52.62963]}},
{"type": "Feature", "id": "4qmYl1ZwdhvB90EcTt0x1OTrU_0=", "properties": {"ref": "7101", "@spider": "voyagecare", "addr:full": "Aykroyd Lodge", "addr:state": "Lancashire", "addr:postcode": "Reedley", "addr:country": "GB", "name": "Aykroyd Lodge", "website": "https://www.voyagecare.com/wp-json/voyagecare/v1/services/null/null/null/null/0/0/500", "brand": "Voyage Care"}, "geometry": {"type": "Point", "coordinates": [-2.23021, 53.81938]}},
{"type": "Feature", "id": "pXMYbBuOU-cg4Xn3WwSKfemuQiU=", "properties": {"ref": "7102", "@spider": "voyagecare", "addr:full": "Barley Close", "addr:state": "Devon", "addr:postcode": "Musbury", "addr:country": "GB", "name": "Barley Close", "website": "https://www.voyagecare.com/wp-json/voyagecare/v1/services/null/null/null/null/0/0/500", "brand": "Voyage Care"}, "geometry": {"type": "Point", "coordinates": [-3.02839, 50.75066]}},
{"type": "Feature", "id": "aNUxDWGwRMzBllrXoVVFoJ9kxmE=", "properties": {"ref": "7103", "@spider": "voyagecare", "addr:full": "3 Barn Rise", "addr:state": "Greater London", "addr:postcode": "HA9 9NA", "addr:country": "GB", "name": "Barn Rise", "website": "https://www.voyagecare.com/wp-json/voyagecare/v1/services/null/null/null/null/0/0/500", "brand": "Voyage Care"}, "geometry": {"type": "Point", "coordinates": [-0.27821, 51.5665]}},
{"type": "Feature", "id": "pGxb9KxxF0X1TNBPTOoCl0ilep0=", "properties": {"ref": "7105", "@spider": "voyagecare", "addr:full": "Barrington House", "addr:state": "Ayrshire and Arran", "addr:postcode": "KA15 2BE", "addr:country": "GB", "name": "Barrington House", "website": "https://www.voyagecare.com/wp-json/voyagecare/v1/services/null/null/null/null/0/0/500", "brand": "Voyage Care"}, "geometry": {"type": "Point", "coordinates": [-4.63003, 55.7534]}},
{"type": "Feature", "id": "COtwmqq2Czvf42W_bJDM473ldtE=", "properties": {"ref": "7110", "@spider": "voyagecare", "addr:full": "Beech House", "addr:state": "Berkshire", "addr:postcode": "Woodley", "addr:country": "GB", "name": "Beech House", "website": "https://www.voyagecare.com/wp-json/voyagecare/v1/services/null/null/null/null/0/0/500", "brand": "Voyage Care"}, "geometry": {"type": "Point", "coordinates": [-0.90657, 51.45107]}},
{"type": "Feature", "id": "3OZPhhSkOcGxI3UR7ffTMdUej5I=", "properties": {"ref": "7111", "@spider": "voyagecare", "addr:full": "14 Ulundi Road", "addr:state": "Renfrewshire", "addr:postcode": "PA5 8TE", "addr:country": "GB", "name": "Beechmount", "website": "https://www.voyagecare.com/wp-json/voyagecare/v1/services/null/null/null/null/0/0/500", "brand": "Voyage Care"}, "geometry": {"type": "Point", "coordinates": [-4.52046, 55.83451]}},
{"type": "Feature", "id": "favZqCWwaPwjnAPnDj2uIsi3Q_U=", "properties": {"ref": "7113", "@spider": "voyagecare", "addr:full": "High Pitfold", "addr:state": "Surrey", "addr:postcode": "GU26 6BN", "addr:country": "GB", "name": "Beechwood", "website": "https://www.voyagecare.com/wp-json/voyagecare/v1/services/null/null/null/null/0/0/500", "brand": "Voyage Care"}, "geometry": {"type": "Point", "coordinates": [-0.74636, 51.1002]}},
{"type": "Feature", "id": "X5yRcd9m5_l11A7JyfZQXje7fZg=", "properties": {"ref": "7114", "@spider": "voyagecare", "addr:full": "Hesleden Road", "addr:state": "England", "addr:postcode": "Hesleden", "addr:country": "GB", "name": "Belchford", "website": "https://www.voyagecare.com/wp-json/voyagecare/v1/services/null/null/null/null/0/0/500", "brand": "Voyage Care"}, "geometry": {"type": "Point", "coordinates": [-1.3039, 54.74353]}},
{"type": "Feature", "id": "_1vgHoMpa6Pkq-M_QNdHrtd82JI=", "properties": {"ref": "7119", "@spider": "voyagecare", "addr:full": "Bethia Cottage", "addr:state": "East Riding of Yorkshire", "addr:postcode": "Preston", "addr:country": "GB", "name": "Bethia Cottage", "website": "https://www.voyagecare.com/wp-json/voyagecare/v1/services/null/null/null/null/0/0/500", "brand": "Voyage Care"}, "geometry": {"type": "Point", "coordinates": [-0.20067, 53.76596]}},
{"type": "Feature", "id": "9b5dmF0TERRE_vsrEuweoDxgwSk=", "properties": {"ref": "7121", "@spider": "voyagecare", "addr:full": "Bewick House", "addr:state": "County Durham", "addr:postcode": "DL1 3HW", "addr:country": "GB", "name": "Bewick House", "website": "https://www.voyagecare.com/wp-json/voyagecare/v1/services/null/null/null/null/0/0/500", "brand": "Voyage Care"}, "geometry": {"type": "Point", "coordinates": [-1.52018, 54.54324]}},
{"type": "Feature", "id": "D7z15ivoePmeg7e_LB6huArwwmU=", "properties": {"ref": "7123", "@spider": "voyagecare", "addr:full": "Birchwood Bungalow", "addr:state": "Hertfordshire", "addr:postcode": "Park Street", "addr:country": "GB", "name": "Birchwood Bungalow", "website": "https://www.voyagecare.com/wp-json/voyagecare/v1/services/null/null/null/null/0/0/500", "brand": "Voyage Care"}, "geometry": {"type": "Point", "coordinates": [-0.35351, 51.71985]}},
{"type": "Feature", "id": "kdNwn0B1dxbdqyreXTmqeMswCz8=", "properties": {"ref": "7124", "@spider": "voyagecare", "addr:full": "Blackberry Hill", "addr:state": "Somerset", "addr:postcode": "BA7 7HG", "addr:country": "GB", "name": "Blackberry Hill", "website": "https://www.voyagecare.com/wp-json/voyagecare/v1/services/null/null/null/null/0/0/500", "brand": "Voyage Care"}, "geometry": {"type": "Point", "coordinates": [-2.51287, 51.09107]}},
{"type": "Feature", "id": "z9c-xJcN2lh-30SDQ_Ofdiw2pdU=", "properties": {"ref": "7127", "@spider": "voyagecare", "addr:full": "24 Bowens Field", "addr:state": "Shropshire", "addr:postcode": "SY4 5AP", "addr:country": "GB", "name": "Bowens Field", "website": "https://www.voyagecare.com/wp-json/voyagecare/v1/services/null/null/null/null/0/0/500", "brand": "Voyage Care"}, "geometry": {"type": "Point", "coordinates": [-2.72651, 52.85892]}},
{"type": "Feature", "id": "31wyCkyzhOCKFnTH-69SLzBJBTM=", "properties": {"ref": "7131", "@spider": "voyagecare", "addr:full": "73 Bramley Avenue", "addr:state": "Cambridgeshire", "addr:postcode": "SG8 6HG", "addr:country": "GB", "name": "Bramley Avenue", "website": "https://www.voyagecare.com/wp-json/voyagecare/v1/services/null/null/null/null/0/0/500", "brand": "Voyage Care"}, "geometry": {"type": "Point", "coordinates": [0.02635, 52.08419]}},
{"type": "Feature", "id": "CQh-I55vO9KqRlYwOKJGGgEN214=", "properties": {"ref": "7133", "@spider": "voyagecare", "addr:full": "Branwell Manor", "addr:state": "West Yorkshire", "addr:postcode": "Dewsbury Moor", "addr:country": "GB", "name": "Branwell Manor", "website": "https://www.voyagecare.com/wp-json/voyagecare/v1/services/null/null/null/null/0/0/500", "brand": "Voyage Care"}, "geometry": {"type": "Point", "coordinates": [-1.65623, 53.69285]}},
{"type": "Feature", "id": "5DzctwaRG5YWGDYxgJUOik4ghyU=", "properties": {"ref": "7134", "@spider": "voyagecare", "addr:full": "Bridge Court", "addr:state": "North Yorkshire", "addr:postcode": "Normanby", "addr:country": "GB", "name": "Bridge Court", "website": "https://www.voyagecare.com/wp-json/voyagecare/v1/services/null/null/null/null/0/0/500", "brand": "Voyage Care"}, "geometry": {"type": "Point", "coordinates": [-1.1587, 54.55648]}},
{"type": "Feature", "id": "cW41nKx7ah8l4bjj54dWsjG_pnI=", "properties": {"ref": "7136", "@spider": "voyagecare", "addr:full": "Bridge House", "addr:state": "Somerset", "addr:postcode": "TA1 2DS", "addr:country": "GB", "name": "Bridge House (Somerset)", "website": "https://www.voyagecare.com/wp-json/voyagecare/v1/services/null/null/null/null/0/0/500", "brand": "Voyage Care"}, "geometry": {"type": "Point", "coordinates": [-3.07298, 51.0194]}},
{"type": "Feature", "id": "3lYBmzQMpZ4d-fT9hmqcGXvv0-0=", "properties": {"ref": "45131", "@spider": "voyagecare", "addr:state": "Bridgend", "addr:postcode": "CF31 1RW", "addr:country": "GB", "name": "Community support in Bridgend", "website": "https://www.voyagecare.com/wp-json/voyagecare/v1/services/null/null/null/null/0/0/500", "brand": "Voyage Care"}, "geometry": {"type": "Point", "coordinates": [-3.58026, 51.52188]}},
{"type": "Feature", "id": "jzL8u5HVL6zxJO8E9mHtTtVhIzs=", "properties": {"ref": "7140", "@spider": "voyagecare", "addr:full": "30 Broad Lane", "addr:state": "Berkshire", "addr:postcode": "RG7 6QJ", "addr:country": "GB", "name": "Broad Lane", "website": "https://www.voyagecare.com/wp-json/voyagecare/v1/services/null/null/null/null/0/0/500", "brand": "Voyage Care"}, "geometry": {"type": "Point", "coordinates": [-1.22079, 51.41386]}},
{"type": "Feature", "id": "B8c3wTntjD4krBrY3-zpk2sZ6sg=", "properties": {"ref": "7144", "@spider": "voyagecare", "addr:full": "Kiln Road", "addr:state": "England", "addr:postcode": "PO16 7UB", "addr:country": "GB", "name": "Broadview", "website": "https://www.voyagecare.com/wp-json/voyagecare/v1/services/null/null/null/null/0/0/500", "brand": "Voyage Care"}, "geometry": {"type": "Point", "coordinates": [-1.18591, 50.86363]}},
{"type": "Feature", "id": "KkTaXo6ypb-erzUQE61gtplHGnM=", "properties": {"ref": "7146", "@spider": "voyagecare", "addr:full": "6 Unit, Woodlands Village", "addr:city": "Wakefield", "addr:state": "West Yorkshire", "addr:postcode": "WF1 5NJ", "addr:country": "GB", "name": "Barnsley Road Outreach and Community Services (BROCS)", "website": "https://www.voyagecare.com/wp-json/voyagecare/v1/services/null/null/null/null/0/0/500", "brand": "Voyage Care"}, "geometry": {"type": "Point", "coordinates": [-1.48732, 53.66716]}},
{"type": "Feature", "id": "ByvzaOP49m7j4n3f_Jf7kdQDJlA=", "properties": {"ref": "7147", "@spider": "voyagecare", "addr:full": "Bronte View", "addr:state": "West Yorkshire", "addr:postcode": "Cross Roads", "addr:country": "GB", "name": "Bronte View", "website": "https://www.voyagecare.com/wp-json/voyagecare/v1/services/null/null/null/null/0/0/500", "brand": "Voyage Care"}, "geometry": {"type": "Point", "coordinates": [-1.94282, 53.82967]}},
{"type": "Feature", "id": "qgHJWcXs9xdaGpfFiEA7AAjp4Kk=", "properties": {"ref": "7148", "@spider": "voyagecare", "addr:full": "Brook Lodge", "addr:state": "Gloucestershire", "addr:postcode": "GL17 0HA", "addr:country": "GB", "name": "Brook Lodge", "website": "https://www.voyagecare.com/wp-json/voyagecare/v1/services/null/null/null/null/0/0/500", "brand": "Voyage Care"}, "geometry": {"type": "Point", "coordinates": [-2.45551, 51.86642]}},
{"type": "Feature", "id": "eFDHD3QqO7sd30JVYylZwml1jt8=", "properties": {"ref": "7149", "@spider": "voyagecare", "addr:full": "Dog Kennel Lane", "addr:state": "England", "addr:postcode": "B68 9LZ", "addr:country": "GB", "name": "Brookfields", "website": "https://www.voyagecare.com/wp-json/voyagecare/v1/services/null/null/null/null/0/0/500", "brand": "Voyage Care"}, "geometry": {"type": "Point", "coordinates": [-1.99544, 52.48997]}},
{"type": "Feature", "id": "pQqrvIDqNp_NJ0v13renfPJ2bAE=", "properties": {"ref": "7151", "@spider": "voyagecare", "addr:full": "54 Brookvale Road", "addr:state": "West Midlands", "addr:postcode": "B92 7HZ", "addr:country": "GB", "name": "Brookvale Road", "website": "https://www.voyagecare.com/wp-json/voyagecare/v1/services/null/null/null/null/0/0/500", "brand": "Voyage Care"}, "geometry": {"type": "Point", "coordinates": [-1.81258, 52.43842]}},
{"type": "Feature", "id": "cu9nP8DeXYeVefc5a-1fbW9BWbA=", "properties": {"ref": "45123", "@spider": "voyagecare", "addr:country": "GB", "name": "Community support in Brymbo", "website": "https://www.voyagecare.com/wp-json/voyagecare/v1/services/null/null/null/null/0/0/500", "brand": "Voyage Care"}, "geometry": {"type": "Point", "coordinates": [-3.05618, 53.07946]}},
{"type": "Feature", "id": "skht-oXl31Ntkvyf4mVl4FZlRjc=", "properties": {"ref": "45184", "@spider": "voyagecare", "addr:city": "Buckley", "addr:state": "Flintshire", "addr:postcode": "CH7 3AY", "addr:country": "GB", "name": "Community support in Buckley", "website": "https://www.voyagecare.com/wp-json/voyagecare/v1/services/null/null/null/null/0/0/500", "brand": "Voyage Care"}, "geometry": {"type": "Point", "coordinates": [-3.05534, 53.16291]}},
{"type": "Feature", "id": "p7t9Y8ywqtbkB8__hzEjjaUTOtM=", "properties": {"ref": "7153", "@spider": "voyagecare", "addr:full": "60 Bullpond Lane", "addr:state": "Bedfordshire", "addr:postcode": "LU6 3BJ", "addr:country": "GB", "name": "Bullpond Lane", "website": "https://www.voyagecare.com/wp-json/voyagecare/v1/services/null/null/null/null/0/0/500", "brand": "Voyage Care"}, "geometry": {"type": "Point", "coordinates": [-0.51929, 51.88038]}},
{"type": "Feature", "id": "0-vpJ7f84IGFGiRrkyDEWxQEb1Y=", "properties": {"ref": "7154", "@spider": "voyagecare", "addr:full": "16-18 Hawthorn Way", "addr:state": "Cambridgeshire", "addr:postcode": "CB25 0DQ", "addr:country": "GB", "name": "Burwell", "website": "https://www.voyagecare.com/wp-json/voyagecare/v1/services/null/null/null/null/0/0/500", "brand": "Voyage Care"}, "geometry": {"type": "Point", "coordinates": [0.33176, 52.28201]}},
{"type": "Feature", "id": "AHUAZCWBSl7zDcQgfHDHYOrNXFc=", "properties": {"ref": "7155", "@spider": "voyagecare", "addr:full": "Byards Keep", "addr:state": "Lincolnshire", "addr:postcode": "NG34 8XT", "addr:country": "GB", "name": "Byards Keep", "website": "https://www.voyagecare.com/wp-json/voyagecare/v1/services/null/null/null/null/0/0/500", "brand": "Voyage Care"}, "geometry": {"type": "Point", "coordinates": [-0.44739, 52.98348]}},
{"type": "Feature", "id": "5Y1NuxoZ7NXHPjA8IwXF-SI4ijI=", "properties": {"ref": "7159", "@spider": "voyagecare", "addr:full": "Calvert House", "addr:state": "Lancashire", "addr:postcode": "PR25 1HY", "addr:country": "GB", "name": "Calvert House", "website": "https://www.voyagecare.com/wp-json/voyagecare/v1/services/null/null/null/null/0/0/500", "brand": "Voyage Care"}, "geometry": {"type": "Point", "coordinates": [-2.7148, 53.69082]}},
{"type": "Feature", "id": "5-osROfUJ-iax_L50yAxB8EAYjI=", "properties": {"ref": "7163", "@spider": "voyagecare", "addr:full": "126 Castle Lane", "addr:state": "West Midlands", "addr:postcode": "B92 8RW", "addr:country": "GB", "name": "Castle Lane", "website": "https://www.voyagecare.com/wp-json/voyagecare/v1/services/null/null/null/null/0/0/500", "brand": "Voyage Care"}, "geometry": {"type": "Point", "coordinates": [-1.79296, 52.44066]}},
{"type": "Feature", "id": "iJihN78-JOkU3J-3Ifbr-FXNUOQ=", "properties": {"ref": "45132", "@spider": "voyagecare", "addr:city": "Aberystwyth", "addr:state": "Ceredigion", "addr:postcode": "SY23 3NE", "addr:country": "GB", "name": "Community support in Ceredigion", "website": "https://www.voyagecare.com/wp-json/voyagecare/v1/services/null/null/null/null/0/0/500", "brand": "Voyage Care"}, "geometry": {"type": "Point", "coordinates": [-3.94659, 52.38152]}},
{"type": "Feature", "id": "K7nsVztQ4TbWPzaopvXvil9BXNw=", "properties": {"ref": "7164", "@spider": "voyagecare", "addr:full": "12 Channel Lea", "addr:state": "Kent", "addr:postcode": "CT14 7UG", "addr:country": "GB", "name": "Channel Lea", "website": "https://www.voyagecare.com/wp-json/voyagecare/v1/services/null/null/null/null/0/0/500", "brand": "Voyage Care"}, "geometry": {"type": "Point", "coordinates": [1.39564, 51.20296]}},
{"type": "Feature", "id": "LkT3IOgMWm5_2AJ3aadziYgFmSI=", "properties": {"ref": "7165", "@spider": "voyagecare", "addr:full": "69 Chantry Gardens", "addr:state": "Wiltshire", "addr:postcode": "BA14 9QT", "addr:country": "GB", "name": "Chantry Gardens", "website": "https://www.voyagecare.com/wp-json/voyagecare/v1/services/null/null/null/null/0/0/500", "brand": "Voyage Care"}, "geometry": {"type": "Point", "coordinates": [-2.22913, 51.29719]}},
{"type": "Feature", "id": "QllSuuVWJF-hde_PQz1EY45Ukyo=", "properties": {"ref": "7166", "@spider": "voyagecare", "addr:full": "Chard Manor", "addr:state": "Somerset", "addr:postcode": "TA20 2DP", "addr:country": "GB", "name": "Chard Manor", "website": "https://www.voyagecare.com/wp-json/voyagecare/v1/services/null/null/null/null/0/0/500", "brand": "Voyage Care"}, "geometry": {"type": "Point", "coordinates": [-2.96401, 50.8682]}},
{"type": "Feature", "id": "ud4nhmCDhbnAbRRxSwrrcT_2KAQ=", "properties": {"ref": "7168", "@spider": "voyagecare", "addr:full": "Chestnut Grange", "addr:city": "Weston", "addr:state": "Nottinghamshire", "addr:postcode": "NG23 6ST", "addr:country": "GB", "name": "Chestnut Grange", "website": "https://www.voyagecare.com/wp-json/voyagecare/v1/services/null/null/null/null/0/0/500", "brand": "Voyage Care"}, "geometry": {"type": "Point", "coordinates": [-0.84263, 53.20286]}},
{"type": "Feature", "id": "U07bxdl3glR-osmF5V_QaE92lP0=", "properties": {"ref": "7171", "@spider": "voyagecare", "addr:full": "Chiltern View", "addr:city": "Whitchurch", "addr:state": "Buckinghamshire", "addr:postcode": "HP22 4ER", "addr:country": "GB", "name": "Chiltern View", "website": "https://www.voyagecare.com/wp-json/voyagecare/v1/services/null/null/null/null/0/0/500", "brand": "Voyage Care"}, "geometry": {"type": "Point", "coordinates": [-0.85033, 51.88284]}},
{"type": "Feature", "id": "QkZsVYTnk_EZLz5Ss38x7niTfpM=", "properties": {"ref": "7173", "@spider": "voyagecare", "addr:full": "23 Church Street", "addr:state": "Nottinghamshire", "addr:postcode": "NG20 0AU", "addr:country": "GB", "name": "Church Street", "website": "https://www.voyagecare.com/wp-json/voyagecare/v1/services/null/null/null/null/0/0/500", "brand": "Voyage Care"}, "geometry": {"type": "Point", "coordinates": [-1.15274, 53.20681]}},
{"type": "Feature", "id": "v0FsfQaQrYsAbB7LWHgL-89XDTE=", "properties": {"ref": "7175", "@spider": "voyagecare", "addr:full": "Anstey Lane", "addr:state": "England", "addr:postcode": "GU34 2NJ", "addr:country": "GB", "name": "Cloverdale", "website": "https://www.voyagecare.com/wp-json/voyagecare/v1/services/null/null/null/null/0/0/500", "brand": "Voyage Care"}, "geometry": {"type": "Point", "coordinates": [-0.97114, 51.1626]}},
{"type": "Feature", "id": "doP6QnTc80mQOf6hS9sJFmX28PU=", "properties": {"ref": "7176", "@spider": "voyagecare", "addr:full": "The Coach House", "addr:city": "Occupation Road", "addr:state": "Northamptonshire", "addr:postcode": "NN17 1EA", "addr:country": "GB", "name": "Coach House", "website": "https://www.voyagecare.com/wp-json/voyagecare/v1/services/null/null/null/null/0/0/500", "brand": "Voyage Care"}, "geometry": {"type": "Point", "coordinates": [-0.69049, 52.49866]}},
{"type": "Feature", "id": "AXZPNtoln_ynWywf5eIkwwLVQ_k=", "properties": {"ref": "56389", "@spider": "voyagecare", "addr:country": "GB", "name": "Community support in Shropshire", "website": "https://www.voyagecare.com/wp-json/voyagecare/v1/services/null/null/null/null/0/0/500", "brand": "Voyage Care"}, "geometry": {"type": "Point", "coordinates": [-1.77862, 52.44914]}},
{"type": "Feature", "id": "9T-gGwgXXC4UIWkHTs-jajfNOyk=", "properties": {"ref": "8037", "@spider": "voyagecare", "addr:full": "Conifer Lodge", "addr:state": "England", "addr:postcode": "NE34 7SA", "addr:country": "GB", "name": "Conifer Lodge", "website": "https://www.voyagecare.com/wp-json/voyagecare/v1/services/null/null/null/null/0/0/500", "brand": "Voyage Care"}, "geometry": {"type": "Point", "coordinates": [-1.39848, 54.97989]}},
{"type": "Feature", "id": "gNVQe7CUDyGF8Oj2k5Pr6sYYVlg=", "properties": {"ref": "7182", "@spider": "voyagecare", "addr:full": "82 Coombe Road", "addr:state": "Greater London", "addr:postcode": "CR0 5RA", "addr:country": "GB", "name": "Coombe Road", "website": "https://www.voyagecare.com/wp-json/voyagecare/v1/services/null/null/null/null/0/0/500", "brand": "Voyage Care"}, "geometry": {"type": "Point", "coordinates": [-0.08021, 51.36376]}},
{"type": "Feature", "id": "NrOMQbRmZl9_vsSVsJ0Ayd7iP2Q=", "properties": {"ref": "7187", "@spider": "voyagecare", "addr:full": "Chase Road", "addr:state": "England", "addr:postcode": "GU35 0RW", "addr:country": "GB", "name": "Cordwainers", "website": "https://www.voyagecare.com/wp-json/voyagecare/v1/services/null/null/null/null/0/0/500", "brand": "Voyage Care"}, "geometry": {"type": "Point", "coordinates": [-0.84832, 51.11971]}},
{"type": "Feature", "id": "njxtp6hG3cVr44lrn4lNKfKHfHs=", "properties": {"ref": "7188", "@spider": "voyagecare", "addr:full": "Arbor Lane", "addr:city": "Winnersh", "addr:state": "England", "addr:postcode": "RG41 5JD", "addr:country": "GB", "name": "Cornerways", "website": "https://www.voyagecare.com/wp-json/voyagecare/v1/services/null/null/null/null/0/0/500", "brand": "Voyage Care"}, "geometry": {"type": "Point", "coordinates": [-0.88174, 51.43488]}},
{"type": "Feature", "id": "fCUOZpZh8YVGJSyW3DevX7zW40M=", "properties": {"ref": "7189", "@spider": "voyagecare", "addr:full": "Cosin Lodge", "addr:city": "Willington", "addr:state": "County Durham", "addr:postcode": "DL15 0PW", "addr:country": "GB", "name": "Cosin Lodge", "website": "https://www.voyagecare.com/wp-json/voyagecare/v1/services/null/null/null/null/0/0/500", "brand": "Voyage Care"}, "geometry": {"type": "Point", "coordinates": [-1.69336, 54.70972]}},
{"type": "Feature", "id": "YUme2t1uvSoE4vSWPAsTYU-TAV0=", "properties": {"ref": "7191", "@spider": "voyagecare", "addr:full": "Cote House", "addr:state": "Wiltshire", "addr:postcode": "SN15 2AG", "addr:country": "GB", "name": "Cote House", "website": "https://www.voyagecare.com/wp-json/voyagecare/v1/services/null/null/null/null/0/0/500", "brand": "Voyage Care"}, "geometry": {"type": "Point", "coordinates": [-2.1253, 51.45492]}},
{"type": "Feature", "id": "Y5wW_awgXd2gpwsYld4OoNdWIRk=", "properties": {"ref": "7193", "@spider": "voyagecare", "addr:full": "Cranmer Day Centre", "addr:city": "Whitmore Reams", "addr:state": "West Midlands", "addr:postcode": "WV6 0RS", "addr:country": "GB", "name": "Cranmer Day Centre", "website": "https://www.voyagecare.com/wp-json/voyagecare/v1/services/null/null/null/null/0/0/500", "brand": "Voyage Care"}, "geometry": {"type": "Point", "coordinates": [-2.14972, 52.59516]}},
{"type": "Feature", "id": "xeOsocoawsKTYaWF-JcbxqRtlGk=", "properties": {"ref": "7194", "@spider": "voyagecare", "addr:full": "Croft House", "addr:city": "Thurcaston", "addr:state": "Leicestershire", "addr:postcode": "LE7 7JJ", "addr:country": "GB", "name": "Croft House", "website": "https://www.voyagecare.com/wp-json/voyagecare/v1/services/null/null/null/null/0/0/500", "brand": "Voyage Care"}, "geometry": {"type": "Point", "coordinates": [-1.15954, 52.69305]}},
{"type": "Feature", "id": "0gywC_XHWNE5PTEyHeWCAh1ddA0=", "properties": {"ref": "52141", "@spider": "voyagecare", "addr:full": "31 Liphook Road", "addr:city": "Lindford", "addr:postcode": "GU35 0PU", "addr:country": "GB", "name": "Daffodils", "website": "https://www.voyagecare.com/wp-json/voyagecare/v1/services/null/null/null/null/0/0/500", "brand": "Voyage Care"}, "geometry": {"type": "Point", "coordinates": [-0.84439, 51.11929]}},
{"type": "Feature", "id": "v6QOhZZjIeM-yk4h9vocljvbIs0=", "properties": {"ref": "49694", "@spider": "voyagecare", "addr:full": "2 Devonshire Street", "addr:state": "Manchester", "addr:postcode": "M12 4BB", "addr:country": "GB", "name": "Day Opportunities DCA", "website": "https://www.voyagecare.com/wp-json/voyagecare/v1/services/null/null/null/null/0/0/500", "brand": "Voyage Care"}, "geometry": {"type": "Point", "coordinates": [-2.21635, 53.467]}},
{"type": "Feature", "id": "avw5UVM7l96Hp7IAqbFAkVZJheU=", "properties": {"ref": "7197", "@spider": "voyagecare", "addr:full": "Deja-Vu", "addr:state": "Hampshire", "addr:postcode": "GU35 0PX", "addr:country": "GB", "name": "Deja Vu", "website": "https://www.voyagecare.com/wp-json/voyagecare/v1/services/null/null/null/null/0/0/500", "brand": "Voyage Care"}, "geometry": {"type": "Point", "coordinates": [-0.84509, 51.12043]}},
{"type": "Feature", "id": "Wpf7tM3pVa60phan6C4f0TTMJP8=", "properties": {"ref": "7198", "@spider": "voyagecare", "addr:full": "Derby DCA", "addr:city": "Derby", "addr:state": "Derbyshire", "addr:postcode": "DE21 6AH", "addr:country": "GB", "name": "Derby DCA", "website": "https://www.voyagecare.com/wp-json/voyagecare/v1/services/null/null/null/null/0/0/500", "brand": "Voyage Care"}, "geometry": {"type": "Point", "coordinates": [-1.45795, 52.92664]}},
{"type": "Feature", "id": "OU69WDe26KjVJkQRjiYMsaSx22g=", "properties": {"ref": "7199", "@spider": "voyagecare", "addr:full": "46 Derby Road", "addr:state": "Staffordshire", "addr:postcode": "DE14 1RP", "addr:country": "GB", "name": "Derby Road", "website": "https://www.voyagecare.com/wp-json/voyagecare/v1/services/null/null/null/null/0/0/500", "brand": "Voyage Care"}, "geometry": {"type": "Point", "coordinates": [-1.63186, 52.81683]}},
{"type": "Feature", "id": "mVz_HymNO5ioUqeo7RBrsXXrtBo=", "properties": {"ref": "7200", "@spider": "voyagecare", "addr:full": "Derwent Cottage", "addr:city": "Seamer", "addr:state": "North Yorkshire", "addr:postcode": "YO12 4RB", "addr:country": "GB", "name": "Derwent Cottage", "website": "https://www.voyagecare.com/wp-json/voyagecare/v1/services/null/null/null/null/0/0/500", "brand": "Voyage Care"}, "geometry": {"type": "Point", "coordinates": [-0.44206, 54.24003]}},
{"type": "Feature", "id": "vKXgAHlCCmKX45f5Nzc2PfvTb1o=", "properties": {"ref": "44384", "@spider": "voyagecare", "addr:full": "2 Devonshire Street North", "addr:state": "Greater Manchester", "addr:postcode": "M12 4BB", "addr:country": "GB", "name": "Devonshire House", "website": "https://www.voyagecare.com/wp-json/voyagecare/v1/services/null/null/null/null/0/0/500", "brand": "Voyage Care"}, "geometry": {"type": "Point", "coordinates": [-2.21628, 53.46756]}},
{"type": "Feature", "id": "k967FlMn6R1x4XDOphYXe9ft5cA=", "properties": {"ref": "7202", "@spider": "voyagecare", "addr:full": "6 Silver Business Park", "addr:city": "Christchurch", "addr:state": "Dorset", "addr:postcode": "BH23 3TA", "addr:country": "GB", "name": "Dorset Domiciliary Care Agency", "website": "https://www.voyagecare.com/wp-json/voyagecare/v1/services/null/null/null/null/0/0/500", "brand": "Voyage Care"}, "geometry": {"type": "Point", "coordinates": [-1.74976, 50.7376]}},
{"type": "Feature", "id": "Af59ZBYICmUEI8BUeG7jTOyr9_c=", "properties": {"ref": "7203", "@spider": "voyagecare", "addr:full": "Dove House", "addr:city": "Doveridge", "addr:state": "Derbyshire", "addr:postcode": "DE6 5JR", "addr:country": "GB", "name": "Dove House", "website": "https://www.voyagecare.com/wp-json/voyagecare/v1/services/null/null/null/null/0/0/500", "brand": "Voyage Care"}, "geometry": {"type": "Point", "coordinates": [-1.82533, 52.90604]}},
{"type": "Feature", "id": "UpEP5Zn5l-kGYADPjFFDlB5TbOM=", "properties": {"ref": "7204", "@spider": "voyagecare", "addr:full": "Drakes Place", "addr:state": "Somerset", "addr:postcode": "TA21 8TD", "addr:country": "GB", "name": "Drakes Place", "website": "https://www.voyagecare.com/wp-json/voyagecare/v1/services/null/null/null/null/0/0/500", "brand": "Voyage Care"}, "geometry": {"type": "Point", "coordinates": [-3.22424, 50.98129]}},
{"type": "Feature", "id": "2iSL3lIlhs5fWNqIsTEfkNA_rCo=", "properties": {"ref": "7205", "@spider": "voyagecare", "addr:full": "Dryad Spinney", "addr:city": "Langley", "addr:state": "Hampshire", "addr:postcode": "SO45 1XP", "addr:country": "GB", "name": "Dryad Spinney", "website": "https://www.voyagecare.com/wp-json/voyagecare/v1/services/null/null/null/null/0/0/500", "brand": "Voyage Care"}, "geometry": {"type": "Point", "coordinates": [-1.37068, 50.80729]}},
{"type": "Feature", "id": "YjJBi95bLEH-MTpwpGzPSYoMmnQ=", "properties": {"ref": "43873", "@spider": "voyagecare", "addr:full": "8 Lincluden Court", "addr:city": "Dumfries", "addr:state": "Dumfries", "addr:postcode": "DG2 0QB", "addr:country": "GB", "name": "Dumfries Supported Living", "website": "https://www.voyagecare.com/wp-json/voyagecare/v1/services/null/null/null/null/0/0/500", "brand": "Voyage Care"}, "geometry": {"type": "Point", "coordinates": [-3.6256, 55.08044]}},
{"type": "Feature", "id": "VuGZbd_bnrllssRorce9KspglD0=", "properties": {"ref": "7207", "@spider": "voyagecare", "addr:full": "6 Durlands Road", "addr:state": "Hampshire", "addr:postcode": "PO8 9NT", "addr:country": "GB", "name": "Durlands Road", "website": "https://www.voyagecare.com/wp-json/voyagecare/v1/services/null/null/null/null/0/0/500", "brand": "Voyage Care"}, "geometry": {"type": "Point", "coordinates": [-1.00374, 50.91705]}},
{"type": "Feature", "id": "dEMS9T5pfB-8IhdhATtrXHzoFoc=", "properties": {"ref": "7209", "@spider": "voyagecare", "addr:full": "The Crescent", "addr:city": "Doncaster Road", "addr:state": "England", "addr:postcode": "S65 1NL", "addr:country": "GB", "name": "Edgecumbe House", "website": "https://www.voyagecare.com/wp-json/voyagecare/v1/services/null/null/null/null/0/0/500", "brand": "Voyage Care"}, "geometry": {"type": "Point", "coordinates": [-1.3481, 53.43261]}},
{"type": "Feature", "id": "YKbLmneaZYOs9A-kl2Z0i702cRU=", "properties": {"ref": "7210", "@spider": "voyagecare", "addr:full": "3 Edith Road (Tregona)", "addr:city": "Maidenhead", "addr:state": "Berkshire", "addr:postcode": "SL6 5DY", "addr:country": "GB", "name": "Edith Road (Tregona)", "website": "https://www.voyagecare.com/wp-json/voyagecare/v1/services/null/null/null/null/0/0/500", "brand": "Voyage Care"}, "geometry": {"type": "Point", "coordinates": [-0.7571, 51.52518]}},
{"type": "Feature", "id": "6L1Y0Sw3U5mEVKfinCcMiWkyYtY=", "properties": {"ref": "7214", "@spider": "voyagecare", "addr:full": "Rotherham Road", "addr:city": "Great Houghton", "addr:state": "England", "addr:postcode": "S72 0EG", "addr:country": "GB", "name": "Elliott House", "website": "https://www.voyagecare.com/wp-json/voyagecare/v1/services/null/null/null/null/0/0/500", "brand": "Voyage Care"}, "geometry": {"type": "Point", "coordinates": [-1.34691, 53.55152]}},
{"type": "Feature", "id": "lCNIU8ZjfO8PaPBadvnQD0z9hSY=", "properties": {"ref": "7215", "@spider": "voyagecare", "addr:full": "South Road", "addr:state": "England", "addr:postcode": "TA1 3EA", "addr:country": "GB", "name": "Elmsmead", "website": "https://www.voyagecare.com/wp-json/voyagecare/v1/services/null/null/null/null/0/0/500", "brand": "Voyage Care"}, "geometry": {"type": "Point", "coordinates": [-3.0896, 51.00669]}},
{"type": "Feature", "id": "fJt8uYmErcEMMM6et6EEEsV5GrY=", "properties": {"ref": "8327", "@spider": "voyagecare", "addr:full": "22 Peafield Lane", "addr:city": "Woodhouse", "addr:state": "Nottinghamshire", "addr:postcode": "NG19 9DT", "addr:country": "GB", "name": "Esmer House", "website": "https://www.voyagecare.com/wp-json/voyagecare/v1/services/null/null/null/null/0/0/500", "brand": "Voyage Care"}, "geometry": {"type": "Point", "coordinates": [-1.17721, 53.16873]}},
{"type": "Feature", "id": "4P3qTGqYxyR94O4007I0TP5RGZ0=", "properties": {"ref": "7216", "@spider": "voyagecare", "addr:full": "19 Fairfax Road", "addr:state": "West Yorkshire", "addr:postcode": "LS11 8SY", "addr:country": "GB", "name": "Fairfax Road", "website": "https://www.voyagecare.com/wp-json/voyagecare/v1/services/null/null/null/null/0/0/500", "brand": "Voyage Care"}, "geometry": {"type": "Point", "coordinates": [-1.55868, 53.7785]}},
{"type": "Feature", "id": "UNekq0QXbAoqU1UB74gSwLJZYsc=", "properties": {"ref": "7217", "@spider": "voyagecare", "addr:full": "Falcon Lodge", "addr:city": "Boorley Green", "addr:state": "Hampshire", "addr:postcode": "SO32 2TE", "addr:country": "GB", "name": "Falcon Lodge", "website": "https://www.voyagecare.com/wp-json/voyagecare/v1/services/null/null/null/null/0/0/500", "brand": "Voyage Care"}, "geometry": {"type": "Point", "coordinates": [-1.27651, 50.92593]}},
{"type": "Feature", "id": "YLMmi3IBeFf-JRUByA0SN4tUN54=", "properties": {"ref": "7218", "@spider": "voyagecare", "addr:full": "Falcons Rest", "addr:city": "Wormelow", "addr:state": "Herefordshire", "addr:postcode": "HR2 8EQ", "addr:country": "GB", "name": "Falcons Rest and Poachers Cottage", "website": "https://www.voyagecare.com/wp-json/voyagecare/v1/services/null/null/null/null/0/0/500", "brand": "Voyage Care"}, "geometry": {"type": "Point", "coordinates": [-2.74582, 51.9679]}},
{"type": "Feature", "id": "qBLiFEiu4edn8Ro_tyRzAZbH31M=", "properties": {"ref": "7220", "@spider": "voyagecare", "addr:full": "Fennell Court", "addr:state": "West Yorkshire", "addr:postcode": "WF13 4RS", "addr:country": "GB", "name": "Fennell Court", "website": "https://www.voyagecare.com/wp-json/voyagecare/v1/services/null/null/null/null/0/0/500", "brand": "Voyage Care"}, "geometry": {"type": "Point", "coordinates": [-1.65374, 53.69736]}},
{"type": "Feature", "id": "k1QWbe873QKyzEu2IsaDnEbGQjg=", "properties": {"ref": "7221", "@spider": "voyagecare", "addr:full": "Fenney Lodge", "addr:city": "Catcliffe", "addr:state": "South Yorkshire", "addr:postcode": "S60 5TN", "addr:country": "GB", "name": "Fenney Lodge", "website": "https://www.voyagecare.com/wp-json/voyagecare/v1/services/null/null/null/null/0/0/500", "brand": "Voyage Care"}, "geometry": {"type": "Point", "coordinates": [-1.36304, 53.39292]}},
{"type": "Feature", "id": "B1abhF8CBPmeUJdiq_3qIliKKLM=", "properties": {"ref": "7225", "@spider": "voyagecare", "addr:full": "Five Penny House", "addr:city": "Hartlepool", "addr:state": "County Durham", "addr:postcode": "TS25 5RE", "addr:country": "GB", "name": "Five Penny House", "website": "https://www.voyagecare.com/wp-json/voyagecare/v1/services/null/null/null/null/0/0/500", "brand": "Voyage Care"}, "geometry": {"type": "Point", "coordinates": [-1.21869, 54.67633]}},
{"type": "Feature", "id": "i8_TIQrWRh89vSxo2sQPb1KpM4s=", "properties": {"ref": "8635", "@spider": "voyagecare", "addr:full": "1st Floor Offices, New Wing, Agricultural House", "addr:city": "Gloucester", "addr:state": "Gloucestershire", "addr:postcode": "GL2 9RG", "addr:country": "GB", "name": "Fox Elms (DCA)", "website": "https://www.voyagecare.com/wp-json/voyagecare/v1/services/null/null/null/null/0/0/500", "brand": "Voyage Care"}, "geometry": {"type": "Point", "coordinates": [-2.24146, 51.87693]}},
{"type": "Feature", "id": "XKRJt4wJYIJpkqr_5S4aZbacvXU=", "properties": {"ref": "7233", "@spider": "voyagecare", "addr:full": "Garfield Grange", "addr:city": "Hull", "addr:state": "East Riding of Yorkshire", "addr:postcode": "HU12 8TX", "addr:country": "GB", "name": "Garfield Grange", "website": "https://www.voyagecare.com/wp-json/voyagecare/v1/services/null/null/null/null/0/0/500", "brand": "Voyage Care"}, "geometry": {"type": "Point", "coordinates": [-0.20067, 53.76596]}},
{"type": "Feature", "id": "9uNGsJN8Le6pjqifczeP_f5w3VM=", "properties": {"ref": "7237", "@spider": "voyagecare", "addr:full": "Gorse Hill", "addr:city": "Burnley", "addr:state": "Lancashire", "addr:postcode": "BB12 8AJ", "addr:country": "GB", "name": "Gorse Hill", "website": "https://www.voyagecare.com/wp-json/voyagecare/v1/services/null/null/null/null/0/0/500", "brand": "Voyage Care"}, "geometry": {"type": "Point", "coordinates": [-2.27399, 53.79704]}},
{"type": "Feature", "id": "NOuQWq5iwDamXEtvvHyvoCywR3w=", "properties": {"ref": "7240", "@spider": "voyagecare", "addr:full": "109 Grange Road", "addr:city": "Birmingham", "addr:state": "West Midlands", "addr:postcode": "B24 0ES", "addr:country": "GB", "name": "Grange Road", "website": "https://www.voyagecare.com/wp-json/voyagecare/v1/services/null/null/null/null/0/0/500", "brand": "Voyage Care"}, "geometry": {"type": "Point", "coordinates": [-1.81824, 52.52757]}},
{"type": "Feature", "id": "czvGsnFhl5M-cPwPPMgUsU6eey4=", "properties": {"ref": "7242", "@spider": "voyagecare", "addr:full": "219 Green Lane", "addr:city": "Sutton Coldfield", "addr:state": "West Midlands", "addr:postcode": "B73 5LX", "addr:country": "GB", "name": "Green Lanes", "website": "https://www.voyagecare.com/wp-json/voyagecare/v1/services/null/null/null/null/0/0/500", "brand": "Voyage Care"}, "geometry": {"type": "Point", "coordinates": [-1.8269, 52.54433]}},
{"type": "Feature", "id": "juVJa2JVuFqSqKHUI4l9RVHyBUw=", "properties": {"ref": "7243", "@spider": "voyagecare", "addr:full": "Greenfield Lodge", "addr:city": "Hartlepool", "addr:state": "County Durham", "addr:postcode": "TS25 5BQ", "addr:country": "GB", "name": "Greenfield Lodge", "website": "https://www.voyagecare.com/wp-json/voyagecare/v1/services/null/null/null/null/0/0/500", "brand": "Voyage Care"}, "geometry": {"type": "Point", "coordinates": [-1.21835, 54.6706]}},
{"type": "Feature", "id": "HbbiRbB56eKt2oQQkTJGySJGNF0=", "properties": {"ref": "7245", "@spider": "voyagecare", "addr:full": "Grove RC", "addr:city": "Hindhead", "addr:state": "Surrey", "addr:postcode": "GU26 6BN", "addr:country": "GB", "name": "Grove Resource Centre", "website": "https://www.voyagecare.com/wp-json/voyagecare/v1/services/null/null/null/null/0/0/500", "brand": "Voyage Care"}, "geometry": {"type": "Point", "coordinates": [-0.74615, 51.10017]}},
{"type": "Feature", "id": "XJT1E7ImhTnCuBTAw4eD1uYIMrw=", "properties": {"ref": "7248", "@spider": "voyagecare", "addr:full": "Hamilton Lodge", "addr:city": "Doncaster", "addr:state": "South Yorkshire", "addr:postcode": "DN4 5HP", "addr:country": "GB", "name": "Hamilton Lodge", "website": "https://www.voyagecare.com/wp-json/voyagecare/v1/services/null/null/null/null/0/0/500", "brand": "Voyage Care"}, "geometry": {"type": "Point", "coordinates": [-1.11199, 53.51708]}},
{"type": "Feature", "id": "ZWvuxyEL2VLqQ_Jq5_DU5NqCAhc=", "properties": {"ref": "7252", "@spider": "voyagecare", "addr:full": "Harefield Lodge", "addr:city": "Southampton", "addr:state": "Hampshire", "addr:postcode": "SO17 1DN", "addr:country": "GB", "name": "Harefield Lodge", "website": "https://www.voyagecare.com/wp-json/voyagecare/v1/services/null/null/null/null/0/0/500", "brand": "Voyage Care"}, "geometry": {"type": "Point", "coordinates": [-1.40184, 50.92262]}},
{"type": "Feature", "id": "RclKQH2cSz_DiPUpZxrXwjozOUQ=", "properties": {"ref": "7254", "@spider": "voyagecare", "addr:full": "39 Hawthorne Grove", "addr:city": "Trowbridge", "addr:state": "Wiltshire", "addr:postcode": "BA14 0JF", "addr:country": "GB", "name": "Hawthorne Grove", "website": "https://www.voyagecare.com/wp-json/voyagecare/v1/services/null/null/null/null/0/0/500", "brand": "Voyage Care"}, "geometry": {"type": "Point", "coordinates": [-2.21648, 51.30663]}},
{"type": "Feature", "id": "kZYDVE_B6ymQO1KpXv3GiNZw-iM=", "properties": {"ref": "7258", "@spider": "voyagecare", "addr:full": "48 Heath Road", "addr:city": "Chesterfield", "addr:state": "Derbyshire", "addr:postcode": "S42 5SW", "addr:country": "GB", "name": "Heath Road", "website": "https://www.voyagecare.com/wp-json/voyagecare/v1/services/null/null/null/null/0/0/500", "brand": "Voyage Care"}, "geometry": {"type": "Point", "coordinates": [-1.35676, 53.18779]}},
{"type": "Feature", "id": "3MBbHdigSoGU7iDLJ0NdEpoUuno=", "properties": {"ref": "7259", "@spider": "voyagecare", "addr:full": "Heather House", "addr:city": "BIRTLEY", "addr:postcode": "DH3 2BA", "addr:country": "GB", "name": "Heather House", "website": "https://www.voyagecare.com/wp-json/voyagecare/v1/services/null/null/null/null/0/0/500", "brand": "Voyage Care"}, "geometry": {"type": "Point", "coordinates": [-1.42476, 52.69445]}},
{"type": "Feature", "id": "v0La_uBfM6SCIML2MtC4TOStkjQ=", "properties": {"ref": "7260", "@spider": "voyagecare", "addr:full": "Hemlington Hall", "addr:city": "Middlesbrough", "addr:state": "North Yorkshire", "addr:postcode": "TS8 9DA", "addr:country": "GB", "name": "Hemlington Hall", "website": "https://www.voyagecare.com/wp-json/voyagecare/v1/services/null/null/null/null/0/0/500", "brand": "Voyage Care"}, "geometry": {"type": "Point", "coordinates": [-1.24842, 54.52413]}},
{"type": "Feature", "id": "mvrq3mFkrdNSSKB7npz8itdvRaI=", "properties": {"ref": "7262", "@spider": "voyagecare", "addr:full": "Hepdene House", "addr:city": "Hebden Bridge", "addr:state": "West Yorkshire", "addr:postcode": "HX7 6PT", "addr:country": "GB", "name": "Hepdene House", "website": "https://www.voyagecare.com/wp-json/voyagecare/v1/services/null/null/null/null/0/0/500", "brand": "Voyage Care"}, "geometry": {"type": "Point", "coordinates": [-2.04588, 53.73284]}},
{"type": "Feature", "id": "zBqFyk7CtIiFv_dm5E5lt2Q72Wk=", "properties": {"ref": "7263", "@spider": "voyagecare", "addr:full": "4 Hermitage Lane", "addr:city": "Swindon", "addr:state": "Wiltshire", "addr:postcode": "SN2 7QS", "addr:country": "GB", "name": "Hermitage Lane", "website": "https://www.voyagecare.com/wp-json/voyagecare/v1/services/null/null/null/null/0/0/500", "brand": "Voyage Care"}, "geometry": {"type": "Point", "coordinates": [-1.76841, 51.58397]}},
{"type": "Feature", "id": "CSqLdzu9QHZ0IQT8LNqaYEuN4FQ=", "properties": {"ref": "7264", "@spider": "voyagecare", "addr:full": "Room F21 - Business and Technology Centre", "addr:city": "Stevenage", "addr:state": "Hertfordshire", "addr:postcode": "SG1 2DX", "addr:country": "GB", "name": "Hertfordshire DCA", "website": "https://www.voyagecare.com/wp-json/voyagecare/v1/services/null/null/null/null/0/0/500", "brand": "Voyage Care"}, "geometry": {"type": "Point", "coordinates": [-0.21586, 51.90163]}},
{"type": "Feature", "id": "bx6kOf86TBUOC4ZyCW-rsHD_7VA=", "properties": {"ref": "7266", "@spider": "voyagecare", "addr:full": "Dodwell Lane", "addr:city": "Southampton", "addr:state": "England", "addr:postcode": "SO31 1AR", "addr:country": "GB", "name": "Hibernia", "website": "https://www.voyagecare.com/wp-json/voyagecare/v1/services/null/null/null/null/0/0/500", "brand": "Voyage Care"}, "geometry": {"type": "Point", "coordinates": [-1.30839, 50.89127]}},
{"type": "Feature", "id": "PZc8rV_9RmfSBdFo4YhpCwi3z5g=", "properties": {"ref": "7269", "@spider": "voyagecare", "addr:full": "Highfield Farm", "addr:city": "Barnsley", "addr:state": "South Yorkshire", "addr:postcode": "S70 4PU", "addr:country": "GB", "name": "Highfield Farm", "website": "https://www.voyagecare.com/wp-json/voyagecare/v1/services/null/null/null/null/0/0/500", "brand": "Voyage Care"}, "geometry": {"type": "Point", "coordinates": [-1.4639, 53.53762]}},
{"type": "Feature", "id": "LlM5NotmCkV0L0mKN8SLotAcLLQ=", "properties": {"ref": "45124", "@spider": "voyagecare", "addr:city": "Hightown", "addr:state": "Wrexham", "addr:postcode": "LL13 7LW", "addr:country": "GB", "name": "Community support in Hightown", "website": "https://www.voyagecare.com/wp-json/voyagecare/v1/services/null/null/null/null/0/0/500", "brand": "Voyage Care"}, "geometry": {"type": "Point", "coordinates": [-2.99778, 53.04603]}},
{"type": "Feature", "id": "LeOGI6xuOyIgMm-tk1wjhBiytck=", "properties": {"ref": "7273", "@spider": "voyagecare", "addr:full": "Crabble Hill", "addr:city": "Dover", "addr:state": "England", "addr:postcode": "CT17 0SE", "addr:country": "GB", "name": "Hillbrow", "website": "https://www.voyagecare.com/wp-json/voyagecare/v1/services/null/null/null/null/0/0/500", "brand": "Voyage Care"}, "geometry": {"type": "Point", "coordinates": [1.28829, 51.14124]}},
{"type": "Feature", "id": "nfZG86VyR0fsAieL4hOoAZf8U2s=", "properties": {"ref": "7276", "@spider": "voyagecare", "addr:full": "29 STATION ROAD", "addr:city": "Hinckley", "addr:state": "Leicestershire", "addr:postcode": "LE10 1AP", "addr:country": "GB", "name": "Hinckley Day Care", "website": "https://www.voyagecare.com/wp-json/voyagecare/v1/services/null/null/null/null/0/0/500", "brand": "Voyage Care"}, "geometry": {"type": "Point", "coordinates": [-1.37232, 52.53741]}},
{"type": "Feature", "id": "xYCDxG4NY9YftojHhSdzBKROsiM=", "properties": {"ref": "45127", "@spider": "voyagecare", "addr:city": "Holywell", "addr:country": "GB", "name": "Community support in Holywell", "website": "https://www.voyagecare.com/wp-json/voyagecare/v1/services/null/null/null/null/0/0/500", "brand": "Voyage Care"}, "geometry": {"type": "Point", "coordinates": [-3.2259, 53.27658]}},
{"type": "Feature", "id": "D_CcRmkqDhqtSoKXUnUEBT-iEAQ=", "properties": {"ref": "7282", "@spider": "voyagecare", "addr:full": "Huish House", "addr:city": "Langport", "addr:state": "Somerset", "addr:postcode": "TA10 9QP", "addr:country": "GB", "name": "Huish House", "website": "https://www.voyagecare.com/wp-json/voyagecare/v1/services/null/null/null/null/0/0/500", "brand": "Voyage Care"}, "geometry": {"type": "Point", "coordinates": [-2.82051, 51.03606]}},
{"type": "Feature", "id": "fqoBXEUoDCzVfAMPC5PkrnEVSws=", "properties": {"ref": "7284", "@spider": "voyagecare", "addr:full": "Hunters Lodge", "addr:city": "Hereford", "addr:state": "Herefordshire", "addr:postcode": "HR2 8EQ", "addr:country": "GB", "name": "Hunters Lodge", "website": "https://www.voyagecare.com/wp-json/voyagecare/v1/services/null/null/null/null/0/0/500", "brand": "Voyage Care"}, "geometry": {"type": "Point", "coordinates": [-2.74582, 51.9679]}},
{"type": "Feature", "id": "mAjvHPt5Fewi2RhVvNPIfwxMHcQ=", "properties": {"ref": "7285", "@spider": "voyagecare", "addr:full": "36 Hurstville Drive", "addr:city": "Waterlooville", "addr:state": "Hampshire", "addr:postcode": "PO7 7ND", "addr:country": "GB", "name": "Hurstville Drive", "website": "https://www.voyagecare.com/wp-json/voyagecare/v1/services/null/null/null/null/0/0/500", "brand": "Voyage Care"}, "geometry": {"type": "Point", "coordinates": [-1.02408, 50.87668]}},
{"type": "Feature", "id": "sffwZAcHG1dmx_KYJO8a7_rTc2g=", "properties": {"ref": "7286", "@spider": "voyagecare", "addr:full": "Ingleby House", "addr:city": "Bedworth", "addr:state": "Warwickshire", "addr:postcode": "CV12 8BU", "addr:country": "GB", "name": "Ingleby House", "website": "https://www.voyagecare.com/wp-json/voyagecare/v1/services/null/null/null/null/0/0/500", "brand": "Voyage Care"}, "geometry": {"type": "Point", "coordinates": [-1.47379, 52.48265]}},
{"type": "Feature", "id": "6Wt_trYu_35Gua9phSjOJA-Ogow=", "properties": {"ref": "7289", "@spider": "voyagecare", "addr:full": "Ivydene", "addr:city": "Southampton", "addr:state": "England", "addr:postcode": "SO17 2GE", "addr:country": "GB", "name": "Ivydene", "website": "https://www.voyagecare.com/wp-json/voyagecare/v1/services/null/null/null/null/0/0/500", "brand": "Voyage Care"}, "geometry": {"type": "Point", "coordinates": [-1.3895, 50.92294]}},
{"type": "Feature", "id": "nAvzAVqf4BVf0BTsEM7Bea0zSMM=", "properties": {"ref": "7291", "@spider": "voyagecare", "addr:full": "John Cabot House", "addr:city": "Brislington", "addr:state": "Bristol", "addr:postcode": "BS4 2NZ", "addr:country": "GB", "name": "John Cabot House", "website": "https://www.voyagecare.com/wp-json/voyagecare/v1/services/null/null/null/null/0/0/500", "brand": "Voyage Care"}, "geometry": {"type": "Point", "coordinates": [-2.55439, 51.43419]}},
{"type": "Feature", "id": "NaGrb_INvWUF54BLIPIsRxerQMQ=", "properties": {"ref": "7292", "@spider": "voyagecare", "addr:full": "Kay Hitch Way", "addr:city": "Cambridge", "addr:state": "Cambridgeshire", "addr:postcode": "CB24 9YR", "addr:country": "GB", "name": "Kay Hitch Way", "website": "https://www.voyagecare.com/wp-json/voyagecare/v1/services/null/null/null/null/0/0/500", "brand": "Voyage Care"}, "geometry": {"type": "Point", "coordinates": [0.10746, 52.24592]}},
{"type": "Feature", "id": "zJl2VxaZdkfFVyewAQfNS7jQY4c=", "properties": {"ref": "7294", "@spider": "voyagecare", "addr:full": "Unit 5", "addr:city": "Ashwood", "addr:state": "Kent", "addr:postcode": "TN24 8DH", "addr:country": "GB", "name": "Kent and Medway Domiciliary Care", "website": "https://www.voyagecare.com/wp-json/voyagecare/v1/services/null/null/null/null/0/0/500", "brand": "Voyage Care"}, "geometry": {"type": "Point", "coordinates": [1.28271, 51.13018]}},
{"type": "Feature", "id": "ejWgVDKxPbtj1JhzY7KpCOFP1uA=", "properties": {"ref": "7295", "@spider": "voyagecare", "addr:full": "Kenton House", "addr:city": "Headley Down", "addr:state": "Hampshire", "addr:postcode": "GU35 8NL", "addr:country": "GB", "name": "Kenton House", "website": "https://www.voyagecare.com/wp-json/voyagecare/v1/services/null/null/null/null/0/0/500", "brand": "Voyage Care"}, "geometry": {"type": "Point", "coordinates": [-0.80767, 51.11615]}},
{"type": "Feature", "id": "0EyAIQocFMWUg11Xiy_4RNK6yrs=", "properties": {"ref": "43945", "@spider": "voyagecare", "addr:full": "Ladycroft Respite Centre", "addr:city": "Rotherham", "addr:state": "South Yorkshire", "addr:postcode": "S63 6SE", "addr:country": "GB", "name": "Ladycroft Respite Centre", "website": "https://www.voyagecare.com/wp-json/voyagecare/v1/services/null/null/null/null/0/0/500", "brand": "Voyage Care"}, "geometry": {"type": "Point", "coordinates": [-1.34901, 53.50122]}},
{"type": "Feature", "id": "ALDCG9-cj1enLEjaGJpHwjPRLO4=", "properties": {"ref": "7308", "@spider": "voyagecare", "addr:full": "Landau Lodge", "addr:city": "Hull", "addr:state": "East Riding of Yorkshire", "addr:postcode": "HU9 4HU", "addr:country": "GB", "name": "Landau Lodge", "website": "https://www.voyagecare.com/wp-json/voyagecare/v1/services/null/null/null/null/0/0/500", "brand": "Voyage Care"}, "geometry": {"type": "Point", "coordinates": [-0.25927, 53.76584]}},
{"type": "Feature", "id": "hOMRwxl2pM8Mb9E-pY_IQoJW3Gk=", "properties": {"ref": "7311", "@spider": "voyagecare", "addr:full": "Langley House", "addr:city": "Taunton", "addr:state": "Somerset", "addr:postcode": "TA4 2UF", "addr:country": "GB", "name": "Langley House", "website": "https://www.voyagecare.com/wp-json/voyagecare/v1/services/null/null/null/null/0/0/500", "brand": "Voyage Care"}, "geometry": {"type": "Point", "coordinates": [-3.31453, 51.05066]}},
{"type": "Feature", "id": "ud1skgs0D08Gg_LMznZxV2ao3Ys=", "properties": {"ref": "7313", "@spider": "voyagecare", "addr:full": "Lavender House", "addr:city": "Trowbridge", "addr:state": "Wiltshire", "addr:postcode": "BA14 7NQ", "addr:country": "GB", "name": "Lavender House and Primrose Lodge", "website": "https://www.voyagecare.com/wp-json/voyagecare/v1/services/null/null/null/null/0/0/500", "brand": "Voyage Care"}, "geometry": {"type": "Point", "coordinates": [-2.20222, 51.3291]}},
{"type": "Feature", "id": "dn2uAkPkjiP0Zh5ywn9ZzB9ZBCs=", "properties": {"ref": "7316", "@spider": "voyagecare", "addr:full": "2-4 Ling Crescent", "addr:city": "Headley Down", "addr:state": "Hampshire", "addr:postcode": "GU35 8AY", "addr:country": "GB", "name": "Ling Crescent", "website": "https://www.voyagecare.com/wp-json/voyagecare/v1/services/null/null/null/null/0/0/500", "brand": "Voyage Care"}, "geometry": {"type": "Point", "coordinates": [-0.80334, 51.12265]}},
{"type": "Feature", "id": "gcWswf7PHNUryJV_hcNZLPYjwqY=", "properties": {"ref": "7318", "@spider": "voyagecare", "addr:full": "33 Liphook Road", "addr:city": "Lindford", "addr:state": "Hampshire", "addr:postcode": "GU35 0PU", "addr:country": "GB", "name": "Liphook Road", "website": "https://www.voyagecare.com/wp-json/voyagecare/v1/services/null/null/null/null/0/0/500", "brand": "Voyage Care"}, "geometry": {"type": "Point", "coordinates": [-0.84433, 51.1193]}},
{"type": "Feature", "id": "akx1fFb0uF8Td41gj2jyMKLd4iM=", "properties": {"ref": "45129", "@spider": "voyagecare", "addr:city": "Llanbrynmair", "addr:country": "GB", "name": "Community support in Llanbrynmair", "website": "https://www.voyagecare.com/wp-json/voyagecare/v1/services/null/null/null/null/0/0/500", "brand": "Voyage Care"}, "geometry": {"type": "Point", "coordinates": [-3.63558, 52.65025]}},
{"type": "Feature", "id": "5s1mqH8I03OLFs82WLlo6NtiQXs=", "properties": {"ref": "7320", "@spider": "voyagecare", "addr:full": "Longridge Court", "addr:city": "Stroud", "addr:state": "Gloucestershire", "addr:postcode": "GL6 7HU", "addr:country": "GB", "name": "Longridge Court", "website": "https://www.voyagecare.com/wp-json/voyagecare/v1/services/null/null/null/null/0/0/500", "brand": "Voyage Care"}, "geometry": {"type": "Point", "coordinates": [-2.1703, 51.78085]}},
{"type": "Feature", "id": "xh8ji3py7ilOVcjdxJqeS-GvJ_M=", "properties": {"ref": "43956", "@spider": "voyagecare", "addr:full": "4-4a Lorenzo Drive", "addr:city": "Liverpool", "addr:postcode": "L11 1BQ", "addr:country": "GB", "name": "Lorenzo Drive", "website": "https://www.voyagecare.com/wp-json/voyagecare/v1/services/null/null/null/null/0/0/500", "brand": "Voyage Care"}, "geometry": {"type": "Point", "coordinates": [-2.92594, 53.44199]}},
{"type": "Feature", "id": "mapsfw8I_QMdL7Zm8zpCrF8kkbk=", "properties": {"ref": "7323", "@spider": "voyagecare", "addr:full": "Lower St Helens", "addr:city": "Southampton", "addr:state": "Hampshire", "addr:postcode": "SO30 0LU", "addr:country": "GB", "name": "Lower St Helens", "website": "https://www.voyagecare.com/wp-json/voyagecare/v1/services/null/null/null/null/0/0/500", "brand": "Voyage Care"}, "geometry": {"type": "Point", "coordinates": [-1.30143, 50.90783]}},
{"type": "Feature", "id": "nuK7pdrCPU0q9QXYUWIw1XPXXRY=", "properties": {"ref": "7324", "@spider": "voyagecare", "addr:full": "35 Lowther Road", "addr:city": "Bournemouth", "addr:state": "Dorset", "addr:postcode": "BH8 8NG", "addr:country": "GB", "name": "Lowther Road", "website": "https://www.voyagecare.com/wp-json/voyagecare/v1/services/null/null/null/null/0/0/500", "brand": "Voyage Care"}, "geometry": {"type": "Point", "coordinates": [-1.85903, 50.73089]}},
{"type": "Feature", "id": "sAo4C6tNrtx4QjCEshja8SRTqbY=", "properties": {"ref": "7326", "@spider": "voyagecare", "addr:full": "Lynwood House", "addr:city": "Radstock", "addr:state": "Somerset", "addr:postcode": "BA3 2UA", "addr:country": "GB", "name": "Lynwood House", "website": "https://www.voyagecare.com/wp-json/voyagecare/v1/services/null/null/null/null/0/0/500", "brand": "Voyage Care"}, "geometry": {"type": "Point", "coordinates": [-2.48212, 51.27954]}},
{"type": "Feature", "id": "nnGkLYswiKlXo67uRszPSHwQw2A=", "properties": {"ref": "7327", "@spider": "voyagecare", "addr:full": "Maeres House", "addr:city": "Widnes", "addr:state": "Cheshire", "addr:postcode": "WA8 8SS", "addr:country": "GB", "name": "Maeres House", "website": "https://www.voyagecare.com/wp-json/voyagecare/v1/services/null/null/null/null/0/0/500", "brand": "Voyage Care"}, "geometry": {"type": "Point", "coordinates": [-2.76017, 53.36722]}},
{"type": "Feature", "id": "YM3kXAT43CxufTVou9lhtKOY2hs=", "properties": {"ref": "57903", "@spider": "voyagecare", "addr:full": "Magnolia House", "addr:postcode": "RH16 3TT", "addr:country": "GB", "name": "Magnolia House", "website": "https://www.voyagecare.com/wp-json/voyagecare/v1/services/null/null/null/null/0/0/500", "brand": "Voyage Care"}, "geometry": {"type": "Point", "coordinates": [-0.07835, 50.99788]}},
{"type": "Feature", "id": "bVLVPw0IPm5ereFpyEWfu6oBOS0=", "properties": {"ref": "7328", "@spider": "voyagecare", "addr:full": "13 Bridge Street", "addr:city": "Witham", "addr:state": "England", "addr:postcode": "CM8 1BU", "addr:country": "GB", "name": "Mandalay", "website": "https://www.voyagecare.com/wp-json/voyagecare/v1/services/null/null/null/null/0/0/500", "brand": "Voyage Care"}, "geometry": {"type": "Point", "coordinates": [0.63515, 51.79597]}},
{"type": "Feature", "id": "f6OXkzZiLM6p9TBdFhyuI_GAVQ8=", "properties": {"ref": "7329", "@spider": "voyagecare", "addr:full": "34-38 Mannering Avenue", "addr:city": "Dumfries", "addr:state": "Dumfries", "addr:postcode": "DG2 0NG", "addr:country": "GB", "name": "Mannering Avenue", "website": "https://www.voyagecare.com/wp-json/voyagecare/v1/services/null/null/null/null/0/0/500", "brand": "Voyage Care"}, "geometry": {"type": "Point", "coordinates": [-3.63715, 55.08521]}},
{"type": "Feature", "id": "IvlHO8WDSpgJu6ZlP3SeqLS1gYc=", "properties": {"ref": "7330", "@spider": "voyagecare", "addr:full": "Markham House", "addr:city": "Chesterfield", "addr:state": "Derbyshire", "addr:postcode": "S44 6EL", "addr:country": "GB", "name": "Markham House", "website": "https://www.voyagecare.com/wp-json/voyagecare/v1/services/null/null/null/null/0/0/500", "brand": "Voyage Care"}, "geometry": {"type": "Point", "coordinates": [-1.28118, 53.22619]}},
{"type": "Feature", "id": "9EAUOHT2y_dMtt3b51r9T_ozLEc=", "properties": {"ref": "7332", "@spider": "voyagecare", "addr:full": "Marner House", "addr:city": "Nuneaton", "addr:state": "Warwickshire", "addr:postcode": "CV11 5RZ", "addr:country": "GB", "name": "Marner House", "website": "https://www.voyagecare.com/wp-json/voyagecare/v1/services/null/null/null/null/0/0/500", "brand": "Voyage Care"}, "geometry": {"type": "Point", "coordinates": [-1.47301, 52.51683]}},
{"type": "Feature", "id": "F3xvAfouIcry7or0wHLDcnikKBw=", "properties": {"ref": "7334", "@spider": "voyagecare", "addr:full": "89 Mawney Road", "addr:city": "Romford", "addr:state": "Greater London", "addr:postcode": "RM7 7HX", "addr:country": "GB", "name": "Mawney Road", "website": "https://www.voyagecare.com/wp-json/voyagecare/v1/services/null/null/null/null/0/0/500", "brand": "Voyage Care"}, "geometry": {"type": "Point", "coordinates": [0.17071, 51.57876]}},
{"type": "Feature", "id": "8aBGIpAVSS9punsJSNp4pL-iLvc=", "properties": {"ref": "7336", "@spider": "voyagecare", "addr:full": "Melbreck", "addr:city": "Rushmoor", "addr:state": "England", "addr:postcode": "GU10 2ED", "addr:country": "GB", "name": "Melbreck", "website": "https://www.voyagecare.com/wp-json/voyagecare/v1/services/null/null/null/null/0/0/500", "brand": "Voyage Care"}, "geometry": {"type": "Point", "coordinates": [-0.75098, 51.16002]}},
{"type": "Feature", "id": "eoG3koASd0uSHdtslWKcb6jeGP4=", "properties": {"ref": "7339", "@spider": "voyagecare", "addr:full": "25 Mile House Lane", "addr:city": "St Albans", "addr:state": "Hertfordshire", "addr:postcode": "AL1 1TF", "addr:country": "GB", "name": "Mile House Lane", "website": "https://www.voyagecare.com/wp-json/voyagecare/v1/services/null/null/null/null/0/0/500", "brand": "Voyage Care"}, "geometry": {"type": "Point", "coordinates": [-0.31852, 51.73806]}},
{"type": "Feature", "id": "VwHRwzCn5YY1Xmf5WEUvFOa91Nw=", "properties": {"ref": "7341", "@spider": "voyagecare", "addr:full": "4 Mill Road", "addr:city": "Rochester", "addr:state": "Kent", "addr:postcode": "ME2 3BT", "addr:country": "GB", "name": "Millstream House", "website": "https://www.voyagecare.com/wp-json/voyagecare/v1/services/null/null/null/null/0/0/500", "brand": "Voyage Care"}, "geometry": {"type": "Point", "coordinates": [0.49726, 51.40188]}},
{"type": "Feature", "id": "3tWKVn4L9roi2VVDZRSsEh-ku5U=", "properties": {"ref": "7342", "@spider": "voyagecare", "addr:full": "6 Milverton Road", "addr:city": "London", "addr:state": "Greater London", "addr:postcode": "NW6 7AS", "addr:country": "GB", "name": "Milverton Road", "website": "https://www.voyagecare.com/wp-json/voyagecare/v1/services/null/null/null/null/0/0/500", "brand": "Voyage Care"}, "geometry": {"type": "Point", "coordinates": [-0.21992, 51.54399]}},
{"type": "Feature", "id": "PN-zCrXr10CcM1pC39vTtSskjzc=", "properties": {"ref": "7343", "@spider": "voyagecare", "addr:full": "Mimosa Lodge", "addr:city": "Botley", "addr:state": "Hampshire", "addr:postcode": "SO32 2DH", "addr:country": "GB", "name": "Mimosa Lodge", "website": "https://www.voyagecare.com/wp-json/voyagecare/v1/services/null/null/null/null/0/0/500", "brand": "Voyage Care"}, "geometry": {"type": "Point", "coordinates": [-1.28146, 50.92807]}},
{"type": "Feature", "id": "lvKjeHSbOpWnV_SMstMJhxnIN-k=", "properties": {"ref": "7345", "@spider": "voyagecare", "addr:full": "80 West Lane", "addr:city": "Keighley", "addr:state": "England", "addr:postcode": "BD22 8EN", "addr:country": "GB", "name": "Moorfields Lodge", "website": "https://www.voyagecare.com/wp-json/voyagecare/v1/services/null/null/null/null/0/0/500", "brand": "Voyage Care"}, "geometry": {"type": "Point", "coordinates": [-1.96266, 53.83178]}},
{"type": "Feature", "id": "eCWIqghV8TifGeZ64jANhR1V06w=", "properties": {"ref": "7347", "@spider": "voyagecare", "addr:full": "Mountain Ash", "addr:city": "Hastings", "addr:state": "East Sussex", "addr:postcode": "TN35 4AY", "addr:country": "GB", "name": "Mountain Ash", "website": "https://www.voyagecare.com/wp-json/voyagecare/v1/services/null/null/null/null/0/0/500", "brand": "Voyage Care"}, "geometry": {"type": "Point", "coordinates": [0.66477, 50.87696]}},
{"type": "Feature", "id": "OmKslTL3yeNn9darNsorCa21z2U=", "properties": {"ref": "7348", "@spider": "voyagecare", "addr:full": "73 Leigham Court Road", "addr:city": "London", "addr:state": "England", "addr:postcode": "SW16 2NR", "addr:country": "GB", "name": "Mountearl", "website": "https://www.voyagecare.com/wp-json/voyagecare/v1/services/null/null/null/null/0/0/500", "brand": "Voyage Care"}, "geometry": {"type": "Point", "coordinates": [-0.12343, 51.43536]}},
{"type": "Feature", "id": "CyuNsyOUYPZ7cGI7-0z1wCRNxh0=", "properties": {"ref": "45690", "@spider": "voyagecare", "addr:full": "New Fern", "addr:city": "Ovenden", "addr:postcode": "HX2 8AD", "addr:country": "GB", "name": "New Fern", "website": "https://www.voyagecare.com/wp-json/voyagecare/v1/services/null/null/null/null/0/0/500", "brand": "Voyage Care"}, "geometry": {"type": "Point", "coordinates": [-1.8895, 53.74027]}},
{"type": "Feature", "id": "LBBvNfGmm1FKuCzLM1fjOY-NvAM=", "properties": {"ref": "45133", "@spider": "voyagecare", "addr:state": "Newport", "addr:postcode": "NP20 4NP", "addr:country": "GB", "name": "Community support in Newport", "website": "https://www.voyagecare.com/wp-json/voyagecare/v1/services/null/null/null/null/0/0/500", "brand": "Voyage Care"}, "geometry": {"type": "Point", "coordinates": [-3.00192, 51.59023]}},
{"type": "Feature", "id": "9VQBbIYN8D-1ZFhQyEOoIArwTLM=", "properties": {"ref": "44581", "@spider": "voyagecare", "addr:full": "Voyage (DCA) Powys North", "addr:city": "Brynteg", "addr:state": "WREXHAM", "addr:postcode": "LL11 6AB", "addr:country": "GB", "name": "Voyage (DCA) Powys North", "website": "https://www.voyagecare.com/wp-json/voyagecare/v1/services/null/null/null/null/0/0/500", "brand": "Voyage Care"}, "geometry": {"type": "Point", "coordinates": [-3.03676, 53.0687]}},
{"type": "Feature", "id": "lcRW6Cmj0cAIUFA66TXg1s2lzgU=", "properties": {"ref": "45691", "@spider": "voyagecare", "addr:full": "North View", "addr:city": "Todmorden", "addr:postcode": "OL14 5QG", "addr:country": "GB", "name": "North View", "website": "https://www.voyagecare.com/wp-json/voyagecare/v1/services/null/null/null/null/0/0/500", "brand": "Voyage Care"}, "geometry": {"type": "Point", "coordinates": [-2.09554, 53.71369]}},
{"type": "Feature", "id": "99VnDlJAQm9AwDUZn8gHQH0h-QQ=", "properties": {"ref": "7354", "@spider": "voyagecare", "addr:full": "Northfield House", "addr:city": "Taunton", "addr:state": "Somerset", "addr:postcode": "TA4 4JR", "addr:country": "GB", "name": "Northfield House", "website": "https://www.voyagecare.com/wp-json/voyagecare/v1/services/null/null/null/null/0/0/500", "brand": "Voyage Care"}, "geometry": {"type": "Point", "coordinates": [-3.31251, 51.1575]}},
{"type": "Feature", "id": "-kq2Syqhf5_gffUsY2djeifXR0E=", "properties": {"ref": "7355", "@spider": "voyagecare", "addr:full": "19 Stoney Street", "addr:city": "Nottingham", "addr:state": "Nottinghamshire", "addr:postcode": "NG1 1LP", "addr:country": "GB", "name": "Nottingham Supported Living (DCA)", "website": "https://www.voyagecare.com/wp-json/voyagecare/v1/services/null/null/null/null/0/0/500", "brand": "Voyage Care"}, "geometry": {"type": "Point", "coordinates": [-1.14321, 52.9531]}},
{"type": "Feature", "id": "HTO7KskiTj1Xy5hHAasZxADm7cA=", "properties": {"ref": "7356", "@spider": "voyagecare", "addr:full": "Oak House", "addr:city": "Crawley", "addr:state": "West Sussex", "addr:postcode": "RH10 6NZ", "addr:country": "GB", "name": "Oak House", "website": "https://www.voyagecare.com/wp-json/voyagecare/v1/services/null/null/null/null/0/0/500", "brand": "Voyage Care"}, "geometry": {"type": "Point", "coordinates": [-0.16826, 51.10557]}},
{"type": "Feature", "id": "TX5fxnRJizmMVYlglE1udwX9-Ak=", "properties": {"ref": "7358", "@spider": "voyagecare", "addr:full": "8 Winston Rise", "addr:city": "Alton", "addr:state": "England", "addr:postcode": "GU34 5HW", "addr:country": "GB", "name": "Oakcroft", "website": "https://www.voyagecare.com/wp-json/voyagecare/v1/services/null/null/null/null/0/0/500", "brand": "Voyage Care"}, "geometry": {"type": "Point", "coordinates": [-1.04735, 51.11242]}},
{"type": "Feature", "id": "iIKV-GjusrZe3MqMvMhaPQIiScA=", "properties": {"ref": "7360", "@spider": "voyagecare", "addr:full": "5 The Green", "addr:city": "Reading", "addr:state": "England", "addr:postcode": "RG7 5DR", "addr:country": "GB", "name": "Oaklands", "website": "https://www.voyagecare.com/wp-json/voyagecare/v1/services/null/null/null/null/0/0/500", "brand": "Voyage Care"}, "geometry": {"type": "Point", "coordinates": [-1.08609, 51.43461]}},
{"type": "Feature", "id": "wH2gu5qp3n9sb-9BK5nQY-9FwCc=", "properties": {"ref": "7361", "@spider": "voyagecare", "addr:full": "74 Old Ford End Road", "addr:city": "Bedford", "addr:state": "Bedfordshire", "addr:postcode": "MK40 4LY", "addr:country": "GB", "name": "Old Ford End Road", "website": "https://www.voyagecare.com/wp-json/voyagecare/v1/services/null/null/null/null/0/0/500", "brand": "Voyage Care"}, "geometry": {"type": "Point", "coordinates": [-0.49271, 52.13218]}},
{"type": "Feature", "id": "6-vwHLsXxs0Jor4PrEj96dXgst0=", "properties": {"ref": "7362", "@spider": "voyagecare", "addr:full": "Orchard Leigh", "addr:city": "Cheltenham", "addr:state": "Gloucestershire", "addr:postcode": "GL51 0SN", "addr:country": "GB", "name": "Orchard Leigh", "website": "https://www.voyagecare.com/wp-json/voyagecare/v1/services/null/null/null/null/0/0/500", "brand": "Voyage Care"}, "geometry": {"type": "Point", "coordinates": [-2.1086, 51.91603]}},
{"type": "Feature", "id": "wcRsZPMU7iZWUX53CIB0Acwy7TY=", "properties": {"ref": "7367", "@spider": "voyagecare", "addr:full": "2A Park View Road", "addr:city": "Bradford", "addr:state": "England", "addr:postcode": "BD9 4PA", "addr:country": "GB", "name": "Park View Road", "website": "https://www.voyagecare.com/wp-json/voyagecare/v1/services/null/null/null/null/0/0/500", "brand": "Voyage Care"}, "geometry": {"type": "Point", "coordinates": [-1.77693, 53.81259]}},
{"type": "Feature", "id": "uRiqbBKWlWuAz4xecx8K689_FJw=", "properties": {"ref": "7368", "@spider": "voyagecare", "addr:full": "Parkbrook Lodge", "addr:city": "Uttoxeter", "addr:state": "Staffordshire", "addr:postcode": "ST14 5HU", "addr:country": "GB", "name": "Parkbrook Lodge", "website": "https://www.voyagecare.com/wp-json/voyagecare/v1/services/null/null/null/null/0/0/500", "brand": "Voyage Care"}, "geometry": {"type": "Point", "coordinates": [-1.85809, 52.95638]}},
{"type": "Feature", "id": "MkJwO3TgXNhdAXfCDkDS79GnQFs=", "properties": {"ref": "7370", "@spider": "voyagecare", "addr:full": "175a Parkgate Road", "addr:city": "Coventry", "addr:state": "West Midlands", "addr:postcode": "CV6 4GF", "addr:country": "GB", "name": "Parkgate Road", "website": "https://www.voyagecare.com/wp-json/voyagecare/v1/services/null/null/null/null/0/0/500", "brand": "Voyage Care"}, "geometry": {"type": "Point", "coordinates": [-1.51598, 52.44549]}},
{"type": "Feature", "id": "vJpUjrLyOKFlLVIwUiRVRVvF9ms=", "properties": {"ref": "7372", "@spider": "voyagecare", "addr:full": "Peacock Hay", "addr:city": "Stoke On Trent", "addr:state": "Staffordshire", "addr:postcode": "ST7 1UN", "addr:country": "GB", "name": "Peacock Hay", "website": "https://www.voyagecare.com/wp-json/voyagecare/v1/services/null/null/null/null/0/0/500", "brand": "Voyage Care"}, "geometry": {"type": "Point", "coordinates": [-2.2471, 53.06275]}},
{"type": "Feature", "id": "nDriKh2xkuIZq268fptOyU-eHDM=", "properties": {"ref": "7373", "@spider": "voyagecare", "addr:full": "Peel House", "addr:city": "Melksham", "addr:state": "Wiltshire", "addr:postcode": "SN12 6QL", "addr:country": "GB", "name": "Peel House", "website": "https://www.voyagecare.com/wp-json/voyagecare/v1/services/null/null/null/null/0/0/500", "brand": "Voyage Care"}, "geometry": {"type": "Point", "coordinates": [-2.12451, 51.36435]}},
{"type": "Feature", "id": "iOmdXgyEJqWB3JlNXTh15S9KDsU=", "properties": {"ref": "7374", "@spider": "voyagecare", "addr:full": "Pembroke Avenue", "addr:city": "Newcastle Upon Tyne", "addr:state": "Tyne and Wear", "addr:postcode": "NE6 4QU", "addr:country": "GB", "name": "Pembroke Lodge", "website": "https://www.voyagecare.com/wp-json/voyagecare/v1/services/null/null/null/null/0/0/500", "brand": "Voyage Care"}, "geometry": {"type": "Point", "coordinates": [-1.56101, 54.98274]}},
{"type": "Feature", "id": "a23HD2iBSFRzfjcrMX8YPVDpDXA=", "properties": {"ref": "45134", "@spider": "voyagecare", "addr:city": "Haverfordwest", "addr:state": "Pembrokeshire", "addr:postcode": "SA61 2", "addr:country": "GB", "name": "Community support in Pembrokeshire", "website": "https://www.voyagecare.com/wp-json/voyagecare/v1/services/null/null/null/null/0/0/500", "brand": "Voyage Care"}, "geometry": {"type": "Point", "coordinates": [-4.9613, 51.80932]}},
{"type": "Feature", "id": "-GloF8WL9wmz0lx12uy9DxXKbjk=", "properties": {"ref": "45125", "@spider": "voyagecare", "addr:country": "GB", "name": "Community support in Pen-y-Cae", "website": "https://www.voyagecare.com/wp-json/voyagecare/v1/services/null/null/null/null/0/0/500", "brand": "Voyage Care"}, "geometry": {"type": "Point", "coordinates": [-3.67738, 51.811]}},
{"type": "Feature", "id": "JBTGW3N67EbltfAryR6iUilV7kw=", "properties": {"ref": "7376", "@spider": "voyagecare", "addr:full": "Pennington Court", "addr:city": "Rotherham", "addr:state": "South Yorkshire", "addr:postcode": "S66 8ND", "addr:country": "GB", "name": "Pennington Court", "website": "https://www.voyagecare.com/wp-json/voyagecare/v1/services/null/null/null/null/0/0/500", "brand": "Voyage Care"}, "geometry": {"type": "Point", "coordinates": [-1.20996, 53.42193]}},
{"type": "Feature", "id": "o73kU7DIX6tOUak7MvHOkeukj54=", "properties": {"ref": "7377", "@spider": "voyagecare", "addr:full": "Phoenix House", "addr:city": "Trowbridge", "addr:state": "Wiltshire", "addr:postcode": "BA14 6RD", "addr:country": "GB", "name": "Phoenix House", "website": "https://www.voyagecare.com/wp-json/voyagecare/v1/services/null/null/null/null/0/0/500", "brand": "Voyage Care"}, "geometry": {"type": "Point", "coordinates": [-2.19588, 51.35612]}},
{"type": "Feature", "id": "CjiN_HdFXKaxb1nqDTcS0vAVSVw=", "properties": {"ref": "7378", "@spider": "voyagecare", "addr:full": "87 Pinkneys Road", "addr:city": "Maidenhead", "addr:state": "Berkshire", "addr:postcode": "SL6 5DT", "addr:country": "GB", "name": "Pinkneys Road", "website": "https://www.voyagecare.com/wp-json/voyagecare/v1/services/null/null/null/null/0/0/500", "brand": "Voyage Care"}, "geometry": {"type": "Point", "coordinates": [-0.75742, 51.52865]}},
{"type": "Feature", "id": "j1RoDlzk4h3iYeoeLY8-UmB1a4g=", "properties": {"ref": "7380", "@spider": "voyagecare", "addr:full": "Poachers Cottage", "addr:city": "Hereford", "addr:state": "Herefordshire", "addr:postcode": "HR2 8EQ", "addr:country": "GB", "name": "Poachers Cottage", "website": "https://www.voyagecare.com/wp-json/voyagecare/v1/services/null/null/null/null/0/0/500", "brand": "Voyage Care"}, "geometry": {"type": "Point", "coordinates": [-2.74582, 51.9679]}},
{"type": "Feature", "id": "6PiPYz7vq_X_DQgpK1pXO3wbo6w=", "properties": {"ref": "7385", "@spider": "voyagecare", "addr:full": "Quiet Waters", "addr:city": "Brentwood", "addr:state": "Essex", "addr:postcode": "CM13 3TT", "addr:country": "GB", "name": "Quiet Waters", "website": "https://www.voyagecare.com/wp-json/voyagecare/v1/services/null/null/null/null/0/0/500", "brand": "Voyage Care"}, "geometry": {"type": "Point", "coordinates": [0.34284, 51.57637]}},
{"type": "Feature", "id": "OZxwtNDb9gxPp6k0WHAz86nE2d8=", "properties": {"ref": "7389", "@spider": "voyagecare", "addr:full": "Red Gables", "addr:city": "Burnham-On-Sea", "addr:state": "Somerset", "addr:postcode": "TA8 2NF", "addr:country": "GB", "name": "Red Gables", "website": "https://www.voyagecare.com/wp-json/voyagecare/v1/services/null/null/null/null/0/0/500", "brand": "Voyage Care"}, "geometry": {"type": "Point", "coordinates": [-3.01011, 51.26547]}},
{"type": "Feature", "id": "WpXPagTVSW-E_bar_ZQzihb4DXc=", "properties": {"ref": "7390", "@spider": "voyagecare", "addr:full": "Redbank House", "addr:city": "Retford", "addr:state": "Nottinghamshire", "addr:postcode": "DN22 0BT", "addr:country": "GB", "name": "Redbank House", "website": "https://www.voyagecare.com/wp-json/voyagecare/v1/services/null/null/null/null/0/0/500", "brand": "Voyage Care"}, "geometry": {"type": "Point", "coordinates": [-0.8229, 53.3203]}},
{"type": "Feature", "id": "w4wdg0HubVNMhoixacBtMD-556s=", "properties": {"ref": "7391", "@spider": "voyagecare", "addr:full": "Redcliffe House", "addr:city": "Mansfield", "addr:state": "Nottinghamshire", "addr:postcode": "NG18 2QN", "addr:country": "GB", "name": "Redcliffe House", "website": "https://www.voyagecare.com/wp-json/voyagecare/v1/services/null/null/null/null/0/0/500", "brand": "Voyage Care"}, "geometry": {"type": "Point", "coordinates": [-1.18505, 53.14291]}},
{"type": "Feature", "id": "bsKFAmuVhSfS-n6JAeAHjkmL3rE=", "properties": {"ref": "7392", "@spider": "voyagecare", "addr:full": "Redmond House", "addr:city": "Corby", "addr:state": "Northamptonshire", "addr:postcode": "NN17 1EA", "addr:country": "GB", "name": "Redmond House", "website": "https://www.voyagecare.com/wp-json/voyagecare/v1/services/null/null/null/null/0/0/500", "brand": "Voyage Care"}, "geometry": {"type": "Point", "coordinates": [-0.69049, 52.49866]}},
{"type": "Feature", "id": "HymojMVDjJ68po_tmTj3eWocXkM=", "properties": {"ref": "7395", "@spider": "voyagecare", "addr:full": "Babbs Lane", "addr:city": "Ashbourne", "addr:state": "England", "addr:postcode": "DE6 5JT", "addr:country": "GB", "name": "Rhodelands", "website": "https://www.voyagecare.com/wp-json/voyagecare/v1/services/null/null/null/null/0/0/500", "brand": "Voyage Care"}, "geometry": {"type": "Point", "coordinates": [-1.82242, 52.90726]}},
{"type": "Feature", "id": "vPRlEwwceMWeosTO0CRUJnqq-ts=", "properties": {"ref": "45126", "@spider": "voyagecare", "addr:country": "GB", "name": "Community support in Rhosddu", "website": "https://www.voyagecare.com/wp-json/voyagecare/v1/services/null/null/null/null/0/0/500", "brand": "Voyage Care"}, "geometry": {"type": "Point", "coordinates": [-2.99921, 53.05501]}},
{"type": "Feature", "id": "AzKfmfTI__PvRHFfnD_P0gX9wg8=", "properties": {"ref": "45128", "@spider": "voyagecare", "addr:country": "GB", "name": "Community support in Rhosllanerchrugog", "website": "https://www.voyagecare.com/wp-json/voyagecare/v1/services/null/null/null/null/0/0/500", "brand": "Voyage Care"}, "geometry": {"type": "Point", "coordinates": [-3.05191, 53.01133]}},
{"type": "Feature", "id": "axwomwMyABsTIRh3dw7ZAMiD4ps=", "properties": {"ref": "7396", "@spider": "voyagecare", "addr:full": "30 Richmond Road", "addr:city": "Reading", "addr:state": "Berkshire", "addr:postcode": "RG4 7PR", "addr:country": "GB", "name": "Richmond Road", "website": "https://www.voyagecare.com/wp-json/voyagecare/v1/services/null/null/null/null/0/0/500", "brand": "Voyage Care"}, "geometry": {"type": "Point", "coordinates": [-0.98861, 51.47743]}},
{"type": "Feature", "id": "vNFLD4BrWlY_FX0njbkqDSrhuF0=", "properties": {"ref": "7397", "@spider": "voyagecare", "addr:full": "Ridgeway", "addr:city": "Gillingham", "addr:state": "Kent", "addr:postcode": "ME7 4AS", "addr:country": "GB", "name": "Ridgeway", "website": "https://www.voyagecare.com/wp-json/voyagecare/v1/services/null/null/null/null/0/0/500", "brand": "Voyage Care"}, "geometry": {"type": "Point", "coordinates": [0.55639, 51.37693]}},
{"type": "Feature", "id": "xQRat1EIr5PvCe3dyY7b9f0Co30=", "properties": {"ref": "7398", "@spider": "voyagecare", "addr:full": "498 Bellhouse Road", "addr:city": "Sheffield", "addr:state": "England", "addr:postcode": "S5 0RG", "addr:country": "GB", "name": "Rivelin House", "website": "https://www.voyagecare.com/wp-json/voyagecare/v1/services/null/null/null/null/0/0/500", "brand": "Voyage Care"}, "geometry": {"type": "Point", "coordinates": [-1.44101, 53.42971]}},
{"type": "Feature", "id": "kDKui5qsrfcMzvL3l2-LMvz2V6o=", "properties": {"ref": "7399", "@spider": "voyagecare", "addr:full": "Blyth Road", "addr:city": "Worksop", "addr:state": "England", "addr:postcode": "S81 8HU", "addr:country": "GB", "name": "Rivers", "website": "https://www.voyagecare.com/wp-json/voyagecare/v1/services/null/null/null/null/0/0/500", "brand": "Voyage Care"}, "geometry": {"type": "Point", "coordinates": [-1.11536, 53.39137]}},
{"type": "Feature", "id": "7o2Ev_uAX99QDPM_inQXHbxWrZU=", "properties": {"ref": "7401", "@spider": "voyagecare", "addr:full": "Rivers Reach", "addr:city": "Fareham", "addr:state": "Hampshire", "addr:postcode": "PO15 6QX", "addr:country": "GB", "name": "Rivers Reach", "website": "https://www.voyagecare.com/wp-json/voyagecare/v1/services/null/null/null/null/0/0/500", "brand": "Voyage Care"}, "geometry": {"type": "Point", "coordinates": [-1.22774, 50.86734]}},
{"type": "Feature", "id": "yt6x-pxmm4zhIXcEIlrMf7MJKUk=", "properties": {"ref": "7403", "@spider": "voyagecare", "addr:full": "Riverside and Roseberry Lodges", "addr:city": "Middlesbrough", "addr:state": "North Yorkshire", "addr:postcode": "TS4 2AF", "addr:country": "GB", "name": "Riverside and Roseberry Lodges", "website": "https://www.voyagecare.com/wp-json/voyagecare/v1/services/null/null/null/null/0/0/500", "brand": "Voyage Care"}, "geometry": {"type": "Point", "coordinates": [-1.22553, 54.57417]}},
{"type": "Feature", "id": "ZP6lVJrFvybnzaJuT1RWlWZW2p8=", "properties": {"ref": "7406", "@spider": "voyagecare", "addr:full": "Rookery Cottage", "addr:city": "Reading", "addr:state": "Berkshire", "addr:postcode": "RG2 8HE", "addr:country": "GB", "name": "Rookery Cottage", "website": "https://www.voyagecare.com/wp-json/voyagecare/v1/services/null/null/null/null/0/0/500", "brand": "Voyage Care"}, "geometry": {"type": "Point", "coordinates": [-0.9464, 51.42616]}},
{"type": "Feature", "id": "WtS2vvGidx0zpnZM9zvOq4jmMwk=", "properties": {"ref": "7407", "@spider": "voyagecare", "addr:full": "Roselea", "addr:city": "Gloucester", "addr:state": "Gloucestershire", "addr:postcode": "GL2 7BL", "addr:country": "GB", "name": "Roselea", "website": "https://www.voyagecare.com/wp-json/voyagecare/v1/services/null/null/null/null/0/0/500", "brand": "Voyage Care"}, "geometry": {"type": "Point", "coordinates": [-2.37943, 51.73145]}},
{"type": "Feature", "id": "IY97CJtN1VTMTUCnBXwDTo_d1R4=", "properties": {"ref": "57904", "@spider": "voyagecare", "addr:full": "18 St John's Avenue", "addr:city": "Burgess Hill", "addr:postcode": "RH15 8HH", "addr:country": "GB", "name": "Rosewood", "website": "https://www.voyagecare.com/wp-json/voyagecare/v1/services/null/null/null/null/0/0/500", "brand": "Voyage Care"}, "geometry": {"type": "Point", "coordinates": [-0.13662, 50.96044]}},
{"type": "Feature", "id": "AYIVcOOvVcF1nl1lRTWMP5iYfOE=", "properties": {"ref": "51980", "@spider": "voyagecare", "addr:full": "The Denes", "addr:city": "Wakefield", "addr:state": "West Yorkshire", "addr:postcode": "WF3 3JG", "addr:country": "GB", "name": "Ross Dene", "website": "https://www.voyagecare.com/wp-json/voyagecare/v1/services/null/null/null/null/0/0/500", "brand": "Voyage Care"}, "geometry": {"type": "Point", "coordinates": [-1.504, 53.71571]}},
{"type": "Feature", "id": "mJoVenqvD_O_jbofsL7K8wgMbfE=", "properties": {"ref": "7409", "@spider": "voyagecare", "addr:full": "Colliery Approach", "addr:city": "Wakefield", "addr:state": "England", "addr:postcode": "WF3 3JG", "addr:country": "GB", "name": "Ross Dene", "website": "https://www.voyagecare.com/wp-json/voyagecare/v1/services/null/null/null/null/0/0/500", "brand": "Voyage Care"}, "geometry": {"type": "Point", "coordinates": [-1.50399, 53.716]}},
{"type": "Feature", "id": "-_NfUc05Yyi86g4QqRbTieBvpgI=", "properties": {"ref": "7411", "@spider": "voyagecare", "addr:full": "Clifton Lane", "addr:city": "Nottingham", "addr:state": "England", "addr:postcode": "NG11 6AB", "addr:country": "GB", "name": "Ruddington View", "website": "https://www.voyagecare.com/wp-json/voyagecare/v1/services/null/null/null/null/0/0/500", "brand": "Voyage Care"}, "geometry": {"type": "Point", "coordinates": [-1.16403, 52.89709]}},
{"type": "Feature", "id": "InbacKbsrSRJnk_IR6G1Vf1J0Kc=", "properties": {"ref": "7413", "@spider": "voyagecare", "addr:full": "Rugeley Day Service", "addr:city": "Rugeley", "addr:state": "Staffordshire", "addr:postcode": "WS15 2HX", "addr:country": "GB", "name": "Rugeley Day Service", "website": "https://www.voyagecare.com/wp-json/voyagecare/v1/services/null/null/null/null/0/0/500", "brand": "Voyage Care"}, "geometry": {"type": "Point", "coordinates": [-1.93967, 52.75701]}},
{"type": "Feature", "id": "zcTMowgv2rMoD8U1o4G51jlDcqQ=", "properties": {"ref": "7416", "@spider": "voyagecare", "addr:full": "Sadlers Place", "addr:city": "Walsall", "addr:state": "West Midlands", "addr:postcode": "WS2 8SU", "addr:country": "GB", "name": "Sadlers Place", "website": "https://www.voyagecare.com/wp-json/voyagecare/v1/services/null/null/null/null/0/0/500", "brand": "Voyage Care"}, "geometry": {"type": "Point", "coordinates": [-2.00001, 52.59034]}},
{"type": "Feature", "id": "58zp1tWGZX-NnGNUfFV0rZw_Z6k=", "properties": {"ref": "55481", "@spider": "voyagecare", "addr:full": "Saltbank Court", "addr:postcode": "ST16 3TB", "addr:country": "GB", "website": "https://www.voyagecare.com/wp-json/voyagecare/v1/services/null/null/null/null/0/0/500", "brand": "Voyage Care"}, "geometry": {"type": "Point", "coordinates": [-2.118627, 52.817704]}},
{"type": "Feature", "id": "gLr2r4jgzLeYebg2nI8uHjQQl30=", "properties": {"ref": "7419", "@spider": "voyagecare", "addr:full": "Sanderling House", "addr:city": "Liverpool", "addr:state": "Merseyside", "addr:postcode": "L37 4BN", "addr:country": "GB", "name": "Sanderling House", "website": "https://www.voyagecare.com/wp-json/voyagecare/v1/services/null/null/null/null/0/0/500", "brand": "Voyage Care"}, "geometry": {"type": "Point", "coordinates": [-3.05686, 53.5531]}},
{"type": "Feature", "id": "ZdSDGpWJdW0UzBr-cErKI5jwr5I=", "properties": {"ref": "7422", "@spider": "voyagecare", "addr:full": "Saxon Lodge", "addr:city": "South Road", "addr:state": "County Durham", "addr:postcode": "Norton", "addr:country": "GB", "name": "Saxon Lodge", "website": "https://www.voyagecare.com/wp-json/voyagecare/v1/services/null/null/null/null/0/0/500", "brand": "Voyage Care"}, "geometry": {"type": "Point", "coordinates": [-1.30132, 54.58461]}},
{"type": "Feature", "id": "EVXuevbYCckadSsDja6YNRclxe0=", "properties": {"ref": "7426", "@spider": "voyagecare", "addr:full": "23 Old Dover Road", "addr:city": "Folkestone", "addr:state": "Kent", "addr:postcode": "CT18 7HW", "addr:country": "GB", "name": "Seaview", "website": "https://www.voyagecare.com/wp-json/voyagecare/v1/services/null/null/null/null/0/0/500", "brand": "Voyage Care"}, "geometry": {"type": "Point", "coordinates": [1.21127, 51.10035]}},
{"type": "Feature", "id": "jr03KU1Y_hZ4kx0IYvG-v6ZeRhI=", "properties": {"ref": "7432", "@spider": "voyagecare", "addr:full": "1 Sheringham Avenue", "addr:city": "Oakwood", "addr:state": "Greater London", "addr:postcode": "N14 4UB", "addr:country": "GB", "name": "Sheringham Avenue", "website": "https://www.voyagecare.com/wp-json/voyagecare/v1/services/null/null/null/null/0/0/500", "brand": "Voyage Care"}, "geometry": {"type": "Point", "coordinates": [-0.12718, 51.64462]}},
{"type": "Feature", "id": "d44Xb34JaKw2d5CQurjA0EgeqA4=", "properties": {"ref": "7433", "@spider": "voyagecare", "addr:full": "74 Sir Evelyn Road", "addr:state": "Kent", "addr:postcode": "ME1 3LZ", "addr:country": "GB", "name": "Sir Evelyn Road", "website": "https://www.voyagecare.com/wp-json/voyagecare/v1/services/null/null/null/null/0/0/500", "brand": "Voyage Care"}, "geometry": {"type": "Point", "coordinates": [0.49716, 51.36476]}},
{"type": "Feature", "id": "wBJ2Ei-kni-idEUvxQZc9gtAuR8=", "properties": {"ref": "7436", "@spider": "voyagecare", "addr:full": "Smallwood", "addr:city": "Wards Drove", "addr:state": "Dorset", "addr:postcode": "DT11 9LZ", "addr:country": "GB", "name": "Smallwood", "website": "https://www.voyagecare.com/wp-json/voyagecare/v1/services/null/null/null/null/0/0/500", "brand": "Voyage Care"}, "geometry": {"type": "Point", "coordinates": [-2.15654, 50.8467]}},
{"type": "Feature", "id": "ditFwkveImmTtpevKi1KOr9yJ24=", "properties": {"ref": "7438", "@spider": "voyagecare", "addr:full": "35-37 Solna Road", "addr:city": "Winchmore Hill", "addr:state": "Greater London", "addr:postcode": "N21 2JE", "addr:country": "GB", "name": "Solna Road", "website": "https://www.voyagecare.com/wp-json/voyagecare/v1/services/null/null/null/null/0/0/500", "brand": "Voyage Care"}, "geometry": {"type": "Point", "coordinates": [-0.08598, 51.63519]}},
{"type": "Feature", "id": "CmLI9VSyBZt2YJVy4wjEqA63PWE=", "properties": {"ref": "7440", "@spider": "voyagecare", "addr:full": "1 South Avenue", "addr:city": "Chellaston", "addr:state": "Derbyshire", "addr:postcode": "DE73 6RS", "addr:country": "GB", "name": "South Avenue", "website": "https://www.voyagecare.com/wp-json/voyagecare/v1/services/null/null/null/null/0/0/500", "brand": "Voyage Care"}, "geometry": {"type": "Point", "coordinates": [-1.44056, 52.8778]}},
{"type": "Feature", "id": "FwzNpe8t0z51RRwncH2wnYAh_FQ=", "properties": {"ref": "7441", "@spider": "voyagecare", "addr:full": "Park Avenue", "addr:state": "England", "addr:postcode": "TS26 0DZ", "addr:country": "GB", "name": "South Highnam", "website": "https://www.voyagecare.com/wp-json/voyagecare/v1/services/null/null/null/null/0/0/500", "brand": "Voyage Care"}, "geometry": {"type": "Point", "coordinates": [-1.23909, 54.68511]}},
{"type": "Feature", "id": "aAoi8MEj0C2fwFp6q0RtpJiIHKE=", "properties": {"ref": "7443", "@spider": "voyagecare", "addr:full": "34 Yew Tree Close", "addr:state": "England", "addr:postcode": "Fair Oak", "addr:country": "GB", "name": "Southview", "website": "https://www.voyagecare.com/wp-json/voyagecare/v1/services/null/null/null/null/0/0/500", "brand": "Voyage Care"}, "geometry": {"type": "Point", "coordinates": [-1.30121, 50.97004]}},
{"type": "Feature", "id": "Nck4QBZEDGHngutr6VjFhmRQ9xg=", "properties": {"ref": "7448", "@spider": "voyagecare", "addr:full": "233 Spring Grove Road", "addr:city": "Isleworth", "addr:state": "Greater London", "addr:postcode": "TW7 4AF", "addr:country": "GB", "name": "Spring Grove Road", "website": "https://www.voyagecare.com/wp-json/voyagecare/v1/services/null/null/null/null/0/0/500", "brand": "Voyage Care"}, "geometry": {"type": "Point", "coordinates": [-0.34488, 51.4755]}},
{"type": "Feature", "id": "I6DgCWVBiPLNBgCLkmlpfgrFt7c=", "properties": {"ref": "7455", "@spider": "voyagecare", "addr:full": "26 St Barnabas Road", "addr:city": "Emmer Green", "addr:state": "Berkshire", "addr:postcode": "RG4 8RA", "addr:country": "GB", "name": "St Barnabas Road", "website": "https://www.voyagecare.com/wp-json/voyagecare/v1/services/null/null/null/null/0/0/500", "brand": "Voyage Care"}, "geometry": {"type": "Point", "coordinates": [-0.97287, 51.48359]}},
{"type": "Feature", "id": "ef1ZbBC_bs03QRHhUHc0CcQy1Hw=", "properties": {"ref": "7460", "@spider": "voyagecare", "addr:full": "46 St Helen\u2019s Down", "addr:state": "East Sussex", "addr:postcode": "TN34 2BQ", "addr:country": "GB", "name": "St Helens Down", "website": "https://www.voyagecare.com/wp-json/voyagecare/v1/services/null/null/null/null/0/0/500", "brand": "Voyage Care"}, "geometry": {"type": "Point", "coordinates": [0.58918, 50.87358]}},
{"type": "Feature", "id": "2M64HRfbNKkwF2sHz8W20kVGyA0=", "properties": {"ref": "7462", "@spider": "voyagecare", "addr:full": "1 St Philips Close", "addr:city": "Middleton", "addr:state": "West Yorkshire", "addr:postcode": "LS10 3TR", "addr:country": "GB", "name": "St Philips Close", "website": "https://www.voyagecare.com/wp-json/voyagecare/v1/services/null/null/null/null/0/0/500", "brand": "Voyage Care"}, "geometry": {"type": "Point", "coordinates": [-1.54666, 53.74941]}},
{"type": "Feature", "id": "C5DJioDM6HPRigEXVRQ0Hmz4ND4=", "properties": {"ref": "7465", "@spider": "voyagecare", "addr:full": "Stoke Day Service", "addr:city": "Stoke On Trent", "addr:state": "Staffordshire", "addr:postcode": "ST6 1JQ", "addr:country": "GB", "name": "Stoke Day Service", "website": "https://www.voyagecare.com/wp-json/voyagecare/v1/services/null/null/null/null/0/0/500", "brand": "Voyage Care"}, "geometry": {"type": "Point", "coordinates": [-2.19035, 53.0464]}},
{"type": "Feature", "id": "w3rEPW1sam453Kh9Oa3tUukUubM=", "properties": {"ref": "7468", "@spider": "voyagecare", "addr:full": "Doncaster Road", "addr:state": "England", "addr:postcode": "Hooton Roberts", "addr:country": "GB", "name": "Strafford House", "website": "https://www.voyagecare.com/wp-json/voyagecare/v1/services/null/null/null/null/0/0/500", "brand": "Voyage Care"}, "geometry": {"type": "Point", "coordinates": [-1.26733, 53.47031]}},
{"type": "Feature", "id": "nZFKJesllElhOiFjr8zKZdXy1CE=", "properties": {"ref": "44176", "@spider": "voyagecare", "addr:full": "Strafford View", "addr:city": "Doncaster Road", "addr:state": "South Yorkshire", "addr:postcode": "Hooton Roberts", "addr:country": "GB", "name": "Strafford View", "website": "https://www.voyagecare.com/wp-json/voyagecare/v1/services/null/null/null/null/0/0/500", "brand": "Voyage Care"}, "geometry": {"type": "Point", "coordinates": [-1.27341, 53.46697]}},
{"type": "Feature", "id": "WzNfLD5MemH8CFsXirOg-3g10h0=", "properties": {"ref": "7472", "@spider": "voyagecare", "addr:full": "Summerfield Court", "addr:city": "55b Summerfield Drive", "addr:state": "West Yorkshire", "addr:postcode": "Bramley", "addr:country": "GB", "name": "Summerfield Court", "website": "https://www.voyagecare.com/wp-json/voyagecare/v1/services/null/null/null/null/0/0/500", "brand": "Voyage Care"}, "geometry": {"type": "Point", "coordinates": [-1.64928, 53.81385]}},
{"type": "Feature", "id": "Qhj7pUXlCI9NDUzT5ubxHSMKmu0=", "properties": {"ref": "7474", "@spider": "voyagecare", "addr:full": "Sunnyside Nursing and Respite Centre", "addr:city": "19 The Crescent West", "addr:state": "South Yorkshire", "addr:postcode": "Sunnyside", "addr:country": "GB", "name": "Sunnyside Respite Service", "website": "https://www.voyagecare.com/wp-json/voyagecare/v1/services/null/null/null/null/0/0/500", "brand": "Voyage Care"}, "geometry": {"type": "Point", "coordinates": [-1.27994, 53.43389]}},
{"type": "Feature", "id": "_yjEKTpoxS7BYiBl32OoiYU2DSI=", "properties": {"ref": "49877", "@spider": "voyagecare", "addr:country": "GB", "name": "Supported living - Bedfordshire", "website": "https://www.voyagecare.com/wp-json/voyagecare/v1/services/null/null/null/null/0/0/500", "brand": "Voyage Care"}, "geometry": {"type": "Point", "coordinates": [-0.465515, 52.148791]}},
{"type": "Feature", "id": "joZa2uKwEMd1UspClXaMNZEPwm4=", "properties": {"ref": "49924", "@spider": "voyagecare", "addr:country": "GB", "name": "Supported living - Berkshire", "website": "https://www.voyagecare.com/wp-json/voyagecare/v1/services/null/null/null/null/0/0/500", "brand": "Voyage Care"}, "geometry": {"type": "Point", "coordinates": [-1.112758, 51.425592]}},
{"type": "Feature", "id": "p2MA9iA6TXMgIspjZJBpyNYC47U=", "properties": {"ref": "49925", "@spider": "voyagecare", "addr:country": "GB", "name": "Supported living - Cambridgeshire", "website": "https://www.voyagecare.com/wp-json/voyagecare/v1/services/null/null/null/null/0/0/500", "brand": "Voyage Care"}, "geometry": {"type": "Point", "coordinates": [0.009194, 52.28355]}},
{"type": "Feature", "id": "15_xCEci6NRcKYulcF7kvq4qJr4=", "properties": {"ref": "49926", "@spider": "voyagecare", "addr:country": "GB", "name": "Supported living - County Durham", "website": "https://www.voyagecare.com/wp-json/voyagecare/v1/services/null/null/null/null/0/0/500", "brand": "Voyage Care"}, "geometry": {"type": "Point", "coordinates": [-1.797881, 54.712308]}},
{"type": "Feature", "id": "55k-F--QsMMTSNxZjtUb7Oc9_Ds=", "properties": {"ref": "49927", "@spider": "voyagecare", "addr:country": "GB", "name": "Supported living - Derbyshire", "website": "https://www.voyagecare.com/wp-json/voyagecare/v1/services/null/null/null/null/0/0/500", "brand": "Voyage Care"}, "geometry": {"type": "Point", "coordinates": [-1.636101, 53.150308]}},
{"type": "Feature", "id": "O5Sv8M6W4f4u5aDG994rKUYy0cY=", "properties": {"ref": "49928", "@spider": "voyagecare", "addr:country": "GB", "name": "Supported living - Dorset", "website": "https://www.voyagecare.com/wp-json/voyagecare/v1/services/null/null/null/null/0/0/500", "brand": "Voyage Care"}, "geometry": {"type": "Point", "coordinates": [-2.373659, 50.795562]}},
{"type": "Feature", "id": "QJ1gV-_fvfAbf0JfK1QyCEttnm8=", "properties": {"ref": "49929", "@spider": "voyagecare", "addr:country": "GB", "name": "Supported living - East Riding of Yorkshire", "website": "https://www.voyagecare.com/wp-json/voyagecare/v1/services/null/null/null/null/0/0/500", "brand": "Voyage Care"}, "geometry": {"type": "Point", "coordinates": [-0.509073, 53.942726]}},
{"type": "Feature", "id": "Odu4YKxXjp6BOwueIOOi0YzGhJ0=", "properties": {"ref": "49930", "@spider": "voyagecare", "addr:country": "GB", "name": "Supported living - East Sussex", "website": "https://www.voyagecare.com/wp-json/voyagecare/v1/services/null/null/null/null/0/0/500", "brand": "Voyage Care"}, "geometry": {"type": "Point", "coordinates": [0.245784, 50.99644]}},
{"type": "Feature", "id": "KwWAiXX84Dpb3KDRyhHeMPTOA4w=", "properties": {"ref": "49931", "@spider": "voyagecare", "addr:country": "GB", "name": "Supported living - Essex", "website": "https://www.voyagecare.com/wp-json/voyagecare/v1/services/null/null/null/null/0/0/500", "brand": "Voyage Care"}, "geometry": {"type": "Point", "coordinates": [0.506602, 51.894471]}},
{"type": "Feature", "id": "IfaS33-za1ytQPFdTpHIPcfeYf4=", "properties": {"ref": "49932", "@spider": "voyagecare", "addr:country": "GB", "name": "Supported living - Gloucestershire", "website": "https://www.voyagecare.com/wp-json/voyagecare/v1/services/null/null/null/null/0/0/500", "brand": "Voyage Care"}, "geometry": {"type": "Point", "coordinates": [-1.999551, 51.841444]}},
{"type": "Feature", "id": "WlPbySyF3A_dR0X4-Kp8oIbKhCs=", "properties": {"ref": "49933", "@spider": "voyagecare", "addr:country": "GB", "name": "Supported living - Greater London", "website": "https://www.voyagecare.com/wp-json/voyagecare/v1/services/null/null/null/null/0/0/500", "brand": "Voyage Care"}, "geometry": {"type": "Point", "coordinates": [-0.092791, 51.417645]}},
{"type": "Feature", "id": "6hIKuX-yion691GJIAHRIz-X-e0=", "properties": {"ref": "49934", "@spider": "voyagecare", "addr:country": "GB", "name": "Supported living - Greater Manchester", "website": "https://www.voyagecare.com/wp-json/voyagecare/v1/services/null/null/null/null/0/0/500", "brand": "Voyage Care"}, "geometry": {"type": "Point", "coordinates": [-2.504483, 53.540109]}},
{"type": "Feature", "id": "_PTJmywHiQkUCwL16SeEqjVAZ1A=", "properties": {"ref": "49935", "@spider": "voyagecare", "addr:country": "GB", "name": "Supported living - Hampshire", "website": "https://www.voyagecare.com/wp-json/voyagecare/v1/services/null/null/null/null/0/0/500", "brand": "Voyage Care"}, "geometry": {"type": "Point", "coordinates": [-1.225911, 51.132854]}},
{"type": "Feature", "id": "9Kceo6R2s18sYb9QK8tH0oP4Qk0=", "properties": {"ref": "49936", "@spider": "voyagecare", "addr:country": "GB", "name": "Supported living - Herefordshire", "website": "https://www.voyagecare.com/wp-json/voyagecare/v1/services/null/null/null/null/0/0/500", "brand": "Voyage Care"}, "geometry": {"type": "Point", "coordinates": [-2.726306, 52.030774]}},
{"type": "Feature", "id": "XP2YcZwJVwM6m14uZbw2UjcVGks=", "properties": {"ref": "50825", "@spider": "voyagecare", "addr:country": "GB", "name": "Supported living - Hertfordshire", "website": "https://www.voyagecare.com/wp-json/voyagecare/v1/services/null/null/null/null/0/0/500", "brand": "Voyage Care"}, "geometry": {"type": "Point", "coordinates": [-0.116373, 51.800403]}},
{"type": "Feature", "id": "8dr2eKIBT0iyomzyfryGBorvbFE=", "properties": {"ref": "49937", "@spider": "voyagecare", "addr:country": "GB", "name": "Supported living - Kent", "website": "https://www.voyagecare.com/wp-json/voyagecare/v1/services/null/null/null/null/0/0/500", "brand": "Voyage Care"}, "geometry": {"type": "Point", "coordinates": [0.59929, 51.204802]}},
{"type": "Feature", "id": "JJMtPNuk4dgISGfjK86v2bQV8qk=", "properties": {"ref": "49938", "@spider": "voyagecare", "addr:country": "GB", "name": "Supported living - Lancashire", "website": "https://www.voyagecare.com/wp-json/voyagecare/v1/services/null/null/null/null/0/0/500", "brand": "Voyage Care"}, "geometry": {"type": "Point", "coordinates": [-2.599753, 53.836709]}},
{"type": "Feature", "id": "knbjMrZJv0OReHqzgyDF5at-FcY=", "properties": {"ref": "49939", "@spider": "voyagecare", "addr:country": "GB", "name": "Supported living - Leicestershire", "website": "https://www.voyagecare.com/wp-json/voyagecare/v1/services/null/null/null/null/0/0/500", "brand": "Voyage Care"}, "geometry": {"type": "Point", "coordinates": [-1.053469, 52.661458]}},
{"type": "Feature", "id": "LU_EW1TE6Mm9guDsS6QaSNMS3f0=", "properties": {"ref": "49940", "@spider": "voyagecare", "addr:country": "GB", "name": "Supported living - Lincolnshire", "website": "https://www.voyagecare.com/wp-json/voyagecare/v1/services/null/null/null/null/0/0/500", "brand": "Voyage Care"}, "geometry": {"type": "Point", "coordinates": [-0.404115, 53.02854]}},
{"type": "Feature", "id": "4mzDqCOEhS2MGh-iWBKpGWECdNA=", "properties": {"ref": "49941", "@spider": "voyagecare", "addr:country": "GB", "name": "Supported living - Merseyside", "website": "https://www.voyagecare.com/wp-json/voyagecare/v1/services/null/null/null/null/0/0/500", "brand": "Voyage Care"}, "geometry": {"type": "Point", "coordinates": [-2.849858, 53.459482]}},
{"type": "Feature", "id": "hj_R6bUOY7sfQ2adIyL0vPMrt0o=", "properties": {"ref": "49942", "@spider": "voyagecare", "addr:country": "GB", "name": "Supported living - Norfolk", "website": "https://www.voyagecare.com/wp-json/voyagecare/v1/services/null/null/null/null/0/0/500", "brand": "Voyage Care"}, "geometry": {"type": "Point", "coordinates": [1.127361, 52.607466]}},
{"type": "Feature", "id": "GLoKh95ekwUseHl6FVkVxAgjlDY=", "properties": {"ref": "49943", "@spider": "voyagecare", "addr:country": "GB", "name": "Supported living - North Yorkshire", "website": "https://www.voyagecare.com/wp-json/voyagecare/v1/services/null/null/null/null/0/0/500", "brand": "Voyage Care"}, "geometry": {"type": "Point", "coordinates": [-1.473627, 54.240827]}},
{"type": "Feature", "id": "TwXxwsj-0aJTx3Zy-sScTut1zxA=", "properties": {"ref": "49946", "@spider": "voyagecare", "addr:country": "GB", "name": "Supported living - Northumberland", "website": "https://www.voyagecare.com/wp-json/voyagecare/v1/services/null/null/null/null/0/0/500", "brand": "Voyage Care"}, "geometry": {"type": "Point", "coordinates": [-2.012957, 55.153839]}},
{"type": "Feature", "id": "9iTXdJthM78UtWayLDzYBxcXFec=", "properties": {"ref": "49947", "@spider": "voyagecare", "addr:country": "GB", "name": "Supported living - Nottinghamshire", "website": "https://www.voyagecare.com/wp-json/voyagecare/v1/services/null/null/null/null/0/0/500", "brand": "Voyage Care"}, "geometry": {"type": "Point", "coordinates": [-1.017744, 53.104368]}},
{"type": "Feature", "id": "C7t1IscGT9o1pzdQQJUinX1Q55g=", "properties": {"ref": "49948", "@spider": "voyagecare", "addr:country": "GB", "name": "Supported living - Scotland, Dumfries and Galloway", "website": "https://www.voyagecare.com/wp-json/voyagecare/v1/services/null/null/null/null/0/0/500", "brand": "Voyage Care"}, "geometry": {"type": "Point", "coordinates": [-3.734966, 55.063159]}},
{"type": "Feature", "id": "SQoLpfedDVfx6d4j9L7bDMjJxdE=", "properties": {"ref": "49949", "@spider": "voyagecare", "addr:country": "GB", "name": "Supported living - Scotland, South Lanarkshire", "website": "https://www.voyagecare.com/wp-json/voyagecare/v1/services/null/null/null/null/0/0/500", "brand": "Voyage Care"}, "geometry": {"type": "Point", "coordinates": [-3.805, 55.592317]}},
{"type": "Feature", "id": "bOoPxTpQrlhZsK4OfdHYEO7Yz6M=", "properties": {"ref": "49950", "@spider": "voyagecare", "addr:country": "GB", "name": "Supported living - Somerset", "website": "https://www.voyagecare.com/wp-json/voyagecare/v1/services/null/null/null/null/0/0/500", "brand": "Voyage Care"}, "geometry": {"type": "Point", "coordinates": [-2.761298, 51.060188]}},
{"type": "Feature", "id": "z6OC3NuuJjqHdsNYxJ0IiWvH4qc=", "properties": {"ref": "49970", "@spider": "voyagecare", "addr:country": "GB", "name": "Supported living - South Yorkshire", "website": "https://www.voyagecare.com/wp-json/voyagecare/v1/services/null/null/null/null/0/0/500", "brand": "Voyage Care"}, "geometry": {"type": "Point", "coordinates": [-1.303527, 53.457126]}},
{"type": "Feature", "id": "3HPmfGGavG1rGx5xwbyHOZwquj8=", "properties": {"ref": "49971", "@spider": "voyagecare", "addr:country": "GB", "name": "Supported living - Staffordshire", "website": "https://www.voyagecare.com/wp-json/voyagecare/v1/services/null/null/null/null/0/0/500", "brand": "Voyage Care"}, "geometry": {"type": "Point", "coordinates": [-2.079646, 52.845659]}},
{"type": "Feature", "id": "OQQjhYrQikChALDlvOftb3gnhnM=", "properties": {"ref": "49972", "@spider": "voyagecare", "addr:country": "GB", "name": "Supported living - Surrey", "website": "https://www.voyagecare.com/wp-json/voyagecare/v1/services/null/null/null/null/0/0/500", "brand": "Voyage Care"}, "geometry": {"type": "Point", "coordinates": [-0.526973, 51.221111]}},
{"type": "Feature", "id": "2qjJc-4y0WDwcwK9Fglvw-WzQGU=", "properties": {"ref": "49973", "@spider": "voyagecare", "addr:country": "GB", "name": "Supported living - Tyne and Wear", "website": "https://www.voyagecare.com/wp-json/voyagecare/v1/services/null/null/null/null/0/0/500", "brand": "Voyage Care"}, "geometry": {"type": "Point", "coordinates": [-1.662681, 54.936669]}},
{"type": "Feature", "id": "acX2u1WaJ8KGY4CPWFpeUg45ilA=", "properties": {"ref": "49974", "@spider": "voyagecare", "addr:country": "GB", "name": "Supported living - Warwickshire", "website": "https://www.voyagecare.com/wp-json/voyagecare/v1/services/null/null/null/null/0/0/500", "brand": "Voyage Care"}, "geometry": {"type": "Point", "coordinates": [-1.530741, 52.243312]}},
{"type": "Feature", "id": "ahWlajoUILXKbSeDlkGfEPDXnCs=", "properties": {"ref": "49975", "@spider": "voyagecare", "addr:country": "GB", "name": "Supported living - West Midlands", "website": "https://www.voyagecare.com/wp-json/voyagecare/v1/services/null/null/null/null/0/0/500", "brand": "Voyage Care"}, "geometry": {"type": "Point", "coordinates": [-1.898412, 52.568882]}},
{"type": "Feature", "id": "4GhPu8mStBUrWvNVDltpKlbmFAA=", "properties": {"ref": "49976", "@spider": "voyagecare", "addr:country": "GB", "name": "Supported living - West Yorkshire", "website": "https://www.voyagecare.com/wp-json/voyagecare/v1/services/null/null/null/null/0/0/500", "brand": "Voyage Care"}, "geometry": {"type": "Point", "coordinates": [-1.793432, 53.744079]}},
{"type": "Feature", "id": "awkjUYf0wiACsyYNeaB003S9WNY=", "properties": {"ref": "49977", "@spider": "voyagecare", "addr:country": "GB", "name": "Supported living - Wiltshire", "website": "https://www.voyagecare.com/wp-json/voyagecare/v1/services/null/null/null/null/0/0/500", "brand": "Voyage Care"}, "geometry": {"type": "Point", "coordinates": [-1.941742, 51.263434]}},
{"type": "Feature", "id": "sUiz2KwqvcduZvqCJamrEfzc31g=", "properties": {"ref": "7475", "@spider": "voyagecare", "addr:full": "The Old Grove Centre", "addr:city": "Hindhead", "addr:state": "England", "addr:postcode": "GU26 6BN", "addr:country": "GB", "name": "Surrey and Hants Domiciliary Care Agency", "website": "https://www.voyagecare.com/wp-json/voyagecare/v1/services/null/null/null/null/0/0/500", "brand": "Voyage Care"}, "geometry": {"type": "Point", "coordinates": [-0.75316, 51.12188]}},
{"type": "Feature", "id": "j22-RDrgTJg6-T5kcjcr7cKh334=", "properties": {"ref": "7477", "@spider": "voyagecare", "addr:full": "Talbot Court", "addr:city": "1-3 Jervoise Street", "addr:state": "West Midlands", "addr:postcode": "Carters Green", "addr:country": "GB", "name": "Talbot Court", "website": "https://www.voyagecare.com/wp-json/voyagecare/v1/services/null/null/null/null/0/0/500", "brand": "Voyage Care"}, "geometry": {"type": "Point", "coordinates": [-2.01018, 52.524]}},
{"type": "Feature", "id": "tz5hdUe3fINyWUD1E4PVkBaUkbY=", "properties": {"ref": "7478", "@spider": "voyagecare", "addr:full": "Tate Lodge", "addr:city": "Liverpool", "addr:state": "Merseyside", "addr:postcode": "L11 5AF", "addr:country": "GB", "name": "Tate Lodge", "website": "https://www.voyagecare.com/wp-json/voyagecare/v1/services/null/null/null/null/0/0/500", "brand": "Voyage Care"}, "geometry": {"type": "Point", "coordinates": [-2.93122, 53.44342]}},
{"type": "Feature", "id": "HT3xFZiZM4Ledh5oZ5jKaEuzMhg=", "properties": {"ref": "7482", "@spider": "voyagecare", "addr:full": "89 Ten Acre Road", "addr:city": "Rotherham", "addr:state": "South Yorkshire", "addr:postcode": "S61 3RW", "addr:country": "GB", "name": "Ten Acre Respite Service", "website": "https://www.voyagecare.com/wp-json/voyagecare/v1/services/null/null/null/null/0/0/500", "brand": "Voyage Care"}, "geometry": {"type": "Point", "coordinates": [-1.38492, 53.44096]}},
{"type": "Feature", "id": "pmD8so3H_DW23ocJ_0AKGVRQMwY=", "properties": {"ref": "7483", "@spider": "voyagecare", "addr:full": "137a Tentelow Lane", "addr:city": "Southall", "addr:state": "Greater London", "addr:postcode": "UB2 4LW", "addr:country": "GB", "name": "Tentelow Lane", "website": "https://www.voyagecare.com/wp-json/voyagecare/v1/services/null/null/null/null/0/0/500", "brand": "Voyage Care"}, "geometry": {"type": "Point", "coordinates": [-0.36145, 51.5007]}},
{"type": "Feature", "id": "kvNbX8AhfT7a_InPkQ-fgrHzpQo=", "properties": {"ref": "7485", "@spider": "voyagecare", "addr:full": "The Acorns", "addr:city": "Crawley", "addr:state": "West Sussex", "addr:postcode": "RH10 3UE", "addr:country": "GB", "name": "The Acorns", "website": "https://www.voyagecare.com/wp-json/voyagecare/v1/services/null/null/null/null/0/0/500", "brand": "Voyage Care"}, "geometry": {"type": "Point", "coordinates": [-0.14603, 51.12462]}},
{"type": "Feature", "id": "USTRZWFlfhMDMQ3j7Odcsz5JAeE=", "properties": {"ref": "7487", "@spider": "voyagecare", "addr:full": "The Bungalow", "addr:city": "Taunton", "addr:state": "Somerset", "addr:postcode": "TA1 2DR", "addr:country": "GB", "name": "The Bungalow (Taunton)", "website": "https://www.voyagecare.com/wp-json/voyagecare/v1/services/null/null/null/null/0/0/500", "brand": "Voyage Care"}, "geometry": {"type": "Point", "coordinates": [-3.07132, 51.01818]}},
{"type": "Feature", "id": "Z1IqxQbh0aRaI-c6se51Q7qT_tE=", "properties": {"ref": "7488", "@spider": "voyagecare", "addr:full": "2-4 High Pitfold", "addr:city": "Hindhead", "addr:state": "England", "addr:postcode": "GU26 6BN", "addr:country": "GB", "name": "The Cedars", "website": "https://www.voyagecare.com/wp-json/voyagecare/v1/services/null/null/null/null/0/0/500", "brand": "Voyage Care"}, "geometry": {"type": "Point", "coordinates": [-0.74636, 51.1002]}},
{"type": "Feature", "id": "CTzyS9LtQOImY1YjygBvKvDSdlk=", "properties": {"ref": "7489", "@spider": "voyagecare", "addr:full": "The Cedars", "addr:city": "Blidworth", "addr:state": "Nottinghamshire", "addr:postcode": "NG21 0RB", "addr:country": "GB", "name": "The Cedars (Mansfield)", "website": "https://www.voyagecare.com/wp-json/voyagecare/v1/services/null/null/null/null/0/0/500", "brand": "Voyage Care"}, "geometry": {"type": "Point", "coordinates": [-1.11928, 53.10079]}},
{"type": "Feature", "id": "fs87il1HRPdfn5pksyq-pq-D4Mo=", "properties": {"ref": "7491", "@spider": "voyagecare", "addr:full": "The Discovery Centre", "addr:city": "Keighley", "addr:state": "West Yorkshire", "addr:postcode": "BD22 9PH", "addr:country": "GB", "name": "The Discovery Centre", "website": "https://www.voyagecare.com/wp-json/voyagecare/v1/services/null/null/null/null/0/0/500", "brand": "Voyage Care"}, "geometry": {"type": "Point", "coordinates": [-1.94282, 53.82967]}},
{"type": "Feature", "id": "Jjv0oKAIRtUtSMH-qjNqWFIr3YM=", "properties": {"ref": "7494", "@spider": "voyagecare", "addr:full": "The Granary", "addr:city": "Driffield", "addr:state": "East Riding of Yorkshire", "addr:postcode": "YO25 8QZ", "addr:country": "GB", "name": "The Granary", "website": "https://www.voyagecare.com/wp-json/voyagecare/v1/services/null/null/null/null/0/0/500", "brand": "Voyage Care"}, "geometry": {"type": "Point", "coordinates": [-0.29968, 53.91317]}},
{"type": "Feature", "id": "uGux7im-jziPMbF6Kmj3q-xCE_Y=", "properties": {"ref": "7495", "@spider": "voyagecare", "addr:full": "The Grange", "addr:city": "Liss", "addr:state": "Hampshire", "addr:postcode": "GU33 6JE", "addr:country": "GB", "name": "The Grange (Liss)", "website": "https://www.voyagecare.com/wp-json/voyagecare/v1/services/null/null/null/null/0/0/500", "brand": "Voyage Care"}, "geometry": {"type": "Point", "coordinates": [-0.89822, 51.04792]}},
{"type": "Feature", "id": "ztuLeK1BOu40D84P_B9lV4f-VIQ=", "properties": {"ref": "7496", "@spider": "voyagecare", "addr:full": "The Grove", "addr:city": "Holland-On-Sea", "addr:state": "Essex", "addr:postcode": "CO15 5JU", "addr:country": "GB", "name": "The Grove", "website": "https://www.voyagecare.com/wp-json/voyagecare/v1/services/null/null/null/null/0/0/500", "brand": "Voyage Care"}, "geometry": {"type": "Point", "coordinates": [1.18515, 51.80353]}},
{"type": "Feature", "id": "NQ1jpqyLCBE1W1HDInHb8cPHYlQ=", "properties": {"ref": "7497", "@spider": "voyagecare", "addr:full": "128-130 Hadlow Road", "addr:city": "Tonbridge", "addr:state": "Kent", "addr:postcode": "TN9 1PA", "addr:country": "GB", "name": "The Hadlows", "website": "https://www.voyagecare.com/wp-json/voyagecare/v1/services/null/null/null/null/0/0/500", "brand": "Voyage Care"}, "geometry": {"type": "Point", "coordinates": [0.28365, 51.20054]}},
{"type": "Feature", "id": "HrUPu7NhmtsQSTLQpYOiDRJ6_IE=", "properties": {"ref": "7499", "@spider": "voyagecare", "addr:full": "The Knowls", "addr:city": "Taunton", "addr:state": "Somerset", "addr:postcode": "TA1 4QW", "addr:country": "GB", "name": "The Knowls", "website": "https://www.voyagecare.com/wp-json/voyagecare/v1/services/null/null/null/null/0/0/500", "brand": "Voyage Care"}, "geometry": {"type": "Point", "coordinates": [-3.11463, 51.00471]}},
{"type": "Feature", "id": "Hi0QyNZTUY5fQXJCuoHUCaW3-hU=", "properties": {"ref": "7501", "@spider": "voyagecare", "addr:full": "The Laurels", "addr:city": "Fareham", "addr:state": "Hampshire", "addr:postcode": "PO14 4BL", "addr:country": "GB", "name": "The Laurels", "website": "https://www.voyagecare.com/wp-json/voyagecare/v1/services/null/null/null/null/0/0/500", "brand": "Voyage Care"}, "geometry": {"type": "Point", "coordinates": [-1.24491, 50.85312]}},
{"type": "Feature", "id": "TS2eXg8XfqObv-2Ip8Hf-XjIUsI=", "properties": {"ref": "7502", "@spider": "voyagecare", "addr:full": "The Lawns", "addr:city": "Exmouth", "addr:state": "Devon", "addr:postcode": "EX8 2EJ", "addr:country": "GB", "name": "The Lawns", "website": "https://www.voyagecare.com/wp-json/voyagecare/v1/services/null/null/null/null/0/0/500", "brand": "Voyage Care"}, "geometry": {"type": "Point", "coordinates": [-3.39617, 50.62047]}},
{"type": "Feature", "id": "H_hDzjrhQxsUjiJ7ClJ0eA7U0xE=", "properties": {"ref": "7504", "@spider": "voyagecare", "addr:full": "The Legard", "addr:city": "Hull", "addr:state": "East Riding of Yorkshire", "addr:postcode": "HU9 4HS", "addr:country": "GB", "name": "The Legard", "website": "https://www.voyagecare.com/wp-json/voyagecare/v1/services/null/null/null/null/0/0/500", "brand": "Voyage Care"}, "geometry": {"type": "Point", "coordinates": [-0.26089, 53.76661]}},
{"type": "Feature", "id": "gkIF2ywQtCAVwQqUEWysTaQsOlY=", "properties": {"ref": "7505", "@spider": "voyagecare", "addr:full": "The Lodge", "addr:city": "Bracknell", "addr:state": "Berkshire", "addr:postcode": "RG42 3RZ", "addr:country": "GB", "name": "The Lodge", "website": "https://www.voyagecare.com/wp-json/voyagecare/v1/services/null/null/null/null/0/0/500", "brand": "Voyage Care"}, "geometry": {"type": "Point", "coordinates": [-0.73646, 51.42185]}},
{"type": "Feature", "id": "z-HaiT8yET4vG2iZHpV3iaDrKYg=", "properties": {"ref": "7506", "@spider": "voyagecare", "addr:full": "The Maltings", "addr:city": "Calne", "addr:state": "Wiltshire", "addr:postcode": "SN11 8EZ", "addr:country": "GB", "name": "The Maltings", "website": "https://www.voyagecare.com/wp-json/voyagecare/v1/services/null/null/null/null/0/0/500", "brand": "Voyage Care"}, "geometry": {"type": "Point", "coordinates": [-1.9969, 51.43319]}},
{"type": "Feature", "id": "q62DEPtEzy8eYr6YnsOcKPI71N4=", "properties": {"ref": "7509", "@spider": "voyagecare", "addr:full": "The Mews", "addr:city": "Blyth", "addr:state": "Northumberland", "addr:postcode": "NE24 5ND", "addr:country": "GB", "name": "The Mews", "website": "https://www.voyagecare.com/wp-json/voyagecare/v1/services/null/null/null/null/0/0/500", "brand": "Voyage Care"}, "geometry": {"type": "Point", "coordinates": [-1.54474, 55.13003]}},
{"type": "Feature", "id": "NI8lgiERRL58xOTWNIuGRHpvaeE=", "properties": {"ref": "7510", "@spider": "voyagecare", "addr:full": "The Minster", "addr:city": "Bridgwater", "addr:state": "Somerset ", "addr:postcode": "TA6 6LX", "addr:country": "GB", "name": "The Minster", "website": "https://www.voyagecare.com/wp-json/voyagecare/v1/services/null/null/null/null/0/0/500", "brand": "Voyage Care"}, "geometry": {"type": "Point", "coordinates": [-3.01394, 51.09136]}},
{"type": "Feature", "id": "TXFJ9RyKqTm-TxufyTe_hMLgpqc=", "properties": {"ref": "7512", "@spider": "voyagecare", "addr:full": "The Orchards", "addr:city": "Crawley", "addr:state": "West Sussex", "addr:postcode": "RH10 1JJ", "addr:country": "GB", "name": "The Orchards", "website": "https://www.voyagecare.com/wp-json/voyagecare/v1/services/null/null/null/null/0/0/500", "brand": "Voyage Care"}, "geometry": {"type": "Point", "coordinates": [-0.17924, 51.11515]}},
{"type": "Feature", "id": "VHecyt2dgx36JnKEY08YN7B3USM=", "properties": {"ref": "7513", "@spider": "voyagecare", "addr:full": "49 Wharncliffe Road", "addr:city": "Ilkeston", "addr:state": "England", "addr:postcode": "DE7 5GF", "addr:country": "GB", "name": "The Red House", "website": "https://www.voyagecare.com/wp-json/voyagecare/v1/services/null/null/null/null/0/0/500", "brand": "Voyage Care"}, "geometry": {"type": "Point", "coordinates": [-1.31139, 52.97035]}},
{"type": "Feature", "id": "j5nb0w6w4zMHWk_VHB4DZ6RVS0I=", "properties": {"ref": "7516", "@spider": "voyagecare", "addr:full": "The Willows", "addr:city": "Hindhead", "addr:state": "Surrey", "addr:postcode": "GU26 6BN", "addr:country": "GB", "name": "The Willows", "website": "https://www.voyagecare.com/wp-json/voyagecare/v1/services/null/null/null/null/0/0/500", "brand": "Voyage Care"}, "geometry": {"type": "Point", "coordinates": [-0.74615, 51.10017]}},
{"type": "Feature", "id": "r-vQo94ndFZEGWbdq9zU-ejlK74=", "properties": {"ref": "7517", "@spider": "voyagecare", "addr:full": "Theoc House", "addr:city": "Tewkesbury", "addr:state": "Gloucestershire", "addr:postcode": "GL20 5HZ", "addr:country": "GB", "name": "Theoc House", "website": "https://www.voyagecare.com/wp-json/voyagecare/v1/services/null/null/null/null/0/0/500", "brand": "Voyage Care"}, "geometry": {"type": "Point", "coordinates": [-2.15383, 51.98635]}},
{"type": "Feature", "id": "mEwbQBNOqzEkwECZ8KGPLnw0jvo=", "properties": {"ref": "7518", "@spider": "voyagecare", "addr:full": "Three Sisters", "addr:city": "Keighley", "addr:state": "West Yorkshire", "addr:postcode": "BD22 9PH", "addr:country": "GB", "name": "Three Sisters", "website": "https://www.voyagecare.com/wp-json/voyagecare/v1/services/null/null/null/null/0/0/500", "brand": "Voyage Care"}, "geometry": {"type": "Point", "coordinates": [-1.94282, 53.82967]}},
{"type": "Feature", "id": "0Gm2UA6UqNwo24le0specuOrjOU=", "properties": {"ref": "7519", "@spider": "voyagecare", "addr:full": "Titchfield Lodge", "addr:city": "Fareham", "addr:state": "Hampshire", "addr:postcode": "PO15 5RN", "addr:country": "GB", "name": "Titchfield Lodge", "website": "https://www.voyagecare.com/wp-json/voyagecare/v1/services/null/null/null/null/0/0/500", "brand": "Voyage Care"}, "geometry": {"type": "Point", "coordinates": [-1.25042, 50.86195]}},
{"type": "Feature", "id": "TTBP30FgNhwRoR6sT4Naxb-oqT8=", "properties": {"ref": "45135", "@spider": "voyagecare", "addr:city": "Cwmbran", "addr:state": "Torfaen", "addr:postcode": "NP44 1QX", "addr:country": "GB", "name": "Community support in Torfaen", "website": "https://www.voyagecare.com/wp-json/voyagecare/v1/services/null/null/null/null/0/0/500", "brand": "Voyage Care"}, "geometry": {"type": "Point", "coordinates": [-3.0059, 51.65936]}},
{"type": "Feature", "id": "FyhBFbOqzbgDLZTJiVsuzFUK8FE=", "properties": {"ref": "7521", "@spider": "voyagecare", "addr:full": "33 Slamannan Road", "addr:city": "Falkirk", "addr:state": "Scotland", "addr:postcode": "FK1 5NF", "addr:country": "GB", "name": "Treddinoch", "website": "https://www.voyagecare.com/wp-json/voyagecare/v1/services/null/null/null/null/0/0/500", "brand": "Voyage Care"}, "geometry": {"type": "Point", "coordinates": [-3.79841, 55.99052]}},
{"type": "Feature", "id": "7uWbnNjmgXTBKbT_8Qd-cz4O3MA=", "properties": {"ref": "7524", "@spider": "voyagecare", "addr:full": "Tudor Rose", "addr:city": "Alton", "addr:state": "Hampshire", "addr:postcode": "GU34 1PB", "addr:country": "GB", "name": "Tudor Rose", "website": "https://www.voyagecare.com/wp-json/voyagecare/v1/services/null/null/null/null/0/0/500", "brand": "Voyage Care"}, "geometry": {"type": "Point", "coordinates": [-0.97847, 51.14243]}},
{"type": "Feature", "id": "m7cjkLHjiLMGKjO6mZX0v_ghTZE=", "properties": {"ref": "44469", "@spider": "voyagecare", "addr:full": "24 South Gyle Road", "addr:city": "Edinburgh", "addr:postcode": "EH12 7RN", "addr:country": "GB", "name": "Tweed Lodge", "website": "https://www.voyagecare.com/wp-json/voyagecare/v1/services/null/null/null/null/0/0/500", "brand": "Voyage Care"}, "geometry": {"type": "Point", "coordinates": [-3.29678, 55.9378]}},
{"type": "Feature", "id": "GauTkk8FZS7blpX98NYJVk-kL1Q=", "properties": {"ref": "7526", "@spider": "voyagecare", "addr:full": "Twyford House", "addr:city": "Dover", "addr:state": "Kent", "addr:postcode": "CT16 2AG", "addr:country": "GB", "name": "Twyford House", "website": "https://www.voyagecare.com/wp-json/voyagecare/v1/services/null/null/null/null/0/0/500", "brand": "Voyage Care"}, "geometry": {"type": "Point", "coordinates": [1.29606, 51.13837]}},
{"type": "Feature", "id": "l1Rs_F3U_GDNFk3tbvMia7wzMzQ=", "properties": {"ref": "7530", "@spider": "voyagecare", "addr:full": "Uttoxeter Day Service", "addr:city": "Uttoxeter", "addr:state": "Staffordshire", "addr:postcode": "ST14 7LH", "addr:country": "GB", "name": "Uttoxeter Day Service", "website": "https://www.voyagecare.com/wp-json/voyagecare/v1/services/null/null/null/null/0/0/500", "brand": "Voyage Care"}, "geometry": {"type": "Point", "coordinates": [-1.86795, 52.90013]}},
{"type": "Feature", "id": "IwT-s8X28sik14KnW4OAWxSxoVc=", "properties": {"ref": "7229", "@spider": "voyagecare", "addr:full": "Ground Floor, Crowne House", "addr:city": "London", "addr:state": "England", "addr:postcode": "SE1 1UN", "addr:country": "GB", "name": "Voyage (CYP DCA) Greater London", "website": "https://www.voyagecare.com/wp-json/voyagecare/v1/services/null/null/null/null/0/0/500", "brand": "Voyage Care"}, "geometry": {"type": "Point", "coordinates": [-0.09462, 51.50499]}},
{"type": "Feature", "id": "Ueoq__JXw5z1BB42rElffyDe-A4=", "properties": {"ref": "7531", "@spider": "voyagecare", "addr:full": "Asset House", "addr:city": "Peterborough", "addr:state": "Cambridgeshire", "addr:postcode": "PE3 6SR", "addr:country": "GB", "name": "Voyage (DCA) (East)", "website": "https://www.voyagecare.com/wp-json/voyagecare/v1/services/null/null/null/null/0/0/500", "brand": "Voyage Care"}, "geometry": {"type": "Point", "coordinates": [-0.29671, 52.56955]}},
{"type": "Feature", "id": "DUO4afBJlWyp_msLPmPfEH2n-P0=", "properties": {"ref": "7533", "@spider": "voyagecare", "addr:full": "19 St Columbas Court", "addr:city": "Hartlepool", "addr:state": "County Durham", "addr:postcode": "TS25 5TG", "addr:country": "GB", "name": "Voyage (DCA) (North 3)", "website": "https://www.voyagecare.com/wp-json/voyagecare/v1/services/null/null/null/null/0/0/500", "brand": "Voyage Care"}, "geometry": {"type": "Point", "coordinates": [-1.2408, 54.67054]}},
{"type": "Feature", "id": "QhfmrAcjRhMCN6K-NCHcYlwE_TY=", "properties": {"ref": "7536", "@spider": "voyagecare", "addr:full": "Park View Apartments", "addr:city": "Wolverhampton", "addr:state": "West Midlands", "addr:postcode": "WV11 2JZ", "addr:country": "GB", "name": "Voyage (DCA) (West Midlands)", "website": "https://www.voyagecare.com/wp-json/voyagecare/v1/services/null/null/null/null/0/0/500", "brand": "Voyage Care"}, "geometry": {"type": "Point", "coordinates": [-2.06136, 52.61686]}},
{"type": "Feature", "id": "-2CEYrTCPMsUroNf5W-cdS62KiE=", "properties": {"ref": "7537", "@spider": "voyagecare", "addr:full": "614 Reading Road", "addr:city": "Winnersh", "addr:state": "Wokingham", "addr:postcode": "RG41 5HE", "addr:country": "GB", "name": "Voyage (DCA) Berkshire", "website": "https://www.voyagecare.com/wp-json/voyagecare/v1/services/null/null/null/null/0/0/500", "brand": "Voyage Care"}, "geometry": {"type": "Point", "coordinates": [-0.89243, 51.43554]}},
{"type": "Feature", "id": "bGW4pg9SY8OnXVDnUo242-0vxDY=", "properties": {"ref": "7538", "@spider": "voyagecare", "addr:full": "2 Fordham House Court", "addr:city": "Cambridge", "addr:state": "Cambridgeshire", "addr:postcode": "CB7 5LL", "addr:country": "GB", "name": "Voyage (DCA) Cambridge City", "website": "https://www.voyagecare.com/wp-json/voyagecare/v1/services/null/null/null/null/0/0/500", "brand": "Voyage Care"}, "geometry": {"type": "Point", "coordinates": [0.15027, 52.19425]}},
{"type": "Feature", "id": "jaqJttKetOJ36nz9PhN6JvLCchg=", "properties": {"ref": "7539", "@spider": "voyagecare", "addr:full": "Orion Suite - The South Wales Chamber of Commerce", "addr:city": "Newport", "addr:state": "Gwent", "addr:postcode": "NP20 2AQ", "addr:country": "GB", "name": "Voyage (DCA) De Cymru", "website": "https://www.voyagecare.com/wp-json/voyagecare/v1/services/null/null/null/null/0/0/500", "brand": "Voyage Care"}, "geometry": {"type": "Point", "coordinates": [-2.98728, 51.57856]}},
{"type": "Feature", "id": "VqKq_FKjDQ-naNqbQn3HafEoszc=", "properties": {"ref": "7540", "@spider": "voyagecare", "addr:full": "Bedford Lodge", "addr:city": "Clacton-On-Sea", "addr:state": "Essex", "addr:postcode": "CO15 6PH", "addr:country": "GB", "name": "Voyage (DCA) Essex", "website": "https://www.voyagecare.com/wp-json/voyagecare/v1/services/null/null/null/null/0/0/500", "brand": "Voyage Care"}, "geometry": {"type": "Point", "coordinates": [1.1568, 51.78999]}},
{"type": "Feature", "id": "iu-ICF4y3e4RQp3YosbItyAYiN4=", "properties": {"ref": "45279", "@spider": "voyagecare", "addr:full": "2 Devonshire Street North", "addr:city": "Manchester", "addr:state": "Greater Manchester", "addr:postcode": "M12 4DL", "addr:country": "GB", "name": "Voyage (DCA) Greater Manchester", "website": "https://www.voyagecare.com/wp-json/voyagecare/v1/services/null/null/null/null/0/0/500", "brand": "Voyage Care"}, "geometry": {"type": "Point", "coordinates": [-2.2154, 53.46669]}},
{"type": "Feature", "id": "l0PTguTDSbs-cO6clfFm6umpXB8=", "properties": {"ref": "44177", "@spider": "voyagecare", "addr:full": "Unit 9 West Links", "addr:city": "Eastleigh", "addr:state": "Hampshire", "addr:postcode": "SO53 3TG", "addr:country": "GB", "name": "Voyage (DC) Hampshire", "website": "https://www.voyagecare.com/wp-json/voyagecare/v1/services/null/null/null/null/0/0/500", "brand": "Voyage Care"}, "geometry": {"type": "Point", "coordinates": [-1.38253, 50.96803]}},
{"type": "Feature", "id": "qi9IvrhGU4NK5gXZfjkk0g5N-x4=", "properties": {"ref": "7543", "@spider": "voyagecare", "addr:full": "12 Trinity Vicarage Road", "addr:city": "Hinckley", "addr:state": "Leicestershire", "addr:postcode": "LE10 0BX", "addr:country": "GB", "name": "Voyage (DCA) Leicestershire", "website": "https://www.voyagecare.com/wp-json/voyagecare/v1/services/null/null/null/null/0/0/500", "brand": "Voyage Care"}, "geometry": {"type": "Point", "coordinates": [-1.37388, 52.54339]}},
{"type": "Feature", "id": "OicOuN1YWZrkUdR2ltu0_yBo0EA=", "properties": {"ref": "7301", "@spider": "voyagecare", "addr:full": "3 Churchill Court", "addr:city": "Crawley", "addr:postcode": "RH10 9LU", "addr:country": "GB", "name": "Voyage (DCA) London East", "website": "https://www.voyagecare.com/wp-json/voyagecare/v1/services/null/null/null/null/0/0/500", "brand": "Voyage Care"}, "geometry": {"type": "Point", "coordinates": [-0.11774, 51.35652]}},
{"type": "Feature", "id": "YgSdcjW8OLUEMrhF-OQ9J1faSZc=", "properties": {"ref": "7542", "@spider": "voyagecare", "addr:full": "Voyage (DCA) London West", "addr:city": "Southwark", "addr:state": "Greater London", "addr:postcode": "SE1 1UN", "addr:country": "GB", "name": "Voyage (DCA) London West", "website": "https://www.voyagecare.com/wp-json/voyagecare/v1/services/null/null/null/null/0/0/500", "brand": "Voyage Care"}, "geometry": {"type": "Point", "coordinates": [-0.3508, 51.47593]}},
{"type": "Feature", "id": "jSF86NYMZcPvUnLVNiZ4Pxm4XwU=", "properties": {"ref": "7546", "@spider": "voyagecare", "addr:full": "Breckland Business Centre", "addr:city": "Dereham", "addr:state": "Norfolk", "addr:postcode": "NR19 1FD", "addr:country": "GB", "name": "Voyage (DCA) Norfolk & Fenland", "website": "https://www.voyagecare.com/wp-json/voyagecare/v1/services/null/null/null/null/0/0/500", "brand": "Voyage Care"}, "geometry": {"type": "Point", "coordinates": [1.73161, 52.58712]}},
{"type": "Feature", "id": "CnxBbe5CmZtp3Y0avF1dTwbuSqY=", "properties": {"ref": "44676", "@spider": "voyagecare", "addr:full": "48 Heath Road", "addr:city": "Chesterfield", "addr:state": "Derbyshire", "addr:postcode": "S42 5SW", "addr:country": "GB", "name": "Voyage (DCA) North Derbyshire", "website": "https://www.voyagecare.com/wp-json/voyagecare/v1/services/null/null/null/null/0/0/500", "brand": "Voyage Care"}, "geometry": {"type": "Point", "coordinates": [-1.35707, 53.18776]}},
{"type": "Feature", "id": "NOfalHSeVJHxCxBFQLjqwPB3vbw=", "properties": {"ref": "7547", "@spider": "voyagecare", "addr:full": "Photon House", "addr:city": "Leeds", "addr:state": "England", "addr:postcode": "LS12 1EG", "addr:country": "GB", "name": "Voyage (DCA) Pennines", "website": "https://www.voyagecare.com/wp-json/voyagecare/v1/services/null/null/null/null/0/0/500", "brand": "Voyage Care"}, "geometry": {"type": "Point", "coordinates": [-1.56045, 53.80753]}},
{"type": "Feature", "id": "wKF99BZk3EACzdthvIr_M9iw9x8=", "properties": {"ref": "7549", "@spider": "voyagecare", "addr:full": "Moorgate Croft Business Centre", "addr:city": "Rotherham", "addr:state": "South Yorkshire", "addr:postcode": "S60 2DH", "addr:country": "GB", "name": "Voyage (DCA) Rotherham", "website": "https://www.voyagecare.com/wp-json/voyagecare/v1/services/null/null/null/null/0/0/500", "brand": "Voyage Care"}, "geometry": {"type": "Point", "coordinates": [-1.35444, 53.42642]}},
{"type": "Feature", "id": "9c_1tm9EHerzKT9JmghGhlEIAzM=", "properties": {"ref": "7551", "@spider": "voyagecare", "addr:full": "3 Elmdon Road", "addr:city": "Birmingham", "addr:state": "West Midlands", "addr:postcode": "B37 7BS", "addr:country": "GB", "name": "Voyage (DCA) Solihull & Birmingham", "website": "https://www.voyagecare.com/wp-json/voyagecare/v1/services/null/null/null/null/0/0/500", "brand": "Voyage Care"}, "geometry": {"type": "Point", "coordinates": [-1.77862, 52.44914]}},
{"type": "Feature", "id": "KkSh-NwsHHRk4jJdcu7l9tYHOrk=", "properties": {"ref": "7552", "@spider": "voyagecare", "addr:full": "Unit 6 & 7", "addr:city": "Bridgwater", "addr:state": "Somerset", "addr:postcode": "TA6 6DF", "addr:country": "GB", "name": "Voyage (DCA) Somerset & Devon", "website": "https://www.voyagecare.com/wp-json/voyagecare/v1/services/null/null/null/null/0/0/500", "brand": "Voyage Care"}, "geometry": {"type": "Point", "coordinates": [-3.00079, 51.13417]}},
{"type": "Feature", "id": "mToFgMAT5Z0XdFgWlzJAjqoAA1M=", "properties": {"ref": "7553", "@spider": "voyagecare", "addr:full": "29 Station Street", "addr:city": "Walsall", "addr:state": "West Midlands", "addr:postcode": "WS6 7ED", "addr:country": "GB", "name": "Voyage (DCA) North West Chase", "website": "https://www.voyagecare.com/wp-json/voyagecare/v1/services/null/null/null/null/0/0/500", "brand": "Voyage Care"}, "geometry": {"type": "Point", "coordinates": [-2.01051, 52.69008]}},
{"type": "Feature", "id": "7QuQdaAJqNpaDuZe_7HFruAuYdg=", "properties": {"ref": "10262", "@spider": "voyagecare", "addr:full": "Unit 6, Woodlands Village", "addr:city": "Wakefield", "addr:state": "West Yorkshire", "addr:postcode": "WF1 5NJ", "addr:country": "GB", "name": "Voyage (DCA) Wakefield", "website": "https://www.voyagecare.com/wp-json/voyagecare/v1/services/null/null/null/null/0/0/500", "brand": "Voyage Care"}, "geometry": {"type": "Point", "coordinates": [-1.48757, 53.66739]}},
{"type": "Feature", "id": "g6ZP6AbC1NkeRmJpyWblciFNlP4=", "properties": {"ref": "7554", "@spider": "voyagecare", "addr:full": "Stretton Lodge", "addr:city": "Nuneaton", "addr:state": "Warwickshire", "addr:postcode": "CV10 9NY", "addr:country": "GB", "name": "Voyage (DCA) Warwickshire", "website": "https://www.voyagecare.com/wp-json/voyagecare/v1/services/null/null/null/null/0/0/500", "brand": "Voyage Care"}, "geometry": {"type": "Point", "coordinates": [-1.52679, 52.53444]}},
{"type": "Feature", "id": "P97BLDFu-dQpCyLGWLGP456coTI=", "properties": {"ref": "7555", "@spider": "voyagecare", "addr:full": "Voyage (DCA) Wiltshire", "addr:city": "Whitehill Lane, Royal Wootton Bassett", "addr:state": "Swindon", "addr:postcode": "SN4 7DB", "addr:country": "GB", "name": "Voyage (DCA) Wiltshire", "website": "https://www.voyagecare.com/wp-json/voyagecare/v1/services/null/null/null/null/0/0/500", "brand": "Voyage Care"}, "geometry": {"type": "Point", "coordinates": [-2.19643, 51.29886]}},
{"type": "Feature", "id": "0Zb2ia9h-ZGKC3xxkjXLhR9hd2I=", "properties": {"ref": "7557", "@spider": "voyagecare", "addr:full": "Hartlepool Innovation Centre", "addr:city": "Hartlepool", "addr:state": "County Durham", "addr:postcode": "TS25 5TG", "addr:country": "GB", "name": "Voyage Specialist Healthcare (DCA) North", "website": "https://www.voyagecare.com/wp-json/voyagecare/v1/services/null/null/null/null/0/0/500", "brand": "Voyage Care"}, "geometry": {"type": "Point", "coordinates": [-1.23333, 54.64911]}},
{"type": "Feature", "id": "T2ksA2bsxuYZPrGB5zW0V-tKuWM=", "properties": {"ref": "7559", "@spider": "voyagecare", "addr:full": "Walker Lodge", "addr:city": "Liverpool", "addr:state": "Merseyside", "addr:postcode": "L11 5AF", "addr:country": "GB", "name": "Walker Lodge", "website": "https://www.voyagecare.com/wp-json/voyagecare/v1/services/null/null/null/null/0/0/500", "brand": "Voyage Care"}, "geometry": {"type": "Point", "coordinates": [-2.93122, 53.44342]}},
{"type": "Feature", "id": "nHK30SiVu6HKqhL5mDXj-D3tTAQ=", "properties": {"ref": "7562", "@spider": "voyagecare", "addr:full": "429 Warwick Road", "addr:city": "Solihull", "addr:state": "West Midlands", "addr:postcode": "B91 1BD", "addr:country": "GB", "name": "Warwick Road", "website": "https://www.voyagecare.com/wp-json/voyagecare/v1/services/null/null/null/null/0/0/500", "brand": "Voyage Care"}, "geometry": {"type": "Point", "coordinates": [-1.79625, 52.42573]}},
{"type": "Feature", "id": "dEuiIgBujdbAiVM-fDfW97g49wo=", "properties": {"ref": "7564", "@spider": "voyagecare", "addr:full": "Fresh Fields, Primrose Lane", "addr:city": "Waterbeach", "addr:state": "Cambridgeshire", "addr:postcode": "CB25 9JZ", "addr:country": "GB", "name": "Waterbeach", "website": "https://www.voyagecare.com/wp-json/voyagecare/v1/services/null/null/null/null/0/0/500", "brand": "Voyage Care"}, "geometry": {"type": "Point", "coordinates": [0.18787, 52.26832]}},
{"type": "Feature", "id": "gnNS_QmLOnYQzW7SMj9DOQRxgS0=", "properties": {"ref": "7567", "@spider": "voyagecare", "addr:full": "Welland House", "addr:city": "Corby", "addr:state": "Northamptonshire", "addr:postcode": "NN17 1EA", "addr:country": "GB", "name": "Welland House - Occupation Road", "website": "https://www.voyagecare.com/wp-json/voyagecare/v1/services/null/null/null/null/0/0/500", "brand": "Voyage Care"}, "geometry": {"type": "Point", "coordinates": [-0.69049, 52.49866]}},
{"type": "Feature", "id": "FNPiaH2oF7-G8s12T8q8Qx6P9Oc=", "properties": {"ref": "7568", "@spider": "voyagecare", "addr:full": "371 Dover Road", "addr:city": "Deal", "addr:state": "England", "addr:postcode": "CT14 7NZ", "addr:country": "GB", "name": "Wellington House", "website": "https://www.voyagecare.com/wp-json/voyagecare/v1/services/null/null/null/null/0/0/500", "brand": "Voyage Care"}, "geometry": {"type": "Point", "coordinates": [1.38746, 51.19968]}},
{"type": "Feature", "id": "Vgr5i_jpQgicjMKvl6UcqR2mRGo=", "properties": {"ref": "7569", "@spider": "voyagecare", "addr:full": "52 Wellington Road", "addr:city": "Taunton", "addr:state": "Somerset", "addr:postcode": "TA1 5AP", "addr:country": "GB", "name": "Wellington Road", "website": "https://www.voyagecare.com/wp-json/voyagecare/v1/services/null/null/null/null/0/0/500", "brand": "Voyage Care"}, "geometry": {"type": "Point", "coordinates": [-3.11546, 51.01511]}},
{"type": "Feature", "id": "79eK8Vty_Q8kZeRdakfQ1qPfXDA=", "properties": {"ref": "7571", "@spider": "voyagecare", "addr:full": "2 West Road", "addr:city": "Southampton", "addr:state": "Hampshire", "addr:postcode": "SO30 4BD", "addr:country": "GB", "name": "West Road", "website": "https://www.voyagecare.com/wp-json/voyagecare/v1/services/null/null/null/null/0/0/500", "brand": "Voyage Care"}, "geometry": {"type": "Point", "coordinates": [-1.32397, 50.91405]}},
{"type": "Feature", "id": "ewGjsbZxIHxrYkmxLhA7xR4KeLQ=", "properties": {"ref": "7572", "@spider": "voyagecare", "addr:full": "36 West Street", "addr:city": "Barnsley", "addr:state": "South Yorkshire", "addr:postcode": "S73 8LA", "addr:country": "GB", "name": "West Street", "website": "https://www.voyagecare.com/wp-json/voyagecare/v1/services/null/null/null/null/0/0/500", "brand": "Voyage Care"}, "geometry": {"type": "Point", "coordinates": [-1.40937, 53.52356]}},
{"type": "Feature", "id": "J1JTZEvQqmVrCmDozafGA1s9aSE=", "properties": {"ref": "7575", "@spider": "voyagecare", "addr:full": "Westbury", "addr:city": "Deal", "addr:state": "Kent", "addr:postcode": "CT14 7DB", "addr:country": "GB", "name": "Westbury", "website": "https://www.voyagecare.com/wp-json/voyagecare/v1/services/null/null/null/null/0/0/500", "brand": "Voyage Care"}, "geometry": {"type": "Point", "coordinates": [1.40016, 51.22105]}},
{"type": "Feature", "id": "MYrFW6kPKr2xkDHQk27v98i9HF0=", "properties": {"ref": "7578", "@spider": "voyagecare", "addr:full": "Westleigh House", "addr:city": "Taunton", "addr:state": "Somerset", "addr:postcode": "TA1 1BZ", "addr:country": "GB", "name": "Westleigh House", "website": "https://www.voyagecare.com/wp-json/voyagecare/v1/services/null/null/null/null/0/0/500", "brand": "Voyage Care"}, "geometry": {"type": "Point", "coordinates": [-3.11136, 51.02307]}},
{"type": "Feature", "id": "2Ek9GT5sD0s6H9D3zaQNyHzaEH4=", "properties": {"ref": "7579", "@spider": "voyagecare", "addr:full": "Westwood", "addr:city": "Coventry", "addr:state": "West Midlands", "addr:postcode": "CV6 2EG", "addr:country": "GB", "name": "Westwood", "website": "https://www.voyagecare.com/wp-json/voyagecare/v1/services/null/null/null/null/0/0/500", "brand": "Voyage Care"}, "geometry": {"type": "Point", "coordinates": [-1.54047, 52.43617]}},
{"type": "Feature", "id": "7vjyjFnt8j3-WUQZMv0fXVWZjs8=", "properties": {"ref": "7580", "@spider": "voyagecare", "addr:full": "Westwood House", "addr:city": "Swindon", "addr:state": "Wiltshire", "addr:postcode": "SN1 4EY", "addr:country": "GB", "name": "Westwood House", "website": "https://www.voyagecare.com/wp-json/voyagecare/v1/services/null/null/null/null/0/0/500", "brand": "Voyage Care"}, "geometry": {"type": "Point", "coordinates": [-1.78691, 51.54612]}},
{"type": "Feature", "id": "zmNlWHrFLw6GCujCXYFHk6GtslQ=", "properties": {"ref": "7581", "@spider": "voyagecare", "addr:full": "Wey House", "addr:city": "Taunton", "addr:state": "Somerset", "addr:postcode": "TA4 1BT", "addr:country": "GB", "name": "Wey House", "website": "https://www.voyagecare.com/wp-json/voyagecare/v1/services/null/null/null/null/0/0/500", "brand": "Voyage Care"}, "geometry": {"type": "Point", "coordinates": [-3.16731, 51.02882]}},
{"type": "Feature", "id": "8ncNANE2qPNeaerodUfeztouz5s=", "properties": {"ref": "7585", "@spider": "voyagecare", "addr:full": "Willowbrook", "addr:city": "Leicester", "addr:state": "Leicestershire", "addr:postcode": "LE5 2HY", "addr:country": "GB", "name": "Willowbrook", "website": "https://www.voyagecare.com/wp-json/voyagecare/v1/services/null/null/null/null/0/0/500", "brand": "Voyage Care"}, "geometry": {"type": "Point", "coordinates": [-1.05866, 52.64003]}},
{"type": "Feature", "id": "NZWkvwAwT6n28bMDzamrf95kwpI=", "properties": {"ref": "7587", "@spider": "voyagecare", "addr:full": "52 Winchester Road", "addr:city": "Alton", "addr:state": "Hampshire", "addr:postcode": "GU34 5HR", "addr:country": "GB", "name": "Winchester Road", "website": "https://www.voyagecare.com/wp-json/voyagecare/v1/services/null/null/null/null/0/0/500", "brand": "Voyage Care"}, "geometry": {"type": "Point", "coordinates": [-1.04528, 51.11078]}},
{"type": "Feature", "id": "1Hm2T2uuS9EDvEfPSDDvUSNNDS0=", "properties": {"ref": "7589", "@spider": "voyagecare", "addr:full": "Colliery Approach", "addr:city": "Wakefield", "addr:state": "England", "addr:postcode": "WF3 3JG", "addr:country": "GB", "name": "Wood Dene", "website": "https://www.voyagecare.com/wp-json/voyagecare/v1/services/null/null/null/null/0/0/500", "brand": "Voyage Care"}, "geometry": {"type": "Point", "coordinates": [-1.50399, 53.716]}},
{"type": "Feature", "id": "IluAphlBP__6NJkDmRvUlNjdv0M=", "properties": {"ref": "7590", "@spider": "voyagecare", "addr:full": "Woodham Grange", "addr:city": "Newton Aycliffe", "addr:state": "County Durham", "addr:postcode": "DL5 4PJ", "addr:country": "GB", "name": "Woodham Grange", "website": "https://www.voyagecare.com/wp-json/voyagecare/v1/services/null/null/null/null/0/0/500", "brand": "Voyage Care"}, "geometry": {"type": "Point", "coordinates": [-1.5747, 54.62622]}},
{"type": "Feature", "id": "V6jk5oJG3aqodaEGcV47C_06KXw=", "properties": {"ref": "7591", "@spider": "voyagecare", "addr:full": "Woodham Lodge", "addr:city": "Newton Aycliffe", "addr:state": "County Durham", "addr:postcode": "DL5 4PJ", "addr:country": "GB", "name": "Woodham Lodge", "website": "https://www.voyagecare.com/wp-json/voyagecare/v1/services/null/null/null/null/0/0/500", "brand": "Voyage Care"}, "geometry": {"type": "Point", "coordinates": [-1.5747, 54.62622]}},
{"type": "Feature", "id": "Mk5nDL3Ig0eu-N53nK_hZAcQEek=", "properties": {"ref": "7592", "@spider": "voyagecare", "addr:full": "Church Lane", "addr:city": "Middlesbrough", "addr:state": "North Yorkshire", "addr:postcode": "TS5 7EB", "addr:country": "GB", "name": "Woodlands", "website": "https://www.voyagecare.com/wp-json/voyagecare/v1/services/null/null/null/null/0/0/500", "brand": "Voyage Care"}, "geometry": {"type": "Point", "coordinates": [-1.25382, 54.54546]}},
{"type": "Feature", "id": "s1G50TMBMLzZVgf5o6vlo2F3zx0=", "properties": {"ref": "53459", "@spider": "voyagecare", "addr:full": "Woodley Street", "addr:city": "Nottingham", "addr:state": "Nottinghamshire", "addr:postcode": "NG11 6EP", "addr:country": "GB", "name": "Woodley House", "website": "https://www.voyagecare.com/wp-json/voyagecare/v1/services/null/null/null/null/0/0/500", "brand": "Voyage Care"}, "geometry": {"type": "Point", "coordinates": [-1.14913, 52.8948]}},
{"type": "Feature", "id": "P6FPHGVo4l_SHAUof_cWISkww38=", "properties": {"ref": "7593", "@spider": "voyagecare", "addr:full": "Woodrow Cottage", "addr:city": "Eastleigh", "addr:state": "Hampshire", "addr:postcode": "SO50 7HJ", "addr:country": "GB", "name": "Woodrow Cottage", "website": "https://www.voyagecare.com/wp-json/voyagecare/v1/services/null/null/null/null/0/0/500", "brand": "Voyage Care"}, "geometry": {"type": "Point", "coordinates": [-1.30262, 50.97847]}},
{"type": "Feature", "id": "ZpMn0OOp9rlWwF1zuxZMwk-ZbP4=", "properties": {"ref": "7594", "@spider": "voyagecare", "addr:full": "2 Woodside Close", "addr:city": "Minehead", "addr:state": "England", "addr:postcode": "TA24 8RZ", "addr:country": "GB", "name": "Woodside", "website": "https://www.voyagecare.com/wp-json/voyagecare/v1/services/null/null/null/null/0/0/500", "brand": "Voyage Care"}, "geometry": {"type": "Point", "coordinates": [-3.49659, 51.20685]}},
{"type": "Feature", "id": "lNN1l6c-2duZ8Me2czZDNl2dyIo=", "properties": {"ref": "7595", "@spider": "voyagecare", "addr:full": "2 Woodside Close", "addr:city": "Minehead", "addr:state": "England", "addr:postcode": "TA24 8RZ", "addr:country": "GB", "name": "Woodside Close Respite", "website": "https://www.voyagecare.com/wp-json/voyagecare/v1/services/null/null/null/null/0/0/500", "brand": "Voyage Care"}, "geometry": {"type": "Point", "coordinates": [-3.49659, 51.20685]}},
{"type": "Feature", "id": "1xfUuEhTeb04fG8VX--r67tgYcA=", "properties": {"ref": "7598", "@spider": "voyagecare", "addr:full": "358 Worting Road", "addr:city": "Basingstoke", "addr:state": "Hampshire", "addr:postcode": "RG22 5DY", "addr:country": "GB", "name": "Worting Road (The Whispers)", "website": "https://www.voyagecare.com/wp-json/voyagecare/v1/services/null/null/null/null/0/0/500", "brand": "Voyage Care"}, "geometry": {"type": "Point", "coordinates": [-1.1274, 51.26199]}},
{"type": "Feature", "id": "P1MVk9fYxO9fOgGU7lSj32_oF90=", "properties": {"ref": "44092", "@spider": "voyagecare", "addr:full": "Memorial Center Brynteg", "addr:city": "Wrexham", "addr:state": "Clwyd", "addr:postcode": "LL11 6AB", "addr:country": "GB", "name": "Voyage (DCA) North Wales \u2013 Wrexham", "website": "https://www.voyagecare.com/wp-json/voyagecare/v1/services/null/null/null/null/0/0/500", "brand": "Voyage Care"}, "geometry": {"type": "Point", "coordinates": [-3.03706, 53.06856]}}]}