{"type":"FeatureCollection","features":[{"type": "Feature", "id": "vQ_WmofpTpzGBIyZqydWZVrnluY=", "properties": {"ref": "32584112", "@spider": "vpz_gb", "shop": "e-cigarette", "addr:full": "51 Union Street AB11 5BJ", "addr:postcode": "AB11 5BJ", "addr:country": "GB", "name": "VPZ Aberdeen", "phone": "01224 596882", "website": "http://www.vpz.co.uk", "contact:email": "support@vpz.co.uk", "brand": "VPZ", "brand:wikidata": "Q107300487", "nsi_id": "vpz-a06c95"}, "geometry": {"type": "Point", "coordinates": [-2.0951246, 57.1475616]}},
{"type": "Feature", "id": "HT8WuTnA6Uo7pVSXAwrSVkJthU0=", "properties": {"ref": "32584138", "@spider": "vpz_gb", "shop": "e-cigarette", "addr:full": "226 Union Street AB10 1TL", "addr:postcode": "AB10 1TL", "addr:country": "GB", "name": "VPZ Aberdeen 2", "phone": " 01224 643131", "website": "http://www.vpz.co.uk", "contact:email": "support@vpz.co.uk", "brand": "VPZ", "brand:wikidata": "Q107300487", "nsi_id": "vpz-a06c95"}, "geometry": {"type": "Point", "coordinates": [-2.1065532, 57.1445489]}},
{"type": "Feature", "id": "ed800zdufnGh12kF0RUi4eIhZYI=", "properties": {"ref": "32584115", "@spider": "vpz_gb", "shop": "e-cigarette", "addr:full": "56-58 Graham Street ML6 6BU", "addr:postcode": "ML6 6BU", "addr:country": "GB", "name": "VPZ Airdrie", "phone": "01236 765033", "website": "http://www.vpz.co.uk", "contact:email": "support@vpz.co.uk", "brand": "VPZ", "brand:wikidata": "Q107300487", "nsi_id": "vpz-a06c95"}, "geometry": {"type": "Point", "coordinates": [-3.9790027, 55.8660161]}},
{"type": "Feature", "id": "LdHTNADQVBBqU6bwsdMt7WYRGz8=", "properties": {"ref": "32584175", "@spider": "vpz_gb", "shop": "e-cigarette", "addr:full": "67 High Street SP10 1LP", "addr:postcode": "SP10 1LP", "addr:country": "GB", "name": "VPZ Andover", "phone": "01264 332558", "website": "http://www.vpz.co.uk", "contact:email": "support@vpz.co.uk", "brand": "VPZ", "brand:wikidata": "Q107300487", "nsi_id": "vpz-a06c95"}, "geometry": {"type": "Point", "coordinates": [-1.479201, 51.2082555]}},
{"type": "Feature", "id": "aJKpKUkUSRwILB9jHl32M4iyhjY=", "properties": {"ref": "32584201", "@spider": "vpz_gb", "shop": "e-cigarette", "addr:full": "1581 Great Western Road G13 1LS", "addr:postcode": "G13 1LS", "addr:country": "GB", "name": "VPZ Anniesland", "phone": "0141 959 3705", "website": "http://www.vpz.co.uk", "contact:email": "support@vpz.co.uk", "brand": "VPZ", "brand:wikidata": "Q107300487", "nsi_id": "vpz-a06c95"}, "geometry": {"type": "Point", "coordinates": [-4.323456, 55.8892847]}},
{"type": "Feature", "id": "ckmOOn0VbAKby3TFjp_G5QOR1HU=", "properties": {"ref": "32584127", "@spider": "vpz_gb", "shop": "e-cigarette", "addr:full": "207 High Street DD11 1DZ", "addr:postcode": "DD11 1DZ", "addr:country": "GB", "name": "VPZ Arbroath", "phone": "01241 874183", "website": "http://www.vpz.co.uk", "contact:email": "support@vpz.co.uk", "brand": "VPZ", "brand:wikidata": "Q107300487", "nsi_id": "vpz-a06c95"}, "geometry": {"type": "Point", "coordinates": [-2.5822798, 56.56067210000001]}},
{"type": "Feature", "id": "QiaIuxO4tc8ZDS0bm3_1X3BSqNc=", "properties": {"ref": "32584151", "@spider": "vpz_gb", "shop": "e-cigarette", "addr:full": "15 Station road NE63 9UZ", "addr:postcode": "NE63 9UZ", "addr:country": "GB", "name": "VPZ Ashington", "phone": "01670 819298", "website": "http://www.vpz.co.uk", "contact:email": "support@vpz.co.uk", "brand": "VPZ", "brand:wikidata": "Q107300487", "nsi_id": "vpz-a06c95"}, "geometry": {"type": "Point", "coordinates": [-1.5703749, 55.1833699]}},
{"type": "Feature", "id": "HOhcZ-XeyD5RhfZt1-jOCKE5H0s=", "properties": {"ref": "32584156", "@spider": "vpz_gb", "shop": "e-cigarette", "addr:full": "2 Market House HP20 1TN", "addr:postcode": "HP20 1TN", "addr:country": "GB", "name": "VPZ Aylesbury", "phone": "01296 334217", "website": "http://www.vpz.co.uk", "contact:email": "support@vpz.co.uk", "brand": "VPZ", "brand:wikidata": "Q107300487", "nsi_id": "vpz-a06c95"}, "geometry": {"type": "Point", "coordinates": [-0.8124151, 51.816708]}},
{"type": "Feature", "id": "icwGBmMPmJhyO6OZOYzLT2wZ8ls=", "properties": {"ref": "32584119", "@spider": "vpz_gb", "shop": "e-cigarette", "addr:full": "1 Alloway Street KA7 1SP", "addr:postcode": "KA7 1SP", "addr:country": "GB", "name": "VPZ Ayr", "phone": "01292 738838", "website": "http://www.vpz.co.uk", "contact:email": "support@vpz.co.uk", "brand": "VPZ", "brand:wikidata": "Q107300487", "nsi_id": "vpz-a06c95"}, "geometry": {"type": "Point", "coordinates": [-4.6285447, 55.4601346]}},
{"type": "Feature", "id": "k2D4a0MWybVaZ51QAh0ERcT-xUY=", "properties": {"ref": "35327053", "@spider": "vpz_gb", "shop": "e-cigarette", "addr:full": "unit 3, 51-53 Main Street, Baillieston, Glasgow G69 6SJ, UK", "addr:postcode": "G69 6SJ", "addr:country": "GB", "name": "VPZ Baillieston", "website": "http://www.vpz.co.uk", "contact:email": "Baillieston@vpz.co.uk", "brand": "VPZ", "brand:wikidata": "Q107300487", "nsi_id": "vpz-a06c95"}, "geometry": {"type": "Point", "coordinates": [-4.1108484, 55.850413]}},
{"type": "Feature", "id": "J3ke3iO6xSYtXrdfG5zf-3t7kuQ=", "properties": {"ref": "32584207", "@spider": "vpz_gb", "shop": "e-cigarette", "addr:full": "32 Main Street G78 1RE", "addr:postcode": "G78 1RE", "addr:country": "GB", "name": "VPZ Barrhead", "phone": "0141 258 7727", "website": "http://www.vpz.co.uk", "contact:email": "support@vpz.co.uk", "brand": "VPZ", "brand:wikidata": "Q107300487", "nsi_id": "vpz-a06c95"}, "geometry": {"type": "Point", "coordinates": [-4.3961798, 55.79902269999999]}},
{"type": "Feature", "id": "RmccXtdkPUjDi7PGWPYAQwARC2U=", "properties": {"ref": "32584189", "@spider": "vpz_gb", "shop": "e-cigarette", "addr:full": "138 Dalton Road LA14 1JH", "addr:postcode": "LA14 1JH", "addr:country": "GB", "name": "VPZ Barrow", "phone": "01229 826420", "website": "http://www.vpz.co.uk", "contact:email": "support@vpz.co.uk", "brand": "VPZ", "brand:wikidata": "Q107300487", "nsi_id": "vpz-a06c95"}, "geometry": {"type": "Point", "coordinates": [-3.2250486, 54.1132494]}},
{"type": "Feature", "id": "8A-IZ1BJpLKZvufkepWs9PT2Aj4=", "properties": {"ref": "32584185", "@spider": "vpz_gb", "shop": "e-cigarette", "addr:full": "18 Wote Street RG21 7NW", "addr:postcode": "RG21 7NW", "addr:country": "GB", "name": "VPZ Basingstoke", "phone": "01256 323478", "website": "http://www.vpz.co.uk", "contact:email": "support@vpz.co.uk", "brand": "VPZ", "brand:wikidata": "Q107300487", "nsi_id": "vpz-a06c95"}, "geometry": {"type": "Point", "coordinates": [-1.0866732, 51.2631498]}},
{"type": "Feature", "id": "rdMI9_CqSQO-PHTsrxbVDG037qE=", "properties": {"ref": "32584224", "@spider": "vpz_gb", "shop": "e-cigarette", "addr:full": "174 South Mid Street EH48 1DY", "addr:postcode": "EH48 1DY", "addr:country": "GB", "name": "VPZ Bathgate", "phone": "01506 635544", "website": "http://www.vpz.co.uk", "contact:email": "support@vpz.co.uk", "brand": "VPZ", "brand:wikidata": "Q107300487", "nsi_id": "vpz-a06c95"}, "geometry": {"type": "Point", "coordinates": [-3.636721, 55.898927]}},
{"type": "Feature", "id": "qhMvQoxulrVq8gfvZvYvpn_2lJI=", "properties": {"ref": "32584220", "@spider": "vpz_gb", "shop": "e-cigarette", "addr:full": "8 Castlegate TD15 1JS", "addr:postcode": "TD15 1JS", "addr:country": "GB", "name": "VPZ Berwick", "phone": "01289 303111", "website": "http://www.vpz.co.uk", "contact:email": "support@vpz.co.uk", "brand": "VPZ", "brand:wikidata": "Q107300487", "nsi_id": "vpz-a06c95"}, "geometry": {"type": "Point", "coordinates": [-2.0080098, 55.7720233]}},
{"type": "Feature", "id": "juuHLVsbdrFqJp2d1KDI06EvG-c=", "properties": {"ref": "32584148", "@spider": "vpz_gb", "shop": "e-cigarette", "addr:full": "5 Radford Way CM12 0AA", "addr:postcode": "CM12 0AA", "addr:country": "GB", "name": "VPZ Billericay", "phone": "01277 633425", "website": "http://www.vpz.co.uk", "contact:email": "support@vpz.co.uk", "brand": "VPZ", "brand:wikidata": "Q107300487", "nsi_id": "vpz-a06c95"}, "geometry": {"type": "Point", "coordinates": [0.4195478, 51.6291843]}},
{"type": "Feature", "id": "bZaBBuiJaoZuNS92-bdSKpkHdKI=", "properties": {"ref": "32584128", "@spider": "vpz_gb", "shop": "e-cigarette", "addr:full": "38 Durham Road DH3 2QH", "addr:postcode": "DH3 2QH", "addr:country": "GB", "name": "VPZ Birtley", "phone": "0191 492 3127", "website": "http://www.vpz.co.uk", "contact:email": "birtley@vpz.co.uk", "brand": "VPZ", "brand:wikidata": "Q107300487", "nsi_id": "vpz-a06c95"}, "geometry": {"type": "Point", "coordinates": [-1.5777702, 54.89501509999999]}},
{"type": "Feature", "id": "C2HCBciXvgUilPan5-IJMeZ-sEc=", "properties": {"ref": "32584197", "@spider": "vpz_gb", "shop": "e-cigarette", "addr:full": "246 Glasgow Road G72 0AB", "addr:postcode": "G72 0AB", "addr:country": "GB", "name": "VPZ Blantyre", "phone": "01698 829597", "website": "http://www.vpz.co.uk", "contact:email": "support@vpz.co.uk", "brand": "VPZ", "brand:wikidata": "Q107300487", "nsi_id": "vpz-a06c95"}, "geometry": {"type": "Point", "coordinates": [-4.0917363, 55.7936549]}},
{"type": "Feature", "id": "kRTu4_pC_S0bRQuImG8QkJwBy_4=", "properties": {"ref": "32584219", "@spider": "vpz_gb", "shop": "e-cigarette", "addr:full": "34 High Street EH19 2AA", "addr:postcode": "EH19 2AA", "addr:country": "GB", "name": "VPZ Bonnyrigg", "phone": "0131 660 1011", "website": "http://www.vpz.co.uk", "contact:email": "support@vpz.co.uk", "brand": "VPZ", "brand:wikidata": "Q107300487", "nsi_id": "vpz-a06c95"}, "geometry": {"type": "Point", "coordinates": [-3.1065494, 55.87527979999999]}},
{"type": "Feature", "id": "evFBt7No5RSxjFT6sKSvcSkDsBk=", "properties": {"ref": "32584144", "@spider": "vpz_gb", "shop": "e-cigarette", "addr:full": "33 High Street CM14 4RG", "addr:postcode": "CM14 4RG", "addr:country": "GB", "name": "VPZ Brentwood", "phone": "01277 216028", "website": "http://www.vpz.co.uk", "contact:email": "support@vpz.co.uk", "brand": "VPZ", "brand:wikidata": "Q107300487", "nsi_id": "vpz-a06c95"}, "geometry": {"type": "Point", "coordinates": [0.30477, 51.621302]}},
{"type": "Feature", "id": "eZSi6yO8XDgT8KJWmoBafGL1CZs=", "properties": {"ref": "32584150", "@spider": "vpz_gb", "shop": "e-cigarette", "addr:full": "Unit 1 Rhiw Shopping Centre CF31 3BL", "addr:postcode": "CF31 3BL", "addr:country": "GB", "name": "VPZ Bridgend", "phone": "01656 649306", "website": "http://www.vpz.co.uk", "contact:email": "support@vpz.co.uk", "brand": "VPZ", "brand:wikidata": "Q107300487", "nsi_id": "vpz-a06c95"}, "geometry": {"type": "Point", "coordinates": [-3.5777972174174195, 51.50557605]}},
{"type": "Feature", "id": "nJ42DPKRTrhYQsopDNY99DtQtmw=", "properties": {"ref": "32584235", "@spider": "vpz_gb", "shop": "e-cigarette", "addr:full": "171 High Street BR1 1NN", "addr:postcode": "BR1 1NN", "addr:country": "GB", "name": "VPZ Bromley", "website": "http://www.vpz.co.uk", "contact:email": "support@vpz.co.uk", "brand": "VPZ", "brand:wikidata": "Q107300487", "nsi_id": "vpz-a06c95"}, "geometry": {"type": "Point", "coordinates": [0.0143927, 51.4057497]}},
{"type": "Feature", "id": "S-Yw5eQ6zYchgOM-VxEilOfaTLs=", "properties": {"ref": "32584149", "@spider": "vpz_gb", "shop": "e-cigarette", "addr:full": "186A Brook Street DD5 2AH", "addr:postcode": "DD5 2AH", "addr:country": "GB", "name": "VPZ Broughty Ferry", "phone": "01382 772878", "website": "http://www.vpz.co.uk", "contact:email": "support@vpz.co.uk", "brand": "VPZ", "brand:wikidata": "Q107300487", "nsi_id": "vpz-a06c95"}, "geometry": {"type": "Point", "coordinates": [-2.8742551, 56.466971]}},
{"type": "Feature", "id": "qYmC4iH4293KldLGIDpibf57VlY=", "properties": {"ref": "32584195", "@spider": "vpz_gb", "shop": "e-cigarette", "addr:full": "115 Bruntsfield Place EH10 4EQ", "addr:postcode": "EH10 4EQ", "addr:country": "GB", "name": "VPZ Bruntsfield", "phone": "0131 229 5256", "website": "http://www.vpz.co.uk", "contact:email": "support@vpz.co.uk", "brand": "VPZ", "brand:wikidata": "Q107300487", "nsi_id": "vpz-a06c95"}, "geometry": {"type": "Point", "coordinates": [-3.207201, 55.9368129]}},
{"type": "Feature", "id": "_e4W9sarVI2HZEnWk-biB3-uKJI=", "properties": {"ref": "32584216", "@spider": "vpz_gb", "shop": "e-cigarette", "addr:full": "35 Trelowarren Street TR14 8AD", "addr:postcode": "TR14 8AD", "addr:country": "GB", "name": "VPZ Camborne", "phone": "01209 710203", "website": "http://www.vpz.co.uk", "contact:email": "support@vpz.co.uk", "brand": "VPZ", "brand:wikidata": "Q107300487", "nsi_id": "vpz-a06c95"}, "geometry": {"type": "Point", "coordinates": [-5.297893332919184, 50.2143168]}},
{"type": "Feature", "id": "ynbHZz0YH5yGiE1D7lBv206q7OU=", "properties": {"ref": "32584134", "@spider": "vpz_gb", "shop": "e-cigarette", "addr:full": "174 Main Street G72 7EN", "addr:postcode": "G72 7EN", "addr:country": "GB", "name": "VPZ Cambuslang", "phone": "0141 641 2764", "website": "http://www.vpz.co.uk", "contact:email": "support@vpz.co.uk", "brand": "VPZ", "brand:wikidata": "Q107300487", "nsi_id": "vpz-a06c95"}, "geometry": {"type": "Point", "coordinates": [-4.1697925, 55.8192087]}},
{"type": "Feature", "id": "9w6IXfaUYFtI3tYvAY1V8pbDTzs=", "properties": {"ref": "32584241", "@spider": "vpz_gb", "shop": "e-cigarette", "addr:full": "6A, Cameron Toll Shopping Centre, Lady Rd EH16 5PB", "addr:postcode": "EH16 5PB", "addr:country": "GB", "name": "VPZ Cameron Toll", "phone": "0131 664 9043", "website": "http://www.vpz.co.uk", "contact:email": "support@vpz.co.uk", "brand": "VPZ", "brand:wikidata": "Q107300487", "nsi_id": "vpz-a06c95"}, "geometry": {"type": "Point", "coordinates": [-3.1641127, 55.926385]}},
{"type": "Feature", "id": "uNG-ds66PhG3qNSg0s7667p5kIA=", "properties": {"ref": "32584244", "@spider": "vpz_gb", "shop": "e-cigarette", "addr:full": "Unit 7, Pentwyn Retail Park CF23 7XH", "addr:postcode": "CF23 7XH", "addr:country": "GB", "name": "VPZ Cardiff", "phone": "029 2054 1796", "website": "http://www.vpz.co.uk", "contact:email": "support@vpz.co.uk", "brand": "VPZ", "brand:wikidata": "Q107300487", "nsi_id": "vpz-a06c95"}, "geometry": {"type": "Point", "coordinates": [-3.1393308, 51.5231056]}},
{"type": "Feature", "id": "0CkkRpVZqKi_O_gYhBGDaBYCbYs=", "properties": {"ref": "32584245", "@spider": "vpz_gb", "shop": "e-cigarette", "addr:full": "1842, Paisley Road West G52 3TW", "addr:postcode": "G52 3TW", "addr:country": "GB", "name": "VPZ Cardonald", "phone": "0141 882 5287", "website": "http://www.vpz.co.uk", "contact:email": "support@vpz.co.uk", "brand": "VPZ", "brand:wikidata": "Q107300487", "nsi_id": "vpz-a06c95"}, "geometry": {"type": "Point", "coordinates": [-4.3443968, 55.8456997]}},
{"type": "Feature", "id": "ykivfIj9xh5MzUFvjGIT3_EBG7U=", "properties": {"ref": "32584140", "@spider": "vpz_gb", "shop": "e-cigarette", "addr:full": "40 Lowther Street CA3 8DH", "addr:postcode": "CA3 8DH", "addr:country": "GB", "name": "VPZ Carlisle", "phone": "01228 810220", "website": "http://www.vpz.co.uk", "contact:email": "support@vpz.co.uk", "brand": "VPZ", "brand:wikidata": "Q107300487", "nsi_id": "vpz-a06c95"}, "geometry": {"type": "Point", "coordinates": [-2.933504, 54.8946153]}},
{"type": "Feature", "id": "gHlQ_Xj-lCoQULEsVa4o8ZbhstY=", "properties": {"ref": "32584210", "@spider": "vpz_gb", "shop": "e-cigarette", "addr:full": "18 Drakemire Drive G44 5EL", "addr:postcode": "G44 5EL", "addr:country": "GB", "name": "VPZ Castlemilk", "phone": "0141 637 1830", "website": "http://www.vpz.co.uk", "contact:email": "support@vpz.co.uk", "brand": "VPZ", "brand:wikidata": "Q107300487", "nsi_id": "vpz-a06c95"}, "geometry": {"type": "Point", "coordinates": [-4.2455922, 55.810055]}},
{"type": "Feature", "id": "H6PejxY5SO66GI5fouSY8ZZsWjQ=", "properties": {"ref": "32584178", "@spider": "vpz_gb", "shop": "e-cigarette", "addr:full": "53 Pier Avenue CO15 1QE", "addr:postcode": "CO15 1QE", "addr:country": "GB", "name": "VPZ Clacton-On-Sea", "phone": "01255 425985", "website": "http://www.vpz.co.uk", "contact:email": "support@vpz.co.uk", "brand": "VPZ", "brand:wikidata": "Q107300487", "nsi_id": "vpz-a06c95"}, "geometry": {"type": "Point", "coordinates": [1.1517814861770592, 51.7890323]}},
{"type": "Feature", "id": "s4fcH_hWT9yHpNE8H-_8ey7q6ko=", "properties": {"ref": "32584206", "@spider": "vpz_gb", "shop": "e-cigarette", "addr:full": "24-26 Busby Road G76 7XH", "addr:postcode": "G76 7XH", "addr:country": "GB", "name": "VPZ Clarkston", "phone": "0141 237 7885", "website": "http://www.vpz.co.uk", "contact:email": "support@vpz.co.uk", "brand": "VPZ", "brand:wikidata": "Q107300487", "nsi_id": "vpz-a06c95"}, "geometry": {"type": "Point", "coordinates": [-4.277004799999999, 55.78959589999999]}},
{"type": "Feature", "id": "oJBPsPIW1O1kYkMbqwswhOdJGws=", "properties": {"ref": "32584202", "@spider": "vpz_gb", "shop": "e-cigarette", "addr:full": "Clydebank Shopping Centre G81 1EA", "addr:postcode": "G81 1EA", "addr:country": "GB", "name": "VPZ Clydebank", "phone": "0141 230 1996", "website": "http://www.vpz.co.uk", "contact:email": "support@vpz.co.uk", "brand": "VPZ", "brand:wikidata": "Q107300487", "nsi_id": "vpz-a06c95"}, "geometry": {"type": "Point", "coordinates": [-4.4021528, 55.9039671]}},
{"type": "Feature", "id": "Pkw_EbjB5trlrK1__--renNP1aE=", "properties": {"ref": "32584103", "@spider": "vpz_gb", "shop": "e-cigarette", "addr:full": "100 Main Street ML5 3BQ", "addr:postcode": "ML5 3BQ", "addr:country": "GB", "name": "VPZ Coatbridge", "phone": "01236 341834", "website": "http://www.vpz.co.uk", "contact:email": "support@vpz.co.uk", "brand": "VPZ", "brand:wikidata": "Q107300487", "nsi_id": "vpz-a06c95"}, "geometry": {"type": "Point", "coordinates": [-4.0258574, 55.862123]}},
{"type": "Feature", "id": "XuqFzaqz7AlXurCUKQd20F_8zI4=", "properties": {"ref": "32584164", "@spider": "vpz_gb", "shop": "e-cigarette", "addr:full": "Willow Place Shopping Centre, Corporation Street NN17 1NJ", "addr:postcode": "NN17 1NJ", "addr:country": "GB", "name": "VPZ Corby", "phone": "01536 203714", "website": "http://www.vpz.co.uk", "contact:email": "support@vpz.co.uk", "brand": "VPZ", "brand:wikidata": "Q107300487", "nsi_id": "vpz-a06c95"}, "geometry": {"type": "Point", "coordinates": [-0.7022222000000001, 52.4866667]}},
{"type": "Feature", "id": "bZfQUKqayNeBpECBzQJehbvcfoQ=", "properties": {"ref": "32584142", "@spider": "vpz_gb", "shop": "e-cigarette", "addr:full": "142-144 High Street KY4 9NH", "addr:postcode": "KY4 9NH", "addr:country": "GB", "name": "VPZ Cowdenbeath", "phone": "01383 511488", "website": "http://www.vpz.co.uk", "contact:email": "support@vpz.co.uk", "brand": "VPZ", "brand:wikidata": "Q107300487", "nsi_id": "vpz-a06c95"}, "geometry": {"type": "Point", "coordinates": [-3.3433946, 56.1103773]}},
{"type": "Feature", "id": "xCc5FWWNuSxBoXar_D4q0TXJUEY=", "properties": {"ref": "32584123", "@spider": "vpz_gb", "shop": "e-cigarette", "addr:full": "3 The Martletts RH10 1ER", "addr:postcode": "RH10 1ER", "addr:country": "GB", "name": "VPZ Crawley", "phone": "01293 514009", "website": "http://www.vpz.co.uk", "contact:email": "support@vpz.co.uk", "brand": "VPZ", "brand:wikidata": "Q107300487", "nsi_id": "vpz-a06c95"}, "geometry": {"type": "Point", "coordinates": [-0.18627071278885587, 51.1151203]}},
{"type": "Feature", "id": "R2TYRRxVnx-GTB5OfnhsaNoR-iw=", "properties": {"ref": "32584204", "@spider": "vpz_gb", "shop": "e-cigarette", "addr:full": "24 Teviot Walk, Cumbernauld Shopping Centre G67 1NG", "addr:postcode": "G67 1NG", "addr:country": "GB", "name": "VPZ Cumbernauld", "phone": "01236 734000", "website": "http://www.vpz.co.uk", "contact:email": "support@vpz.co.uk", "brand": "VPZ", "brand:wikidata": "Q107300487", "nsi_id": "vpz-a06c95"}, "geometry": {"type": "Point", "coordinates": [-3.9885949, 55.9485496]}},
{"type": "Feature", "id": "JEpFvg8ijG0C4nJF9YXtFLXWty8=", "properties": {"ref": "32584139", "@spider": "vpz_gb", "shop": "e-cigarette", "addr:full": "6 Crossgate KY15 5HH", "addr:postcode": "KY15 5HH", "addr:country": "GB", "name": "VPZ Cupar", "phone": "01334 657560", "website": "http://www.vpz.co.uk", "contact:email": "support@vpz.co.uk", "brand": "VPZ", "brand:wikidata": "Q107300487", "nsi_id": "vpz-a06c95"}, "geometry": {"type": "Point", "coordinates": [-3.0114794, 56.3188024]}},
{"type": "Feature", "id": "zHvhj1NMDZcQi5k3Rlnnmr5hI5Y=", "properties": {"ref": "32584229", "@spider": "vpz_gb", "shop": "e-cigarette", "addr:full": "83 High Street EH22 1JA", "addr:postcode": "EH22 1JA", "addr:country": "GB", "name": "VPZ Dalkeith", "phone": "0131 454 0500", "website": "http://www.vpz.co.uk", "contact:email": "support@vpz.co.uk", "brand": "VPZ", "brand:wikidata": "Q107300487", "nsi_id": "vpz-a06c95"}, "geometry": {"type": "Point", "coordinates": [-3.0712925, 55.8939287]}},
{"type": "Feature", "id": "3DmjrBQFC8X7F9N4lIYKqoDe9Y0=", "properties": {"ref": "32584131", "@spider": "vpz_gb", "shop": "e-cigarette", "addr:full": "4 Priestgate DL1 1NH", "addr:postcode": "DL1 1NH", "addr:country": "GB", "name": "VPZ Darlington", "phone": "01325 351911", "website": "http://www.vpz.co.uk", "contact:email": "support@vpz.co.uk", "brand": "VPZ", "brand:wikidata": "Q107300487", "nsi_id": "vpz-a06c95"}, "geometry": {"type": "Point", "coordinates": [-1.5544565, 54.5257821]}},
{"type": "Feature", "id": "od1oLvCFZs6-EJHSoQwYKw-AJew=", "properties": {"ref": "32584166", "@spider": "vpz_gb", "shop": "e-cigarette", "addr:full": "Priory Shopping Centre DA1 2HS", "addr:postcode": "DA1 2HS", "addr:country": "GB", "name": "VPZ Dartford", "phone": "01322 270016", "website": "http://www.vpz.co.uk", "contact:email": "support@vpz.co.uk", "brand": "VPZ", "brand:wikidata": "Q107300487", "nsi_id": "vpz-a06c95"}, "geometry": {"type": "Point", "coordinates": [0.2156837, 51.4438344]}},
{"type": "Feature", "id": "VWEhlbUvoGPQBDo_x2_A-Ux_0Dk=", "properties": {"ref": "32584162", "@spider": "vpz_gb", "shop": "e-cigarette", "addr:full": "7 High Street NR19 1DZ", "addr:postcode": "NR19 1DZ", "addr:country": "GB", "name": "VPZ Dereham", "phone": " 01362 691129", "website": "http://www.vpz.co.uk", "contact:email": "support@vpz.co.uk", "brand": "VPZ", "brand:wikidata": "Q107300487", "nsi_id": "vpz-a06c95"}, "geometry": {"type": "Point", "coordinates": [0.9413821, 52.6797786]}},
{"type": "Feature", "id": "xTuJ5fp6NmKo0J7f266TTDDkKzA=", "properties": {"ref": "32584198", "@spider": "vpz_gb", "shop": "e-cigarette", "addr:full": "82 High Street G82 1PQ", "addr:postcode": "G82 1PQ", "addr:country": "GB", "name": "VPZ Dumbarton", "phone": "01389 298966", "website": "http://www.vpz.co.uk", "contact:email": "support@vpz.co.uk", "brand": "VPZ", "brand:wikidata": "Q107300487", "nsi_id": "vpz-a06c95"}, "geometry": {"type": "Point", "coordinates": [-4.5731124, 55.9444667]}},
{"type": "Feature", "id": "H86WVaewkXBNJ5SdgkTC1WJ69gc=", "properties": {"ref": "32584121", "@spider": "vpz_gb", "shop": "e-cigarette", "addr:full": "Loreburn Shopping Centre DG1 2BD", "addr:postcode": "DG1 2BD", "addr:country": "GB", "name": "VPZ Dumfries", "phone": "01387 279509", "website": "http://www.vpz.co.uk", "contact:email": "support@vpz.co.uk", "brand": "VPZ", "brand:wikidata": "Q107300487", "nsi_id": "vpz-a06c95"}, "geometry": {"type": "Point", "coordinates": [-3.6106813, 55.067562]}},
{"type": "Feature", "id": "u98y3vU89cTaTd51qVTGjFy_mTU=", "properties": {"ref": "32584101", "@spider": "vpz_gb", "shop": "e-cigarette", "addr:full": "60 Nethergate DD1 4ER", "addr:postcode": "DD1 4ER", "addr:country": "GB", "name": "VPZ Dundee", "phone": "01382 206714", "website": "http://www.vpz.co.uk", "contact:email": "support@vpz.co.uk", "brand": "VPZ", "brand:wikidata": "Q107300487", "nsi_id": "vpz-a06c95"}, "geometry": {"type": "Point", "coordinates": [-2.9727087, 56.4588621]}},
{"type": "Feature", "id": "d5F-NIh_ggAEsrz0mqmvu8PUtNA=", "properties": {"ref": "32584228", "@spider": "vpz_gb", "shop": "e-cigarette", "addr:full": "36/38 East Port KY12 7JB", "addr:postcode": "KY12 7JB", "addr:country": "GB", "name": "VPZ Dunfermline", "phone": "01383 432544", "website": "http://www.vpz.co.uk", "contact:email": "support@vpz.co.uk", "brand": "VPZ", "brand:wikidata": "Q107300487", "nsi_id": "vpz-a06c95"}, "geometry": {"type": "Point", "coordinates": [-3.457476, 56.0717738]}},
{"type": "Feature", "id": "MSlHoFUv4KWWsUWYkm8GG6V-GGk=", "properties": {"ref": "32584205", "@spider": "vpz_gb", "shop": "e-cigarette", "addr:full": "Unit 27, Princes Mall East Kilbride Shopping Centre G74 1LJ", "addr:postcode": "G74 1LJ", "addr:country": "GB", "name": "VPZ East Kilbride", "phone": "01355 231707", "website": "http://www.vpz.co.uk", "contact:email": "support@vpz.co.uk", "brand": "VPZ", "brand:wikidata": "Q107300487", "nsi_id": "vpz-a06c95"}, "geometry": {"type": "Point", "coordinates": [-4.175476199999999, 55.7607072]}},
{"type": "Feature", "id": "XaScJkcsiMHagI_nSsO64y1Q1zE=", "properties": {"ref": "32584180", "@spider": "vpz_gb", "shop": "e-cigarette", "addr:full": "201 Gorgie Road EH11 1TT", "addr:postcode": "EH11 1TT", "addr:country": "GB", "name": "VPZ Edinburgh Gorgie", "phone": "0131 629 3550", "website": "http://www.vpz.co.uk", "contact:email": "support@vpz.co.uk", "brand": "VPZ", "brand:wikidata": "Q107300487", "nsi_id": "vpz-a06c95"}, "geometry": {"type": "Point", "coordinates": [-3.233863, 55.937403]}},
{"type": "Feature", "id": "0xiHJlB51dVlLhZ4HT3cxtf8Xwc=", "properties": {"ref": "32584114", "@spider": "vpz_gb", "shop": "e-cigarette", "addr:full": "76-78 High Street IV30 1BJ", "addr:postcode": "IV30 1BJ", "addr:country": "GB", "name": "VPZ Elgin", "phone": "01343 544133", "website": "http://www.vpz.co.uk", "contact:email": "support@vpz.co.uk", "brand": "VPZ", "brand:wikidata": "Q107300487", "nsi_id": "vpz-a06c95"}, "geometry": {"type": "Point", "coordinates": [-3.3151463, 57.6486155]}},
{"type": "Feature", "id": "4CVdLE-tWPH6ussNyv2ADje7U7c=", "properties": {"ref": "32584186", "@spider": "vpz_gb", "shop": "e-cigarette", "addr:full": "29 Bridge Street WR11 4SQ", "addr:postcode": "WR11 4SQ", "addr:country": "GB", "name": "VPZ Evesham", "phone": "01386 422841", "website": "http://www.vpz.co.uk", "contact:email": "support@vpz.co.uk", "brand": "VPZ", "brand:wikidata": "Q107300487", "nsi_id": "vpz-a06c95"}, "geometry": {"type": "Point", "coordinates": [-1.945925250543072, 52.0923405]}},
{"type": "Feature", "id": "fv0L0qyBKd5zy33aJG_fga4WVxQ=", "properties": {"ref": "32584171", "@spider": "vpz_gb", "shop": "e-cigarette", "addr:full": "83 West Street, Fareham Shopping Centre PO16 0AP", "addr:postcode": "PO16 0AP", "addr:country": "GB", "name": "VPZ Fareham", "phone": "01329 288787", "website": "http://www.vpz.co.uk", "contact:email": "support@vpz.co.uk", "brand": "VPZ", "brand:wikidata": "Q107300487", "nsi_id": "vpz-a06c95"}, "geometry": {"type": "Point", "coordinates": [-1.1788938, 50.8526507]}},
{"type": "Feature", "id": "KT7GVRCENbQ3zjUy0X8rcQn7uxY=", "properties": {"ref": "32584211", "@spider": "vpz_gb", "shop": "e-cigarette", "addr:full": "72 Queensmead GU14 7SB", "addr:postcode": "GU14 7SB", "addr:country": "GB", "name": "VPZ Farnborough", "phone": "01252 371122", "website": "http://www.vpz.co.uk", "contact:email": "support@vpz.co.uk", "brand": "VPZ", "brand:wikidata": "Q107300487", "nsi_id": "vpz-a06c95"}, "geometry": {"type": "Point", "coordinates": [-0.7558124, 51.2914442]}},
{"type": "Feature", "id": "M4SWhvQnEtA1zePcZuV4zSFqo-c=", "properties": {"ref": "32584192", "@spider": "vpz_gb", "shop": "e-cigarette", "addr:full": "84 Hamilton Road IP11 7AF", "addr:postcode": "IP11 7AF", "addr:country": "GB", "name": "VPZ Felixstowe", "phone": "01394 285529", "website": "http://www.vpz.co.uk", "contact:email": "support@vpz.co.uk", "brand": "VPZ", "brand:wikidata": "Q107300487", "nsi_id": "vpz-a06c95"}, "geometry": {"type": "Point", "coordinates": [1.3518602, 51.9634252]}},
{"type": "Feature", "id": "ZCIX0KY9iF9HN35MVqe6-wqyHYk=", "properties": {"ref": "32584193", "@spider": "vpz_gb", "shop": "e-cigarette", "addr:full": "34 Castle Street DD8 3AB", "addr:postcode": "DD8 3AB", "addr:country": "GB", "name": "VPZ Forfar", "phone": "01307 469848", "website": "http://www.vpz.co.uk", "contact:email": "support@vpz.co.uk", "brand": "VPZ", "brand:wikidata": "Q107300487", "nsi_id": "vpz-a06c95"}, "geometry": {"type": "Point", "coordinates": [-2.888582, 56.64507769999999]}},
{"type": "Feature", "id": "LclpPXIDPV9UirF-g2H_KZ6fKns=", "properties": {"ref": "32584234", "@spider": "vpz_gb", "shop": "e-cigarette", "addr:full": "Unit 53D, 1221 Gallowgate G31 4EB", "addr:postcode": "G31 4EB", "addr:country": "GB", "name": "VPZ Forge", "phone": "0141 550 1747", "website": "http://www.vpz.co.uk", "contact:email": "support@vpz.co.uk", "brand": "VPZ", "brand:wikidata": "Q107300487", "nsi_id": "vpz-a06c95"}, "geometry": {"type": "Point", "coordinates": [-4.1996367, 55.8536399]}},
{"type": "Feature", "id": "RScBIcfWNNDFdw2ud2k3LagGF6A=", "properties": {"ref": "32584167", "@spider": "vpz_gb", "shop": "e-cigarette", "addr:full": "13 High Street PH33 6DH", "addr:postcode": "PH33 6DH", "addr:country": "GB", "name": "VPZ Fort William", "phone": "01397 705157", "website": "http://www.vpz.co.uk", "contact:email": "support@vpz.co.uk", "brand": "VPZ", "brand:wikidata": "Q107300487", "nsi_id": "vpz-a06c95"}, "geometry": {"type": "Point", "coordinates": [-5.1094475, 56.8190337]}},
{"type": "Feature", "id": "fOEN8ZEqN-JLuHyep1GFmJmtsQg=", "properties": {"ref": "32584172", "@spider": "vpz_gb", "shop": "e-cigarette", "addr:full": "6 Broad Street AB43 9AH", "addr:postcode": "AB43 9AH", "addr:country": "GB", "name": "VPZ Fraserburgh", "phone": "01346 513049", "website": "http://www.vpz.co.uk", "contact:email": "support@vpz.co.uk", "brand": "VPZ", "brand:wikidata": "Q107300487", "nsi_id": "vpz-a06c95"}, "geometry": {"type": "Point", "coordinates": [-2.0054055, 57.6934773]}},
{"type": "Feature", "id": "2jrCwWjq87sFa1hQYj8qis7wlYo=", "properties": {"ref": "32584094", "@spider": "vpz_gb", "shop": "e-cigarette", "addr:full": "71 Channel Street TD1 1BN", "addr:postcode": "TD1 1BN", "addr:country": "GB", "name": "VPZ Galashiels", "phone": "01896 209036", "website": "http://www.vpz.co.uk", "contact:email": "support@vpz.co.uk", "brand": "VPZ", "brand:wikidata": "Q107300487", "nsi_id": "vpz-a06c95"}, "geometry": {"type": "Point", "coordinates": [-2.8062667, 55.615985]}},
{"type": "Feature", "id": "yhnAZGObh011GGJePENoqRCki6E=", "properties": {"ref": "32584100", "@spider": "vpz_gb", "shop": "e-cigarette", "addr:full": "354 Dumbarton Road G11 6TG", "addr:postcode": "G11 6TG", "addr:country": "GB", "name": "VPZ Glasgow Partick", "phone": "0141 334 1261", "website": "http://www.vpz.co.uk", "contact:email": "support@vpz.co.uk", "brand": "VPZ", "brand:wikidata": "Q107300487", "nsi_id": "vpz-a06c95"}, "geometry": {"type": "Point", "coordinates": [-4.3071206, 55.87093849999999]}},
{"type": "Feature", "id": "OdvEFCSc934qJ3GjPhLnBVlbXzs=", "properties": {"ref": "32584110", "@spider": "vpz_gb", "shop": "e-cigarette", "addr:full": "9 Union Street G1 3RB", "addr:postcode": "G1 3RB", "addr:country": "GB", "name": "VPZ Glasgow Union Street", "phone": "01412481001", "website": "http://www.vpz.co.uk", "contact:email": "support@vpz.co.uk", "brand": "VPZ", "brand:wikidata": "Q107300487", "nsi_id": "vpz-a06c95"}, "geometry": {"type": "Point", "coordinates": [-4.2569157, 55.8597734]}},
{"type": "Feature", "id": "IBmcd1eKshP9_YCG0EQGR-LQUo4=", "properties": {"ref": "32584208", "@spider": "vpz_gb", "shop": "e-cigarette", "addr:full": "27 Lyon Way KY7 5NN", "addr:postcode": "KY7 5NN", "addr:country": "GB", "name": "VPZ Glenrothes", "phone": "01592758624", "website": "http://www.vpz.co.uk", "contact:email": "support@vpz.co.uk", "brand": "VPZ", "brand:wikidata": "Q107300487", "nsi_id": "vpz-a06c95"}, "geometry": {"type": "Point", "coordinates": [-3.1715503, 56.1966218]}},
{"type": "Feature", "id": "gK8ONDH_mqlZA0ba-o7FuRxvf_Y=", "properties": {"ref": "32584226", "@spider": "vpz_gb", "shop": "e-cigarette", "addr:full": "179 High Street NE3 1HE", "addr:postcode": "NE3 1HE", "addr:country": "GB", "name": "VPZ Gosforth", "phone": "01914477916", "website": "http://www.vpz.co.uk", "contact:email": "support@vpz.co.uk", "brand": "VPZ", "brand:wikidata": "Q107300487", "nsi_id": "vpz-a06c95"}, "geometry": {"type": "Point", "coordinates": [-1.6197146, 55.0067531]}},
{"type": "Feature", "id": "HTkWxyx3gKqPK1MwE-8567WXRN0=", "properties": {"ref": "32584194", "@spider": "vpz_gb", "shop": "e-cigarette", "addr:full": "57-59 High Street PO12 1DR", "addr:postcode": "PO12 1DR", "addr:country": "GB", "name": "VPZ Gosport", "phone": "02392583705", "website": "http://www.vpz.co.uk", "contact:email": "support@vpz.co.uk", "brand": "VPZ", "brand:wikidata": "Q107300487", "nsi_id": "vpz-a06c95"}, "geometry": {"type": "Point", "coordinates": [-1.1183074369767443, 50.794916099999995]}},
{"type": "Feature", "id": "h0XiJlWvWfIAe2KsvpGSH-WbQDo=", "properties": {"ref": "32584137", "@spider": "vpz_gb", "shop": "e-cigarette", "addr:full": "19 La Porte Precinct FK3 8AZ", "addr:postcode": "FK3 8AZ", "addr:country": "GB", "name": "VPZ Grangemouth", "phone": "01324473182", "website": "http://www.vpz.co.uk", "contact:email": "support@vpz.co.uk", "brand": "VPZ", "brand:wikidata": "Q107300487", "nsi_id": "vpz-a06c95"}, "geometry": {"type": "Point", "coordinates": [-3.723296, 56.018549]}},
{"type": "Feature", "id": "LfZVP1oAT_jmg4ga7OXKFoivM_c=", "properties": {"ref": "32584135", "@spider": "vpz_gb", "shop": "e-cigarette", "addr:full": "1 Blackhall Street PA15 1UA", "addr:postcode": "PA15 1UA", "addr:country": "GB", "name": "VPZ Greenock", "phone": "01475648615", "website": "http://www.vpz.co.uk", "contact:email": "support@vpz.co.uk", "brand": "VPZ", "brand:wikidata": "Q107300487", "nsi_id": "vpz-a06c95"}, "geometry": {"type": "Point", "coordinates": [-4.760752, 55.9492857]}},
{"type": "Feature", "id": "WgJkcCtMRX8UcoC_pqd02ZwMjg0=", "properties": {"ref": "32584243", "@spider": "vpz_gb", "shop": "e-cigarette", "addr:full": "24 Haddington High Street EH41 3ES", "addr:postcode": "EH41 3ES", "addr:country": "GB", "name": "VPZ Haddington", "phone": "01620822007", "website": "http://www.vpz.co.uk", "contact:email": "support@vpz.co.uk", "brand": "VPZ", "brand:wikidata": "Q107300487", "nsi_id": "vpz-a06c95"}, "geometry": {"type": "Point", "coordinates": [-2.7762214, 55.9553557]}},
{"type": "Feature", "id": "q3g1h8dP-WSs55OvutzLpPb9BTg=", "properties": {"ref": "32584113", "@spider": "vpz_gb", "shop": "e-cigarette", "addr:full": "62-64 Quarry Street ML3 7AU", "addr:postcode": "ML3 7AU", "addr:country": "GB", "name": "VPZ Hamilton", "phone": "01698423137", "website": "http://www.vpz.co.uk", "contact:email": "support@vpz.co.uk", "brand": "VPZ", "brand:wikidata": "Q107300487", "nsi_id": "vpz-a06c95"}, "geometry": {"type": "Point", "coordinates": [-4.0350507, 55.7752943]}},
{"type": "Feature", "id": "Q60OGDPi7Ey6i3M94kSKvIspnWU=", "properties": {"ref": "32584132", "@spider": "vpz_gb", "shop": "e-cigarette", "addr:full": "10 Beulah Street HG1 1QH", "addr:postcode": "HG1 1QH", "addr:country": "GB", "name": "VPZ Harrogate", "phone": "01423560490", "website": "http://www.vpz.co.uk", "contact:email": "support@vpz.co.uk", "brand": "VPZ", "brand:wikidata": "Q107300487", "nsi_id": "vpz-a06c95"}, "geometry": {"type": "Point", "coordinates": [-1.5385843, 53.9936616]}},
{"type": "Feature", "id": "HIFc0DxAMX_w8b5K7mKC9K2q7HQ=", "properties": {"ref": "32584221", "@spider": "vpz_gb", "shop": "e-cigarette", "addr:full": "121 York Road TS26 9DL", "addr:postcode": "TS26 9DL", "addr:country": "GB", "name": "VPZ Hartlepool", "phone": "01429598576", "website": "http://www.vpz.co.uk", "contact:email": "support@vpz.co.uk", "brand": "VPZ", "brand:wikidata": "Q107300487", "nsi_id": "vpz-a06c95"}, "geometry": {"type": "Point", "coordinates": [-1.217082, 54.68396449999999]}},
{"type": "Feature", "id": "-dRoyhycBuarojYF_szBtVq4ODo=", "properties": {"ref": "32584236", "@spider": "vpz_gb", "shop": "e-cigarette", "addr:full": "2 High Street TD9 9EH", "addr:postcode": "TD9 9EH", "addr:country": "GB", "name": "VPZ Hawick", "phone": "01450374000", "website": "http://www.vpz.co.uk", "contact:email": "support@vpz.co.uk", "brand": "VPZ", "brand:wikidata": "Q107300487", "nsi_id": "vpz-a06c95"}, "geometry": {"type": "Point", "coordinates": [-2.7879132, 55.4215905]}},
{"type": "Feature", "id": "q8xTLdmhPOcRKhabPlHhX3uE2f4=", "properties": {"ref": "32584212", "@spider": "vpz_gb", "shop": "e-cigarette", "addr:full": "14/16 Sinclair Street G84 8SU", "addr:postcode": "G84 8SU", "addr:country": "GB", "name": "VPZ Helensburgh", "phone": "01436672021", "website": "http://www.vpz.co.uk", "contact:email": "support@vpz.co.uk", "brand": "VPZ", "brand:wikidata": "Q107300487", "nsi_id": "vpz-a06c95"}, "geometry": {"type": "Point", "coordinates": [-4.7334953, 56.00326090000001]}},
{"type": "Feature", "id": "GN_1RLRjmc0z01cRptb6GpyiHG4=", "properties": {"ref": "32584196", "@spider": "vpz_gb", "shop": "e-cigarette", "addr:full": "243 Marlowes HP1 1BL", "addr:postcode": "HP1 1BL", "addr:country": "GB", "name": "VPZ Hemel Hempstead", "phone": "01442245059", "website": "http://www.vpz.co.uk", "contact:email": "support@vpz.co.uk", "brand": "VPZ", "brand:wikidata": "Q107300487", "nsi_id": "vpz-a06c95"}, "geometry": {"type": "Point", "coordinates": [-0.4724285, 51.7478433]}},
{"type": "Feature", "id": "Va_fmeIm5yX-8psnoEt_OXtaxZY=", "properties": {"ref": "32584187", "@spider": "vpz_gb", "shop": "e-cigarette", "addr:full": "6B Commercial Street HR1 2AJ", "addr:postcode": "HR1 2AJ", "addr:country": "GB", "name": "VPZ Hereford", "phone": "01432269967", "website": "http://www.vpz.co.uk", "contact:email": "support@vpz.co.uk", "brand": "VPZ", "brand:wikidata": "Q107300487", "nsi_id": "vpz-a06c95"}, "geometry": {"type": "Point", "coordinates": [-2.7145561, 52.0569158]}},
{"type": "Feature", "id": "4LOHkfiuGAup_5wejRv-cwJKSn4=", "properties": {"ref": "32584190", "@spider": "vpz_gb", "shop": "e-cigarette", "addr:full": "58 Eden Shopping Centre HP11 2DQ", "addr:postcode": "HP11 2DQ", "addr:country": "GB", "name": "VPZ High Wycombe", "phone": "01494527252", "website": "http://www.vpz.co.uk", "contact:email": "support@vpz.co.uk", "brand": "VPZ", "brand:wikidata": "Q107300487", "nsi_id": "vpz-a06c95"}, "geometry": {"type": "Point", "coordinates": [-0.755780051740478, 51.63014185]}},
{"type": "Feature", "id": "oGze3lpOr43CprjfWOMEawumRlo=", "properties": {"ref": "32584106", "@spider": "vpz_gb", "shop": "e-cigarette", "addr:full": "7-9 Church Street IV1 1DY", "addr:postcode": "IV1 1DY", "addr:country": "GB", "name": "VPZ Inverness", "phone": "01463238672", "website": "http://www.vpz.co.uk", "contact:email": "support@vpz.co.uk", "brand": "VPZ", "brand:wikidata": "Q107300487", "nsi_id": "vpz-a06c95"}, "geometry": {"type": "Point", "coordinates": [-4.2261082, 57.4778809]}},
{"type": "Feature", "id": "F6orzeV4Bf0rV777N7OwDdk3ZvU=", "properties": {"ref": "32584174", "@spider": "vpz_gb", "shop": "e-cigarette", "addr:full": "66A Market Place AB51 3XN", "addr:postcode": "AB51 3XN", "addr:country": "GB", "name": "VPZ Inverurie", "phone": "01467625368", "website": "http://www.vpz.co.uk", "contact:email": "support@vpz.co.uk", "brand": "VPZ", "brand:wikidata": "Q107300487", "nsi_id": "vpz-a06c95"}, "geometry": {"type": "Point", "coordinates": [-2.3738915, 57.283814]}},
{"type": "Feature", "id": "yz1uiX9Xqb3qnz-MWkSFkUWlLEw=", "properties": {"ref": "32584118", "@spider": "vpz_gb", "shop": "e-cigarette", "addr:full": "110 High Street KA12 8AH", "addr:postcode": "KA12 8AH", "addr:country": "GB", "name": "VPZ Irvine", "phone": "01294287352", "website": "http://www.vpz.co.uk", "contact:email": "support@vpz.co.uk", "brand": "VPZ", "brand:wikidata": "Q107300487", "nsi_id": "vpz-a06c95"}, "geometry": {"type": "Point", "coordinates": [-4.6673754, 55.6153182]}},
{"type": "Feature", "id": "k81b_J_dcSnRRSiiCluORhxB33U=", "properties": {"ref": "32584242", "@spider": "vpz_gb", "shop": "e-cigarette", "addr:full": "203 - 205 Whitecross Street EC1Y 8QP", "addr:postcode": "EC1Y 8QP", "addr:country": "GB", "name": "VPZ Islington", "website": "http://www.vpz.co.uk", "contact:email": "support@vpz.co.uk", "brand": "VPZ", "brand:wikidata": "Q107300487", "nsi_id": "vpz-a06c95"}, "geometry": {"type": "Point", "coordinates": [-0.09398600000000001, 51.52439649999999]}},
{"type": "Feature", "id": "WlEZhPMhGd80CwtZX98vi9YX5iU=", "properties": {"ref": "32584246", "@spider": "vpz_gb", "shop": "e-cigarette", "addr:full": "50 High Street PA5 8AN", "addr:postcode": "PA5 8AN", "addr:country": "GB", "name": "VPZ Johnstone", "phone": "01505337687", "website": "http://www.vpz.co.uk", "contact:email": "support@vpz.co.uk", "brand": "VPZ", "brand:wikidata": "Q107300487", "nsi_id": "vpz-a06c95"}, "geometry": {"type": "Point", "coordinates": [-4.5118086, 55.83685430000001]}},
{"type": "Feature", "id": "DM6Whz4LQh9_h3-SCNZjmvxm7B8=", "properties": {"ref": "32584169", "@spider": "vpz_gb", "shop": "e-cigarette", "addr:full": "32 The Square TD5 7HL", "addr:postcode": "TD5 7HL", "addr:country": "GB", "name": "VPZ Kelso", "phone": "01573224500", "website": "http://www.vpz.co.uk", "contact:email": "support@vpz.co.uk", "brand": "VPZ", "brand:wikidata": "Q107300487", "nsi_id": "vpz-a06c95"}, "geometry": {"type": "Point", "coordinates": [-2.4348504, 55.59877609999999]}},
{"type": "Feature", "id": "W9rlRkVT7PRA0ph82gReVQul50w=", "properties": {"ref": "32584165", "@spider": "vpz_gb", "shop": "e-cigarette", "addr:full": "1 Highgate LA9 4DA", "addr:postcode": "LA9 4DA", "addr:country": "GB", "name": "VPZ Kendal", "phone": "01539727386", "website": "http://www.vpz.co.uk", "contact:email": "support@vpz.co.uk", "brand": "VPZ", "brand:wikidata": "Q107300487", "nsi_id": "vpz-a06c95"}, "geometry": {"type": "Point", "coordinates": [-2.7472459, 54.3275789]}},
{"type": "Feature", "id": "uTRxrwSOxOmREVQ2LHEzyYmsnEE=", "properties": {"ref": "32584188", "@spider": "vpz_gb", "shop": "e-cigarette", "addr:full": "61 High Street NN16 8SY", "addr:postcode": "NN16 8SY", "addr:country": "GB", "name": "VPZ Kettering", "phone": "01536523895", "website": "http://www.vpz.co.uk", "contact:email": "support@vpz.co.uk", "brand": "VPZ", "brand:wikidata": "Q107300487", "nsi_id": "vpz-a06c95"}, "geometry": {"type": "Point", "coordinates": [-0.7285334, 52.3997392]}},
{"type": "Feature", "id": "ix63d0DnyM5y7hz2wm8K52yQBkA=", "properties": {"ref": "32584111", "@spider": "vpz_gb", "shop": "e-cigarette", "addr:full": "5 Tichfield Street KA1 1QW", "addr:postcode": "KA1 1QW", "addr:country": "GB", "name": "VPZ Kilmarnock", "phone": "01563259196", "website": "http://www.vpz.co.uk", "contact:email": "support@vpz.co.uk", "brand": "VPZ", "brand:wikidata": "Q107300487", "nsi_id": "vpz-a06c95"}, "geometry": {"type": "Point", "coordinates": [-4.4976227, 55.6066549]}},
{"type": "Feature", "id": "JEUuNLhHZBIVCPtPbIf9qD6DoQA=", "properties": {"ref": "32584183", "@spider": "vpz_gb", "shop": "e-cigarette", "addr:full": "45 High Street PE30 1BJ", "addr:postcode": "PE30 1BJ", "addr:country": "GB", "name": "VPZ Kings Lynn", "phone": "01553771765", "website": "http://www.vpz.co.uk", "contact:email": "support@vpz.co.uk", "brand": "VPZ", "brand:wikidata": "Q107300487", "nsi_id": "vpz-a06c95"}, "geometry": {"type": "Point", "coordinates": [0.3954824, 52.75408789999999]}},
{"type": "Feature", "id": "Ej_EAb5lybzM8kGKE2LKRkt6xlM=", "properties": {"ref": "32584098", "@spider": "vpz_gb", "shop": "e-cigarette", "addr:full": "103 High Street KY1 1LW", "addr:postcode": "KY1 1LW", "addr:country": "GB", "name": "VPZ Kirkcaldy", "phone": "01592644543", "website": "http://www.vpz.co.uk", "contact:email": "support@vpz.co.uk", "brand": "VPZ", "brand:wikidata": "Q107300487", "nsi_id": "vpz-a06c95"}, "geometry": {"type": "Point", "coordinates": [-3.1596553, 56.1096042]}},
{"type": "Feature", "id": "0lqgLrtwB00RRi-A_zEggTy-NMA=", "properties": {"ref": "32584141", "@spider": "vpz_gb", "shop": "e-cigarette", "addr:full": "57 Cowgate G66 1HW", "addr:postcode": "G66 1HW", "addr:country": "GB", "name": "VPZ Kirkintilloch", "phone": "01417762028", "website": "http://www.vpz.co.uk", "contact:email": "support@vpz.co.uk", "brand": "VPZ", "brand:wikidata": "Q107300487", "nsi_id": "vpz-a06c95"}, "geometry": {"type": "Point", "coordinates": [-4.1577304, 55.9404031]}},
{"type": "Feature", "id": "xJCPUUidvA8NkDI2IbflShWBgOQ=", "properties": {"ref": "32584133", "@spider": "vpz_gb", "shop": "e-cigarette", "addr:full": "2B 82 Albion Street, LS1 6AD", "addr:postcode": "LS1 6AD", "addr:country": "GB", "name": "VPZ Leeds City Centre", "phone": "01132444359", "website": "http://www.vpz.co.uk", "contact:email": "support@vpz.co.uk", "brand": "VPZ", "brand:wikidata": "Q107300487", "nsi_id": "vpz-a06c95"}, "geometry": {"type": "Point", "coordinates": [-1.5451184, 53.7982246]}},
{"type": "Feature", "id": "d_S4ajd78I3u53HWrlS1yrnYB6M=", "properties": {"ref": "32584093", "@spider": "vpz_gb", "shop": "e-cigarette", "addr:full": "6A Middlefield, Leith Walk EH7 4PF", "addr:postcode": "EH7 4PF", "addr:country": "GB", "name": "VPZ Leith", "phone": "01315611300", "website": "http://www.vpz.co.uk", "contact:email": "support@vpz.co.uk", "brand": "VPZ", "brand:wikidata": "Q107300487", "nsi_id": "vpz-a06c95"}, "geometry": {"type": "Point", "coordinates": [-3.1788071, 55.9630607]}},
{"type": "Feature", "id": "MaiSEFI46d0b8NH1_a2y4peL0no=", "properties": {"ref": "32584125", "@spider": "vpz_gb", "shop": "e-cigarette", "addr:full": "71 High Street KY8 4NF", "addr:postcode": "KY8 4NF", "addr:country": "GB", "name": "VPZ Leven", "phone": "01333421212", "website": "http://www.vpz.co.uk", "contact:email": "support@vpz.co.uk", "brand": "VPZ", "brand:wikidata": "Q107300487", "nsi_id": "vpz-a06c95"}, "geometry": {"type": "Point", "coordinates": [-2.9966084, 56.1950343]}},
{"type": "Feature", "id": "ZidmphVDPKCEtzjO5h23CLz8OCY=", "properties": {"ref": "32584176", "@spider": "vpz_gb", "shop": "e-cigarette", "addr:full": "56 High Street EH49 7AQ", "addr:postcode": "EH49 7AQ", "addr:country": "GB", "name": "VPZ Linlithgow", "phone": "01506847850", "website": "http://www.vpz.co.uk", "contact:email": "support@vpz.co.uk", "brand": "VPZ", "brand:wikidata": "Q107300487", "nsi_id": "vpz-a06c95"}, "geometry": {"type": "Point", "coordinates": [-3.5981941, 55.9768475]}},
{"type": "Feature", "id": "bkCz9aYJ3s2sm3o8y9lNZkgaPWM=", "properties": {"ref": "32584218", "@spider": "vpz_gb", "shop": "e-cigarette", "addr:full": "Unit 3 Trago Liskeard PL14 6HY", "addr:postcode": "PL14 6HY", "addr:country": "GB", "name": "VPZ Liskeard", "phone": "01579208987", "website": "http://www.vpz.co.uk", "contact:email": "support@vpz.co.uk", "brand": "VPZ", "brand:wikidata": "Q107300487", "nsi_id": "vpz-a06c95"}, "geometry": {"type": "Point", "coordinates": [-4.567603, 50.455195]}},
{"type": "Feature", "id": "rBPSG2DJeGNfNw8mA5RlPm00jwY=", "properties": {"ref": "32584107", "@spider": "vpz_gb", "shop": "e-cigarette", "addr:full": "56 Church Street OL15 8AB", "addr:postcode": "OL15 8AB", "addr:country": "GB", "name": "VPZ Littleborough", "phone": "01706375278", "website": "http://www.vpz.co.uk", "contact:email": "support@vpz.co.uk", "brand": "VPZ", "brand:wikidata": "Q107300487", "nsi_id": "vpz-a06c95"}, "geometry": {"type": "Point", "coordinates": [-2.0969727, 53.6439096]}},
{"type": "Feature", "id": "-pRW9SlsENxY5R2QdJvYJui54b4=", "properties": {"ref": "32584105", "@spider": "vpz_gb", "shop": "e-cigarette", "addr:full": "The Centre, Almondvale Boulevard EH54 6HR", "addr:postcode": "EH54 6HR", "addr:country": "GB", "name": "VPZ Livingston", "phone": "01506324885", "website": "http://www.vpz.co.uk", "contact:email": "support@vpz.co.uk", "brand": "VPZ", "brand:wikidata": "Q107300487", "nsi_id": "vpz-a06c95"}, "geometry": {"type": "Point", "coordinates": [-3.5142811, 55.8836988]}},
{"type": "Feature", "id": "0dW6Ib_GPnB9eZs_Onv_mloIjiA=", "properties": {"ref": "32584116", "@spider": "vpz_gb", "shop": "e-cigarette", "addr:full": "138 High Street DD2 3BZ", "addr:postcode": "DD2 3BZ", "addr:country": "GB", "name": "VPZ Lochee", "phone": "01382610066", "website": "http://www.vpz.co.uk", "contact:email": "support@vpz.co.uk", "brand": "VPZ", "brand:wikidata": "Q107300487", "nsi_id": "vpz-a06c95"}, "geometry": {"type": "Point", "coordinates": [-3.0108178, 56.4730226]}},
{"type": "Feature", "id": "pEey-D0nyxkwwBHm22M8TkaM7Tg=", "properties": {"ref": "32584155", "@spider": "vpz_gb", "shop": "e-cigarette", "addr:full": "69 London Road North NR32 1LS", "addr:postcode": "NR32 1LS", "addr:country": "GB", "name": "VPZ Lowestoft", "phone": "01502564026", "website": "http://www.vpz.co.uk", "contact:email": "support@vpz.co.uk", "brand": "VPZ", "brand:wikidata": "Q107300487", "nsi_id": "vpz-a06c95"}, "geometry": {"type": "Point", "coordinates": [1.7521962168740768, 52.4758201]}},
{"type": "Feature", "id": "gTpZBvzTMRBx94WAzLyOG7_jSsM=", "properties": {"ref": "32584154", "@spider": "vpz_gb", "shop": "e-cigarette", "addr:full": "Unit 5 Coleman Parade, ME14 1DJ", "addr:postcode": "ME14 1DJ", "addr:country": "GB", "name": "VPZ Maidstone", "phone": "01622681667", "website": "http://www.vpz.co.uk", "contact:email": "maidstone@vpz.co.uk", "brand": "VPZ", "brand:wikidata": "Q107300487", "nsi_id": "vpz-a06c95"}, "geometry": {"type": "Point", "coordinates": [0.5238, 51.2741]}},
{"type": "Feature", "id": "nHx7G_aC92KwMyYuczZbA6ddK40=", "properties": {"ref": "32584203", "@spider": "vpz_gb", "shop": "e-cigarette", "addr:full": "591 Meanwood Road LS6 4AY", "addr:postcode": "LS6 4AY", "addr:country": "GB", "name": "VPZ Meanwood", "phone": "01132748997", "website": "http://www.vpz.co.uk", "contact:email": "support@vpz.co.uk", "brand": "VPZ", "brand:wikidata": "Q107300487", "nsi_id": "vpz-a06c95"}, "geometry": {"type": "Point", "coordinates": [-1.5663646, 53.8271195]}},
{"type": "Feature", "id": "sd6NbTyfkQlCfG1fjtqz8lJQte0=", "properties": {"ref": "32584108", "@spider": "vpz_gb", "shop": "e-cigarette", "addr:full": "1-3 High Street DD10 8LU", "addr:postcode": "DD10 8LU", "addr:country": "GB", "name": "VPZ Montrose", "phone": "01674673025", "website": "http://www.vpz.co.uk", "contact:email": "support@vpz.co.uk", "brand": "VPZ", "brand:wikidata": "Q107300487", "nsi_id": "vpz-a06c95"}, "geometry": {"type": "Point", "coordinates": [-2.4675611, 56.713234]}},
{"type": "Feature", "id": "SgyfZojtZk3f64wqJp51qk1M9C0=", "properties": {"ref": "32584136", "@spider": "vpz_gb", "shop": "e-cigarette", "addr:full": "2-4 Oldgate, NE61 1LX", "addr:postcode": "NE61 1LX", "addr:country": "GB", "name": "VPZ Morpeth", "phone": "01670512150", "website": "http://www.vpz.co.uk", "contact:email": "support@vpz.co.uk", "brand": "VPZ", "brand:wikidata": "Q107300487", "nsi_id": "vpz-a06c95"}, "geometry": {"type": "Point", "coordinates": [-1.6925789, 55.16759]}},
{"type": "Feature", "id": "OMF4ZpvHBte29Of95X0wLqFlojo=", "properties": {"ref": "32584120", "@spider": "vpz_gb", "shop": "e-cigarette", "addr:full": "11 Brandon Parade South ML1 1RB", "addr:postcode": "ML1 1RB", "addr:country": "GB", "name": "VPZ Motherwell", "phone": "01698265111", "website": "http://www.vpz.co.uk", "contact:email": "support@vpz.co.uk", "brand": "VPZ", "brand:wikidata": "Q107300487", "nsi_id": "vpz-a06c95"}, "geometry": {"type": "Point", "coordinates": [-3.9921864, 55.7902453]}},
{"type": "Feature", "id": "79BfpfTVFmSImX28XuFeIF3ZXvU=", "properties": {"ref": "32584233", "@spider": "vpz_gb", "shop": "e-cigarette", "addr:full": "116 High Street EH21 7EA", "addr:postcode": "EH21 7EA", "addr:country": "GB", "name": "VPZ Musselburgh", "phone": "01316657776", "website": "http://www.vpz.co.uk", "contact:email": "support@vpz.co.uk", "brand": "VPZ", "brand:wikidata": "Q107300487", "nsi_id": "vpz-a06c95"}, "geometry": {"type": "Point", "coordinates": [-3.050092, 55.94249989999999]}},
{"type": "Feature", "id": "x8zQ-wc4FkXY91OnPsBUJlQfQno=", "properties": {"ref": "32584163", "@spider": "vpz_gb", "shop": "e-cigarette", "addr:full": "33 High Street IV12 4AG", "addr:postcode": "IV12 4AG", "addr:country": "GB", "name": "VPZ Nairn", "phone": "01667452372", "website": "http://www.vpz.co.uk", "contact:email": "support@vpz.co.uk", "brand": "VPZ", "brand:wikidata": "Q107300487", "nsi_id": "vpz-a06c95"}, "geometry": {"type": "Point", "coordinates": [-3.8696022, 57.5840475]}},
{"type": "Feature", "id": "yoDDrLkG0WTQRVzmdmjkgMtosJc=", "properties": {"ref": "32584099", "@spider": "vpz_gb", "shop": "e-cigarette", "addr:full": "1 Huly Hill Road EH28 8PH", "addr:postcode": "EH28 8PH", "addr:country": "GB", "name": "VPZ Newbridge", "phone": "0131 322 8877", "website": "http://www.vpz.co.uk", "contact:email": "support@vpz.co.uk", "brand": "VPZ", "brand:wikidata": "Q107300487", "nsi_id": "vpz-a06c95"}, "geometry": {"type": "Point", "coordinates": [-3.405332, 55.937013]}},
{"type": "Feature", "id": "QpSHcn6aWHxjYRymRAm1c-Ouj8w=", "properties": {"ref": "32584238", "@spider": "vpz_gb", "shop": "e-cigarette", "addr:full": "38 North Brook Street RG14 1DT", "addr:postcode": "RG14 1DT", "addr:country": "GB", "name": "VPZ Newbury", "phone": "01635226637", "website": "http://www.vpz.co.uk", "contact:email": "support@vpz.co.uk", "brand": "VPZ", "brand:wikidata": "Q107300487", "nsi_id": "vpz-a06c95"}, "geometry": {"type": "Point", "coordinates": [-1.3244564, 51.4043216]}},
{"type": "Feature", "id": "xiMuCHRPyDu8xE2XjjHaFVTatJ8=", "properties": {"ref": "32584215", "@spider": "vpz_gb", "shop": "e-cigarette", "addr:full": "10 Market Street NE1 6JF", "addr:postcode": "NE1 6JF", "addr:country": "GB", "name": "VPZ Newcastle", "phone": "01912615162", "website": "http://www.vpz.co.uk", "contact:email": "support@vpz.co.uk", "brand": "VPZ", "brand:wikidata": "Q107300487", "nsi_id": "vpz-a06c95"}, "geometry": {"type": "Point", "coordinates": [-1.6119515, 54.97319779999999]}},
{"type": "Feature", "id": "2xJ--L1KC7uMm8gwrzIpUXpI4kw=", "properties": {"ref": "32584168", "@spider": "vpz_gb", "shop": "e-cigarette", "addr:full": "Guineas Shopping Centre CB8 8EQ", "addr:postcode": "CB8 8EQ", "addr:country": "GB", "name": "VPZ Newmarket", "phone": "01638676592", "website": "http://www.vpz.co.uk", "contact:email": "support@vpz.co.uk", "brand": "VPZ", "brand:wikidata": "Q107300487", "nsi_id": "vpz-a06c95"}, "geometry": {"type": "Point", "coordinates": [0.4056264852818532, 52.245084750000004]}},
{"type": "Feature", "id": "Pd7o5HSgHJE9TMiHGVgl1JaPkmo=", "properties": {"ref": "32584153", "@spider": "vpz_gb", "shop": "e-cigarette", "addr:full": "146 Commerical Street NP20 1LN", "addr:postcode": "NP20 1LN", "addr:country": "GB", "name": "VPZ Newport", "phone": "01633255135", "website": "http://www.vpz.co.uk", "contact:email": "support@vpz.co.uk", "brand": "VPZ", "brand:wikidata": "Q107300487", "nsi_id": "vpz-a06c95"}, "geometry": {"type": "Point", "coordinates": [-2.9947222, 51.58546880000001]}},
{"type": "Feature", "id": "Ftw8BKDJXgDVdVMxokSTThlauig=", "properties": {"ref": "32584095", "@spider": "vpz_gb", "shop": "e-cigarette", "addr:full": "38 Nicolson Street EH8 9DT", "addr:postcode": "EH8 9DT", "addr:country": "GB", "name": "VPZ Nicolson Street", "phone": "01312810053", "website": "http://www.vpz.co.uk", "contact:email": "support@vpz.co.uk", "brand": "VPZ", "brand:wikidata": "Q107300487", "nsi_id": "vpz-a06c95"}, "geometry": {"type": "Point", "coordinates": [-3.1847358, 55.9459241]}},
{"type": "Feature", "id": "q3WRGIXd2oIFD-u4BcMC9eLq5G8=", "properties": {"ref": "32584129", "@spider": "vpz_gb", "shop": "e-cigarette", "addr:full": "70 Bedford Street NE29 6QF", "addr:postcode": "NE29 6QF", "addr:country": "GB", "name": "VPZ North Shields", "phone": "01912581834", "website": "http://www.vpz.co.uk", "contact:email": "support@vpz.co.uk", "brand": "VPZ", "brand:wikidata": "Q107300487", "nsi_id": "vpz-a06c95"}, "geometry": {"type": "Point", "coordinates": [-1.4472208, 55.0088291]}},
{"type": "Feature", "id": "QUhyy9E5w25u74YLI27ohGTmUGs=", "properties": {"ref": "32584146", "@spider": "vpz_gb", "shop": "e-cigarette", "addr:full": "8 George Street PA34 5SB", "addr:postcode": "PA34 5SB", "addr:country": "GB", "name": "VPZ Oban", "phone": "01631358608", "website": "http://www.vpz.co.uk", "contact:email": "support@vpz.co.uk", "brand": "VPZ", "brand:wikidata": "Q107300487", "nsi_id": "vpz-a06c95"}, "geometry": {"type": "Point", "coordinates": [-5.472007, 56.41348619999999]}},
{"type": "Feature", "id": "nGda98Uy2P49Vm90wEUUj557Yyg=", "properties": {"ref": "32584102", "@spider": "vpz_gb", "shop": "e-cigarette", "addr:full": "4 High Street PA1 2YA", "addr:postcode": "PA1 2YA", "addr:country": "GB", "name": "VPZ Paisley", "phone": "01418893463", "website": "http://www.vpz.co.uk", "contact:email": "support@vpz.co.uk", "brand": "VPZ", "brand:wikidata": "Q107300487", "nsi_id": "vpz-a06c95"}, "geometry": {"type": "Point", "coordinates": [-4.4231716, 55.8456525]}},
{"type": "Feature", "id": "IL6pnB6EWVn648nwfDV3D6Rq2yA=", "properties": {"ref": "32584209", "@spider": "vpz_gb", "shop": "e-cigarette", "addr:full": "5a Penicuik Shopping Centre EH26 8LE", "addr:postcode": "EH26 8LE", "addr:country": "GB", "name": "VPZ Penicuik", "phone": "01968674488", "website": "http://www.vpz.co.uk", "contact:email": "support@vpz.co.uk", "brand": "VPZ", "brand:wikidata": "Q107300487", "nsi_id": "vpz-a06c95"}, "geometry": {"type": "Point", "coordinates": [-3.2211501, 55.8273203]}},
{"type": "Feature", "id": "4qaMN1i0fuai9LcAJKB6ZTnVXU4=", "properties": {"ref": "32584222", "@spider": "vpz_gb", "shop": "e-cigarette", "addr:full": "40 Market Jew Street TR18 2HX", "addr:postcode": "TR18 2HX", "addr:country": "GB", "name": "VPZ Penzance", "phone": "01736448949", "website": "http://www.vpz.co.uk", "contact:email": "support@vpz.co.uk", "brand": "VPZ", "brand:wikidata": "Q107300487", "nsi_id": "vpz-a06c95"}, "geometry": {"type": "Point", "coordinates": [-5.535082, 50.119668]}},
{"type": "Feature", "id": "XSFu679sMLJ9xnfo40wS1ePs4_k=", "properties": {"ref": "32584096", "@spider": "vpz_gb", "shop": "e-cigarette", "addr:full": "29 County Place PH2 8EE", "addr:postcode": "PH2 8EE", "addr:country": "GB", "name": "VPZ Perth", "phone": "01738248475", "website": "http://www.vpz.co.uk", "contact:email": "support@vpz.co.uk", "brand": "VPZ", "brand:wikidata": "Q107300487", "nsi_id": "vpz-a06c95"}, "geometry": {"type": "Point", "coordinates": [-3.4350923, 56.395258]}},
{"type": "Feature", "id": "bj4Q_lWnvDiiRqejqyXwatUSQ10=", "properties": {"ref": "32584173", "@spider": "vpz_gb", "shop": "e-cigarette", "addr:full": "47 Marischal Street AB42 1PR", "addr:postcode": "AB42 1PR", "addr:country": "GB", "name": "VPZ Peterhead", "phone": "01779471137", "website": "http://www.vpz.co.uk", "contact:email": "support@vpz.co.uk", "brand": "VPZ", "brand:wikidata": "Q107300487", "nsi_id": "vpz-a06c95"}, "geometry": {"type": "Point", "coordinates": [-1.7801679, 57.5051031]}},
{"type": "Feature", "id": "WEG9vzcftgogNtrl2geOwUUhXFo=", "properties": {"ref": "32584213", "@spider": "vpz_gb", "shop": "e-cigarette", "addr:full": "36 Princes Street PA14 5JQ", "addr:postcode": "PA14 5JQ", "addr:country": "GB", "name": "VPZ Port Glasgow", "phone": "01475742618", "website": "http://www.vpz.co.uk", "contact:email": "support@vpz.co.uk", "brand": "VPZ", "brand:wikidata": "Q107300487", "nsi_id": "vpz-a06c95"}, "geometry": {"type": "Point", "coordinates": [-4.6899023, 55.9343203]}},
{"type": "Feature", "id": "kGlSUvmeTBdVONvu0ozlkw65I_c=", "properties": {"ref": "32584237", "@spider": "vpz_gb", "shop": "e-cigarette", "addr:full": "140 Portobello High Street EH15 1AH", "addr:postcode": "EH15 1AH", "addr:country": "GB", "name": "VPZ Portobello", "phone": "01316290707", "website": "http://www.vpz.co.uk", "contact:email": "support@vpz.co.uk", "brand": "VPZ", "brand:wikidata": "Q107300487", "nsi_id": "vpz-a06c95"}, "geometry": {"type": "Point", "coordinates": [-3.1146565, 55.9532468]}},
{"type": "Feature", "id": "6mQGVJTyH4J9C3RClX30NbJL-vE=", "properties": {"ref": "32584158", "@spider": "vpz_gb", "shop": "e-cigarette", "addr:full": "Unit 19, Aberafan South Mall SA13 1PB", "addr:postcode": "SA13 1PB", "addr:country": "GB", "name": "VPZ Port Talbot", "phone": "01639896710", "website": "http://www.vpz.co.uk", "contact:email": "support@vpz.co.uk", "brand": "VPZ", "brand:wikidata": "Q107300487", "nsi_id": "vpz-a06c95"}, "geometry": {"type": "Point", "coordinates": [-3.7855642, 51.5969522]}},
{"type": "Feature", "id": "nL8gGqXliG2Tp8Dos62xKlifCds=", "properties": {"ref": "32584225", "@spider": "vpz_gb", "shop": "e-cigarette", "addr:full": "4 Renfield Street PA4 8RN", "addr:postcode": "PA4 8RN", "addr:country": "GB", "name": "VPZ Renfrew", "phone": "01418865888", "website": "http://www.vpz.co.uk", "contact:email": "support@vpz.co.uk", "brand": "VPZ", "brand:wikidata": "Q107300487", "nsi_id": "vpz-a06c95"}, "geometry": {"type": "Point", "coordinates": [-4.3859884, 55.87981389999999]}},
{"type": "Feature", "id": "6K5zdSaLuD7PjunyiOjiJHvwuzY=", "properties": {"ref": "32584109", "@spider": "vpz_gb", "shop": "e-cigarette", "addr:full": "173 Main Street G73 2HF", "addr:postcode": "G73 2HF", "addr:country": "GB", "name": "VPZ Rutherglen", "phone": "01416478945", "website": "http://www.vpz.co.uk", "contact:email": "support@vpz.co.uk", "brand": "VPZ", "brand:wikidata": "Q107300487", "nsi_id": "vpz-a06c95"}, "geometry": {"type": "Point", "coordinates": [-4.213000399999999, 55.82862009999999]}},
{"type": "Feature", "id": "InFjRB_rlQfFqqVfDIG59zqehgU=", "properties": {"ref": "32584199", "@spider": "vpz_gb", "shop": "e-cigarette", "addr:full": "1-3 Chapelwell Street KA21 5EB", "addr:postcode": "KA21 5EB", "addr:country": "GB", "name": "VPZ Saltcoats", "phone": "01294537714", "website": "http://www.vpz.co.uk", "contact:email": "support@vpz.co.uk", "brand": "VPZ", "brand:wikidata": "Q107300487", "nsi_id": "vpz-a06c95"}, "geometry": {"type": "Point", "coordinates": [-4.788338, 55.633773]}},
{"type": "Feature", "id": "q4DdIvrmjf-3I45Sca-GjWzY_WI=", "properties": {"ref": "32584097", "@spider": "vpz_gb", "shop": "e-cigarette", "addr:full": "136 Sauchiehall St G2 3DH", "addr:postcode": "G2 3DH", "addr:country": "GB", "name": "VPZ Sauchiehall", "phone": "01413311827", "website": "http://www.vpz.co.uk", "contact:email": "support@vpz.co.uk", "brand": "VPZ", "brand:wikidata": "Q107300487", "nsi_id": "vpz-a06c95"}, "geometry": {"type": "Point", "coordinates": [-4.257821, 55.864878]}},
{"type": "Feature", "id": "Vi6lZLrKC4GHqzH-E6IBXo8awCg=", "properties": {"ref": "32584104", "@spider": "vpz_gb", "shop": "e-cigarette", "addr:full": "27 Shandwick Place EH2 4RG", "addr:postcode": "EH2 4RG", "addr:country": "GB", "name": "VPZ Shandwick Place", "phone": "01312261818", "website": "http://www.vpz.co.uk", "contact:email": "support@vpz.co.uk", "brand": "VPZ", "brand:wikidata": "Q107300487", "nsi_id": "vpz-a06c95"}, "geometry": {"type": "Point", "coordinates": [-3.2089787, 55.9496354]}},
{"type": "Feature", "id": "RlFjWm5fIPrQFQMwx8R5yn9eJ-k=", "properties": {"ref": "32584223", "@spider": "vpz_gb", "shop": "e-cigarette", "addr:full": "37 Kilmarnock Road G41 3YN", "addr:postcode": "G41 3YN", "addr:country": "GB", "name": "VPZ Shawlands", "phone": "01412375445", "website": "http://www.vpz.co.uk", "contact:email": "support@vpz.co.uk", "brand": "VPZ", "brand:wikidata": "Q107300487", "nsi_id": "vpz-a06c95"}, "geometry": {"type": "Point", "coordinates": [-4.2837927, 55.8281776]}},
{"type": "Feature", "id": "kW1AS9cEqG7YxsQTR8MoZA3bAHU=", "properties": {"ref": "32584232", "@spider": "vpz_gb", "shop": "e-cigarette", "addr:full": "1064 Shettleston Road G32 7PW", "addr:postcode": "G32 7PW", "addr:country": "GB", "name": "VPZ Shettleston", "phone": "01415739164", "website": "http://www.vpz.co.uk", "contact:email": "support@vpz.co.uk", "brand": "VPZ", "brand:wikidata": "Q107300487", "nsi_id": "vpz-a06c95"}, "geometry": {"type": "Point", "coordinates": [-4.1699336, 55.85162339999999]}},
{"type": "Feature", "id": "oX7aAeuXdSsYFx25H9sz9paES0E=", "properties": {"ref": "32584159", "@spider": "vpz_gb", "shop": "e-cigarette", "addr:full": "Unit 5 The Forum ME10 3DL", "addr:postcode": "ME10 3DL", "addr:country": "GB", "name": "VPZ Sittingbourne", "phone": "01795439949", "website": "http://www.vpz.co.uk", "contact:email": "support@vpz.co.uk", "brand": "VPZ", "brand:wikidata": "Q107300487", "nsi_id": "vpz-a06c95"}, "geometry": {"type": "Point", "coordinates": [0.7357173, 51.3406976]}},
{"type": "Feature", "id": "h4kCWANrUnZ-wjX6UFssbLX8Rx8=", "properties": {"ref": "32584231", "@spider": "vpz_gb", "shop": "e-cigarette", "addr:full": "211 South Street KY16 9EF", "addr:postcode": "KY16 9EF", "addr:country": "GB", "name": "VPZ St Andrews", "phone": "01334461111", "website": "http://www.vpz.co.uk", "contact:email": "support@vpz.co.uk", "brand": "VPZ", "brand:wikidata": "Q107300487", "nsi_id": "vpz-a06c95"}, "geometry": {"type": "Point", "coordinates": [-2.7994144, 56.3388881]}},
{"type": "Feature", "id": "K5sSYQkFnmF3-tUk6hEBiflSRrA=", "properties": {"ref": "32584214", "@spider": "vpz_gb", "shop": "e-cigarette", "addr:full": "14 South Street PL25 5BH", "addr:postcode": "PL25 5BH", "addr:country": "GB", "name": "VPZ St Austell", "phone": "0172668251", "website": "http://www.vpz.co.uk", "contact:email": "support@vpz.co.uk", "brand": "VPZ", "brand:wikidata": "Q107300487", "nsi_id": "vpz-a06c95"}, "geometry": {"type": "Point", "coordinates": [-4.791951, 50.3376887]}},
{"type": "Feature", "id": "d263SMnEB1oaR1XExZNZawzI3rU=", "properties": {"ref": "32584161", "@spider": "vpz_gb", "shop": "e-cigarette", "addr:full": "64 Queensway SG1 1EE", "addr:postcode": "SG1 1EE", "addr:country": "GB", "name": "VPZ Stevenage", "phone": "01438358928", "website": "http://www.vpz.co.uk", "contact:email": "support@vpz.co.uk", "brand": "VPZ", "brand:wikidata": "Q107300487", "nsi_id": "vpz-a06c95"}, "geometry": {"type": "Point", "coordinates": [-0.2017485, 51.902898]}},
{"type": "Feature", "id": "Hf7ozk8k-o2j-TgxADG0JzGKrcE=", "properties": {"ref": "32584130", "@spider": "vpz_gb", "shop": "e-cigarette", "addr:full": "34 George Street DG9 7RL", "addr:postcode": "DG9 7RL", "addr:country": "GB", "name": "VPZ Stranraer", "phone": "01776702258", "website": "http://www.vpz.co.uk", "contact:email": "support@vpz.co.uk", "brand": "VPZ", "brand:wikidata": "Q107300487", "nsi_id": "vpz-a06c95"}, "geometry": {"type": "Point", "coordinates": [-5.027443, 54.904726]}},
{"type": "Feature", "id": "dlhCJnVyjcixSo5rf7b9CcRujtU=", "properties": {"ref": "32584179", "@spider": "vpz_gb", "shop": "e-cigarette", "addr:full": "138 Streatham High Road SW16 1BJ", "addr:postcode": "SW16 1BJ", "addr:country": "GB", "name": "VPZ Streatham", "phone": "02086774877", "website": "http://www.vpz.co.uk", "contact:email": "support@vpz.co.uk", "brand": "VPZ", "brand:wikidata": "Q107300487", "nsi_id": "vpz-a06c95"}, "geometry": {"type": "Point", "coordinates": [-0.1287367, 51.4334125]}},
{"type": "Feature", "id": "4xXKIeFDmf3h-kvy_RIb4i3wQLo=", "properties": {"ref": "32584126", "@spider": "vpz_gb", "shop": "e-cigarette", "addr:full": "160 High Street SM1 1LX", "addr:postcode": "SM1 1LX", "addr:country": "GB", "name": "VPZ Sutton", "phone": "02086610306", "website": "http://www.vpz.co.uk", "contact:email": "support@vpz.co.uk", "brand": "VPZ", "brand:wikidata": "Q107300487", "nsi_id": "vpz-a06c95"}, "geometry": {"type": "Point", "coordinates": [-0.1935583, 51.36465399999999]}},
{"type": "Feature", "id": "JN4D2DA7EfFBzutr5mH91ncRkvQ=", "properties": {"ref": "32584152", "@spider": "vpz_gb", "shop": "e-cigarette", "addr:full": "6 Whitewalls SA1 3AA", "addr:postcode": "SA1 3AA", "addr:country": "GB", "name": "VPZ Swansea", "phone": "01792649028", "website": "http://www.vpz.co.uk", "contact:email": "support@vpz.co.uk", "brand": "VPZ", "brand:wikidata": "Q107300487", "nsi_id": "vpz-a06c95"}, "geometry": {"type": "Point", "coordinates": [-3.944438677591771, 51.619653]}},
{"type": "Feature", "id": "TkgJXJQCr88_nJHvpGOskpcPCBI=", "properties": {"ref": "32584177", "@spider": "vpz_gb", "shop": "e-cigarette", "addr:full": "Havelock Square,The Brunel Centre SN1 1LF", "addr:postcode": "SN1 1LF", "addr:country": "GB", "name": "VPZ Swindon", "phone": "01793534480", "website": "http://www.vpz.co.uk", "contact:email": "support@vpz.co.uk", "brand": "VPZ", "brand:wikidata": "Q107300487", "nsi_id": "vpz-a06c95"}, "geometry": {"type": "Point", "coordinates": [-1.7859306, 51.5606722]}},
{"type": "Feature", "id": "UhYAzCgBSgSNBIpBXkFOdN-SAHU=", "properties": {"ref": "32584182", "@spider": "vpz_gb", "shop": "e-cigarette", "addr:full": "The Gyle Shopping Centre EH12 9JT", "addr:postcode": "EH12 9JT", "addr:country": "GB", "name": "VPZ The Gyle", "phone": "01313178556", "website": "http://www.vpz.co.uk", "contact:email": "support@vpz.co.uk", "brand": "VPZ", "brand:wikidata": "Q107300487", "nsi_id": "vpz-a06c95"}, "geometry": {"type": "Point", "coordinates": [-3.3152960999569006, 55.93877075]}},
{"type": "Feature", "id": "0nPsZNEmvTko6wKTZKel9oPdjIg=", "properties": {"ref": "32584147", "@spider": "vpz_gb", "shop": "e-cigarette", "addr:full": "Unit 3A Vale House, Pavillion Shopping Centre TS17 9FD", "addr:postcode": "TS17 9FD", "addr:country": "GB", "name": "VPZ Thornaby", "phone": "01642761742", "website": "http://www.vpz.co.uk", "contact:email": "support@vpz.co.uk", "brand": "VPZ", "brand:wikidata": "Q107300487", "nsi_id": "vpz-a06c95"}, "geometry": {"type": "Point", "coordinates": [-1.2913742461536941, 54.538863449999994]}},
{"type": "Feature", "id": "nHk1bIjxfs5vH0th94msdleZB1Q=", "properties": {"ref": "32584181", "@spider": "vpz_gb", "shop": "e-cigarette", "addr:full": "67 High Street TN9 1SD", "addr:postcode": "TN9 1SD", "addr:country": "GB", "name": "VPZ Tonbridge", "phone": "01732367252", "website": "http://www.vpz.co.uk", "contact:email": "support@vpz.co.uk", "brand": "VPZ", "brand:wikidata": "Q107300487", "nsi_id": "vpz-a06c95"}, "geometry": {"type": "Point", "coordinates": [0.2739841, 51.1941462]}},
{"type": "Feature", "id": "cuc1VWuBZq6jY9rv5nmuhcNfmrE=", "properties": {"ref": "32584191", "@spider": "vpz_gb", "shop": "e-cigarette", "addr:full": "42 Tooting High Street SW17 0RG", "addr:postcode": "SW17 0RG", "addr:country": "GB", "name": "VPZ Tooting", "phone": "02087727732", "website": "http://www.vpz.co.uk", "contact:email": "support@vpz.co.uk", "brand": "VPZ", "brand:wikidata": "Q107300487", "nsi_id": "vpz-a06c95"}, "geometry": {"type": "Point", "coordinates": [-0.16793827806416733, 51.428369200000006]}},
{"type": "Feature", "id": "_EiPcEFrLbAwsm3LZlm5PkDS60A=", "properties": {"ref": "32584200", "@spider": "vpz_gb", "shop": "e-cigarette", "addr:full": "23 Portland Street KA10 6AA", "addr:postcode": "KA10 6AA", "addr:country": "GB", "name": "VPZ Troon", "phone": "01292857410", "website": "http://www.vpz.co.uk", "contact:email": "support@vpz.co.uk", "brand": "VPZ", "brand:wikidata": "Q107300487", "nsi_id": "vpz-a06c95"}, "geometry": {"type": "Point", "coordinates": [-4.663444999999999, 55.54424350000001]}},
{"type": "Feature", "id": "1T9dIA517tKUD0ZM7eZGnDqg2Nc=", "properties": {"ref": "32584145", "@spider": "vpz_gb", "shop": "e-cigarette", "addr:full": "K1, Brooke Street WF1 1QS", "addr:postcode": "WF1 1QS", "addr:country": "GB", "name": "VPZ Wakefield", "phone": "01924387720", "website": "http://www.vpz.co.uk", "contact:email": "support@vpz.co.uk", "brand": "VPZ", "brand:wikidata": "Q107300487", "nsi_id": "vpz-a06c95"}, "geometry": {"type": "Point", "coordinates": [-1.4961507, 53.6843053]}},
{"type": "Feature", "id": "VMiuujVi1YXEbpIS9Eg4Ny0M_F4=", "properties": {"ref": "32584157", "@spider": "vpz_gb", "shop": "e-cigarette", "addr:full": "105 High Street WD17 2DQ", "addr:postcode": "WD17 2DQ", "addr:country": "GB", "name": "VPZ Watford", "phone": "01923251378", "website": "http://www.vpz.co.uk", "contact:email": "support@vpz.co.uk", "brand": "VPZ", "brand:wikidata": "Q107300487", "nsi_id": "vpz-a06c95"}, "geometry": {"type": "Point", "coordinates": [-0.3946463, 51.6548478]}},
{"type": "Feature", "id": "jk-fcZ4anACVrsVWnmvdhJkXeDc=", "properties": {"ref": "32584170", "@spider": "vpz_gb", "shop": "e-cigarette", "addr:full": "50 Market Place NN8 1AA", "addr:postcode": "NN8 1AA", "addr:country": "GB", "name": "VPZ Wellingborough", "phone": "01933279386", "website": "http://www.vpz.co.uk", "contact:email": "support@vpz.co.uk", "brand": "VPZ", "brand:wikidata": "Q107300487", "nsi_id": "vpz-a06c95"}, "geometry": {"type": "Point", "coordinates": [-0.6925513, 52.301149]}},
{"type": "Feature", "id": "AXpcEFjPluir95q59I-XZ4SNDHM=", "properties": {"ref": "32584160", "@spider": "vpz_gb", "shop": "e-cigarette", "addr:full": "24 King Street CA28 7JN", "addr:postcode": "CA28 7JN", "addr:country": "GB", "name": "VPZ Whitehaven", "phone": "01946693376", "website": "http://www.vpz.co.uk", "contact:email": "support@vpz.co.uk", "brand": "VPZ", "brand:wikidata": "Q107300487", "nsi_id": "vpz-a06c95"}, "geometry": {"type": "Point", "coordinates": [-3.5896412, 54.5479056]}},
{"type": "Feature", "id": "4T0IPPIMAYJBROzpBAdZHNADXos=", "properties": {"ref": "32584217", "@spider": "vpz_gb", "shop": "e-cigarette", "addr:full": "232 Whitley Road NE26 2TA", "addr:postcode": "NE26 2TA", "addr:country": "GB", "name": "VPZ Whitley Bay", "phone": "01912524474", "website": "http://www.vpz.co.uk", "contact:email": "support@vpz.co.uk", "brand": "VPZ", "brand:wikidata": "Q107300487", "nsi_id": "vpz-a06c95"}, "geometry": {"type": "Point", "coordinates": [-1.4428917, 55.041939]}},
{"type": "Feature", "id": "dA0U8jygySOQqF4OWJsokNAuWyI=", "properties": {"ref": "32584122", "@spider": "vpz_gb", "shop": "e-cigarette", "addr:full": "56 The Broadway SW19 1RQ", "addr:postcode": "SW19 1RQ", "addr:country": "GB", "name": "VPZ Wimbledon", "phone": "02085441020", "website": "http://www.vpz.co.uk", "contact:email": "support@vpz.co.uk", "brand": "VPZ", "brand:wikidata": "Q107300487", "nsi_id": "vpz-a06c95"}, "geometry": {"type": "Point", "coordinates": [-0.20299588924389994, 51.419881450000005]}},
{"type": "Feature", "id": "PG74m7XHdSLsPaDUztiMxtWe_Vw=", "properties": {"ref": "32584240", "@spider": "vpz_gb", "shop": "e-cigarette", "addr:full": "15 Main Street ML2 7AF", "addr:postcode": "ML2 7AF", "addr:country": "GB", "name": "VPZ Wishaw", "phone": "01698355102", "website": "http://www.vpz.co.uk", "contact:email": "support@vpz.co.uk", "brand": "VPZ", "brand:wikidata": "Q107300487", "nsi_id": "vpz-a06c95"}, "geometry": {"type": "Point", "coordinates": [-3.919857999999999, 55.7739109]}},
{"type": "Feature", "id": "npmsroCB3D8PgOJSSu--gbPPliE=", "properties": {"ref": "32584124", "@spider": "vpz_gb", "shop": "e-cigarette", "addr:full": "9 High Road N22 6HH", "addr:postcode": "N22 6HH", "addr:country": "GB", "name": "VPZ Wood Green", "phone": "02088260443", "website": "http://www.vpz.co.uk", "contact:email": "support@vpz.co.uk", "brand": "VPZ", "brand:wikidata": "Q107300487", "nsi_id": "vpz-a06c95"}, "geometry": {"type": "Point", "coordinates": [-0.1066098, 51.593171]}},
{"type": "Feature", "id": "I8llG4H8yNSd7p-Hmi5-GyIWoRI=", "properties": {"ref": "32584184", "@spider": "vpz_gb", "shop": "e-cigarette", "addr:full": "42 The Shambles WR1 2RE", "addr:postcode": "WR1 2RE", "addr:country": "GB", "name": "VPZ Worcester", "phone": "0190526445", "website": "http://www.vpz.co.uk", "contact:email": "support@vpz.co.uk", "brand": "VPZ", "brand:wikidata": "Q107300487", "nsi_id": "vpz-a06c95"}, "geometry": {"type": "Point", "coordinates": [-2.2193704, 52.1920335]}},
{"type": "Feature", "id": "sD9OxV2wr4AT0CDBXvYrdxlKOTA=", "properties": {"ref": "32584143", "@spider": "vpz_gb", "shop": "e-cigarette", "addr:full": "Washington Square Shopping Centre CA14 3DY", "addr:postcode": "CA14 3DY", "addr:country": "GB", "name": "VPZ Workington", "phone": "01900601554", "website": "http://www.vpz.co.uk", "contact:email": "support@vpz.co.uk", "brand": "VPZ", "brand:wikidata": "Q107300487", "nsi_id": "vpz-a06c95"}, "geometry": {"type": "Point", "coordinates": [-3.5453808546040073, 54.64334735]}},
{"type": "Feature", "id": "0Ex3Q9RED-ryjWZo8SrsK_IwIxY=", "properties": {"ref": "32584117", "@spider": "vpz_gb", "shop": "e-cigarette", "addr:full": "13 St Sampsons Square YO1 8RR", "addr:postcode": "YO1 8RR", "addr:country": "GB", "name": "VPZ York", "phone": "01904622217", "website": "http://www.vpz.co.uk", "contact:email": "support@vpz.co.uk", "brand": "VPZ", "brand:wikidata": "Q107300487", "nsi_id": "vpz-a06c95"}, "geometry": {"type": "Point", "coordinates": [-1.0818706, 53.9595273]}}]}