{"type":"FeatureCollection","features":[{"type": "Feature", "id": "hm5R64qyTBdNxuJzf16vdj9Fsj0=", "properties": {"ref": "bristol-longwell-green", "@spider": "vue_cinemas", "amenity": "cinema", "addr:full": "Aspects Leisure Park - Unit 2, Avon Ring Road, Longwell Green, Bristol, BS15 9LA", "addr:postcode": "BS15 9LA", "name": "Vue Bristol Longwell Green", "website": "https://www.myvue.com/cinema/bristol-longwell-green", "brand": "Vue Cinemas", "brand:wikidata": "Q2535134", "nsi_id": "vue-05c111"}, "geometry": {"type": "Point", "coordinates": [-2.49918, 51.44968]}},
{"type": "Feature", "id": "2RXCXXV4b-Up5Xdkjkwlx3eHs9I=", "properties": {"ref": "bristol-cribbs-causeway", "@spider": "vue_cinemas", "amenity": "cinema", "addr:full": "The Venue, Cribbs Causeway, Merlin Road, Bristol, BS10 7SR", "addr:postcode": "BS10 7SR", "name": "Vue Bristol - Cribbs Causeway", "website": "https://www.myvue.com/cinema/bristol-cribbs-causeway", "brand": "Vue Cinemas", "brand:wikidata": "Q2535134", "nsi_id": "vue-05c111"}, "geometry": {"type": "Point", "coordinates": [-2.60355, 51.52305]}},
{"type": "Feature", "id": "wrApHYw0Lp2cgP30usG4mHePK_4=", "properties": {"ref": "bolton", "@spider": "vue_cinemas", "amenity": "cinema", "addr:full": "Middlebrook Leisure Park, The Link Way (Off Mansel Way), Bolton, BL6 6JA", "addr:postcode": "BL6 6JA", "name": "Vue Bolton", "website": "https://www.myvue.com/cinema/bolton", "brand": "Vue Cinemas", "brand:wikidata": "Q2535134", "nsi_id": "vue-05c111"}, "geometry": {"type": "Point", "coordinates": [-2.53475, 53.58333]}},
{"type": "Feature", "id": "MZu32Y03Z6Xxzb5l5fMcbFC5HLY=", "properties": {"ref": "blackburn", "@spider": "vue_cinemas", "amenity": "cinema", "addr:full": "Peel Leisure and Retail Park, Lower Audley Street, Blackburn, BB1 1DG", "addr:postcode": "BB1 1DG", "name": "Vue Blackburn", "website": "https://www.myvue.com/cinema/blackburn", "brand": "Vue Cinemas", "brand:wikidata": "Q2535134", "nsi_id": "vue-05c111"}, "geometry": {"type": "Point", "coordinates": [-2.4787, 53.74393]}},
{"type": "Feature", "id": "yE7wwYET3A0D46jw0h19lgCUCSQ=", "properties": {"ref": "birmingham", "@spider": "vue_cinemas", "amenity": "cinema", "addr:full": "Star City, Unit 29, Watson Road, Birmingham, B7 5SA", "addr:postcode": "B7 5SA", "name": "Vue Birmingham", "website": "https://www.myvue.com/cinema/birmingham", "brand": "Vue Cinemas", "brand:wikidata": "Q2535134", "nsi_id": "vue-05c111"}, "geometry": {"type": "Point", "coordinates": [-1.85671, 52.50581]}},
{"type": "Feature", "id": "ZtC0QFccsB1WHMg7ZqMLxhKQcT8=", "properties": {"ref": "birkenhead", "@spider": "vue_cinemas", "amenity": "cinema", "addr:full": "Europa Boulevard, Conway Park, Birkenhead, CH41 4PE", "addr:postcode": "CH41 4PE", "name": "Vue Birkenhead", "website": "https://www.myvue.com/cinema/birkenhead", "brand": "Vue Cinemas", "brand:wikidata": "Q2535134", "nsi_id": "vue-05c111"}, "geometry": {"type": "Point", "coordinates": [-3.02214, 53.3925]}},
{"type": "Feature", "id": "2dp2GYV2ExGmxGy6BK8IuPewBFQ=", "properties": {"ref": "bicester", "@spider": "vue_cinemas", "amenity": "cinema", "addr:full": "Pioneer Centre, Bure Place, Bicester, OX26 6FA", "addr:postcode": "OX26 6FA", "name": "Vue Bicester", "website": "https://www.myvue.com/cinema/bicester", "brand": "Vue Cinemas", "brand:wikidata": "Q2535134", "nsi_id": "vue-05c111"}, "geometry": {"type": "Point", "coordinates": [-1.14932, 51.904814]}},
{"type": "Feature", "id": "qEdycg_2I8_6HNyGldP5xJKt7M4=", "properties": {"ref": "bedford", "@spider": "vue_cinemas", "amenity": "cinema", "addr:full": "Riverside Square, Unit 4, Bedford, MK40 1AS", "addr:postcode": "MK40 1AS", "name": "Vue Bedford", "website": "https://www.myvue.com/cinema/bedford", "brand": "Vue Cinemas", "brand:wikidata": "Q2535134", "nsi_id": "vue-05c111"}, "geometry": {"type": "Point", "coordinates": [-0.469561, 52.134855]}},
{"type": "Feature", "id": "vuuXX2KtD4f3sfvwv8rTLJxncHY=", "properties": {"ref": "basingstoke-festival-place", "@spider": "vue_cinemas", "amenity": "cinema", "addr:full": "Festival Place, New Market Square, Basingstoke, RG21 7BB", "addr:postcode": "RG21 7BB", "name": "Vue Basingstoke Festival Place", "website": "https://www.myvue.com/cinema/basingstoke-festival-place", "brand": "Vue Cinemas", "brand:wikidata": "Q2535134", "nsi_id": "vue-05c111"}, "geometry": {"type": "Point", "coordinates": [-1.08446, 51.26551]}},
{"type": "Feature", "id": "DMOdGLlrebLMc0mQ-L4Ft15FWqw=", "properties": {"ref": "barrow", "@spider": "vue_cinemas", "amenity": "cinema", "addr:full": "Hollywood Park, Hindpool Road, Barrow-in-Furness, LA14 2NA", "addr:postcode": "LA14 2NA", "name": "Vue Barrow", "website": "https://www.myvue.com/cinema/barrow", "brand": "Vue Cinemas", "brand:wikidata": "Q2535134", "nsi_id": "vue-05c111"}, "geometry": {"type": "Point", "coordinates": [-3.2385211, 54.1147728]}},
{"type": "Feature", "id": "o-8pL9xLrPsK0TJrcQ25klxHHfo=", "properties": {"ref": "ashbourne", "@spider": "vue_cinemas", "amenity": "cinema", "addr:full": "Ashbourne Retail Park, Rath, Ashbourne, A84 YX83", "addr:postcode": "A84 YX83", "name": "Vue Ashbourne", "website": "https://www.myvue.com/cinema/ashbourne", "brand": "Vue Cinemas", "brand:wikidata": "Q2535134", "nsi_id": "vue-05c111"}, "geometry": {"type": "Point", "coordinates": [-6.414302, 53.522018]}},
{"type": "Feature", "id": "dI98NZl2a5JxQjw-NpEwwWmg4w4=", "properties": {"ref": "altrincham", "@spider": "vue_cinemas", "amenity": "cinema", "addr:full": "Vue Altrincham, Denmark Street, Altrincham, WA14 2WG", "addr:postcode": "WA14 2WG", "name": "Vue Altrincham", "website": "https://www.myvue.com/cinema/altrincham", "brand": "Vue Cinemas", "brand:wikidata": "Q2535134", "nsi_id": "vue-05c111"}, "geometry": {"type": "Point", "coordinates": [-2.349406, 53.3853645]}},
{"type": "Feature", "id": "M-jM3NjXdjHVma82n3wSBN7_8kk=", "properties": {"ref": "accrington", "@spider": "vue_cinemas", "amenity": "cinema", "addr:full": "The Viaduct, Hyndburn Road, Accrington, BB5 1QF", "addr:postcode": "BB5 1QF", "name": "Vue Accrington", "website": "https://www.myvue.com/cinema/accrington", "brand": "Vue Cinemas", "brand:wikidata": "Q2535134", "nsi_id": "vue-05c111"}, "geometry": {"type": "Point", "coordinates": [-2.37008, 53.75265]}},
{"type": "Feature", "id": "7OfqLVdJGefH0OuV2m-QrzYiEhk=", "properties": {"ref": "aberdeen", "@spider": "vue_cinemas", "amenity": "cinema", "addr:full": "Lighthouse Cinema, 10 Ship Row, Aberdeen, AB11 5BW", "addr:postcode": "AB11 5BW", "name": "Vue Aberdeen", "website": "https://www.myvue.com/cinema/aberdeen", "brand": "Vue Cinemas", "brand:wikidata": "Q2535134", "nsi_id": "vue-05c111"}, "geometry": {"type": "Point", "coordinates": [-2.094701, 57.147407]}},
{"type": "Feature", "id": "Xe-1tHZnH-FJJaT3JAnr9GiurRw=", "properties": {"ref": "cardiff", "@spider": "vue_cinemas", "amenity": "cinema", "addr:full": "Stadium Plaza, Wood Street, Cardiff, CF10 1LA", "addr:postcode": "CF10 1LA", "name": "Vue Cardiff", "website": "https://www.myvue.com/cinema/cardiff", "brand": "Vue Cinemas", "brand:wikidata": "Q2535134", "nsi_id": "vue-05c111"}, "geometry": {"type": "Point", "coordinates": [-3.18145, 51.47683]}},
{"type": "Feature", "id": "HM048Ci_3xsc9U7T3_CmO2mSS3E=", "properties": {"ref": "cambridge", "@spider": "vue_cinemas", "amenity": "cinema", "addr:full": "The Grafton Centre, East Road, Cambridge, CB1 1PS", "addr:postcode": "CB1 1PS", "name": "Vue Cambridge", "website": "https://www.myvue.com/cinema/cambridge", "brand": "Vue Cinemas", "brand:wikidata": "Q2535134", "nsi_id": "vue-05c111"}, "geometry": {"type": "Point", "coordinates": [0.13327, 52.2066]}},
{"type": "Feature", "id": "8AP252K_6f8llnsbN-78Kd02ZcE=", "properties": {"ref": "worcester", "@spider": "vue_cinemas", "amenity": "cinema", "addr:full": "49 - 55 Friar Street, Worcester, WR1 2NA", "addr:postcode": "WR1 2NA", "name": "Vue Worcester", "website": "https://www.myvue.com/cinema/worcester", "brand": "Vue Cinemas", "brand:wikidata": "Q2535134", "nsi_id": "vue-05c111"}, "geometry": {"type": "Point", "coordinates": [-2.21859, 52.18938]}},
{"type": "Feature", "id": "lSwzkgY3zhsxK_FWnjXR_wmstiM=", "properties": {"ref": "york", "@spider": "vue_cinemas", "amenity": "cinema", "addr:full": "Clifton Moor Centre, Stirling Road, York, YO30 4XY", "addr:postcode": "YO30 4XY", "name": "York", "website": "https://www.myvue.com/cinema/york", "brand": "Vue Cinemas", "brand:wikidata": "Q2535134", "nsi_id": "vue-05c111"}, "geometry": {"type": "Point", "coordinates": [-1.10202, 53.99051]}},
{"type": "Feature", "id": "4IyI4Q1KsTrJyD_Y86XBqPSyNPY=", "properties": {"ref": "watford", "@spider": "vue_cinemas", "amenity": "cinema", "addr:full": "Woodside Leisure Park, North Orbital Road, Garston, Hertfordshire, WD25 7JZ", "addr:postcode": "WD25 7JZ", "name": "Vue Watford", "website": "https://www.myvue.com/cinema/watford", "brand": "Vue Cinemas", "brand:wikidata": "Q2535134", "nsi_id": "vue-05c111"}, "geometry": {"type": "Point", "coordinates": [-0.39449, 51.69264]}},
{"type": "Feature", "id": "Xqt_Od4kaCakAwd4hNGJutoigz4=", "properties": {"ref": "torbay", "@spider": "vue_cinemas", "amenity": "cinema", "addr:full": "The Esplanade, Paignton, TQ4 6AG", "addr:postcode": "TQ4 6AG", "name": "Vue Torbay", "website": "https://www.myvue.com/cinema/torbay", "brand": "Vue Cinemas", "brand:wikidata": "Q2535134", "nsi_id": "vue-05c111"}, "geometry": {"type": "Point", "coordinates": [-3.55932, 50.4353027]}},
{"type": "Feature", "id": "yLxHey1Kj33fHepSrmo2weRU4Ws=", "properties": {"ref": "thurrock", "@spider": "vue_cinemas", "amenity": "cinema", "addr:full": "Lakeside Shopping Centre, West Thurrock, Essex, RM20 2ZW", "addr:postcode": "RM20 2ZW", "name": "Vue Thurrock", "website": "https://www.myvue.com/cinema/thurrock", "brand": "Vue Cinemas", "brand:wikidata": "Q2535134", "nsi_id": "vue-05c111"}, "geometry": {"type": "Point", "coordinates": [1.39335, 51.35695]}},
{"type": "Feature", "id": "5BATbZrCHu6IFueMQ9Kh1XMXFyw=", "properties": {"ref": "thanet", "@spider": "vue_cinemas", "amenity": "cinema", "addr:full": "Westwood Cross, Thanet, Kent, CT10 2BF", "addr:postcode": "CT10 2BF", "name": "Vue Westwood Cross, Thanet", "website": "https://www.myvue.com/cinema/thanet", "brand": "Vue Cinemas", "brand:wikidata": "Q2535134", "nsi_id": "vue-05c111"}, "geometry": {"type": "Point", "coordinates": [1.39335, 51.35695]}},
{"type": "Feature", "id": "zaf0Mpm1H3NYp1ji0rk8MFXgylE=", "properties": {"ref": "swansea", "@spider": "vue_cinemas", "amenity": "cinema", "addr:full": "Vue Swansea, York Street, Swansea, SA1 3LZ", "addr:postcode": "SA1 3LZ", "name": "Vue Swansea", "website": "https://www.myvue.com/cinema/swansea", "brand": "Vue Cinemas", "brand:wikidata": "Q2535134", "nsi_id": "vue-05c111"}, "geometry": {"type": "Point", "coordinates": [-3.93933, 51.61809]}},
{"type": "Feature", "id": "wehUuZ1WQTp5G4mRARGbqVNHXJI=", "properties": {"ref": "stroud", "@spider": "vue_cinemas", "amenity": "cinema", "addr:full": "Merrywalks Centre, 19-20 Merrywalks, Stroud, GL5 1RY", "addr:postcode": "GL5 1RY", "name": "Vue Stroud", "website": "https://www.myvue.com/cinema/stroud", "brand": "Vue Cinemas", "brand:wikidata": "Q2535134", "nsi_id": "vue-05c111"}, "geometry": {"type": "Point", "coordinates": [-2.217932, 51.7463951]}},
{"type": "Feature", "id": "juootKcZ9ubTrKAvewh1shCIwXM=", "properties": {"ref": "stirling", "@spider": "vue_cinemas", "amenity": "cinema", "addr:full": "Forthside Way, Stirling, FK8 1QZ", "addr:postcode": "FK8 1QZ", "name": "Vue Stirling", "website": "https://www.myvue.com/cinema/stirling", "brand": "Vue Cinemas", "brand:wikidata": "Q2535134", "nsi_id": "vue-05c111"}, "geometry": {"type": "Point", "coordinates": [-3.93023, 56.11772]}},
{"type": "Feature", "id": "I4nVYBL3vXPJGut7CFdQrG0B-Cs=", "properties": {"ref": "staines", "@spider": "vue_cinemas", "amenity": "cinema", "addr:full": "Two Rivers, Mustard Mill Road, Staines, TW18 4BL", "addr:postcode": "TW18 4BL", "name": "Vue Staines", "website": "https://www.myvue.com/cinema/staines", "brand": "Vue Cinemas", "brand:wikidata": "Q2535134", "nsi_id": "vue-05c111"}, "geometry": {"type": "Point", "coordinates": [-0.51236, 51.43433]}},
{"type": "Feature", "id": "9SRpZNr2Sl5faX9bpe7APQ7W1JY=", "properties": {"ref": "southport", "@spider": "vue_cinemas", "amenity": "cinema", "addr:full": "Ocean Plaza, Marine Drive, Southport, PR8 1SQ", "addr:postcode": "PR8 1SQ", "name": "Vue Southport", "website": "https://www.myvue.com/cinema/southport", "brand": "Vue Cinemas", "brand:wikidata": "Q2535134", "nsi_id": "vue-05c111"}, "geometry": {"type": "Point", "coordinates": [-3.01146, 53.65409]}},
{"type": "Feature", "id": "UfDyKwnCAfaaaQewmxVPvbrCJ3M=", "properties": {"ref": "sheffield", "@spider": "vue_cinemas", "amenity": "cinema", "addr:full": "Meadowhall Centre, Sheffield, S9 1EP", "addr:postcode": "S9 1EP", "name": "Vue Sheffield", "website": "https://www.myvue.com/cinema/sheffield", "brand": "Vue Cinemas", "brand:wikidata": "Q2535134", "nsi_id": "vue-05c111"}, "geometry": {"type": "Point", "coordinates": [-1.41246, 53.41306]}},
{"type": "Feature", "id": "LlzKIfoVnodEqIq5MeXtNps5Py4=", "properties": {"ref": "scunthorpe", "@spider": "vue_cinemas", "amenity": "cinema", "addr:full": "1 Fenton Street, Scunthorpe, DN15 6QX", "addr:postcode": "DN15 6QX", "name": "Vue Scunthorpe", "website": "https://www.myvue.com/cinema/scunthorpe", "brand": "Vue Cinemas", "brand:wikidata": "Q2535134", "nsi_id": "vue-05c111"}, "geometry": {"type": "Point", "coordinates": [-0.64482, 53.59094]}},
{"type": "Feature", "id": "wqgxCHBiKgTqa6d8Z-cPoo1nNF4=", "properties": {"ref": "romford", "@spider": "vue_cinemas", "amenity": "cinema", "addr:full": "1-15 The Brewery, Romford, Essex, RM1 1AU", "addr:postcode": "RM1 1AU", "name": "Vue Romford", "website": "https://www.myvue.com/cinema/romford", "brand": "Vue Cinemas", "brand:wikidata": "Q2535134", "nsi_id": "vue-05c111"}, "geometry": {"type": "Point", "coordinates": [0.18058, 51.57623]}},
{"type": "Feature", "id": "ovmd-b74hw9dFiaYl91XOTdKuW8=", "properties": {"ref": "rhyl", "@spider": "vue_cinemas", "amenity": "cinema", "addr:full": "The Village, West Parade, Rhyl, LL18 1HB", "addr:postcode": "LL18 1HB", "name": "Vue Rhyl", "website": "https://www.myvue.com/cinema/rhyl", "brand": "Vue Cinemas", "brand:wikidata": "Q2535134", "nsi_id": "vue-05c111"}, "geometry": {"type": "Point", "coordinates": [-3.4953051, 53.3216591]}},
{"type": "Feature", "id": "6495pB2fBn_Czvmr9R3iwxBrJpc=", "properties": {"ref": "redditch", "@spider": "vue_cinemas", "amenity": "cinema", "addr:full": "Unit 1 Leisure Level, Kingfisher Centre, Redditch, B97 4EQ", "addr:postcode": "B97 4EQ", "name": "Vue Redditch", "website": "https://www.myvue.com/cinema/redditch", "brand": "Vue Cinemas", "brand:wikidata": "Q2535134", "nsi_id": "vue-05c111"}, "geometry": {"type": "Point", "coordinates": [-1.9436513, 52.3060608]}},
{"type": "Feature", "id": "c3-zxmetGES_Ux1_9RFj9pCpuDg=", "properties": {"ref": "reading", "@spider": "vue_cinemas", "amenity": "cinema", "addr:full": "The Oracle Centre, Off Mill Lane North, Reading, RG1 2AG", "addr:postcode": "RG1 2AG", "name": "Vue Reading", "website": "https://www.myvue.com/cinema/reading", "brand": "Vue Cinemas", "brand:wikidata": "Q2535134", "nsi_id": "vue-05c111"}, "geometry": {"type": "Point", "coordinates": [-0.9713, 51.45364]}},
{"type": "Feature", "id": "d6j_cDy6JY8sCNq__SbyZquOA7w=", "properties": {"ref": "preston", "@spider": "vue_cinemas", "amenity": "cinema", "addr:full": "The Capitol Centre, London Way, Walton-Le-Dale, Preston, PR5 4AW", "addr:postcode": "PR5 4AW", "name": "Vue Preston", "website": "https://www.myvue.com/cinema/preston", "brand": "Vue Cinemas", "brand:wikidata": "Q2535134", "nsi_id": "vue-05c111"}, "geometry": {"type": "Point", "coordinates": [-2.67922, 53.74874]}},
{"type": "Feature", "id": "XT8siFL7HhqL77iWs_lg5mPzZHM=", "properties": {"ref": "portsmouth", "@spider": "vue_cinemas", "amenity": "cinema", "addr:full": "Gunwharf Quays, Portsmouth, PO1 3TA", "addr:postcode": "PO1 3TA", "name": "Vue Portsmouth", "website": "https://www.myvue.com/cinema/portsmouth", "brand": "Vue Cinemas", "brand:wikidata": "Q2535134", "nsi_id": "vue-05c111"}, "geometry": {"type": "Point", "coordinates": [-1.10397, 50.79453]}},
{"type": "Feature", "id": "6WiEmquA_iwkuODwk7TjDFjh5qE=", "properties": {"ref": "plymouth", "@spider": "vue_cinemas", "amenity": "cinema", "addr:full": "Barbican Leisure Park, Shapters Road, Coxside, Plymouth, PL4 0LG", "addr:postcode": "PL4 0LG", "name": "Vue Plymouth", "website": "https://www.myvue.com/cinema/plymouth", "brand": "Vue Cinemas", "brand:wikidata": "Q2535134", "nsi_id": "vue-05c111"}, "geometry": {"type": "Point", "coordinates": [-4.12537, 50.36705]}},
{"type": "Feature", "id": "mP5l-ARmQlXL7fsn6PGx-9nmt4w=", "properties": {"ref": "oxford", "@spider": "vue_cinemas", "amenity": "cinema", "addr:full": "Ozone Leisure Park, Grenoble Road, Oxford, OX4 4XP", "addr:postcode": "OX4 4XP", "name": "Vue Oxford", "website": "https://www.myvue.com/cinema/oxford", "brand": "Vue Cinemas", "brand:wikidata": "Q2535134", "nsi_id": "vue-05c111"}, "geometry": {"type": "Point", "coordinates": [-1.20806, 51.71592]}},
{"type": "Feature", "id": "yjmB9sEhpqncYT2f3PsWmPPalW4=", "properties": {"ref": "norwich", "@spider": "vue_cinemas", "amenity": "cinema", "addr:full": "Castle Mall, Norwich, NR1 3DF", "addr:postcode": "NR1 3DF", "name": "Vue Norwich", "website": "https://www.myvue.com/cinema/norwich", "brand": "Vue Cinemas", "brand:wikidata": "Q2535134", "nsi_id": "vue-05c111"}, "geometry": {"type": "Point", "coordinates": [1.29592, 52.62664]}},
{"type": "Feature", "id": "HhMlMkDH7sBtINH2-UDtwQI49eY=", "properties": {"ref": "northampton", "@spider": "vue_cinemas", "amenity": "cinema", "addr:full": "Sol Central, Doddridge Street, Northampton, NN1 2RN", "addr:postcode": "NN1 2RN", "name": "Vue Northampton", "website": "https://www.myvue.com/cinema/northampton", "brand": "Vue Cinemas", "brand:wikidata": "Q2535134", "nsi_id": "vue-05c111"}, "geometry": {"type": "Point", "coordinates": [-0.90266, 52.23794]}},
{"type": "Feature", "id": "siI-p6nxj6oYVqDGjmwcWkCIS64=", "properties": {"ref": "newcastle-under-lyme", "@spider": "vue_cinemas", "amenity": "cinema", "addr:full": "The Square, Market Arcade, High Street, Newcastle-under-Lyme, ST5 1PT", "addr:postcode": "ST5 1PT", "name": "Vue Newcastle-under-Lyme", "website": "https://www.myvue.com/cinema/newcastle-under-lyme", "brand": "Vue Cinemas", "brand:wikidata": "Q2535134", "nsi_id": "vue-05c111"}, "geometry": {"type": "Point", "coordinates": [-2.22575, 53.00948]}},
{"type": "Feature", "id": "91s_JG13Xrzazifm_yf5PWcfADM=", "properties": {"ref": "newbury", "@spider": "vue_cinemas", "amenity": "cinema", "addr:full": "The Kennet Centre, Newbury, RG14 5EN", "addr:postcode": "RG14 5EN", "name": "Vue Newbury", "website": "https://www.myvue.com/cinema/newbury", "brand": "Vue Cinemas", "brand:wikidata": "Q2535134", "nsi_id": "vue-05c111"}, "geometry": {"type": "Point", "coordinates": [-1.32405, 51.40002]}},
{"type": "Feature", "id": "U5aqw2vHim_GauZZxg0Yr8e4pGU=", "properties": {"ref": "merthyr-tydfil", "@spider": "vue_cinemas", "amenity": "cinema", "addr:full": "Merthyr Tydfil Leisure Village, Merthyr Tydfil, CF48 1UT", "addr:postcode": "CF48 1UT", "name": "Vue Merthyr Tydfil", "website": "https://www.myvue.com/cinema/merthyr-tydfil", "brand": "Vue Cinemas", "brand:wikidata": "Q2535134", "nsi_id": "vue-05c111"}, "geometry": {"type": "Point", "coordinates": [-3.37708, 51.74072]}},
{"type": "Feature", "id": "SiyVjzqPGYTLq0CuI9-Znh9n9Ng=", "properties": {"ref": "manchester", "@spider": "vue_cinemas", "amenity": "cinema", "addr:full": "Vue Manchester Quayside MCUK, The Quays, Salford Quays, Salford, M50 3AH", "addr:postcode": "M50 3AH", "name": "Vue Manchester Quayside", "website": "https://www.myvue.com/cinema/manchester", "brand": "Vue Cinemas", "brand:wikidata": "Q2535134", "nsi_id": "vue-05c111"}, "geometry": {"type": "Point", "coordinates": [-2.80012, 54.04942]}},
{"type": "Feature", "id": "6r2BmLzvhT2f9Fe3rm1PXBZaTb8=", "properties": {"ref": "manchester-printworks", "@spider": "vue_cinemas", "amenity": "cinema", "addr:full": "The Printworks, 27 Withy Grove, Manchester, M4 2BS", "addr:postcode": "M4 2BS", "name": "Vue Manchester Printworks", "website": "https://www.myvue.com/cinema/manchester-printworks", "brand": "Vue Cinemas", "brand:wikidata": "Q2535134", "nsi_id": "vue-05c111"}, "geometry": {"type": "Point", "coordinates": [-2.2401776, 53.4854422]}},
{"type": "Feature", "id": "xinkit1wkHo7bLso1QJ1ybVRaiQ=", "properties": {"ref": "wood-green", "@spider": "vue_cinemas", "amenity": "cinema", "addr:full": "Hollywood Green, 180 High Road, Wood Green, London, N22 6EJ", "addr:postcode": "N22 6EJ", "name": "Vue Wood Green", "website": "https://www.myvue.com/cinema/wood-green", "brand": "Vue Cinemas", "brand:wikidata": "Q2535134", "nsi_id": "vue-05c111"}, "geometry": {"type": "Point", "coordinates": [-0.10866, 51.59696]}},
{"type": "Feature", "id": "GlETaHXv8a0PG3h1rUscyqU7JiY=", "properties": {"ref": "westfield", "@spider": "vue_cinemas", "amenity": "cinema", "addr:full": "Westfield London, Ariel Way, London, W12 7GF", "addr:postcode": "W12 7GF", "name": "Vue Westfield London", "website": "https://www.myvue.com/cinema/westfield", "brand": "Vue Cinemas", "brand:wikidata": "Q2535134", "nsi_id": "vue-05c111"}, "geometry": {"type": "Point", "coordinates": [-0.220016, 51.507447]}},
{"type": "Feature", "id": "b7q720DG1zdMbjqkDAk0MKviCPI=", "properties": {"ref": "westfield-stratford-city", "@spider": "vue_cinemas", "amenity": "cinema", "addr:full": "2 Stratford Place, Stratford, London, E20 1EJ", "addr:postcode": "E20 1EJ", "name": "Vue Westfield Stratford City", "website": "https://www.myvue.com/cinema/westfield-stratford-city", "brand": "Vue Cinemas", "brand:wikidata": "Q2535134", "nsi_id": "vue-05c111"}, "geometry": {"type": "Point", "coordinates": [-0.007671, 51.542872]}},
{"type": "Feature", "id": "YUIMscPA7jdkBjuJFTLAGRAdf8g=", "properties": {"ref": "leicester-square", "@spider": "vue_cinemas", "amenity": "cinema", "addr:full": "3 Cranbourn Street, Leicester Square, London, WC2H 7AL", "addr:postcode": "WC2H 7AL", "name": "Vue West End", "website": "https://www.myvue.com/cinema/leicester-square", "brand": "Vue Cinemas", "brand:wikidata": "Q2535134", "nsi_id": "vue-05c111"}, "geometry": {"type": "Point", "coordinates": [-0.12953, 51.51152]}},
{"type": "Feature", "id": "FIQaB2rq547m8cS_9eh0i14IgFc=", "properties": {"ref": "shepherds-bush", "@spider": "vue_cinemas", "amenity": "cinema", "addr:full": "West 12 Shopping Centre, Shepherd's Bush Green, London, W12 8PP", "addr:postcode": "W12 8PP", "name": "Vue Shepherd's Bush", "website": "https://www.myvue.com/cinema/shepherds-bush", "brand": "Vue Cinemas", "brand:wikidata": "Q2535134", "nsi_id": "vue-05c111"}, "geometry": {"type": "Point", "coordinates": [-0.21877, 51.50376]}},
{"type": "Feature", "id": "jKTC-Zuqkjw6-I9xWcgpzTg66fk=", "properties": {"ref": "piccadilly", "@spider": "vue_cinemas", "amenity": "cinema", "addr:full": "19 Lower Regent Street, London, SW1Y 4LR", "addr:postcode": "SW1Y 4LR", "name": "Vue Piccadilly", "website": "https://www.myvue.com/cinema/piccadilly", "brand": "Vue Cinemas", "brand:wikidata": "Q2535134", "nsi_id": "vue-05c111"}, "geometry": {"type": "Point", "coordinates": [-0.13411, 51.5084496]}},
{"type": "Feature", "id": "GN4ZSphLBkXNqC5iB7Y9cMg0EBw=", "properties": {"ref": "north-finchley", "@spider": "vue_cinemas", "amenity": "cinema", "addr:full": "Great North Leisure Park, Chaplin Square, London, N12 0GL", "addr:postcode": "N12 0GL", "name": "Vue North Finchley", "website": "https://www.myvue.com/cinema/north-finchley", "brand": "Vue Cinemas", "brand:wikidata": "Q2535134", "nsi_id": "vue-05c111"}, "geometry": {"type": "Point", "coordinates": [-0.17309, 51.60393]}},
{"type": "Feature", "id": "X87TMWuw8zWzyF_qsCMaOvZd1Io=", "properties": {"ref": "islington", "@spider": "vue_cinemas", "amenity": "cinema", "addr:full": "Angel Central, 36 Parkfield Street, Islington, N1 0PS", "addr:postcode": "N1 0PS", "name": "Vue Islington", "website": "https://www.myvue.com/cinema/islington", "brand": "Vue Cinemas", "brand:wikidata": "Q2535134", "nsi_id": "vue-05c111"}, "geometry": {"type": "Point", "coordinates": [-0.10657, 51.53446]}},
{"type": "Feature", "id": "oz-Ryq77llHcP_UAJe9oT9S9KPs=", "properties": {"ref": "fulham-broadway", "@spider": "vue_cinemas", "amenity": "cinema", "addr:full": "Fulham Broadway Retail Centre, Fulham Road, London, SW6 1BW", "addr:postcode": "SW6 1BW", "name": "Vue Fulham Broadway", "website": "https://www.myvue.com/cinema/fulham-broadway", "brand": "Vue Cinemas", "brand:wikidata": "Q2535134", "nsi_id": "vue-05c111"}, "geometry": {"type": "Point", "coordinates": [-0.1944, 51.48055]}},
{"type": "Feature", "id": "QkE1n_AW-XSSWVuiC58Cv6Ar9pk=", "properties": {"ref": "finchley-road", "@spider": "vue_cinemas", "amenity": "cinema", "addr:full": "O2 Centre, 255 Finchley Road, London, NW3 6LU", "addr:postcode": "NW3 6LU", "name": "Vue Finchley Road (O2 Centre)", "website": "https://www.myvue.com/cinema/finchley-road", "brand": "Vue Cinemas", "brand:wikidata": "Q2535134", "nsi_id": "vue-05c111"}, "geometry": {"type": "Point", "coordinates": [-0.181415, 51.547954]}},
{"type": "Feature", "id": "_fPkovQ-kcxWhCZKbAlDpeVrxp4=", "properties": {"ref": "livingston", "@spider": "vue_cinemas", "amenity": "cinema", "addr:full": "McArthur Glen Designer Outlet, Almondvale Avenue, Livingston, EH54 6QX", "addr:postcode": "EH54 6QX", "name": "Vue Livingston", "website": "https://www.myvue.com/cinema/livingston", "brand": "Vue Cinemas", "brand:wikidata": "Q2535134", "nsi_id": "vue-05c111"}, "geometry": {"type": "Point", "coordinates": [-3.51984, 55.88248]}},
{"type": "Feature", "id": "c6zm-jHqWaW8Ljh0YFl7S72I854=", "properties": {"ref": "limerick", "@spider": "vue_cinemas", "amenity": "cinema", "addr:full": "7-9 Ennis Road Retail Park, Ennis Road, Limerick, V94 K240", "addr:postcode": "V94 K240", "name": "Vue Limerick", "website": "https://www.myvue.com/cinema/limerick", "brand": "Vue Cinemas", "brand:wikidata": "Q2535134", "nsi_id": "vue-05c111"}, "geometry": {"type": "Point", "coordinates": [-8.659877, 52.668328]}},
{"type": "Feature", "id": "2vi0Upi2SMmfTGEKOTCbtEKDDsY=", "properties": {"ref": "leicester", "@spider": "vue_cinemas", "amenity": "cinema", "addr:full": "Meridian Leisure Park, Lubbesthorpe Way, Braunstone, Leicester, LE19 1JZ", "addr:postcode": "LE19 1JZ", "name": "Vue Leicester", "website": "https://www.myvue.com/cinema/leicester", "brand": "Vue Cinemas", "brand:wikidata": "Q2535134", "nsi_id": "vue-05c111"}, "geometry": {"type": "Point", "coordinates": [-1.1868, 52.61442]}},
{"type": "Feature", "id": "-QfmiUM--xEhTHdUd7bp0hR5JzE=", "properties": {"ref": "leeds-the-light", "@spider": "vue_cinemas", "amenity": "cinema", "addr:full": "No. 22, The Light, The Headrow, Leeds, LS1 8TL", "addr:postcode": "LS1 8TL", "name": "Vue Leeds The Light", "website": "https://www.myvue.com/cinema/leeds-the-light", "brand": "Vue Cinemas", "brand:wikidata": "Q2535134", "nsi_id": "vue-05c111"}, "geometry": {"type": "Point", "coordinates": [-1.54564, 53.80006]}},
{"type": "Feature", "id": "wsImNEAjq-N-58xiQOO1wgeZdD8=", "properties": {"ref": "leeds-kirkstall-road", "@spider": "vue_cinemas", "amenity": "cinema", "addr:full": "Cardigan Fields, Kirkstall Road, Leeds, LS4 2DG", "addr:postcode": "LS4 2DG", "name": "Vue Leeds Kirkstall Road", "website": "https://www.myvue.com/cinema/leeds-kirkstall-road", "brand": "Vue Cinemas", "brand:wikidata": "Q2535134", "nsi_id": "vue-05c111"}, "geometry": {"type": "Point", "coordinates": [-1.58334, 53.80438]}},
{"type": "Feature", "id": "aDe7LRjLhVLf2zAnkb2A-K4medc=", "properties": {"ref": "leamington-spa", "@spider": "vue_cinemas", "amenity": "cinema", "addr:full": "Portland Place, Leamington Spa, CV32 5ET", "addr:postcode": "CV32 5ET", "name": "Vue Leamington Spa", "website": "https://www.myvue.com/cinema/leamington-spa", "brand": "Vue Cinemas", "brand:wikidata": "Q2535134", "nsi_id": "vue-05c111"}, "geometry": {"type": "Point", "coordinates": [-1.5394059, 52.2890549]}},
{"type": "Feature", "id": "2jKW7KO6hoVIQVDmUpKCLzOUNME=", "properties": {"ref": "lancaster", "@spider": "vue_cinemas", "amenity": "cinema", "addr:full": "Church Street, Lancaster, LA1 1LP", "addr:postcode": "LA1 1LP", "name": "Vue Lancaster", "website": "https://www.myvue.com/cinema/lancaster", "brand": "Vue Cinemas", "brand:wikidata": "Q2535134", "nsi_id": "vue-05c111"}, "geometry": {"type": "Point", "coordinates": [-2.80012, 54.04942]}},
{"type": "Feature", "id": "hvmsbRVUYN69kAmNtVSx2CRxqSE=", "properties": {"ref": "inverness", "@spider": "vue_cinemas", "amenity": "cinema", "addr:full": "Inverness Retail & Business Park, Eastfield Way, Inverness, IV2 7GD", "addr:postcode": "IV2 7GD", "name": "Vue Inverness", "website": "https://www.myvue.com/cinema/inverness", "brand": "Vue Cinemas", "brand:wikidata": "Q2535134", "nsi_id": "vue-05c111"}, "geometry": {"type": "Point", "coordinates": [-4.17696, 57.48148]}},
{"type": "Feature", "id": "1PIyi2iulr2G9c5RLKem9nLAGgc=", "properties": {"ref": "hull-princes-quay", "@spider": "vue_cinemas", "amenity": "cinema", "addr:full": "Princes Quay Shopping Centre, Princess Quay, Hull, HU1 2PQ", "addr:postcode": "HU1 2PQ", "name": "Vue Hull Princes Quay", "website": "https://www.myvue.com/cinema/hull-princes-quay", "brand": "Vue Cinemas", "brand:wikidata": "Q2535134", "nsi_id": "vue-05c111"}, "geometry": {"type": "Point", "coordinates": [-0.33917, 53.74212]}},
{"type": "Feature", "id": "iomjKu4sy4NpG1ZIIpXPhuqVPUQ=", "properties": {"ref": "hartlepool", "@spider": "vue_cinemas", "amenity": "cinema", "addr:full": "The Lanyard, Marina Way, Hartlepool, TS24 0XS", "addr:postcode": "TS24 0XS", "name": "Vue Hartlepool", "website": "https://www.myvue.com/cinema/hartlepool", "brand": "Vue Cinemas", "brand:wikidata": "Q2535134", "nsi_id": "vue-05c111"}, "geometry": {"type": "Point", "coordinates": [-1.20735, 54.68729]}},
{"type": "Feature", "id": "RzLRK3lNw1WbUat4sfNP7AfXMSQ=", "properties": {"ref": "harrow", "@spider": "vue_cinemas", "amenity": "cinema", "addr:full": "St George's Shopping & Leisure Centre, St Anne's Road, London, HA1 1HS", "addr:postcode": "HA1 1HS", "name": "Vue Harrow", "website": "https://www.myvue.com/cinema/harrow", "brand": "Vue Cinemas", "brand:wikidata": "Q2535134", "nsi_id": "vue-05c111"}, "geometry": {"type": "Point", "coordinates": [-0.33882, 51.58145]}},
{"type": "Feature", "id": "OSL0oUMQzL7X-hDew4tvF6bpnhY=", "properties": {"ref": "hamilton", "@spider": "vue_cinemas", "amenity": "cinema", "addr:full": "Palace Towers, Palace Grounds Road, Hamilton, ML3 6AD", "addr:postcode": "ML3 6AD", "name": "Vue Hamilton", "website": "https://www.myvue.com/cinema/hamilton", "brand": "Vue Cinemas", "brand:wikidata": "Q2535134", "nsi_id": "vue-05c111"}, "geometry": {"type": "Point", "coordinates": [-4.02934, 55.77845]}},
{"type": "Feature", "id": "EpciAosnCHcxksRcScnRYXwk-S8=", "properties": {"ref": "halifax", "@spider": "vue_cinemas", "amenity": "cinema", "addr:full": "6 Broad Street, Halifax, HX1 1UX", "addr:postcode": "HX1 1UX", "name": "Vue Halifax", "website": "https://www.myvue.com/cinema/halifax", "brand": "Vue Cinemas", "brand:wikidata": "Q2535134", "nsi_id": "vue-05c111"}, "geometry": {"type": "Point", "coordinates": [-1.862244, 53.724082]}},
{"type": "Feature", "id": "x-XVnE69Tluqd_xmZ4hbLKfVUww=", "properties": {"ref": "glasgow-st-enoch", "@spider": "vue_cinemas", "amenity": "cinema", "addr:full": "St Enoch Centre, 55 St Enoch Square, Glasgow, G1 4BW", "addr:postcode": "G1 4BW", "name": "Vue Glasgow St Enoch", "website": "https://www.myvue.com/cinema/glasgow-st-enoch", "brand": "Vue Cinemas", "brand:wikidata": "Q2535134", "nsi_id": "vue-05c111"}, "geometry": {"type": "Point", "coordinates": [-4.252941, 55.856764]}},
{"type": "Feature", "id": "-tjfD3ZSmP0Dnrj9tZzXiEw0hsg=", "properties": {"ref": "glasgow-fort", "@spider": "vue_cinemas", "amenity": "cinema", "addr:full": "Glasgow Fort Shopping Park, Junction 10 M8, Glasgow, G34 9DL", "addr:postcode": "G34 9DL", "name": "Vue Glasgow Fort", "website": "https://www.myvue.com/cinema/glasgow-fort", "brand": "Vue Cinemas", "brand:wikidata": "Q2535134", "nsi_id": "vue-05c111"}, "geometry": {"type": "Point", "coordinates": [-4.134936, 55.871338]}},
{"type": "Feature", "id": "vQgdIgYRLwzvyWGGcVzCQHmPv6U=", "properties": {"ref": "gateshead", "@spider": "vue_cinemas", "amenity": "cinema", "addr:full": "Trinity Square, Gateshead Tyne and Wear, NE8 1AG", "addr:postcode": "NE8 1AG", "name": "Vue Gateshead", "website": "https://www.myvue.com/cinema/gateshead", "brand": "Vue Cinemas", "brand:wikidata": "Q2535134", "nsi_id": "vue-05c111"}, "geometry": {"type": "Point", "coordinates": [-1.6022, 54.9626999]}},
{"type": "Feature", "id": "b2HVpSjFPmiMVEmoLf6IGrKA_mI=", "properties": {"ref": "farnborough", "@spider": "vue_cinemas", "amenity": "cinema", "addr:full": "Kingsmead Shopping Centre, Queensmead, Farnborough, GU14 7SR", "addr:postcode": "GU14 7SR", "name": "Vue Farnborough", "website": "https://www.myvue.com/cinema/farnborough", "brand": "Vue Cinemas", "brand:wikidata": "Q2535134", "nsi_id": "vue-05c111"}, "geometry": {"type": "Point", "coordinates": [-0.75448, 51.292463]}},
{"type": "Feature", "id": "SAmkaZbMld3L4b-QQerBz26aMsg=", "properties": {"ref": "exeter", "@spider": "vue_cinemas", "amenity": "cinema", "addr:full": "Summerland Gate, Cheeke Street, Exeter, EX1 2DD", "addr:postcode": "EX1 2DD", "name": "Vue Exeter", "website": "https://www.myvue.com/cinema/exeter", "brand": "Vue Cinemas", "brand:wikidata": "Q2535134", "nsi_id": "vue-05c111"}, "geometry": {"type": "Point", "coordinates": [-3.5237, 50.7261]}},
{"type": "Feature", "id": "PHyQbCax-84PDEPJDXzDi3huvp0=", "properties": {"ref": "eltham", "@spider": "vue_cinemas", "amenity": "cinema", "addr:full": "174 Eltham High Street, Eltham, SE9 1BJ", "addr:postcode": "SE9 1BJ", "name": "Eltham", "website": "https://www.myvue.com/cinema/eltham", "brand": "Vue Cinemas", "brand:wikidata": "Q2535134", "nsi_id": "vue-05c111"}, "geometry": {"type": "Point", "coordinates": [0.05667, 51.45071]}},
{"type": "Feature", "id": "yVOHGztOSHw1S-pIii8WJk4kJZk=", "properties": {"ref": "edinburgh-omni-centre", "@spider": "vue_cinemas", "amenity": "cinema", "addr:full": "Omni Leisure Building, Greenside Place, 61/11 Leith Street, Edinburgh, EH1 3AU", "addr:postcode": "EH1 3AU", "name": "Vue Edinburgh Omni Centre", "website": "https://www.myvue.com/cinema/edinburgh-omni-centre", "brand": "Vue Cinemas", "brand:wikidata": "Q2535134", "nsi_id": "vue-05c111"}, "geometry": {"type": "Point", "coordinates": [-3.18502, 55.95703]}},
{"type": "Feature", "id": "fTErbjvXmdgMf9O6qdJAjk2o0tU=", "properties": {"ref": "edinburgh-ocean-terminal", "@spider": "vue_cinemas", "amenity": "cinema", "addr:full": "Ocean Terminal, Ocean Drive, Victoria Dock. Leith, Edinburgh, EH6 6JJ", "addr:postcode": "EH6 6JJ", "name": "Vue Edinburgh Ocean Terminal", "website": "https://www.myvue.com/cinema/edinburgh-ocean-terminal", "brand": "Vue Cinemas", "brand:wikidata": "Q2535134", "nsi_id": "vue-05c111"}, "geometry": {"type": "Point", "coordinates": [-3.17697, 55.98144]}},
{"type": "Feature", "id": "j_4O3-afvvXXOxvmDP8XqtYGG84=", "properties": {"ref": "eastleigh", "@spider": "vue_cinemas", "amenity": "cinema", "addr:full": "Swan Centre, Wells Place, Eastleigh, SO50 5SF", "addr:postcode": "SO50 5SF", "name": "Vue Eastleigh", "website": "https://www.myvue.com/cinema/eastleigh", "brand": "Vue Cinemas", "brand:wikidata": "Q2535134", "nsi_id": "vue-05c111"}, "geometry": {"type": "Point", "coordinates": [-1.35387, 50.96678]}},
{"type": "Feature", "id": "xKAr1qy1mp1lOfqn2tgF2WG2q2o=", "properties": {"ref": "dublin", "@spider": "vue_cinemas", "amenity": "cinema", "addr:full": "Liffey Valley Shopping Centre, Fonthill Road, Clondalkin, Dublin, 22", "addr:postcode": "22", "name": "Vue Dublin", "website": "https://www.myvue.com/cinema/dublin", "brand": "Vue Cinemas", "brand:wikidata": "Q2535134", "nsi_id": "vue-05c111"}, "geometry": {"type": "Point", "coordinates": [-6.3944, 53.3521]}},
{"type": "Feature", "id": "4-Hr4qUxQdrD52PH4vbnV6S7N4c=", "properties": {"ref": "doncaster", "@spider": "vue_cinemas", "amenity": "cinema", "addr:full": "Doncaster Leisure Park, Herten Way, Bawtry Road, Doncaster, DN4 7NW", "addr:postcode": "DN4 7NW", "name": "Vue Doncaster", "website": "https://www.myvue.com/cinema/doncaster", "brand": "Vue Cinemas", "brand:wikidata": "Q2535134", "nsi_id": "vue-05c111"}, "geometry": {"type": "Point", "coordinates": [-1.09941, 53.51548]}},
{"type": "Feature", "id": "9S-DyWBnzUWKx13Vkmw0E4tRiv0=", "properties": {"ref": "darlington", "@spider": "vue_cinemas", "amenity": "cinema", "addr:full": "DL1, Darlington, DL1 5AD", "addr:postcode": "DL1 5AD", "name": "Vue Darlington", "website": "https://www.myvue.com/cinema/darlington", "brand": "Vue Cinemas", "brand:wikidata": "Q2535134", "nsi_id": "vue-05c111"}, "geometry": {"type": "Point", "coordinates": [-1.5495055, 54.5212689]}},
{"type": "Feature", "id": "KR0ftKGIjAQ1qYYItwUz_sKGPlY=", "properties": {"ref": "dagenham", "@spider": "vue_cinemas", "amenity": "cinema", "addr:full": "Dagenham Leisure Park, Cook Road, Essex, RM9 6UQ", "addr:postcode": "RM9 6UQ", "name": "Vue Dagenham", "website": "https://www.myvue.com/cinema/dagenham", "brand": "Vue Cinemas", "brand:wikidata": "Q2535134", "nsi_id": "vue-05c111"}, "geometry": {"type": "Point", "coordinates": [0.13581, 51.53256]}},
{"type": "Feature", "id": "BxF0UWHzun0kMisFKqH0X795QFs=", "properties": {"ref": "cwmbran", "@spider": "vue_cinemas", "amenity": "cinema", "addr:full": "Glyndwr Road, Cwmbran, Gwent, NP44 1QS", "addr:postcode": "NP44 1QS", "name": "Vue Cwmbran", "website": "https://www.myvue.com/cinema/cwmbran", "brand": "Vue Cinemas", "brand:wikidata": "Q2535134", "nsi_id": "vue-05c111"}, "geometry": {"type": "Point", "coordinates": [-3.01955, 51.65529]}},
{"type": "Feature", "id": "mgJ8jyAoaduLepk9mVyvCVFNHWw=", "properties": {"ref": "croydon-purley-way", "@spider": "vue_cinemas", "amenity": "cinema", "addr:full": "Valley Park Leisure Complex, 21 Hesterman Way, Croydon, CR0 4YA", "addr:postcode": "CR0 4YA", "name": "Vue Croydon Purley Way", "website": "https://www.myvue.com/cinema/croydon-purley-way", "brand": "Vue Cinemas", "brand:wikidata": "Q2535134", "nsi_id": "vue-05c111"}, "geometry": {"type": "Point", "coordinates": [-0.12492, 51.37868]}},
{"type": "Feature", "id": "0_WnMloSneZERAMe_ySQmntIvfI=", "properties": {"ref": "croydon-grants", "@spider": "vue_cinemas", "amenity": "cinema", "addr:full": "14 High Street, Croydon, Surrey, CR0 1GT", "addr:postcode": "CR0 1GT", "name": "Vue Croydon Grant's", "website": "https://www.myvue.com/cinema/croydon-grants", "brand": "Vue Cinemas", "brand:wikidata": "Q2535134", "nsi_id": "vue-05c111"}, "geometry": {"type": "Point", "coordinates": [-0.10106, 51.37296]}},
{"type": "Feature", "id": "SAG3ZZt6otmjaeCeNi5zaADWn3g=", "properties": {"ref": "cramlington", "@spider": "vue_cinemas", "amenity": "cinema", "addr:full": "Manor Walks, Cramlington, NE23 6UT", "addr:postcode": "NE23 6UT", "name": "Vue Cramlington", "website": "https://www.myvue.com/cinema/cramlington", "brand": "Vue Cinemas", "brand:wikidata": "Q2535134", "nsi_id": "vue-05c111"}, "geometry": {"type": "Point", "coordinates": [-1.587936, 55.085303]}},
{"type": "Feature", "id": "YMU4tbwoLB-Ay7TFwIdT-sDjnic=", "properties": {"ref": "cleveleys", "@spider": "vue_cinemas", "amenity": "cinema", "addr:full": "North Prominade, Thornton-Cleveleys, Lancashire, FY5 1DB", "addr:postcode": "FY5 1DB", "name": "Vue Cleveleys", "website": "https://www.myvue.com/cinema/cleveleys", "brand": "Vue Cinemas", "brand:wikidata": "Q2535134", "nsi_id": "vue-05c111"}, "geometry": {"type": "Point", "coordinates": [-3.0465, 53.8831]}},
{"type": "Feature", "id": "r_NC-rLaCkt0bDw4y61Y65TT46Q=", "properties": {"ref": "cheshire-oaks", "@spider": "vue_cinemas", "amenity": "cinema", "addr:full": "Stanney Lane, Ellesmere Port, South Wirral, CH65 9HD", "addr:postcode": "CH65 9HD", "name": "Vue Cheshire Oaks", "website": "https://www.myvue.com/cinema/cheshire-oaks", "brand": "Vue Cinemas", "brand:wikidata": "Q2535134", "nsi_id": "vue-05c111"}, "geometry": {"type": "Point", "coordinates": [-2.88613, 53.26471]}},
{"type": "Feature", "id": "Fk4MGXsz20SXVPavSXRN8K9ZWW8=", "properties": {"ref": "carmarthen", "@spider": "vue_cinemas", "amenity": "cinema", "addr:full": "Unit B, St Catherine's Walk, Carmarthen, SA31 1GA", "addr:postcode": "SA31 1GA", "name": "Vue Carmarthen", "website": "https://www.myvue.com/cinema/carmarthen", "brand": "Vue Cinemas", "brand:wikidata": "Q2535134", "nsi_id": "vue-05c111"}, "geometry": {"type": "Point", "coordinates": [-4.308998, 51.858487]}},
{"type": "Feature", "id": "w47KxqyhctHLpOggUHBWkvAjl98=", "properties": {"ref": "carlisle", "@spider": "vue_cinemas", "amenity": "cinema", "addr:full": "50 Botchergate, Carlisle, CA1 1QS", "addr:postcode": "CA1 1QS", "name": "Vue Carlisle", "website": "https://www.myvue.com/cinema/carlisle", "brand": "Vue Cinemas", "brand:wikidata": "Q2535134", "nsi_id": "vue-05c111"}, "geometry": {"type": "Point", "coordinates": [-2.93145, 54.89089]}},
{"type": "Feature", "id": "gSV7xDa5EVGAvKt0z_MJ97Y_Rnw=", "properties": {"ref": "camberley", "@spider": "vue_cinemas", "amenity": "cinema", "addr:full": "The Atrium, Park Street, Camberley, GU15 3PL", "addr:postcode": "GU15 3PL", "name": "Vue Camberley", "website": "https://www.myvue.com/cinema/camberley", "brand": "Vue Cinemas", "brand:wikidata": "Q2535134", "nsi_id": "vue-05c111"}, "geometry": {"type": "Point", "coordinates": [-0.74847, 51.33841]}},
{"type": "Feature", "id": "m6MKQNRgXeW75gzlg-hnNJKCx68=", "properties": {"ref": "bury-the-rock", "@spider": "vue_cinemas", "amenity": "cinema", "addr:full": "Vue Bury The Rock, 9 Rock PLace, Bury, BL9 0YB", "addr:postcode": "BL9 0YB", "name": "Vue Bury The Rock", "website": "https://www.myvue.com/cinema/bury-the-rock", "brand": "Vue Cinemas", "brand:wikidata": "Q2535134", "nsi_id": "vue-05c111"}, "geometry": {"type": "Point", "coordinates": [-2.296314, 53.594033]}},
{"type": "Feature", "id": "BoGDV3QSazh8wF0T38bm48C7xlo=", "properties": {"ref": "bromley", "@spider": "vue_cinemas", "amenity": "cinema", "addr:full": "6 St Mark's Square, Bromley, BR2 9UY", "addr:postcode": "BR2 9UY", "name": "Bromley", "website": "https://www.myvue.com/cinema/bromley", "brand": "Vue Cinemas", "brand:wikidata": "Q2535134", "nsi_id": "vue-05c111"}, "geometry": {"type": "Point", "coordinates": [0.01535, 51.39964]}}]}