{"type":"FeatureCollection","features":[{"type": "Feature", "id": "VrXn9GlXysWDW2XkQ3IYL-x6jlA=", "properties": {"ref": "https://www.wagamama.com/restaurants/#14010050", "@spider": "wagamama_gb", "amenity": "restaurant", "cuisine": "asian", "addr:street_address": "6 eagle lane northern retail corner", "addr:city": "bracknell", "addr:state": "berkshire", "addr:postcode": "RG12 1BG", "addr:country": "GB", "name": "bracknell", "phone": "01344 379025", "website": "https://www.wagamama.com/restaurants/bracknell/bracknell", "opening_hours": "Mo-Th 11:00-22:00; Fr-Sa 11:00-23:00; Su 11:00-22:00", "image": "https://dynl.mktgcdn.com/p/lLqs5wEbzdgELrtmDh7Wxwsm9or0blEg05DuAy6Sg5w/450x450.jpg", "brand": "Wagamama", "brand:wikidata": "Q503715", "nsi_id": "wagamama-2fabb0"}, "geometry": {"type": "Point", "coordinates": [-0.7507756, 51.4173645]}},
{"type": "Feature", "id": "MufAmBTFxE6PncNV6taL2XrWcI0=", "properties": {"ref": "https://www.wagamama.com/restaurants/#14010125", "@spider": "wagamama_gb", "amenity": "restaurant", "cuisine": "asian", "addr:street_address": "31-32 westover road", "addr:city": "bournemouth", "addr:state": "dorset", "addr:postcode": "BH1 2BZ", "addr:country": "GB", "name": "bournemouth", "phone": "01202 296850", "website": "https://www.wagamama.com/restaurants/bournemouth/bournemouth", "opening_hours": "Mo-Th 11:00-22:00; Fr-Sa 11:00-23:00; Su 11:00-22:00", "image": "https://dynl.mktgcdn.com/p/lLqs5wEbzdgELrtmDh7Wxwsm9or0blEg05DuAy6Sg5w/450x450.jpg", "brand": "Wagamama", "brand:wikidata": "Q503715", "nsi_id": "wagamama-2fabb0"}, "geometry": {"type": "Point", "coordinates": [-1.8749593286891013, 50.71869410645357]}},
{"type": "Feature", "id": "9rqqiyxXZw8c54RibDK8pxZ4WsM=", "properties": {"ref": "https://www.wagamama.com/restaurants/#14010159", "@spider": "wagamama_gb", "amenity": "restaurant", "cuisine": "asian", "addr:street_address": "unit 20, the linkway horwich", "addr:city": "bolton", "addr:state": "greater manchester", "addr:postcode": "BL6 6JA", "addr:country": "GB", "name": "bolton", "phone": "01204 866456", "website": "https://www.wagamama.com/restaurants/bolton/bolton", "opening_hours": "Mo-We 11:00-22:00; Th-Sa 11:00-23:00; Su 11:00-22:00", "image": "https://dynl.mktgcdn.com/p/lLqs5wEbzdgELrtmDh7Wxwsm9or0blEg05DuAy6Sg5w/450x450.jpg", "brand": "Wagamama", "brand:wikidata": "Q503715", "nsi_id": "wagamama-2fabb0"}, "geometry": {"type": "Point", "coordinates": [-2.53479, 53.58362]}},
{"type": "Feature", "id": "DrXYogHv3We3mMX05iQQNbpEUDc=", "properties": {"ref": "https://www.wagamama.com/restaurants/#14010016", "@spider": "wagamama_gb", "amenity": "restaurant", "cuisine": "asian", "addr:street_address": "unit 3c merchant gate riverside square", "addr:city": "bedford", "addr:state": "bedfordshire", "addr:postcode": "MK40 1AS", "addr:country": "GB", "name": "bedford", "phone": "01234 331346", "website": "https://www.wagamama.com/restaurants/bedford/bedford", "opening_hours": "Mo-Th 11:00-22:00; Fr-Sa 11:00-23:00; Su 11:00-22:00", "image": "https://dynl.mktgcdn.com/p/lLqs5wEbzdgELrtmDh7Wxwsm9or0blEg05DuAy6Sg5w/450x450.jpg", "brand": "Wagamama", "brand:wikidata": "Q503715", "nsi_id": "wagamama-2fabb0"}, "geometry": {"type": "Point", "coordinates": [-0.4686721, 52.1347123]}},
{"type": "Feature", "id": "9_0QAKDEuU2PUiM7RtR0g5n3uzY=", "properties": {"ref": "https://www.wagamama.com/restaurants/#14010127", "@spider": "wagamama_gb", "amenity": "restaurant", "cuisine": "asian", "addr:street_address": "1 york buildings george street", "addr:city": "bath city centre", "addr:state": "somerset", "addr:postcode": "BA1 2EB", "addr:country": "GB", "name": "bath", "phone": "01225 337314", "website": "https://www.wagamama.com/restaurants/bath/bath", "opening_hours": "Mo-Th 11:00-22:00; Fr-Sa 11:00-23:00; Su 11:00-22:00", "image": "https://dynl.mktgcdn.com/p/lLqs5wEbzdgELrtmDh7Wxwsm9or0blEg05DuAy6Sg5w/450x450.jpg", "brand": "Wagamama", "brand:wikidata": "Q503715", "nsi_id": "wagamama-2fabb0"}, "geometry": {"type": "Point", "coordinates": [-2.360877897264345, 51.38497871883752]}},
{"type": "Feature", "id": "DpOfYrYlbSSP3b8AGfZG3gF8jS0=", "properties": {"ref": "https://www.wagamama.com/restaurants/#14010012", "@spider": "wagamama_gb", "amenity": "restaurant", "cuisine": "asian", "addr:street_address": "r10 lower ground festival place", "addr:city": "basingstoke", "addr:state": "hampshire", "addr:postcode": "RG21 7BE", "addr:country": "GB", "name": "basingstoke", "phone": "01256 869665", "website": "https://www.wagamama.com/restaurants/basingstoke/basingstoke", "opening_hours": "Mo-Th 11:00-22:00; Fr-Sa 11:00-23:00; Su 11:00-22:00", "image": "https://dynl.mktgcdn.com/p/lLqs5wEbzdgELrtmDh7Wxwsm9or0blEg05DuAy6Sg5w/450x450.jpg", "brand": "Wagamama", "brand:wikidata": "Q503715", "nsi_id": "wagamama-2fabb0"}, "geometry": {"type": "Point", "coordinates": [-1.0845852123031818, 51.26468448251797]}},
{"type": "Feature", "id": "RVSE3VAMffyMGglyKtWVjztdBW8=", "properties": {"ref": "https://www.wagamama.com/restaurants/#14969553", "@spider": "wagamama_gb", "amenity": "restaurant", "cuisine": "asian", "addr:street_address": "unit 10 festival leisure park", "addr:city": "basildon", "addr:state": "essex", "addr:postcode": "SS14 3WB", "addr:country": "GB", "name": "basildon", "phone": "01268 385000", "website": "https://www.wagamama.com/restaurants/basildon/basildon-essex", "opening_hours": "Mo-Th 11:00-22:00; Fr-Sa 11:00-23:00; Su 11:00-22:00", "image": "https://dynl.mktgcdn.com/p/lLqs5wEbzdgELrtmDh7Wxwsm9or0blEg05DuAy6Sg5w/450x450.jpg", "brand": "Wagamama", "brand:wikidata": "Q503715", "nsi_id": "wagamama-2fabb0"}, "geometry": {"type": "Point", "coordinates": [0.46234352513124577, 51.58475685419111]}},
{"type": "Feature", "id": "_oHTgJG-O_jbroBymoc3xGuBrso=", "properties": {"ref": "https://www.wagamama.com/restaurants/#14010126", "@spider": "wagamama_gb", "amenity": "restaurant", "cuisine": "asian", "addr:street_address": "unit 3 exchange st the exchange", "addr:city": "aylesbury exchange st", "addr:state": "buckinghamshire", "addr:postcode": "HP20 1UR", "addr:country": "GB", "name": "aylesbury", "phone": "01296 331494", "website": "https://www.wagamama.com/restaurants/aylesbury/aylesbury", "opening_hours": "Mo-Th 11:00-22:00; Fr-Sa 11:00-23:00; Su 11:00-22:00", "image": "https://dynl.mktgcdn.com/p/lLqs5wEbzdgELrtmDh7Wxwsm9or0blEg05DuAy6Sg5w/450x450.jpg", "brand": "Wagamama", "brand:wikidata": "Q503715", "nsi_id": "wagamama-2fabb0"}, "geometry": {"type": "Point", "coordinates": [-0.8109741693115211, 51.81546603341897]}},
{"type": "Feature", "id": "gAt0Spy7MAXi-bffgufybY5FnwU=", "properties": {"ref": "https://www.wagamama.com/restaurants/#40284579", "@spider": "wagamama_gb", "amenity": "restaurant", "cuisine": "asian", "addr:street_address": "unit 2, fold way ashton-under-lyne", "addr:city": "ashton", "addr:postcode": "OL7 0PG", "addr:country": "GB", "name": "ashton moss", "phone": "0161 388 2036", "website": "https://www.wagamama.com/restaurants/ashton/unit-2-fold-way", "opening_hours": "Mo-Th 11:00-22:00; Fr-Sa 11:00-23:00; Su 11:00-22:00", "image": "https://dynl.mktgcdn.com/p/ii5hSy172ufQXjVvcKivZ08L1shunkrute07FLm61XY/450x450.jpg", "brand": "Wagamama", "brand:wikidata": "Q503715", "nsi_id": "wagamama-2fabb0"}, "geometry": {"type": "Point", "coordinates": [-2.111593, 53.48913049999999]}},
{"type": "Feature", "id": "o_sQmBBmiWk9haYlvUNu2ZesjOo=", "properties": {"ref": "https://www.wagamama.com/restaurants/#14010051", "@spider": "wagamama_gb", "amenity": "restaurant", "cuisine": "asian", "addr:street_address": "47-48 kimberley way ashford designer outlet", "addr:city": "ashford", "addr:state": "kent", "addr:postcode": "TN24 0SD", "addr:country": "GB", "name": "ashford", "phone": "01233 631319", "website": "https://www.wagamama.com/restaurants/ashford/ashford", "opening_hours": "Mo-Su 11:00-21:00", "image": "https://dynl.mktgcdn.com/p/lLqs5wEbzdgELrtmDh7Wxwsm9or0blEg05DuAy6Sg5w/450x450.jpg", "brand": "Wagamama", "brand:wikidata": "Q503715", "nsi_id": "wagamama-2fabb0"}, "geometry": {"type": "Point", "coordinates": [0.878724723217374, 51.13791415197626]}},
{"type": "Feature", "id": "YI7EVXoH2SXASuq0LxiLY3n4hjY=", "properties": {"ref": "https://www.wagamama.com/restaurants/#14010025", "@spider": "wagamama_gb", "amenity": "restaurant", "cuisine": "asian", "addr:street_address": "unit 12/12a east midlands designer outlet mansfield road", "addr:city": "alfreton south normanton", "addr:state": "derbyshire", "addr:postcode": "DE55 2JW", "addr:country": "GB", "name": "east midlands", "phone": "01773 851096", "website": "https://www.wagamama.com/restaurants/alfreton/east-midlands", "opening_hours": "Mo-Sa 11:00-21:00; Su 11:00-18:00", "image": "https://dynl.mktgcdn.com/p/lLqs5wEbzdgELrtmDh7Wxwsm9or0blEg05DuAy6Sg5w/450x450.jpg", "brand": "Wagamama", "brand:wikidata": "Q503715", "nsi_id": "wagamama-2fabb0"}, "geometry": {"type": "Point", "coordinates": [-1.3095913, 53.1076287]}},
{"type": "Feature", "id": "as7D2aptCvLSfoSEFjkfbXYzjsQ=", "properties": {"ref": "https://www.wagamama.com/restaurants/#14010089", "@spider": "wagamama_gb", "amenity": "restaurant", "cuisine": "asian", "addr:street_address": "20 upper level mall guild square", "addr:city": "aberdeen", "addr:state": "Aberdeen City", "addr:postcode": "AB11 5RG", "addr:country": "GB", "name": "aberdeen", "phone": "01224 593056", "website": "https://www.wagamama.com/restaurants/aberdeen/aberdeen", "opening_hours": "Mo-Su 11:00-22:00", "image": "https://dynl.mktgcdn.com/p/lLqs5wEbzdgELrtmDh7Wxwsm9or0blEg05DuAy6Sg5w/450x450.jpg", "brand": "Wagamama", "brand:wikidata": "Q503715", "nsi_id": "wagamama-2fabb0"}, "geometry": {"type": "Point", "coordinates": [-2.0968734918855034, 57.14292110161165]}},
{"type": "Feature", "id": "kj0K_gRAIC9IPBCu3DXIGAY6EKw=", "properties": {"ref": "https://www.wagamama.com/restaurants/#14010017", "@spider": "wagamama_gb", "amenity": "restaurant", "cuisine": "asian", "addr:street_address": "argus lofts kensington street", "addr:city": "brighton", "addr:state": "east sussex", "addr:postcode": "BN1 4AJ", "addr:country": "GB", "name": "brighton", "phone": "01273 688892", "website": "https://www.wagamama.com/restaurants/brighton/brighton", "opening_hours": "Mo-Th 11:00-22:00; Fr-Sa 11:00-23:00; Su 11:00-22:00", "image": "https://dynl.mktgcdn.com/p/lLqs5wEbzdgELrtmDh7Wxwsm9or0blEg05DuAy6Sg5w/450x450.jpg", "brand": "Wagamama", "brand:wikidata": "Q503715", "nsi_id": "wagamama-2fabb0"}, "geometry": {"type": "Point", "coordinates": [-0.1383333, 50.8256358]}},
{"type": "Feature", "id": "I15WCcyP67_fH264gt-OOdnW-tA=", "properties": {"ref": "https://www.wagamama.com/restaurants/#14010044", "@spider": "wagamama_gb", "amenity": "restaurant", "cuisine": "asian", "addr:street_address": "31 high street windsor", "addr:city": "windsor", "addr:state": "berkshire", "addr:postcode": "SL4 1PH", "addr:country": "GB", "name": "windsor", "phone": "01753 833105", "website": "https://www.wagamama.com/restaurants/windsor/windsor", "opening_hours": "Mo-Th 11:00-22:00; Fr-Sa 11:00-23:00; Su 11:00-22:00", "image": "https://dynl.mktgcdn.com/p/lLqs5wEbzdgELrtmDh7Wxwsm9or0blEg05DuAy6Sg5w/450x450.jpg", "brand": "Wagamama", "brand:wikidata": "Q503715", "nsi_id": "wagamama-2fabb0"}, "geometry": {"type": "Point", "coordinates": [-0.6083293681278974, 51.48277712847934]}},
{"type": "Feature", "id": "rrqdY4zompH9BiTnqdoD89whM_Y=", "properties": {"ref": "https://www.wagamama.com/restaurants/#14010123", "@spider": "wagamama_gb", "amenity": "restaurant", "cuisine": "asian", "addr:street_address": "30-31 jewry street", "addr:city": "winchester", "addr:state": "hampshire", "addr:postcode": "SO23 8RY", "addr:country": "GB", "name": "winchester", "phone": "01962 896234", "website": "https://www.wagamama.com/restaurants/winchester/winchester", "opening_hours": "Mo-Th 11:00-22:00; Fr-Sa 11:00-23:00; Su 11:00-22:00", "image": "https://dynl.mktgcdn.com/p/lLqs5wEbzdgELrtmDh7Wxwsm9or0blEg05DuAy6Sg5w/450x450.jpg", "brand": "Wagamama", "brand:wikidata": "Q503715", "nsi_id": "wagamama-2fabb0"}, "geometry": {"type": "Point", "coordinates": [-1.3156201890529928, 51.064487580946114]}},
{"type": "Feature", "id": "n3YfmrVbwJlq4Wv4hd53NoBGyP0=", "properties": {"ref": "https://www.wagamama.com/restaurants/#14010084", "@spider": "wagamama_gb", "amenity": "restaurant", "cuisine": "asian", "addr:street_address": "king street met quarter", "addr:city": "watford", "addr:postcode": "WD17 2EN", "addr:country": "GB", "name": "watford", "phone": "01923 252530", "website": "https://www.wagamama.com/restaurants/watford/watford", "opening_hours": "Mo-Th 11:00-22:00; Fr-Sa 11:00-23:00; Su 11:00-22:00", "image": "https://dynl.mktgcdn.com/p/lLqs5wEbzdgELrtmDh7Wxwsm9or0blEg05DuAy6Sg5w/450x450.jpg", "brand": "Wagamama", "brand:wikidata": "Q503715", "nsi_id": "wagamama-2fabb0"}, "geometry": {"type": "Point", "coordinates": [-0.3940532135235344, 51.65376265185289]}},
{"type": "Feature", "id": "Y8c4gauqTasfOyE1ZjCx8vJMnsQ=", "properties": {"ref": "https://www.wagamama.com/restaurants/#14010151", "@spider": "wagamama_gb", "amenity": "restaurant", "cuisine": "asian", "addr:street_address": "new zealand ave the heart", "addr:city": "walton-on-thames", "addr:postcode": "KT12 1GH", "addr:country": "GB", "name": "walton-on-thames", "phone": "01932 260664", "website": "https://www.wagamama.com/restaurants/walton-on-thames/walton-on-thames", "opening_hours": "Mo-Su 12:00-22:00", "image": "https://dynl.mktgcdn.com/p/lLqs5wEbzdgELrtmDh7Wxwsm9or0blEg05DuAy6Sg5w/450x450.jpg", "brand": "Wagamama", "brand:wikidata": "Q503715", "nsi_id": "wagamama-2fabb0"}, "geometry": {"type": "Point", "coordinates": [-0.420733, 51.3845614]}},
{"type": "Feature", "id": "-FgscshcVg9uNBPjl-YI8EriSpc=", "properties": {"ref": "https://www.wagamama.com/restaurants/#14010015", "@spider": "wagamama_gb", "amenity": "restaurant", "cuisine": "asian", "addr:street_address": "the bullring shopping centre, st martin's square edgbaston st", "addr:city": "birmingham", "addr:state": "west midlands", "addr:postcode": "B5 4QL", "addr:country": "GB", "name": "birmingham bullring", "phone": "0121 633 3033", "website": "https://www.wagamama.com/restaurants/birmingham/birmingham-bullring", "opening_hours": "Mo-Th 11:00-22:00; Fr-Sa 11:00-23:00; Su 11:00-22:00", "image": "https://dynl.mktgcdn.com/p/lLqs5wEbzdgELrtmDh7Wxwsm9or0blEg05DuAy6Sg5w/450x450.jpg", "brand": "Wagamama", "brand:wikidata": "Q503715", "nsi_id": "wagamama-2fabb0"}, "geometry": {"type": "Point", "coordinates": [-1.8940217, 52.4767531]}},
{"type": "Feature", "id": "D-d9cMCpYgYiSxreKYPFrxy_7OM=", "properties": {"ref": "https://www.wagamama.com/restaurants/#14010090", "@spider": "wagamama_gb", "amenity": "restaurant", "cuisine": "asian", "addr:street_address": "98 new st", "addr:city": "birmingham", "addr:state": "west midlands", "addr:postcode": "B2 4HS", "addr:country": "GB", "name": "birmingham new street", "phone": "0121 296 1378", "website": "https://www.wagamama.com/restaurants/birmingham/birmingham-new-street", "opening_hours": "Mo-Th 11:00-22:00; Fr-Sa 11:00-23:00; Su 11:00-22:00", "image": "https://dynl.mktgcdn.com/p/lLqs5wEbzdgELrtmDh7Wxwsm9or0blEg05DuAy6Sg5w/450x450.jpg", "brand": "Wagamama", "brand:wikidata": "Q503715", "nsi_id": "wagamama-2fabb0"}, "geometry": {"type": "Point", "coordinates": [-1.9008779, 52.4791942]}},
{"type": "Feature", "id": "OaO58z95uredTaf6bFNiEjQ4XeU=", "properties": {"ref": "https://www.wagamama.com/restaurants/#14010091", "@spider": "wagamama_gb", "amenity": "restaurant", "cuisine": "asian", "addr:street_address": "113-115 waters edge unit 15f", "addr:city": "birmingham", "addr:state": "west midlands", "addr:postcode": "B1 2HL", "addr:country": "GB", "name": "birmingham brindley place", "phone": "0121 643 7656", "website": "https://www.wagamama.com/restaurants/birmingham/birmingham-brindley-place", "opening_hours": "Mo-Th 11:00-22:00; Fr-Sa 11:00-23:00; Su 11:00-22:00", "image": "https://dynl.mktgcdn.com/p/lLqs5wEbzdgELrtmDh7Wxwsm9or0blEg05DuAy6Sg5w/450x450.jpg", "brand": "Wagamama", "brand:wikidata": "Q503715", "nsi_id": "wagamama-2fabb0"}, "geometry": {"type": "Point", "coordinates": [-1.9120063746649976, 52.478199009171064]}},
{"type": "Feature", "id": "C-PABrAuYmMCRdx1vx-eelQPga8=", "properties": {"ref": "https://www.wagamama.com/restaurants/#23875591", "@spider": "wagamama_gb", "amenity": "restaurant", "cuisine": "asian", "addr:street_address": "unit 22, walthamstow business centre clifford road", "addr:city": "walthamstow", "addr:state": "london", "addr:postcode": "E17 4SX", "addr:country": "GB", "name": "walthamstow delivery kitchen", "phone": "020 3148 2539", "website": "https://www.wagamama.com/restaurants/walthamstow/walthamstow-delivery-kitchen", "opening_hours": "Mo-Su 11:00-22:00", "image": "https://dynl.mktgcdn.com/p/ii5hSy172ufQXjVvcKivZ08L1shunkrute07FLm61XY/450x450.jpg", "brand": "Wagamama", "brand:wikidata": "Q503715", "nsi_id": "wagamama-2fabb0"}, "geometry": {"type": "Point", "coordinates": [-0.006127750375557461, 51.59332505453091]}},
{"type": "Feature", "id": "ulbfbeM-qlDKmy_6fytD3xqSJv4=", "properties": {"ref": "https://www.wagamama.com/restaurants/#14010120", "@spider": "wagamama_gb", "amenity": "restaurant", "cuisine": "asian", "addr:street_address": "201-203 high st the chimes", "addr:city": "uxbridge", "addr:postcode": "UB8 1LB", "addr:country": "GB", "name": "uxbridge", "phone": "01895 262983", "website": "https://www.wagamama.com/restaurants/uxbridge/uxbridge", "opening_hours": "Mo-Th 11:00-22:00; Fr-Sa 11:00-23:00; Su 11:00-22:00", "image": "https://dynl.mktgcdn.com/p/lLqs5wEbzdgELrtmDh7Wxwsm9or0blEg05DuAy6Sg5w/450x450.jpg", "brand": "Wagamama", "brand:wikidata": "Q503715", "nsi_id": "wagamama-2fabb0"}, "geometry": {"type": "Point", "coordinates": [-0.4764564, 51.5449339]}},
{"type": "Feature", "id": "fPitVTpH18XIxkZsQ6PfWaRBfEw=", "properties": {"ref": "https://www.wagamama.com/restaurants/#14010119", "@spider": "wagamama_gb", "amenity": "restaurant", "cuisine": "asian", "addr:street_address": "st stephen place leisure park st stephen place", "addr:city": "trowbridge", "addr:state": "wiltshire", "addr:postcode": "BA14 8AH", "addr:country": "GB", "name": "trowbridge", "phone": "01225 300289", "website": "https://www.wagamama.com/restaurants/trowbridge/trowbridge", "opening_hours": "Mo-Th 11:00-22:00; Fr-Sa 11:00-23:00; Su 11:00-22:00", "image": "https://dynl.mktgcdn.com/p/lLqs5wEbzdgELrtmDh7Wxwsm9or0blEg05DuAy6Sg5w/450x450.jpg", "brand": "Wagamama", "brand:wikidata": "Q503715", "nsi_id": "wagamama-2fabb0"}, "geometry": {"type": "Point", "coordinates": [-2.2062642788902167, 51.31811125930088]}},
{"type": "Feature", "id": "FGKBuSIbXWM_eu-pwGRaZcaT8-w=", "properties": {"ref": "https://www.wagamama.com/restaurants/#14010141", "@spider": "wagamama_gb", "amenity": "restaurant", "cuisine": "asian", "addr:street_address": "unit 5 the boardwalk lakeside shopping centre", "addr:city": "thurrock west thurrock way", "addr:state": "essex", "addr:postcode": "RM20 2ZN", "addr:country": "GB", "name": "lakeside", "phone": "01708 861570", "website": "https://www.wagamama.com/restaurants/thurrock/lakeside", "opening_hours": "Mo-Sa 11:00-22:00; Su 11:00-21:00", "image": "https://dynl.mktgcdn.com/p/lLqs5wEbzdgELrtmDh7Wxwsm9or0blEg05DuAy6Sg5w/450x450.jpg", "brand": "Wagamama", "brand:wikidata": "Q503715", "nsi_id": "wagamama-2fabb0"}, "geometry": {"type": "Point", "coordinates": [0.2815027374343799, 51.48721589781632]}},
{"type": "Feature", "id": "NszF0Ch_HTAJOopDxXeGsPc6nkA=", "properties": {"ref": "https://www.wagamama.com/restaurants/#28388790", "@spider": "wagamama_gb", "amenity": "restaurant", "cuisine": "asian", "addr:street_address": "unit 7 southwater sq", "addr:city": "telford", "addr:postcode": "TF3 4DQ", "addr:country": "GB", "name": "telford", "phone": "01952 797665", "website": "https://www.wagamama.com/restaurants/telford/telford", "opening_hours": "Mo-Th 11:00-22:00; Fr-Sa 11:00-23:00; Su 11:00-22:00", "image": "https://dynl.mktgcdn.com/p/ii5hSy172ufQXjVvcKivZ08L1shunkrute07FLm61XY/450x450.jpg", "brand": "Wagamama", "brand:wikidata": "Q503715", "nsi_id": "wagamama-2fabb0"}, "geometry": {"type": "Point", "coordinates": [-2.4475860256125404, 52.67343212252732]}},
{"type": "Feature", "id": "DbFqaxHzYNj9L-Um6wokMz8qYV0=", "properties": {"ref": "https://www.wagamama.com/restaurants/#14010118", "@spider": "wagamama_gb", "amenity": "restaurant", "cuisine": "asian", "addr:street_address": "swindon designer outlet kemble drive", "addr:city": "swindon", "addr:state": "wiltshire", "addr:postcode": "SN2 2DY", "addr:country": "GB", "name": "swindon", "phone": "01793 847894", "website": "https://www.wagamama.com/restaurants/swindon/swindon", "opening_hours": "Mo 11:00-22:00; Tu-We 10:00-22:00; Th-Sa 10:00-23:00; Su 10:00-22:00", "image": "https://dynl.mktgcdn.com/p/lLqs5wEbzdgELrtmDh7Wxwsm9or0blEg05DuAy6Sg5w/450x450.jpg", "brand": "Wagamama", "brand:wikidata": "Q503715", "nsi_id": "wagamama-2fabb0"}, "geometry": {"type": "Point", "coordinates": [-1.7970178, 51.5631555]}},
{"type": "Feature", "id": "_iCISkb6taF2dfrTUwqKbdtJ8qw=", "properties": {"ref": "https://www.wagamama.com/restaurants/#28388797", "@spider": "wagamama_gb", "amenity": "restaurant", "cuisine": "asian", "addr:street_address": "unit 14 the city gates", "addr:city": "swansea", "addr:postcode": "SA1 1EE", "addr:country": "GB", "name": "swansea", "phone": "01792 940219", "website": "https://www.wagamama.com/restaurants/swansea/swansea", "opening_hours": "Mo-Th 11:00-22:00; Fr-Sa 11:00-23:00; Su 11:00-22:00", "image": "https://dynl.mktgcdn.com/p/ii5hSy172ufQXjVvcKivZ08L1shunkrute07FLm61XY/450x450.jpg", "brand": "Wagamama", "brand:wikidata": "Q503715", "nsi_id": "wagamama-2fabb0"}, "geometry": {"type": "Point", "coordinates": [-3.9383042, 51.6188361]}},
{"type": "Feature", "id": "hVFDPR__BJw3zNFcNcBgsVrlEg0=", "properties": {"ref": "https://www.wagamama.com/restaurants/#27483405", "@spider": "wagamama_gb", "amenity": "restaurant", "cuisine": "asian", "addr:street_address": "unit 16 kimpton trade and business centre", "addr:city": "sutton", "addr:state": "london", "addr:postcode": "SM3 9PF", "addr:country": "GB", "name": "sutton delivery kitchen", "phone": "020 4549 1233", "website": "https://www.wagamama.com/restaurants/sutton/sutton-delivery-kitchen", "opening_hours": "Mo-Su 11:00-22:00", "image": "https://www.wagamama.com/restaurants/sutton/sutton-delivery-kitchen", "brand": "Wagamama", "brand:wikidata": "Q503715", "nsi_id": "wagamama-2fabb0"}, "geometry": {"type": "Point", "coordinates": [-0.21145136455689384, 51.37834209786953]}},
{"type": "Feature", "id": "qY8mVN8DJEaCegeWj9HkQzyloh0=", "properties": {"ref": "https://www.wagamama.com/restaurants/#14010155", "@spider": "wagamama_gb", "amenity": "restaurant", "cuisine": "asian", "addr:street_address": "unit 201-202 st nicholas avenue", "addr:city": "york fulford", "addr:state": "yorkshire", "addr:postcode": "YO19 4TA", "addr:country": "GB", "name": "york designer outlet", "phone": "01904 949720", "website": "https://www.wagamama.com/restaurants/york/york-designer-outlet", "opening_hours": "Mo-Sa 11:00-20:00; Su 11:00-18:00", "image": "https://dynl.mktgcdn.com/p/lLqs5wEbzdgELrtmDh7Wxwsm9or0blEg05DuAy6Sg5w/450x450.jpg", "brand": "Wagamama", "brand:wikidata": "Q503715", "nsi_id": "wagamama-2fabb0"}, "geometry": {"type": "Point", "coordinates": [-1.0774781564077784, 53.92231772258697]}},
{"type": "Feature", "id": "ulW6EKXMg6dePTLfLjPJLx19rkA=", "properties": {"ref": "https://www.wagamama.com/restaurants/#14010124", "@spider": "wagamama_gb", "amenity": "restaurant", "cuisine": "asian", "addr:street_address": "77-81 goodramgate", "addr:city": "york", "addr:state": "yorkshire", "addr:postcode": "YO1 7LS", "addr:country": "GB", "name": "york", "phone": "01904 610888", "website": "https://www.wagamama.com/restaurants/york/york", "opening_hours": "Mo-Th 11:00-22:00; Fr-Sa 11:00-23:00; Su 11:00-22:00", "image": "https://dynl.mktgcdn.com/p/lLqs5wEbzdgELrtmDh7Wxwsm9or0blEg05DuAy6Sg5w/450x450.jpg", "brand": "Wagamama", "brand:wikidata": "Q503715", "nsi_id": "wagamama-2fabb0"}, "geometry": {"type": "Point", "coordinates": [-1.0800459686997783, 53.960518652640225]}},
{"type": "Feature", "id": "PybrzpBimE91ao4IxytEZy1Ead8=", "properties": {"ref": "https://www.wagamama.com/restaurants/#41132714", "@spider": "wagamama_gb", "amenity": "restaurant", "cuisine": "asian", "addr:street_address": "unit 1 junction leisure park etruria road", "addr:city": "stoke-on-trent", "addr:postcode": "ST15NS", "addr:country": "GB", "name": "stoke", "phone": "01782 444159", "website": "https://www.wagamama.com/restaurants/stoke-on-trent/stoke", "opening_hours": "Mo-Th 11:00-22:00; Fr-Sa 11:00-23:00; Su 11:00-22:00", "image": "https://dynl.mktgcdn.com/p/ii5hSy172ufQXjVvcKivZ08L1shunkrute07FLm61XY/450x450.jpg", "brand": "Wagamama", "brand:wikidata": "Q503715", "nsi_id": "wagamama-2fabb0"}, "geometry": {"type": "Point", "coordinates": [-2.1879453133421833, 53.02484843419818]}},
{"type": "Feature", "id": "SL61q2t4IW54aGfLQ4koTqUlVcU=", "properties": {"ref": "https://www.wagamama.com/restaurants/#14010161", "@spider": "wagamama_gb", "amenity": "restaurant", "cuisine": "asian", "addr:street_address": "unit 8 stevenage leisure park", "addr:city": "stevenage", "addr:state": "hertfordshire", "addr:postcode": "SG1 2UA", "addr:country": "GB", "name": "stevenage", "phone": "01438 576829", "website": "https://www.wagamama.com/restaurants/stevenage/stevenage", "opening_hours": "Mo-Th 11:00-22:00; Fr-Sa 11:00-23:00; Su 11:00-22:00", "image": "https://dynl.mktgcdn.com/p/lLqs5wEbzdgELrtmDh7Wxwsm9or0blEg05DuAy6Sg5w/450x450.jpg", "brand": "Wagamama", "brand:wikidata": "Q503715", "nsi_id": "wagamama-2fabb0"}, "geometry": {"type": "Point", "coordinates": [-0.2083262, 51.899455]}},
{"type": "Feature", "id": "bt9JQzUVJEKu2z_GvuQbHE_Wa-c=", "properties": {"ref": "https://www.wagamama.com/restaurants/#14010080", "@spider": "wagamama_gb", "amenity": "restaurant", "cuisine": "asian", "addr:street_address": "mustard mill rd", "addr:city": "staines-upon-thames", "addr:state": "middlesex", "addr:postcode": "TW18 4WB", "addr:country": "GB", "name": "staines", "phone": "01784 682030", "website": "https://www.wagamama.com/restaurants/staines-upon-thames/staines", "opening_hours": "Mo-Th 11:00-22:00; Fr-Sa 11:00-23:00; Su 11:00-22:00", "image": "https://dynl.mktgcdn.com/p/lLqs5wEbzdgELrtmDh7Wxwsm9or0blEg05DuAy6Sg5w/450x450.jpg", "brand": "Wagamama", "brand:wikidata": "Q503715", "nsi_id": "wagamama-2fabb0"}, "geometry": {"type": "Point", "coordinates": [-0.5107595104160509, 51.43485532790007]}},
{"type": "Feature", "id": "bEa7uXX9TGSg5gZMKO1eaT9h5j8=", "properties": {"ref": "https://www.wagamama.com/restaurants/#14010078", "@spider": "wagamama_gb", "amenity": "restaurant", "cuisine": "asian", "addr:street_address": "6 christopher place", "addr:city": "st albans", "addr:state": "hertfordshire", "addr:postcode": "AL3 5DQ", "addr:country": "GB", "name": "st albans", "phone": "01727 865122", "website": "https://www.wagamama.com/restaurants/st-albans/st-albans", "opening_hours": "Mo-Th 11:00-22:00; Fr-Sa 11:00-23:00; Su 11:00-22:00", "image": "https://dynl.mktgcdn.com/p/lLqs5wEbzdgELrtmDh7Wxwsm9or0blEg05DuAy6Sg5w/450x450.jpg", "brand": "Wagamama", "brand:wikidata": "Q503715", "nsi_id": "wagamama-2fabb0"}, "geometry": {"type": "Point", "coordinates": [-0.3407143, 51.7516936]}},
{"type": "Feature", "id": "S0HYSOLsuvYukrWyOAGeUOok_Hw=", "properties": {"ref": "https://www.wagamama.com/restaurants/#41132678", "@spider": "wagamama_gb", "amenity": "restaurant", "cuisine": "asian", "addr:street_address": "5-6 the broadway london road", "addr:city": "southend on sea", "addr:state": "essex", "addr:postcode": "SS11TJ", "addr:country": "GB", "name": "southend-on-sea", "phone": "01702 412947", "website": "https://www.wagamama.com/restaurants/southend-on-sea/southend-on-sea", "opening_hours": "Mo-Th 11:00-22:00; Fr-Sa 11:00-23:00; Su 11:00-22:00", "image": "https://dynl.mktgcdn.com/p/ii5hSy172ufQXjVvcKivZ08L1shunkrute07FLm61XY/450x450.jpg", "brand": "Wagamama", "brand:wikidata": "Q503715", "nsi_id": "wagamama-2fabb0"}, "geometry": {"type": "Point", "coordinates": [0.7110052205618045, 51.54027730288748]}},
{"type": "Feature", "id": "RXs6ai3uVggWgO7f4Yfb9BfuWZM=", "properties": {"ref": "https://www.wagamama.com/restaurants/#14010077", "@spider": "wagamama_gb", "amenity": "restaurant", "cuisine": "asian", "addr:street_address": "unit r09, mezzanine food level west quay shopping centre", "addr:city": "southampton", "addr:state": "hampshire", "addr:postcode": "SO15 1QE", "addr:country": "GB", "name": "southampton", "phone": "023 8023 0861", "website": "https://www.wagamama.com/restaurants/southampton/southampton", "opening_hours": "Mo-Sa 11:00-20:00; Su 11:00-17:00", "image": "https://dynl.mktgcdn.com/p/lLqs5wEbzdgELrtmDh7Wxwsm9or0blEg05DuAy6Sg5w/450x450.jpg", "brand": "Wagamama", "brand:wikidata": "Q503715", "nsi_id": "wagamama-2fabb0"}, "geometry": {"type": "Point", "coordinates": [-1.406943, 50.90363]}},
{"type": "Feature", "id": "Ax5duwWBKKXGMFjnX35giusj90M=", "properties": {"ref": "https://www.wagamama.com/restaurants/#14010043", "@spider": "wagamama_gb", "amenity": "restaurant", "cuisine": "asian", "addr:street_address": "43 mill lane level 1, touchwood shopping centre", "addr:city": "solihull", "addr:state": "west midlands", "addr:postcode": "B91 3GS", "addr:country": "GB", "name": "solihull", "phone": "0121 711 7075", "website": "https://www.wagamama.com/restaurants/solihull/solihull", "opening_hours": "Mo-Th 11:00-22:00; Fr-Sa 11:00-23:00; Su 11:00-22:00", "image": "https://dynl.mktgcdn.com/p/lLqs5wEbzdgELrtmDh7Wxwsm9or0blEg05DuAy6Sg5w/450x450.jpg", "brand": "Wagamama", "brand:wikidata": "Q503715", "nsi_id": "wagamama-2fabb0"}, "geometry": {"type": "Point", "coordinates": [-1.7791460619388317, 52.41166661468916]}},
{"type": "Feature", "id": "dOzQJBUcmU41alzjcFA6zIfxeiw=", "properties": {"ref": "https://www.wagamama.com/restaurants/#14010149", "@spider": "wagamama_gb", "amenity": "restaurant", "cuisine": "asian", "addr:street_address": "138 high st seven oaks", "addr:city": "sevenoaks", "addr:state": "kent", "addr:postcode": "TN13 1XE", "addr:country": "GB", "name": "sevenoaks", "phone": "01732 758900", "website": "https://www.wagamama.com/restaurants/sevenoaks/sevenoaks", "opening_hours": "Mo-Th 11:00-22:00; Fr-Sa 11:00-23:00; Su 11:00-22:00", "image": "https://dynl.mktgcdn.com/p/lLqs5wEbzdgELrtmDh7Wxwsm9or0blEg05DuAy6Sg5w/450x450.jpg", "brand": "Wagamama", "brand:wikidata": "Q503715", "nsi_id": "wagamama-2fabb0"}, "geometry": {"type": "Point", "coordinates": [0.1928955042991447, 51.27227030261104]}},
{"type": "Feature", "id": "-dpCFrvqW08lokNN9EOSNlsJlIY=", "properties": {"ref": "https://www.wagamama.com/restaurants/#14010147", "@spider": "wagamama_gb", "amenity": "restaurant", "cuisine": "asian", "addr:street_address": "8-10 bridge street salisbury", "addr:city": "salisbury", "addr:state": "wiltshire", "addr:postcode": "SP1 2LX", "addr:country": "GB", "name": "salisbury", "phone": "01722 412165", "website": "https://www.wagamama.com/restaurants/salisbury/salisbury", "opening_hours": "Mo-Th 11:00-22:00; Fr-Sa 11:00-23:00; Su 11:00-22:00", "image": "https://dynl.mktgcdn.com/p/lLqs5wEbzdgELrtmDh7Wxwsm9or0blEg05DuAy6Sg5w/450x450.jpg", "brand": "Wagamama", "brand:wikidata": "Q503715", "nsi_id": "wagamama-2fabb0"}, "geometry": {"type": "Point", "coordinates": [-1.7975082, 51.0687535]}},
{"type": "Feature", "id": "eBxaP8tIw_jrQRkJQEB8tLhngzc=", "properties": {"ref": "https://www.wagamama.com/restaurants/#14010112", "@spider": "wagamama_gb", "amenity": "restaurant", "cuisine": "asian", "addr:street_address": "unit 2 orange tower media city", "addr:city": "salford", "addr:postcode": "M50 2EQ", "addr:country": "GB", "name": "salford media city", "phone": "0161 713 3747", "website": "https://www.wagamama.com/restaurants/salford/salford-media-city", "opening_hours": "Mo-Th 11:00-22:00; Fr-Sa 11:00-23:00; Su 11:00-22:00", "image": "https://dynl.mktgcdn.com/p/lLqs5wEbzdgELrtmDh7Wxwsm9or0blEg05DuAy6Sg5w/450x450.jpg", "brand": "Wagamama", "brand:wikidata": "Q503715", "nsi_id": "wagamama-2fabb0"}, "geometry": {"type": "Point", "coordinates": [-2.2972242, 53.4728113]}},
{"type": "Feature", "id": "EzkSolap5asMTgZWYvnANNc36lQ=", "properties": {"ref": "https://www.wagamama.com/restaurants/#14010040", "@spider": "wagamama_gb", "amenity": "restaurant", "cuisine": "asian", "addr:street_address": "rushden lakes shopping centre northampton road", "addr:city": "rushden", "addr:state": "northamptonshire", "addr:postcode": "NN10 6FH", "addr:country": "GB", "name": "rushden lakes", "phone": "01933 448945", "website": "https://www.wagamama.com/restaurants/rushden/rushden-lakes", "opening_hours": "Mo-Sa 11:00-22:00; Su 11:00-21:00", "image": "https://dynl.mktgcdn.com/p/lLqs5wEbzdgELrtmDh7Wxwsm9or0blEg05DuAy6Sg5w/450x450.jpg", "brand": "Wagamama", "brand:wikidata": "Q503715", "nsi_id": "wagamama-2fabb0"}, "geometry": {"type": "Point", "coordinates": [-0.625584, 52.3013079]}},
{"type": "Feature", "id": "WM_ECdB4JQT7-GXt8BNlBxFwgrs=", "properties": {"ref": "https://www.wagamama.com/restaurants/#14010041", "@spider": "wagamama_gb", "amenity": "restaurant", "cuisine": "asian", "addr:street_address": "54-58 mount pleasant road", "addr:city": "royal tunbridge wells", "addr:state": "kent", "addr:postcode": "TN1 1RB", "addr:country": "GB", "name": "tunbridge wells", "phone": "01892 616514", "website": "https://www.wagamama.com/restaurants/royal-tunbridge-wells/tunbridge-wells", "opening_hours": "Mo-Th 11:00-22:00; Fr-Sa 11:00-23:00; Su 11:00-22:00", "image": "https://dynl.mktgcdn.com/p/lLqs5wEbzdgELrtmDh7Wxwsm9or0blEg05DuAy6Sg5w/450x450.jpg", "brand": "Wagamama", "brand:wikidata": "Q503715", "nsi_id": "wagamama-2fabb0"}, "geometry": {"type": "Point", "coordinates": [0.2636724794309657, 51.13131752522079]}},
{"type": "Feature", "id": "lCNSWPdDPuHbujXN5duOsR07DF8=", "properties": {"ref": "https://www.wagamama.com/restaurants/#41132712", "@spider": "wagamama_gb", "amenity": "restaurant", "cuisine": "asian", "addr:street_address": "unit 12b the brewery walk", "addr:city": "romford", "addr:postcode": "RM11AU", "addr:country": "GB", "name": "romford", "phone": "01708 202295", "website": "https://www.wagamama.com/restaurants/romford/romford", "opening_hours": "Mo-Th 11:00-22:00; Fr-Sa 11:00-23:00; Su 11:00-22:00", "image": "https://dynl.mktgcdn.com/p/ii5hSy172ufQXjVvcKivZ08L1shunkrute07FLm61XY/450x450.jpg", "brand": "Wagamama", "brand:wikidata": "Q503715", "nsi_id": "wagamama-2fabb0"}, "geometry": {"type": "Point", "coordinates": [0.1795370969965715, 51.57719121315722]}},
{"type": "Feature", "id": "66LvbwA3Uob52oY1jZT37w6Gf_I=", "properties": {"ref": "https://www.wagamama.com/restaurants/#14010038", "@spider": "wagamama_gb", "amenity": "restaurant", "cuisine": "asian", "addr:street_address": "3 hill street", "addr:city": "richmond", "addr:state": "surrey", "addr:postcode": "TW9 1SX", "addr:country": "GB", "name": "richmond", "phone": "020 8948 2224", "website": "https://www.wagamama.com/restaurants/richmond/richmond", "opening_hours": "Mo-Th 11:00-22:00; Fr-Sa 11:00-23:00; Su 11:00-22:00", "image": "https://dynl.mktgcdn.com/p/lLqs5wEbzdgELrtmDh7Wxwsm9or0blEg05DuAy6Sg5w/450x450.jpg", "brand": "Wagamama", "brand:wikidata": "Q503715", "nsi_id": "wagamama-2fabb0"}, "geometry": {"type": "Point", "coordinates": [-0.3064135423278458, 51.459413575994276]}},
{"type": "Feature", "id": "Mah_p6BXcFS9ZeWAt0xdFqlCSIE=", "properties": {"ref": "https://www.wagamama.com/restaurants/#14010037", "@spider": "wagamama_gb", "amenity": "restaurant", "cuisine": "asian", "addr:street_address": "35 bell street", "addr:city": "reigate", "addr:state": "surrey", "addr:postcode": "RH2 7AD", "addr:country": "GB", "name": "reigate", "phone": "01737 333018", "website": "https://www.wagamama.com/restaurants/reigate/reigate", "opening_hours": "Mo-Th 11:00-22:00; Fr-Sa 11:00-23:00; Su 11:00-22:00", "image": "https://dynl.mktgcdn.com/p/lLqs5wEbzdgELrtmDh7Wxwsm9or0blEg05DuAy6Sg5w/450x450.jpg", "brand": "Wagamama", "brand:wikidata": "Q503715", "nsi_id": "wagamama-2fabb0"}, "geometry": {"type": "Point", "coordinates": [-0.20509348570624297, 51.23679515307287]}},
{"type": "Feature", "id": "YN-3EBa851mEFEl_aTuyo6b5Qng=", "properties": {"ref": "https://www.wagamama.com/restaurants/#14010036", "@spider": "wagamama_gb", "amenity": "restaurant", "cuisine": "asian", "addr:street_address": "bridge street", "addr:city": "reading", "addr:state": "berkshire", "addr:postcode": "RG1 2AH", "addr:country": "GB", "name": "reading", "phone": "0118 951 1599", "website": "https://www.wagamama.com/restaurants/reading/reading", "opening_hours": "Mo-Th 11:00-22:00; Fr-Sa 11:00-23:00; Su 11:00-22:00", "image": "https://dynl.mktgcdn.com/p/lLqs5wEbzdgELrtmDh7Wxwsm9or0blEg05DuAy6Sg5w/450x450.jpg", "brand": "Wagamama", "brand:wikidata": "Q503715", "nsi_id": "wagamama-2fabb0"}, "geometry": {"type": "Point", "coordinates": [-0.9716336, 51.4523447]}},
{"type": "Feature", "id": "X_9GppAbJNtn4-fNq3Ggz6Coe4w=", "properties": {"ref": "https://www.wagamama.com/restaurants/#14010146", "@spider": "wagamama_gb", "amenity": "restaurant", "cuisine": "asian", "addr:street_address": "north promenade building gunwharf quays", "addr:city": "portsmouth", "addr:state": "hampshire", "addr:postcode": "PO1 3TR", "addr:country": "GB", "name": "portsmouth", "phone": "023 9286 1128", "website": "https://www.wagamama.com/restaurants/portsmouth/portsmouth", "opening_hours": "Mo-Th 11:00-22:00; Fr-Sa 11:00-23:00; Su 11:00-22:00", "image": "https://dynl.mktgcdn.com/p/lLqs5wEbzdgELrtmDh7Wxwsm9or0blEg05DuAy6Sg5w/450x450.jpg", "brand": "Wagamama", "brand:wikidata": "Q503715", "nsi_id": "wagamama-2fabb0"}, "geometry": {"type": "Point", "coordinates": [-1.107460152114868, 50.795556414618815]}},
{"type": "Feature", "id": "ep92X01P10tcYhdgQcJb5Fbx_yg=", "properties": {"ref": "https://www.wagamama.com/restaurants/#14010075", "@spider": "wagamama_gb", "amenity": "restaurant", "cuisine": "asian", "addr:street_address": "8 royal william yard brewhouse", "addr:city": "plymouth", "addr:state": "devon", "addr:postcode": "PL1 3QQ", "addr:country": "GB", "name": "plymouth", "phone": "01752 663200", "website": "https://www.wagamama.com/restaurants/plymouth/plymouth", "opening_hours": "Mo-Th 11:00-22:00; Fr-Sa 11:00-23:00; Su 11:00-22:00", "image": "https://dynl.mktgcdn.com/p/lLqs5wEbzdgELrtmDh7Wxwsm9or0blEg05DuAy6Sg5w/450x450.jpg", "brand": "Wagamama", "brand:wikidata": "Q503715", "nsi_id": "wagamama-2fabb0"}, "geometry": {"type": "Point", "coordinates": [-4.1659878399929084, 50.36193758923391]}},
{"type": "Feature", "id": "iMemqRoTEoivd4kP3IO4B9pdDmA=", "properties": {"ref": "https://www.wagamama.com/restaurants/#14010074", "@spider": "wagamama_gb", "amenity": "restaurant", "cuisine": "asian", "addr:street_address": "37-39 long causeway", "addr:city": "peterborough", "addr:state": "cambridgeshire", "addr:postcode": "PE1 1YJ", "addr:country": "GB", "name": "peterborough", "phone": "01733 889851", "website": "https://www.wagamama.com/restaurants/peterborough/peterborough", "opening_hours": "Mo-Th 11:00-22:00; Fr-Sa 11:00-23:00; Su 11:00-22:00", "image": "https://dynl.mktgcdn.com/p/lLqs5wEbzdgELrtmDh7Wxwsm9or0blEg05DuAy6Sg5w/450x450.jpg", "brand": "Wagamama", "brand:wikidata": "Q503715", "nsi_id": "wagamama-2fabb0"}, "geometry": {"type": "Point", "coordinates": [-0.24213413128279626, 52.57277773975783]}},
{"type": "Feature", "id": "IH2hmV9WfPGIVRT0xZeGgOTncwo=", "properties": {"ref": "https://www.wagamama.com/restaurants/#14010144", "@spider": "wagamama_gb", "amenity": "restaurant", "cuisine": "asian", "addr:street_address": "8 market street oxford", "addr:city": "oxford", "addr:state": "oxfordshire", "addr:postcode": "OX1 3EF", "addr:country": "GB", "name": "oxford", "phone": "01865 807281", "website": "https://www.wagamama.com/restaurants/oxford/oxford", "opening_hours": "Mo-Th 11:00-22:00; Fr-Sa 11:00-23:00; Su 11:00-22:00", "image": "https://dynl.mktgcdn.com/p/lLqs5wEbzdgELrtmDh7Wxwsm9or0blEg05DuAy6Sg5w/450x450.jpg", "brand": "Wagamama", "brand:wikidata": "Q503715", "nsi_id": "wagamama-2fabb0"}, "geometry": {"type": "Point", "coordinates": [-1.2574165210949104, 51.75287743021624]}},
{"type": "Feature", "id": "mLszIaqRZiAq7L2FKs3uRn-4nUY=", "properties": {"ref": "https://www.wagamama.com/restaurants/#14010035", "@spider": "wagamama_gb", "amenity": "restaurant", "cuisine": "asian", "addr:street_address": "408 chapelfield plain chapelfield", "addr:city": "norwich", "addr:state": "norfolk", "addr:postcode": "NR2 1SZ", "addr:country": "GB", "name": "norwich", "phone": "01603 305985", "website": "https://www.wagamama.com/restaurants/norwich/norwich", "opening_hours": "Mo-Th 11:00-22:00; Fr-Sa 11:00-23:00; Su 11:00-22:00", "image": "https://dynl.mktgcdn.com/p/lLqs5wEbzdgELrtmDh7Wxwsm9or0blEg05DuAy6Sg5w/450x450.jpg", "brand": "Wagamama", "brand:wikidata": "Q503715", "nsi_id": "wagamama-2fabb0"}, "geometry": {"type": "Point", "coordinates": [1.2910696, 52.6261453]}},
{"type": "Feature", "id": "VGizjXr7fax5BJujBdDCbwrMZcM=", "properties": {"ref": "https://www.wagamama.com/restaurants/#14010116", "@spider": "wagamama_gb", "amenity": "restaurant", "cuisine": "asian", "addr:street_address": "unit r9 friars walk newport", "addr:city": "newport", "addr:state": "wales", "addr:postcode": "NP20 1DW", "addr:country": "GB", "name": "newport", "phone": "01633 481218", "website": "https://www.wagamama.com/restaurants/newport/newport", "opening_hours": "Mo-Th 11:00-22:00; Fr-Sa 11:00-23:00; Su 11:00-22:00", "image": "https://dynl.mktgcdn.com/p/lLqs5wEbzdgELrtmDh7Wxwsm9or0blEg05DuAy6Sg5w/450x450.jpg", "brand": "Wagamama", "brand:wikidata": "Q503715", "nsi_id": "wagamama-2fabb0"}, "geometry": {"type": "Point", "coordinates": [-2.9925722, 51.586328]}},
{"type": "Feature", "id": "9g7gyWcyjPsk0dSYOUslwRA4FIE=", "properties": {"ref": "https://www.wagamama.com/restaurants/#14010047", "@spider": "wagamama_gb", "amenity": "restaurant", "cuisine": "asian", "addr:street_address": "unit 7, the valley centretainment", "addr:city": "sheffield broughton", "addr:state": "south yorkshire", "addr:postcode": "S9 2DX", "addr:country": "GB", "name": "sheffield centertainment", "phone": "0114 553 4199", "website": "https://www.wagamama.com/restaurants/sheffield/sheffield-centertainment", "opening_hours": "Mo-Su 11:00-22:00", "image": "https://dynl.mktgcdn.com/p/lLqs5wEbzdgELrtmDh7Wxwsm9or0blEg05DuAy6Sg5w/450x450.jpg", "brand": "Wagamama", "brand:wikidata": "Q503715", "nsi_id": "wagamama-2fabb0"}, "geometry": {"type": "Point", "coordinates": [-1.4153555421596593, 53.40159091906915]}},
{"type": "Feature", "id": "tlZIDY762OoyhZjLwwgIm8CzcOA=", "properties": {"ref": "https://www.wagamama.com/restaurants/#14010114", "@spider": "wagamama_gb", "amenity": "restaurant", "cuisine": "asian", "addr:street_address": "54 the oasis, meadowhall centre meadowhall way", "addr:city": "sheffield", "addr:state": "south yorkshire", "addr:postcode": "S9 1EP", "addr:country": "GB", "name": "sheffield meadowhall", "phone": "0114 256 8033", "website": "https://www.wagamama.com/restaurants/sheffield/sheffield-meadowhall", "opening_hours": "Mo-Sa 11:00-22:00; Su 11:00-21:00", "image": "https://dynl.mktgcdn.com/p/lLqs5wEbzdgELrtmDh7Wxwsm9or0blEg05DuAy6Sg5w/450x450.jpg", "brand": "Wagamama", "brand:wikidata": "Q503715", "nsi_id": "wagamama-2fabb0"}, "geometry": {"type": "Point", "coordinates": [-1.4126424, 53.4142186]}},
{"type": "Feature", "id": "0q2V_CmeqIT6jsjtZXKmf918Y-c=", "properties": {"ref": "https://www.wagamama.com/restaurants/#14010148", "@spider": "wagamama_gb", "amenity": "restaurant", "cuisine": "asian", "addr:street_address": "2 leopold square", "addr:city": "sheffield", "addr:state": "yorkshire", "addr:postcode": "S1 2JG", "addr:country": "GB", "name": "sheffield city centre", "phone": "0114 272 3615", "website": "https://www.wagamama.com/restaurants/sheffield/sheffield-city-centre", "opening_hours": "Mo-Th 11:00-22:00; Fr-Sa 11:00-23:00; Su 11:00-22:00", "image": "https://dynl.mktgcdn.com/p/lLqs5wEbzdgELrtmDh7Wxwsm9or0blEg05DuAy6Sg5w/450x450.jpg", "brand": "Wagamama", "brand:wikidata": "Q503715", "nsi_id": "wagamama-2fabb0"}, "geometry": {"type": "Point", "coordinates": [-1.471317433272361, 53.38161558643692]}},
{"type": "Feature", "id": "SOcblpLB5kQaYjgi8ykbolvA0Ak=", "properties": {"ref": "https://www.wagamama.com/restaurants/#14010033", "@spider": "wagamama_gb", "amenity": "restaurant", "cuisine": "asian", "addr:street_address": "8 eldon square newcastle upon tyne", "addr:city": "newcastle upon tyne", "addr:state": "tyne + wear", "addr:postcode": "NE1 6GJ", "addr:country": "GB", "name": "newcastle", "phone": "0191 233 0663", "website": "https://www.wagamama.com/restaurants/newcastle-upon-tyne/newcastle", "opening_hours": "Mo-We 11:00-22:00; Th-Sa 11:00-23:00; Su 11:00-22:00", "image": "https://dynl.mktgcdn.com/p/lLqs5wEbzdgELrtmDh7Wxwsm9or0blEg05DuAy6Sg5w/450x450.jpg", "brand": "Wagamama", "brand:wikidata": "Q503715", "nsi_id": "wagamama-2fabb0"}, "geometry": {"type": "Point", "coordinates": [-1.6157879602778848, 54.97462187757721]}},
{"type": "Feature", "id": "XFwa6GdzPUSDSTHlkNPidcmn4dM=", "properties": {"ref": "https://www.wagamama.com/restaurants/#14010110", "@spider": "wagamama_gb", "amenity": "restaurant", "cuisine": "asian", "addr:street_address": "19 earl street maidstone", "addr:city": "maidstone", "addr:state": "kent", "addr:postcode": "ME14 1PL", "addr:country": "GB", "name": "maidstone", "phone": "01622 753507", "website": "https://www.wagamama.com/restaurants/maidstone/maidstone", "opening_hours": "Mo-Th 11:00-22:00; Fr-Sa 11:00-23:00; Su 11:00-22:00", "image": "https://dynl.mktgcdn.com/p/lLqs5wEbzdgELrtmDh7Wxwsm9or0blEg05DuAy6Sg5w/450x450.jpg", "brand": "Wagamama", "brand:wikidata": "Q503715", "nsi_id": "wagamama-2fabb0"}, "geometry": {"type": "Point", "coordinates": [0.5218227315992863, 51.27474466249869]}},
{"type": "Feature", "id": "BUN_r1w0ZR3512ktjBhJb9vvLws=", "properties": {"ref": "https://www.wagamama.com/restaurants/#14842272", "@spider": "wagamama_gb", "amenity": "restaurant", "cuisine": "asian", "addr:street_address": "terminal three heathrow airport", "addr:city": "longford hounslow", "addr:postcode": "TW6 1QG", "addr:country": "GB", "name": "heathrow t3", "phone": "020 8745 0815", "website": "https://www.wagamama.com/restaurants/longford/heathrow-t3", "opening_hours": "Mo-Su 06:30-21:00", "image": "https://dynl.mktgcdn.com/p/lLqs5wEbzdgELrtmDh7Wxwsm9or0blEg05DuAy6Sg5w/450x450.jpg", "brand": "Wagamama", "brand:wikidata": "Q503715", "nsi_id": "wagamama-2fabb0"}, "geometry": {"type": "Point", "coordinates": [-0.4594767, 51.4705712]}},
{"type": "Feature", "id": "XJkPV-zPDv5Nt2hSf72LgJrGIhU=", "properties": {"ref": "https://www.wagamama.com/restaurants/#14010143", "@spider": "wagamama_gb", "amenity": "restaurant", "cuisine": "asian", "addr:street_address": "the avenue, the centre Almondvale Blvd", "addr:city": "livingston", "addr:state": "west lothian", "addr:postcode": "EH54 6GS", "addr:country": "GB", "name": "livingston", "phone": "01506 442015", "website": "https://www.wagamama.com/restaurants/livingston/livingston", "opening_hours": "Mo-Su 11:00-22:00", "image": "https://dynl.mktgcdn.com/p/lLqs5wEbzdgELrtmDh7Wxwsm9or0blEg05DuAy6Sg5w/450x450.jpg", "brand": "Wagamama", "brand:wikidata": "Q503715", "nsi_id": "wagamama-2fabb0"}, "geometry": {"type": "Point", "coordinates": [-3.5170462, 55.8828565]}},
{"type": "Feature", "id": "f6V7oDn0_vkMu5Y9PpSNJES4-vo=", "properties": {"ref": "https://www.wagamama.com/restaurants/#14010111", "@spider": "wagamama_gb", "amenity": "restaurant", "cuisine": "asian", "addr:street_address": "brayford wharf north lincoln", "addr:city": "lincoln", "addr:state": "lincolnshire", "addr:postcode": "LN1 1YX", "addr:country": "GB", "name": "lincoln", "phone": "01522 530798", "website": "https://www.wagamama.com/restaurants/lincoln/lincoln", "opening_hours": "Mo-Th 11:00-22:00; Fr-Sa 11:00-23:00; Su 11:00-22:00", "image": "https://dynl.mktgcdn.com/p/lLqs5wEbzdgELrtmDh7Wxwsm9or0blEg05DuAy6Sg5w/450x450.jpg", "brand": "Wagamama", "brand:wikidata": "Q503715", "nsi_id": "wagamama-2fabb0"}, "geometry": {"type": "Point", "coordinates": [-0.5444374, 53.228729]}},
{"type": "Feature", "id": "ZJOOPY3NfTwFXmBkdKvLOiQdeQA=", "properties": {"ref": "https://www.wagamama.com/restaurants/#14010140", "@spider": "wagamama_gb", "amenity": "restaurant", "cuisine": "asian", "addr:street_address": "unit r15 highcross 6 highcross lane", "addr:city": "leicester", "addr:state": "leicestershire", "addr:postcode": "LE1 4SD", "addr:country": "GB", "name": "leicester", "phone": "0116 253 0046", "website": "https://www.wagamama.com/restaurants/leicester/leicester", "opening_hours": "Mo-Th 11:00-22:00; Fr-Sa 11:00-23:00; Su 11:00-22:00", "image": "https://dynl.mktgcdn.com/p/lLqs5wEbzdgELrtmDh7Wxwsm9or0blEg05DuAy6Sg5w/450x450.jpg", "brand": "Wagamama", "brand:wikidata": "Q503715", "nsi_id": "wagamama-2fabb0"}, "geometry": {"type": "Point", "coordinates": [-1.138715457672106, 52.63649039094441]}},
{"type": "Feature", "id": "GRzE0b5uRN7UgeLqRyuBJIKpZew=", "properties": {"ref": "https://www.wagamama.com/restaurants/#14010073", "@spider": "wagamama_gb", "amenity": "restaurant", "cuisine": "asian", "addr:street_address": "burton street the cornerhouse", "addr:city": "nottingham", "addr:state": "nottinghamshire", "addr:postcode": "NG1 4DB", "addr:country": "GB", "name": "nottingham", "phone": "0115 924 1797", "website": "https://www.wagamama.com/restaurants/nottingham/nottingham", "opening_hours": "Mo-We 11:00-22:00; Th-Sa 11:00-23:00; Su 11:00-22:00", "image": "https://dynl.mktgcdn.com/p/lLqs5wEbzdgELrtmDh7Wxwsm9or0blEg05DuAy6Sg5w/450x450.jpg", "brand": "Wagamama", "brand:wikidata": "Q503715", "nsi_id": "wagamama-2fabb0"}, "geometry": {"type": "Point", "coordinates": [-1.1508212234333541, 52.95588716205635]}},
{"type": "Feature", "id": "-4as6A_XzOg_q-FA_b63LfYvic0=", "properties": {"ref": "https://www.wagamama.com/restaurants/#27830391", "@spider": "wagamama_gb", "amenity": "restaurant", "cuisine": "asian", "addr:street_address": "20 central avenue west bridgford", "addr:city": "nottingham", "addr:postcode": "NG2 5GR", "addr:country": "GB", "name": "west bridgford", "phone": "0115 671 3998", "website": "https://www.wagamama.com/restaurants/nottingham/west-bridgford", "opening_hours": "Mo-Th 11:00-22:00; Fr-Sa 11:00-23:00; Su 11:00-22:00", "image": "https://dynl.mktgcdn.com/p/ii5hSy172ufQXjVvcKivZ08L1shunkrute07FLm61XY/450x450.jpg", "brand": "Wagamama", "brand:wikidata": "Q503715", "nsi_id": "wagamama-2fabb0"}, "geometry": {"type": "Point", "coordinates": [-1.1271709, 52.9319859]}},
{"type": "Feature", "id": "dgWZ3tmF864QeaRIgnMuDDT_bF4=", "properties": {"ref": "https://www.wagamama.com/restaurants/#14010109", "@spider": "wagamama_gb", "amenity": "restaurant", "cuisine": "asian", "addr:street_address": "94 parade", "addr:city": "leamington spa", "addr:state": "warwickshire", "addr:postcode": "CV32 4AY", "addr:country": "GB", "name": "leamington spa", "phone": "01926 833245", "website": "https://www.wagamama.com/restaurants/leamington-spa/leamington-spa", "opening_hours": "Mo-Th 11:00-22:00; Fr-Sa 11:00-23:00; Su 11:00-22:00", "image": "https://dynl.mktgcdn.com/p/lLqs5wEbzdgELrtmDh7Wxwsm9or0blEg05DuAy6Sg5w/450x450.jpg", "brand": "Wagamama", "brand:wikidata": "Q503715", "nsi_id": "wagamama-2fabb0"}, "geometry": {"type": "Point", "coordinates": [-1.5356960049575719, 52.29021573196135]}},
{"type": "Feature", "id": "j57xjun25KxIVxW3miOp0AwpaV0=", "properties": {"ref": "https://www.wagamama.com/restaurants/#14010068", "@spider": "wagamama_gb", "amenity": "restaurant", "cuisine": "asian", "addr:street_address": "16-18 high street", "addr:city": "kingston-upon-thames", "addr:postcode": "KT1 1EY", "addr:country": "GB", "name": "kingston upon thames", "phone": "020 8546 1117", "website": "https://www.wagamama.com/restaurants/kingston-upon-thames/kingston-upon-thames", "opening_hours": "Mo-Th 11:00-22:00; Fr-Sa 11:00-23:00; Su 11:00-22:00", "image": "https://dynl.mktgcdn.com/p/lLqs5wEbzdgELrtmDh7Wxwsm9or0blEg05DuAy6Sg5w/450x450.jpg", "brand": "Wagamama", "brand:wikidata": "Q503715", "nsi_id": "wagamama-2fabb0"}, "geometry": {"type": "Point", "coordinates": [-0.3070452012233318, 51.408592927856965]}},
{"type": "Feature", "id": "2y6tKaWDNNFr2AbgORpad5uOTEM=", "properties": {"ref": "https://www.wagamama.com/restaurants/#14010065", "@spider": "wagamama_gb", "amenity": "restaurant", "cuisine": "asian", "addr:street_address": "unit a3, 6 buttermarket", "addr:city": "ipswich", "addr:state": "suffolk", "addr:postcode": "IP1 1DT", "addr:country": "GB", "name": "ipswich", "phone": "01473 557598", "website": "https://www.wagamama.com/restaurants/ipswich/ipswich", "opening_hours": "Mo-Th 11:00-22:00; Fr-Sa 11:00-23:00; Su 11:00-22:00", "image": "https://dynl.mktgcdn.com/p/lLqs5wEbzdgELrtmDh7Wxwsm9or0blEg05DuAy6Sg5w/450x450.jpg", "brand": "Wagamama", "brand:wikidata": "Q503715", "nsi_id": "wagamama-2fabb0"}, "geometry": {"type": "Point", "coordinates": [1.1534333693289227, 52.057001133868184]}},
{"type": "Feature", "id": "tWvqEyntvRsZwGinqXI0lVInDok=", "properties": {"ref": "https://www.wagamama.com/restaurants/#14010107", "@spider": "wagamama_gb", "amenity": "restaurant", "cuisine": "asian", "addr:street_address": "20-22 east street talbot house", "addr:city": "horsham", "addr:state": "west sussex", "addr:postcode": "RH12 1HL", "addr:country": "GB", "name": "horsham", "phone": "01403 275216", "website": "https://www.wagamama.com/restaurants/horsham/horsham", "opening_hours": "Mo-Th 11:00-22:00; Fr-Sa 11:00-23:00; Su 11:00-22:00", "image": "https://dynl.mktgcdn.com/p/lLqs5wEbzdgELrtmDh7Wxwsm9or0blEg05DuAy6Sg5w/450x450.jpg", "brand": "Wagamama", "brand:wikidata": "Q503715", "nsi_id": "wagamama-2fabb0"}, "geometry": {"type": "Point", "coordinates": [-0.3272873958923128, 51.06162277164005]}},
{"type": "Feature", "id": "2QHhS9e8NSJk6r9hH6yVwsCnEj0=", "properties": {"ref": "https://www.wagamama.com/restaurants/#14010158", "@spider": "wagamama_gb", "amenity": "restaurant", "cuisine": "asian", "addr:street_address": "unit f, 14 stadium way", "addr:city": "milton keynes bletchley", "addr:state": "buckinghamshire", "addr:postcode": "MK1 1ST", "addr:country": "GB", "name": "bletchley", "phone": "01908 229248", "website": "https://www.wagamama.com/restaurants/milton-keynes/bletchley", "opening_hours": "Mo-Th 11:00-22:00; Fr-Sa 11:00-23:00; Su 11:00-22:00", "image": "https://dynl.mktgcdn.com/p/lLqs5wEbzdgELrtmDh7Wxwsm9or0blEg05DuAy6Sg5w/450x450.jpg", "brand": "Wagamama", "brand:wikidata": "Q503715", "nsi_id": "wagamama-2fabb0"}, "geometry": {"type": "Point", "coordinates": [-0.7339615889549123, 52.0108899544296]}},
{"type": "Feature", "id": "R-5lf787q5A99uqV0gJJytorFIQ=", "properties": {"ref": "https://www.wagamama.com/restaurants/#14010049", "@spider": "wagamama_gb", "amenity": "restaurant", "cuisine": "asian", "addr:street_address": "unit 4 parrs wood entertainment centre", "addr:city": "manchester didsbury", "addr:postcode": "M20 5PG", "addr:country": "GB", "name": "didsbury", "phone": "0161 204 3257", "website": "https://www.wagamama.com/restaurants/manchester/didsbury", "opening_hours": "Mo-Th 11:00-22:00; Fr-Sa 11:00-23:00; Su 11:00-22:00", "image": "https://dynl.mktgcdn.com/p/lLqs5wEbzdgELrtmDh7Wxwsm9or0blEg05DuAy6Sg5w/450x450.jpg", "brand": "Wagamama", "brand:wikidata": "Q503715", "nsi_id": "wagamama-2fabb0"}, "geometry": {"type": "Point", "coordinates": [-2.2193721, 53.4094827]}},
{"type": "Feature", "id": "-SxrlCQ_kF2bmWouTRJsfgNa2Bw=", "properties": {"ref": "https://www.wagamama.com/restaurants/#30851418", "@spider": "wagamama_gb", "amenity": "restaurant", "cuisine": "asian", "addr:street_address": "terminal two, level 45 airside concourse, aplma avenue manchester airport", "addr:city": "manchester", "addr:state": "greater manchester", "addr:postcode": "M90 4ZY", "addr:country": "GB", "name": "manchester t2", "phone": "0161 676 7944", "website": "https://www.wagamama.com/restaurants/manchester/manchester-t2", "opening_hours": "Mo-Su 05:00-20:00", "image": "https://dynl.mktgcdn.com/p/ii5hSy172ufQXjVvcKivZ08L1shunkrute07FLm61XY/450x450.jpg", "brand": "Wagamama", "brand:wikidata": "Q503715", "nsi_id": "wagamama-2fabb0"}, "geometry": {"type": "Point", "coordinates": [-2.2765804, 53.36669269999999]}},
{"type": "Feature", "id": "HFusX4JRG2p9rOM5hvEVYOXyOrg=", "properties": {"ref": "https://www.wagamama.com/restaurants/#14010082", "@spider": "wagamama_gb", "amenity": "restaurant", "cuisine": "asian", "addr:street_address": "r9 the orient trafford centre", "addr:city": "manchester trafford centre", "addr:postcode": "M17 8AA", "addr:country": "GB", "name": "manchester intu trafford centre", "phone": "0161 641 1971", "website": "https://www.wagamama.com/restaurants/manchester/manchester-intu-trafford-centre", "opening_hours": "Mo-We 11:00-22:00; Th-Sa 11:00-23:00; Su 11:00-22:00", "image": "https://dynl.mktgcdn.com/p/lLqs5wEbzdgELrtmDh7Wxwsm9or0blEg05DuAy6Sg5w/450x450.jpg", "brand": "Wagamama", "brand:wikidata": "Q503715", "nsi_id": "wagamama-2fabb0"}, "geometry": {"type": "Point", "coordinates": [-2.3491276, 53.4654571]}},
{"type": "Feature", "id": "roZP1_Va5f1KwsIvrsEhgDhBmVk=", "properties": {"ref": "https://www.wagamama.com/restaurants/#14010160", "@spider": "wagamama_gb", "amenity": "restaurant", "cuisine": "asian", "addr:street_address": "west retail unit, the bower 207 old street", "addr:city": "london", "addr:postcode": "EC1V 9NR", "addr:country": "GB", "name": "old street", "phone": "020 7052 7415", "website": "https://www.wagamama.com/restaurants/london/old-street", "opening_hours": "Mo-Th 11:00-22:00; Fr-Sa 11:00-23:00; Su 11:00-22:00", "image": "https://dynl.mktgcdn.com/p/lLqs5wEbzdgELrtmDh7Wxwsm9or0blEg05DuAy6Sg5w/450x450.jpg", "brand": "Wagamama", "brand:wikidata": "Q503715", "nsi_id": "wagamama-2fabb0"}, "geometry": {"type": "Point", "coordinates": [-0.08868977253644061, 51.52595587213087]}},
{"type": "Feature", "id": "NVm1Nzai2C7ThI32plcagCMPKhU=", "properties": {"ref": "https://www.wagamama.com/restaurants/#14010150", "@spider": "wagamama_gb", "amenity": "restaurant", "cuisine": "asian", "addr:street_address": "unit sp1e, spitalfields market brushfield street", "addr:city": "london spitalfields", "addr:postcode": "E1 6EW", "addr:country": "GB", "name": "spitalfields", "phone": "020 7539 3580", "website": "https://www.wagamama.com/restaurants/london/spitalfields", "image": "https://dynl.mktgcdn.com/p/lLqs5wEbzdgELrtmDh7Wxwsm9or0blEg05DuAy6Sg5w/450x450.jpg", "brand": "Wagamama", "brand:wikidata": "Q503715", "nsi_id": "wagamama-2fabb0"}, "geometry": {"type": "Point", "coordinates": [-0.0754227, 51.5197785]}},
{"type": "Feature", "id": "HQExbK_0q4VBQUzuspfrV0my2hc=", "properties": {"ref": "https://www.wagamama.com/restaurants/#14010030", "@spider": "wagamama_gb", "amenity": "restaurant", "cuisine": "asian", "addr:street_address": "unit l7 new mersey retail park speke road", "addr:city": "liverpool speke", "addr:state": "merseyside", "addr:postcode": "L24 8QB", "addr:country": "GB", "name": "liverpool speke", "phone": "0151 459 4329", "website": "https://www.wagamama.com/restaurants/liverpool/liverpool-speke", "opening_hours": "Mo-Th 11:00-22:00; Fr-Sa 11:00-23:00; Su 11:00-22:00", "image": "https://dynl.mktgcdn.com/p/lLqs5wEbzdgELrtmDh7Wxwsm9or0blEg05DuAy6Sg5w/450x450.jpg", "brand": "Wagamama", "brand:wikidata": "Q503715", "nsi_id": "wagamama-2fabb0"}, "geometry": {"type": "Point", "coordinates": [-2.8805435291137793, 53.350018472869614]}},
{"type": "Feature", "id": "CyeuH8WbLdB_PRksh3QpjwrumZA=", "properties": {"ref": "https://www.wagamama.com/restaurants/#14010142", "@spider": "wagamama_gb", "amenity": "restaurant", "cuisine": "asian", "addr:street_address": "14 paradise street liverpool one", "addr:city": "liverpool", "addr:state": "merseyside", "addr:postcode": "L1 8JF", "addr:country": "GB", "name": "liverpool", "phone": "0151 707 2762", "website": "https://www.wagamama.com/restaurants/liverpool/liverpool", "opening_hours": "Mo-Tu 11:00-22:00; We-Sa 11:00-23:00; Su 11:00-22:00", "image": "https://dynl.mktgcdn.com/p/lLqs5wEbzdgELrtmDh7Wxwsm9or0blEg05DuAy6Sg5w/450x450.jpg", "brand": "Wagamama", "brand:wikidata": "Q503715", "nsi_id": "wagamama-2fabb0"}, "geometry": {"type": "Point", "coordinates": [-2.986742982803321, 53.40372630253249]}},
{"type": "Feature", "id": "zlSCUVYeRbINgstrmsW8FdNwVv0=", "properties": {"ref": "https://www.wagamama.com/restaurants/#38089202", "@spider": "wagamama_gb", "amenity": "restaurant", "cuisine": "asian", "addr:street_address": "unit r01, ground floor + basement 6 marble arch, marble arch place", "addr:city": "london", "addr:postcode": "W1H 7EJ", "addr:country": "GB", "name": "marble arch", "phone": "020 3375 2030", "website": "https://www.wagamama.com/restaurants/london/marblearch", "opening_hours": "Mo-Th 11:00-22:00; Fr-Sa 11:00-23:00; Su 11:00-22:00", "image": "https://dynl.mktgcdn.com/p/ii5hSy172ufQXjVvcKivZ08L1shunkrute07FLm61XY/450x450.jpg", "brand": "Wagamama", "brand:wikidata": "Q503715", "nsi_id": "wagamama-2fabb0"}, "geometry": {"type": "Point", "coordinates": [-0.1603157830850499, 51.51364475759536]}},
{"type": "Feature", "id": "L_VC7k7coTUDLJmcI8f3VqQ74hs=", "properties": {"ref": "https://www.wagamama.com/restaurants/#14010069", "@spider": "wagamama_gb", "amenity": "restaurant", "cuisine": "asian", "addr:street_address": "upper dining terrace trinity walk", "addr:city": "leeds trinity leeds shopping centre", "addr:state": "west yorkshire", "addr:postcode": "LS1 5AY", "addr:country": "GB", "name": "leeds trinity shopping centre", "phone": "0113 246 9736", "website": "https://www.wagamama.com/restaurants/leeds/leeds-trinity-shopping-centre", "opening_hours": "Mo-Su 11:00-22:00", "image": "https://dynl.mktgcdn.com/p/lLqs5wEbzdgELrtmDh7Wxwsm9or0blEg05DuAy6Sg5w/450x450.jpg", "brand": "Wagamama", "brand:wikidata": "Q503715", "nsi_id": "wagamama-2fabb0"}, "geometry": {"type": "Point", "coordinates": [-1.5428521, 53.7963785]}},
{"type": "Feature", "id": "2xmCU5uHuWg0xTrfck0cSk2TAR8=", "properties": {"ref": "https://www.wagamama.com/restaurants/#14010029", "@spider": "wagamama_gb", "amenity": "restaurant", "cuisine": "asian", "addr:street_address": "unit 4, leeds white rose dewsbury road", "addr:city": "leeds west yorkshire", "addr:state": "west yorkshire", "addr:postcode": "LS11 8LU", "addr:country": "GB", "name": "leeds white rose", "phone": "0113 457 8281", "website": "https://www.wagamama.com/restaurants/leeds/leeds-white-rose", "opening_hours": "Mo-Th 11:00-21:00; Fr-Sa 11:00-22:00; Su 11:00-21:00", "image": "https://dynl.mktgcdn.com/p/lLqs5wEbzdgELrtmDh7Wxwsm9or0blEg05DuAy6Sg5w/450x450.jpg", "brand": "Wagamama", "brand:wikidata": "Q503715", "nsi_id": "wagamama-2fabb0"}, "geometry": {"type": "Point", "coordinates": [-1.5756208, 53.7584604]}},
{"type": "Feature", "id": "Ev02Z6LtOtnARCJYpGw_ccb88HI=", "properties": {"ref": "https://www.wagamama.com/restaurants/#15152191", "@spider": "wagamama_gb", "amenity": "restaurant", "cuisine": "asian", "addr:street_address": "Unit 22 Penraevon industrial estate", "addr:city": "Leeds", "addr:postcode": "LS7 2AW", "addr:country": "GB", "name": "leeds delivery kitchen", "phone": "0113 468 6928", "website": "https://www.wagamama.com/restaurants/leeds/leeds-delivery-kitchen", "opening_hours": "Mo-Th 11:00-22:00; Fr-Sa 11:00-23:00; Su 11:00-22:00", "image": "https://dynl.mktgcdn.com/p/n_qhLRuQGGYLoK4nYon7Bf3YIkjykPW-5vpTkhA5ElY/450x450.jpg", "brand": "Wagamama", "brand:wikidata": "Q503715", "nsi_id": "wagamama-2fabb0"}, "geometry": {"type": "Point", "coordinates": [-1.5424196, 53.8122221]}},
{"type": "Feature", "id": "UNQ2AU6No1R8SMA1BcXhbrXs91Y=", "properties": {"ref": "https://www.wagamama.com/restaurants/#14010099", "@spider": "wagamama_gb", "amenity": "restaurant", "cuisine": "asian", "addr:street_address": "unit 2, upper level fulham broadway shopping centre", "addr:city": "london fulham broadway", "addr:postcode": "SW6 1BW", "addr:country": "GB", "name": "fulham broadway", "phone": "020 7386 8017", "website": "https://www.wagamama.com/restaurants/london/fulham-broadway", "opening_hours": "Mo-Th 11:00-22:00; Fr-Sa 11:00-23:00; Su 11:00-22:00", "image": "https://dynl.mktgcdn.com/p/lLqs5wEbzdgELrtmDh7Wxwsm9or0blEg05DuAy6Sg5w/450x450.jpg", "brand": "Wagamama", "brand:wikidata": "Q503715", "nsi_id": "wagamama-2fabb0"}, "geometry": {"type": "Point", "coordinates": [-0.194727, 51.4806285]}},
{"type": "Feature", "id": "yNGtVYfu4QlpZosBItXUmX4g0gU=", "properties": {"ref": "https://www.wagamama.com/restaurants/#23917269", "@spider": "wagamama_gb", "amenity": "restaurant", "cuisine": "asian", "addr:street_address": "unit 19 malham road industrial estate, malham road", "addr:city": "london", "addr:state": "london", "addr:postcode": "SE23 1AH", "addr:country": "GB", "name": "forest hill delivery kitchen", "phone": "020 3148 2616", "website": "https://www.wagamama.com/restaurants/london/forest-hill-delivery-kitchen", "opening_hours": "Mo-Su 11:00-22:00", "image": "https://www.wagamama.com/restaurants/london/forest-hill-delivery-kitchen", "brand": "Wagamama", "brand:wikidata": "Q503715", "nsi_id": "wagamama-2fabb0"}, "geometry": {"type": "Point", "coordinates": [-0.04900273370928021, 51.44318614320062]}},
{"type": "Feature", "id": "N1rRF4LKY6e1lwxAcWAR_Lca07c=", "properties": {"ref": "https://www.wagamama.com/restaurants/#14010133", "@spider": "wagamama_gb", "amenity": "restaurant", "cuisine": "asian", "addr:street_address": "unit 15a parkfield industrial estate curvet place", "addr:city": "london", "addr:postcode": "SW11 5BA", "addr:country": "GB", "name": "battersea delivery kitchen", "phone": "07384 510781", "website": "https://www.wagamama.com/restaurants/london/battersea-delivery-kitchen", "image": "https://dynl.mktgcdn.com/p/n_qhLRuQGGYLoK4nYon7Bf3YIkjykPW-5vpTkhA5ElY/450x450.jpg", "brand": "Wagamama", "brand:wikidata": "Q503715", "nsi_id": "wagamama-2fabb0"}, "geometry": {"type": "Point", "coordinates": [-0.1538787, 51.4713397]}},
{"type": "Feature", "id": "khJCEf7-s5T0tbkerF9MbX_zqHk=", "properties": {"ref": "https://www.wagamama.com/restaurants/#14010117", "@spider": "wagamama_gb", "amenity": "restaurant", "cuisine": "asian", "addr:street_address": "the o2 greenwich peninsula", "addr:city": "london greenwich", "addr:postcode": "SE10 0ES", "addr:country": "GB", "name": "north greenwich / O2", "phone": "020 8269 1214", "website": "https://www.wagamama.com/restaurants/london/north-greenwich-o2", "opening_hours": "Mo-Th 11:00-22:00; Fr-Sa 11:00-23:00; Su 11:00-22:00", "image": "https://dynl.mktgcdn.com/p/lLqs5wEbzdgELrtmDh7Wxwsm9or0blEg05DuAy6Sg5w/450x450.jpg", "brand": "Wagamama", "brand:wikidata": "Q503715", "nsi_id": "wagamama-2fabb0"}, "geometry": {"type": "Point", "coordinates": [0.005883618385269074, 51.5008226515796]}},
{"type": "Feature", "id": "OQe7Wl0p6LgAQGohCJ8npKZr9YU=", "properties": {"ref": "https://www.wagamama.com/restaurants/#14010102", "@spider": "wagamama_gb", "amenity": "restaurant", "cuisine": "asian", "addr:street_address": "gatwick south international departure lounge gatwick south terminal", "addr:city": "horley", "addr:state": "west sussex", "addr:postcode": "RH6 0NP", "addr:country": "GB", "name": "gatwick south", "phone": "01293 507314", "website": "https://www.wagamama.com/restaurants/horley/gatwick-south", "opening_hours": "Mo-Su 04:00-20:30", "image": "https://dynl.mktgcdn.com/p/lLqs5wEbzdgELrtmDh7Wxwsm9or0blEg05DuAy6Sg5w/450x450.jpg", "brand": "Wagamama", "brand:wikidata": "Q503715", "nsi_id": "wagamama-2fabb0"}, "geometry": {"type": "Point", "coordinates": [-0.16394400596618564, 51.15796883998365]}},
{"type": "Feature", "id": "h4VwnJs3zvhpUWRnStlc5DJ7DiM=", "properties": {"ref": "https://www.wagamama.com/restaurants/#14010100", "@spider": "wagamama_gb", "amenity": "restaurant", "cuisine": "asian", "addr:street_address": "gatwick north international departure lounge gatwick north terminal", "addr:city": "horley", "addr:state": "west sussex", "addr:postcode": "RH6 0NP", "addr:country": "GB", "name": "gatwick north", "phone": "01293 507300", "website": "https://www.wagamama.com/restaurants/horley/gatwick-north", "opening_hours": "Mo-Su 04:00-19:00", "image": "https://dynl.mktgcdn.com/p/lLqs5wEbzdgELrtmDh7Wxwsm9or0blEg05DuAy6Sg5w/450x450.jpg", "brand": "Wagamama", "brand:wikidata": "Q503715", "nsi_id": "wagamama-2fabb0"}, "geometry": {"type": "Point", "coordinates": [-0.17806946732601858, 51.15933656825018]}},
{"type": "Feature", "id": "M8UQQsxoRuq3HdnHmSCspPXNJXU=", "properties": {"ref": "https://www.wagamama.com/restaurants/#14010121", "@spider": "wagamama_gb", "amenity": "restaurant", "cuisine": "asian", "addr:street_address": "the loft, mezzanine level the gallery", "addr:city": "london westfield stratford city", "addr:postcode": "E20 1ET", "addr:country": "GB", "name": "stratford westfield", "phone": "020 8534 8173", "website": "https://www.wagamama.com/restaurants/london/stratford-westfield", "opening_hours": "Mo-Th 11:00-22:00; Fr-Sa 11:00-23:00; Su 11:00-22:00", "image": "https://dynl.mktgcdn.com/p/lLqs5wEbzdgELrtmDh7Wxwsm9or0blEg05DuAy6Sg5w/450x450.jpg", "brand": "Wagamama", "brand:wikidata": "Q503715", "nsi_id": "wagamama-2fabb0"}, "geometry": {"type": "Point", "coordinates": [-0.0069443, 51.5435739]}},
{"type": "Feature", "id": "OyttMNlYixssrtCI7L8p1jWVsns=", "properties": {"ref": "https://www.wagamama.com/restaurants/#14010138", "@spider": "wagamama_gb", "amenity": "restaurant", "cuisine": "asian", "addr:street_address": "terminal five 022", "addr:city": "london heathrow", "addr:postcode": "TW6 2GA", "addr:country": "GB", "name": "heathrow t5", "phone": "020 8283 6186", "website": "https://www.wagamama.com/restaurants/london/heathrow-t5", "opening_hours": "Mo-We 06:30-20:00; Th-Fr 06:30-21:00; Sa-Su 06:30-20:00", "image": "https://dynl.mktgcdn.com/p/lLqs5wEbzdgELrtmDh7Wxwsm9or0blEg05DuAy6Sg5w/450x450.jpg", "brand": "Wagamama", "brand:wikidata": "Q503715", "nsi_id": "wagamama-2fabb0"}, "geometry": {"type": "Point", "coordinates": [-0.4870464, 51.4720878]}},
{"type": "Feature", "id": "SAsGUQCDRN4V29lAFx6OJ2WdfU4=", "properties": {"ref": "https://www.wagamama.com/restaurants/#14010083", "@spider": "wagamama_gb", "amenity": "restaurant", "cuisine": "asian", "addr:street_address": "southside shopping centre garratt lane", "addr:city": "london wandsworth", "addr:postcode": "SW18 4TE", "addr:country": "GB", "name": "wandsworth southside", "phone": "020 8875 0653", "website": "https://www.wagamama.com/restaurants/london/wandsworth-southside", "opening_hours": "Mo-Th 11:00-22:00; Fr-Sa 11:00-23:00; Su 11:00-22:00", "image": "https://dynl.mktgcdn.com/p/lLqs5wEbzdgELrtmDh7Wxwsm9or0blEg05DuAy6Sg5w/450x450.jpg", "brand": "Wagamama", "brand:wikidata": "Q503715", "nsi_id": "wagamama-2fabb0"}, "geometry": {"type": "Point", "coordinates": [-0.19291833931151814, 51.45542928203655]}},
{"type": "Feature", "id": "eGB9yG4TzH_-gQOzw18UJOpNXDU=", "properties": {"ref": "https://www.wagamama.com/restaurants/#14010153", "@spider": "wagamama_gb", "amenity": "restaurant", "cuisine": "asian", "addr:street_address": "southern terrace, westfield london shopping centre", "addr:city": "london ariel way", "addr:postcode": "W12 7GA", "addr:country": "GB", "name": "white city westfield", "phone": "020 8749 9073", "website": "https://www.wagamama.com/restaurants/london/white-city-westfield", "opening_hours": "Mo-Th 11:00-22:00; Fr-Sa 11:00-23:00; Su 11:00-22:00", "image": "https://dynl.mktgcdn.com/p/lLqs5wEbzdgELrtmDh7Wxwsm9or0blEg05DuAy6Sg5w/450x450.jpg", "brand": "Wagamama", "brand:wikidata": "Q503715", "nsi_id": "wagamama-2fabb0"}, "geometry": {"type": "Point", "coordinates": [-0.2197630631537777, 51.5062482266935]}},
{"type": "Feature", "id": "_-VZ_CIx_EjTQRt5XDTOV0OiD-M=", "properties": {"ref": "https://www.wagamama.com/restaurants/#14010039", "@spider": "wagamama_gb", "amenity": "restaurant", "cuisine": "asian", "addr:street_address": "riverside level royal festival hall", "addr:city": "london southbank", "addr:postcode": "SE1 8XX", "addr:country": "GB", "name": "royal festival hall / southbank", "phone": "020 7021 0877", "website": "https://www.wagamama.com/restaurants/london/royal-festival-hall-southbank", "opening_hours": "Mo-Th 11:00-22:00; Fr-Sa 11:00-23:00; Su 11:00-22:00", "image": "https://dynl.mktgcdn.com/p/lLqs5wEbzdgELrtmDh7Wxwsm9or0blEg05DuAy6Sg5w/450x450.jpg", "brand": "Wagamama", "brand:wikidata": "Q503715", "nsi_id": "wagamama-2fabb0"}, "geometry": {"type": "Point", "coordinates": [-0.1176507, 51.5057744]}},
{"type": "Feature", "id": "XtD36alkFLEbLzL7mfdAyz5Oz10=", "properties": {"ref": "https://www.wagamama.com/restaurants/#14010081", "@spider": "wagamama_gb", "amenity": "restaurant", "cuisine": "asian", "addr:street_address": "retail unit 2b, tower place east tower place east", "addr:city": "london tower hill", "addr:postcode": "EC3R 5BT", "addr:country": "GB", "name": "tower hill", "phone": "020 7283 5897", "website": "https://www.wagamama.com/restaurants/london/tower-hill", "opening_hours": "Mo-Sa 11:00-22:00; Su 11:00-21:00", "image": "https://dynl.mktgcdn.com/p/lLqs5wEbzdgELrtmDh7Wxwsm9or0blEg05DuAy6Sg5w/450x450.jpg", "brand": "Wagamama", "brand:wikidata": "Q503715", "nsi_id": "wagamama-2fabb0"}, "geometry": {"type": "Point", "coordinates": [-0.07902955092617958, 51.508854718419975]}},
{"type": "Feature", "id": "ABHJSNKAYV784lQNdlw8vBbDFdg=", "properties": {"ref": "https://www.wagamama.com/restaurants/#14010064", "@spider": "wagamama_gb", "amenity": "restaurant", "cuisine": "asian", "addr:street_address": "great north leisure park chapelfield", "addr:city": "london finchley", "addr:postcode": "N12 0GL", "addr:country": "GB", "name": "finchley great north leisure park", "phone": "020 8446 9084", "website": "https://www.wagamama.com/restaurants/london/finchley-great-north-leisure-park", "opening_hours": "Mo-Th 11:00-22:00; Fr-Sa 11:00-23:00; Su 11:00-22:00", "image": "https://dynl.mktgcdn.com/p/lLqs5wEbzdgELrtmDh7Wxwsm9or0blEg05DuAy6Sg5w/450x450.jpg", "brand": "Wagamama", "brand:wikidata": "Q503715", "nsi_id": "wagamama-2fabb0"}, "geometry": {"type": "Point", "coordinates": [-0.17348958895490796, 51.60379899545388]}},
{"type": "Feature", "id": "AkHYGdxZenl5y1ucIgE4FKJWQf8=", "properties": {"ref": "https://www.wagamama.com/restaurants/#14010014", "@spider": "wagamama_gb", "amenity": "restaurant", "cuisine": "asian", "addr:street_address": "brent cross shopping centre prince charles drive", "addr:city": "london", "addr:postcode": "NW4 3FP", "addr:country": "GB", "name": "brent cross", "phone": "020 8202 2666", "website": "https://www.wagamama.com/restaurants/london/brent-cross", "opening_hours": "Mo-Sa 11:00-21:00; Su 11:00-19:00", "image": "https://dynl.mktgcdn.com/p/lLqs5wEbzdgELrtmDh7Wxwsm9or0blEg05DuAy6Sg5w/450x450.jpg", "brand": "Wagamama", "brand:wikidata": "Q503715", "nsi_id": "wagamama-2fabb0"}, "geometry": {"type": "Point", "coordinates": [-0.2239566, 51.5771112]}},
{"type": "Feature", "id": "lD20nB1dgee8FS9f5IKSxojx2BE=", "properties": {"ref": "https://www.wagamama.com/restaurants/#14010046", "@spider": "wagamama_gb", "amenity": "restaurant", "cuisine": "asian", "addr:street_address": "arch 385, mentmore terrace london", "addr:city": "london hackney", "addr:postcode": "E8 3PH", "addr:country": "GB", "name": "hackney delivery kitchen", "phone": "020 3887 2233", "website": "https://www.wagamama.com/restaurants/london/hackney-delivery-kitchen", "opening_hours": "Mo-Su 11:00-22:00", "image": "https://dynl.mktgcdn.com/p/n_qhLRuQGGYLoK4nYon7Bf3YIkjykPW-5vpTkhA5ElY/450x450.jpg", "brand": "Wagamama", "brand:wikidata": "Q503715", "nsi_id": "wagamama-2fabb0"}, "geometry": {"type": "Point", "coordinates": [-0.05777259382898592, 51.5405558809547]}},
{"type": "Feature", "id": "e_H6LJvoK7phUSrr9cAKGdgfw0Q=", "properties": {"ref": "https://www.wagamama.com/restaurants/#18942738", "@spider": "wagamama_gb", "amenity": "restaurant", "cuisine": "asian", "addr:street_address": "Unit 19 Zennor Road", "addr:city": "London Balham", "addr:postcode": "SW12 0PS", "addr:country": "GB", "name": "balham delivery kitchen", "phone": "020 3117 5905", "website": "https://www.wagamama.com/restaurants/london/balham-delivery-kitchen", "opening_hours": "Mo-Su 11:00-22:00", "image": "https://www.wagamama.com/restaurants/london/balham-delivery-kitchen", "brand": "Wagamama", "brand:wikidata": "Q503715", "nsi_id": "wagamama-2fabb0"}, "geometry": {"type": "Point", "coordinates": [-0.14515697305106823, 51.44500760082229]}},
{"type": "Feature", "id": "72A-PH0CbpxNCCNJ_MWJsc3_jwI=", "properties": {"ref": "https://www.wagamama.com/restaurants/#15472671", "@spider": "wagamama_gb", "amenity": "restaurant", "cuisine": "asian", "addr:street_address": "Railway Arch 383 Denmark Road", "addr:city": "London", "addr:postcode": "SE5 9JR", "addr:country": "GB", "name": "peckham delivery kitchen", "phone": "020 3117 5909", "website": "https://www.wagamama.com/restaurants/london/railway-arch-383-denmark-road", "opening_hours": "Mo-Su 11:00-22:00", "image": "https://dynl.mktgcdn.com/p/n_qhLRuQGGYLoK4nYon7Bf3YIkjykPW-5vpTkhA5ElY/450x450.jpg", "brand": "Wagamama", "brand:wikidata": "Q503715", "nsi_id": "wagamama-2fabb0"}, "geometry": {"type": "Point", "coordinates": [-0.099640839178472, 51.47243401764288]}},
{"type": "Feature", "id": "xmE_2U40c8lMS7BuNVYWpWW9E50=", "properties": {"ref": "https://www.wagamama.com/restaurants/#14010104", "@spider": "wagamama_gb", "amenity": "restaurant", "cuisine": "asian", "addr:street_address": "58-62 heath street hampstead", "addr:city": "london", "addr:postcode": "NW3 1EN", "addr:country": "GB", "name": "hampstead", "phone": "020 7433 0366", "website": "https://www.wagamama.com/restaurants/london/hampstead", "opening_hours": "Mo-Th 11:00-22:00; Fr-Sa 11:00-23:00; Su 11:00-22:00", "image": "https://dynl.mktgcdn.com/p/lLqs5wEbzdgELrtmDh7Wxwsm9or0blEg05DuAy6Sg5w/450x450.jpg", "brand": "Wagamama", "brand:wikidata": "Q503715", "nsi_id": "wagamama-2fabb0"}, "geometry": {"type": "Point", "coordinates": [-0.1780520222459927, 51.55704470000005]}},
{"type": "Feature", "id": "67Jyy4mEoSbwg5UhMET-1qBYB7M=", "properties": {"ref": "https://www.wagamama.com/restaurants/#14010034", "@spider": "wagamama_gb", "amenity": "restaurant", "cuisine": "asian", "addr:street_address": "50-54 putney high street", "addr:city": "london", "addr:postcode": "SW15 1SQ", "addr:country": "GB", "name": "putney", "phone": "020 8785 3636", "website": "https://www.wagamama.com/restaurants/london/putney", "opening_hours": "Mo-Th 11:00-22:00; Fr-Sa 11:00-23:00; Su 11:00-22:00", "image": "https://dynl.mktgcdn.com/p/lLqs5wEbzdgELrtmDh7Wxwsm9or0blEg05DuAy6Sg5w/450x450.jpg", "brand": "Wagamama", "brand:wikidata": "Q503715", "nsi_id": "wagamama-2fabb0"}, "geometry": {"type": "Point", "coordinates": [-0.2151364, 51.4646459]}},
{"type": "Feature", "id": "0dJJg82sYn8spGmIzmGv-HZvjeU=", "properties": {"ref": "https://www.wagamama.com/restaurants/#14010042", "@spider": "wagamama_gb", "amenity": "restaurant", "cuisine": "asian", "addr:street_address": "5 cardinal walk unit 8 ground floor", "addr:city": "london victoria", "addr:postcode": "SW1E 5JE", "addr:country": "GB", "name": "victoria", "phone": "020 7828 0561", "website": "https://www.wagamama.com/restaurants/london/victoria", "opening_hours": "Mo-Sa 11:00-22:00; Su 11:00-21:00", "image": "https://dynl.mktgcdn.com/p/lLqs5wEbzdgELrtmDh7Wxwsm9or0blEg05DuAy6Sg5w/450x450.jpg", "brand": "Wagamama", "brand:wikidata": "Q503715", "nsi_id": "wagamama-2fabb0"}, "geometry": {"type": "Point", "coordinates": [-0.140604, 51.497189]}},
{"type": "Feature", "id": "cL8B0a0IpZa7e3EEKAlHy9a6G-I=", "properties": {"ref": "https://www.wagamama.com/restaurants/#14010045", "@spider": "wagamama_gb", "amenity": "restaurant", "cuisine": "asian", "addr:street_address": "46-48 wimbledon hill road wimbledon", "addr:city": "london", "addr:postcode": "SW19 7PA", "addr:country": "GB", "name": "wimbledon", "phone": "020 8879 7280", "website": "https://www.wagamama.com/restaurants/london/wimbledon", "opening_hours": "Mo-Th 11:00-22:00; Fr-Sa 11:00-23:00; Su 11:00-22:00", "image": "https://dynl.mktgcdn.com/p/lLqs5wEbzdgELrtmDh7Wxwsm9or0blEg05DuAy6Sg5w/450x450.jpg", "brand": "Wagamama", "brand:wikidata": "Q503715", "nsi_id": "wagamama-2fabb0"}, "geometry": {"type": "Point", "coordinates": [-0.20901411410352466, 51.42234520488446]}},
{"type": "Feature", "id": "D8xRjbijg-oxGDrDJ91V5e8rfaQ=", "properties": {"ref": "https://www.wagamama.com/restaurants/#14010057", "@spider": "wagamama_gb", "amenity": "restaurant", "cuisine": "asian", "addr:street_address": "45 bank street unit 39 jubilee place", "addr:city": "london canary wharf", "addr:postcode": "E14 5NY", "addr:country": "GB", "name": "canary wharf", "phone": "020 7516 9009", "website": "https://www.wagamama.com/restaurants/london/canary-wharf", "opening_hours": "Mo-Th 11:00-22:00; Fr-Sa 11:00-23:00; Su 11:00-22:00", "image": "https://dynl.mktgcdn.com/p/lLqs5wEbzdgELrtmDh7Wxwsm9or0blEg05DuAy6Sg5w/450x450.jpg", "brand": "Wagamama", "brand:wikidata": "Q503715", "nsi_id": "wagamama-2fabb0"}, "geometry": {"type": "Point", "coordinates": [-0.01855613387874655, 51.50309203839068]}},
{"type": "Feature", "id": "Z-WOSAAJbTbc93bSi3RMQpDeUQw=", "properties": {"ref": "https://www.wagamama.com/restaurants/#14010103", "@spider": "wagamama_gb", "amenity": "restaurant", "cuisine": "asian", "addr:street_address": "42 great marlborough street", "addr:city": "london", "addr:postcode": "W1F 7JL", "addr:country": "GB", "name": "great marlborough street", "phone": "020 3117 5555", "website": "https://www.wagamama.com/restaurants/london/great-marlborough-street", "opening_hours": "Mo-Th 11:00-22:00; Fr-Sa 11:00-23:00; Su 11:00-22:00", "image": "https://dynl.mktgcdn.com/p/lLqs5wEbzdgELrtmDh7Wxwsm9or0blEg05DuAy6Sg5w/450x450.jpg", "brand": "Wagamama", "brand:wikidata": "Q503715", "nsi_id": "wagamama-2fabb0"}, "geometry": {"type": "Point", "coordinates": [-0.13895913988108077, 51.5142203004918]}},
{"type": "Feature", "id": "mWlXn-3m2HDzBji1gQBotSi1leU=", "properties": {"ref": "https://www.wagamama.com/restaurants/#14010066", "@spider": "wagamama_gb", "amenity": "restaurant", "cuisine": "asian", "addr:street_address": "40 parkfield street n1 centre", "addr:city": "london islington", "addr:postcode": "N1 0PS", "addr:country": "GB", "name": "islington", "phone": "020 7226 2664", "website": "https://www.wagamama.com/restaurants/london/islington", "opening_hours": "Mo-Th 11:00-22:00; Fr-Sa 11:00-23:00; Su 11:00-22:00", "image": "https://dynl.mktgcdn.com/p/lLqs5wEbzdgELrtmDh7Wxwsm9or0blEg05DuAy6Sg5w/450x450.jpg", "brand": "Wagamama", "brand:wikidata": "Q503715", "nsi_id": "wagamama-2fabb0"}, "geometry": {"type": "Point", "coordinates": [-0.1064924, 51.5344359]}},
{"type": "Feature", "id": "I-mFZsHHFRuptcUvJeudiQ_SWIs=", "properties": {"ref": "https://www.wagamama.com/restaurants/#14010023", "@spider": "wagamama_gb", "amenity": "restaurant", "cuisine": "asian", "addr:street_address": "4 park lane croydon", "addr:city": "london", "addr:postcode": "CR0 1JA", "addr:country": "GB", "name": "croydon", "phone": "020 8760 9260", "website": "https://www.wagamama.com/restaurants/london/croydon", "opening_hours": "Mo-Th 11:00-22:00; Fr-Sa 11:00-23:00; Su 11:00-22:00", "image": "https://dynl.mktgcdn.com/p/lLqs5wEbzdgELrtmDh7Wxwsm9or0blEg05DuAy6Sg5w/450x450.jpg", "brand": "Wagamama", "brand:wikidata": "Q503715", "nsi_id": "wagamama-2fabb0"}, "geometry": {"type": "Point", "coordinates": [-0.09712335534959493, 51.37391133314482]}},
{"type": "Feature", "id": "v-6Q47Va1nA9GDPUcA_gC74Qo3o=", "properties": {"ref": "https://www.wagamama.com/restaurants/#23372543", "@spider": "wagamama_gb", "amenity": "restaurant", "cuisine": "asian", "addr:street_address": "3 sheldon square", "addr:city": "london paddington", "addr:postcode": "W2 6HY", "addr:country": "GB", "name": "paddington", "phone": "020 3117 5007", "website": "https://www.wagamama.com/restaurants/london/paddington", "opening_hours": "Mo-Su 11:00-22:00", "image": "https://dynl.mktgcdn.com/p/ii5hSy172ufQXjVvcKivZ08L1shunkrute07FLm61XY/450x450.jpg", "brand": "Wagamama", "brand:wikidata": "Q503715", "nsi_id": "wagamama-2fabb0"}, "geometry": {"type": "Point", "coordinates": [-0.18049117301635942, 51.5197741282516]}},
{"type": "Feature", "id": "vOL3mTvOiTTD1DIEdxnItuVUL80=", "properties": {"ref": "https://www.wagamama.com/restaurants/#14010108", "@spider": "wagamama_gb", "amenity": "restaurant", "cuisine": "asian", "addr:street_address": "26-40 kensington high street", "addr:city": "london kensington", "addr:postcode": "W8 4PF", "addr:country": "GB", "name": "high street kensington", "phone": "020 7376 1717", "website": "https://www.wagamama.com/restaurants/london/high-street-kensington", "opening_hours": "Mo-Th 11:00-22:00; Fr-Sa 11:00-23:00; Su 11:00-22:00", "image": "https://dynl.mktgcdn.com/p/lLqs5wEbzdgELrtmDh7Wxwsm9or0blEg05DuAy6Sg5w/450x450.jpg", "brand": "Wagamama", "brand:wikidata": "Q503715", "nsi_id": "wagamama-2fabb0"}, "geometry": {"type": "Point", "coordinates": [-0.18905139288767714, 51.50249923657687]}},
{"type": "Feature", "id": "Wd1SgBVxgkykYaMXeQ6cJb3QMh8=", "properties": {"ref": "https://www.wagamama.com/restaurants/#14010098", "@spider": "wagamama_gb", "amenity": "restaurant", "cuisine": "asian", "addr:street_address": "255 finchley road 02 centre", "addr:city": "london finchley", "addr:postcode": "NW3 6LU", "addr:country": "GB", "name": "finchley road O2 centre", "phone": "020 3700 4011", "website": "https://www.wagamama.com/restaurants/london/finchley-road-o2-centre", "opening_hours": "Mo-Th 11:00-22:00; Fr-Sa 11:00-23:00; Su 11:00-22:00", "image": "https://dynl.mktgcdn.com/p/lLqs5wEbzdgELrtmDh7Wxwsm9or0blEg05DuAy6Sg5w/450x450.jpg", "brand": "Wagamama", "brand:wikidata": "Q503715", "nsi_id": "wagamama-2fabb0"}, "geometry": {"type": "Point", "coordinates": [-0.181977, 51.548102]}},
{"type": "Feature", "id": "Y9EtHmTSDN_gSjO8uP01vGNKpaM=", "properties": {"ref": "https://www.wagamama.com/restaurants/#14010067", "@spider": "wagamama_gb", "amenity": "restaurant", "cuisine": "asian", "addr:street_address": "244 shepherds bush rd the old fire station", "addr:city": "london hammersmith", "addr:postcode": "W6 7NL", "addr:country": "GB", "name": "hammersmith", "phone": "020 8741 9814", "website": "https://www.wagamama.com/restaurants/london/hammersmith", "opening_hours": "Mo-Th 11:00-22:00; Fr-Sa 11:00-23:00; Su 11:00-22:00", "image": "https://dynl.mktgcdn.com/p/lLqs5wEbzdgELrtmDh7Wxwsm9or0blEg05DuAy6Sg5w/450x450.jpg", "brand": "Wagamama", "brand:wikidata": "Q503715", "nsi_id": "wagamama-2fabb0"}, "geometry": {"type": "Point", "coordinates": [-0.224121, 51.4938867]}},
{"type": "Feature", "id": "B9goPUF7QEkLGfND54Qx_NuOFkc=", "properties": {"ref": "https://www.wagamama.com/restaurants/#14010054", "@spider": "wagamama_gb", "amenity": "restaurant", "cuisine": "asian", "addr:street_address": "18-20 sumner street", "addr:city": "london southwark", "addr:postcode": "SE1 9JZ", "addr:country": "GB", "name": "bankside", "phone": "020 3876 0321", "website": "https://www.wagamama.com/restaurants/london/bankside", "opening_hours": "Mo-Su 11:00-21:00", "image": "https://dynl.mktgcdn.com/p/lLqs5wEbzdgELrtmDh7Wxwsm9or0blEg05DuAy6Sg5w/450x450.jpg", "brand": "Wagamama", "brand:wikidata": "Q503715", "nsi_id": "wagamama-2fabb0"}, "geometry": {"type": "Point", "coordinates": [-0.100118, 51.506428]}},
{"type": "Feature", "id": "8kGVEUVlgguSlkWmpJcP5YP0-8M=", "properties": {"ref": "https://www.wagamama.com/restaurants/#14010061", "@spider": "wagamama_gb", "amenity": "restaurant", "cuisine": "asian", "addr:street_address": "17 bedford street", "addr:city": "london covent garden", "addr:postcode": "WC2E 9HP", "addr:country": "GB", "name": "bedford street/covent garden", "phone": "020 3876 3727", "website": "https://www.wagamama.com/restaurants/london/bedford-street-covent-garden", "opening_hours": "Mo-Th 11:00-22:00; Fr-Sa 11:00-23:00; Su 11:00-22:00", "image": "https://dynl.mktgcdn.com/p/lLqs5wEbzdgELrtmDh7Wxwsm9or0blEg05DuAy6Sg5w/450x450.jpg", "brand": "Wagamama", "brand:wikidata": "Q503715", "nsi_id": "wagamama-2fabb0"}, "geometry": {"type": "Point", "coordinates": [-0.1247671, 51.5108108]}},
{"type": "Feature", "id": "H6VwY4WRe56tPeBlaS2pIIS222A=", "properties": {"ref": "https://www.wagamama.com/restaurants/#14010106", "@spider": "wagamama_gb", "amenity": "restaurant", "cuisine": "asian", "addr:street_address": "123 kingsway basement and ground floor", "addr:city": "london holborn", "addr:postcode": "WC2B 6PA", "addr:country": "GB", "name": "holborn", "phone": "020 3117 5202", "website": "https://www.wagamama.com/restaurants/london/holborn", "opening_hours": "Mo-Th 11:00-22:00; Fr-Sa 11:00-23:00; Su 11:00-21:00", "image": "https://dynl.mktgcdn.com/p/lLqs5wEbzdgELrtmDh7Wxwsm9or0blEg05DuAy6Sg5w/450x450.jpg", "brand": "Wagamama", "brand:wikidata": "Q503715", "nsi_id": "wagamama-2fabb0"}, "geometry": {"type": "Point", "coordinates": [-0.120258, 51.5169422]}},
{"type": "Feature", "id": "goetO13UN_dXIIOxSVBQ2uy6284=", "properties": {"ref": "https://www.wagamama.com/restaurants/#14010056", "@spider": "wagamama_gb", "amenity": "restaurant", "cuisine": "asian", "addr:street_address": "11 jamestown road", "addr:city": "london camden", "addr:postcode": "NW1 7BW", "addr:country": "GB", "name": "camden", "phone": "020 7428 0800", "website": "https://www.wagamama.com/restaurants/london/camden", "opening_hours": "Mo-Th 11:00-22:00; Fr-Sa 11:00-23:00; Su 11:00-22:00", "image": "https://dynl.mktgcdn.com/p/lLqs5wEbzdgELrtmDh7Wxwsm9or0blEg05DuAy6Sg5w/450x450.jpg", "brand": "Wagamama", "brand:wikidata": "Q503715", "nsi_id": "wagamama-2fabb0"}, "geometry": {"type": "Point", "coordinates": [-0.1450772107132252, 51.54033458236547]}},
{"type": "Feature", "id": "TtlMVup705na7ZoBnC_swe7h_LA=", "properties": {"ref": "https://www.wagamama.com/restaurants/#14010096", "@spider": "wagamama_gb", "amenity": "restaurant", "cuisine": "asian", "addr:street_address": "11 high street the broadway shopping centre", "addr:city": "london ealing broadway", "addr:postcode": "W5 5DB", "addr:country": "GB", "name": "ealing", "phone": "020 8567 7352", "website": "https://www.wagamama.com/restaurants/london/ealing", "opening_hours": "Mo-Th 11:00-22:00; Fr-Sa 11:00-23:00; Su 11:00-22:00", "image": "https://dynl.mktgcdn.com/p/lLqs5wEbzdgELrtmDh7Wxwsm9or0blEg05DuAy6Sg5w/450x450.jpg", "brand": "Wagamama", "brand:wikidata": "Q503715", "nsi_id": "wagamama-2fabb0"}, "geometry": {"type": "Point", "coordinates": [-0.3045358, 51.5121915]}},
{"type": "Feature", "id": "0LU3-lCMHCPUyHKOXpXShHfBLIs=", "properties": {"ref": "https://www.wagamama.com/restaurants/#14010152", "@spider": "wagamama_gb", "amenity": "restaurant", "cuisine": "asian", "addr:street_address": "104 london designer outlet Wembley Park Blvd", "addr:city": "london wembley", "addr:state": "london", "addr:postcode": "HA9 0FD", "addr:country": "GB", "name": "wembley", "phone": "020 8795 2597", "website": "https://www.wagamama.com/restaurants/london/wembley", "opening_hours": "Mo-Th 11:00-22:00; Fr-Sa 11:00-23:00; Su 11:00-22:00", "image": "https://dynl.mktgcdn.com/p/lLqs5wEbzdgELrtmDh7Wxwsm9or0blEg05DuAy6Sg5w/450x450.jpg", "brand": "Wagamama", "brand:wikidata": "Q503715", "nsi_id": "wagamama-2fabb0"}, "geometry": {"type": "Point", "coordinates": [-0.2832236, 51.5566666]}},
{"type": "Feature", "id": "s_Z2X_FSOt7IE8m7Dac26cKUA14=", "properties": {"ref": "https://www.wagamama.com/restaurants/#14010122", "@spider": "wagamama_gb", "amenity": "restaurant", "cuisine": "asian", "addr:street_address": "101a wigmore street", "addr:city": "london", "addr:postcode": "W1U 1QR", "addr:country": "GB", "name": "wigmore street", "phone": "020 7409 0111", "website": "https://www.wagamama.com/restaurants/london/wigmore-street-bond-street", "opening_hours": "Mo-Th 11:00-22:00; Fr-Sa 11:00-23:00; Su 11:00-22:00", "image": "https://dynl.mktgcdn.com/p/lLqs5wEbzdgELrtmDh7Wxwsm9or0blEg05DuAy6Sg5w/450x450.jpg", "brand": "Wagamama", "brand:wikidata": "Q503715", "nsi_id": "wagamama-2fabb0"}, "geometry": {"type": "Point", "coordinates": [-0.1522235908296352, 51.5155978810316]}},
{"type": "Feature", "id": "gfisjPmtMdQmwj9r-IWlUNyOmlQ=", "properties": {"ref": "https://www.wagamama.com/restaurants/#14010079", "@spider": "wagamama_gb", "amenity": "restaurant", "cuisine": "asian", "addr:street_address": "1 ludgate hill", "addr:city": "london st paul's", "addr:postcode": "EC4M 7AA", "addr:country": "GB", "name": "st paul's", "phone": "020 3771 3421", "website": "https://www.wagamama.com/restaurants/london/st-pauls", "opening_hours": "Mo-Sa 11:00-22:00; Su 11:00-21:00", "image": "https://dynl.mktgcdn.com/p/lLqs5wEbzdgELrtmDh7Wxwsm9or0blEg05DuAy6Sg5w/450x450.jpg", "brand": "Wagamama", "brand:wikidata": "Q503715", "nsi_id": "wagamama-2fabb0"}, "geometry": {"type": "Point", "coordinates": [-0.1007135160469943, 51.513633824216]}},
{"type": "Feature", "id": "Fyc6Th6pLyrQLdCtJAjvvnJ_vXQ=", "properties": {"ref": "https://www.wagamama.com/restaurants/#14010013", "@spider": "wagamama_gb", "amenity": "restaurant", "cuisine": "asian", "addr:street_address": "1 clink street", "addr:city": "london", "addr:postcode": "SE1 9BU", "addr:country": "GB", "name": "clink street", "phone": "020 7403 3659", "website": "https://www.wagamama.com/restaurants/london/clink-street", "opening_hours": "Mo-Th 11:00-22:00; Fr-Sa 11:00-23:00; Su 11:00-22:00", "image": "https://dynl.mktgcdn.com/p/lLqs5wEbzdgELrtmDh7Wxwsm9or0blEg05DuAy6Sg5w/450x450.jpg", "brand": "Wagamama", "brand:wikidata": "Q503715", "nsi_id": "wagamama-2fabb0"}, "geometry": {"type": "Point", "coordinates": [-0.09199208269512837, 51.50703103703254]}},
{"type": "Feature", "id": "BS8a1pbvQVmQF7VdjER9Rge-_MU=", "properties": {"ref": "https://www.wagamama.com/restaurants/#14010071", "@spider": "wagamama_gb", "amenity": "restaurant", "cuisine": "asian", "addr:street_address": "2 st peters square", "addr:city": "manchester", "addr:postcode": "M2 3LQ", "addr:country": "GB", "name": "manchester st peters square", "phone": "0161 302 4630", "website": "https://www.wagamama.com/restaurants/manchester/manchester-st-peters-square", "opening_hours": "Mo-Th 11:00-22:00; Fr-Sa 11:00-23:00; Su 11:00-22:00", "image": "https://dynl.mktgcdn.com/p/lLqs5wEbzdgELrtmDh7Wxwsm9or0blEg05DuAy6Sg5w/450x450.jpg", "brand": "Wagamama", "brand:wikidata": "Q503715", "nsi_id": "wagamama-2fabb0"}, "geometry": {"type": "Point", "coordinates": [-2.244999, 53.477395]}},
{"type": "Feature", "id": "sluMtTgeB-IqTvQ1g9ctUqKq8f4=", "properties": {"ref": "https://www.wagamama.com/restaurants/#14010113", "@spider": "wagamama_gb", "amenity": "restaurant", "cuisine": "asian", "addr:street_address": "1 the printworks corporation street", "addr:city": "manchester", "addr:postcode": "M4 2BS", "addr:country": "GB", "name": "manchester printworks", "phone": "0161 839 5916", "website": "https://www.wagamama.com/restaurants/manchester/manchester-printworks", "opening_hours": "Mo-Th 11:00-22:00; Fr-Sa 11:00-23:00; Su 11:00-22:00", "image": "https://dynl.mktgcdn.com/p/lLqs5wEbzdgELrtmDh7Wxwsm9or0blEg05DuAy6Sg5w/450x450.jpg", "brand": "Wagamama", "brand:wikidata": "Q503715", "nsi_id": "wagamama-2fabb0"}, "geometry": {"type": "Point", "coordinates": [-2.241719430059561, 53.48519441076946]}},
{"type": "Feature", "id": "zDkFy8KZaTtCZwU2OGr7JLo0G2A=", "properties": {"ref": "https://www.wagamama.com/restaurants/#14010031", "@spider": "wagamama_gb", "amenity": "restaurant", "cuisine": "asian", "addr:street_address": "1 spinningfields square unit a4", "addr:city": "manchester", "addr:postcode": "M3 3AP", "addr:country": "GB", "name": "manchester spinningfields", "phone": "0161 833 9883", "website": "https://www.wagamama.com/restaurants/manchester/manchester-spinningfields", "opening_hours": "Mo-Th 11:00-22:00; Fr-Sa 11:00-23:00; Su 11:00-22:00", "image": "https://dynl.mktgcdn.com/p/lLqs5wEbzdgELrtmDh7Wxwsm9or0blEg05DuAy6Sg5w/450x450.jpg", "brand": "Wagamama", "brand:wikidata": "Q503715", "nsi_id": "wagamama-2fabb0"}, "geometry": {"type": "Point", "coordinates": [-2.249328, 53.479588]}},
{"type": "Feature", "id": "SbMdczjgC47WmkvbqjGYnP5quv0=", "properties": {"ref": "https://www.wagamama.com/restaurants/#14010032", "@spider": "wagamama_gb", "amenity": "restaurant", "cuisine": "asian", "addr:street_address": "7 sunset walk central milton keynes", "addr:city": "milton keynes", "addr:state": "buckinghamshire", "addr:postcode": "MK9 3PD", "addr:country": "GB", "name": "milton keynes", "phone": "01908 238341", "website": "https://www.wagamama.com/restaurants/milton-keynes/milton-keynes", "opening_hours": "Mo-Su 11:00-22:00", "image": "https://dynl.mktgcdn.com/p/lLqs5wEbzdgELrtmDh7Wxwsm9or0blEg05DuAy6Sg5w/450x450.jpg", "brand": "Wagamama", "brand:wikidata": "Q503715", "nsi_id": "wagamama-2fabb0"}, "geometry": {"type": "Point", "coordinates": [-0.7593592, 52.0425646]}},
{"type": "Feature", "id": "uGyrg1p9OcgEEvbabr_Q16FSoiE=", "properties": {"ref": "https://www.wagamama.com/restaurants/#14010145", "@spider": "wagamama_gb", "amenity": "restaurant", "cuisine": "asian", "addr:street_address": "602 marlborough gate unit 18a", "addr:city": "milton keynes", "addr:state": "buckinghamshire", "addr:postcode": "MK9 3XS", "addr:country": "GB", "name": "milton keynes xscape", "phone": "01908 397049", "website": "https://www.wagamama.com/restaurants/milton-keynes/milton-keynes-xscape", "opening_hours": "Mo-Th 11:00-22:00; Fr-Sa 11:00-23:00; Su 11:00-22:00", "image": "https://dynl.mktgcdn.com/p/lLqs5wEbzdgELrtmDh7Wxwsm9or0blEg05DuAy6Sg5w/450x450.jpg", "brand": "Wagamama", "brand:wikidata": "Q503715", "nsi_id": "wagamama-2fabb0"}, "geometry": {"type": "Point", "coordinates": [-0.748319, 52.041258]}},
{"type": "Feature", "id": "eGzSi1DeeNumdvF_-5a7odHRysc=", "properties": {"ref": "https://www.wagamama.com/restaurants/#14010139", "@spider": "wagamama_gb", "amenity": "restaurant", "cuisine": "asian", "addr:street_address": "the old market shopping centre eden", "addr:city": "high wycombe", "addr:state": "buckinghamshire", "addr:postcode": "HP11 2DB", "addr:country": "GB", "name": "high wycombe", "phone": "01494 511302", "website": "https://www.wagamama.com/restaurants/high-wycombe/high-wycombe", "opening_hours": "Mo-Th 11:00-22:00; Fr-Sa 11:00-23:00; Su 11:00-22:00", "image": "https://dynl.mktgcdn.com/p/lLqs5wEbzdgELrtmDh7Wxwsm9or0blEg05DuAy6Sg5w/450x450.jpg", "brand": "Wagamama", "brand:wikidata": "Q503715", "nsi_id": "wagamama-2fabb0"}, "geometry": {"type": "Point", "coordinates": [-0.7562429, 51.6311414]}},
{"type": "Feature", "id": "65V2RJ-Wu_3Cjw6dTITwHeoPOo4=", "properties": {"ref": "https://www.wagamama.com/restaurants/#14010105", "@spider": "wagamama_gb", "amenity": "restaurant", "cuisine": "asian", "addr:street_address": "25 the old market shopping centre widemarsh street", "addr:city": "hereford", "addr:state": "herefordshire", "addr:postcode": "HR4 9HR", "addr:country": "GB", "name": "hereford", "phone": "01432 367808", "website": "https://www.wagamama.com/restaurants/hereford/hereford", "opening_hours": "Mo-Su 11:00-22:00", "image": "https://dynl.mktgcdn.com/p/lLqs5wEbzdgELrtmDh7Wxwsm9or0blEg05DuAy6Sg5w/450x450.jpg", "brand": "Wagamama", "brand:wikidata": "Q503715", "nsi_id": "wagamama-2fabb0"}, "geometry": {"type": "Point", "coordinates": [-2.717114541922683, 52.058730168842864]}},
{"type": "Feature", "id": "Eig_FUzU66QaPOjNvQGdcn9bY9I=", "properties": {"ref": "https://www.wagamama.com/restaurants/#38090109", "@spider": "wagamama_gb", "amenity": "restaurant", "cuisine": "asian", "addr:street_address": "Unit 8 barratt way", "addr:city": "harrow", "addr:postcode": "HA35TJ", "addr:country": "GB", "name": "harrow", "phone": "020 3375 2032", "website": "https://www.wagamama.com/restaurants/harrow/harrow-delivery-kitchen", "opening_hours": "Mo-Su 12:00-22:00", "image": "https://dynl.mktgcdn.com/p/ii5hSy172ufQXjVvcKivZ08L1shunkrute07FLm61XY/450x450.jpg", "brand": "Wagamama", "brand:wikidata": "Q503715", "nsi_id": "wagamama-2fabb0"}, "geometry": {"type": "Point", "coordinates": [-0.34353926697354487, 51.59668771751686]}},
{"type": "Feature", "id": "RpxTL4w7_juM4pISEi6ncGMRqH4=", "properties": {"ref": "https://www.wagamama.com/restaurants/#14010137", "@spider": "wagamama_gb", "amenity": "restaurant", "cuisine": "asian", "addr:street_address": "13/15 parliament street", "addr:city": "harrogate", "addr:state": "north yorkshire", "addr:postcode": "HG1 2QU", "addr:country": "GB", "name": "harrogate", "phone": "01423 506313", "website": "https://www.wagamama.com/restaurants/harrogate/harrogate", "opening_hours": "Mo-Su 11:00-22:00", "image": "https://dynl.mktgcdn.com/p/lLqs5wEbzdgELrtmDh7Wxwsm9or0blEg05DuAy6Sg5w/450x450.jpg", "brand": "Wagamama", "brand:wikidata": "Q503715", "nsi_id": "wagamama-2fabb0"}, "geometry": {"type": "Point", "coordinates": [-1.5430469709525596, 53.99333589392221]}},
{"type": "Feature", "id": "PhBQQ_GBLVyNxrWK1tBgtk1Fe-s=", "properties": {"ref": "https://www.wagamama.com/restaurants/#41132772", "@spider": "wagamama_gb", "amenity": "restaurant", "cuisine": "asian", "addr:street_address": "unit 4, the water gardens southgate", "addr:city": "harlow", "addr:postcode": "CM201AB", "addr:country": "GB", "name": "harlow", "phone": "01279 214234", "website": "https://www.wagamama.com/restaurants/harlow/harlow", "opening_hours": "Mo-Th 11:00-22:00; Fr-Sa 11:00-23:00; Su 11:00-22:00", "image": "https://www.wagamama.com/restaurants/harlow/harlow", "brand": "Wagamama", "brand:wikidata": "Q503715", "nsi_id": "wagamama-2fabb0"}, "geometry": {"type": "Point", "coordinates": [0.0953192, 51.7682572]}},
{"type": "Feature", "id": "rp5HvssB1lSfcSkXAmzo4CD6SKw=", "properties": {"ref": "https://www.wagamama.com/restaurants/#14010028", "@spider": "wagamama_gb", "amenity": "restaurant", "cuisine": "asian", "addr:street_address": "25-29 high street", "addr:city": "guildford", "addr:state": "surrey", "addr:postcode": "GU1 3DY", "addr:country": "GB", "name": "guildford", "phone": "01483 457779", "website": "https://www.wagamama.com/restaurants/guildford/guildford", "opening_hours": "Mo-Th 11:00-22:00; Fr-Sa 11:00-23:00; Su 11:00-22:00", "image": "https://dynl.mktgcdn.com/p/lLqs5wEbzdgELrtmDh7Wxwsm9or0blEg05DuAy6Sg5w/450x450.jpg", "brand": "Wagamama", "brand:wikidata": "Q503715", "nsi_id": "wagamama-2fabb0"}, "geometry": {"type": "Point", "coordinates": [-0.5761571167076909, 51.23515022050241]}},
{"type": "Feature", "id": "M8yFYWNqVxzcTclrbi8RpGchpWA=", "properties": {"ref": "https://www.wagamama.com/restaurants/#14010027", "@spider": "wagamama_gb", "amenity": "restaurant", "cuisine": "asian", "addr:street_address": "Unit 5, Merchants Road Gloucester Quays", "addr:city": "gloucester", "addr:state": "gloucestershire", "addr:postcode": "GL1 5SH", "addr:country": "GB", "name": "gloucester quays", "phone": "01452 764267", "website": "https://www.wagamama.com/restaurants/gloucester/gloucester-quays", "opening_hours": "Mo-Th 11:00-22:00; Fr-Sa 11:00-23:00; Su 11:00-22:00", "image": "https://dynl.mktgcdn.com/p/lLqs5wEbzdgELrtmDh7Wxwsm9or0blEg05DuAy6Sg5w/450x450.jpg", "brand": "Wagamama", "brand:wikidata": "Q503715", "nsi_id": "wagamama-2fabb0"}, "geometry": {"type": "Point", "coordinates": [-2.2530911, 51.8606317]}},
{"type": "Feature", "id": "7HBopDg98iL5lciS83Pj0O1Ubfk=", "properties": {"ref": "https://www.wagamama.com/restaurants/#14010115", "@spider": "wagamama_gb", "amenity": "restaurant", "cuisine": "asian", "addr:street_address": "41 garden walk", "addr:city": "gateshead metrocentre", "addr:state": "tyne + wear", "addr:postcode": "NE11 9XZ", "addr:country": "GB", "name": "gateshead metrocentre", "phone": "0191 460 3351", "website": "https://www.wagamama.com/restaurants/gateshead/gateshead-metrocentre", "opening_hours": "Mo-Sa 11:00-22:00; Su 11:00-20:00", "image": "https://dynl.mktgcdn.com/p/lLqs5wEbzdgELrtmDh7Wxwsm9or0blEg05DuAy6Sg5w/450x450.jpg", "brand": "Wagamama", "brand:wikidata": "Q503715", "nsi_id": "wagamama-2fabb0"}, "geometry": {"type": "Point", "coordinates": [-1.6696777, 54.9584374]}},
{"type": "Feature", "id": "HzvpQbpTbSYJMKGDRRHH6ZGdwD4=", "properties": {"ref": "https://www.wagamama.com/restaurants/#14010154", "@spider": "wagamama_gb", "amenity": "restaurant", "cuisine": "asian", "addr:street_address": "unit 1a whiteley shopping centre whiteley way", "addr:city": "fareham whiteley", "addr:state": "hampshire", "addr:postcode": "PO15 7PD", "addr:country": "GB", "name": "whiteley fareham", "phone": "01489 564900", "website": "https://www.wagamama.com/restaurants/fareham/whiteley-fareham", "opening_hours": "Mo-Th 11:00-22:00; Fr-Sa 11:00-23:00; Su 11:00-22:00", "image": "https://dynl.mktgcdn.com/p/lLqs5wEbzdgELrtmDh7Wxwsm9or0blEg05DuAy6Sg5w/450x450.jpg", "brand": "Wagamama", "brand:wikidata": "Q503715", "nsi_id": "wagamama-2fabb0"}, "geometry": {"type": "Point", "coordinates": [-1.2468157279307661, 50.88551409350957]}},
{"type": "Feature", "id": "-8dwvXhupEE3jgl_Aix-IB71X6Q=", "properties": {"ref": "https://www.wagamama.com/restaurants/#14010024", "@spider": "wagamama_gb", "amenity": "restaurant", "cuisine": "asian", "addr:street_address": "16 bedford street", "addr:city": "exeter", "addr:state": "devon", "addr:postcode": "EX1 1LL", "addr:country": "GB", "name": "exeter", "phone": "01392 274810", "website": "https://www.wagamama.com/restaurants/exeter/exeter", "opening_hours": "Mo-Th 11:00-22:00; Fr-Sa 11:00-23:00; Su 11:00-22:00", "image": "https://dynl.mktgcdn.com/p/lLqs5wEbzdgELrtmDh7Wxwsm9or0blEg05DuAy6Sg5w/450x450.jpg", "brand": "Wagamama", "brand:wikidata": "Q503715", "nsi_id": "wagamama-2fabb0"}, "geometry": {"type": "Point", "coordinates": [-3.5289654714198377, 50.72359915043933]}},
{"type": "Feature", "id": "3S1-0Ehy99ot6zFpmMrIifYQBwk=", "properties": {"ref": "https://www.wagamama.com/restaurants/#14969586", "@spider": "wagamama_gb", "amenity": "restaurant", "cuisine": "asian", "addr:street_address": "southbury leisure park southbury road", "addr:city": "enfield", "addr:postcode": "EN1 1UY", "addr:country": "GB", "name": "enfield", "phone": "020 3117 5904", "website": "https://www.wagamama.com/restaurants/enfield/enfield", "opening_hours": "Mo-Th 11:00-22:00; Fr-Sa 11:00-23:00; Su 11:00-22:00", "image": "https://dynl.mktgcdn.com/p/lLqs5wEbzdgELrtmDh7Wxwsm9or0blEg05DuAy6Sg5w/450x450.jpg", "brand": "Wagamama", "brand:wikidata": "Q503715", "nsi_id": "wagamama-2fabb0"}, "geometry": {"type": "Point", "coordinates": [-0.0629706, 51.6505218]}},
{"type": "Feature", "id": "8rMCUsdbdZlKP6ipYbUCMIB8TKg=", "properties": {"ref": "https://www.wagamama.com/restaurants/#14010094", "@spider": "wagamama_gb", "amenity": "restaurant", "cuisine": "asian", "addr:street_address": "56 cheshire oaks outlet village kinsey road", "addr:city": "ellesmere port", "addr:state": "cheshire", "addr:postcode": "CH65 9JJ", "addr:country": "GB", "name": "cheshire oaks", "phone": "0151 356 7919", "website": "https://www.wagamama.com/restaurants/ellesmere-port/cheshire-oaks", "opening_hours": "Mo-Su 11:00-22:00", "image": "https://dynl.mktgcdn.com/p/lLqs5wEbzdgELrtmDh7Wxwsm9or0blEg05DuAy6Sg5w/450x450.jpg", "brand": "Wagamama", "brand:wikidata": "Q503715", "nsi_id": "wagamama-2fabb0"}, "geometry": {"type": "Point", "coordinates": [-2.8787128, 53.2644132]}},
{"type": "Feature", "id": "G_2uR8emvv2OyEP0un6exNGJozs=", "properties": {"ref": "https://www.wagamama.com/restaurants/#14010062", "@spider": "wagamama_gb", "amenity": "restaurant", "cuisine": "asian", "addr:street_address": "21 weymouth avenue brewery square", "addr:city": "dorchester", "addr:state": "dorset", "addr:postcode": "DT1 1HX", "addr:country": "GB", "name": "dorchester", "phone": "01305 260219", "website": "https://www.wagamama.com/restaurants/dorchester/dorchester", "opening_hours": "Mo-Th 11:00-22:00; Fr-Sa 11:00-23:00; Su 11:00-22:00", "image": "https://dynl.mktgcdn.com/p/lLqs5wEbzdgELrtmDh7Wxwsm9or0blEg05DuAy6Sg5w/450x450.jpg", "brand": "Wagamama", "brand:wikidata": "Q503715", "nsi_id": "wagamama-2fabb0"}, "geometry": {"type": "Point", "coordinates": [-2.4384262426232226, 50.71073955090771]}},
{"type": "Feature", "id": "8MREddHCHnMOpEaOZBMCdUrLzKk=", "properties": {"ref": "https://www.wagamama.com/restaurants/#14010134", "@spider": "wagamama_gb", "amenity": "restaurant", "cuisine": "asian", "addr:street_address": "level two, london road london road", "addr:city": "derby westfield shopping centre", "addr:state": "derbyshire", "addr:postcode": "DE1 2PQ", "addr:country": "GB", "name": "derby", "phone": "01332 347556", "website": "https://www.wagamama.com/restaurants/derby/derby", "opening_hours": "Mo-Th 11:00-22:00; Fr-Sa 11:00-22:30; Su 11:00-21:00", "image": "https://dynl.mktgcdn.com/p/lLqs5wEbzdgELrtmDh7Wxwsm9or0blEg05DuAy6Sg5w/450x450.jpg", "brand": "Wagamama", "brand:wikidata": "Q503715", "nsi_id": "wagamama-2fabb0"}, "geometry": {"type": "Point", "coordinates": [-1.4736331607132342, 52.919434922627836]}},
{"type": "Feature", "id": "Q9WDXqWejQWP0ySrIao4E9Vk6VI=", "properties": {"ref": "https://www.wagamama.com/restaurants/#14010092", "@spider": "wagamama_gb", "amenity": "restaurant", "cuisine": "asian", "addr:street_address": "bluewater shopping centre unit svu04", "addr:city": "dartford watercircus-upper", "addr:state": "kent", "addr:postcode": "DA9 9SG", "addr:country": "GB", "name": "bluewater", "phone": "01322 387773", "website": "https://www.wagamama.com/restaurants/dartford/bluewater", "opening_hours": "Mo-Su 11:00-22:00", "image": "https://dynl.mktgcdn.com/p/lLqs5wEbzdgELrtmDh7Wxwsm9or0blEg05DuAy6Sg5w/450x450.jpg", "brand": "Wagamama", "brand:wikidata": "Q503715", "nsi_id": "wagamama-2fabb0"}, "geometry": {"type": "Point", "coordinates": [0.2704322, 51.4376684]}},
{"type": "Feature", "id": "elWIBnUmwXKB3muph7VYqrAceVo=", "properties": {"ref": "https://www.wagamama.com/restaurants/#18286275", "@spider": "wagamama_gb", "amenity": "restaurant", "cuisine": "asian", "addr:street_address": "unit 9 crawley leisure park", "addr:city": "crawley", "addr:state": "west sussex", "addr:postcode": "RH10 8LR", "addr:country": "GB", "name": "crawley", "phone": "01293 699085", "website": "https://www.wagamama.com/restaurants/crawley/crawley", "opening_hours": "Mo-Th 11:00-22:00; Fr-Sa 11:00-23:00; Su 11:00-22:00", "image": "https://dynl.mktgcdn.com/p/lLqs5wEbzdgELrtmDh7Wxwsm9or0blEg05DuAy6Sg5w/450x450.jpg", "brand": "Wagamama", "brand:wikidata": "Q503715", "nsi_id": "wagamama-2fabb0"}, "geometry": {"type": "Point", "coordinates": [-0.1895291493246365, 51.12020535104898]}},
{"type": "Feature", "id": "XH_Kv4Wbl5T3D424ijV1joThLS8=", "properties": {"ref": "https://www.wagamama.com/restaurants/#14010095", "@spider": "wagamama_gb", "amenity": "restaurant", "cuisine": "asian", "addr:street_address": "cathedral lanes shopping centre", "addr:city": "coventry", "addr:state": "west midlands", "addr:postcode": "CV1 1LL", "addr:country": "GB", "name": "coventry", "phone": "024 7509 1251", "website": "https://www.wagamama.com/restaurants/coventry/coventry", "opening_hours": "Mo-Th 11:00-22:00; Fr-Sa 11:00-23:00; Su 11:00-22:00", "image": "https://dynl.mktgcdn.com/p/lLqs5wEbzdgELrtmDh7Wxwsm9or0blEg05DuAy6Sg5w/450x450.jpg", "brand": "Wagamama", "brand:wikidata": "Q503715", "nsi_id": "wagamama-2fabb0"}, "geometry": {"type": "Point", "coordinates": [-1.5100693086308183, 52.40794392740034]}},
{"type": "Feature", "id": "DKHC6wQJmwTAC_z0dVU1THPFEF4=", "properties": {"ref": "https://www.wagamama.com/restaurants/#14010021", "@spider": "wagamama_gb", "amenity": "restaurant", "cuisine": "asian", "addr:street_address": "141 -142 high street colchester", "addr:city": "colchester", "addr:state": "essex", "addr:postcode": "C01 1PG", "addr:country": "GB", "name": "colchester", "phone": "01206 911041", "website": "https://www.wagamama.com/restaurants/colchester/colchester", "opening_hours": "Mo-Th 11:00-22:00; Fr-Sa 11:00-23:00; Su 11:00-22:00", "image": "https://dynl.mktgcdn.com/p/lLqs5wEbzdgELrtmDh7Wxwsm9or0blEg05DuAy6Sg5w/450x450.jpg", "brand": "Wagamama", "brand:wikidata": "Q503715", "nsi_id": "wagamama-2fabb0"}, "geometry": {"type": "Point", "coordinates": [0.8984013415365553, 51.889798897046845]}},
{"type": "Feature", "id": "qOeGqHqjN13sKwZyZ39whQauWBY=", "properties": {"ref": "https://www.wagamama.com/restaurants/#14010132", "@spider": "wagamama_gb", "amenity": "restaurant", "cuisine": "asian", "addr:street_address": "26 south street", "addr:city": "chichester", "addr:state": "west sussex", "addr:postcode": "PO19 1EL", "addr:country": "GB", "name": "chichester", "phone": "01243 533955", "website": "https://www.wagamama.com/restaurants/chichester/chichester", "opening_hours": "Mo-Th 11:00-22:00; Fr-Sa 11:00-23:00; Su 11:00-22:00", "image": "https://dynl.mktgcdn.com/p/lLqs5wEbzdgELrtmDh7Wxwsm9or0blEg05DuAy6Sg5w/450x450.jpg", "brand": "Wagamama", "brand:wikidata": "Q503715", "nsi_id": "wagamama-2fabb0"}, "geometry": {"type": "Point", "coordinates": [-0.7797496872494776, 50.834977932634]}},
{"type": "Feature", "id": "VfRBaqcqV1BEiULyEjMM9TY0DVA=", "properties": {"ref": "https://www.wagamama.com/restaurants/#14010058", "@spider": "wagamama_gb", "amenity": "restaurant", "cuisine": "asian", "addr:street_address": "ground floor east, cheltenham house clarence street", "addr:city": "cheltenham", "addr:state": "gloucestershire", "addr:postcode": "GL50 3JQ", "addr:country": "GB", "name": "cheltenham", "phone": "01242 335241", "website": "https://www.wagamama.com/restaurants/cheltenham/cheltenham", "opening_hours": "Mo-Th 11:00-22:00; Fr-Sa 11:00-23:00; Su 11:00-22:00", "image": "https://dynl.mktgcdn.com/p/lLqs5wEbzdgELrtmDh7Wxwsm9or0blEg05DuAy6Sg5w/450x450.jpg", "brand": "Wagamama", "brand:wikidata": "Q503715", "nsi_id": "wagamama-2fabb0"}, "geometry": {"type": "Point", "coordinates": [-2.0763242854521877, 51.90089690685885]}},
{"type": "Feature", "id": "hw2uWhDaNyWQZXGO3vQDI92T358=", "properties": {"ref": "https://www.wagamama.com/restaurants/#14010020", "@spider": "wagamama_gb", "amenity": "restaurant", "cuisine": "asian", "addr:street_address": "127-129 bond street unti 4 j", "addr:city": "chelmsford", "addr:state": "essex", "addr:postcode": "CM1 1GD", "addr:country": "GB", "name": "chelmsford", "phone": "01245 408595", "website": "https://www.wagamama.com/restaurants/chelmsford/chelmsford", "opening_hours": "Mo-Th 11:00-22:00; Fr-Sa 11:00-23:00; Su 11:00-22:00", "image": "https://dynl.mktgcdn.com/p/lLqs5wEbzdgELrtmDh7Wxwsm9or0blEg05DuAy6Sg5w/450x450.jpg", "brand": "Wagamama", "brand:wikidata": "Q503715", "nsi_id": "wagamama-2fabb0"}, "geometry": {"type": "Point", "coordinates": [0.4758249110723227, 51.733960352544486]}},
{"type": "Feature", "id": "9Gk0n5LQenMoneU_aAfcRk7kVsA=", "properties": {"ref": "https://www.wagamama.com/restaurants/#14010101", "@spider": "wagamama_gb", "amenity": "restaurant", "cuisine": "asian", "addr:street_address": "glasgow fort shopping park, block e", "addr:city": "glasgow", "addr:state": "scotland", "addr:postcode": "G34 9DY", "addr:country": "GB", "name": "glasgow fort", "phone": "0141 378 0050", "website": "https://www.wagamama.com/restaurants/glasgow/glasgow-fort", "opening_hours": "Mo-Su 11:00-22:00", "image": "https://dynl.mktgcdn.com/p/lLqs5wEbzdgELrtmDh7Wxwsm9or0blEg05DuAy6Sg5w/450x450.jpg", "brand": "Wagamama", "brand:wikidata": "Q503715", "nsi_id": "wagamama-2fabb0"}, "geometry": {"type": "Point", "coordinates": [-4.1361786, 55.8700172]}},
{"type": "Feature", "id": "XRtjjyuFOqwTpPfgUvCeAmwAzTs=", "properties": {"ref": "https://www.wagamama.com/restaurants/#14010026", "@spider": "wagamama_gb", "amenity": "restaurant", "cuisine": "asian", "addr:street_address": "97 west george street", "addr:city": "glasgow", "addr:state": "scotland", "addr:postcode": "G2 1PB", "addr:country": "GB", "name": "glasgow city centre", "phone": "0141 229 1468", "website": "https://www.wagamama.com/restaurants/glasgow/glasgow-city-centre", "opening_hours": "Mo-Th 11:00-22:00; Fr-Sa 11:00-23:00; Su 11:00-22:00", "image": "https://dynl.mktgcdn.com/p/lLqs5wEbzdgELrtmDh7Wxwsm9or0blEg05DuAy6Sg5w/450x450.jpg", "brand": "Wagamama", "brand:wikidata": "Q503715", "nsi_id": "wagamama-2fabb0"}, "geometry": {"type": "Point", "coordinates": [-4.2554986, 55.8621145]}},
{"type": "Feature", "id": "iM5blCC9MVk8nixfGfHL85zB4YQ=", "properties": {"ref": "https://www.wagamama.com/restaurants/#14010136", "@spider": "wagamama_gb", "amenity": "restaurant", "cuisine": "asian", "addr:street_address": "763 barrhead road unit 34", "addr:city": "glasgow silverburn", "addr:state": "scotland", "addr:postcode": "G53 6AG", "addr:country": "GB", "name": "glasgow silverburn", "phone": "0141 880 5877", "website": "https://www.wagamama.com/restaurants/glasgow/glasgow-silverburn", "opening_hours": "Mo-Su 11:00-22:00", "image": "https://dynl.mktgcdn.com/p/lLqs5wEbzdgELrtmDh7Wxwsm9or0blEg05DuAy6Sg5w/450x450.jpg", "brand": "Wagamama", "brand:wikidata": "Q503715", "nsi_id": "wagamama-2fabb0"}, "geometry": {"type": "Point", "coordinates": [-4.342108338623007, 55.82289036397511]}},
{"type": "Feature", "id": "EC3J4SVRsI7ggxvwGNDCBORvEug=", "properties": {"ref": "https://www.wagamama.com/restaurants/#14010019", "@spider": "wagamama_gb", "amenity": "restaurant", "cuisine": "asian", "addr:street_address": "7-9 longmarket", "addr:city": "canterbury", "addr:state": "kent", "addr:postcode": "CT1 2JS", "addr:country": "GB", "name": "canterbury", "phone": "01227 454307", "website": "https://www.wagamama.com/restaurants/canterbury/canterbury", "opening_hours": "Mo-Th 11:00-22:00; Fr-Sa 11:00-23:00; Su 11:00-22:00", "image": "https://dynl.mktgcdn.com/p/lLqs5wEbzdgELrtmDh7Wxwsm9or0blEg05DuAy6Sg5w/450x450.jpg", "brand": "Wagamama", "brand:wikidata": "Q503715", "nsi_id": "wagamama-2fabb0"}, "geometry": {"type": "Point", "coordinates": [1.081988623348252, 51.27862555353402]}},
{"type": "Feature", "id": "vTTq5xXs06PykuRcCw3TPJ3142Y=", "properties": {"ref": "https://www.wagamama.com/restaurants/#23728243", "@spider": "wagamama_gb", "amenity": "restaurant", "cuisine": "asian", "addr:street_address": "west midlands designer outlet, eastern way", "addr:city": "cannock", "addr:state": "staffordshire", "addr:postcode": "WS11 7JZ", "addr:country": "GB", "name": "west midlands", "phone": "01543 399654", "website": "https://www.wagamama.com/restaurants/cannock/west-midlands", "opening_hours": "Mo-Sa 11:00-20:30; Su 11:00-18:30", "image": "https://dynl.mktgcdn.com/p/ii5hSy172ufQXjVvcKivZ08L1shunkrute07FLm61XY/450x450.jpg", "brand": "Wagamama", "brand:wikidata": "Q503715", "nsi_id": "wagamama-2fabb0"}, "geometry": {"type": "Point", "coordinates": [-2.0170815, 52.6887727]}},
{"type": "Feature", "id": "0YtjPr9j3MYDMtOIRfOOIW60GRg=", "properties": {"ref": "https://www.wagamama.com/restaurants/#14010135", "@spider": "wagamama_gb", "amenity": "restaurant", "cuisine": "asian", "addr:street_address": "unit le2b, ocean terminal leith", "addr:city": "edinburgh", "addr:state": "scotland", "addr:postcode": "EH6 6JJ", "addr:country": "GB", "name": "edinburgh ocean terminal", "phone": "0131 553 7036", "website": "https://www.wagamama.com/restaurants/edinburgh/edinburgh-ocean-terminal", "opening_hours": "Mo-Su 12:00-20:00", "image": "https://www.wagamama.com/restaurants/edinburgh/edinburgh-ocean-terminal", "brand": "Wagamama", "brand:wikidata": "Q503715", "nsi_id": "wagamama-2fabb0"}, "geometry": {"type": "Point", "coordinates": [-3.178714, 55.980401]}},
{"type": "Feature", "id": "6CyvYFQD_6TNyGrwWAhOY_cVR_Y=", "properties": {"ref": "https://www.wagamama.com/restaurants/#14010063", "@spider": "wagamama_gb", "amenity": "restaurant", "cuisine": "asian", "addr:street_address": "unit 5, st andrew square", "addr:city": "edinburgh", "addr:state": "scotland", "addr:postcode": "EH2 2BD", "addr:country": "GB", "name": "edinburgh st andrew square", "phone": "0131 285 4787", "website": "https://www.wagamama.com/restaurants/edinburgh/edinburgh-st-andrew-square", "opening_hours": "Mo-Th 11:00-22:00; Fr-Sa 11:00-23:00; Su 11:00-22:00", "image": "https://dynl.mktgcdn.com/p/lLqs5wEbzdgELrtmDh7Wxwsm9or0blEg05DuAy6Sg5w/450x450.jpg", "brand": "Wagamama", "brand:wikidata": "Q503715", "nsi_id": "wagamama-2fabb0"}, "geometry": {"type": "Point", "coordinates": [-3.192676789356824, 55.95352455898943]}},
{"type": "Feature", "id": "IhtglTdszrI04IhZ39kc3e0XvEM=", "properties": {"ref": "https://www.wagamama.com/restaurants/#15159270", "@spider": "wagamama_gb", "amenity": "restaurant", "cuisine": "asian", "addr:street_address": "Fort Kinnaird 78 Kinnaird Park", "addr:city": "Edinburgh Newcraighall", "addr:postcode": "EH15 3RD", "addr:country": "GB", "name": "edinburgh fort kinnaird", "phone": "0131 202 4119", "website": "https://www.wagamama.com/restaurants/edinburgh/edinburgh-fort-kinnaird", "opening_hours": "Mo-Su 11:00-22:00", "image": "https://dynl.mktgcdn.com/p/lLqs5wEbzdgELrtmDh7Wxwsm9or0blEg05DuAy6Sg5w/450x450.jpg", "brand": "Wagamama", "brand:wikidata": "Q503715", "nsi_id": "wagamama-2fabb0"}, "geometry": {"type": "Point", "coordinates": [-3.104329, 55.9350844]}},
{"type": "Feature", "id": "OV6DotvqAv9yOwT0CSNPIICe0ts=", "properties": {"ref": "https://www.wagamama.com/restaurants/#14010097", "@spider": "wagamama_gb", "amenity": "restaurant", "cuisine": "asian", "addr:street_address": "1 castle terrace", "addr:city": "edinburgh", "addr:state": "scotland", "addr:postcode": "EH1 2DP", "addr:country": "GB", "name": "edinburgh lothian road", "phone": "0131 229 5506", "website": "https://www.wagamama.com/restaurants/edinburgh/edinburgh-lothian-road", "opening_hours": "Mo-Th 11:00-22:00; Fr-Sa 11:00-23:00; Su 11:00-22:00", "image": "https://dynl.mktgcdn.com/p/lLqs5wEbzdgELrtmDh7Wxwsm9or0blEg05DuAy6Sg5w/450x450.jpg", "brand": "Wagamama", "brand:wikidata": "Q503715", "nsi_id": "wagamama-2fabb0"}, "geometry": {"type": "Point", "coordinates": [-3.2062061865082114, 55.94864772708935]}},
{"type": "Feature", "id": "bssQ-KTgLw1ByyOoPu23dTYdhQ0=", "properties": {"ref": "https://www.wagamama.com/restaurants/#14010128", "@spider": "wagamama_gb", "amenity": "restaurant", "cuisine": "asian", "addr:street_address": "park street 9 the atrium", "addr:city": "camberley", "addr:state": "surrey", "addr:postcode": "GU15 3GP", "addr:country": "GB", "name": "camberley", "phone": "01276 692317", "website": "https://www.wagamama.com/restaurants/camberley/camberley", "opening_hours": "Mo-Th 11:00-22:00; Fr-Sa 11:00-23:00; Su 11:00-22:00", "image": "https://dynl.mktgcdn.com/p/lLqs5wEbzdgELrtmDh7Wxwsm9or0blEg05DuAy6Sg5w/450x450.jpg", "brand": "Wagamama", "brand:wikidata": "Q503715", "nsi_id": "wagamama-2fabb0"}, "geometry": {"type": "Point", "coordinates": [-0.7476584235932933, 51.33766646933944]}},
{"type": "Feature", "id": "gBwy4iafnS9W7vHCW2whlVvlHyk=", "properties": {"ref": "https://www.wagamama.com/restaurants/#14010093", "@spider": "wagamama_gb", "amenity": "restaurant", "cuisine": "asian", "addr:street_address": "unit 7 the arc shopping centre", "addr:city": "bury st edmunds", "addr:state": "suffolk", "addr:postcode": "IP33 3FA", "addr:country": "GB", "name": "bury st edmunds", "phone": "01284 711987", "website": "https://www.wagamama.com/restaurants/bury-st-edmunds/bury-st-edmunds", "opening_hours": "Mo-Th 11:00-22:00; Fr-Sa 11:00-23:00; Su 11:00-22:00", "image": "https://dynl.mktgcdn.com/p/lLqs5wEbzdgELrtmDh7Wxwsm9or0blEg05DuAy6Sg5w/450x450.jpg", "brand": "Wagamama", "brand:wikidata": "Q503715", "nsi_id": "wagamama-2fabb0"}, "geometry": {"type": "Point", "coordinates": [0.709991, 52.24612]}},
{"type": "Feature", "id": "gtSnP44p7t4e_6vcn6FayebGe04=", "properties": {"ref": "https://www.wagamama.com/restaurants/#14010055", "@spider": "wagamama_gb", "amenity": "restaurant", "cuisine": "asian", "addr:street_address": "high street intu shopping centre", "addr:city": "bromley", "addr:postcode": "BR1 1DN", "addr:country": "GB", "name": "bromley", "phone": "020 3793 5937", "website": "https://www.wagamama.com/restaurants/bromley/bromley", "opening_hours": "Mo-Th 11:00-22:00; Fr-Sa 11:00-23:00; Su 11:00-22:00", "image": "https://dynl.mktgcdn.com/p/lLqs5wEbzdgELrtmDh7Wxwsm9or0blEg05DuAy6Sg5w/450x450.jpg", "brand": "Wagamama", "brand:wikidata": "Q503715", "nsi_id": "wagamama-2fabb0"}, "geometry": {"type": "Point", "coordinates": [0.0180316, 51.4040822]}},
{"type": "Feature", "id": "CawA7-Zb3bBARD2SxpNcS7a9P6k=", "properties": {"ref": "https://www.wagamama.com/restaurants/#14010088", "@spider": "wagamama_gb", "amenity": "restaurant", "cuisine": "asian", "addr:street_address": "units 94 + 95, mcarthurglen bridgend the derwen", "addr:city": "bridgend", "addr:state": "mid glamorgan", "addr:postcode": "CF32 9SU", "addr:country": "GB", "name": "bridgend", "phone": "01656 760674", "website": "https://www.wagamama.com/restaurants/bridgend/bridgend", "opening_hours": "Mo-Th 11:00-22:00; Fr-Sa 11:00-23:00; Su 11:00-22:00", "image": "https://dynl.mktgcdn.com/p/lLqs5wEbzdgELrtmDh7Wxwsm9or0blEg05DuAy6Sg5w/450x450.jpg", "brand": "Wagamama", "brand:wikidata": "Q503715", "nsi_id": "wagamama-2fabb0"}, "geometry": {"type": "Point", "coordinates": [-3.575838, 51.5327149]}},
{"type": "Feature", "id": "rGPz0KO38mZ8X8DD0LGACWpwqy0=", "properties": {"ref": "https://www.wagamama.com/restaurants/#29024856", "@spider": "wagamama_gb", "amenity": "restaurant", "cuisine": "asian", "addr:street_address": "unit 7, braintree retail & leisure park charter way", "addr:city": "braintree", "addr:state": "essex", "addr:postcode": "CM77 8YH", "addr:country": "GB", "name": "braintree", "phone": "01376 310669", "website": "https://www.wagamama.com/restaurants/braintree/braintree", "opening_hours": "Mo-Th 11:00-22:00; Fr-Sa 11:00-23:00; Su 11:00-22:00", "image": "https://dynl.mktgcdn.com/p/ii5hSy172ufQXjVvcKivZ08L1shunkrute07FLm61XY/450x450.jpg", "brand": "Wagamama", "brand:wikidata": "Q503715", "nsi_id": "wagamama-2fabb0"}, "geometry": {"type": "Point", "coordinates": [0.5715109863443812, 51.868397974701566]}},
{"type": "Feature", "id": "alLSKDlkX4qBYsIIRLztiQOaeOc=", "properties": {"ref": "https://www.wagamama.com/restaurants/#14010131", "@spider": "wagamama_gb", "amenity": "restaurant", "cuisine": "asian", "addr:street_address": "unit u12, mermaid quay tacoma square", "addr:city": "cardiff cardiff bay", "addr:state": "wales", "addr:postcode": "CF10 5BZ", "addr:country": "GB", "name": "cardiff mermaid quay", "phone": "029 2048 5195", "website": "https://www.wagamama.com/restaurants/cardiff/cardiff-mermaid-quay", "opening_hours": "Mo-Su 11:00-22:00", "image": "https://dynl.mktgcdn.com/p/lLqs5wEbzdgELrtmDh7Wxwsm9or0blEg05DuAy6Sg5w/450x450.jpg", "brand": "Wagamama", "brand:wikidata": "Q503715", "nsi_id": "wagamama-2fabb0"}, "geometry": {"type": "Point", "coordinates": [-3.1646406674938135, 51.46363449343056]}},
{"type": "Feature", "id": "dURj7E1h4aqkpljnRKmsEZ7yHWU=", "properties": {"ref": "https://www.wagamama.com/restaurants/#14010130", "@spider": "wagamama_gb", "amenity": "restaurant", "cuisine": "asian", "addr:street_address": "14 mill lane", "addr:city": "cardiff city centre", "addr:state": "wales", "addr:postcode": "CF10 1EX", "addr:country": "GB", "name": "cardiff library", "phone": "029 2064 1564", "website": "https://www.wagamama.com/restaurants/cardiff/cardiff-library", "opening_hours": "Mo-Th 11:00-22:00; Fr-Sa 11:00-23:00; Su 11:00-22:00", "image": "https://dynl.mktgcdn.com/p/lLqs5wEbzdgELrtmDh7Wxwsm9or0blEg05DuAy6Sg5w/450x450.jpg", "brand": "Wagamama", "brand:wikidata": "Q503715", "nsi_id": "wagamama-2fabb0"}, "geometry": {"type": "Point", "coordinates": [-3.175492, 51.4778318]}},
{"type": "Feature", "id": "jcR0aoMzbOcuUnNNP9seARVBFvA=", "properties": {"ref": "https://www.wagamama.com/restaurants/#14010048", "@spider": "wagamama_gb", "amenity": "restaurant", "cuisine": "asian", "addr:street_address": "unit 2g cambridge leisure park clifton road", "addr:city": "cambridge", "addr:state": "cambridgeshire", "addr:postcode": "CB1 7DY", "addr:country": "GB", "name": "cambridge leisure park", "phone": "01223 803448", "website": "https://www.wagamama.com/restaurants/cambridge/cambridge-leisure-park", "opening_hours": "Mo-Th 11:00-22:00; Fr-Sa 11:00-23:00; Su 11:00-22:00", "image": "https://dynl.mktgcdn.com/p/lLqs5wEbzdgELrtmDh7Wxwsm9or0blEg05DuAy6Sg5w/450x450.jpg", "brand": "Wagamama", "brand:wikidata": "Q503715", "nsi_id": "wagamama-2fabb0"}, "geometry": {"type": "Point", "coordinates": [0.13715369080728124, 52.19006021989396]}},
{"type": "Feature", "id": "p9Tf7Nx2H4GENzgR4v04uMaVads=", "properties": {"ref": "https://www.wagamama.com/restaurants/#14010018", "@spider": "wagamama_gb", "amenity": "restaurant", "cuisine": "asian", "addr:street_address": "36a st andrews street", "addr:city": "cambridge", "addr:state": "cambridgeshire", "addr:postcode": "CB2 3AR", "addr:country": "GB", "name": "cambridge", "phone": "01223 462354", "website": "https://www.wagamama.com/restaurants/cambridge/cambridge", "opening_hours": "Mo-Th 11:00-22:00; Fr-Sa 11:00-23:00; Su 11:00-22:00", "image": "https://dynl.mktgcdn.com/p/lLqs5wEbzdgELrtmDh7Wxwsm9or0blEg05DuAy6Sg5w/450x450.jpg", "brand": "Wagamama", "brand:wikidata": "Q503715", "nsi_id": "wagamama-2fabb0"}, "geometry": {"type": "Point", "coordinates": [0.12360594200879405, 52.20313576363671]}},
{"type": "Feature", "id": "WiYTLKDlK11Sj7WwdNCcXyw974w=", "properties": {"ref": "https://www.wagamama.com/restaurants/#14010129", "@spider": "wagamama_gb", "amenity": "restaurant", "cuisine": "asian", "addr:street_address": "unit 83a cabot circus glass house lane", "addr:city": "bristol", "addr:postcode": "BS1 3BX", "addr:country": "GB", "name": "bristol cabot circus", "phone": "0117 927 7674", "website": "https://www.wagamama.com/restaurants/bristol/bristol-cabot-circus", "opening_hours": "Mo-Th 11:00-22:00; Fr-Sa 11:00-23:00; Su 11:00-22:00", "image": "https://dynl.mktgcdn.com/p/lLqs5wEbzdgELrtmDh7Wxwsm9or0blEg05DuAy6Sg5w/450x450.jpg", "brand": "Wagamama", "brand:wikidata": "Q503715", "nsi_id": "wagamama-2fabb0"}, "geometry": {"type": "Point", "coordinates": [-2.5850663, 51.4581102]}},
{"type": "Feature", "id": "GK3lhRviv_bpYaRadYe-0S7PhTs=", "properties": {"ref": "https://www.wagamama.com/restaurants/#14010052", "@spider": "wagamama_gb", "amenity": "restaurant", "cuisine": "asian", "addr:street_address": "the mall at cribbs causeway merlin road", "addr:city": "bristol", "addr:postcode": "BS34 5DG", "addr:country": "GB", "name": "bristol cribbs causeway", "phone": "0117 950 9040", "website": "https://www.wagamama.com/restaurants/bristol/bristol-cribbs-causeway", "opening_hours": "Mo-Fr 11:00-21:00; Sa 11:00-20:00; Su 11:00-17:00", "image": "https://dynl.mktgcdn.com/p/lLqs5wEbzdgELrtmDh7Wxwsm9or0blEg05DuAy6Sg5w/450x450.jpg", "brand": "Wagamama", "brand:wikidata": "Q503715", "nsi_id": "wagamama-2fabb0"}, "geometry": {"type": "Point", "coordinates": [-2.594990457672111, 51.52393084385985]}},
{"type": "Feature", "id": "Kdx_7jTrvJfNsxdr26v5egiu9e4=", "properties": {"ref": "https://www.wagamama.com/restaurants/#14010053", "@spider": "wagamama_gb", "amenity": "restaurant", "cuisine": "asian", "addr:street_address": "61-63 queens road", "addr:city": "bristol clifton", "addr:postcode": "BS8 1QL", "addr:country": "GB", "name": "bristol clifton", "phone": "0117 374 6854", "website": "https://www.wagamama.com/restaurants/bristol/bristol-clifton", "opening_hours": "Mo-Th 11:00-22:00; Fr-Sa 11:00-23:00; Su 11:00-22:00", "image": "https://dynl.mktgcdn.com/p/lLqs5wEbzdgELrtmDh7Wxwsm9or0blEg05DuAy6Sg5w/450x450.jpg", "brand": "Wagamama", "brand:wikidata": "Q503715", "nsi_id": "wagamama-2fabb0"}, "geometry": {"type": "Point", "coordinates": [-2.607030901422604, 51.45648647281632]}}]}