{"type":"FeatureCollection","features":[{"type": "Feature", "id": "r6xlupbNrHksJ3SUSubd-nd1jeI=", "properties": {"ref": "https://stores.welcome-stores.co.uk/london/london/selhurst-road.html", "@spider": "welcome", "addr:street_address": "Selhurst Road", "addr:city": "London", "addr:postcode": "SE25 5QF", "addr:country": "GB", "name": "Welcome Selhurst Selhurst Road", "phone": "020 8664 9716", "website": "https://stores.welcome-stores.co.uk/london/london/selhurst-road.html", "opening_hours": "Mo-Sa 06:00-23:00; Su 07:00-22:00", "image": "https://dynl.mktgcdn.com/p/_jWq_t-1SC-22qKrJKSGB4nH5iSjKitCtXc-dUIcSYk/203x203.jpg", "brand": "Welcome"}, "geometry": {"type": "Point", "coordinates": [-0.09000089276659073, 51.388993098961784]}},
{"type": "Feature", "id": "RiY_j-k-ZBkhafpb8axJnQhsOzE=", "properties": {"ref": "https://stores.welcome-stores.co.uk/london/london/54-uxbridge-road.html", "@spider": "welcome", "addr:street_address": "54 Uxbridge Road", "addr:city": "London", "addr:postcode": "W12 8LP", "addr:country": "GB", "name": "Welcome Shepherds Bush Uxbridge Road", "phone": "020 8743 7711", "website": "https://stores.welcome-stores.co.uk/london/london/54-uxbridge-road.html", "opening_hours": "Mo-Fr 05:00-02:00; Sa 06:00-03:00; Su 06:00-02:00", "image": "https://dynl.mktgcdn.com/p/_jWq_t-1SC-22qKrJKSGB4nH5iSjKitCtXc-dUIcSYk/203x203.jpg", "brand": "Welcome"}, "geometry": {"type": "Point", "coordinates": [-0.2192118207644853, 51.50451279337316]}},
{"type": "Feature", "id": "qV_b2o_d2-mnivqJzJ57P8wGOC4=", "properties": {"ref": "https://stores.welcome-stores.co.uk/london/london/47-49-packington-street.html", "@spider": "welcome", "addr:street_address": "47-49 Packington Street", "addr:city": "London", "addr:postcode": "N1 7FZ", "addr:country": "GB", "name": "Welcome Angel Islington Packington Street", "phone": "020 7226 1587", "website": "https://stores.welcome-stores.co.uk/london/london/47-49-packington-street.html", "opening_hours": "Mo-Su 07:00-22:00", "image": "https://dynl.mktgcdn.com/p/_jWq_t-1SC-22qKrJKSGB4nH5iSjKitCtXc-dUIcSYk/203x203.jpg", "brand": "Welcome"}, "geometry": {"type": "Point", "coordinates": [-0.0954056, 51.535059]}},
{"type": "Feature", "id": "qATKOj5OVbYsAk-CL1a6ZHEpFTM=", "properties": {"ref": "https://stores.welcome-stores.co.uk/london/london/2-4-winchester-road.html", "@spider": "welcome", "addr:street_address": "2-4 Winchester Road", "addr:city": "London", "addr:postcode": "NW3 3NT", "addr:country": "GB", "name": "Welcome Swiss Cottage Winchester Road", "phone": "020 7586 2270", "website": "https://stores.welcome-stores.co.uk/london/london/2-4-winchester-road.html", "opening_hours": "Mo-Su 07:00-22:00", "image": "https://dynl.mktgcdn.com/p/_jWq_t-1SC-22qKrJKSGB4nH5iSjKitCtXc-dUIcSYk/203x203.jpg", "brand": "Welcome"}, "geometry": {"type": "Point", "coordinates": [-0.1724413, 51.5423602]}},
{"type": "Feature", "id": "PEn6e2O-exaD0GoL0upEpjYb7LE=", "properties": {"ref": "https://stores.welcome-stores.co.uk/london/london/176-178-hornchurch-road.html", "@spider": "welcome", "addr:street_address": "176-178 Hornchurch Road Hornchurch Road", "addr:city": "London", "addr:postcode": "RM11 1QL", "addr:country": "GB", "name": "Welcome Hornchurch Hornchurch Road", "phone": "01708 474485", "website": "https://stores.welcome-stores.co.uk/london/london/176-178-hornchurch-road.html", "opening_hours": "Mo-Su 07:00-22:00", "image": "https://dynl.mktgcdn.com/p/_jWq_t-1SC-22qKrJKSGB4nH5iSjKitCtXc-dUIcSYk/203x203.jpg", "brand": "Welcome"}, "geometry": {"type": "Point", "coordinates": [0.20085968407879573, 51.56498317227081]}},
{"type": "Feature", "id": "YDizLMECDS2PmRxQqDtA2qoZa-Q=", "properties": {"ref": "https://stores.welcome-stores.co.uk/london/london/15-17-central-hill.html", "@spider": "welcome", "addr:street_address": "15-17 Central Hill Gipsy Hill", "addr:city": "London", "addr:postcode": "SE19 1BG", "addr:country": "GB", "name": "Welcome Upper Norwood Central Hill", "phone": "020 8670 5044", "website": "https://stores.welcome-stores.co.uk/london/london/15-17-central-hill.html", "opening_hours": "Mo-Su 06:00-23:00", "image": "https://dynl.mktgcdn.com/p/_jWq_t-1SC-22qKrJKSGB4nH5iSjKitCtXc-dUIcSYk/203x203.jpg", "brand": "Welcome"}, "geometry": {"type": "Point", "coordinates": [-0.0837575184172179, 51.419523721221694]}},
{"type": "Feature", "id": "rRIR1BDeMQ1NOoy8Y1Dvav6Zmcc=", "properties": {"ref": "https://stores.welcome-stores.co.uk/kent/sittingbourne/grove-park-shopping-centre.html", "@spider": "welcome", "addr:street_address": "Grove Park Shopping Centre Unit 1 Gadby Road", "addr:city": "Sittingbourne", "addr:postcode": "ME10 1TH", "addr:country": "GB", "name": "Welcome Sittingbourne Grove Park", "phone": "01795 394590", "website": "https://stores.welcome-stores.co.uk/kent/sittingbourne/grove-park-shopping-centre.html", "opening_hours": "Mo-Su 06:00-22:00", "image": "https://dynl.mktgcdn.com/p/HQ63zGW52TwXAOl9PKjuJkEGkR1RiXocDdT4HT8TD9k/203x203.jpg", "brand": "Welcome"}, "geometry": {"type": "Point", "coordinates": [0.7126615681093229, 51.347030929152815]}},
{"type": "Feature", "id": "XszFOvmxZWLyUWcph5K6Xo9i7-Q=", "properties": {"ref": "https://stores.welcome-stores.co.uk/kent/ramsgate/ramsgate-west.html", "@spider": "welcome", "addr:street_address": "Ramsgate West 5-7 West Cliff Road", "addr:city": "Ramsgate", "addr:postcode": "CT11 9JW", "addr:country": "GB", "name": "Welcome Ramsgate West Cliff", "phone": "01843 597253", "website": "https://stores.welcome-stores.co.uk/kent/ramsgate/ramsgate-west.html", "opening_hours": "Mo-Su 06:00-23:00", "image": "https://dynl.mktgcdn.com/p/_jWq_t-1SC-22qKrJKSGB4nH5iSjKitCtXc-dUIcSYk/203x203.jpg", "brand": "Welcome"}, "geometry": {"type": "Point", "coordinates": [1.414047477782936, 51.3316677850547]}},
{"type": "Feature", "id": "mHd6zlJbx8PlSZxR643uPfPOICY=", "properties": {"ref": "https://stores.welcome-stores.co.uk/kent/ramsgate/36-42-high-street.html", "@spider": "welcome", "addr:street_address": "36-42 High Street", "addr:city": "Ramsgate", "addr:postcode": "CT11 0QW", "addr:country": "GB", "name": "Welcome Ramsgate High Street", "phone": "01843 592334", "website": "https://stores.welcome-stores.co.uk/kent/ramsgate/36-42-high-street.html", "image": "https://dynl.mktgcdn.com/p/_jWq_t-1SC-22qKrJKSGB4nH5iSjKitCtXc-dUIcSYk/203x203.jpg", "brand": "Welcome"}, "geometry": {"type": "Point", "coordinates": [1.4019126, 51.3369625]}},
{"type": "Feature", "id": "Yb_QrgVY6_AmSXu4z5kUKRKwKak=", "properties": {"ref": "https://stores.welcome-stores.co.uk/kent/nr-canterbury/20-the-street.html", "@spider": "welcome", "addr:street_address": "20 The Street", "addr:city": "Nr Canterbury", "addr:postcode": "CT3 2EW", "addr:country": "GB", "name": "Welcome Canterbury Ash", "phone": "01304 814368", "website": "https://stores.welcome-stores.co.uk/kent/nr-canterbury/20-the-street.html", "opening_hours": "Mo-Sa 07:00-21:00; Su 07:30-21:00", "image": "https://dynl.mktgcdn.com/p/_jWq_t-1SC-22qKrJKSGB4nH5iSjKitCtXc-dUIcSYk/203x203.jpg", "brand": "Welcome"}, "geometry": {"type": "Point", "coordinates": [1.2763508, 51.2792272]}},
{"type": "Feature", "id": "_qWMtPCa17ob8T2vnJFRK_Tf-GA=", "properties": {"ref": "https://stores.welcome-stores.co.uk/kent/meopham/wrotham-road.html", "@spider": "welcome", "addr:street_address": "Wrotham Road", "addr:city": "Meopham", "addr:postcode": "DA13 0RF", "addr:country": "GB", "name": "Welcome Culverstone Wrotham Road", "phone": "01732 824090", "website": "https://stores.welcome-stores.co.uk/kent/meopham/wrotham-road.html", "opening_hours": "Mo-Sa 06:00-23:00; Su 06:00-22:00", "image": "https://dynl.mktgcdn.com/p/_jWq_t-1SC-22qKrJKSGB4nH5iSjKitCtXc-dUIcSYk/203x203.jpg", "brand": "Welcome"}, "geometry": {"type": "Point", "coordinates": [0.3578942, 51.3646429]}},
{"type": "Feature", "id": "noGSmdZ3goHhmHIRtYw_HpfE5Us=", "properties": {"ref": "https://stores.welcome-stores.co.uk/kent/medway/9-11-parkside-parade.html", "@spider": "welcome", "addr:street_address": "9-11 Parkside Parade Cliffe Woods", "addr:city": "Medway", "addr:postcode": "ME3 8HX", "addr:country": "GB", "name": "Welcome Cliffe Woods Parkside Parade", "phone": "01634 222073", "website": "https://stores.welcome-stores.co.uk/kent/medway/9-11-parkside-parade.html", "opening_hours": "Mo-Su 07:00-21:00", "image": "https://dynl.mktgcdn.com/p/_jWq_t-1SC-22qKrJKSGB4nH5iSjKitCtXc-dUIcSYk/203x203.jpg", "brand": "Welcome"}, "geometry": {"type": "Point", "coordinates": [0.49672323279082775, 51.434205524427384]}},
{"type": "Feature", "id": "v5nLUyJg2LGdbPYACHVT0KKfa_s=", "properties": {"ref": "https://stores.welcome-stores.co.uk/kent/faverhsam/9-whitstable-road.html", "@spider": "welcome", "addr:street_address": "9 Whitstable Road", "addr:city": "Faverhsam", "addr:postcode": "ME13 8BE", "addr:country": "GB", "name": "Welcome Faversham Whitstable Road", "phone": "01795 227215", "website": "https://stores.welcome-stores.co.uk/kent/faverhsam/9-whitstable-road.html", "opening_hours": "Mo-Sa 07:00-21:00; Su 08:00-20:00", "image": "https://dynl.mktgcdn.com/p/6LGzeK2Jc3vc-AJ-rTRIZ6-GTBg0VcN7hduumfVTiX4/203x203.jpg", "brand": "Welcome"}, "geometry": {"type": "Point", "coordinates": [0.898183390658227, 51.31412896174239]}},
{"type": "Feature", "id": "WK6PR-KlCuCXDVJTJHv4njS6-bo=", "properties": {"ref": "https://stores.welcome-stores.co.uk/kent/cranbrook/cranbrook-service-station.html", "@spider": "welcome", "addr:street_address": "Cranbrook Service Station Wilsley Pound", "addr:city": "Cranbrook", "addr:postcode": "TN17 2HR", "addr:country": "GB", "name": "Welcome Wilsley Road Cranbrook Service Station", "phone": "01580 854060", "website": "https://stores.welcome-stores.co.uk/kent/cranbrook/cranbrook-service-station.html", "opening_hours": "Mo-Su 07:00-22:00", "image": "https://dynl.mktgcdn.com/p/_jWq_t-1SC-22qKrJKSGB4nH5iSjKitCtXc-dUIcSYk/203x203.jpg", "brand": "Welcome"}, "geometry": {"type": "Point", "coordinates": [0.555269947666579, 51.118462968730576]}},
{"type": "Feature", "id": "v6V6ltt7YMBL9xptirmcK96wNnI=", "properties": {"ref": "https://stores.welcome-stores.co.uk/kent/cranbrook/58-high-street.html", "@spider": "welcome", "addr:street_address": "58 High Street", "addr:city": "Cranbrook", "addr:postcode": "TN17 3DN", "addr:country": "GB", "name": "Welcome Cranbrook High Street", "phone": "01580 714410", "website": "https://stores.welcome-stores.co.uk/kent/cranbrook/58-high-street.html", "opening_hours": "Mo-Sa 07:00-21:30; Su 08:00-21:30", "image": "https://dynl.mktgcdn.com/p/_jWq_t-1SC-22qKrJKSGB4nH5iSjKitCtXc-dUIcSYk/203x203.jpg", "brand": "Welcome"}, "geometry": {"type": "Point", "coordinates": [0.5348086294477525, 51.096115232961395]}},
{"type": "Feature", "id": "9jhfMH4txkspRpIavilP98etYMA=", "properties": {"ref": "https://stores.welcome-stores.co.uk/isle-of-wight/newport/87-91-royal-exchange.html", "@spider": "welcome", "addr:street_address": "87-91 Royal Exchange Pan Estate", "addr:city": "Newport", "addr:postcode": "PO30 2HW", "addr:country": "GB", "name": "Welcome Newport Royal Exchange", "phone": "01983 522055", "website": "https://stores.welcome-stores.co.uk/isle-of-wight/newport/87-91-royal-exchange.html", "opening_hours": "Mo-Sa 06:00-22:00; Su 07:00-22:00", "image": "https://dynl.mktgcdn.com/p/_jWq_t-1SC-22qKrJKSGB4nH5iSjKitCtXc-dUIcSYk/203x203.jpg", "brand": "Welcome"}, "geometry": {"type": "Point", "coordinates": [-1.2824647782893006, 50.698683269044174]}},
{"type": "Feature", "id": "deEChFxIPArJIbax-XuBDuNvplk=", "properties": {"ref": "https://stores.welcome-stores.co.uk/west-sussex/north-lancing/manor-road.html", "@spider": "welcome", "addr:street_address": "Manor Road", "addr:city": "North Lancing", "addr:postcode": "BN15 0HL", "addr:country": "GB", "name": "Welcome Lancing Manor Road", "phone": "01903 765684", "website": "https://stores.welcome-stores.co.uk/west-sussex/north-lancing/manor-road.html", "opening_hours": "Mo-Sa 07:00-21:00; Su 08:00-21:00", "image": "https://dynl.mktgcdn.com/p/_jWq_t-1SC-22qKrJKSGB4nH5iSjKitCtXc-dUIcSYk/203x203.jpg", "brand": "Welcome"}, "geometry": {"type": "Point", "coordinates": [-0.328524, 50.8376089]}},
{"type": "Feature", "id": "JmrWK2WIHYoy1FdYH-dh5UVw6oc=", "properties": {"ref": "https://stores.welcome-stores.co.uk/west-sussex/horsham/worthing-road.html", "@spider": "welcome", "addr:street_address": "Worthing Road", "addr:city": "Horsham", "addr:postcode": "RH13 9HA", "addr:country": "GB", "name": "Welcome Southwater Worthing Road", "phone": "01403 731765", "website": "https://stores.welcome-stores.co.uk/west-sussex/horsham/worthing-road.html", "opening_hours": "Mo-Sa 06:00-22:00; Su 07:00-21:00", "image": "https://dynl.mktgcdn.com/p/_jWq_t-1SC-22qKrJKSGB4nH5iSjKitCtXc-dUIcSYk/203x203.jpg", "brand": "Welcome"}, "geometry": {"type": "Point", "coordinates": [-0.3519413018979094, 51.024724803988505]}},
{"type": "Feature", "id": "kvvHPakhYZoO01pq6zenCjzr2Xs=", "properties": {"ref": "https://stores.welcome-stores.co.uk/west-sussex/crawley/5-shire-parade.html", "@spider": "welcome", "addr:street_address": "5 Shire Parade", "addr:city": "Crawley", "addr:postcode": "RH10 7XR", "addr:country": "GB", "name": "Welcome Pound Hill", "phone": "01293 665830", "website": "https://stores.welcome-stores.co.uk/west-sussex/crawley/5-shire-parade.html", "opening_hours": "Mo-Sa 07:00-22:00; Su 07:00-21:00", "image": "https://dynl.mktgcdn.com/p/_jWq_t-1SC-22qKrJKSGB4nH5iSjKitCtXc-dUIcSYk/203x203.jpg", "brand": "Welcome"}, "geometry": {"type": "Point", "coordinates": [-0.1446552715408922, 51.120075945874156]}},
{"type": "Feature", "id": "5UYTN3yOQPvS1kIVVavO-OwD94w=", "properties": {"ref": "https://stores.welcome-stores.co.uk/sutton/carshalton/376-middleton-road.html", "@spider": "welcome", "addr:street_address": "376 Middleton Road", "addr:city": "Carshalton", "addr:postcode": "SM5 1HA", "addr:country": "GB", "name": "Welcome Carshalton High Street", "phone": "020 8646 6653", "website": "https://stores.welcome-stores.co.uk/sutton/carshalton/376-middleton-road.html", "opening_hours": "Mo-Sa 06:00-23:00; Su 07:00-22:00", "image": "https://dynl.mktgcdn.com/p/_jWq_t-1SC-22qKrJKSGB4nH5iSjKitCtXc-dUIcSYk/203x203.jpg", "brand": "Welcome"}, "geometry": {"type": "Point", "coordinates": [-0.17449658296275095, 51.38453039478964]}},
{"type": "Feature", "id": "XQiYtILnLLjxwikqnLBJFJDYsFU=", "properties": {"ref": "https://stores.welcome-stores.co.uk/sussex/worthing/4-half-moon-parade.html", "@spider": "welcome", "addr:street_address": "4 Half Moon Parade Half Moon Lane", "addr:city": "Worthing", "addr:postcode": "BN13 2EL", "addr:country": "GB", "name": "Welcome Durrington Half Moon Parade", "phone": "01903 695233", "website": "https://stores.welcome-stores.co.uk/sussex/worthing/4-half-moon-parade.html", "opening_hours": "Mo-Sa 07:00-20:00; Su 07:30-20:00", "image": "https://dynl.mktgcdn.com/p/_jWq_t-1SC-22qKrJKSGB4nH5iSjKitCtXc-dUIcSYk/203x203.jpg", "brand": "Welcome"}, "geometry": {"type": "Point", "coordinates": [-0.3979496822089459, 50.835311278479956]}},
{"type": "Feature", "id": "gU7xaFmrgiW4V9HrRFdEMlN6hS4=", "properties": {"ref": "https://stores.welcome-stores.co.uk/surrey/guildford/middle-street.html", "@spider": "welcome", "addr:street_address": "Middle Street", "addr:city": "Guildford", "addr:postcode": "GU5 9HF", "addr:country": "GB", "name": "Welcome Shere Middle Street", "phone": "01483 202907", "website": "https://stores.welcome-stores.co.uk/surrey/guildford/middle-street.html", "opening_hours": "Mo-Fr 07:00-21:00; Sa-Su 08:00-21:00", "image": "https://dynl.mktgcdn.com/p/_jWq_t-1SC-22qKrJKSGB4nH5iSjKitCtXc-dUIcSYk/203x203.jpg", "brand": "Welcome"}, "geometry": {"type": "Point", "coordinates": [-0.4643251301338296, 51.22026749279182]}},
{"type": "Feature", "id": "o8NlrK4074z4a0VD8-bXBVPa-Yw=", "properties": {"ref": "https://stores.welcome-stores.co.uk/surrey/guildford/65-fairlands-avenue.html", "@spider": "welcome", "addr:street_address": "65 Fairlands Avenue", "addr:city": "Guildford", "addr:postcode": "GU3 3NB", "addr:country": "GB", "name": "Welcome Fairlands Fairlands Avenue", "phone": "01483 889944", "website": "https://stores.welcome-stores.co.uk/surrey/guildford/65-fairlands-avenue.html", "opening_hours": "Mo-Sa 07:00-20:00; Su 08:00-18:00", "image": "https://dynl.mktgcdn.com/p/_jWq_t-1SC-22qKrJKSGB4nH5iSjKitCtXc-dUIcSYk/203x203.jpg", "brand": "Welcome"}, "geometry": {"type": "Point", "coordinates": [-0.6203220196260495, 51.262760302522594]}},
{"type": "Feature", "id": "aBofAln0PkzgtvPijaWiKyabQ7I=", "properties": {"ref": "https://stores.welcome-stores.co.uk/surrey/epsom/82-88-high-street.html", "@spider": "welcome", "addr:street_address": "82-88 High Street", "addr:city": "Epsom", "addr:postcode": "KT17 1RE", "addr:country": "GB", "name": "Welcome Ewell High Street", "phone": "020 8393 0041", "website": "https://stores.welcome-stores.co.uk/surrey/epsom/82-88-high-street.html", "opening_hours": "Mo-Sa 07:00-22:00; Su 08:00-21:00", "image": "https://dynl.mktgcdn.com/p/_jWq_t-1SC-22qKrJKSGB4nH5iSjKitCtXc-dUIcSYk/203x203.jpg", "brand": "Welcome"}, "geometry": {"type": "Point", "coordinates": [-0.2501836858241502, 51.347648026727754]}},
{"type": "Feature", "id": "SLG2oj6bU-EKRyEfUx6s6-B8_ow=", "properties": {"ref": "https://stores.welcome-stores.co.uk/surrey/camberley/103-mytchett-road.html", "@spider": "welcome", "addr:street_address": "103 Mytchett Road", "addr:city": "Camberley", "addr:postcode": "GU16 6ES", "addr:country": "GB", "name": "Welcome Mytchett Mytchett Road", "phone": "01252 544600", "website": "https://stores.welcome-stores.co.uk/surrey/camberley/103-mytchett-road.html", "opening_hours": "Mo-Sa 06:00-21:00; Su 07:00-21:00", "image": "https://dynl.mktgcdn.com/p/_jWq_t-1SC-22qKrJKSGB4nH5iSjKitCtXc-dUIcSYk/203x203.jpg", "brand": "Welcome"}, "geometry": {"type": "Point", "coordinates": [-0.7254813852500952, 51.29036883814124]}},
{"type": "Feature", "id": "U4eH_n5su3L-XgsIIYymh4F1rnM=", "properties": {"ref": "https://stores.welcome-stores.co.uk/surrey/ashtead/46-the-street.html", "@spider": "welcome", "addr:street_address": "46 The Street", "addr:city": "Ashtead", "addr:postcode": "KT21 1AZ", "addr:country": "GB", "name": "Welcome Ashtead The Street", "phone": "01372 276333", "website": "https://stores.welcome-stores.co.uk/surrey/ashtead/46-the-street.html", "opening_hours": "Mo-Su 07:00-22:00", "image": "https://dynl.mktgcdn.com/p/_jWq_t-1SC-22qKrJKSGB4nH5iSjKitCtXc-dUIcSYk/203x203.jpg", "brand": "Welcome"}, "geometry": {"type": "Point", "coordinates": [-0.29979608465578167, 51.30908924080316]}},
{"type": "Feature", "id": "t4JKmIm9YoRl6pcAdrhWcyMijTY=", "properties": {"ref": "https://stores.welcome-stores.co.uk/surrey/addlestone/51-53-green-lane.html", "@spider": "welcome", "addr:street_address": "51-53 Green Lane", "addr:city": "Addlestone", "addr:postcode": "KT15 2TX", "addr:country": "GB", "name": "Welcome Addlestone Green Lane", "phone": "01932 850799", "website": "https://stores.welcome-stores.co.uk/surrey/addlestone/51-53-green-lane.html", "opening_hours": "Mo-Su 07:00-22:00", "image": "https://dynl.mktgcdn.com/p/HQ63zGW52TwXAOl9PKjuJkEGkR1RiXocDdT4HT8TD9k/203x203.jpg", "brand": "Welcome"}, "geometry": {"type": "Point", "coordinates": [-0.49699447820459763, 51.37440806415788]}},
{"type": "Feature", "id": "rub9uznwizn2gGilFUx2DoPxQwE=", "properties": {"ref": "https://stores.welcome-stores.co.uk/surrey/addlestone/2-ongar-parade.html", "@spider": "welcome", "addr:street_address": "2 Ongar Parade Ongar Hill", "addr:city": "Addlestone", "addr:postcode": "KT15 1JH", "addr:country": "GB", "name": "Welcome Row Town Addlestone", "phone": "01932 848102", "website": "https://stores.welcome-stores.co.uk/surrey/addlestone/2-ongar-parade.html", "opening_hours": "Mo-Sa 06:00-21:00; Su 07:00-21:00", "image": "https://dynl.mktgcdn.com/p/_jWq_t-1SC-22qKrJKSGB4nH5iSjKitCtXc-dUIcSYk/203x203.jpg", "brand": "Welcome"}, "geometry": {"type": "Point", "coordinates": [-0.506767398164925, 51.36288139432502]}},
{"type": "Feature", "id": "SUrV0T_mltuL6IsASYL4-cPNHDs=", "properties": {"ref": "https://stores.welcome-stores.co.uk/suffolk/beccles/market-square.html", "@spider": "welcome", "addr:street_address": "Market Square", "addr:city": "Beccles", "addr:postcode": "NR34 9HA", "addr:country": "GB", "name": "Welcome Market Square", "phone": "01502 713534", "website": "https://stores.welcome-stores.co.uk/suffolk/beccles/market-square.html", "opening_hours": "Mo-Su 07:00-22:00", "image": "https://dynl.mktgcdn.com/p/_jWq_t-1SC-22qKrJKSGB4nH5iSjKitCtXc-dUIcSYk/203x203.jpg", "brand": "Welcome"}, "geometry": {"type": "Point", "coordinates": [1.563370247014415, 52.457815678685336]}},
{"type": "Feature", "id": "tRWPYdusCAX9M_zA-OiujtgKhj4=", "properties": {"ref": "https://stores.welcome-stores.co.uk/somerset/taunton/manor-road.html", "@spider": "welcome", "addr:street_address": "Manor Road Staplegrove", "addr:city": "Taunton", "addr:postcode": "TA2 6AN", "addr:country": "GB", "name": "Welcome Taunton Manor Road", "phone": "01823 333071", "website": "https://stores.welcome-stores.co.uk/somerset/taunton/manor-road.html", "opening_hours": "Mo-Su 07:00-22:00", "image": "https://dynl.mktgcdn.com/p/_jWq_t-1SC-22qKrJKSGB4nH5iSjKitCtXc-dUIcSYk/203x203.jpg", "brand": "Welcome"}, "geometry": {"type": "Point", "coordinates": [-3.1266208611335, 51.03005788993668]}},
{"type": "Feature", "id": "XcRTms7dXfr2d8gfihUaQ-xWchI=", "properties": {"ref": "https://stores.welcome-stores.co.uk/somerset/bath/the-university-of-bath.html", "@spider": "welcome", "addr:street_address": "The University of Bath Claverton Down", "addr:city": "Bath", "addr:postcode": "BA2 7AY", "addr:country": "GB", "name": "Welcome University of Bath Claverton Down", "phone": "01225 383901", "website": "https://stores.welcome-stores.co.uk/somerset/bath/the-university-of-bath.html", "opening_hours": "Mo-Fr 07:30-22:00; Sa 08:30-22:00; Su 10:00-16:00", "image": "https://dynl.mktgcdn.com/p/_jWq_t-1SC-22qKrJKSGB4nH5iSjKitCtXc-dUIcSYk/203x203.jpg", "brand": "Welcome"}, "geometry": {"type": "Point", "coordinates": [-2.327011, 51.378025]}},
{"type": "Feature", "id": "JGX1LdsvA_0O_TrIJftGZe2bE_Y=", "properties": {"ref": "https://stores.welcome-stores.co.uk/north-somerset/clevedon/8--8a-old-street.html", "@spider": "welcome", "addr:street_address": "8, 8a Old Street", "addr:city": "Clevedon", "addr:postcode": "BS21 6ND", "addr:country": "GB", "name": "Welcome Clevedon Old Street", "phone": "01275 874760", "website": "https://stores.welcome-stores.co.uk/north-somerset/clevedon/8--8a-old-street.html", "opening_hours": "Mo 07:00-20:00; Tu-Su 07:00-21:00", "image": "https://dynl.mktgcdn.com/p/6LGzeK2Jc3vc-AJ-rTRIZ6-GTBg0VcN7hduumfVTiX4/203x203.jpg", "brand": "Welcome"}, "geometry": {"type": "Point", "coordinates": [-2.851400180373951, 51.43673052072034]}},
{"type": "Feature", "id": "q7rZk_LxnO-devnyPNDUZFoJmuc=", "properties": {"ref": "https://stores.welcome-stores.co.uk/london/stratford/unit-a2.html", "@spider": "welcome", "addr:street_address": "Unit A2 79-85 Monier Road", "addr:city": "Stratford", "addr:postcode": "E3 2PS", "addr:country": "GB", "name": "Welcome Monier Road Monier Road", "phone": "07841 521951", "website": "https://stores.welcome-stores.co.uk/london/stratford/unit-a2.html", "opening_hours": "Mo-Su 07:00-22:00", "image": "https://dynl.mktgcdn.com/p/_jWq_t-1SC-22qKrJKSGB4nH5iSjKitCtXc-dUIcSYk/203x203.jpg", "brand": "Welcome"}, "geometry": {"type": "Point", "coordinates": [-0.0228356, 51.5399496]}},
{"type": "Feature", "id": "CrzLT5Rb_pTzJHQ_DkV5EeNqBLg=", "properties": {"ref": "https://stores.welcome-stores.co.uk/isle-of-wight/bembridge/lane-end-court.html", "@spider": "welcome", "addr:street_address": "Lane End Court Lane End", "addr:city": "Bembridge", "addr:postcode": "PO35 5UE", "addr:country": "GB", "name": "Welcome Bembridge Lane End Court", "phone": "01983 872627", "website": "https://stores.welcome-stores.co.uk/isle-of-wight/bembridge/lane-end-court.html", "opening_hours": "Mo-Su 06:00-22:00", "image": "https://dynl.mktgcdn.com/p/_jWq_t-1SC-22qKrJKSGB4nH5iSjKitCtXc-dUIcSYk/203x203.jpg", "brand": "Welcome"}, "geometry": {"type": "Point", "coordinates": [-1.0805115601649922, 50.686778717861856]}},
{"type": "Feature", "id": "GmH_Ur27H9JvZ0DI65sjCAxMpX4=", "properties": {"ref": "https://stores.welcome-stores.co.uk/hertfordshire/rickmansworth/5-6-moneyhill-parade.html", "@spider": "welcome", "addr:street_address": "5-6 Moneyhill Parade", "addr:city": "Rickmansworth", "addr:postcode": "WD3 7BQ", "addr:country": "GB", "name": "Welcome Rickmansworth Moneyhill Parade", "phone": "01923 903665", "website": "https://stores.welcome-stores.co.uk/hertfordshire/rickmansworth/5-6-moneyhill-parade.html", "opening_hours": "Mo-Su 07:00-22:00", "image": "https://dynl.mktgcdn.com/p/_jWq_t-1SC-22qKrJKSGB4nH5iSjKitCtXc-dUIcSYk/203x203.jpg", "brand": "Welcome"}, "geometry": {"type": "Point", "coordinates": [-0.4837508, 51.6363824]}},
{"type": "Feature", "id": "_Qk29yBxuWk-eThwZdWm9WsktRk=", "properties": {"ref": "https://stores.welcome-stores.co.uk/hampshire/stubbington/1-upper-old-street.html", "@spider": "welcome", "addr:street_address": "1 Upper Old Street Cuckoo Lane", "addr:city": "Stubbington", "addr:postcode": "PO14 3LJ", "addr:country": "GB", "name": "Welcome Stubbington Upper Old Street", "phone": "01329 661911", "website": "https://stores.welcome-stores.co.uk/hampshire/stubbington/1-upper-old-street.html", "opening_hours": "Mo-Sa 06:00-22:00; Su 07:00-22:00", "image": "https://dynl.mktgcdn.com/p/_jWq_t-1SC-22qKrJKSGB4nH5iSjKitCtXc-dUIcSYk/203x203.jpg", "brand": "Welcome"}, "geometry": {"type": "Point", "coordinates": [-1.2204471478126155, 50.82849054849136]}},
{"type": "Feature", "id": "Hs6Knci4BzsfhrwHkJhKLxIgruU=", "properties": {"ref": "https://stores.welcome-stores.co.uk/hampshire/southampton/marchwood-village-centre.html", "@spider": "welcome", "addr:street_address": "Marchwood Village Centre", "addr:city": "Southampton", "addr:postcode": "SO40 4SF", "addr:country": "GB", "name": "Welcome Marchwood Marchwood Village", "phone": "023 8087 1090", "website": "https://stores.welcome-stores.co.uk/hampshire/southampton/marchwood-village-centre.html", "opening_hours": "Mo-Sa 06:00-22:00; Su 07:00-22:00", "image": "https://dynl.mktgcdn.com/p/_jWq_t-1SC-22qKrJKSGB4nH5iSjKitCtXc-dUIcSYk/203x203.jpg", "brand": "Welcome"}, "geometry": {"type": "Point", "coordinates": [-1.451495951607285, 50.890728574395546]}},
{"type": "Feature", "id": "ikFOmoxr5LXLS7rCkOA43eNSlW0=", "properties": {"ref": "https://stores.welcome-stores.co.uk/hampshire/southampton/liberty-quay.html", "@spider": "welcome", "addr:street_address": "Liberty Quay Terminus Terrace", "addr:city": "Southampton", "addr:postcode": "SO14 3ET", "addr:country": "GB", "name": "Welcome Southampton Liberty Quays", "phone": "023 8023 2800", "website": "https://stores.welcome-stores.co.uk/hampshire/southampton/liberty-quay.html", "opening_hours": "Mo-Sa 07:00-22:00; Su 08:00-22:00", "image": "https://dynl.mktgcdn.com/p/_jWq_t-1SC-22qKrJKSGB4nH5iSjKitCtXc-dUIcSYk/203x203.jpg", "brand": "Welcome"}, "geometry": {"type": "Point", "coordinates": [-1.3960468314968373, 50.89983463701095]}},
{"type": "Feature", "id": "NsUEe3oQlyCAR27JN2EQJZac1Ms=", "properties": {"ref": "https://stores.welcome-stores.co.uk/hampshire/southampton/frobisher-house.html", "@spider": "welcome", "addr:street_address": "Frobisher House Commercial Road", "addr:city": "Southampton", "addr:postcode": "SO15 1GX", "addr:country": "GB", "name": "Welcome Southampton Frobisher House", "phone": "023 8063 4413", "website": "https://stores.welcome-stores.co.uk/hampshire/southampton/frobisher-house.html", "opening_hours": "Mo-Sa 06:00-22:00; Su 07:00-22:00", "image": "https://dynl.mktgcdn.com/p/_jWq_t-1SC-22qKrJKSGB4nH5iSjKitCtXc-dUIcSYk/203x203.jpg", "brand": "Welcome"}, "geometry": {"type": "Point", "coordinates": [-1.4134340466270032, 50.90821644351472]}},
{"type": "Feature", "id": "I9rZo-99xw3P86XwTqEou1yFGss=", "properties": {"ref": "https://stores.welcome-stores.co.uk/hampshire/southampton/96-harbour-parade.html", "@spider": "welcome", "addr:street_address": "96 Harbour Parade", "addr:city": "Southampton", "addr:postcode": "SO15 1BA", "addr:country": "GB", "name": "Welcome Southampton Harbour Parade", "phone": "023 8022 7709", "website": "https://stores.welcome-stores.co.uk/hampshire/southampton/96-harbour-parade.html", "opening_hours": "Mo-Su 07:00-22:00", "image": "https://dynl.mktgcdn.com/p/_jWq_t-1SC-22qKrJKSGB4nH5iSjKitCtXc-dUIcSYk/203x203.jpg", "brand": "Welcome"}, "geometry": {"type": "Point", "coordinates": [-1.4080679331514148, 50.90212997305962]}},
{"type": "Feature", "id": "gfxTuKsE_3VvaZc_imWAXsF2BUM=", "properties": {"ref": "https://stores.welcome-stores.co.uk/hampshire/southampton/82-lyndhurst-road.html", "@spider": "welcome", "addr:street_address": "82 Lyndhurst Road", "addr:city": "Southampton", "addr:postcode": "SO40 7BE", "addr:country": "GB", "name": "Welcome Ashurst Lyndhurst Road", "phone": "023 8029 3114", "website": "https://stores.welcome-stores.co.uk/hampshire/southampton/82-lyndhurst-road.html", "opening_hours": "Mo-Sa 06:00-22:00; Su 07:00-22:00", "image": "https://dynl.mktgcdn.com/p/_jWq_t-1SC-22qKrJKSGB4nH5iSjKitCtXc-dUIcSYk/203x203.jpg", "brand": "Welcome"}, "geometry": {"type": "Point", "coordinates": [-1.5175298840440519, 50.894761865644966]}},
{"type": "Feature", "id": "Lyn8I_TvqcK1huC3pkEWXnLwOj4=", "properties": {"ref": "https://stores.welcome-stores.co.uk/hampshire/southampton/430-bursledon-road.html", "@spider": "welcome", "addr:street_address": "430 Bursledon Road", "addr:city": "Southampton", "addr:postcode": "SO19 8NG", "addr:country": "GB", "name": "Welcome Sholing Bursledon Road", "phone": "023 8184 4729", "website": "https://stores.welcome-stores.co.uk/hampshire/southampton/430-bursledon-road.html", "opening_hours": "Mo-Fr 06:00-22:00; Sa-Su 07:00-22:00", "image": "https://dynl.mktgcdn.com/p/_jWq_t-1SC-22qKrJKSGB4nH5iSjKitCtXc-dUIcSYk/203x203.jpg", "brand": "Welcome"}, "geometry": {"type": "Point", "coordinates": [-1.3322341742743902, 50.90142039908855]}},
{"type": "Feature", "id": "dFTz-yjMERc8ohdpIngtfsF8iOg=", "properties": {"ref": "https://stores.welcome-stores.co.uk/hampshire/romsey/50-52-saxon-way.html", "@spider": "welcome", "addr:street_address": "50-52 Saxon Way Hattleworth", "addr:city": "Romsey", "addr:postcode": "SO51 5QY", "addr:country": "GB", "name": "Welcome Romsey Saxon Way", "phone": "01794 523308", "website": "https://stores.welcome-stores.co.uk/hampshire/romsey/50-52-saxon-way.html", "opening_hours": "Mo-Su 07:00-22:00", "image": "https://dynl.mktgcdn.com/p/_jWq_t-1SC-22qKrJKSGB4nH5iSjKitCtXc-dUIcSYk/203x203.jpg", "brand": "Welcome"}, "geometry": {"type": "Point", "coordinates": [-1.4747104693129054, 50.990744529347985]}},
{"type": "Feature", "id": "9j7rl2kwuzW_0O0lIv5x5NaWiAg=", "properties": {"ref": "https://stores.welcome-stores.co.uk/hampshire/portsmouth/43-green-road.html", "@spider": "welcome", "addr:street_address": "43 Green Road", "addr:city": "Portsmouth", "addr:postcode": "P05 4DY", "addr:country": "GB", "name": "Welcome Southsea Green Road", "phone": "023 9283 3066", "website": "https://stores.welcome-stores.co.uk/hampshire/portsmouth/43-green-road.html", "opening_hours": "Mo-Su 07:00-21:00", "image": "https://dynl.mktgcdn.com/p/_jWq_t-1SC-22qKrJKSGB4nH5iSjKitCtXc-dUIcSYk/203x203.jpg", "brand": "Welcome"}, "geometry": {"type": "Point", "coordinates": [-1.0896525274438984, 50.791129529473636]}},
{"type": "Feature", "id": "1ZGyBf2D9UFqEgKXV0Wh4-g-Hmc=", "properties": {"ref": "https://stores.welcome-stores.co.uk/hampshire/havant/40-snowberry-crescent.html", "@spider": "welcome", "addr:street_address": "40 Snowberry Crescent", "addr:city": "Havant", "addr:postcode": "PO9 2FE", "addr:country": "GB", "name": "Welcome Denvilles Snowberry Crescent", "phone": "023 9245 0045", "website": "https://stores.welcome-stores.co.uk/hampshire/havant/40-snowberry-crescent.html", "opening_hours": "Mo-Sa 06:00-22:00; Su 07:00-22:00", "image": "https://dynl.mktgcdn.com/p/_jWq_t-1SC-22qKrJKSGB4nH5iSjKitCtXc-dUIcSYk/203x203.jpg", "brand": "Welcome"}, "geometry": {"type": "Point", "coordinates": [-0.962512976686412, 50.86073861863687]}},
{"type": "Feature", "id": "DUTh3UigC_iXEWuNS_MickoSkhs=", "properties": {"ref": "https://stores.welcome-stores.co.uk/hampshire/eastleigh/fair-oak-road.html", "@spider": "welcome", "addr:street_address": "Fair Oak Road Fair Oak", "addr:city": "Eastleigh", "addr:postcode": "SO50 7AL", "addr:country": "GB", "name": "Welcome Fair Oak Fair Oak Road", "phone": "023 8069 4177", "website": "https://stores.welcome-stores.co.uk/hampshire/eastleigh/fair-oak-road.html", "opening_hours": "Mo-Sa 06:00-22:00; Su 07:00-22:00", "image": "https://dynl.mktgcdn.com/p/_jWq_t-1SC-22qKrJKSGB4nH5iSjKitCtXc-dUIcSYk/203x203.jpg", "brand": "Welcome"}, "geometry": {"type": "Point", "coordinates": [-1.2997295, 50.9644131]}},
{"type": "Feature", "id": "U7bKre1oEUIQWTMW0Aimn1dJJVE=", "properties": {"ref": "https://stores.welcome-stores.co.uk/hampshire/brockenhurst/62-brookley-road.html", "@spider": "welcome", "addr:street_address": "62 Brookley Road", "addr:city": "Brockenhurst", "addr:postcode": "SO42 7RA", "addr:country": "GB", "name": "Welcome Brockenhurst Brookley Road", "phone": "01590 624457", "website": "https://stores.welcome-stores.co.uk/hampshire/brockenhurst/62-brookley-road.html", "opening_hours": "Mo-Sa 06:00-21:00; Su 07:00-21:00", "image": "https://dynl.mktgcdn.com/p/_jWq_t-1SC-22qKrJKSGB4nH5iSjKitCtXc-dUIcSYk/203x203.jpg", "brand": "Welcome"}, "geometry": {"type": "Point", "coordinates": [-1.5775637, 50.8192261]}},
{"type": "Feature", "id": "K8cWYN8rTBVOqQzefqhntpQcTWM=", "properties": {"ref": "https://stores.welcome-stores.co.uk/hampshire/basingstoke/the-buckskin-centre.html", "@spider": "welcome", "addr:street_address": "The Buckskin Centre Blackdown Close", "addr:city": "Basingstoke", "addr:postcode": "RG22 5BW", "addr:country": "GB", "name": "Welcome Buckskin Blackdown Close", "phone": "01256 334934", "website": "https://stores.welcome-stores.co.uk/hampshire/basingstoke/the-buckskin-centre.html", "opening_hours": "Mo-Su 07:00-23:00", "image": "https://dynl.mktgcdn.com/p/_jWq_t-1SC-22qKrJKSGB4nH5iSjKitCtXc-dUIcSYk/203x203.jpg", "brand": "Welcome"}, "geometry": {"type": "Point", "coordinates": [-1.1334707, 51.256113]}},
{"type": "Feature", "id": "RxVzoNZXzpdCJOeh3qqAsuTPdzQ=", "properties": {"ref": "https://stores.welcome-stores.co.uk/hampshire/basingstoke/aldermarston-road-south.html", "@spider": "welcome", "addr:street_address": "Aldermarston Road South", "addr:city": "Basingstoke", "addr:postcode": "RG21 6BN", "addr:country": "GB", "name": "Welcome Houndmills Aldermaston Road South", "phone": "01256 844111", "website": "https://stores.welcome-stores.co.uk/hampshire/basingstoke/aldermarston-road-south.html", "image": "https://dynl.mktgcdn.com/p/_jWq_t-1SC-22qKrJKSGB4nH5iSjKitCtXc-dUIcSYk/203x203.jpg", "brand": "Welcome"}, "geometry": {"type": "Point", "coordinates": [-1.1033535, 51.2752187]}},
{"type": "Feature", "id": "x5_Ea9HWZINt0ENcax1ZkPYwK0U=", "properties": {"ref": "https://stores.welcome-stores.co.uk/greater-london/london/182-eynsham-drive.html", "@spider": "welcome", "addr:street_address": "182 Eynsham Drive", "addr:city": "London", "addr:postcode": "SE2 9PS", "addr:country": "GB", "name": "Welcome Abbey Wood Eynsham Drive", "phone": "020 8320 6023", "website": "https://stores.welcome-stores.co.uk/greater-london/london/182-eynsham-drive.html", "opening_hours": "Mo-Su 07:00-22:00", "image": "https://dynl.mktgcdn.com/p/_jWq_t-1SC-22qKrJKSGB4nH5iSjKitCtXc-dUIcSYk/203x203.jpg", "brand": "Welcome"}, "geometry": {"type": "Point", "coordinates": [0.10927889756495723, 51.49320673919939]}},
{"type": "Feature", "id": "GC4-vtzEVKBzVAsPbQwjfdsRfOs=", "properties": {"ref": "https://stores.welcome-stores.co.uk/greater-london/hayes/the-boiler-house.html", "@spider": "welcome", "addr:street_address": "The Boiler House 2 Material Walk", "addr:city": "Hayes", "addr:postcode": "UB3 1DZ", "addr:country": "GB", "name": "Welcome Hayes Blyth Road", "phone": "020 8813 6984", "website": "https://stores.welcome-stores.co.uk/greater-london/hayes/the-boiler-house.html", "opening_hours": "Mo-Su 07:00-22:00", "image": "https://dynl.mktgcdn.com/p/_jWq_t-1SC-22qKrJKSGB4nH5iSjKitCtXc-dUIcSYk/203x203.jpg", "brand": "Welcome"}, "geometry": {"type": "Point", "coordinates": [-0.425385528911002, 51.504374278258204]}},
{"type": "Feature", "id": "M5Dg9TdgqJDpCTd5EreR1jval98=", "properties": {"ref": "https://stores.welcome-stores.co.uk/essex/upminster/28-station-road.html", "@spider": "welcome", "addr:street_address": "28 Station Road", "addr:city": "Upminster", "addr:postcode": "RM14 2UB", "addr:country": "GB", "name": "Welcome Upminster Station Road", "phone": "01708 226856", "website": "https://stores.welcome-stores.co.uk/essex/upminster/28-station-road.html", "opening_hours": "Mo-Fr 06:00-22:00; Sa-Su 07:00-23:00", "image": "https://dynl.mktgcdn.com/p/_jWq_t-1SC-22qKrJKSGB4nH5iSjKitCtXc-dUIcSYk/203x203.jpg", "brand": "Welcome"}, "geometry": {"type": "Point", "coordinates": [0.24985941350135654, 51.55721729651913]}},
{"type": "Feature", "id": "xYIGIciqOawN7c2jF7YnuCdVXhs=", "properties": {"ref": "https://stores.welcome-stores.co.uk/essex/colchester/3-the-maltings.html", "@spider": "welcome", "addr:street_address": "3 The Maltings King Edward Quay", "addr:city": "Colchester", "addr:postcode": "CO2 8FU", "addr:country": "GB", "name": "Welcome Colchester Haven Road", "phone": "01206 867060", "website": "https://stores.welcome-stores.co.uk/essex/colchester/3-the-maltings.html", "opening_hours": "Mo-Su 07:00-22:00", "image": "https://dynl.mktgcdn.com/p/6LGzeK2Jc3vc-AJ-rTRIZ6-GTBg0VcN7hduumfVTiX4/203x203.jpg", "brand": "Welcome"}, "geometry": {"type": "Point", "coordinates": [0.927118683328243, 51.879716077185726]}},
{"type": "Feature", "id": "9-iWyXXmXl3uXlwd-asfI88k6K4=", "properties": {"ref": "https://stores.welcome-stores.co.uk/essex/barking/1-farr-avenue.html", "@spider": "welcome", "addr:street_address": "1 Farr Avenue", "addr:city": "Barking", "addr:postcode": "IG11 0NY", "addr:country": "GB", "name": "Welcome Thames View Barking", "phone": "020 8594 9400", "website": "https://stores.welcome-stores.co.uk/essex/barking/1-farr-avenue.html", "opening_hours": "Mo-Sa 05:30-22:00; Su 07:00-22:00", "image": "https://dynl.mktgcdn.com/p/_jWq_t-1SC-22qKrJKSGB4nH5iSjKitCtXc-dUIcSYk/203x203.jpg", "brand": "Welcome"}, "geometry": {"type": "Point", "coordinates": [0.104107, 51.5286175]}},
{"type": "Feature", "id": "70HqSWY8TEMlrjbSiyCkbS5yses=", "properties": {"ref": "https://stores.welcome-stores.co.uk/east-sussex/eastbourne/2-4-coppice-avenue.html", "@spider": "welcome", "addr:street_address": "2-4 Coppice Avenue Lower Willingdon", "addr:city": "Eastbourne", "addr:postcode": "BN20 9PN", "addr:country": "GB", "name": "Welcome Lower Willingdon Coppice Avenue", "phone": "01323 483380", "website": "https://stores.welcome-stores.co.uk/east-sussex/eastbourne/2-4-coppice-avenue.html", "opening_hours": "Mo-Su 07:00-21:00", "image": "https://dynl.mktgcdn.com/p/_jWq_t-1SC-22qKrJKSGB4nH5iSjKitCtXc-dUIcSYk/203x203.jpg", "brand": "Welcome"}, "geometry": {"type": "Point", "coordinates": [0.24771784853919598, 50.808080545019635]}},
{"type": "Feature", "id": "6Uk08q3WO9BEw6WML2iaOzNy09Y=", "properties": {"ref": "https://stores.welcome-stores.co.uk/buckinghamshire/milton-keynes/unit-1-dodkin.html", "@spider": "welcome", "addr:street_address": "Unit 1 Dodkin Beanhill", "addr:city": "Milton Keynes", "addr:postcode": "MK6 4LP", "addr:country": "GB", "name": "Welcome Beanhill Beanhill", "phone": "01908 691717", "website": "https://stores.welcome-stores.co.uk/buckinghamshire/milton-keynes/unit-1-dodkin.html", "opening_hours": "Mo-Su 07:00-22:00", "image": "https://dynl.mktgcdn.com/p/_jWq_t-1SC-22qKrJKSGB4nH5iSjKitCtXc-dUIcSYk/203x203.jpg", "brand": "Welcome"}, "geometry": {"type": "Point", "coordinates": [-0.7351681999999999, 52.0174692]}},
{"type": "Feature", "id": "THBqb0d2myEA0Hv18_o76hMKTgc=", "properties": {"ref": "https://stores.welcome-stores.co.uk/buckinghamshire/milton-keynes/unit-1-2-addington-avenue.html", "@spider": "welcome", "addr:street_address": "Unit 1-2 Addington Avenue Stratford Park", "addr:city": "Milton Keynes", "addr:postcode": "MK12 5GH", "addr:country": "GB", "name": "Welcome Wolverton Stratford Park", "phone": "01908 590354", "website": "https://stores.welcome-stores.co.uk/buckinghamshire/milton-keynes/unit-1-2-addington-avenue.html", "opening_hours": "Mo-Su 07:00-22:00", "image": "https://dynl.mktgcdn.com/p/_jWq_t-1SC-22qKrJKSGB4nH5iSjKitCtXc-dUIcSYk/203x203.jpg", "brand": "Welcome"}, "geometry": {"type": "Point", "coordinates": [-0.8249494, 52.0581824]}},
{"type": "Feature", "id": "4thzM_-pkW1GpJPj3aCc64otTEE=", "properties": {"ref": "https://stores.welcome-stores.co.uk/buckinghamshire/milton-keynes/127-downs-barn-boulevard.html", "@spider": "welcome", "addr:street_address": "127 Downs Barn Boulevard Downs Barn", "addr:city": "Milton Keynes", "addr:postcode": "MK14 7QB", "addr:country": "GB", "name": "Welcome Downs Barn Downs Barn Boulevard", "phone": "01908 393984", "website": "https://stores.welcome-stores.co.uk/buckinghamshire/milton-keynes/127-downs-barn-boulevard.html", "opening_hours": "Mo-Su 07:00-22:00", "image": "https://dynl.mktgcdn.com/p/_jWq_t-1SC-22qKrJKSGB4nH5iSjKitCtXc-dUIcSYk/203x203.jpg", "brand": "Welcome"}, "geometry": {"type": "Point", "coordinates": [-0.7477114534622009, 52.053891868982845]}},
{"type": "Feature", "id": "8ETgVQi8-eUHSFHLRbjz6pSWsJw=", "properties": {"ref": "https://stores.welcome-stores.co.uk/buckinghamshire/milton-keynes/1-tenterden-crescent.html", "@spider": "welcome", "addr:street_address": "1 Tenterden Crescent Kents Hill", "addr:city": "Milton Keynes", "addr:postcode": "MK7 6HH", "addr:country": "GB", "name": "Welcome Kents Hill Tenterden Crescent", "phone": "01908 677116", "website": "https://stores.welcome-stores.co.uk/buckinghamshire/milton-keynes/1-tenterden-crescent.html", "opening_hours": "Mo-Su 07:00-22:00", "image": "https://dynl.mktgcdn.com/p/_jWq_t-1SC-22qKrJKSGB4nH5iSjKitCtXc-dUIcSYk/203x203.jpg", "brand": "Welcome"}, "geometry": {"type": "Point", "coordinates": [-0.6956711321543674, 52.025645493868524]}},
{"type": "Feature", "id": "WijSAa0K5-L3sct_RYyT_7p76xg=", "properties": {"ref": "https://stores.welcome-stores.co.uk/bristol/stoke-bishop/5-druid-hill.html", "@spider": "welcome", "addr:street_address": "5 Druid Hill", "addr:city": "Stoke Bishop", "addr:postcode": "BS9 1EW", "addr:country": "GB", "name": "Welcome Stoke Bishop Druid Hill", "phone": "0117 968 1961", "website": "https://stores.welcome-stores.co.uk/bristol/stoke-bishop/5-druid-hill.html", "opening_hours": "Mo-Sa 07:00-21:00; Su 08:00-20:00", "image": "https://dynl.mktgcdn.com/p/_jWq_t-1SC-22qKrJKSGB4nH5iSjKitCtXc-dUIcSYk/203x203.jpg", "brand": "Welcome"}, "geometry": {"type": "Point", "coordinates": [-2.634772, 51.481166]}},
{"type": "Feature", "id": "EW2kQjXNK6hsYqUJ1dOs1wWfHHs=", "properties": {"ref": "https://stores.welcome-stores.co.uk/bristol/congresbury/1-the-precinct.html", "@spider": "welcome", "addr:street_address": "1 The Precinct Brinsea Road", "addr:city": "Congresbury", "addr:postcode": "BS49 5JG", "addr:country": "GB", "name": "Welcome Congresbury The Precinct", "phone": "01934 838020", "website": "https://stores.welcome-stores.co.uk/bristol/congresbury/1-the-precinct.html", "opening_hours": "Mo-Sa 07:00-21:00; Su 08:00-19:00", "image": "https://dynl.mktgcdn.com/p/_jWq_t-1SC-22qKrJKSGB4nH5iSjKitCtXc-dUIcSYk/203x203.jpg", "brand": "Welcome"}, "geometry": {"type": "Point", "coordinates": [-2.8073126822090444, 51.36619025388168]}},
{"type": "Feature", "id": "o0kR91NLXI8eD5EUl9SKFwErVLA=", "properties": {"ref": "https://stores.welcome-stores.co.uk/bedfordshire/sandy/ivel-park.html", "@spider": "welcome", "addr:street_address": "Ivel Park Kestrel Way", "addr:city": "Sandy", "addr:postcode": "SG19 2TG", "addr:country": "GB", "name": "Welcome Sandy Kestrel Way", "phone": "01767 699079", "website": "https://stores.welcome-stores.co.uk/bedfordshire/sandy/ivel-park.html", "opening_hours": "Mo-Su 06:00-22:00", "image": "https://dynl.mktgcdn.com/p/_jWq_t-1SC-22qKrJKSGB4nH5iSjKitCtXc-dUIcSYk/203x203.jpg", "brand": "Welcome"}, "geometry": {"type": "Point", "coordinates": [-0.29466693599853544, 52.141302472547295]}},
{"type": "Feature", "id": "1h8m0yspNue1WsQti0AVeQh6uqg=", "properties": {"ref": "https://stores.welcome-stores.co.uk/bedfordshire/bedford/24-university-way.html", "@spider": "welcome", "addr:street_address": "24 University Way, Wharley End,", "addr:city": "Bedford", "addr:postcode": "MK43 0ST", "addr:country": "GB", "name": "Welcome Cranfield University University Way", "phone": "01234 750200", "website": "https://stores.welcome-stores.co.uk/bedfordshire/bedford/24-university-way.html", "opening_hours": "Mo-Su 07:00-22:00", "image": "https://dynl.mktgcdn.com/p/_jWq_t-1SC-22qKrJKSGB4nH5iSjKitCtXc-dUIcSYk/203x203.jpg", "brand": "Welcome"}, "geometry": {"type": "Point", "coordinates": [-0.6273001, 52.075223]}},
{"type": "Feature", "id": "uu5xdo4Ed8m5sj8Hp1IKAHamhNw=", "properties": {"ref": "https://stores.welcome-stores.co.uk/bedfordshire/bedford/147-brooklands-avenue.html", "@spider": "welcome", "addr:street_address": "147 Brooklands Avenue", "addr:city": "Bedford", "addr:postcode": "MK42 6AE", "addr:country": "GB", "name": "Welcome Wixams Brooklands Avenue", "phone": "01234 740404", "website": "https://stores.welcome-stores.co.uk/bedfordshire/bedford/147-brooklands-avenue.html", "opening_hours": "Mo-Su 07:00-22:00", "image": "https://dynl.mktgcdn.com/p/_jWq_t-1SC-22qKrJKSGB4nH5iSjKitCtXc-dUIcSYk/203x203.jpg", "brand": "Welcome"}, "geometry": {"type": "Point", "coordinates": [-0.4607181, 52.0911446]}},
{"type": "Feature", "id": "q-INdigaSezp-bwX6_2IXU_3lIo=", "properties": {"ref": "https://stores.welcome-stores.co.uk/bedfordshire/bedford/100-stagsden-road.html", "@spider": "welcome", "addr:street_address": "100 Stagsden Road", "addr:city": "Bedford", "addr:postcode": "MK43 8PU", "addr:country": "GB", "name": "Welcome Bromham Stagsden Road", "phone": "01234 824040", "website": "https://stores.welcome-stores.co.uk/bedfordshire/bedford/100-stagsden-road.html", "opening_hours": "Mo-Sa 07:00-22:00; Su 10:00-16:00", "image": "https://dynl.mktgcdn.com/p/_jWq_t-1SC-22qKrJKSGB4nH5iSjKitCtXc-dUIcSYk/203x203.jpg", "brand": "Welcome"}, "geometry": {"type": "Point", "coordinates": [-0.5353891067459116, 52.14448336195758]}}]}