{"type":"FeatureCollection","features":[{"type": "Feature", "id": "syAvSNVIBtLK0dHRkNPZkFWdsfI=", "properties": {"ref": "2190", "@spider": "wellstar", "addr:full": "677 Church Street NE", "addr:city": "Marietta", "addr:state": "GA", "addr:postcode": "30060", "name": "Wellstar Hospitalist Group Ob/Gyn", "phone": "(770) 793-5913", "brand": "WellStar Health System", "brand:wikidata": "Q7981073"}, "geometry": {"type": "Point", "coordinates": [-84.5516184, 33.9698219]}},
{"type": "Feature", "id": "k-JWcGI78e0P5GhKyQ8TAtDerk4=", "properties": {"ref": "13876", "@spider": "wellstar", "addr:full": "2000 Billy Tucker Circle", "addr:city": "Hogansville", "addr:state": "GA", "addr:postcode": "30230", "name": "Wellstar Family Medicine", "phone": "(706) 880-7335", "brand": "WellStar Health System", "brand:wikidata": "Q7981073"}, "geometry": {"type": "Point", "coordinates": [-84.8999776, 33.1668304]}},
{"type": "Feature", "id": "S3SrAnUDfEw-febEh7jAm2G5fpM=", "properties": {"ref": "2240", "@spider": "wellstar", "addr:full": "1120 Wellstar Way Suite 201", "addr:city": "Holly Springs", "addr:state": "GA", "addr:postcode": "30114", "name": "Wellstar Towne Lake Pediatrics", "phone": "(470) 267-0140", "brand": "WellStar Health System", "brand:wikidata": "Q7981073"}, "geometry": {"type": "Point", "coordinates": [-84.5198669, 34.1429328]}},
{"type": "Feature", "id": "AAYdOgtiUdiPa8buUOtTWjGSDbM=", "properties": {"ref": "1556", "@spider": "wellstar", "addr:full": "3606 Highlands Parkway SE Building 1", "addr:city": "Smyrna", "addr:state": "GA", "addr:postcode": "30082", "name": " Cobb Kidney Center", "phone": "(678) 303-5082", "brand": "WellStar Health System", "brand:wikidata": "Q7981073"}, "geometry": {"type": "Point", "coordinates": [-84.4993282, 33.8278457]}},
{"type": "Feature", "id": "jga7khZRzkylXloJFBGjHIeYDPU=", "properties": {"ref": "13868", "@spider": "wellstar", "addr:full": "5100 Old Bill Cook Road", "addr:city": "Atlanta", "addr:state": "GA", "addr:postcode": "30349", "name": " Essential Medical Care", "phone": "(470) 225-1345", "brand": "WellStar Health System", "brand:wikidata": "Q7981073"}, "geometry": {"type": "Point", "coordinates": [-84.47552610000001, 33.6140369]}},
{"type": "Feature", "id": "1jc6iV8GoK8T4gOE3PIsb11dz6U=", "properties": {"ref": "406", "@spider": "wellstar", "addr:full": "4441 Atlanta Road SE Suite 114", "addr:city": "Smyrna", "addr:state": "GA", "addr:postcode": "30080", "name": "Wellstar Cardiac & Pulmonary Rehabilitation", "phone": "(470) 956-0423", "opening_hours": "Mo-We 07:00-18:00", "brand": "WellStar Health System", "brand:wikidata": "Q7981073"}, "geometry": {"type": "Point", "coordinates": [-84.489585, 33.8469243]}},
{"type": "Feature", "id": "TXWxCGfI3N4VMbqZ9wV4wOSU5tM=", "properties": {"ref": "13516", "@spider": "wellstar", "addr:full": "1600 Kennesaw Due West Road NW Suite 625", "addr:city": "Kennesaw", "addr:state": "GA", "addr:postcode": "30152", "name": " Kennesaw Mtn. Medical Group", "phone": "(770) 422-5880", "brand": "WellStar Health System", "brand:wikidata": "Q7981073"}, "geometry": {"type": "Point", "coordinates": [-84.62620559999999, 33.9924224]}},
{"type": "Feature", "id": "kpCnRO_OnRO7cJvWegKAuWlsf1g=", "properties": {"ref": "3038", "@spider": "wellstar", "addr:full": "2550 Windy Hill Road SE Suite 200", "addr:city": "Marietta", "addr:state": "GA", "addr:postcode": "30067", "name": " Gardner Dermatology", "phone": "(770) 952-2100", "brand": "WellStar Health System", "brand:wikidata": "Q7981073"}, "geometry": {"type": "Point", "coordinates": [-84.4786722, 33.900027]}},
{"type": "Feature", "id": "N4osyMdt6zY0spW8os-4QfDpiLM=", "properties": {"ref": "2192", "@spider": "wellstar", "addr:full": "3747 Roswell Road Suite 216", "addr:city": "Marietta", "addr:state": "GA", "addr:postcode": "30062", "name": "Wellstar Family Medicine", "phone": "(770) 973-2272", "opening_hours": "Mo-Fr 07:00-16:30", "brand": "WellStar Health System", "brand:wikidata": "Q7981073"}, "geometry": {"type": "Point", "coordinates": [-84.4447395, 33.9803208]}},
{"type": "Feature", "id": "OSUfi5NtRSdr73Gkv0wDBmiD6NE=", "properties": {"ref": "3444", "@spider": "wellstar", "addr:full": "4550 Cobb Parkway North NW Suite 201A", "addr:city": "Acworth", "addr:state": "GA", "addr:postcode": "30101", "name": "Wellstar Family Medicine (Acworth)", "phone": "(770) 974-4655", "brand": "WellStar Health System", "brand:wikidata": "Q7981073"}, "geometry": {"type": "Point", "coordinates": [-84.7231938, 34.0679136]}},
{"type": "Feature", "id": "eanYiVIp1a5ypChBpPsFmHdsZPo=", "properties": {"ref": "720", "@spider": "wellstar", "addr:full": "3000 Hospital Boulevard", "addr:city": "Roswell", "addr:state": "GA", "addr:postcode": "30076", "name": "Wellstar Imaging Services at North Fulton Hospital", "phone": "(678) 581-5900", "opening_hours": "Mo-Fr 08:00-17:00", "brand": "WellStar Health System", "brand:wikidata": "Q7981073"}, "geometry": {"type": "Point", "coordinates": [-84.3199817, 34.0631223]}},
{"type": "Feature", "id": "eA81XSNd06zE2bV8awwPGmOAG40=", "properties": {"ref": "2094", "@spider": "wellstar", "addr:full": "55 Whitcher Street NE Suite 450", "addr:city": "Marietta", "addr:state": "GA", "addr:postcode": "30060", "name": "Wellstar Podiatry", "phone": "(770) 590-4188", "brand": "WellStar Health System", "brand:wikidata": "Q7981073"}, "geometry": {"type": "Point", "coordinates": [-84.5513203, 33.9668232]}},
{"type": "Feature", "id": "sfWRc_cnKF3TRl8bdqzwXybkb7Q=", "properties": {"ref": "450", "@spider": "wellstar", "addr:full": "4480 South Cobb Drive SE Suite Y", "addr:city": "Smyrna", "addr:state": "GA", "addr:postcode": "30080", "name": " PT Solutions of Smyrna", "phone": "(770) 438-5220", "brand": "WellStar Health System", "brand:wikidata": "Q7981073"}, "geometry": {"type": "Point", "coordinates": [-84.5043857, 33.8435254]}},
{"type": "Feature", "id": "r2TKCIMtStH0tHDCcAMTlvY7yNA=", "properties": {"ref": "13522", "@spider": "wellstar", "addr:full": "144 Bill Carruth Parkway Suite 2200", "addr:city": "Hiram", "addr:state": "GA", "addr:postcode": "30141", "name": "Wellstar Primary Care at Paulding Pavilion", "phone": "(470) 956-4250", "brand": "WellStar Health System", "brand:wikidata": "Q7981073"}, "geometry": {"type": "Point", "coordinates": [-84.7805283, 33.9009938]}},
{"type": "Feature", "id": "1CVSdgxBih7C-O7PvmdHpgqyBNw=", "properties": {"ref": "1988", "@spider": "wellstar", "addr:full": "670 North Avenue NW Suite 100", "addr:city": "Marietta", "addr:state": "GA", "addr:postcode": "30060", "name": " Marietta Rheumatology Assoc.", "phone": "(770) 590-8328", "brand": "WellStar Health System", "brand:wikidata": "Q7981073"}, "geometry": {"type": "Point", "coordinates": [-84.55529299999999, 33.967728]}},
{"type": "Feature", "id": "xLloWYUxC8N_F8CLSMn4j4iZsDA=", "properties": {"ref": "14110", "@spider": "wellstar", "addr:full": "1514 Vernon Road", "addr:city": "LaGrange", "addr:state": "GA", "addr:postcode": "30240", "name": "Wellstar Cardiovascular Surgery", "phone": "(706) 882-1411", "brand": "WellStar Health System", "brand:wikidata": "Q7981073"}, "geometry": {"type": "Point", "coordinates": [-85.0583341, 33.0320333]}},
{"type": "Feature", "id": "M-QGGoFe5mOLyUeQjs3gr4UXKwY=", "properties": {"ref": "2002", "@spider": "wellstar", "addr:full": "6025 Professional Parkway Suite 101", "addr:city": "Douglasville", "addr:state": "GA", "addr:postcode": "30134", "name": " Douglasville Nephrology & Hypertension Clinic", "phone": "(770) 489-4978", "brand": "WellStar Health System", "brand:wikidata": "Q7981073"}, "geometry": {"type": "Point", "coordinates": [-84.7289034, 33.7403597]}},
{"type": "Feature", "id": "FdMaCLK6m0VnDsfLUg4dt4OHoCw=", "properties": {"ref": "3096", "@spider": "wellstar", "addr:full": "3950 Austell Road SW", "addr:city": "Austell", "addr:state": "GA", "addr:postcode": "30106", "name": "Wellstar Cobb Cancer Center", "phone": "1 (877) 366-6032", "opening_hours": "Mo-Fr 08:00-16:30", "brand": "WellStar Health System", "brand:wikidata": "Q7981073"}, "geometry": {"type": "Point", "coordinates": [-84.606282, 33.8571069]}},
{"type": "Feature", "id": "r4_56uHqFTdYU8Cpf8LGwuOeHE8=", "properties": {"ref": "13446", "@spider": "wellstar", "addr:full": "1675 Cumberland Parkway Suite 407", "addr:city": "Smyrna", "addr:state": "GA", "addr:postcode": "30080", "name": " Center for Allergy & Asthma WG", "phone": "(770) 459-0620", "brand": "WellStar Health System", "brand:wikidata": "Q7981073"}, "geometry": {"type": "Point", "coordinates": [-84.4898718, 33.8495454]}},
{"type": "Feature", "id": "fvgjBNJJ3wRU_yrUP4IXsDfttwY=", "properties": {"ref": "2464", "@spider": "wellstar", "addr:full": "14205 Highway 92 Suite 105", "addr:city": "Woodstock", "addr:state": "GA", "addr:postcode": "30188", "name": "Wellstar Family Medicine (Wylie Bridge)", "phone": "(678) 293-7854", "opening_hours": "Mo-Fr 08:00-17:00", "brand": "WellStar Health System", "brand:wikidata": "Q7981073"}, "geometry": {"type": "Point", "coordinates": [-84.452832, 34.0819189]}},
{"type": "Feature", "id": "-lGtOYu51RwS8mg9dUUWQ6XqbDM=", "properties": {"ref": "2406", "@spider": "wellstar", "addr:full": "5655 Atlanta Highway Suite A", "addr:city": "Alpharetta", "addr:state": "GA", "addr:postcode": "30004", "name": "Wellstar Urgent Care", "phone": "(770) 343-6364", "opening_hours": "Mo-Su 08:00-19:30", "brand": "WellStar Health System", "brand:wikidata": "Q7981073"}, "geometry": {"type": "Point", "coordinates": [-84.25170949999999, 34.1453215]}},
{"type": "Feature", "id": "mLXRdf2cqd-GmL2oSaxtSHepjrI=", "properties": {"ref": "1052", "@spider": "wellstar", "addr:full": "3000 Hospital Boulevard", "addr:city": "Roswell", "addr:state": "GA", "addr:postcode": "30076", "name": " Apollo MD", "phone": "(770) 751-2500", "brand": "WellStar Health System", "brand:wikidata": "Q7981073"}, "geometry": {"type": "Point", "coordinates": [-84.31985399999999, 34.0630617]}},
{"type": "Feature", "id": "IqUDaP99ldygXRz6FLWTGAGiOpo=", "properties": {"ref": "3100", "@spider": "wellstar", "addr:full": "100 Lacy Street Suite 150", "addr:city": "Marietta", "addr:state": "GA", "addr:postcode": "30060", "name": "Wellstar Psychological Services", "phone": "(470) 267-1584", "brand": "WellStar Health System", "brand:wikidata": "Q7981073"}, "geometry": {"type": "Point", "coordinates": [-84.553917, 33.9674156]}},
{"type": "Feature", "id": "A3HuGm4ZKHdkeUeM5LxnHs68fTc=", "properties": {"ref": "2972", "@spider": "wellstar", "addr:full": "699 Church Street NE Suite 235", "addr:city": "Marietta", "addr:state": "GA", "addr:postcode": "30060", "name": "Wellstar Urogynecology", "phone": "(770) 590-4175", "brand": "WellStar Health System", "brand:wikidata": "Q7981073"}, "geometry": {"type": "Point", "coordinates": [-84.55125249999999, 33.9694326]}},
{"type": "Feature", "id": "hZVepCb63sN1LgeDSM8G_2qXZTk=", "properties": {"ref": "13536", "@spider": "wellstar", "addr:full": "2001 Professional Parkway Suite 250", "addr:city": "Woodstock", "addr:state": "GA", "addr:postcode": "30188", "name": " Goodman Dermatology, PC", "phone": "(770) 754-0791", "brand": "WellStar Health System", "brand:wikidata": "Q7981073"}, "geometry": {"type": "Point", "coordinates": [-84.5218093, 34.0828839]}},
{"type": "Feature", "id": "ycxLuELzo3vM6POp_Um_pxVEXYs=", "properties": {"ref": "2554", "@spider": "wellstar", "addr:full": "3747 Roswell Road Suite 312", "addr:city": "Marietta", "addr:state": "GA", "addr:postcode": "30062", "name": "Wellstar Summit Surgical", "phone": "(470) 956-7540", "opening_hours": "Mo 12:30-16:00; We 12:30-16:00; Fr 08:30-15:30", "brand": "WellStar Health System", "brand:wikidata": "Q7981073"}, "geometry": {"type": "Point", "coordinates": [-84.4447395, 33.9803208]}},
{"type": "Feature", "id": "b_V3sQAI-BzDlfLBsEW7SMiLQHY=", "properties": {"ref": "2010", "@spider": "wellstar", "addr:full": "207 River Park North Drive", "addr:city": "Woodstock", "addr:state": "GA", "addr:postcode": "30188", "name": " Elizabeth A. Street, MD, PC", "phone": "(678) 388-2184", "brand": "WellStar Health System", "brand:wikidata": "Q7981073"}, "geometry": {"type": "Point", "coordinates": [-84.5113688, 34.1403423]}},
{"type": "Feature", "id": "zH8CydKnN4BKsXl1rCM3mXtHi8o=", "properties": {"ref": "2116", "@spider": "wellstar", "addr:full": "3747 Roswell Road Suite 215", "addr:city": "Marietta", "addr:state": "GA", "addr:postcode": "30062", "name": "Wellstar Pulmonary Medicine", "phone": "(770) 422-1372", "opening_hours": "Mo-Fr 07:30-16:30", "brand": "WellStar Health System", "brand:wikidata": "Q7981073"}, "geometry": {"type": "Point", "coordinates": [-84.4447395, 33.9803208]}},
{"type": "Feature", "id": "PxDBxDNLqkIhIm6DwIEuTLb3sTw=", "properties": {"ref": "2970", "@spider": "wellstar", "addr:full": "300 Medical Drive Suite 704", "addr:city": "LaGrange", "addr:state": "GA", "addr:postcode": "30240", "name": "Wellstar Internal Medicine", "phone": "(706) 880-7361", "brand": "WellStar Health System", "brand:wikidata": "Q7981073"}, "geometry": {"type": "Point", "coordinates": [-85.06038389999999, 33.033336]}},
{"type": "Feature", "id": "P1lg3WZnPbiuhF6KdbPrRaFv58s=", "properties": {"ref": "2612", "@spider": "wellstar", "addr:full": "54 Tower Road NE", "addr:city": "Marietta", "addr:state": "GA", "addr:postcode": "30060", "name": "Wellstar Marietta Internal Medicine", "phone": "(770) 427-4682", "opening_hours": "Mo-Fr 08:30-17:00", "brand": "WellStar Health System", "brand:wikidata": "Q7981073"}, "geometry": {"type": "Point", "coordinates": [-84.55346310000002, 33.9707349]}},
{"type": "Feature", "id": "MNjBpU8rs6ywcWvvhPLdoQxUTB4=", "properties": {"ref": "14310", "@spider": "wellstar", "addr:full": "1357 Hembree Road Suite 220", "addr:city": "Roswell", "addr:state": "GA", "addr:postcode": "30076", "name": " Georgia Pain and Wellness Center, LLC", "phone": "(770) 962-3642", "brand": "WellStar Health System", "brand:wikidata": "Q7981073"}, "geometry": {"type": "Point", "coordinates": [-84.31681239999999, 34.0604062]}},
{"type": "Feature", "id": "qPlKxEDRa1UbYIX0K8oVzPD0y_s=", "properties": {"ref": "2482", "@spider": "wellstar", "addr:full": "699 Church Street NE Suite 500", "addr:city": "Marietta", "addr:state": "GA", "addr:postcode": "30060", "name": "Wellstar Kennestone OB/GYN", "phone": "(770) 793-9750", "opening_hours": "Mo-Fr 08:00-17:00", "brand": "WellStar Health System", "brand:wikidata": "Q7981073"}, "geometry": {"type": "Point", "coordinates": [-84.55125249999999, 33.9694326]}},
{"type": "Feature", "id": "iV1yjO_wFq3KL2j_EYyeKSdfKIg=", "properties": {"ref": "4017", "@spider": "wellstar", "addr:full": "400 Tower Road NE Suite 160", "addr:city": "Marietta", "addr:state": "GA", "addr:postcode": "30060", "name": "Wellstar Rheumatology Associates", "phone": "(770) 420-1690", "brand": "WellStar Health System", "brand:wikidata": "Q7981073"}, "geometry": {"type": "Point", "coordinates": [-84.5562059, 33.9707258]}},
{"type": "Feature", "id": "H7J5eAPwqvE-AlmUng7VBTDSQ48=", "properties": {"ref": "2596", "@spider": "wellstar", "addr:full": "4581 South Cobb Drive SE Suite 100", "addr:city": "Smyrna", "addr:state": "GA", "addr:postcode": "30080", "name": "Wellstar Pediatric & Adolescent Center", "phone": "(770) 801-5000", "opening_hours": "Mo-Fr 08:00-17:00", "brand": "WellStar Health System", "brand:wikidata": "Q7981073"}, "geometry": {"type": "Point", "coordinates": [-84.4985391, 33.8439108]}},
{"type": "Feature", "id": "r1x6kSNKoegH8emFxIoiHRWiIqc=", "properties": {"ref": "3016", "@spider": "wellstar", "addr:full": "3939 Roswell Road Suite 200", "addr:city": "Marietta", "addr:state": "GA", "addr:postcode": "30062", "name": "Wellstar Psychological Services", "phone": "(470) 956-3940", "brand": "WellStar Health System", "brand:wikidata": "Q7981073"}, "geometry": {"type": "Point", "coordinates": [-84.43659029999999, 33.97862569999999]}},
{"type": "Feature", "id": "zLv5bN1aEwDevNyETkkGL_jCL3Y=", "properties": {"ref": "458", "@spider": "wellstar", "addr:full": "735 North Main Street Suite 1300", "addr:city": "Alpharetta", "addr:state": "GA", "addr:postcode": "30009", "name": " PT Solutions of Alpharetta ", "phone": "(770) 580-8575", "brand": "WellStar Health System", "brand:wikidata": "Q7981073"}, "geometry": {"type": "Point", "coordinates": [-84.2836236, 34.0909998]}},
{"type": "Feature", "id": "d66ACcC68ZZ4nPg8YX9THuzrnys=", "properties": {"ref": "14026", "@spider": "wellstar", "addr:full": "6002 Professional Parkway Suite 280", "addr:city": "Douglasville", "addr:state": "GA", "addr:postcode": "30134", "name": "Wellstar Rheumatology", "phone": "(770) 333-2035", "brand": "WellStar Health System", "brand:wikidata": "Q7981073"}, "geometry": {"type": "Point", "coordinates": [-84.7273933, 33.7412967]}},
{"type": "Feature", "id": "Ym05BC4Fm-eyLyMk_0WerYwYuWE=", "properties": {"ref": "13858", "@spider": "wellstar", "addr:full": "3400 Old Milton Parkway Suite A390", "addr:city": "Alpharetta", "addr:state": "GA", "addr:postcode": "30005", "name": " Georgia Reproductive Specialists", "phone": "(404) 843-2229", "brand": "WellStar Health System", "brand:wikidata": "Q7981073"}, "geometry": {"type": "Point", "coordinates": [-84.2635102, 34.0693355]}},
{"type": "Feature", "id": "SoEHmZw4lsP0X8UOWcgIAS1GwCA=", "properties": {"ref": "1294", "@spider": "wellstar", "addr:full": "1285 Hembree Road Suite 200A", "addr:city": "Roswell", "addr:state": "GA", "addr:postcode": "30076", "name": " Resurgens Orthopaedics", "phone": "(770) 475-2710", "brand": "WellStar Health System", "brand:wikidata": "Q7981073"}, "geometry": {"type": "Point", "coordinates": [-84.3215802, 34.0599324]}},
{"type": "Feature", "id": "Ignj5xQBsXa2nUGpMY8g6rrZxng=", "properties": {"ref": "14008", "@spider": "wellstar", "addr:full": "4500 Hospital Boulevard", "addr:city": "Roswell", "addr:state": "GA", "addr:postcode": "30076", "name": " MAK Anesthesia Wellstar", "phone": "(770) 751-2719", "brand": "WellStar Health System", "brand:wikidata": "Q7981073"}, "geometry": {"type": "Point", "coordinates": [-84.3205938, 34.0617949]}},
{"type": "Feature", "id": "j-DHmS1wbUpSKwkRd8n3gBYEiDo=", "properties": {"ref": "2804", "@spider": "wellstar", "addr:full": "2518 Jimmy Lee Smith Parkway", "addr:city": "Hiram", "addr:state": "GA", "addr:postcode": "30141", "name": "Wellstar Pathologist Group", "phone": "(770) 443-4775", "brand": "WellStar Health System", "brand:wikidata": "Q7981073"}, "geometry": {"type": "Point", "coordinates": [-84.78151009999999, 33.9007155]}},
{"type": "Feature", "id": "GZip2oN_668Y_9ioD64ZeB0Yp8s=", "properties": {"ref": "1548", "@spider": "wellstar", "addr:full": "1527 Vernon Road", "addr:city": "LaGrange", "addr:state": "GA", "addr:postcode": "30240", "name": " LaGrange Pediatrics", "phone": "(706) 883-6363", "brand": "WellStar Health System", "brand:wikidata": "Q7981073"}, "geometry": {"type": "Point", "coordinates": [-85.0609106, 33.0297002]}},
{"type": "Feature", "id": "CTmApNKfrF5k2YWRVEJhncndiOs=", "properties": {"ref": "3348", "@spider": "wellstar", "addr:full": "2520 Windy Hill Road SE Suite 202", "addr:city": "Marietta", "addr:state": "GA", "addr:postcode": "30067", "name": "Wellstar Neurology", "phone": "(770) 944-3616", "brand": "WellStar Health System", "brand:wikidata": "Q7981073"}, "geometry": {"type": "Point", "coordinates": [-84.4804655, 33.9003424]}},
{"type": "Feature", "id": "K55j2R1-NtufrMIMt3E0aGqtP0c=", "properties": {"ref": "1968", "@spider": "wellstar", "addr:full": "1810 Mulkey Road Suite 102", "addr:city": "Austell", "addr:state": "GA", "addr:postcode": "30106", "name": " Cobb Women's Health", "phone": "(770) 944-8660", "brand": "WellStar Health System", "brand:wikidata": "Q7981073"}, "geometry": {"type": "Point", "coordinates": [-84.6073129, 33.8598312]}},
{"type": "Feature", "id": "JgZVXy4RGMMV3ZzDriGNvMKn7xQ=", "properties": {"ref": "1962", "@spider": "wellstar", "addr:full": "653 Cherokee Street NE", "addr:city": "Marietta", "addr:state": "GA", "addr:postcode": "30060", "name": " Georgia Eye Specialists", "phone": "(770) 419-1393", "brand": "WellStar Health System", "brand:wikidata": "Q7981073"}, "geometry": {"type": "Point", "coordinates": [-84.548289, 33.967536]}},
{"type": "Feature", "id": "inyDGGEDBaO7s0kBxUxhT4rORiA=", "properties": {"ref": "1248", "@spider": "wellstar", "addr:full": "300 East 6th Avenue", "addr:city": "Rome", "addr:state": "GA", "addr:postcode": "30161", "name": " Georgia Anesthesiologists, PC", "phone": "(770) 794-0477", "brand": "WellStar Health System", "brand:wikidata": "Q7981073"}, "geometry": {"type": "Point", "coordinates": [-85.1668722, 34.2538293]}},
{"type": "Feature", "id": "8ns0x83GPxiQfJoue4n3s0GRvMI=", "properties": {"ref": "1378", "@spider": "wellstar", "addr:full": "5665 New Northside Drive Suite 320", "addr:city": "Atlanta", "addr:state": "GA", "addr:postcode": "30328", "name": " Georgia Emergency Group, LLC", "phone": "(770) 874-5400", "brand": "WellStar Health System", "brand:wikidata": "Q7981073"}, "geometry": {"type": "Point", "coordinates": [-84.43158559999999, 33.9100496]}},
{"type": "Feature", "id": "xg9MNVmAvFbVZLU4KPh_frjGuYg=", "properties": {"ref": "2376", "@spider": "wellstar", "addr:full": "6095 Professional Parkway Suite A210", "addr:city": "Douglasville", "addr:state": "GA", "addr:postcode": "30134", "name": "Wellstar North Douglas OB/GYN", "phone": "(770) 949-4188", "opening_hours": "Mo-Th 08:30-17:00; Fr 08:30-15:30", "brand": "WellStar Health System", "brand:wikidata": "Q7981073"}, "geometry": {"type": "Point", "coordinates": [-84.7300054, 33.7405373]}},
{"type": "Feature", "id": "F-FFkAMX_KmK7Ndzmia9Lh0WX3c=", "properties": {"ref": "466", "@spider": "wellstar", "addr:full": "2774 North Cobb Parkway Suite 112", "addr:city": "Kennesaw", "addr:state": "GA", "addr:postcode": "30152", "name": " PT Solutions of Jiles Road", "phone": "(678) 809-8448", "opening_hours": "Mo-Fr 07:00-17:00", "brand": "WellStar Health System", "brand:wikidata": "Q7981073"}, "geometry": {"type": "Point", "coordinates": [-84.6256548, 34.0235101]}},
{"type": "Feature", "id": "g01em47SK0gikbn5QeukERcDVX8=", "properties": {"ref": "14268", "@spider": "wellstar", "addr:full": "1625 Hospital North Drive", "addr:city": "Austell", "addr:state": "GA", "addr:postcode": "30106", "name": "Wellstar Psychiatry", "phone": "(770) 732-6950", "brand": "WellStar Health System", "brand:wikidata": "Q7981073"}, "geometry": {"type": "Point", "coordinates": [-84.6016889, 33.8574968]}},
{"type": "Feature", "id": "XG9h4r4ueoPbICM1NFkoxRr4Y0o=", "properties": {"ref": "2078", "@spider": "wellstar", "addr:full": "835 Cogburn Avenue NW Suite 100", "addr:city": "Marietta", "addr:state": "GA", "addr:postcode": "30060", "name": " Dermatology Affiliates, PC", "phone": "(770) 422-5557", "brand": "WellStar Health System", "brand:wikidata": "Q7981073"}, "geometry": {"type": "Point", "coordinates": [-84.5556637, 33.9724115]}},
{"type": "Feature", "id": "ppIg7XFiNaZZX6ihSiUroQGhE10=", "properties": {"ref": "2752", "@spider": "wellstar", "addr:full": "1180 Ernest W Barrett Parkway NW Suite 102B", "addr:city": "Kennesaw", "addr:state": "GA", "addr:postcode": "30144", "name": "Wellstar West Cobb Medical Center", "phone": "(678) 354-2273", "brand": "WellStar Health System", "brand:wikidata": "Q7981073"}, "geometry": {"type": "Point", "coordinates": [-84.58452690000001, 34.001146]}},
{"type": "Feature", "id": "CXJdEruPejBB-YtD3ZR7fopOAmM=", "properties": {"ref": "13742", "@spider": "wellstar", "addr:full": "562 Concord Road SE", "addr:city": "Smyrna", "addr:state": "GA", "addr:postcode": "30082", "name": "Wellstar West Cobb Medical Center", "phone": "(770) 384-9830", "brand": "WellStar Health System", "brand:wikidata": "Q7981073"}, "geometry": {"type": "Point", "coordinates": [-84.5361027, 33.8687484]}},
{"type": "Feature", "id": "IGFNTazVLiTAq0-fyQ4hXw79qCA=", "properties": {"ref": "2432", "@spider": "wellstar", "addr:full": "4441 Atlanta Road SE Suite 216", "addr:city": "Smyrna", "addr:state": "GA", "addr:postcode": "30080", "name": "Wellstar Family Medicine", "phone": "(470) 956-4120", "opening_hours": "Mo-Fr 08:00-17:00", "brand": "WellStar Health System", "brand:wikidata": "Q7981073"}, "geometry": {"type": "Point", "coordinates": [-84.4898406, 33.8466533]}},
{"type": "Feature", "id": "EwbsRZghTC-O46GeVhdQ_mIxtHM=", "properties": {"ref": "457", "@spider": "wellstar", "addr:full": "650 Henderson Drive Suite 301", "addr:city": "Cartersville", "addr:state": "GA", "addr:postcode": "30120", "name": " PT Solutions of Cartersville ", "phone": " (678) 721-9922", "brand": "WellStar Health System", "brand:wikidata": "Q7981073"}, "geometry": {"type": "Point", "coordinates": [-84.8160403, 34.1530868]}},
{"type": "Feature", "id": "5CcoWLjpTW2RArle4l22pbtQgsY=", "properties": {"ref": "2868", "@spider": "wellstar", "addr:full": "5150 Stilesboro Road NW Suite 120", "addr:city": "Kennesaw", "addr:state": "GA", "addr:postcode": "30152", "name": "Wellstar Family Medicine", "phone": "(678) 354-0230", "opening_hours": "Mo-Fr 08:00-17:00", "brand": "WellStar Health System", "brand:wikidata": "Q7981073"}, "geometry": {"type": "Point", "coordinates": [-84.69975099999999, 33.9959669]}},
{"type": "Feature", "id": "ox2o9KTUl12qChzbTnsx81sSaa4=", "properties": {"ref": "14336", "@spider": "wellstar", "addr:full": "3885 Princeton Lakes Way SW Suite 300", "addr:city": "Atlanta", "addr:state": "GA", "addr:postcode": "30331", "name": "Wellstar Pediatric Cardiology", "phone": "(470) 956-9171", "brand": "WellStar Health System", "brand:wikidata": "Q7981073"}, "geometry": {"type": "Point", "coordinates": [-84.5144359, 33.6600998]}},
{"type": "Feature", "id": "ALq953qM2MvpN3JEonUL__p3Wk0=", "properties": {"ref": "200", "@spider": "wellstar", "addr:full": "1180 Ernest W. Barrett Parkway NW", "addr:city": "Kennesaw", "addr:state": "GA", "addr:postcode": "30144", "name": "Wellstar Pediatric Center", "phone": "(678) 594-7337", "opening_hours": "Mo-Fr 05:00-20:00; Sa 08:00-14:00; Su 12:00-17:00", "brand": "WellStar Health System", "brand:wikidata": "Q7981073"}, "geometry": {"type": "Point", "coordinates": [-84.5867156, 34.001146]}},
{"type": "Feature", "id": "tPQlpkfaiJI4KCg_0zWaaTrdhcM=", "properties": {"ref": "14342", "@spider": "wellstar", "addr:full": "2500 Hospital Boulevard Suite 320", "addr:city": "Roswell", "addr:state": "GA", "addr:postcode": "30076", "name": " Goodman Dermatology, PC", "phone": "(770) 754-0716", "brand": "WellStar Health System", "brand:wikidata": "Q7981073"}, "geometry": {"type": "Point", "coordinates": [-84.32174460000002, 34.0625418]}},
{"type": "Feature", "id": "rTdCqFMPzOQ-mc_F6IZj6w-lm8A=", "properties": {"ref": "13640", "@spider": "wellstar", "addr:full": "550 Peachtree Street NE Suite 1265", "addr:city": "Atlanta", "addr:state": "GA", "addr:postcode": "30308", "name": " Atlanta Surgery Associates, LLC", "phone": "(404) 221-1095", "brand": "WellStar Health System", "brand:wikidata": "Q7981073"}, "geometry": {"type": "Point", "coordinates": [-84.38568479999999, 33.7688625]}},
{"type": "Feature", "id": "xklR8WWFghE1GZiEq0T0jnTunTs=", "properties": {"ref": "1932", "@spider": "wellstar", "addr:full": "833 Campbell Hill Street NW Suite 420", "addr:city": "Marietta", "addr:state": "GA", "addr:postcode": "30060", "name": " Kennestone Women's Health Clinic", "phone": "(470) 956-3860", "brand": "WellStar Health System", "brand:wikidata": "Q7981073"}, "geometry": {"type": "Point", "coordinates": [-84.5524397, 33.9719488]}},
{"type": "Feature", "id": "gCiRMXqqHTxJ41oxoD9nIlgcU2s=", "properties": {"ref": "2622", "@spider": "wellstar", "addr:full": "4441 Atlanta Road SE Suite 206", "addr:city": "Smyrna", "addr:state": "GA", "addr:postcode": "30080", "name": "Wellstar South Cobb OB/GYN", "phone": "(770) 333-2020", "opening_hours": "Mo-Th 08:30-17:00; Fr 08:30-15:30", "brand": "WellStar Health System", "brand:wikidata": "Q7981073"}, "geometry": {"type": "Point", "coordinates": [-84.4898406, 33.8466533]}},
{"type": "Feature", "id": "6zKWKdP1N59AR-CMY6qiZ-ou2P4=", "properties": {"ref": "13804", "@spider": "wellstar", "addr:full": "1625 Highway 34 E Suite A", "addr:city": "Newnan", "addr:state": "GA", "addr:postcode": "30265", "name": " Skin Cancer Specialists, PC", "phone": "(770) 502-0202", "brand": "WellStar Health System", "brand:wikidata": "Q7981073"}, "geometry": {"type": "Point", "coordinates": [-84.7254749, 33.3992482]}},
{"type": "Feature", "id": "_KW-hSIYxwFtNfPF8o40IixweZw=", "properties": {"ref": "13550", "@spider": "wellstar", "addr:full": "61 Whitcher Street NE Suite 2150", "addr:city": "Marietta", "addr:state": "GA", "addr:postcode": "30060", "name": " Hyperbaric Physicians of GA", "phone": "(770) 422-4268", "brand": "WellStar Health System", "brand:wikidata": "Q7981073"}, "geometry": {"type": "Point", "coordinates": [-84.5516894, 33.9671871]}},
{"type": "Feature", "id": "fLGERjnbun5axZKT0XtS2XXrejw=", "properties": {"ref": "14428", "@spider": "wellstar", "addr:full": "460 Northside Cherokee Boulevard Suite 430", "addr:city": "Canton", "addr:state": "GA", "addr:postcode": "30115", "name": " North Georgia Kidney Specialists", "phone": "(770) 765-3766", "brand": "WellStar Health System", "brand:wikidata": "Q7981073"}, "geometry": {"type": "Point", "coordinates": [-84.4656459, 34.2284379]}},
{"type": "Feature", "id": "3WPOVxbKvJbe1wrhqa8slVQV6Wo=", "properties": {"ref": "13806", "@spider": "wellstar", "addr:full": "690 Dallas Highway Suite 101", "addr:city": "Villa Rica", "addr:state": "GA", "addr:postcode": "30180", "name": " Center for Allergy & Asthma WG", "phone": "(770) 459-0620", "brand": "WellStar Health System", "brand:wikidata": "Q7981073"}, "geometry": {"type": "Point", "coordinates": [-84.91691829999999, 33.7445164]}},
{"type": "Feature", "id": "SLr8dtBn2nuhYttB4XFG6zmGbrQ=", "properties": {"ref": "13490", "@spider": "wellstar", "addr:full": "55 Whitcher Street NE Suite 160", "addr:city": "Marietta", "addr:state": "GA", "addr:postcode": "30060", "name": " Cardiovascular Medicine", "phone": "(770) 424-6893", "opening_hours": "Mo-Fr 08:00-17:00", "brand": "WellStar Health System", "brand:wikidata": "Q7981073"}, "geometry": {"type": "Point", "coordinates": [-84.5513203, 33.9668232]}},
{"type": "Feature", "id": "feBwdPEBPOAAn-zWaGIDCRp8UkE=", "properties": {"ref": "13594", "@spider": "wellstar", "addr:full": "770 Old Roswell Place Suite A300", "addr:city": "Roswell", "addr:state": "GA", "addr:postcode": "30076", "name": " Serenity Podiatry and Med Spa", "phone": "(678) 373-3050", "brand": "WellStar Health System", "brand:wikidata": "Q7981073"}, "geometry": {"type": "Point", "coordinates": [-84.3402369, 34.035203]}},
{"type": "Feature", "id": "0u133v5Za552QDVubcz1LaWs108=", "properties": {"ref": "2358", "@spider": "wellstar", "addr:full": "1120 Wellstar Way Suite 203", "addr:city": "Holly Springs", "addr:state": "GA", "addr:postcode": "30114", "name": "Wellstar ENT", "phone": "(470) 267-0160", "brand": "WellStar Health System", "brand:wikidata": "Q7981073"}, "geometry": {"type": "Point", "coordinates": [-84.5198669, 34.1429328]}},
{"type": "Feature", "id": "fb8y8hIx2rQHPejvI6B6xPIJbu8=", "properties": {"ref": "427", "@spider": "wellstar", "addr:full": "4550 Cobb Parkway North NW Suite 304", "addr:city": "Acworth", "addr:state": "GA", "addr:postcode": "30101", "name": "Wellstar Physical Therapy", "phone": "(770) 917-8175", "opening_hours": "Mo-Th 07:00-19:00; Fr 08:00-16:00; Sa 08:00-13:00", "brand": "WellStar Health System", "brand:wikidata": "Q7981073"}, "geometry": {"type": "Point", "coordinates": [-84.7253878, 34.0679136]}},
{"type": "Feature", "id": "LaVtGh2io1dSqHW4cPELh3XjUDU=", "properties": {"ref": "13480", "@spider": "wellstar", "addr:full": "3747 Roswell Road Suite 204", "addr:city": "Marietta", "addr:state": "GA", "addr:postcode": "30062", "name": "Wellstar Occupational Health", "phone": "(470) 956-4360", "brand": "WellStar Health System", "brand:wikidata": "Q7981073"}, "geometry": {"type": "Point", "coordinates": [-84.4447395, 33.9803208]}},
{"type": "Feature", "id": "DP6vKGo60vIEQdoBsYyi_slLSOo=", "properties": {"ref": "13582", "@spider": "wellstar", "addr:full": "835 Cogburn Avenue NW Suite 270", "addr:city": "Marietta", "addr:state": "GA", "addr:postcode": "30060", "name": " Skin Cancer Specialists, PC", "phone": "(770) 422-5557", "brand": "WellStar Health System", "brand:wikidata": "Q7981073"}, "geometry": {"type": "Point", "coordinates": [-84.5556637, 33.9724115]}},
{"type": "Feature", "id": "vARsNrAC8QEj9UMlNyOSZHar_JU=", "properties": {"ref": "700", "@spider": "wellstar", "addr:full": "670 Dekalb Avenue NE Suite 105", "addr:city": "Atlanta", "addr:state": "GA", "addr:postcode": "30312", "name": "Wellstar Imaging Services", "phone": "(678) 581-5900", "opening_hours": "Mo-Fr 09:00-16:30", "brand": "WellStar Health System", "brand:wikidata": "Q7981073"}, "geometry": {"type": "Point", "coordinates": [-84.367756, 33.7535491]}},
{"type": "Feature", "id": "VazKwpUp2nUOLDCB4dMYdHZYSDw=", "properties": {"ref": "1350", "@spider": "wellstar", "addr:full": "3200 Highlands Parkway SE Suite 250", "addr:city": "Smyrna", "addr:state": "GA", "addr:postcode": "30082", "name": " Gastroenterology Consultants", "phone": "(770) 442-5882", "brand": "WellStar Health System", "brand:wikidata": "Q7981073"}, "geometry": {"type": "Point", "coordinates": [-84.4973917, 33.8287292]}},
{"type": "Feature", "id": "PD7h3auKKS84R2uerCRVSI_zcxI=", "properties": {"ref": "1018", "@spider": "wellstar", "addr:full": "3823 Roswell Road Suite 201", "addr:city": "Marietta", "addr:state": "GA", "addr:postcode": "30062", "name": " Acupuncture and Injury", "phone": "(678) 247-2115", "brand": "WellStar Health System", "brand:wikidata": "Q7981073"}, "geometry": {"type": "Point", "coordinates": [-84.440282, 33.9785318]}},
{"type": "Feature", "id": "VgRwKT6snVBSxJYRyLtQ9vVINcU=", "properties": {"ref": "14320", "@spider": "wellstar", "addr:full": "780 Canton Road NE Suite 410", "addr:city": "Marietta", "addr:state": "GA", "addr:postcode": "30060", "name": "Wellstar Neurology", "phone": "(770) 422-3602", "brand": "WellStar Health System", "brand:wikidata": "Q7981073"}, "geometry": {"type": "Point", "coordinates": [-84.5468717, 33.9715289]}},
{"type": "Feature", "id": "_3f1uyn4tYQuc5SkhClyG-fslTM=", "properties": {"ref": "14256", "@spider": "wellstar", "addr:full": "3000 Hospital Boulevard", "addr:city": "Roswell", "addr:state": "GA", "addr:postcode": "30076", "name": "Wellstar Palliative Medicine", "phone": "(770) 793-7899", "brand": "WellStar Health System", "brand:wikidata": "Q7981073"}, "geometry": {"type": "Point", "coordinates": [-84.31985399999999, 34.0630617]}},
{"type": "Feature", "id": "K0tGNFQ8-g15XBR48L9x4hWeNo4=", "properties": {"ref": "1582", "@spider": "wellstar", "addr:full": "3775 Roswell Road Suite 150", "addr:city": "Marietta", "addr:state": "GA", "addr:postcode": "30062", "name": " Milan Eye Center", "phone": "(678) 381-2020", "brand": "WellStar Health System", "brand:wikidata": "Q7981073"}, "geometry": {"type": "Point", "coordinates": [-84.4409383, 33.9786483]}},
{"type": "Feature", "id": "zlaHTq4J0AJGGP2HwBSdNccTaoY=", "properties": {"ref": "1526", "@spider": "wellstar", "addr:full": "4645 Timber Ridge Drive Suite 100", "addr:city": "Douglasville", "addr:state": "GA", "addr:postcode": "30135", "name": " Douglas Dermatology & Skin Cancer Specialists", "phone": "(678) 702-3376", "brand": "WellStar Health System", "brand:wikidata": "Q7981073"}, "geometry": {"type": "Point", "coordinates": [-84.7305997, 33.7355159]}},
{"type": "Feature", "id": "IeOVjinIYJWj0b1pJQod3tGIG54=", "properties": {"ref": "4009", "@spider": "wellstar", "addr:full": "4500 Hospital Boulevard Suite 330", "addr:city": "Roswell", "addr:state": "GA", "addr:postcode": "30076", "name": "Wellstar Cardiac Diagnostics", "phone": "(770) 410-4520", "opening_hours": "Mo-Th 08:00-16:30", "brand": "WellStar Health System", "brand:wikidata": "Q7981073"}, "geometry": {"type": "Point", "coordinates": [-84.3247481, 34.0631449]}},
{"type": "Feature", "id": "0WpZ0zdR1eG8l8eJC9D23XdCJFo=", "properties": {"ref": "444", "@spider": "wellstar", "addr:full": "3455 Peachtree Industrial Boulevard Suite 825", "addr:city": "Duluth", "addr:state": "GA", "addr:postcode": "30096", "name": " PT Solutions of Duluth", "phone": " (678) 534-4727", "brand": "WellStar Health System", "brand:wikidata": "Q7981073"}, "geometry": {"type": "Point", "coordinates": [-84.1731393, 34.0058153]}},
{"type": "Feature", "id": "tLQUgl0fPTt9oeN1ncmQWSLDkXk=", "properties": {"ref": "2416", "@spider": "wellstar", "addr:full": "148 Bill Carruth Parkway Suite 100", "addr:city": "Hiram", "addr:state": "GA", "addr:postcode": "30141", "name": "Wellstar Pulmonary Medicine", "phone": "(770) 422-1372", "opening_hours": "Mo-Fr 07:30-16:45", "brand": "WellStar Health System", "brand:wikidata": "Q7981073"}, "geometry": {"type": "Point", "coordinates": [-84.78110679999999, 33.9007916]}},
{"type": "Feature", "id": "1yBPtM6AsVxkzee9AfDpdq39W-I=", "properties": {"ref": "2408", "@spider": "wellstar", "addr:full": "2450 Old Milton Parkway Suite 102", "addr:city": "Alpharetta", "addr:state": "GA", "addr:postcode": "30009", "name": "Wellstar Urgent Care", "phone": "(470) 267-0320", "opening_hours": "Mo-Su 08:00-19:30", "brand": "WellStar Health System", "brand:wikidata": "Q7981073"}, "geometry": {"type": "Point", "coordinates": [-84.28683459999999, 34.0707153]}},
{"type": "Feature", "id": "4_f9iidTQhO_ZjO6CoyRtkU66y4=", "properties": {"ref": "1438", "@spider": "wellstar", "addr:full": "2041 Mesa Valley Way Suite 100", "addr:city": "Austell", "addr:state": "GA", "addr:postcode": "30106", "name": " Resurgens Orthopaedics", "phone": "(770) 944-1100", "brand": "WellStar Health System", "brand:wikidata": "Q7981073"}, "geometry": {"type": "Point", "coordinates": [-84.613652, 33.8538549]}},
{"type": "Feature", "id": "00GGLPd40DUPf7yf0jA3oQ9NJlc=", "properties": {"ref": "2888", "@spider": "wellstar", "addr:full": "148 Bill Carruth Parkway Suite 180", "addr:city": "Hiram", "addr:state": "GA", "addr:postcode": "30141", "name": "Wellstar General Surgery", "phone": "(770) 445-4915", "brand": "WellStar Health System", "brand:wikidata": "Q7981073"}, "geometry": {"type": "Point", "coordinates": [-84.78110679999999, 33.9007916]}},
{"type": "Feature", "id": "rcR1el0JYXYZ4x9Cs4GHs4oPb28=", "properties": {"ref": "2360", "@spider": "wellstar", "addr:full": "145 North Medical Parkway", "addr:city": "Woodstock", "addr:state": "GA", "addr:postcode": "30189", "name": "Wellstar Towne Lake Medical Center", "phone": "(770) 592-3000", "opening_hours": "Mo-Fr 07:30-17:00", "brand": "WellStar Health System", "brand:wikidata": "Q7981073"}, "geometry": {"type": "Point", "coordinates": [-84.5516209, 34.1095283]}},
{"type": "Feature", "id": "BB0_z9IMbXCE4wcLVVadSlewsVg=", "properties": {"ref": "2254", "@spider": "wellstar", "addr:full": "3000 Hospital Boulevard", "addr:city": "Roswell", "addr:state": "GA", "addr:postcode": "30076", "name": "Wellstar Hospitalist Group Medicine", "phone": "(770) 751-2777", "brand": "WellStar Health System", "brand:wikidata": "Q7981073"}, "geometry": {"type": "Point", "coordinates": [-84.31985399999999, 34.0630617]}},
{"type": "Feature", "id": "OedFG4xK-vHAiDxvO_tPIhMhmTI=", "properties": {"ref": "3308", "@spider": "wellstar", "addr:full": "4441 Atlanta Road SE Suite 319", "addr:city": "Smyrna", "addr:state": "GA", "addr:postcode": "30080", "name": "Wellstar Urogynecology", "phone": "(470) 956-7330", "brand": "WellStar Health System", "brand:wikidata": "Q7981073"}, "geometry": {"type": "Point", "coordinates": [-84.4920293, 33.8466533]}},
{"type": "Feature", "id": "1s2KThVEnGKWvTJeLUYppk2LY8E=", "properties": {"ref": "14344", "@spider": "wellstar", "addr:full": "200 Medical Drive", "addr:city": "LaGrange", "addr:state": "GA", "addr:postcode": "30240", "name": "Wellstar Hospitalist Group Medicine", "phone": "(706) 845-3256", "brand": "WellStar Health System", "brand:wikidata": "Q7981073"}, "geometry": {"type": "Point", "coordinates": [-85.0588616, 33.0329754]}},
{"type": "Feature", "id": "VoESfgn3htuhhKPf4pE6F5KLfbo=", "properties": {"ref": "3392", "@spider": "wellstar", "addr:full": "111 Medical Drive", "addr:city": "LaGrange", "addr:state": "GA", "addr:postcode": "30240", "name": "Wellstar Oncology", "phone": "(706) 812-2426", "opening_hours": "Mo-Th 08:00-16:30; Fr 08:00-14:00", "brand": "WellStar Health System", "brand:wikidata": "Q7981073"}, "geometry": {"type": "Point", "coordinates": [-85.05947019999999, 33.0320782]}},
{"type": "Feature", "id": "gcKhH6xmCtyF15JZc6KsVZMW-NA=", "properties": {"ref": "407", "@spider": "wellstar", "addr:full": "8954 Hospital Drive Building D", "addr:city": "Douglasville", "addr:state": "GA", "addr:postcode": "30134", "name": "Wellstar Douglas Cardiac Rehabilitation", "phone": "(470) 644-6761", "opening_hours": "Mo 07:00-18:00; We-Th 07:00-18:00", "brand": "WellStar Health System", "brand:wikidata": "Q7981073"}, "geometry": {"type": "Point", "coordinates": [-84.7314746, 33.7390326]}},
{"type": "Feature", "id": "W4n7tExT_Q9dH-3O_9R_08bloVU=", "properties": {"ref": "1292", "@spider": "wellstar", "addr:full": "100 Stone Forest Drive Suite 150", "addr:city": "Woodstock", "addr:state": "GA", "addr:postcode": "30189", "name": " OB/GYN Associates", "phone": "(678) 445-3555", "brand": "WellStar Health System", "brand:wikidata": "Q7981073"}, "geometry": {"type": "Point", "coordinates": [-84.5380274, 34.1035498]}},
{"type": "Feature", "id": "6QP05lkBqg0fkQbgRnFuIogx4Sk=", "properties": {"ref": "2598", "@spider": "wellstar", "addr:full": "1810 Mulkey Road Suite 201", "addr:city": "Austell", "addr:state": "GA", "addr:postcode": "30106", "name": "Wellstar Pediatric & Adolescent Center", "phone": "(770) 819-9262", "opening_hours": "Mo-Fr 08:00-17:00", "brand": "WellStar Health System", "brand:wikidata": "Q7981073"}, "geometry": {"type": "Point", "coordinates": [-84.6073129, 33.8598312]}},
{"type": "Feature", "id": "W6MI8CUBooDKe9-hrrduFDUTqjg=", "properties": {"ref": "14480", "@spider": "wellstar", "addr:full": "880 Crestmark Drive Suite 102", "addr:city": "Lithia Springs", "addr:state": "GA", "addr:postcode": "30122", "name": " Gastrointestinal Specialists of Georgia, Inc.", "phone": "(678) 741-5000", "brand": "WellStar Health System", "brand:wikidata": "Q7981073"}, "geometry": {"type": "Point", "coordinates": [-84.6109937, 33.77993130000001]}},
{"type": "Feature", "id": "H_j-Pl5jgcrMOCVStbjpA6U6usU=", "properties": {"ref": "14018", "@spider": "wellstar", "addr:full": "5077 Dallas Highway Suite 311", "addr:city": "Powder Springs", "addr:state": "GA", "addr:postcode": "30127", "name": " Optimum Podiatry", "phone": "(770) 727-0614", "brand": "WellStar Health System", "brand:wikidata": "Q7981073"}, "geometry": {"type": "Point", "coordinates": [-84.7001428, 33.9403644]}},
{"type": "Feature", "id": "fqn3KEcuzY7yfV_P-dTAIV9cNLY=", "properties": {"ref": "1288", "@spider": "wellstar", "addr:full": "3200 Highlands Parkway Suite 100", "addr:city": "Smyrna", "addr:state": "GA", "addr:postcode": "30082", "name": " Village Podiatry Group", "phone": "(770) 319-5502", "brand": "WellStar Health System", "brand:wikidata": "Q7981073"}, "geometry": {"type": "Point", "coordinates": [-84.4973917, 33.8287292]}},
{"type": "Feature", "id": "Yty2IV6IEc9TkD-bHNf3uFL9Y2k=", "properties": {"ref": "14490", "@spider": "wellstar", "addr:full": "1790 Mulkey Road Suite 5A", "addr:city": "Austell", "addr:state": "GA", "addr:postcode": "30106", "name": "Wellstar Internal Medicine", "phone": "(404) 265-1044", "brand": "WellStar Health System", "brand:wikidata": "Q7981073"}, "geometry": {"type": "Point", "coordinates": [-84.60529389999999, 33.8596342]}},
{"type": "Feature", "id": "OOVOlB2CQrC07G1RucByR4tWIyA=", "properties": {"ref": "4008", "@spider": "wellstar", "addr:full": "4441 Atlanta Road SE Suite 211", "addr:city": "Smyrna", "addr:state": "GA", "addr:postcode": "30080", "name": "Wellstar Cardiac Diagnostics", "phone": "(470) 956-0371", "opening_hours": "Mo-Fr 07:45-16:00", "brand": "WellStar Health System", "brand:wikidata": "Q7981073"}, "geometry": {"type": "Point", "coordinates": [-84.4920346, 33.8466577]}},
{"type": "Feature", "id": "UUI2YZHF6qHeyk4i1R5HLNVq1rg=", "properties": {"ref": "13928", "@spider": "wellstar", "addr:full": "1810 Mulkey Road Suite 105", "addr:city": "Austell", "addr:state": "GA", "addr:postcode": "30106", "name": " Nissi Family Medicine, LLC", "phone": "(678) 540-7597", "brand": "WellStar Health System", "brand:wikidata": "Q7981073"}, "geometry": {"type": "Point", "coordinates": [-84.6072708, 33.8598622]}},
{"type": "Feature", "id": "Z_l4C8KgB_fXPKlgR4Fx9rVdkbw=", "properties": {"ref": "421", "@spider": "wellstar", "addr:full": "209 Towne Lake Parkway", "addr:city": "Woodstock", "addr:state": "GA", "addr:postcode": "30188", "name": "Wellstar Physical Therapy", "phone": "(770) 591-9111", "opening_hours": "Mo-Th 07:00-17:30; Fr 07:00-13:00", "brand": "WellStar Health System", "brand:wikidata": "Q7981073"}, "geometry": {"type": "Point", "coordinates": [-84.5243283, 34.1018354]}},
{"type": "Feature", "id": "IuGr6D4w69SiP-4AhSBJNgGEToI=", "properties": {"ref": "2344", "@spider": "wellstar", "addr:full": "4550 Cobb Parkway North NW Suite 210", "addr:city": "Acworth", "addr:state": "GA", "addr:postcode": "30101", "name": "Wellstar Pulmonary Medicine", "phone": "(770) 422-1372", "opening_hours": "Mo-Fr 08:00-16:30", "brand": "WellStar Health System", "brand:wikidata": "Q7981073"}, "geometry": {"type": "Point", "coordinates": [-84.7231938, 34.0679136]}},
{"type": "Feature", "id": "P4OEwREI793NZ70aHXbhVl3eWpw=", "properties": {"ref": "2526", "@spider": "wellstar", "addr:full": "677 Church Street NE", "addr:city": "Marietta", "addr:state": "GA", "addr:postcode": "30060", "name": "Wellstar Pathologist Group", "phone": "(770) 793-5505", "brand": "WellStar Health System", "brand:wikidata": "Q7981073"}, "geometry": {"type": "Point", "coordinates": [-84.5516184, 33.9698219]}},
{"type": "Feature", "id": "LTSCChD7ue_g2BHr4SS6oP0LWpY=", "properties": {"ref": "1328", "@spider": "wellstar", "addr:full": "950 Sanders Road", "addr:city": "Cumming", "addr:state": "GA", "addr:postcode": "30041", "name": " North Fulton Ear, Nose & Throat Associates", "phone": "(770) 886-5821", "brand": "WellStar Health System", "brand:wikidata": "Q7981073"}, "geometry": {"type": "Point", "coordinates": [-84.1246716, 34.1830538]}},
{"type": "Feature", "id": "KJmTVc5RfZ1b_FvLoOlwViOzS1o=", "properties": {"ref": "2778", "@spider": "wellstar", "addr:full": "1120 Wellstar Way Suite 204", "addr:city": "Holly Springs", "addr:state": "GA", "addr:postcode": "30114", "name": "Wellstar Family Medicine", "phone": "(470) 267-0110", "brand": "WellStar Health System", "brand:wikidata": "Q7981073"}, "geometry": {"type": "Point", "coordinates": [-84.5198669, 34.1429328]}},
{"type": "Feature", "id": "79ryVecEeg80wyQJOOCMvM9XDuw=", "properties": {"ref": "2644", "@spider": "wellstar", "addr:full": "3460 Powder Springs Road", "addr:city": "Powder Springs", "addr:state": "GA", "addr:postcode": "30127", "name": "Wellstar Hospitalist Group Medicine", "phone": "(770) 439-9199", "brand": "WellStar Health System", "brand:wikidata": "Q7981073"}, "geometry": {"type": "Point", "coordinates": [-84.654837, 33.8610504]}},
{"type": "Feature", "id": "VgQrQCBdGFLdPM6-TYvj2uW_pSA=", "properties": {"ref": "3078", "@spider": "wellstar", "addr:full": "55 Whitcher Street NE Suite 350", "addr:city": "Marietta", "addr:state": "GA", "addr:postcode": "30060", "name": "Wellstar Psychological Services", "phone": "(770) 514-6760", "brand": "WellStar Health System", "brand:wikidata": "Q7981073"}, "geometry": {"type": "Point", "coordinates": [-84.5513203, 33.9668232]}},
{"type": "Feature", "id": "eBuF5ZPG-Wzlq9U-CmikGqf3Mzo=", "properties": {"ref": "2036", "@spider": "wellstar", "addr:full": "285 Boulevard NE Suite 310", "addr:city": "Atlanta", "addr:state": "GA", "addr:postcode": "30312", "name": " Global Orthopedics", "phone": "(404) 522-5828", "opening_hours": "Mo-Fr 08:00-16:30", "brand": "WellStar Health System", "brand:wikidata": "Q7981073"}, "geometry": {"type": "Point", "coordinates": [-84.3714961, 33.7622968]}},
{"type": "Feature", "id": "d3V9Xvws62P8rqEp3ms336nSsNo=", "properties": {"ref": "13892", "@spider": "wellstar", "addr:full": "6043 Prestley Mill Road Suite B", "addr:city": "Douglasville", "addr:state": "GA", "addr:postcode": "30134", "name": "Wellstar Internal Medicine", "phone": "(770) 941-8100", "brand": "WellStar Health System", "brand:wikidata": "Q7981073"}, "geometry": {"type": "Point", "coordinates": [-84.73069919999999, 33.7382595]}},
{"type": "Feature", "id": "aVLFUfCQXbAcSsn9y8q0PwxN2bM=", "properties": {"ref": "1742", "@spider": "wellstar", "addr:full": "1341 Canton Road Suite A", "addr:city": "Marietta", "addr:state": "GA", "addr:postcode": "30066", "name": " Hyperbaric Physicians of GA", "phone": "(770) 422-0517", "brand": "WellStar Health System", "brand:wikidata": "Q7981073"}, "geometry": {"type": "Point", "coordinates": [-84.5382731, 33.9839119]}},
{"type": "Feature", "id": "4rhZ8pv7nAsnIairvnF5YBsE8Ak=", "properties": {"ref": "440", "@spider": "wellstar", "addr:full": "2905 Atlanta Road SE Suite 300", "addr:city": "Smyrna", "addr:state": "GA", "addr:postcode": "30080", "name": " PT Solutions of Jonquil", "phone": "(470) 632-1019", "brand": "WellStar Health System", "brand:wikidata": "Q7981073"}, "geometry": {"type": "Point", "coordinates": [-84.5264714, 33.8630969]}},
{"type": "Feature", "id": "1ymwqgUJvTwt79MZ7qaFkgcLqwk=", "properties": {"ref": "2588", "@spider": "wellstar", "addr:full": "55 Whitcher Street NE Suite 400", "addr:city": "Marietta", "addr:state": "GA", "addr:postcode": "30060", "name": "Wellstar Comprehensive Bariatric Services", "phone": "(770) 919-7050", "brand": "WellStar Health System", "brand:wikidata": "Q7981073"}, "geometry": {"type": "Point", "coordinates": [-84.5513203, 33.9668232]}},
{"type": "Feature", "id": "O7Pq9kUEkc83z0aohZdS8Y_RdpU=", "properties": {"ref": "3356", "@spider": "wellstar", "addr:full": "120 Stonebridge Parkway Suite 210", "addr:city": "Woodstock", "addr:state": "GA", "addr:postcode": "30189", "name": "Wellstar Neurology", "phone": "(470) 267-0670", "brand": "WellStar Health System", "brand:wikidata": "Q7981073"}, "geometry": {"type": "Point", "coordinates": [-84.5372493, 34.1000902]}},
{"type": "Feature", "id": "h69xsUPRycUpST44pnJOaPqYLiA=", "properties": {"ref": "2084", "@spider": "wellstar", "addr:full": "1514 Vernon Road", "addr:city": "LaGrange", "addr:state": "GA", "addr:postcode": "30240", "name": "Wellstar Hospitalist Group Medicine", "phone": "(706) 812-2369", "brand": "WellStar Health System", "brand:wikidata": "Q7981073"}, "geometry": {"type": "Point", "coordinates": [-85.0586022, 33.032552]}},
{"type": "Feature", "id": "GTTyd2lPEHfq4YlePJXz9vm-L7k=", "properties": {"ref": "2942", "@spider": "wellstar", "addr:full": "2518 Jimmy Lee Smith Parkway", "addr:city": "Hiram", "addr:state": "GA", "addr:postcode": "30141", "name": "Wellstar Palliative Medicine", "phone": "(770) 793-7899", "brand": "WellStar Health System", "brand:wikidata": "Q7981073"}, "geometry": {"type": "Point", "coordinates": [-84.78151009999999, 33.9007155]}},
{"type": "Feature", "id": "IuMepnsAlliej9tDOQeig4mL_ug=", "properties": {"ref": "14430", "@spider": "wellstar", "addr:full": "1700 Hospital South Drive Suite 502", "addr:city": "Austell", "addr:state": "GA", "addr:postcode": "30106", "name": "Wellstar Orthopaedic & Sports Medicine", "phone": "(943) 202-7070", "brand": "WellStar Health System", "brand:wikidata": "Q7981073"}, "geometry": {"type": "Point", "coordinates": [-84.605009, 33.8557917]}},
{"type": "Feature", "id": "BiA6oy95bmlMuII8Xl8C4OWjm70=", "properties": {"ref": "1476", "@spider": "wellstar", "addr:full": "1170 Cleveland Avenue", "addr:city": "East Point", "addr:state": "GA", "addr:postcode": "30344", "name": " Sound Physicians", "phone": "(404) 466-1034", "brand": "WellStar Health System", "brand:wikidata": "Q7981073"}, "geometry": {"type": "Point", "coordinates": [-84.4269497, 33.6803213]}},
{"type": "Feature", "id": "WITsyDbK3Hw80WfZFzphywPUZNM=", "properties": {"ref": "1618", "@spider": "wellstar", "addr:full": "1500 South Johnson Ferry Road", "addr:city": "Atlanta", "addr:state": "GA", "addr:postcode": "30319", "name": " Kennestone Family Medicine", "phone": "(770) 795-8070", "brand": "WellStar Health System", "brand:wikidata": "Q7981073"}, "geometry": {"type": "Point", "coordinates": [-84.34785839999999, 33.9029937]}},
{"type": "Feature", "id": "RIsnW5Z1Tb_i4W2XkYe7BMe27gs=", "properties": {"ref": "14022", "@spider": "wellstar", "addr:full": "5041 Dallas Highway Suite 115", "addr:city": "Powder Springs", "addr:state": "GA", "addr:postcode": "30127", "name": " Marietta Ob-Gyn Affiliates", "phone": "(770) 422-8505", "brand": "WellStar Health System", "brand:wikidata": "Q7981073"}, "geometry": {"type": "Point", "coordinates": [-84.69836649999999, 33.9410048]}},
{"type": "Feature", "id": "lQUyfJwCMvYfdEHVgRSlGM7KOxA=", "properties": {"ref": "706", "@spider": "wellstar", "addr:full": "1180 Ernest W Barrett Parkway NW Suite 100", "addr:city": "Kennesaw", "addr:state": "GA", "addr:postcode": "30144", "name": "Wellstar Imaging Services at the Pediatric Center", "phone": "(678) 594-7337", "opening_hours": "Mo-Fr 07:00-17:00", "brand": "WellStar Health System", "brand:wikidata": "Q7981073"}, "geometry": {"type": "Point", "coordinates": [-84.5867156, 34.001146]}},
{"type": "Feature", "id": "MhToLuPNGlsvtgww8C1KuwhA-vY=", "properties": {"ref": "14394", "@spider": "wellstar", "addr:full": "502 West Main Street", "addr:city": "Thomaston", "addr:state": "GA", "addr:postcode": "30286", "name": "Wellstar Cardiovascular Medicine", "phone": "(470) 267-3950", "brand": "WellStar Health System", "brand:wikidata": "Q7981073"}, "geometry": {"type": "Point", "coordinates": [-84.3316495, 32.889688]}},
{"type": "Feature", "id": "UNc1BDgzusjsXkPJcM8cKDe4i2Y=", "properties": {"ref": "13690", "@spider": "wellstar", "addr:full": "2500 Hospital Boulevard Suite 150", "addr:city": "Roswell", "addr:state": "GA", "addr:postcode": "30076", "name": " North Fulton General Surgery", "phone": "(770) 442-3117", "brand": "WellStar Health System", "brand:wikidata": "Q7981073"}, "geometry": {"type": "Point", "coordinates": [-84.32174460000002, 34.0625418]}},
{"type": "Feature", "id": "SG4y34gf_DGiZWKAfqJ8zq0-PI0=", "properties": {"ref": "463", "@spider": "wellstar", "addr:full": "1504 GA-74 Suite 2A", "addr:city": "Tyrone", "addr:state": "GA", "addr:postcode": "30290", "name": " PT Solutions of Tyrone ", "phone": "(470) 885-5967", "brand": "WellStar Health System", "brand:wikidata": "Q7981073"}, "geometry": {"type": "Point", "coordinates": [-84.5866029, 33.4907935]}},
{"type": "Feature", "id": "TsZZD7uFa2GSStVYW81X0By2Imw=", "properties": {"ref": "13546", "@spider": "wellstar", "addr:full": "290 Merchants Square Suite I", "addr:city": "Dallas", "addr:state": "GA", "addr:postcode": "30132", "name": " Cobb Eye Center", "phone": "(770) 445-8885", "brand": "WellStar Health System", "brand:wikidata": "Q7981073"}, "geometry": {"type": "Point", "coordinates": [-84.79954939999999, 33.9095966]}},
{"type": "Feature", "id": "audNcPEDhdnbF-DGatvqnLyQgc8=", "properties": {"ref": "2918", "@spider": "wellstar", "addr:full": "3501 Baker Road NW Suite 100", "addr:city": "Acworth", "addr:state": "GA", "addr:postcode": "30101", "name": "Wellstar Primary Care", "phone": "(470) 267-0620", "brand": "WellStar Health System", "brand:wikidata": "Q7981073"}, "geometry": {"type": "Point", "coordinates": [-84.6525781, 34.075588]}},
{"type": "Feature", "id": "CLcJ8q4LaiFxftlggdgSmJHScPw=", "properties": {"ref": "1390", "@spider": "wellstar", "addr:full": "980 Woodstock Parkway Suite 300", "addr:city": "Woodstock", "addr:state": "GA", "addr:postcode": "30188", "name": " Bridgemill Neurological Associates", "phone": "(678) 494-9545", "brand": "WellStar Health System", "brand:wikidata": "Q7981073"}, "geometry": {"type": "Point", "coordinates": [-84.5325845, 34.113036]}},
{"type": "Feature", "id": "-YVVc__A5Q9bh2Vs5AYTa3vGnzw=", "properties": {"ref": "312", "@spider": "wellstar", "addr:full": "677 Church Street NE", "addr:city": "Marietta", "addr:state": "GA", "addr:postcode": "30060", "name": "Wellstar Kennestone Pharmacy", "phone": "(770) 793-9300", "opening_hours": "Mo-Fr 07:00-20:00; Sa 10:00-18:00; Su 11:00-17:00", "brand": "WellStar Health System", "brand:wikidata": "Q7981073"}, "geometry": {"type": "Point", "coordinates": [-84.5516172526486, 33.9698846811808]}},
{"type": "Feature", "id": "Pbym03gRApSRcBMS5R_K3bv6CSc=", "properties": {"ref": "13560", "@spider": "wellstar", "addr:full": "1551 Doctors Drive", "addr:city": "LaGrange", "addr:state": "GA", "addr:postcode": "30240", "name": "Wellstar Intensivists", "phone": "(706) 880-7222", "brand": "WellStar Health System", "brand:wikidata": "Q7981073"}, "geometry": {"type": "Point", "coordinates": [-85.0593485, 33.0302747]}},
{"type": "Feature", "id": "lm0jDrWs69L2pEjE2f3TziEMA7c=", "properties": {"ref": "14032", "@spider": "wellstar", "addr:full": "303 Parkway Drive NE", "addr:city": "Atlanta", "addr:state": "GA", "addr:postcode": "30312", "name": " Joseph M. Still Burn Centers", "phone": "(706) 863-9595", "brand": "WellStar Health System", "brand:wikidata": "Q7981073"}, "geometry": {"type": "Point", "coordinates": [-84.3738779, 33.7626663]}},
{"type": "Feature", "id": "tA6lvI6uxhg3W2IIjjFh9vKxAFY=", "properties": {"ref": "1646", "@spider": "wellstar", "addr:full": "85 Golf Crest Drive Suite 209", "addr:city": "Acworth", "addr:state": "GA", "addr:postcode": "30101", "name": " Northwest Oral & Maxillofacial Surgery", "phone": "(770) 672-5629", "brand": "WellStar Health System", "brand:wikidata": "Q7981073"}, "geometry": {"type": "Point", "coordinates": [-84.75991359999999, 34.0502625]}},
{"type": "Feature", "id": "BJcFgOT9eQSStjkwOdOqGAzdk6Q=", "properties": {"ref": "2878", "@spider": "wellstar", "addr:full": "285 Boulevard NE Suite 625", "addr:city": "Atlanta", "addr:state": "GA", "addr:postcode": "30312", "name": "Wellstar Rheumatology", "phone": "(404) 265-3330", "brand": "WellStar Health System", "brand:wikidata": "Q7981073"}, "geometry": {"type": "Point", "coordinates": [-84.3714961, 33.7622968]}},
{"type": "Feature", "id": "7K1Cqsca_WolJEq_JNYJIwC-PeU=", "properties": {"ref": "3114", "@spider": "wellstar", "addr:full": "11731 Pointe Place", "addr:city": "Roswell", "addr:state": "GA", "addr:postcode": "30076", "name": " Arthritis & Rheumatology Center", "phone": "(770) 284-3150", "brand": "WellStar Health System", "brand:wikidata": "Q7981073"}, "geometry": {"type": "Point", "coordinates": [-84.3267298, 34.0661416]}},
{"type": "Feature", "id": "21-UumfdFuLrCSEMrg6eWEAP7cw=", "properties": {"ref": "13596", "@spider": "wellstar", "addr:full": "677 Church Street NE", "addr:city": "Marietta", "addr:state": "GA", "addr:postcode": "30060", "name": "Wellstar Rheumatology Associates", "phone": "(770) 793-7750", "brand": "WellStar Health System", "brand:wikidata": "Q7981073"}, "geometry": {"type": "Point", "coordinates": [-84.5516503, 33.9694112]}},
{"type": "Feature", "id": "C3DFe6IWBbo3FffRgwRDI2bp4iU=", "properties": {"ref": "13718", "@spider": "wellstar", "addr:full": "677 Church Street NE", "addr:city": "Marietta", "addr:state": "GA", "addr:postcode": "30060", "name": "Wellstar Hospitalist Group Medicine", "phone": "(770) 793-7750", "brand": "WellStar Health System", "brand:wikidata": "Q7981073"}, "geometry": {"type": "Point", "coordinates": [-84.5516503, 33.9694112]}},
{"type": "Feature", "id": "izY3BpgcdTkSwD_lm_bjF0tay-s=", "properties": {"ref": "430", "@spider": "wellstar", "addr:full": "12050 Etris Road Suite E-150", "addr:city": "Roswell", "addr:state": "GA", "addr:postcode": "30075", "name": " PT Solutions of Roswell", "phone": "(770) 801-4657", "opening_hours": "Mo-Fr 07:00-17:00", "brand": "WellStar Health System", "brand:wikidata": "Q7981073"}, "geometry": {"type": "Point", "coordinates": [-84.3633539, 34.0737199]}},
{"type": "Feature", "id": "t8VFS7G7hXhYPiMxfVHNEom13n4=", "properties": {"ref": "900", "@spider": "wellstar", "addr:full": "4040 Hospital West Drive", "addr:city": "Austell", "addr:state": "GA", "addr:postcode": "30106", "name": "Wellstar Tranquility at Cobb Hospital", "phone": "(770) 732-6710", "brand": "WellStar Health System", "brand:wikidata": "Q7981073"}, "geometry": {"type": "Point", "coordinates": [-84.6075571, 33.8569261]}},
{"type": "Feature", "id": "1euF1RzQ4BWtlSM5B1TvsqgCPgU=", "properties": {"ref": "3474", "@spider": "wellstar", "addr:full": "400 Tower Road NE Suite 200", "addr:city": "Marietta", "addr:state": "GA", "addr:postcode": "30060", "name": "Wellstar Intensivists", "phone": "(770) 422-1372", "brand": "WellStar Health System", "brand:wikidata": "Q7981073"}, "geometry": {"type": "Point", "coordinates": [-84.5562059, 33.9707258]}},
{"type": "Feature", "id": "Ib3mqChP12eG2kevcP0TUtxkOU4=", "properties": {"ref": "2758", "@spider": "wellstar", "addr:full": "301 Medical Drive Suite 504", "addr:city": "LaGrange", "addr:state": "GA", "addr:postcode": "30240", "name": "Wellstar Pediatrics", "phone": "(706) 812-2655", "brand": "WellStar Health System", "brand:wikidata": "Q7981073"}, "geometry": {"type": "Point", "coordinates": [-85.06129609999999, 33.0319309]}},
{"type": "Feature", "id": "Yj7YHrtEjte0abwgvEHzKALaDVw=", "properties": {"ref": "2350", "@spider": "wellstar", "addr:full": "1700 Hospital South Drive Suite 102", "addr:city": "Austell", "addr:state": "GA", "addr:postcode": "30106", "name": "Wellstar Neurosurgery", "phone": "(470) 956-4410", "brand": "WellStar Health System", "brand:wikidata": "Q7981073"}, "geometry": {"type": "Point", "coordinates": [-84.60510409999999, 33.855786]}},
{"type": "Feature", "id": "NyeKA-reHjFAkrO-mYAKY70C5hA=", "properties": {"ref": "2528", "@spider": "wellstar", "addr:full": "3950 Austell Road", "addr:city": "Austell", "addr:state": "GA", "addr:postcode": "30106", "name": "Wellstar Pathologist Group", "phone": "(770) 732-3585", "brand": "WellStar Health System", "brand:wikidata": "Q7981073"}, "geometry": {"type": "Point", "coordinates": [-84.6040933, 33.8571069]}},
{"type": "Feature", "id": "kH1prtBMdt73pD7_xilnslD6wBo=", "properties": {"ref": "2196", "@spider": "wellstar", "addr:full": "3890 Redwine Road SW Suite 100", "addr:city": "Atlanta", "addr:state": "GA", "addr:postcode": "30331", "name": "Wellstar Family Medicine", "phone": "(404) 344-0059", "opening_hours": "Mo-Tu 07:00-18:30; We 08:00-18:30; Th 07:00-18:30; Fr 08:00-18:00", "brand": "WellStar Health System", "brand:wikidata": "Q7981073"}, "geometry": {"type": "Point", "coordinates": [-84.51296119999999, 33.6607315]}},
{"type": "Feature", "id": "PLagQUkYR-GGAiag2nGjoOibv0c=", "properties": {"ref": "1226", "@spider": "wellstar", "addr:full": "531 Roselane Street NW Suite 830", "addr:city": "Marietta", "addr:state": "GA", "addr:postcode": "30060", "name": " Georgia Anesthesiologists, PC", "phone": "(770) 794-0477", "brand": "WellStar Health System", "brand:wikidata": "Q7981073"}, "geometry": {"type": "Point", "coordinates": [-84.5573521, 33.9648713]}},
{"type": "Feature", "id": "eD1EU88bps7Uqn9J9aNGPzaaL9w=", "properties": {"ref": "1594", "@spider": "wellstar", "addr:full": "3546 Covington Highway Suite C", "addr:city": "Decatur", "addr:state": "GA", "addr:postcode": "30032", "name": " Jimmy L. Gregory, DPM, PC", "phone": "(404) 284-7744", "brand": "WellStar Health System", "brand:wikidata": "Q7981073"}, "geometry": {"type": "Point", "coordinates": [-84.2506396, 33.7656958]}},
{"type": "Feature", "id": "f3qoSWiDY7-iMO5dQWaYI08NjWg=", "properties": {"ref": "1144", "@spider": "wellstar", "addr:full": "5673 Peachtree Dunwoody Road Suite 850", "addr:city": "Atlanta", "addr:state": "GA", "addr:postcode": "30342", "name": " Atlanta Center for Dermatologic Disease", "phone": "(404) 252-4333", "brand": "WellStar Health System", "brand:wikidata": "Q7981073"}, "geometry": {"type": "Point", "coordinates": [-84.35033109999999, 33.9100496]}},
{"type": "Feature", "id": "ImSjxj8VctBylM4s1LFxRceru5Y=", "properties": {"ref": "624", "@spider": "wellstar", "addr:full": "4581 South Cobb Drive SE Suite 100", "addr:city": "Smyrna", "addr:state": "GA", "addr:postcode": "30080", "name": "Wellstar Lab Services", "phone": "(770) 793-5900", "opening_hours": "Mo-Fr 08:00-17:00", "brand": "WellStar Health System", "brand:wikidata": "Q7981073"}, "geometry": {"type": "Point", "coordinates": [-84.4985391, 33.8439108]}},
{"type": "Feature", "id": "ObtNQ4Jl_o7_vfehyANT_kflxi0=", "properties": {"ref": "2474", "@spider": "wellstar", "addr:full": "3730 Carmia Drive SW Suite 110", "addr:city": "Atlanta", "addr:state": "GA", "addr:postcode": "30331", "name": "Wellstar Urgent Care", "phone": "(404) 344-7286", "opening_hours": "Mo-Su 08:00-19:30", "brand": "WellStar Health System", "brand:wikidata": "Q7981073"}, "geometry": {"type": "Point", "coordinates": [-84.5108308, 33.6564551]}},
{"type": "Feature", "id": "sH2twOqi5WAF5F6hnCUkHvgpK3I=", "properties": {"ref": "13726", "@spider": "wellstar", "addr:full": "2570 Holcomb Bridge Road Suite 110", "addr:city": "Alpharetta", "addr:state": "GA", "addr:postcode": "30022", "name": "Wellstar Primary Care", "phone": "(770) 650-8980", "opening_hours": "Mo-Fr 08:00-17:00", "brand": "WellStar Health System", "brand:wikidata": "Q7981073"}, "geometry": {"type": "Point", "coordinates": [-84.2849215, 34.0008751]}},
{"type": "Feature", "id": "eu3Zo8fr9zrtzDzcNye6UvivNWk=", "properties": {"ref": "3238", "@spider": "wellstar", "addr:full": "4581 South Cobb Drive SE Suite 100", "addr:city": "Smyrna", "addr:state": "GA", "addr:postcode": "30080", "name": "Wellstar Pediatric Cardiology", "phone": "(470) 956-9166", "opening_hours": "Mo-Fr 08:00-16:00", "brand": "WellStar Health System", "brand:wikidata": "Q7981073"}, "geometry": {"type": "Point", "coordinates": [-84.4985391, 33.8439108]}},
{"type": "Feature", "id": "kewI8c2d9svm08t_Ie0SLRiTClo=", "properties": {"ref": "604", "@spider": "wellstar", "addr:full": "120 Stone Bridge Parkway Suite 300", "addr:city": "Woodstock", "addr:state": "GA", "addr:postcode": "30189", "name": "Wellstar Lab Services at Kennestone Imaging Center ", "phone": "(770) 793-5900", "opening_hours": "Mo-Fr 07:00-16:00", "brand": "WellStar Health System", "brand:wikidata": "Q7981073"}, "geometry": {"type": "Point", "coordinates": [-84.5372493, 34.1000902]}},
{"type": "Feature", "id": "Odfv_rdrvPsF_5dVVS3mz-Tdfqc=", "properties": {"ref": "2404", "@spider": "wellstar", "addr:full": "3747 Roswell Road Suite 205", "addr:city": "Marietta", "addr:state": "GA", "addr:postcode": "30062", "name": "Wellstar Allergy & Asthma", "phone": "(470) 956-9050", "opening_hours": "Mo-Fr 07:45-17:00", "brand": "WellStar Health System", "brand:wikidata": "Q7981073"}, "geometry": {"type": "Point", "coordinates": [-84.4447395, 33.9803208]}},
{"type": "Feature", "id": "JHjQMZJH_baLmT5nIKUP_Mv_uQ4=", "properties": {"ref": "1026", "@spider": "wellstar", "addr:full": "1690 Stone Village Lane NW Suite 401", "addr:city": "Kennesaw", "addr:state": "GA", "addr:postcode": "30152", "name": " Georgia Gynecology PC", "phone": "(770) 427-2533", "brand": "WellStar Health System", "brand:wikidata": "Q7981073"}, "geometry": {"type": "Point", "coordinates": [-84.6994078, 33.9946591]}},
{"type": "Feature", "id": "-TBbijhYLKhN0C_3dhGPa1BM22U=", "properties": {"ref": "14098", "@spider": "wellstar", "addr:full": "3885 Princeton Lakes Way SW Building 2 Suite 306", "addr:city": "Atlanta", "addr:state": "GA", "addr:postcode": "30331", "name": " ATL Orthopedic Medical Group", "phone": "(404) 662-3585", "brand": "WellStar Health System", "brand:wikidata": "Q7981073"}, "geometry": {"type": "Point", "coordinates": [-84.5144359, 33.6600998]}},
{"type": "Feature", "id": "thExdRLyqpPwXNQEH1hlPpYTD-A=", "properties": {"ref": "708", "@spider": "wellstar", "addr:full": "120 Stonebridge Parkway Suite 300", "addr:city": "Woodstock", "addr:state": "GA", "addr:postcode": "30189", "name": "Wellstar Imaging Services at Towne Lake", "phone": "(678) 581-5900", "opening_hours": "Mo-Fr 07:30-16:00", "brand": "WellStar Health System", "brand:wikidata": "Q7981073"}, "geometry": {"type": "Point", "coordinates": [-84.5372493, 34.1000902]}},
{"type": "Feature", "id": "ChpD6312AqsudIbyO5IhTIcgb5w=", "properties": {"ref": "13904", "@spider": "wellstar", "addr:full": "148 Bill Carruth Parkway Suite 340", "addr:city": "Hiram", "addr:state": "GA", "addr:postcode": "30141", "name": "Wellstar Neurosurgery", "phone": "(770) 422-2326", "brand": "WellStar Health System", "brand:wikidata": "Q7981073"}, "geometry": {"type": "Point", "coordinates": [-84.78110679999999, 33.9007916]}},
{"type": "Feature", "id": "s5A7wjzoiimdx79YKv3rVjJh834=", "properties": {"ref": "1326", "@spider": "wellstar", "addr:full": "2500 Hospital Boulevard Suite 450", "addr:city": "Roswell", "addr:state": "GA", "addr:postcode": "30076", "name": " North Fulton Ear, Nose & Throat Associates", "phone": "(770) 343-8675", "brand": "WellStar Health System", "brand:wikidata": "Q7981073"}, "geometry": {"type": "Point", "coordinates": [-84.32174460000002, 34.0625418]}},
{"type": "Feature", "id": "j-Sv-UJKjRd4-V0IiCxZDG9vlHs=", "properties": {"ref": "402", "@spider": "wellstar", "addr:full": "1514 Vernon Road", "addr:city": "LaGrange", "addr:state": "GA", "addr:postcode": "30240", "name": "Wellstar West Georgia Cardiac & Pulmonary Rehabilitation", "phone": " (706) 845-3563", "opening_hours": "Mo-Tu 07:00-18:00; Th 07:00-18:00", "brand": "WellStar Health System", "brand:wikidata": "Q7981073"}, "geometry": {"type": "Point", "coordinates": [-85.0607909, 33.0325565]}},
{"type": "Feature", "id": "LEe6X51VNa8QP_YLyoeeUk_06GE=", "properties": {"ref": "2976", "@spider": "wellstar", "addr:full": "3747 Roswell Road Suite 202", "addr:city": "Marietta", "addr:state": "GA", "addr:postcode": "30062", "name": "Wellstar Endocrinology", "phone": "(678) 403-4300", "opening_hours": "Mo-Fr 07:30-16:30", "brand": "WellStar Health System", "brand:wikidata": "Q7981073"}, "geometry": {"type": "Point", "coordinates": [-84.4447395, 33.9803208]}},
{"type": "Feature", "id": "MgDTLEv0XLcy0a9-5T1ry4CMX4U=", "properties": {"ref": "2428", "@spider": "wellstar", "addr:full": "300 Medical Drive Suite 705", "addr:city": "LaGrange", "addr:state": "GA", "addr:postcode": "30240", "name": "Wellstar ENT", "phone": "(706) 880-7144", "brand": "WellStar Health System", "brand:wikidata": "Q7981073"}, "geometry": {"type": "Point", "coordinates": [-85.06038389999999, 33.033336]}},
{"type": "Feature", "id": "v9yBSIcYK8tqaaOAqSzTBViQfgg=", "properties": {"ref": "14318", "@spider": "wellstar", "addr:full": "3885 Princeton Lakes Way Suite 412", "addr:city": "Atlanta", "addr:state": "GA", "addr:postcode": "30331", "name": " NeighborMD of South Atlanta", "phone": "(404) 344-6000", "brand": "WellStar Health System", "brand:wikidata": "Q7981073"}, "geometry": {"type": "Point", "coordinates": [-84.5144359, 33.6600998]}},
{"type": "Feature", "id": "UVdbc8TFV-0M_I71fwywzutoeDQ=", "properties": {"ref": "1222", "@spider": "wellstar", "addr:full": "285 Boulevard NE Suite 235", "addr:city": "Atlanta", "addr:state": "GA", "addr:postcode": "30312", "name": " Hammad, Platner and Charles-May, MD, PC", "phone": "(404) 525-0633", "brand": "WellStar Health System", "brand:wikidata": "Q7981073"}, "geometry": {"type": "Point", "coordinates": [-84.3714961, 33.7622968]}},
{"type": "Feature", "id": "ulyhimCCSV-b_ii4Qi0Vk6iKByE=", "properties": {"ref": "1172", "@spider": "wellstar", "addr:full": "1325 Milstead Avenue NE", "addr:city": "Conyers", "addr:state": "GA", "addr:postcode": "30012", "name": " Atlanta Perinatal Associates", "phone": "(770) 760-7855", "brand": "WellStar Health System", "brand:wikidata": "Q7981073"}, "geometry": {"type": "Point", "coordinates": [-84.00717829999999, 33.6781399]}},
{"type": "Feature", "id": "jdpcfu8ojXMuLvliAeA9hDZMpQY=", "properties": {"ref": "13748", "@spider": "wellstar", "addr:full": "1120 Wellstar Way Suite 302", "addr:city": "Holly Springs", "addr:state": "GA", "addr:postcode": "30114", "name": "Wellstar Summit Surgical", "phone": "(770) 423-0395", "brand": "WellStar Health System", "brand:wikidata": "Q7981073"}, "geometry": {"type": "Point", "coordinates": [-84.5199671, 34.1433103]}},
{"type": "Feature", "id": "MkChIk3WL9p_p8PQOc06goC05Dk=", "properties": {"ref": "409", "@spider": "wellstar", "addr:full": "100 Lacy Street NW Building 220", "addr:city": "Marietta", "addr:state": "GA", "addr:postcode": "30060", "name": "Wellstar Physical Therapy ", "phone": "(770) 793-7600", "opening_hours": "Mo-Fr 07:00-18:00", "brand": "WellStar Health System", "brand:wikidata": "Q7981073"}, "geometry": {"type": "Point", "coordinates": [-84.5561057, 33.9674156]}},
{"type": "Feature", "id": "d7qHNe4DyVH91ds4bmcU0urcugI=", "properties": {"ref": "2026", "@spider": "wellstar", "addr:full": "1198 Buckhead Crossing Suite C", "addr:city": "Woodstock", "addr:state": "GA", "addr:postcode": "30189", "name": " St. Jude's Internal Medicine", "phone": "(678) 324-7406", "brand": "WellStar Health System", "brand:wikidata": "Q7981073"}, "geometry": {"type": "Point", "coordinates": [-84.539952, 34.1081006]}},
{"type": "Feature", "id": "Vty9sLHzgcB6mwNf75WKX5XP4-4=", "properties": {"ref": "2374", "@spider": "wellstar", "addr:full": "1700 Hospital South Drive Suite 500", "addr:city": "Austell", "addr:state": "GA", "addr:postcode": "30106", "name": "Wellstar South Cobb OB/GYN", "phone": "(770) 941-7717", "opening_hours": "Mo-Th 08:30-17:00; Fr 08:30-15:30", "brand": "WellStar Health System", "brand:wikidata": "Q7981073"}, "geometry": {"type": "Point", "coordinates": [-84.60510409999999, 33.855786]}},
{"type": "Feature", "id": "uPG2gW2C6qd0pJZSEH78bWEXFb4=", "properties": {"ref": "2120", "@spider": "wellstar", "addr:full": "562 Concord Road SE", "addr:city": "Smyrna", "addr:state": "GA", "addr:postcode": "30082", "name": "Wellstar Smyrna Primary Care Center", "phone": "(770) 384-9830", "opening_hours": "Mo-Fr 08:00-17:00", "brand": "WellStar Health System", "brand:wikidata": "Q7981073"}, "geometry": {"type": "Point", "coordinates": [-84.53623689999999, 33.8688066]}},
{"type": "Feature", "id": "Ac02-OF9GGZCxNOq6yCuaAkhrpk=", "properties": {"ref": "1212", "@spider": "wellstar", "addr:full": "240 Ponce De Leon Avenue", "addr:city": "Atlanta", "addr:state": "GA", "addr:postcode": "30308", "name": " Southeast Kidney Associates", "phone": "(404) 761-0819", "brand": "WellStar Health System", "brand:wikidata": "Q7981073"}, "geometry": {"type": "Point", "coordinates": [-84.3795444, 33.7729301]}},
{"type": "Feature", "id": "6kTF3FPHO3Mr9kKhjgOAG3fCmTQ=", "properties": {"ref": "1668", "@spider": "wellstar", "addr:full": "6002 Professional Parkway Suite 200", "addr:city": "Douglasville", "addr:state": "GA", "addr:postcode": "30134", "name": " Gastrointestinal Specialists of Georgia, Inc.", "phone": "(678) 741-5000", "brand": "WellStar Health System", "brand:wikidata": "Q7981073"}, "geometry": {"type": "Point", "coordinates": [-84.7273933, 33.7412967]}},
{"type": "Feature", "id": "w2o5FRu3NTi0-kxAnfBuHAXAde8=", "properties": {"ref": "1634", "@spider": "wellstar", "addr:full": "101 McWilliams Drive", "addr:city": "Peachtree City", "addr:state": "GA", "addr:postcode": "30269", "name": " Kedron Medical Offices", "phone": "(770) 487-0808", "brand": "WellStar Health System", "brand:wikidata": "Q7981073"}, "geometry": {"type": "Point", "coordinates": [-84.6031408, 33.4232639]}},
{"type": "Feature", "id": "HOwEq3tY4xUltyjufwAOdCBJCLw=", "properties": {"ref": "1202", "@spider": "wellstar", "addr:full": "315 Boulevard Drive NE Suite 400B", "addr:city": "Atlanta", "addr:state": "GA", "addr:postcode": "30312", "name": " Southeast Kidney Associates", "phone": "(404) 761-0819", "brand": "WellStar Health System", "brand:wikidata": "Q7981073"}, "geometry": {"type": "Point", "coordinates": [-84.3502848, 33.7535731]}},
{"type": "Feature", "id": "Z4a7E6lnk8bvF5Xo-9BmBsgOENc=", "properties": {"ref": "14436", "@spider": "wellstar", "addr:full": "4550 Cobb Parkway North NW Suite 210B", "addr:city": "Acworth", "addr:state": "GA", "addr:postcode": "30101", "name": "Wellstar Gastroenterology", "phone": "(470) 267-1760", "brand": "WellStar Health System", "brand:wikidata": "Q7981073"}, "geometry": {"type": "Point", "coordinates": [-84.72340369999999, 34.067881]}},
{"type": "Feature", "id": "-e00DtwQPu34fpOG8wE1598DiIg=", "properties": {"ref": "2332", "@spider": "wellstar", "addr:full": "1800 Hospital South Drive", "addr:city": "Austell", "addr:state": "GA", "addr:postcode": "30106", "name": "Wellstar Radiation Oncology", "phone": "(770) 948-6000", "opening_hours": "Mo-Fr 08:00-17:00", "brand": "WellStar Health System", "brand:wikidata": "Q7981073"}, "geometry": {"type": "Point", "coordinates": [-84.60506579999999, 33.8554728]}},
{"type": "Feature", "id": "nvMkkJ3ipNYSggOiCRPHKZSKY_c=", "properties": {"ref": "2954", "@spider": "wellstar", "addr:full": "106 Lukken Industrial Drive W", "addr:city": "LaGrange", "addr:state": "GA", "addr:postcode": "30240", "name": "Wellstar Obstetrics and Gynecology", "phone": "(706) 880-7207", "brand": "WellStar Health System", "brand:wikidata": "Q7981073"}, "geometry": {"type": "Point", "coordinates": [-85.03166879999999, 33.0133835]}},
{"type": "Feature", "id": "i8eIL5IRwshnDYZijoxoDuhfaZA=", "properties": {"ref": "2744", "@spider": "wellstar", "addr:full": "1180 Ernest W Barrett Parkway NW Suite 102B", "addr:city": "Kennesaw", "addr:state": "GA", "addr:postcode": "30144", "name": "Wellstar Pediatrics East Cobb", "phone": "(678) 354-2273", "brand": "WellStar Health System", "brand:wikidata": "Q7981073"}, "geometry": {"type": "Point", "coordinates": [-84.58452690000001, 34.001146]}},
{"type": "Feature", "id": "OX95GUCoLD73UqxqGOhM2JTtOhI=", "properties": {"ref": "1842", "@spider": "wellstar", "addr:full": "880 Canton Road Suite 400", "addr:city": "Marietta", "addr:state": "GA", "addr:postcode": "30060", "name": " North Georgia Kidney Specialists", "phone": "(770) 528-9788", "brand": "WellStar Health System", "brand:wikidata": "Q7981073"}, "geometry": {"type": "Point", "coordinates": [-84.54812919999999, 33.9729749]}},
{"type": "Feature", "id": "mlzwoSkJC86-NSF6bRl9e1Piqro=", "properties": {"ref": "448", "@spider": "wellstar", "addr:full": "3991 US-78 Suite 200", "addr:city": "Snellville", "addr:state": "GA", "addr:postcode": "30039", "name": " PT Solutions of Stone Mountian", "phone": "(470) 482-6933", "brand": "WellStar Health System", "brand:wikidata": "Q7981073"}, "geometry": {"type": "Point", "coordinates": [-84.0685258, 33.8386673]}},
{"type": "Feature", "id": "rNGUx9fk-lzJU1vg1mm4_9OJ_xc=", "properties": {"ref": "3099", "@spider": "wellstar", "addr:full": "1170 Cleveland Ave", "addr:city": "Atlanta", "addr:state": "GA", "addr:postcode": "30344", "name": "Wellstar Cardiac Diagnostics", "phone": "(404) 466-1170", "opening_hours": "Mo-Th 08:00-16:30", "brand": "WellStar Health System", "brand:wikidata": "Q7981073"}, "geometry": {"type": "Point", "coordinates": [-84.4291384, 33.6803213]}},
{"type": "Feature", "id": "RmnncvHly1KTdled_ikAIpbm0GY=", "properties": {"ref": "1394", "@spider": "wellstar", "addr:full": "4586 Timber Ridge Drive Suite 180", "addr:city": "Douglasville", "addr:state": "GA", "addr:postcode": "30135", "name": " Douglas Neurology Associates", "phone": "(678) 838-2180", "brand": "WellStar Health System", "brand:wikidata": "Q7981073"}, "geometry": {"type": "Point", "coordinates": [-84.7267402, 33.7369153]}},
{"type": "Feature", "id": "2Mz5FGTBxXdGpOg6oRi6zyb8VgY=", "properties": {"ref": "2784", "@spider": "wellstar", "addr:full": "736 Whitlock Avenue NW Suite 600", "addr:city": "Marietta", "addr:state": "GA", "addr:postcode": "30064", "name": "Wellstar Pediatric & Adolescent Center", "phone": "(770) 801-3465", "brand": "WellStar Health System", "brand:wikidata": "Q7981073"}, "geometry": {"type": "Point", "coordinates": [-84.5738877, 33.9536152]}},
{"type": "Feature", "id": "zlg0DGNPXaSnOS0zTVMwKolx2PA=", "properties": {"ref": "2000", "@spider": "wellstar", "addr:full": "440 Ernest W Barrett Parkway NW Suite 62", "addr:city": "Kennesaw", "addr:state": "GA", "addr:postcode": "30144", "name": " Barret Parkway Foot and Leg Sp", "phone": "(770) 422-0280", "brand": "WellStar Health System", "brand:wikidata": "Q7981073"}, "geometry": {"type": "Point", "coordinates": [-84.5645018, 34.012755]}},
{"type": "Feature", "id": "kfRspa4G1NP2JqxzG3v3cOTna8Y=", "properties": {"ref": "1632", "@spider": "wellstar", "addr:full": "5665 New Northside Drive Suite 320", "addr:city": "Atlanta", "addr:state": "GA", "addr:postcode": "30328", "name": " South Fulton Emergency Physicians, LLC", "phone": "(770) 874-5400", "brand": "WellStar Health System", "brand:wikidata": "Q7981073"}, "geometry": {"type": "Point", "coordinates": [-84.43158559999999, 33.9100496]}},
{"type": "Feature", "id": "swPbmapjS4fwzdYEkzYJQ_RmPQ4=", "properties": {"ref": "2692", "@spider": "wellstar", "addr:full": "100 Glenn Bass Road", "addr:city": "LaGrange", "addr:state": "GA", "addr:postcode": "30240", "name": "Wellstar West Georgia Worx", "phone": "(706) 845-3075", "opening_hours": "Mo-Fr 08:00-17:00", "brand": "WellStar Health System", "brand:wikidata": "Q7981073"}, "geometry": {"type": "Point", "coordinates": [-85.04963579999999, 32.9970475]}},
{"type": "Feature", "id": "q7f7yTGcUIkv-p85swtXhusYwsQ=", "properties": {"ref": "2966", "@spider": "wellstar", "addr:full": "3180 North Point Parkway Suite 302", "addr:city": "Alpharetta", "addr:state": "GA", "addr:postcode": "30005", "name": "Wellstar Endocrinology", "phone": "(678) 224-8686", "brand": "WellStar Health System", "brand:wikidata": "Q7981073"}, "geometry": {"type": "Point", "coordinates": [-84.2586632, 34.0751373]}},
{"type": "Feature", "id": "eGSK954R-qZdB4TeELUZhVBLBDw=", "properties": {"ref": "3340", "@spider": "wellstar", "addr:full": "1360 Upper Hembree Road Suite 100", "addr:city": "Roswell", "addr:state": "GA", "addr:postcode": "30076", "name": "Wellstar Family Medicine", "phone": "(770) 740-1753", "opening_hours": "Mo-Fr 07:30-16:30", "brand": "WellStar Health System", "brand:wikidata": "Q7981073"}, "geometry": {"type": "Point", "coordinates": [-84.3199362, 34.0671415]}},
{"type": "Feature", "id": "m_u8OaMYM-JTqH-xX6rhtva1g6k=", "properties": {"ref": "2250", "@spider": "wellstar", "addr:full": "582 Concord Road SE", "addr:city": "Smyrna", "addr:state": "GA", "addr:postcode": "30082", "name": "Wellstar GME Family Medicine", "phone": "(470) 956-4000", "brand": "WellStar Health System", "brand:wikidata": "Q7981073"}, "geometry": {"type": "Point", "coordinates": [-84.5362256, 33.8694058]}},
{"type": "Feature", "id": "z6Tyq3MpMkZvUkPNaMmMjtBgRXE=", "properties": {"ref": "1624", "@spider": "wellstar", "addr:full": "3424 Flat Shoals Road", "addr:city": "Decatur", "addr:state": "GA", "addr:postcode": "30034", "name": " Atlanta Family Physicians PC", "phone": "(404) 968-8269", "brand": "WellStar Health System", "brand:wikidata": "Q7981073"}, "geometry": {"type": "Point", "coordinates": [-84.2753242, 33.7053996]}},
{"type": "Feature", "id": "xtt5-7wxqFj-9nkkcsDHFXSZnhg=", "properties": {"ref": "1916", "@spider": "wellstar", "addr:full": "1000 Johnson Ferry Road Suite E220", "addr:city": "Marietta", "addr:state": "GA", "addr:postcode": "30068", "name": " Sumner Neurology", "phone": "(678) 402-1053", "brand": "WellStar Health System", "brand:wikidata": "Q7981073"}, "geometry": {"type": "Point", "coordinates": [-84.41234229999999, 33.9713212]}},
{"type": "Feature", "id": "N0zQnzJEX3sCjAvm_5Zc725_sOY=", "properties": {"ref": "1778", "@spider": "wellstar", "addr:full": "149 Towne Lake Parkway Suite 104", "addr:city": "Woodstock", "addr:state": "GA", "addr:postcode": "30188", "name": " Marietta Plastic Surgery, P.C.", "phone": "(678) 494-2380", "brand": "WellStar Health System", "brand:wikidata": "Q7981073"}, "geometry": {"type": "Point", "coordinates": [-84.52642259999999, 34.1019854]}},
{"type": "Feature", "id": "PpM6uM54XOP7uFo5o3q56OInHWI=", "properties": {"ref": "1558", "@spider": "wellstar", "addr:full": "1198 Buckhead Crossing Suite D", "addr:city": "Woodstock", "addr:state": "GA", "addr:postcode": "30189", "name": " Village Podiatry Group", "phone": "(770) 928-9263", "brand": "WellStar Health System", "brand:wikidata": "Q7981073"}, "geometry": {"type": "Point", "coordinates": [-84.539952, 34.1081006]}},
{"type": "Feature", "id": "C1hek-qojVZ3fItLgmHe5DhbsSw=", "properties": {"ref": "14408", "@spider": "wellstar", "addr:full": "601 South 8th Street", "addr:city": "Griffin", "addr:state": "GA", "addr:postcode": "30224", "name": " OBHG Georgia, PC", "phone": "(864) 908-3530", "brand": "WellStar Health System", "brand:wikidata": "Q7981073"}, "geometry": {"type": "Point", "coordinates": [-84.2674674, 33.2393201]}},
{"type": "Feature", "id": "2Ihy_eAEOnn1Z5c2tKFBaMtxjd4=", "properties": {"ref": "2210", "@spider": "wellstar", "addr:full": "677 Church Street NE", "addr:city": "Marietta", "addr:state": "GA", "addr:postcode": "30060", "name": "Wellstar Hospitalist Group Pediatrics", "phone": "(770) 793-8582", "brand": "WellStar Health System", "brand:wikidata": "Q7981073"}, "geometry": {"type": "Point", "coordinates": [-84.5516184, 33.9698219]}},
{"type": "Feature", "id": "5BMXKfqyLiVwbozZswUgrCMRnTY=", "properties": {"ref": "2568", "@spider": "wellstar", "addr:full": "2450 Old Milton Parkway Suite 201", "addr:city": "Alpharetta", "addr:state": "GA", "addr:postcode": "30009", "name": "Wellstar Family Medicine", "phone": "(470) 267-0360", "opening_hours": "Mo-Fr 08:00-16:30", "brand": "WellStar Health System", "brand:wikidata": "Q7981073"}, "geometry": {"type": "Point", "coordinates": [-84.2875393, 34.070845]}},
{"type": "Feature", "id": "oNI-jRwHvbZ2y5s69rE9-9uiLjA=", "properties": {"ref": "14420", "@spider": "wellstar", "addr:full": "8901 Stonebridge Boulevard Suite 200", "addr:city": "Douglasville", "addr:state": "GA", "addr:postcode": "30134", "name": "Wellstar Orthopedics and Sports Medicine", "phone": "(943) 202-7030", "brand": "WellStar Health System", "brand:wikidata": "Q7981073"}, "geometry": {"type": "Point", "coordinates": [-84.7310439, 33.7373103]}},
{"type": "Feature", "id": "NfyrudWLLk-maF8pEpDWdy-B2RU=", "properties": {"ref": "1370", "@spider": "wellstar", "addr:full": "1514 Vernon Road", "addr:city": "LaGrange", "addr:state": "GA", "addr:postcode": "30240", "name": " LaGrange Emergency Physicians, LLC", "phone": "(706) 882-1411", "brand": "WellStar Health System", "brand:wikidata": "Q7981073"}, "geometry": {"type": "Point", "coordinates": [-85.0586022, 33.032552]}},
{"type": "Feature", "id": "F3RH5IPn0a_8gRM9sdkVz4H-kvc=", "properties": {"ref": "14484", "@spider": "wellstar", "addr:full": "1121 Johnson Ferry Road Suite 150", "addr:city": "Marietta", "addr:state": "GA", "addr:postcode": "30068", "name": " Gastrointestinal Specialists of Georgia, Inc.", "phone": "(678) 741-5000", "brand": "WellStar Health System", "brand:wikidata": "Q7981073"}, "geometry": {"type": "Point", "coordinates": [-84.4164869, 33.9761538]}},
{"type": "Feature", "id": "0Y9arELIMTCIanGKk8thRIw3iRc=", "properties": {"ref": "3236", "@spider": "wellstar", "addr:full": "1180 Ernest W Barrett Parkway NW Suite 102A", "addr:city": "Kennesaw", "addr:state": "GA", "addr:postcode": "30144", "name": "Wellstar Pediatric Cardiology", "phone": "(470) 956-9171", "brand": "WellStar Health System", "brand:wikidata": "Q7981073"}, "geometry": {"type": "Point", "coordinates": [-84.58452690000001, 34.001146]}},
{"type": "Feature", "id": "f3BujjeAZYBWsbZMVUnCyVGJZZk=", "properties": {"ref": "442", "@spider": "wellstar", "addr:full": "3300 Hamilton Mill Road Suite 109", "addr:city": "Buford", "addr:state": "GA", "addr:postcode": "30519", "name": " PT Solutions of Buford ", "phone": "(678) 804-8057", "brand": "WellStar Health System", "brand:wikidata": "Q7981073"}, "geometry": {"type": "Point", "coordinates": [-83.9375665, 34.0931859]}},
{"type": "Feature", "id": "bxm2w7Xz9rf7Xfu8baiKrfIy-ho=", "properties": {"ref": "14332", "@spider": "wellstar", "addr:full": "1211 Johnson Ferry Road", "addr:city": "Marietta", "addr:state": "GA", "addr:postcode": "30068", "name": "Wellstar Pediatric Orthopaedics", "phone": "(470) 267-1840", "brand": "WellStar Health System", "brand:wikidata": "Q7981073"}, "geometry": {"type": "Point", "coordinates": [-84.4198516, 33.9785634]}},
{"type": "Feature", "id": "9qFSfZohF7lanb0fNTBSDJIEFNA=", "properties": {"ref": "1860", "@spider": "wellstar", "addr:full": "3400 Old Milton Parkway Suite C535", "addr:city": "Alpharetta", "addr:state": "GA", "addr:postcode": "30005", "name": " Georgia Urology, P.A.", "phone": "(770) 772-4427", "brand": "WellStar Health System", "brand:wikidata": "Q7981073"}, "geometry": {"type": "Point", "coordinates": [-84.2638472, 34.069396]}},
{"type": "Feature", "id": "wT9NBYxo8MrkaeYf5YFsHgb0NhI=", "properties": {"ref": "429", "@spider": "wellstar", "addr:full": "8954 Hospital Drive", "addr:city": "Douglasville", "addr:state": "GA", "addr:postcode": "30134", "name": "Wellstar Physical Therapy", "phone": "(770) 920-6285", "opening_hours": "Mo-Th 07:00-18:00; Fr 07:00-16:30", "brand": "WellStar Health System", "brand:wikidata": "Q7981073"}, "geometry": {"type": "Point", "coordinates": [-84.7309828, 33.7395056]}},
{"type": "Feature", "id": "MWsPm9oqOLX6uvx7S-Abx-BkdE4=", "properties": {"ref": "2148", "@spider": "wellstar", "addr:full": "144 Bill Carruth Parkway Suite 4200", "addr:city": "Hiram", "addr:state": "GA", "addr:postcode": "30141", "name": "Wellstar Cardiovascular Medicine", "phone": "(678) 324-4444", "opening_hours": "Mo-Fr 07:45-17:00", "brand": "WellStar Health System", "brand:wikidata": "Q7981073"}, "geometry": {"type": "Point", "coordinates": [-84.7805283, 33.9009938]}},
{"type": "Feature", "id": "32qsU7fz-4QLtTAzlEylR_0YrXQ=", "properties": {"ref": "1396", "@spider": "wellstar", "addr:full": "2615 East West Connector Suite 122", "addr:city": "Austell", "addr:state": "GA", "addr:postcode": "30106", "name": " Douglas Neurology Associates", "phone": "(678) 838-2180", "brand": "WellStar Health System", "brand:wikidata": "Q7981073"}, "geometry": {"type": "Point", "coordinates": [-84.62260739999999, 33.8629835]}},
{"type": "Feature", "id": "OGUxt2e9LEz0i_K1_jdt85ue56k=", "properties": {"ref": "14492", "@spider": "wellstar", "addr:full": "4441 Atlanta Road SE Suite 213", "addr:city": "Smyrna", "addr:state": "GA", "addr:postcode": "30080", "name": "Wellstar Metro Atlanta Cardiovascular Medicine", "phone": "(470) 956-9480", "brand": "WellStar Health System", "brand:wikidata": "Q7981073"}, "geometry": {"type": "Point", "coordinates": [-84.4900352, 33.8467845]}},
{"type": "Feature", "id": "Ckr3Ze2qxyV2yzZf0VHFB9zuDgs=", "properties": {"ref": "438", "@spider": "wellstar", "addr:full": "2575 Peachtree Parkway", "addr:city": "Cumming", "addr:state": "GA", "addr:postcode": "30041", "name": " PT Solutions of Johns Creek", "phone": "(678) 679-6400", "brand": "WellStar Health System", "brand:wikidata": "Q7981073"}, "geometry": {"type": "Point", "coordinates": [-84.1765244, 34.0976033]}},
{"type": "Feature", "id": "Cou-qpbnwkrvrHjif_6InAXgzX0=", "properties": {"ref": "2582", "@spider": "wellstar", "addr:full": "4500 Hospital Boulevard Suite 230", "addr:city": "Roswell", "addr:state": "GA", "addr:postcode": "30076", "name": "Wellstar Summit Surgical", "phone": "(770) 423-0395", "brand": "WellStar Health System", "brand:wikidata": "Q7981073"}, "geometry": {"type": "Point", "coordinates": [-84.3225594, 34.0631449]}},
{"type": "Feature", "id": "XlAAM7ooN_s7nKfeevgePw074Os=", "properties": {"ref": "13568", "@spider": "wellstar", "addr:full": "3610 Highlands Parkway SE Building 2", "addr:city": "Smyrna", "addr:state": "GA", "addr:postcode": "30082", "name": " West Atlanta OB-Gyn, Inc.", "phone": "(770) 444-9981", "brand": "WellStar Health System", "brand:wikidata": "Q7981073"}, "geometry": {"type": "Point", "coordinates": [-84.4996726, 33.8280219]}},
{"type": "Feature", "id": "3Ky1QagHUc36HY5Hmy1WCPi6ZPs=", "properties": {"ref": "3358", "@spider": "wellstar", "addr:full": "148 Bill Carruth Parkway Suite 340", "addr:city": "Hiram", "addr:state": "GA", "addr:postcode": "30141", "name": "Wellstar Neurology", "phone": "(470) 956-3845", "brand": "WellStar Health System", "brand:wikidata": "Q7981073"}, "geometry": {"type": "Point", "coordinates": [-84.78110679999999, 33.9007916]}},
{"type": "Feature", "id": "-2h6FzV2AbHVbhnltFfCYtWMIOg=", "properties": {"ref": "13716", "@spider": "wellstar", "addr:full": "2000 Billy Tucker Circle", "addr:city": "Hogansville", "addr:state": "GA", "addr:postcode": "30230", "name": "Wellstar Primary Care", "phone": "(706) 880-7188", "brand": "WellStar Health System", "brand:wikidata": "Q7981073"}, "geometry": {"type": "Point", "coordinates": [-84.9000648, 33.1668869]}},
{"type": "Feature", "id": "WKggobK7JYOWfWBtbOaS1oUT4WM=", "properties": {"ref": "734", "@spider": "wellstar", "addr:full": "4500 Hospital Boulevard Suite 100", "addr:city": "Roswell", "addr:state": "GA", "addr:postcode": "30076", "name": "Wellstar Imaging Services Roswell", "phone": "(678) 581-5900", "opening_hours": "Mo-Fr 08:00-17:00", "brand": "WellStar Health System", "brand:wikidata": "Q7981073"}, "geometry": {"type": "Point", "coordinates": [-84.3225594, 34.0631449]}},
{"type": "Feature", "id": "fu_BRr6I2Lmg7oDcY1T5sC6yKE4=", "properties": {"ref": "14270", "@spider": "wellstar", "addr:full": "2000 Howard Farm Drive Suite 320", "addr:city": "Cumming", "addr:state": "GA", "addr:postcode": "30041", "name": " Goodman Dermatology, PC", "phone": "(470) 242-0715", "brand": "WellStar Health System", "brand:wikidata": "Q7981073"}, "geometry": {"type": "Point", "coordinates": [-84.1417575, 34.1748614]}},
{"type": "Feature", "id": "QSDPiB5egGGRdmWPnGaUwlx_sds=", "properties": {"ref": "1642", "@spider": "wellstar", "addr:full": "117 First National Drive", "addr:city": "Dallas", "addr:state": "GA", "addr:postcode": "30157", "name": " Northwest Oral & Maxillofacial Surgery", "phone": "(770) 672-5629", "brand": "WellStar Health System", "brand:wikidata": "Q7981073"}, "geometry": {"type": "Point", "coordinates": [-84.7685607, 33.9162827]}},
{"type": "Feature", "id": "djj8WQ5G7LMU-XNp3hJp3qj1Zc8=", "properties": {"ref": "1654", "@spider": "wellstar", "addr:full": "8841 Hospital Drive", "addr:city": "Douglasville", "addr:state": "GA", "addr:postcode": "30134", "name": " Marietta Eye Clinic", "phone": "(770) 577-2220", "brand": "WellStar Health System", "brand:wikidata": "Q7981073"}, "geometry": {"type": "Point", "coordinates": [-84.733556, 33.7409062]}},
{"type": "Feature", "id": "7zbpBsJHadXbBPRyNpLD6Xr2NSo=", "properties": {"ref": "600", "@spider": "wellstar", "addr:full": "1120 WellStar Way Suite 106", "addr:city": "Holly Springs", "addr:state": "GA", "addr:postcode": "30114", "name": "Wellstar Lab Services at Cherokee Health Park", "phone": "(770) 793-5900", "opening_hours": "Mo-Fr 07:30-16:30", "brand": "WellStar Health System", "brand:wikidata": "Q7981073"}, "geometry": {"type": "Point", "coordinates": [-84.5217464, 34.1453679]}},
{"type": "Feature", "id": "vhScFmTLvp4lj71ie0mL4bbCvJM=", "properties": {"ref": "626", "@spider": "wellstar", "addr:full": "55 Whitcher Street NE Suite 200", "addr:city": "Marietta", "addr:state": "GA", "addr:postcode": "30060", "name": "Wellstar Lab Services at Kennestone Hospital", "phone": "(770) 793-5900", "opening_hours": "Mo-Fr 07:00-17:00", "brand": "WellStar Health System", "brand:wikidata": "Q7981073"}, "geometry": {"type": "Point", "coordinates": [-84.553509, 33.9668232]}},
{"type": "Feature", "id": "xe14sqUTiwNKTsBYu7QXpYDGzOE=", "properties": {"ref": "864", "@spider": "wellstar", "addr:full": "4550 Cobb Parkway North NW Suite 150", "addr:city": "Acworth", "addr:state": "GA", "addr:postcode": "30101", "name": "Wellstar Outpatient Surgery Center", "phone": "(470) 956-4720", "brand": "WellStar Health System", "brand:wikidata": "Q7981073"}, "geometry": {"type": "Point", "coordinates": [-84.7253825, 34.0679136]}},
{"type": "Feature", "id": "mbQuI0Qs4QLmX3t2hGd0rr1FXO8=", "properties": {"ref": "2642", "@spider": "wellstar", "addr:full": "105 Arnold Mill Road", "addr:city": "Woodstock", "addr:state": "GA", "addr:postcode": "30188", "name": "Wellstar Hospitalist Group Medicine", "phone": "(770) 926-0016", "brand": "WellStar Health System", "brand:wikidata": "Q7981073"}, "geometry": {"type": "Point", "coordinates": [-84.5161155, 34.1018381]}},
{"type": "Feature", "id": "qIvTMhLiv2xNbcYudNhhGRjJK8c=", "properties": {"ref": "2126", "@spider": "wellstar", "addr:full": "2540 Windy Hill Road SE", "addr:city": "Marietta", "addr:state": "GA", "addr:postcode": "30067", "name": "Wellstar Hospitalist Group Medicine", "phone": "(770) 644-1000", "brand": "WellStar Health System", "brand:wikidata": "Q7981073"}, "geometry": {"type": "Point", "coordinates": [-84.47991569999999, 33.8998502]}},
{"type": "Feature", "id": "spShKqtOll0zYypgzKdFcEjo2r4=", "properties": {"ref": "3300", "@spider": "wellstar", "addr:full": "11 Upper Riverdale Road", "addr:city": "Riverdale", "addr:state": "GA", "addr:postcode": "30274", "name": " Sound Physicians", "phone": "(770) 897-7107", "brand": "WellStar Health System", "brand:wikidata": "Q7981073"}, "geometry": {"type": "Point", "coordinates": [-84.38953959999999, 33.5794455]}},
{"type": "Feature", "id": "Yd8F65bEMI8_mDEOMAZmq3BjeUk=", "properties": {"ref": "14466", "@spider": "wellstar", "addr:full": "148 Bill Carruth Parkway Suite 120", "addr:city": "Hiram", "addr:state": "GA", "addr:postcode": "30141", "name": "Wellstar Orthopedic Surgery", "phone": "(943) 202-7030", "brand": "WellStar Health System", "brand:wikidata": "Q7981073"}, "geometry": {"type": "Point", "coordinates": [-84.78110679999999, 33.9007916]}},
{"type": "Feature", "id": "ZolsUJM2XrEnYEGX3PUSA1KrrB0=", "properties": {"ref": "14308", "@spider": "wellstar", "addr:full": "677 Church Street", "addr:city": "Marietta", "addr:state": "GA", "addr:postcode": "30060", "name": " Georgia Emergency Group, LLC", "phone": "(770) 793-5680", "brand": "WellStar Health System", "brand:wikidata": "Q7981073"}, "geometry": {"type": "Point", "coordinates": [-84.55209169999999, 33.9690027]}},
{"type": "Feature", "id": "dSjeLHhXFTxhEcOTyDggvzXuvnU=", "properties": {"ref": "1732", "@spider": "wellstar", "addr:full": "962 Joe Frank Harris Parkway SE Suite 202", "addr:city": "Cartersville", "addr:state": "GA", "addr:postcode": "30120", "name": " Vascular Surgical Associates, P.C.", "phone": "(770) 423-0595", "opening_hours": "Mo-Fr 08:00-17:00", "brand": "WellStar Health System", "brand:wikidata": "Q7981073"}, "geometry": {"type": "Point", "coordinates": [-84.7932824, 34.1995541]}},
{"type": "Feature", "id": "mcfjo21as_eL2My8_ORl-I56wbI=", "properties": {"ref": "2480", "@spider": "wellstar", "addr:full": "4441 Atlanta Road SE Suite 213", "addr:city": "Smyrna", "addr:state": "GA", "addr:postcode": "30080", "name": "Wellstar Cardiovascular Medicine", "phone": "(470) 956-9480", "opening_hours": "Mo-Fr 08:00-17:00", "brand": "WellStar Health System", "brand:wikidata": "Q7981073"}, "geometry": {"type": "Point", "coordinates": [-84.4898406, 33.8466533]}},
{"type": "Feature", "id": "x-a2R9jJ-P6uIEoSd6BOSwYz-QQ=", "properties": {"ref": "3192", "@spider": "wellstar", "addr:full": "4581 South Cobb Drive Suite 100", "addr:city": "Smyrna", "addr:state": "GA", "addr:postcode": "30080", "name": "Wellstar ENT", "phone": "(770) 801-5020", "brand": "WellStar Health System", "brand:wikidata": "Q7981073"}, "geometry": {"type": "Point", "coordinates": [-84.4985391, 33.8439108]}},
{"type": "Feature", "id": "pwKnd5PB4e6frENw4DocZheA3XU=", "properties": {"ref": "436", "@spider": "wellstar", "addr:full": "227 Sandy Springs Place NE  Suite 414", "addr:city": "Sandy Springs", "addr:state": "GA", "addr:postcode": "30328", "name": " PT Solutions of Sandy Springs ", "phone": "(404) 843-2755", "brand": "WellStar Health System", "brand:wikidata": "Q7981073"}, "geometry": {"type": "Point", "coordinates": [-84.3814342, 33.9203086]}},
{"type": "Feature", "id": "6miJF6g1ZVf67utfzNpDsMwpDkM=", "properties": {"ref": "1298", "@spider": "wellstar", "addr:full": "1230 Johnson Ferry Place Suite H15 H20", "addr:city": "Marietta", "addr:state": "GA", "addr:postcode": "30068", "name": " Barrack Spine & Joint Medicine", "phone": "(678) 738-7601", "brand": "WellStar Health System", "brand:wikidata": "Q7981073"}, "geometry": {"type": "Point", "coordinates": [-84.4208774, 33.9807368]}},
{"type": "Feature", "id": "HFuaVkPmD8UeQz0PjbgCsIQNX9M=", "properties": {"ref": "1794", "@spider": "wellstar", "addr:full": "3606 Highlands Parkway SE Building 1", "addr:city": "Smyrna", "addr:state": "GA", "addr:postcode": "30082", "name": " Smyrna Medical Associates", "phone": "(678) 303-5082", "brand": "WellStar Health System", "brand:wikidata": "Q7981073"}, "geometry": {"type": "Point", "coordinates": [-84.4993282, 33.8278457]}},
{"type": "Feature", "id": "U_FO20fL88U-xTLrIggQGxf9xhg=", "properties": {"ref": "2820", "@spider": "wellstar", "addr:full": "1120 Wellstar Way Suite 302", "addr:city": "Holly Springs", "addr:state": "GA", "addr:postcode": "30114", "name": "Wellstar General Surgery", "phone": "(770) 423-0395", "brand": "WellStar Health System", "brand:wikidata": "Q7981073"}, "geometry": {"type": "Point", "coordinates": [-84.5198669, 34.1429328]}},
{"type": "Feature", "id": "vcrwScyGdjh6tBdgBKheoGa04ME=", "properties": {"ref": "1542", "@spider": "wellstar", "addr:full": "14557 Highway 19 Suite A", "addr:city": "Griffin", "addr:state": "GA", "addr:postcode": "30224", "name": " Coker Pediatrics, LLC", "phone": "(678) 688-1580", "brand": "WellStar Health System", "brand:wikidata": "Q7981073"}, "geometry": {"type": "Point", "coordinates": [-84.3009031, 33.1821794]}},
{"type": "Feature", "id": "WxHOrpEF-ZgeI4CA8qmfnx8PnRc=", "properties": {"ref": "1840", "@spider": "wellstar", "addr:full": "3939 Roswell Road Suite 100", "addr:city": "Marietta", "addr:state": "GA", "addr:postcode": "30062", "name": " Marietta Eye Clinic", "phone": "(770) 977-8000", "brand": "WellStar Health System", "brand:wikidata": "Q7981073"}, "geometry": {"type": "Point", "coordinates": [-84.43659029999999, 33.97862569999999]}},
{"type": "Feature", "id": "Pe0yEsvfZRPjNthTdOgYv7e-vo8=", "properties": {"ref": "736", "@spider": "wellstar", "addr:full": "4550 Cobb Parkway North NW Suite 109", "addr:city": "Acworth", "addr:state": "GA", "addr:postcode": "30101", "name": "Wellstar Imaging Services at Acworth Health Park", "phone": "(678) 581-5900", "opening_hours": "Mo-Sa 07:00-19:00", "brand": "WellStar Health System", "brand:wikidata": "Q7981073"}, "geometry": {"type": "Point", "coordinates": [-84.7253878, 34.067918]}},
{"type": "Feature", "id": "Nih__8z11PlWld_Lg2oRqgCdcEg=", "properties": {"ref": "1466", "@spider": "wellstar", "addr:full": "1300 Upper Hembree Road Building 100 Suite D", "addr:city": "Roswell", "addr:state": "GA", "addr:postcode": "30076", "name": " Providence Women's Healthcare", "phone": "(770) 670-6170", "brand": "WellStar Health System", "brand:wikidata": "Q7981073"}, "geometry": {"type": "Point", "coordinates": [-84.32162129999999, 34.0675227]}},
{"type": "Feature", "id": "W6AzjbT0BIdFPpBOH5ttw-P-wx4=", "properties": {"ref": "14392", "@spider": "wellstar", "addr:full": "285 Boulevard NE Suite 435", "addr:city": "Atlanta", "addr:state": "GA", "addr:postcode": "30312", "name": " Premier South Medical Group", "phone": "(404) 524-6887", "brand": "WellStar Health System", "brand:wikidata": "Q7981073"}, "geometry": {"type": "Point", "coordinates": [-84.3714961, 33.7622968]}},
{"type": "Feature", "id": "z7tWebBh_dfgR63IPFfq6texMmE=", "properties": {"ref": "13468", "@spider": "wellstar", "addr:full": "599 3rd Avenue", "addr:city": "West Point", "addr:state": "GA", "addr:postcode": "31833", "name": "Wellstar Orthopedic Surgery", "phone": "(706) 242-5081", "brand": "WellStar Health System", "brand:wikidata": "Q7981073"}, "geometry": {"type": "Point", "coordinates": [-85.18491089999999, 32.8754283]}},
{"type": "Feature", "id": "YjqAo_2CnGfy8KEO--zqo31f23c=", "properties": {"ref": "14438", "@spider": "wellstar", "addr:full": "4581 South Cobb Drive SE Suite 100", "addr:city": "Smyrna", "addr:state": "GA", "addr:postcode": "30080", "name": "Wellstar Kennestone Pediatric Associates", "phone": "(770) 801-5000", "brand": "WellStar Health System", "brand:wikidata": "Q7981073"}, "geometry": {"type": "Point", "coordinates": [-84.4985391, 33.8439108]}},
{"type": "Feature", "id": "8Kp6OSUjzG0u-ttMtxQbXvncH88=", "properties": {"ref": "1966", "@spider": "wellstar", "addr:full": "4441 Atlanta Road SE Suite 319", "addr:city": "Smyrna", "addr:state": "GA", "addr:postcode": "30080", "name": " The Philip Israel Breast Center, PC", "phone": "(770) 428-4486", "brand": "WellStar Health System", "brand:wikidata": "Q7981073"}, "geometry": {"type": "Point", "coordinates": [-84.4898406, 33.8466533]}},
{"type": "Feature", "id": "RmRQGez-CGI0VmJWijwimLKdRzc=", "properties": {"ref": "2544", "@spider": "wellstar", "addr:full": "1791 Mulkey Road Suite 200", "addr:city": "Austell", "addr:state": "GA", "addr:postcode": "30106", "name": "Wellstar Cobb Gynecologists", "phone": "(770) 732-5400", "opening_hours": "Mo-Th 08:30-16:30; Fr 08:00-15:30", "brand": "WellStar Health System", "brand:wikidata": "Q7981073"}, "geometry": {"type": "Point", "coordinates": [-84.6055131, 33.8585862]}},
{"type": "Feature", "id": "-jDgSU1_B8uqp31e-W83eiFNk5k=", "properties": {"ref": "14450", "@spider": "wellstar", "addr:full": "6 Executive Park Drive NE Suite 10", "addr:city": "Atlanta", "addr:state": "GA", "addr:postcode": "30329", "name": "Wellstar Pediatric Orthopaedics", "phone": "(404) 321-9900", "brand": "WellStar Health System", "brand:wikidata": "Q7981073"}, "geometry": {"type": "Point", "coordinates": [-84.3367032, 33.8292911]}},
{"type": "Feature", "id": "QJIjK_GjIg0_EGYVqlJsg9MjwjQ=", "properties": {"ref": "13542", "@spider": "wellstar", "addr:full": "677 Church Street NE", "addr:city": "Marietta", "addr:state": "GA", "addr:postcode": "30060", "name": "Wellstar Neurology", "phone": "(770) 422-2326", "brand": "WellStar Health System", "brand:wikidata": "Q7981073"}, "geometry": {"type": "Point", "coordinates": [-84.5516184, 33.9698219]}},
{"type": "Feature", "id": "I52sbj3ZNYvGXPG_gnfSbYBsTjM=", "properties": {"ref": "13554", "@spider": "wellstar", "addr:full": "355 Tower Road NE Suite 103", "addr:city": "Marietta", "addr:state": "GA", "addr:postcode": "30060", "name": "Wellstar Podiatry", "phone": "(770) 590-4188", "brand": "WellStar Health System", "brand:wikidata": "Q7981073"}, "geometry": {"type": "Point", "coordinates": [-84.5560422, 33.9696765]}},
{"type": "Feature", "id": "mkWUpoim0Z4AQfL1hT1fKi2nI5M=", "properties": {"ref": "14358", "@spider": "wellstar", "addr:full": "120 Stonebridge Parkway Suite 230", "addr:city": "Woodstock", "addr:state": "GA", "addr:postcode": "30189", "name": "Wellstar Neurology & Headache Center", "phone": "(470) 267-0670", "brand": "WellStar Health System", "brand:wikidata": "Q7981073"}, "geometry": {"type": "Point", "coordinates": [-84.5372493, 34.1000902]}},
{"type": "Feature", "id": "tGTITQ_m1VIKg4oGW7JzPnhPpMQ=", "properties": {"ref": "13622", "@spider": "wellstar", "addr:full": "1136 Cleveland Avenue Suite 221", "addr:city": "East Point", "addr:state": "GA", "addr:postcode": "30344", "name": " Southern Medical Clinic, LLC", "phone": "(404) 761-1550", "brand": "WellStar Health System", "brand:wikidata": "Q7981073"}, "geometry": {"type": "Point", "coordinates": [-84.4260061, 33.6811063]}},
{"type": "Feature", "id": "tJv0jVhn9B122SMALODxU4c6Z0k=", "properties": {"ref": "1192", "@spider": "wellstar", "addr:full": "111 Marble Mill Road NW", "addr:city": "Marietta", "addr:state": "GA", "addr:postcode": "30060", "name": " Marietta Dermatology Associates", "phone": "(770) 422-1013", "brand": "WellStar Health System", "brand:wikidata": "Q7981073"}, "geometry": {"type": "Point", "coordinates": [-84.553736, 33.9733951]}},
{"type": "Feature", "id": "lHv48GDJbEpXHHyBKCJJJ_Dpb0o=", "properties": {"ref": "202", "@spider": "wellstar", "addr:full": "4550 Cobb Parkway North NW", "addr:city": "Acworth", "addr:state": "GA", "addr:postcode": "30101", "name": "Wellstar Acworth Health Park", "phone": "(470) 956-0050", "opening_hours": "Mo-Su 07:00-22:00", "brand": "WellStar Health System", "brand:wikidata": "Q7981073"}, "geometry": {"type": "Point", "coordinates": [-84.7253825, 34.067918]}},
{"type": "Feature", "id": "lVhtYy8v6nmNUGmGtzmoH7h_bSE=", "properties": {"ref": "14006", "@spider": "wellstar", "addr:full": "4441 Atlanta Road SE Suite 201", "addr:city": "Smyrna", "addr:state": "GA", "addr:postcode": "30080", "name": "Wellstar Pediatric Urology", "phone": "(470) 956-7600", "brand": "WellStar Health System", "brand:wikidata": "Q7981073"}, "geometry": {"type": "Point", "coordinates": [-84.4900352, 33.8467845]}},
{"type": "Feature", "id": "6dr1PfAtVc_jLHL6EuIAJ_inQqQ=", "properties": {"ref": "618", "@spider": "wellstar", "addr:full": "4441 Atlanta Road SE Suite 103", "addr:city": "Smyrna", "addr:state": "GA", "addr:postcode": "30080", "name": "Wellstar Lab Services at Vinings Health Park", "phone": "(770) 793-5900", "opening_hours": "Mo-Fr 07:00-17:30", "brand": "WellStar Health System", "brand:wikidata": "Q7981073"}, "geometry": {"type": "Point", "coordinates": [-84.4920346, 33.8466577]}},
{"type": "Feature", "id": "1ydiGez1nrl-6b6nLRDZLb2ejRA=", "properties": {"ref": "13764", "@spider": "wellstar", "addr:full": "2000 Billy Tucker Circle", "addr:city": "Hogansville", "addr:state": "GA", "addr:postcode": "30230", "name": "Wellstar Internal Medicine", "phone": "(706) 880-7188", "brand": "WellStar Health System", "brand:wikidata": "Q7981073"}, "geometry": {"type": "Point", "coordinates": [-84.9000648, 33.1668869]}},
{"type": "Feature", "id": "ycjDSFKwDkPxMzFvXLvGtibeZzg=", "properties": {"ref": "14198", "@spider": "wellstar", "addr:full": "2914 Vinson Court", "addr:city": "Buford", "addr:state": "GA", "addr:postcode": "30518", "name": " Peachpoint Clinic", "phone": "(678) 904-4500", "brand": "WellStar Health System", "brand:wikidata": "Q7981073"}, "geometry": {"type": "Point", "coordinates": [-83.9826314, 34.1258813]}},
{"type": "Feature", "id": "cczNdtgGC8ev_YzcNaYGZMaF0iU=", "properties": {"ref": "1600", "@spider": "wellstar", "addr:full": "3387 Highway 5 Suite H", "addr:city": "Douglasville", "addr:state": "GA", "addr:postcode": "30135", "name": " Georgia Blue Foot and Ankle, LLC", "phone": "(404) 217-2700", "brand": "WellStar Health System", "brand:wikidata": "Q7981073"}, "geometry": {"type": "Point", "coordinates": [-84.7701921, 33.713897]}},
{"type": "Feature", "id": "fH2z7A2xQn198lGYXAU4iqBNFFY=", "properties": {"ref": "13796", "@spider": "wellstar", "addr:full": "100 Glenn Bass Road", "addr:city": "LaGrange", "addr:state": "GA", "addr:postcode": "30240", "name": "Wellstar Occupational Health", "phone": "(706) 845-3075", "brand": "WellStar Health System", "brand:wikidata": "Q7981073"}, "geometry": {"type": "Point", "coordinates": [-85.0495688, 32.9964087]}},
{"type": "Feature", "id": "ZutXbrz8BUDxrtbEA-C-3siQq-8=", "properties": {"ref": "1886", "@spider": "wellstar", "addr:full": "2550 Windy Hill Road SE Suite 317", "addr:city": "Marietta", "addr:state": "GA", "addr:postcode": "30067", "name": " Resurgens Orthopaedics", "phone": "(770) 933-1900", "brand": "WellStar Health System", "brand:wikidata": "Q7981073"}, "geometry": {"type": "Point", "coordinates": [-84.4786722, 33.900027]}}]}