{"type":"FeatureCollection","features":[{"type": "Feature", "id": "hVekI8JKafFXJLS7FlXhz1i8SPw=", "properties": {"ref": "skagit-valley-hospital", "@spider": "whidbeycoffee", "addr:full": "1415 E Kincaid St", "addr:city": "Mt. Vernon", "addr:state": "WA", "addr:postcode": "98273", "name": "Mt. Vernon - Skagit Valley Hospital Coffee Shop", "phone": "360-416-8328", "website": "https://www.whidbeycoffee.com/pages/skagit-valley-hospital", "brand": "Whidbey Coffee"}, "geometry": {"type": "Point", "coordinates": [-122.3258503, 48.4179604]}},
{"type": "Feature", "id": "6nf9qCYGI2cHAijWOvB2xBKW12A=", "properties": {"ref": "oak-harbor-sr20", "@spider": "whidbeycoffee", "addr:full": "31275 SR 20", "addr:city": "Oak Harbor", "addr:state": "Wa", "addr:postcode": "98277", "name": "Oak Harbor - SR20 Coffee Shop", "phone": "360-279-8165", "website": "https://www.whidbeycoffee.com/pages/oak-harbor-sr20", "opening_hours": "Mo-Sa 05:30-20:00; Su 06:30-19:00", "brand": "Whidbey Coffee"}, "geometry": {"type": "Point", "coordinates": [-122.6542828, 48.2894286]}},
{"type": "Feature", "id": "qLtBSFDxe-EYDUVFjM3WM0IjeWE=", "properties": {"ref": "oak-harbor-pioneer-way", "@spider": "whidbeycoffee", "addr:full": "980 SE Pioneer Way", "addr:city": "Oak Harbor", "addr:state": "WA", "addr:postcode": "98277", "name": "Oak Harbor - Pioneer Way Coffee Shop", "phone": "360-679-1162", "website": "https://www.whidbeycoffee.com/pages/oak-harbor-pioneer-way", "opening_hours": "Mo-Fr 05:30-19:00; Sa 06:00-19:00; Su 06:30-18:00", "brand": "Whidbey Coffee"}, "geometry": {"type": "Point", "coordinates": [-122.6477167, 48.289429]}},
{"type": "Feature", "id": "D-IxnHYt1xbBTtqLMJNtMk_tfsE=", "properties": {"ref": "mukilteo-speedway-drive-thru", "@spider": "whidbeycoffee", "addr:full": "12620 Mukilteo Speedway", "addr:city": "Mukilteo", "addr:state": "Wa", "addr:postcode": "98275", "name": "Mukilteo Speedway - Drive Thru", "phone": "-347-5390", "website": "https://www.whidbeycoffee.com/pages/mukilteo-speedway-drive-thru", "opening_hours": "Mo-Fr 05:30-17:30; Sa 06:00-17:30; Su 07:00-17:30", "brand": "Whidbey Coffee"}, "geometry": {"type": "Point", "coordinates": [-122.2832807, 47.883516]}},
{"type": "Feature", "id": "Hq_RiPKw_yae6Y0TWlNltSB0pJI=", "properties": {"ref": "freeland-drive-thru", "@spider": "whidbeycoffee", "addr:full": "1609 E Main St.", "addr:city": "Freeland", "addr:state": "Wa", "addr:postcode": "98249", "name": "Freeland - Drive Thru", "phone": "360-331-3626", "website": "https://www.whidbeycoffee.com/pages/freeland-drive-thru", "opening_hours": "Mo-Fr 05:30-18:00; Sa 06:00-18:00", "brand": "Whidbey Coffee"}, "geometry": {"type": "Point", "coordinates": [-122.5319591, 48.0098187]}},
{"type": "Feature", "id": "50Kl33pEeG_BWjVIregDkT7NjGQ=", "properties": {"ref": "evergreen-hospital-silver-location", "@spider": "whidbeycoffee", "addr:full": "12040 NE 128th St", "addr:city": "Kirkland", "addr:state": "WA", "addr:postcode": "98034", "name": "Evergreen Hospital Silver Coffee Stand", "phone": "-899-1774", "website": "https://www.whidbeycoffee.com/pages/evergreen-hospital-silver-location", "opening_hours": "Mo-Fr 06:00-17:00", "brand": "Whidbey Coffee"}, "geometry": {"type": "Point", "coordinates": [-122.1806126, 47.7156087]}},
{"type": "Feature", "id": "BljaW4NbmIP5VaJqepl35ogTftA=", "properties": {"ref": "evergreen-hospital-level-2-location", "@spider": "whidbeycoffee", "addr:full": "12040 NE 128th St", "addr:city": "Kirkland", "addr:state": "Wa", "addr:postcode": "98034", "name": "Evergreen Hospital Level 2 Coffee Kiosk", "phone": "-899-1774", "website": "https://www.whidbeycoffee.com/pages/evergreen-hospital-level-2-location", "opening_hours": "Mo-Fr 06:30-17:00", "brand": "Whidbey Coffee"}, "geometry": {"type": "Point", "coordinates": [-122.1806126, 47.7156087]}},
{"type": "Feature", "id": "Z0mlkGaQS1-mksWPL0fbX-HH-G4=", "properties": {"ref": "evergreen-hospital", "@spider": "whidbeycoffee", "addr:full": "12040 NE 128th St", "addr:city": "Kirkland", "addr:state": "Wa", "addr:postcode": "98034", "name": "Evergreen Hospital Courtyard Location - Coffee Station", "phone": "-899-1774", "website": "https://www.whidbeycoffee.com/pages/evergreen-hospital", "opening_hours": "Mo-Fr 06:00-17:00; Sa 07:00-17:00", "brand": "Whidbey Coffee"}, "geometry": {"type": "Point", "coordinates": [-122.1806126, 47.7156087]}},
{"type": "Feature", "id": "2TiAPz03eleymirqYBOdmlPz1ns=", "properties": {"ref": "clinton-drive-thru", "@spider": "whidbeycoffee", "addr:full": "4141 E SR 525", "addr:city": "Clinton", "addr:state": "Wa", "addr:postcode": "98236", "name": "Clinton - Drive Thru", "phone": "360-222-2072", "website": "https://www.whidbeycoffee.com/pages/clinton-drive-thru", "opening_hours": "Mo-Fr 05:30-18:00; Sa 06:00-18:00; Su 07:00-18:00", "brand": "Whidbey Coffee"}, "geometry": {"type": "Point", "coordinates": [-122.3962361, 47.9891091]}},
{"type": "Feature", "id": "mC37hdpBWjF8aNX5vDdn9cv2nPs=", "properties": {"ref": "burlington-drive-thru", "@spider": "whidbeycoffee", "addr:full": "848 S Burlington Blvd", "addr:city": "Burlington", "addr:state": "Wa", "addr:postcode": "98233", "name": "Burlington Blvd - Drive Thru", "phone": "360-757-4879", "website": "https://www.whidbeycoffee.com/pages/burlington-drive-thru", "opening_hours": "Mo-Fr 05:00-19:00; Sa 06:00-19:00; Su 06:00-18:00", "brand": "Whidbey Coffee"}, "geometry": {"type": "Point", "coordinates": [-122.337386, 48.4693243]}},
{"type": "Feature", "id": "ceFTRL4NCgK15UlgT13WKu5Q4sg=", "properties": {"ref": "burlington-cafe-and-drive-thru", "@spider": "whidbeycoffee", "addr:full": "1960 Marketplace Drive", "addr:city": "Burlington", "addr:state": "Wa", "addr:postcode": "98233", "name": "Burlington - Marketplace Cafe and Drive Thru", "website": "https://www.whidbeycoffee.com/pages/burlington-cafe-and-drive-thru", "brand": "Whidbey Coffee"}, "geometry": {"type": "Point", "coordinates": [-122.3396557, 48.449137]}},
{"type": "Feature", "id": "1vNI1ZRsDfiqzF47qI8Lx9MvxPU=", "properties": {"ref": "anacortes-drive-thru", "@spider": "whidbeycoffee", "addr:full": "1120 Commercial Ave", "addr:city": "Anacortes", "addr:state": "Wa", "addr:postcode": "98221", "name": "Anacortes Drive Thru", "phone": "360-230-1339", "website": "https://www.whidbeycoffee.com/pages/anacortes-drive-thru", "opening_hours": "Mo-Fr 05:30-18:00; Sa 06:00-18:00; Su 07:00-17:00", "brand": "Whidbey Coffee"}, "geometry": {"type": "Point", "coordinates": [-122.6150238, 48.5128715]}}]}