{"type":"FeatureCollection","features":[{"type": "Feature", "id": "IWCZwoUB1iuOMwgmnOKnCtdgAYM=", "properties": {"ref": "1004768", "@spider": "whitecastle", "amenity": "fast_food", "cuisine": "burger", "takeaway": "yes", "addr:street_address": "9310 East Via De Ventura", "addr:city": "Scottsdale", "addr:state": "AZ", "addr:postcode": "85258", "name": "DEST 10", "phone": "4802915700", "website": "https://www.whitecastle.com/locations/1004768", "opening_hours": "24/7", "brand": "White Castle", "brand:wikidata": "Q1244034", "nsi_id": "whitecastle-4d2ff4"}, "geometry": {"type": "Point", "coordinates": [-111.880474, 33.554902]}},
{"type": "Feature", "id": "ne6mOeshQmkrB9qXbCBGcZQJoRg=", "properties": {"ref": "1284", "@spider": "whitecastle", "amenity": "fast_food", "cuisine": "burger", "takeaway": "yes", "addr:street_address": "15101 Cedar Avenue", "addr:city": "Apple Valley", "addr:state": "MN", "addr:postcode": "55124", "name": "MPLS 39", "phone": "9524321378", "website": "https://www.whitecastle.com/locations/1284", "opening_hours": "Mo-Th 07:00-10:00; Fr-Sa 07:00-01:00; Su 07:00-08:00", "brand": "White Castle", "brand:wikidata": "Q1244034", "nsi_id": "whitecastle-4d2ff4"}, "geometry": {"type": "Point", "coordinates": [-93.218442, 44.730698]}},
{"type": "Feature", "id": "j7Kao55lyPNAiqRWkF-exGB-kgk=", "properties": {"ref": "274", "@spider": "whitecastle", "amenity": "fast_food", "cuisine": "burger", "takeaway": "yes", "addr:street_address": "9600 LYNDALE AVE S", "addr:city": "Bloomington", "addr:state": "MN", "addr:postcode": "55420", "name": "MPLS 22", "phone": "9528813034", "website": "https://www.whitecastle.com/locations/274", "opening_hours": "Mo-Th 06:00-11:00; Fr-Sa 06:00-00:00; Su 06:00-11:00", "brand": "White Castle", "brand:wikidata": "Q1244034", "nsi_id": "whitecastle-4d2ff4"}, "geometry": {"type": "Point", "coordinates": [-93.289293, 44.829512]}},
{"type": "Feature", "id": "p_LG_G2GzQMwLKJx7bi0VK0B9HE=", "properties": {"ref": "285", "@spider": "whitecastle", "amenity": "fast_food", "cuisine": "burger", "takeaway": "yes", "addr:street_address": "329 FIRE MONUMENT RD", "addr:city": "Hinckley", "addr:state": "MN", "addr:postcode": "55037", "name": "MPLS 33", "phone": "3203840986", "website": "https://www.whitecastle.com/locations/285", "opening_hours": "Mo-We 08:00-02:00; Th 08:00-05:45; Fr-Sa 00:00-24:00; Su 06:00-02:00", "brand": "White Castle", "brand:wikidata": "Q1244034", "nsi_id": "whitecastle-4d2ff4"}, "geometry": {"type": "Point", "coordinates": [-92.933466, 46.011443]}},
{"type": "Feature", "id": "__ZiV0A9us8Buu8YzTyST4FRbo8=", "properties": {"ref": "1132", "@spider": "whitecastle", "amenity": "fast_food", "cuisine": "burger", "takeaway": "yes", "addr:street_address": "919 West Broadway Ave", "addr:city": "Forest Lake", "addr:state": "MN", "addr:postcode": "55025", "name": "MPLS 36", "phone": "6519821600", "website": "https://www.whitecastle.com/locations/1132", "opening_hours": "Mo-Su 09:00-10:00", "brand": "White Castle", "brand:wikidata": "Q1244034", "nsi_id": "whitecastle-4d2ff4"}, "geometry": {"type": "Point", "coordinates": [-92.99531, 45.27977]}},
{"type": "Feature", "id": "71_NTf_y8a4LNkbOKclGbA4T97A=", "properties": {"ref": "906", "@spider": "whitecastle", "amenity": "fast_food", "cuisine": "burger", "takeaway": "yes", "addr:street_address": "9330   BALTIMORE ST", "addr:city": "Blaine", "addr:state": "MN", "addr:postcode": "55434", "name": "MPLS 34", "phone": "7637845123", "website": "https://www.whitecastle.com/locations/906", "opening_hours": "24/7", "brand": "White Castle", "brand:wikidata": "Q1244034", "nsi_id": "whitecastle-4d2ff4"}, "geometry": {"type": "Point", "coordinates": [-93.234366, 45.140873]}},
{"type": "Feature", "id": "qZlSTU2K1tTqTTsCQr-ppLGPIBc=", "properties": {"ref": "1212", "@spider": "whitecastle", "amenity": "fast_food", "cuisine": "burger", "takeaway": "yes", "addr:street_address": "3465 124th Ave North", "addr:city": "Coon Rapids", "addr:state": "MN", "addr:postcode": "55433", "name": "MPLS 37", "phone": "7634210336", "website": "https://www.whitecastle.com/locations/1212", "opening_hours": "Mo-Su 08:00-10:00", "brand": "White Castle", "brand:wikidata": "Q1244034", "nsi_id": "whitecastle-4d2ff4"}, "geometry": {"type": "Point", "coordinates": [-93.353858, 45.196963]}},
{"type": "Feature", "id": "RG_6ZhslllI7Y7tCT3DsK36abJQ=", "properties": {"ref": "1315", "@spider": "whitecastle", "amenity": "fast_food", "cuisine": "burger", "takeaway": "yes", "addr:street_address": "5950 Nova Scotia Avenue North", "addr:city": "Oak Park Heights", "addr:state": "MN", "addr:postcode": "55082", "name": "MPLS 41", "phone": "6513515166", "website": "https://www.whitecastle.com/locations/1315", "opening_hours": "Mo-Th 08:00-09:00; Fr-Sa 08:00-10:00; Su 08:00-09:00", "brand": "White Castle", "brand:wikidata": "Q1244034", "nsi_id": "whitecastle-4d2ff4"}, "geometry": {"type": "Point", "coordinates": [-92.828146, 45.035482]}},
{"type": "Feature", "id": "DSAx69MZofN1TxIXZf9XFkL8uRI=", "properties": {"ref": "279", "@spider": "whitecastle", "amenity": "fast_food", "cuisine": "burger", "takeaway": "yes", "addr:street_address": "5055 CENTRAL AVE NE", "addr:city": "Columbia Heights", "addr:state": "MN", "addr:postcode": "55421", "name": "MPLS 27", "phone": "7635714581", "website": "https://www.whitecastle.com/locations/279", "opening_hours": "Mo-Th 07:00-02:00; Fr 07:00-05:45; Sa 00:00-24:00; Su 06:00-02:00", "brand": "White Castle", "brand:wikidata": "Q1244034", "nsi_id": "whitecastle-4d2ff4"}, "geometry": {"type": "Point", "coordinates": [-93.246921, 45.060522]}},
{"type": "Feature", "id": "6KoinFhUp7v3oq_Y5hb1B7b8skA=", "properties": {"ref": "276", "@spider": "whitecastle", "amenity": "fast_food", "cuisine": "burger", "takeaway": "yes", "addr:street_address": "1601 WHITE BEAR AVE", "addr:city": "St. Paul", "addr:state": "MN", "addr:postcode": "55109", "name": "MPLS 24", "phone": "6517710592", "website": "https://www.whitecastle.com/locations/276", "opening_hours": "Mo 06:00-01:00; Tu-Sa 00:00-24:00; Su 06:00-01:00", "brand": "White Castle", "brand:wikidata": "Q1244034", "nsi_id": "whitecastle-4d2ff4"}, "geometry": {"type": "Point", "coordinates": [-93.025614, 44.989709]}},
{"type": "Feature", "id": "Zydz7rq0pB_Glkh2Q4019xaP23o=", "properties": {"ref": "275", "@spider": "whitecastle", "amenity": "fast_food", "cuisine": "burger", "takeaway": "yes", "addr:street_address": "7741 ZANE AVE N", "addr:city": "Brooklyn Park", "addr:state": "MN", "addr:postcode": "55443", "name": "MPLS 23", "phone": "7635604240", "website": "https://www.whitecastle.com/locations/275", "opening_hours": "24/7", "brand": "White Castle", "brand:wikidata": "Q1244034", "nsi_id": "whitecastle-4d2ff4"}, "geometry": {"type": "Point", "coordinates": [-93.356991, 45.095537]}},
{"type": "Feature", "id": "aDroyW8bQmYIgcbYBEDO6ZdPY5s=", "properties": {"ref": "273", "@spider": "whitecastle", "amenity": "fast_food", "cuisine": "burger", "takeaway": "yes", "addr:street_address": "505 RICE ST", "addr:city": "St. Paul", "addr:state": "MN", "addr:postcode": "55102", "name": "MPLS 21", "phone": "6512900030", "website": "https://www.whitecastle.com/locations/273", "opening_hours": "Mo-We 07:00-10:00; Th 07:00-05:45; Fr-Sa 00:00-24:00; Su 06:00-10:00", "brand": "White Castle", "brand:wikidata": "Q1244034", "nsi_id": "whitecastle-4d2ff4"}, "geometry": {"type": "Point", "coordinates": [-93.106215, 44.956411]}},
{"type": "Feature", "id": "1iqyAdsWlpN-05j3UD4uimDyyAw=", "properties": {"ref": "281", "@spider": "whitecastle", "amenity": "fast_food", "cuisine": "burger", "takeaway": "yes", "addr:street_address": "600 CENTRAL AVE NE", "addr:city": "Minneapolis", "addr:state": "MN", "addr:postcode": "55414", "name": "MPLS 29", "phone": "6123794935", "website": "https://www.whitecastle.com/locations/281", "opening_hours": "24/7", "brand": "White Castle", "brand:wikidata": "Q1244034", "nsi_id": "whitecastle-4d2ff4"}, "geometry": {"type": "Point", "coordinates": [-93.251836, 44.989881]}},
{"type": "Feature", "id": "fQqmPMtZfXtKnRLoswzfq1j2Wlo=", "properties": {"ref": "282", "@spider": "whitecastle", "amenity": "fast_food", "cuisine": "burger", "takeaway": "yes", "addr:street_address": "1120 UNIVERSITY AVE", "addr:city": "St. Paul", "addr:state": "MN", "addr:postcode": "55104", "name": "MPLS 30", "phone": "6516454881", "website": "https://www.whitecastle.com/locations/282", "opening_hours": "Mo-Su 08:00-10:00", "brand": "White Castle", "brand:wikidata": "Q1244034", "nsi_id": "whitecastle-4d2ff4"}, "geometry": {"type": "Point", "coordinates": [-93.147126, 44.955469]}},
{"type": "Feature", "id": "-moUGgiSERBCJY8h6GzGCbGiKnM=", "properties": {"ref": "278", "@spider": "whitecastle", "amenity": "fast_food", "cuisine": "burger", "takeaway": "yes", "addr:street_address": "100 W LAKE ST", "addr:city": "Minneapolis", "addr:state": "MN", "addr:postcode": "55408", "name": "MPLS 26", "phone": "6128275444", "website": "https://www.whitecastle.com/locations/278", "opening_hours": "Mo-We 08:00-10:00; Th 08:00-02:00; Fr 08:00-05:45; Sa 00:00-24:00; Su 06:00-10:00", "brand": "White Castle", "brand:wikidata": "Q1244034", "nsi_id": "whitecastle-4d2ff4"}, "geometry": {"type": "Point", "coordinates": [-93.280015, 44.948551]}},
{"type": "Feature", "id": "vpfUerKFw5iF121arJ2SnfUEKrw=", "properties": {"ref": "277", "@spider": "whitecastle", "amenity": "fast_food", "cuisine": "burger", "takeaway": "yes", "addr:street_address": "4515 S ROBERT TRAIL", "addr:city": "Inver Grove Heights", "addr:state": "MN", "addr:postcode": "55077", "name": "MPLS 25", "phone": "6514550403", "website": "https://www.whitecastle.com/locations/277", "opening_hours": "24/7", "brand": "White Castle", "brand:wikidata": "Q1244034", "nsi_id": "whitecastle-4d2ff4"}, "geometry": {"type": "Point", "coordinates": [-93.081141, 44.8832]}},
{"type": "Feature", "id": "WwYKLURHdrKeoS5xvuKtcuJ805E=", "properties": {"ref": "280", "@spider": "whitecastle", "amenity": "fast_food", "cuisine": "burger", "takeaway": "yes", "addr:street_address": "1111 Cambridge Street", "addr:city": "Hopkins", "addr:state": "MN", "addr:postcode": "55343", "name": "MPLS 28", "phone": "9529335521", "website": "https://www.whitecastle.com/locations/280", "opening_hours": "Mo-We 11:00-07:00; Th-Sa 08:00-11:00; Su 11:00-07:00", "brand": "White Castle", "brand:wikidata": "Q1244034", "nsi_id": "whitecastle-4d2ff4"}, "geometry": {"type": "Point", "coordinates": [-93.387044, 44.934867]}},
{"type": "Feature", "id": "sHdOLphr_SnwEUX5LFEG_RVGlmE=", "properties": {"ref": "1293", "@spider": "whitecastle", "amenity": "fast_food", "cuisine": "burger", "takeaway": "yes", "addr:street_address": "3401 Clark Lane", "addr:city": "Columbia", "addr:state": "MO", "addr:postcode": "65202", "name": "STLS 64", "phone": "5738867829", "website": "https://www.whitecastle.com/locations/1293", "opening_hours": "Mo-Su 08:00-00:00", "brand": "White Castle", "brand:wikidata": "Q1244034", "nsi_id": "whitecastle-4d2ff4"}, "geometry": {"type": "Point", "coordinates": [-92.286856, 38.964333]}},
{"type": "Feature", "id": "rNdMZlcp-12AkDs8tbrIBUymrhc=", "properties": {"ref": "1130", "@spider": "whitecastle", "amenity": "fast_food", "cuisine": "burger", "takeaway": "yes", "addr:street_address": "680 W Karsch Boulevard", "addr:city": "Farmington", "addr:state": "MO", "addr:postcode": "63640", "name": "STLS 53", "phone": "5737471094", "website": "https://www.whitecastle.com/locations/1130", "opening_hours": "Mo-We 06:00-11:00; Th-Fr 06:00-02:00; Sa 06:00-00:00; Su 06:00-11:00", "brand": "White Castle", "brand:wikidata": "Q1244034", "nsi_id": "whitecastle-4d2ff4"}, "geometry": {"type": "Point", "coordinates": [-90.431796, 37.789749]}},
{"type": "Feature", "id": "WN34BZaCwV9g_mErgU9cUKIpH_c=", "properties": {"ref": "1067", "@spider": "whitecastle", "amenity": "fast_food", "cuisine": "burger", "takeaway": "yes", "addr:street_address": "2998 HOMER ADAMS PKY", "addr:city": "Alton", "addr:state": "IL", "addr:postcode": "62002", "name": "STLS 49", "phone": "6184624928", "website": "https://www.whitecastle.com/locations/1067", "opening_hours": "Mo-Su 08:00-02:00", "brand": "White Castle", "brand:wikidata": "Q1244034", "nsi_id": "whitecastle-4d2ff4"}, "geometry": {"type": "Point", "coordinates": [-90.140102, 38.914638]}},
{"type": "Feature", "id": "mer5v49SkQaZMNB22-BNMgzV758=", "properties": {"ref": "403", "@spider": "whitecastle", "amenity": "fast_food", "cuisine": "burger", "takeaway": "yes", "addr:street_address": "840 N  HIGHWAY 67", "addr:city": "Florissant", "addr:state": "MO", "addr:postcode": "63031", "name": "STLS 36", "phone": "3148381946", "website": "https://www.whitecastle.com/locations/403", "opening_hours": "24/7", "brand": "White Castle", "brand:wikidata": "Q1244034", "nsi_id": "whitecastle-4d2ff4"}, "geometry": {"type": "Point", "coordinates": [-90.333331, 38.799763]}},
{"type": "Feature", "id": "dfZIA6o1eYgvSGd1Gt-NDM3nwTg=", "properties": {"ref": "401", "@spider": "whitecastle", "amenity": "fast_food", "cuisine": "burger", "takeaway": "yes", "addr:street_address": "11120 NEW HALLS FERRY RD", "addr:city": "Florissant", "addr:state": "MO", "addr:postcode": "63033", "name": "STLS 34", "phone": "3148311666", "website": "https://www.whitecastle.com/locations/401", "opening_hours": "24/7", "brand": "White Castle", "brand:wikidata": "Q1244034", "nsi_id": "whitecastle-4d2ff4"}, "geometry": {"type": "Point", "coordinates": [-90.269955, 38.773989]}},
{"type": "Feature", "id": "epJB9dNzkgjh6zOWK-FJPf6aFi4=", "properties": {"ref": "1176", "@spider": "whitecastle", "amenity": "fast_food", "cuisine": "burger", "takeaway": "yes", "addr:street_address": "10720 Bellefontaine Rd.", "addr:city": "Bellefontaine Neighbors", "addr:state": "MO", "addr:postcode": "63137", "name": "STLS 55", "phone": "3148691026", "website": "https://www.whitecastle.com/locations/1176", "opening_hours": "24/7", "brand": "White Castle", "brand:wikidata": "Q1244034", "nsi_id": "whitecastle-4d2ff4"}, "geometry": {"type": "Point", "coordinates": [-90.220766, 38.767081]}},
{"type": "Feature", "id": "YMgNq5ixvdNjq6iu9yhFJw94R2M=", "properties": {"ref": "405", "@spider": "whitecastle", "amenity": "fast_food", "cuisine": "burger", "takeaway": "yes", "addr:street_address": "4201 VETERAN'S MEMORIAL PKWY", "addr:city": "St. Peters", "addr:state": "MO", "addr:postcode": "63376", "name": "STLS 38", "phone": "6364414537", "website": "https://www.whitecastle.com/locations/405", "opening_hours": "24/7", "brand": "White Castle", "brand:wikidata": "Q1244034", "nsi_id": "whitecastle-4d2ff4"}, "geometry": {"type": "Point", "coordinates": [-90.576597, 38.795881]}},
{"type": "Feature", "id": "j9gX2_amRhDnLm6X0hls1zezz7k=", "properties": {"ref": "1290", "@spider": "whitecastle", "amenity": "fast_food", "cuisine": "burger", "takeaway": "yes", "addr:street_address": "11979 Paul Mayer Avenue", "addr:city": "Bridgeton", "addr:state": "MO", "addr:postcode": "63044", "name": "STLS 63", "phone": "3147387999", "website": "https://www.whitecastle.com/locations/1290", "opening_hours": "24/7", "brand": "White Castle", "brand:wikidata": "Q1244034", "nsi_id": "whitecastle-4d2ff4"}, "geometry": {"type": "Point", "coordinates": [-90.422699, 38.747361]}},
{"type": "Feature", "id": "cha8e-lL8Xz6RUAdAneOhqhqNmQ=", "properties": {"ref": "396", "@spider": "whitecastle", "amenity": "fast_food", "cuisine": "burger", "takeaway": "yes", "addr:street_address": "9301 NATURAL BRIDGE RD", "addr:city": "Berkeley", "addr:state": "MO", "addr:postcode": "63134", "name": "STLS 29", "phone": "3144275773", "website": "https://www.whitecastle.com/locations/396", "opening_hours": "24/7", "brand": "White Castle", "brand:wikidata": "Q1244034", "nsi_id": "whitecastle-4d2ff4"}, "geometry": {"type": "Point", "coordinates": [-90.336178, 38.722938]}},
{"type": "Feature", "id": "7NUDoDUPVkAP2ELcp0jpbYXCBnw=", "properties": {"ref": "406", "@spider": "whitecastle", "amenity": "fast_food", "cuisine": "burger", "takeaway": "yes", "addr:street_address": "2000  HIGHWAY 94", "addr:city": "St. Charles", "addr:state": "MO", "addr:postcode": "63303-3725", "name": "STLS 39", "phone": "6369462428", "website": "https://www.whitecastle.com/locations/406", "opening_hours": "24/7", "brand": "White Castle", "brand:wikidata": "Q1244034", "nsi_id": "whitecastle-4d2ff4"}, "geometry": {"type": "Point", "coordinates": [-90.535605, 38.75899]}},
{"type": "Feature", "id": "5kVHAEG5ywYImWJ5i0OVa6zXxzc=", "properties": {"ref": "1340", "@spider": "whitecastle", "amenity": "fast_food", "cuisine": "burger", "takeaway": "yes", "addr:street_address": "5231 Jennings Station Road", "addr:city": "Jennings", "addr:state": "MO", "addr:postcode": "63136", "name": "STLS 67", "phone": "3143853233", "website": "https://www.whitecastle.com/locations/1340", "opening_hours": "24/7", "brand": "White Castle", "brand:wikidata": "Q1244034", "nsi_id": "whitecastle-4d2ff4"}, "geometry": {"type": "Point", "coordinates": [-90.270129, 38.706126]}},
{"type": "Feature", "id": "xddrxk8Um-ko9kjfC_9CSgJFSrE=", "properties": {"ref": "410", "@spider": "whitecastle", "amenity": "fast_food", "cuisine": "burger", "takeaway": "yes", "addr:street_address": "12025 DORSETT RD", "addr:city": "St Louis", "addr:state": "MO", "addr:postcode": "63043", "name": "STLS 43", "phone": "3142914853", "website": "https://www.whitecastle.com/locations/410", "opening_hours": "24/7", "brand": "White Castle", "brand:wikidata": "Q1244034", "nsi_id": "whitecastle-4d2ff4"}, "geometry": {"type": "Point", "coordinates": [-90.438409, 38.714929]}},
{"type": "Feature", "id": "vbts-6HCs3dvPCmV7Tux_zqAEO0=", "properties": {"ref": "391", "@spider": "whitecastle", "amenity": "fast_food", "cuisine": "burger", "takeaway": "yes", "addr:street_address": "3524 N KINGS HIGHWAY BLVD", "addr:city": "St. Louis", "addr:state": "MO", "addr:postcode": "63115", "name": "STLS 23", "phone": "3143853576", "website": "https://www.whitecastle.com/locations/391", "opening_hours": "24/7", "brand": "White Castle", "brand:wikidata": "Q1244034", "nsi_id": "whitecastle-4d2ff4"}, "geometry": {"type": "Point", "coordinates": [-90.251687, 38.675818]}},
{"type": "Feature", "id": "eMNkOcautDk9bM1BsCyp1E_Myoo=", "properties": {"ref": "1071", "@spider": "whitecastle", "amenity": "fast_food", "cuisine": "burger", "takeaway": "yes", "addr:street_address": "2212 HIGHWAY K", "addr:city": "O'Fallon", "addr:state": "MO", "addr:postcode": "63366", "name": "STLS 51", "phone": "6362402015", "website": "https://www.whitecastle.com/locations/1071", "opening_hours": "24/7", "brand": "White Castle", "brand:wikidata": "Q1244034", "nsi_id": "whitecastle-4d2ff4"}, "geometry": {"type": "Point", "coordinates": [-90.699289, 38.777634]}},
{"type": "Feature", "id": "wcz70dPkHRmPjJFVQjpI-jATCp8=", "properties": {"ref": "1136", "@spider": "whitecastle", "amenity": "fast_food", "cuisine": "burger", "takeaway": "yes", "addr:street_address": "7380 OLIVE BLVD", "addr:city": "University City", "addr:state": "MO", "addr:postcode": "63130", "name": "STLS 52", "phone": "3147276854", "website": "https://www.whitecastle.com/locations/1136", "opening_hours": "Mo-Tu 06:00-03:00; We 06:00-00:00; Th-Sa 00:00-24:00; Su 06:00-03:00", "brand": "White Castle", "brand:wikidata": "Q1244034", "nsi_id": "whitecastle-4d2ff4"}, "geometry": {"type": "Point", "coordinates": [-90.328995, 38.671076]}},
{"type": "Feature", "id": "tpT5_OfWwpU8-NqJlbYVbEYe-Gw=", "properties": {"ref": "397", "@spider": "whitecastle", "amenity": "fast_food", "cuisine": "burger", "takeaway": "yes", "addr:street_address": "2009 HEBERT ST", "addr:city": "St. Louis", "addr:state": "MO", "addr:postcode": "63107", "name": "STLS 30", "phone": "3142413121", "website": "https://www.whitecastle.com/locations/397", "opening_hours": "24/7", "brand": "White Castle", "brand:wikidata": "Q1244034", "nsi_id": "whitecastle-4d2ff4"}, "geometry": {"type": "Point", "coordinates": [-90.20207, 38.655259]}},
{"type": "Feature", "id": "ckAUHc8disAo57wZtD-K9GeeLj8=", "properties": {"ref": "1369", "@spider": "whitecastle", "amenity": "fast_food", "cuisine": "burger", "takeaway": "yes", "addr:street_address": "716 N. Kingshighway Blvd.", "addr:city": "St. Louis", "addr:state": "MO", "addr:postcode": "63108", "name": "STLS 68", "phone": "3144543929", "website": "https://www.whitecastle.com/locations/1369", "opening_hours": "24/7", "brand": "White Castle", "brand:wikidata": "Q1244034", "nsi_id": "whitecastle-4d2ff4"}, "geometry": {"type": "Point", "coordinates": [-90.262994, 38.652157]}},
{"type": "Feature", "id": "Khl_h-3_DGX9iJ8N0EhdqRJPpzY=", "properties": {"ref": "412", "@spider": "whitecastle", "amenity": "fast_food", "cuisine": "burger", "takeaway": "yes", "addr:street_address": "3 E PORT PLAZA DR", "addr:city": "Collinsville", "addr:state": "IL", "addr:postcode": "62234", "name": "STLS 45", "phone": "6183464328", "website": "https://www.whitecastle.com/locations/412", "opening_hours": "24/7", "brand": "White Castle", "brand:wikidata": "Q1244034", "nsi_id": "whitecastle-4d2ff4"}, "geometry": {"type": "Point", "coordinates": [-89.972013, 38.684431]}},
{"type": "Feature", "id": "cjpEgUiKH34PPyMOJCu-3n56IPk=", "properties": {"ref": "394", "@spider": "whitecastle", "amenity": "fast_food", "cuisine": "burger", "takeaway": "yes", "addr:street_address": "1002 S VANDEVENTER", "addr:city": "St. Louis", "addr:state": "MO", "addr:postcode": "63110", "name": "STLS 27", "phone": "3145333530", "website": "https://www.whitecastle.com/locations/394", "opening_hours": "24/7", "brand": "White Castle", "brand:wikidata": "Q1244034", "nsi_id": "whitecastle-4d2ff4"}, "geometry": {"type": "Point", "coordinates": [-90.247538, 38.627876]}},
{"type": "Feature", "id": "HvrJoCfwjLy3pExisLBvvXbkzjQ=", "properties": {"ref": "411", "@spider": "whitecastle", "amenity": "fast_food", "cuisine": "burger", "takeaway": "yes", "addr:street_address": "806 S BROADWAY ST", "addr:city": "St. Louis", "addr:state": "MO", "addr:postcode": "63102", "name": "STLS 44", "phone": "3142418795", "website": "https://www.whitecastle.com/locations/411", "opening_hours": "24/7", "brand": "White Castle", "brand:wikidata": "Q1244034", "nsi_id": "whitecastle-4d2ff4"}, "geometry": {"type": "Point", "coordinates": [-90.192492, 38.618369]}},
{"type": "Feature", "id": "s-cQxdV9tACeQKv7vakSQOcA5iw=", "properties": {"ref": "1201", "@spider": "whitecastle", "amenity": "fast_food", "cuisine": "burger", "takeaway": "yes", "addr:street_address": "1983 Wentzville Parkway", "addr:city": "Wentzville", "addr:state": "MO", "addr:postcode": "63385", "name": "STLS 58", "phone": "6363325631", "website": "https://www.whitecastle.com/locations/1201", "opening_hours": "Mo-Su 08:00-00:00", "brand": "White Castle", "brand:wikidata": "Q1244034", "nsi_id": "whitecastle-4d2ff4"}, "geometry": {"type": "Point", "coordinates": [-90.877085, 38.816]}},
{"type": "Feature", "id": "DVjpcmBqL9-HcaGP56ASNwJx14M=", "properties": {"ref": "398", "@spider": "whitecastle", "amenity": "fast_food", "cuisine": "burger", "takeaway": "yes", "addr:street_address": "7485 MANCHESTER RD", "addr:city": "Maplewood", "addr:state": "MO", "addr:postcode": "63143", "name": "STLS 31", "phone": "3146441036", "website": "https://www.whitecastle.com/locations/398", "opening_hours": "24/7", "brand": "White Castle", "brand:wikidata": "Q1244034", "nsi_id": "whitecastle-4d2ff4"}, "geometry": {"type": "Point", "coordinates": [-90.322658, 38.612735]}},
{"type": "Feature", "id": "xQH-1GDkpqOpy30fIX4IDlxQXOg=", "properties": {"ref": "399", "@spider": "whitecastle", "amenity": "fast_food", "cuisine": "burger", "takeaway": "yes", "addr:street_address": "3601 GRAVOIS AVE", "addr:city": "St. Louis", "addr:state": "MO", "addr:postcode": "63116", "name": "STLS 32", "phone": "3147730124", "website": "https://www.whitecastle.com/locations/399", "opening_hours": "24/7", "brand": "White Castle", "brand:wikidata": "Q1244034", "nsi_id": "whitecastle-4d2ff4"}, "geometry": {"type": "Point", "coordinates": [-90.244256, 38.592629]}},
{"type": "Feature", "id": "ITq7lrjRPAxZMnSoi4WZUUQ3oQk=", "properties": {"ref": "389", "@spider": "whitecastle", "amenity": "fast_food", "cuisine": "burger", "takeaway": "yes", "addr:street_address": "4524 S KINGS HIGHWAY BLVD", "addr:city": "St. Louis", "addr:state": "MO", "addr:postcode": "63109", "name": "STLS 20", "phone": "3143537099", "website": "https://www.whitecastle.com/locations/389", "opening_hours": "24/7", "brand": "White Castle", "brand:wikidata": "Q1244034", "nsi_id": "whitecastle-4d2ff4"}, "geometry": {"type": "Point", "coordinates": [-90.275915, 38.587042]}},
{"type": "Feature", "id": "tCsAd_2s9u_CrTwJWO8D8h5gaQM=", "properties": {"ref": "404", "@spider": "whitecastle", "amenity": "fast_food", "cuisine": "burger", "takeaway": "yes", "addr:street_address": "13600  MANCHESTER RD", "addr:city": "St. Louis", "addr:state": "MO", "addr:postcode": "63131", "name": "STLS 37", "phone": "3148212272", "website": "https://www.whitecastle.com/locations/404", "opening_hours": "Mo-We 06:00-02:00; Th-Sa 00:00-24:00; Su 06:00-02:00", "brand": "White Castle", "brand:wikidata": "Q1244034", "nsi_id": "whitecastle-4d2ff4"}, "geometry": {"type": "Point", "coordinates": [-90.474253, 38.596317]}},
{"type": "Feature", "id": "D2toZNKML0VZ-zdSQuYNldfEPgo=", "properties": {"ref": "402", "@spider": "whitecastle", "amenity": "fast_food", "cuisine": "burger", "takeaway": "yes", "addr:street_address": "10849 LINCOLN TRL", "addr:city": "Fairview Heights", "addr:state": "IL", "addr:postcode": "62208", "name": "STLS 35", "phone": "6183987608", "website": "https://www.whitecastle.com/locations/402", "opening_hours": "Mo-We 06:00-02:00; Th-Fr 00:00-24:00; Sa-Su 06:00-02:00", "brand": "White Castle", "brand:wikidata": "Q1244034", "nsi_id": "whitecastle-4d2ff4"}, "geometry": {"type": "Point", "coordinates": [-89.990109, 38.59342]}},
{"type": "Feature", "id": "gUvJwFhThnNzQ0Sd7UVQZ5iuMoE=", "properties": {"ref": "1325", "@spider": "whitecastle", "amenity": "fast_food", "cuisine": "burger", "takeaway": "yes", "addr:street_address": "1260 Camp Jackson Road", "addr:city": "Cahokia", "addr:state": "IL", "addr:postcode": "62206", "name": "STLS 66", "phone": "6183370495", "website": "https://www.whitecastle.com/locations/1325", "opening_hours": "Mo-Tu 06:00-03:00; We-Fr 00:00-24:00; Sa-Su 06:00-03:00", "brand": "White Castle", "brand:wikidata": "Q1244034", "nsi_id": "whitecastle-4d2ff4"}, "geometry": {"type": "Point", "coordinates": [-90.173651, 38.559035]}},
{"type": "Feature", "id": "DVZfealaO-mA5TeFfB7uYlJFGXo=", "properties": {"ref": "1147", "@spider": "whitecastle", "amenity": "fast_food", "cuisine": "burger", "takeaway": "yes", "addr:street_address": "1224 S. Kirkwood Rd.", "addr:city": "Kirkwood", "addr:state": "MO", "addr:postcode": "63122", "name": "STLS 54", "phone": "3148222681", "website": "https://www.whitecastle.com/locations/1147", "opening_hours": "Mo-Th 06:00-10:00; Fr-Sa 06:00-01:00; Su 06:00-10:00", "brand": "White Castle", "brand:wikidata": "Q1244034", "nsi_id": "whitecastle-4d2ff4"}, "geometry": {"type": "Point", "coordinates": [-90.405413, 38.561657]}},
{"type": "Feature", "id": "rlul70-6aoQ5FhPN7azqf4qb6lo=", "properties": {"ref": "1300", "@spider": "whitecastle", "amenity": "fast_food", "cuisine": "burger", "takeaway": "yes", "addr:street_address": "1141 N.Greenmount Road", "addr:city": "Belleville", "addr:state": "IL", "addr:postcode": "62221", "name": "STLS 65", "phone": "6186220627", "website": "https://www.whitecastle.com/locations/1300", "opening_hours": "24/7", "brand": "White Castle", "brand:wikidata": "Q1244034", "nsi_id": "whitecastle-4d2ff4"}, "geometry": {"type": "Point", "coordinates": [-89.929648, 38.569328]}},
{"type": "Feature", "id": "w29Vi8m3wdcjX9DMGtLzenecZFs=", "properties": {"ref": "407", "@spider": "whitecastle", "amenity": "fast_food", "cuisine": "burger", "takeaway": "yes", "addr:street_address": "1789 BOWLES AVE", "addr:city": "Fenton", "addr:state": "MO", "addr:postcode": "63026", "name": "STLS 40", "phone": "6363051489", "website": "https://www.whitecastle.com/locations/407", "opening_hours": "Mo-Th 07:00-00:00; Fr-Sa 07:00-02:00; Su 07:00-00:00", "brand": "White Castle", "brand:wikidata": "Q1244034", "nsi_id": "whitecastle-4d2ff4"}, "geometry": {"type": "Point", "coordinates": [-90.473958, 38.541032]}},
{"type": "Feature", "id": "MZxV7THYewuE2EX7-KJnoH6-6rk=", "properties": {"ref": "400", "@spider": "whitecastle", "amenity": "fast_food", "cuisine": "burger", "takeaway": "yes", "addr:street_address": "5615 S LINDBERGH BLVD", "addr:city": "St. Louis", "addr:state": "MO", "addr:postcode": "63123", "name": "STLS 33", "phone": "3148422733", "website": "https://www.whitecastle.com/locations/400", "opening_hours": "24/7", "brand": "White Castle", "brand:wikidata": "Q1244034", "nsi_id": "whitecastle-4d2ff4"}, "geometry": {"type": "Point", "coordinates": [-90.354362, 38.523094]}},
{"type": "Feature", "id": "XReKluDc3uhJLtNd6l4-htg5fyI=", "properties": {"ref": "1273", "@spider": "whitecastle", "amenity": "fast_food", "cuisine": "burger", "takeaway": "yes", "addr:street_address": "5820 Belleville Crossing St.", "addr:city": "Belleville", "addr:state": "IL", "addr:postcode": "62226", "name": "STLS 62", "phone": "6182332385", "website": "https://www.whitecastle.com/locations/1273", "opening_hours": "Mo-Tu 06:00-01:00; We 06:00-02:00; Th-Fr 06:00-03:00; Sa-Su 06:00-01:00", "brand": "White Castle", "brand:wikidata": "Q1244034", "nsi_id": "whitecastle-4d2ff4"}, "geometry": {"type": "Point", "coordinates": [-90.035114, 38.527128]}},
{"type": "Feature", "id": "LsoKPjjbAI9K3OJ5Z0xQSKN4zfU=", "properties": {"ref": "408", "@spider": "whitecastle", "amenity": "fast_food", "cuisine": "burger", "takeaway": "yes", "addr:street_address": "4395 LEMAY FERRY RD", "addr:city": "St. Louis", "addr:state": "MO", "addr:postcode": "63129", "name": "STLS 41", "phone": "3144873637", "website": "https://www.whitecastle.com/locations/408", "opening_hours": "24/7", "brand": "White Castle", "brand:wikidata": "Q1244034", "nsi_id": "whitecastle-4d2ff4"}, "geometry": {"type": "Point", "coordinates": [-90.332467, 38.501788]}},
{"type": "Feature", "id": "6s-TXWQ09Nz7UbFAFBE_uLq8e7M=", "properties": {"ref": "1197", "@spider": "whitecastle", "amenity": "fast_food", "cuisine": "burger", "takeaway": "yes", "addr:street_address": "310 Emerson Rd", "addr:city": "High Ridge", "addr:state": "MO", "addr:postcode": "63049", "name": "STLS 57", "phone": "6366779188", "website": "https://www.whitecastle.com/locations/1197", "opening_hours": "Mo-We 07:00-11:00; Th-Sa 07:00-00:00; Su 07:00-11:00", "brand": "White Castle", "brand:wikidata": "Q1244034", "nsi_id": "whitecastle-4d2ff4"}, "geometry": {"type": "Point", "coordinates": [-90.503644, 38.484302]}},
{"type": "Feature", "id": "mSlmI72u5bhFzXkM4oH98-NaKQw=", "properties": {"ref": "1070", "@spider": "whitecastle", "amenity": "fast_food", "cuisine": "burger", "takeaway": "yes", "addr:street_address": "78 HILLTOP VILLAGE CENTER DR", "addr:city": "Eureka", "addr:state": "MO", "addr:postcode": "63025", "name": "STLS 50", "phone": "6369381137", "website": "https://www.whitecastle.com/locations/1070", "opening_hours": "Mo-We 07:00-00:00; Th-Sa 07:00-03:00; Su 07:00-00:00", "brand": "White Castle", "brand:wikidata": "Q1244034", "nsi_id": "whitecastle-4d2ff4"}, "geometry": {"type": "Point", "coordinates": [-90.640888, 38.504884]}},
{"type": "Feature", "id": "wCa1zU3-04NFCdZwPjj-dvmpI_Y=", "properties": {"ref": "917", "@spider": "whitecastle", "amenity": "fast_food", "cuisine": "burger", "takeaway": "yes", "addr:street_address": "1905   Richardson RD", "addr:city": "Arnold", "addr:state": "MO", "addr:postcode": "63010", "name": "STLS 48", "phone": "6364647240", "website": "https://www.whitecastle.com/locations/917", "opening_hours": "24/7", "brand": "White Castle", "brand:wikidata": "Q1244034", "nsi_id": "whitecastle-4d2ff4"}, "geometry": {"type": "Point", "coordinates": [-90.383057, 38.410717]}},
{"type": "Feature", "id": "aIdgT-bHOJ-KlpHt6X88IMxmi0E=", "properties": {"ref": "1150", "@spider": "whitecastle", "amenity": "fast_food", "cuisine": "burger", "takeaway": "yes", "addr:street_address": "2231 Rt. 59", "addr:city": "Joliet", "addr:state": "IL", "addr:postcode": "60435", "name": "CHIC 87", "phone": "8154365915", "website": "https://www.whitecastle.com/locations/1150", "opening_hours": "Mo-Th 06:00-10:00; Fr-Sa 06:00-03:00; Su 06:00-10:00", "brand": "White Castle", "brand:wikidata": "Q1244034", "nsi_id": "whitecastle-4d2ff4"}, "geometry": {"type": "Point", "coordinates": [-88.200936, 41.562102]}},
{"type": "Feature", "id": "YmL0mcxDuhobuMs-dDkfjzAXj38=", "properties": {"ref": "82", "@spider": "whitecastle", "amenity": "fast_food", "cuisine": "burger", "takeaway": "yes", "addr:street_address": "1803 W JEFFERSON AVE", "addr:city": "Joliet", "addr:state": "IL", "addr:postcode": "60435", "name": "CHIC 50", "phone": "8157251310", "website": "https://www.whitecastle.com/locations/82", "opening_hours": "24/7", "brand": "White Castle", "brand:wikidata": "Q1244034", "nsi_id": "whitecastle-4d2ff4"}, "geometry": {"type": "Point", "coordinates": [-88.14522, 41.522166]}},
{"type": "Feature", "id": "UcdCrkFh3vCH2_O_D-9KcT40QRc=", "properties": {"ref": "695", "@spider": "whitecastle", "amenity": "fast_food", "cuisine": "burger", "takeaway": "yes", "addr:street_address": "1583 N STATE ROUTE 50", "addr:city": "Bradley", "addr:state": "IL", "addr:postcode": "60915", "name": "CHIC 71", "phone": "8159288460", "website": "https://www.whitecastle.com/locations/695", "opening_hours": "24/7", "brand": "White Castle", "brand:wikidata": "Q1244034", "nsi_id": "whitecastle-4d2ff4"}, "geometry": {"type": "Point", "coordinates": [-87.85204, 41.172735]}},
{"type": "Feature", "id": "5GD0rMie0Q-teZNwYMXPybkDHcg=", "properties": {"ref": "1222", "@spider": "whitecastle", "amenity": "fast_food", "cuisine": "burger", "takeaway": "yes", "addr:street_address": "102 Seimers Drive", "addr:city": "Cape Girardeau", "addr:state": "MO", "addr:postcode": "63701", "name": "STLS 59", "phone": "5733351457", "website": "https://www.whitecastle.com/locations/1222", "opening_hours": "Mo-Th 08:00-02:00; Fr 08:00-05:45; Sa 00:00-24:00; Su 06:00-02:00", "brand": "White Castle", "brand:wikidata": "Q1244034", "nsi_id": "whitecastle-4d2ff4"}, "geometry": {"type": "Point", "coordinates": [-89.582143, 37.302361]}},
{"type": "Feature", "id": "8t5eV8JsagXwCMPobat_b-md1Zc=", "properties": {"ref": "1089", "@spider": "whitecastle", "amenity": "fast_food", "cuisine": "burger", "takeaway": "yes", "addr:street_address": "11730 75TH ST", "addr:city": "Kenosha", "addr:state": "WI", "addr:postcode": "53142", "name": "CHIC 82", "phone": "2628572500", "website": "https://www.whitecastle.com/locations/1089", "opening_hours": "Mo-Th 07:00-02:00; Fr-Sa 07:00-04:00; Su 08:00-01:00", "brand": "White Castle", "brand:wikidata": "Q1244034", "nsi_id": "whitecastle-4d2ff4"}, "geometry": {"type": "Point", "coordinates": [-87.948453, 42.568075]}},
{"type": "Feature", "id": "SDTWpiaj28y5BPPOcfQyCq44dOA=", "properties": {"ref": "94", "@spider": "whitecastle", "amenity": "fast_food", "cuisine": "burger", "takeaway": "yes", "addr:street_address": "6290 GRAND AVE", "addr:city": "Gurnee", "addr:state": "IL", "addr:postcode": "60031", "name": "CHIC 62", "phone": "8478559441", "website": "https://www.whitecastle.com/locations/94", "opening_hours": "Mo-Th 08:00-01:00; Fr-Sa 08:00-03:00; Su 09:00-00:00", "brand": "White Castle", "brand:wikidata": "Q1244034", "nsi_id": "whitecastle-4d2ff4"}, "geometry": {"type": "Point", "coordinates": [-87.957162, 42.384478]}},
{"type": "Feature", "id": "fs7XiyvnMkAW57voVng5DLSGoXM=", "properties": {"ref": "1080", "@spider": "whitecastle", "amenity": "fast_food", "cuisine": "burger", "takeaway": "yes", "addr:street_address": "7550 N HARLEM AVE", "addr:city": "Chicago", "addr:state": "IL", "addr:postcode": "60631", "name": "CHIC 79", "phone": "7737637895", "website": "https://www.whitecastle.com/locations/1080", "opening_hours": "24/7", "brand": "White Castle", "brand:wikidata": "Q1244034", "nsi_id": "whitecastle-4d2ff4"}, "geometry": {"type": "Point", "coordinates": [-87.806954, 42.01868]}},
{"type": "Feature", "id": "GA1ES2Jpx9oiz4TXH_zN-StlSDQ=", "properties": {"ref": "1213", "@spider": "whitecastle", "amenity": "fast_food", "cuisine": "burger", "takeaway": "yes", "addr:street_address": "241 North Randall Road", "addr:city": "Algonquin", "addr:state": "IL", "addr:postcode": "60156", "name": "CHIC 94", "phone": "8478546760", "website": "https://www.whitecastle.com/locations/1213", "opening_hours": "Mo-Th 09:00-11:00; Fr-Sa 09:00-02:00; Su 09:00-11:00", "brand": "White Castle", "brand:wikidata": "Q1244034", "nsi_id": "whitecastle-4d2ff4"}, "geometry": {"type": "Point", "coordinates": [-88.334672, 42.178056]}},
{"type": "Feature", "id": "682PxfL-6dtc0LfQz1WAwUtQ984=", "properties": {"ref": "93", "@spider": "whitecastle", "amenity": "fast_food", "cuisine": "burger", "takeaway": "yes", "addr:street_address": "5940 N RIDGE AVE", "addr:city": "Chicago", "addr:state": "IL", "addr:postcode": "60626", "name": "CHIC 61", "phone": "7732719638", "website": "https://www.whitecastle.com/locations/93", "opening_hours": "24/7", "brand": "White Castle", "brand:wikidata": "Q1244034", "nsi_id": "whitecastle-4d2ff4"}, "geometry": {"type": "Point", "coordinates": [-87.67041, 41.989617]}},
{"type": "Feature", "id": "dIcmKECwPLvNieJIaHeJ1TZQ8BA=", "properties": {"ref": "80", "@spider": "whitecastle", "amenity": "fast_food", "cuisine": "burger", "takeaway": "yes", "addr:street_address": "1100 W GOLF RD", "addr:city": "Hoffman Estates", "addr:state": "IL", "addr:postcode": "60169", "name": "CHIC 48", "phone": "8478823891", "website": "https://www.whitecastle.com/locations/80", "opening_hours": "Mo-Tu 06:00-03:00; We-Sa 00:00-24:00; Su 06:00-03:00", "brand": "White Castle", "brand:wikidata": "Q1244034", "nsi_id": "whitecastle-4d2ff4"}, "geometry": {"type": "Point", "coordinates": [-88.107132, 42.048518]}},
{"type": "Feature", "id": "rrYAY2yYsX8oaaaq5382NbtND70=", "properties": {"ref": "55", "@spider": "whitecastle", "amenity": "fast_food", "cuisine": "burger", "takeaway": "yes", "addr:street_address": "3212 W ADDISON ST", "addr:city": "Chicago", "addr:state": "IL", "addr:postcode": "60618", "name": "CHIC 23", "phone": "7735392505", "website": "https://www.whitecastle.com/locations/55", "opening_hours": "24/7", "brand": "White Castle", "brand:wikidata": "Q1244034", "nsi_id": "whitecastle-4d2ff4"}, "geometry": {"type": "Point", "coordinates": [-87.708373, 41.946868]}},
{"type": "Feature", "id": "StSfhaMqU3fn4FUdgxCqgZMa8bY=", "properties": {"ref": "53", "@spider": "whitecastle", "amenity": "fast_food", "cuisine": "burger", "takeaway": "yes", "addr:street_address": "3132 N HARLEM AVE", "addr:city": "Chicago", "addr:state": "IL", "addr:postcode": "60634", "name": "CHIC 21", "phone": "7738891358", "website": "https://www.whitecastle.com/locations/53", "opening_hours": "24/7", "brand": "White Castle", "brand:wikidata": "Q1244034", "nsi_id": "whitecastle-4d2ff4"}, "geometry": {"type": "Point", "coordinates": [-87.807042, 41.937494]}},
{"type": "Feature", "id": "3RkDcSfcMCuA3ebQ2Mq-HUX10jg=", "properties": {"ref": "54", "@spider": "whitecastle", "amenity": "fast_food", "cuisine": "burger", "takeaway": "yes", "addr:street_address": "10339 W GRAND AVE", "addr:city": "Franklin Park", "addr:state": "IL", "addr:postcode": "60131", "name": "CHIC 22", "phone": "8474558812", "website": "https://www.whitecastle.com/locations/54", "opening_hours": "24/7", "brand": "White Castle", "brand:wikidata": "Q1244034", "nsi_id": "whitecastle-4d2ff4"}, "geometry": {"type": "Point", "coordinates": [-87.884163, 41.929632]}},
{"type": "Feature", "id": "ojgsyqXgLvuolhhb2Ao14v0JFXg=", "properties": {"ref": "57", "@spider": "whitecastle", "amenity": "fast_food", "cuisine": "burger", "takeaway": "yes", "addr:street_address": "5618 W NORTH AVE", "addr:city": "Chicago", "addr:state": "IL", "addr:postcode": "60639", "name": "CHIC 25", "phone": "7738890194", "website": "https://www.whitecastle.com/locations/57", "opening_hours": "24/7", "brand": "White Castle", "brand:wikidata": "Q1244034", "nsi_id": "whitecastle-4d2ff4"}, "geometry": {"type": "Point", "coordinates": [-87.766378, 41.909664]}},
{"type": "Feature", "id": "BK_u1gVf96XhO9_ph7o-vWIKKRE=", "properties": {"ref": "98", "@spider": "whitecastle", "amenity": "fast_food", "cuisine": "burger", "takeaway": "yes", "addr:street_address": "840 W NORTH AVE", "addr:city": "Melrose Park", "addr:state": "IL", "addr:postcode": "60160", "name": "CHIC 66", "phone": "7083435486", "website": "https://www.whitecastle.com/locations/98", "opening_hours": "24/7", "brand": "White Castle", "brand:wikidata": "Q1244034", "nsi_id": "whitecastle-4d2ff4"}, "geometry": {"type": "Point", "coordinates": [-87.8445, 41.90782]}},
{"type": "Feature", "id": "JmrByJYq15lTzHWtKU73DMjh1Jg=", "properties": {"ref": "70", "@spider": "whitecastle", "amenity": "fast_food", "cuisine": "burger", "takeaway": "yes", "addr:street_address": "306 W NORTH AVE", "addr:city": "Villa Park", "addr:state": "IL", "addr:postcode": "60181", "name": "CHIC 38", "phone": "6308330047", "website": "https://www.whitecastle.com/locations/70", "opening_hours": "Mo-We 06:00-03:00; Th-Sa 00:00-24:00; Su 06:00-03:00", "brand": "White Castle", "brand:wikidata": "Q1244034", "nsi_id": "whitecastle-4d2ff4"}, "geometry": {"type": "Point", "coordinates": [-87.987175, 41.905699]}},
{"type": "Feature", "id": "NBNYdNIRNHCMaIjl-SPTWFjArrY=", "properties": {"ref": "944", "@spider": "whitecastle", "amenity": "fast_food", "cuisine": "burger", "takeaway": "yes", "addr:street_address": "3901 W MADISON ST", "addr:city": "Chicago", "addr:state": "IL", "addr:postcode": "60624", "name": "CHIC 75", "phone": "7737227568", "website": "https://www.whitecastle.com/locations/944", "opening_hours": "24/7", "brand": "White Castle", "brand:wikidata": "Q1244034", "nsi_id": "whitecastle-4d2ff4"}, "geometry": {"type": "Point", "coordinates": [-87.723583, 41.880551]}},
{"type": "Feature", "id": "mjJ1YQJ1bdoyjPTbC3alKGtXvzA=", "properties": {"ref": "101", "@spider": "whitecastle", "amenity": "fast_food", "cuisine": "burger", "takeaway": "yes", "addr:street_address": "2356 W Roosevelt Rd.", "addr:city": "Chicago", "addr:state": "IL", "addr:postcode": "60608", "name": "CHIC 70", "phone": "3122269472", "website": "https://www.whitecastle.com/locations/101", "opening_hours": "24/7", "brand": "White Castle", "brand:wikidata": "Q1244034", "nsi_id": "whitecastle-4d2ff4"}, "geometry": {"type": "Point", "coordinates": [-87.685715, 41.866885]}},
{"type": "Feature", "id": "MhGqu3BKHDlzjDStJgkvKuQwSzM=", "properties": {"ref": "91", "@spider": "whitecastle", "amenity": "fast_food", "cuisine": "burger", "takeaway": "yes", "addr:street_address": "2209 S CICERO AVE", "addr:city": "Cicero", "addr:state": "IL", "addr:postcode": "60804", "name": "CHIC 59", "phone": "7086564884", "website": "https://www.whitecastle.com/locations/91", "opening_hours": "24/7", "brand": "White Castle", "brand:wikidata": "Q1244034", "nsi_id": "whitecastle-4d2ff4"}, "geometry": {"type": "Point", "coordinates": [-87.743825, 41.850278]}},
{"type": "Feature", "id": "ito16sfnZnkjXD55GG2RWly5uMk=", "properties": {"ref": "83", "@spider": "whitecastle", "amenity": "fast_food", "cuisine": "burger", "takeaway": "yes", "addr:street_address": "110 W NORTH AVE", "addr:city": "Carol Stream", "addr:state": "IL", "addr:postcode": "60188", "name": "CHIC 51", "phone": "6305109111", "website": "https://www.whitecastle.com/locations/83", "opening_hours": "Mo-Tu 07:00-00:00; We-Th 07:00-03:00; Fr-Sa 07:00-04:00; Su 07:00-00:00", "brand": "White Castle", "brand:wikidata": "Q1244034", "nsi_id": "whitecastle-4d2ff4"}, "geometry": {"type": "Point", "coordinates": [-88.121169, 41.90375]}},
{"type": "Feature", "id": "dFrDVuXGin-_1nnBPFtlfHT4zkU=", "properties": {"ref": "95", "@spider": "whitecastle", "amenity": "fast_food", "cuisine": "burger", "takeaway": "yes", "addr:street_address": "2140 S WABASH AVE", "addr:city": "Chicago", "addr:state": "IL", "addr:postcode": "60616", "name": "CHIC 63", "phone": "3129490717", "website": "https://www.whitecastle.com/locations/95", "opening_hours": "24/7", "brand": "White Castle", "brand:wikidata": "Q1244034", "nsi_id": "whitecastle-4d2ff4"}, "geometry": {"type": "Point", "coordinates": [-87.626004, 41.853124]}},
{"type": "Feature", "id": "4oqtQSJRnkdbHd3q79J9cEqNgBM=", "properties": {"ref": "1064", "@spider": "whitecastle", "amenity": "fast_food", "cuisine": "burger", "takeaway": "yes", "addr:street_address": "4 E Roosevelt RD", "addr:city": "Lombard", "addr:state": "IL", "addr:postcode": "60148", "name": "CHIC 77", "phone": "6306295293", "website": "https://www.whitecastle.com/locations/1064", "opening_hours": "Mo-We 07:00-10:00; Th-Fr 07:00-03:00; Sa 07:00-00:00; Su 07:00-10:00", "brand": "White Castle", "brand:wikidata": "Q1244034", "nsi_id": "whitecastle-4d2ff4"}, "geometry": {"type": "Point", "coordinates": [-88.016932, 41.860437]}},
{"type": "Feature", "id": "ShM32a77oQE4X3fVU9FlLDMGzlY=", "properties": {"ref": "86", "@spider": "whitecastle", "amenity": "fast_food", "cuisine": "burger", "takeaway": "yes", "addr:street_address": "3205 S ASHLAND AVE", "addr:city": "Chicago", "addr:state": "IL", "addr:postcode": "60608", "name": "CHIC 54", "phone": "7735233456", "website": "https://www.whitecastle.com/locations/86", "opening_hours": "24/7", "brand": "White Castle", "brand:wikidata": "Q1244034", "nsi_id": "whitecastle-4d2ff4"}, "geometry": {"type": "Point", "coordinates": [-87.665267, 41.835137]}},
{"type": "Feature", "id": "8w3l1e8iwX0Jpe959JTJNM-tmQw=", "properties": {"ref": "51", "@spider": "whitecastle", "amenity": "fast_food", "cuisine": "burger", "takeaway": "yes", "addr:street_address": "7155 W OGDEN AVE", "addr:city": "Berwyn", "addr:state": "IL", "addr:postcode": "60402", "name": "CHIC 19", "phone": "7087956811", "website": "https://www.whitecastle.com/locations/51", "opening_hours": "24/7", "brand": "White Castle", "brand:wikidata": "Q1244034", "nsi_id": "whitecastle-4d2ff4"}, "geometry": {"type": "Point", "coordinates": [-87.778118, 41.832308]}},
{"type": "Feature", "id": "nyACFqtslmPl3dHyyvg-F1vnI20=", "properties": {"ref": "96", "@spider": "whitecastle", "amenity": "fast_food", "cuisine": "burger", "takeaway": "yes", "addr:street_address": "3457 S KING DR", "addr:city": "Chicago", "addr:state": "IL", "addr:postcode": "60616", "name": "CHIC 64", "phone": "7732680922", "website": "https://www.whitecastle.com/locations/96", "opening_hours": "24/7", "brand": "White Castle", "brand:wikidata": "Q1244034", "nsi_id": "whitecastle-4d2ff4"}, "geometry": {"type": "Point", "coordinates": [-87.61644, 41.831511]}},
{"type": "Feature", "id": "h1U5IwxoD7rQ2-rIwtQDnpZvaX0=", "properties": {"ref": "58", "@spider": "whitecastle", "amenity": "fast_food", "cuisine": "burger", "takeaway": "yes", "addr:street_address": "4750 W 63RD ST", "addr:city": "Chicago", "addr:state": "IL", "addr:postcode": "60629", "name": "CHIC 26", "phone": "7737676765", "website": "https://www.whitecastle.com/locations/58", "opening_hours": "24/7", "brand": "White Castle", "brand:wikidata": "Q1244034", "nsi_id": "whitecastle-4d2ff4"}, "geometry": {"type": "Point", "coordinates": [-87.741519, 41.778765]}},
{"type": "Feature", "id": "HH7UsPvaTSCK6PeHMqIg9srkCwM=", "properties": {"ref": "68", "@spider": "whitecastle", "amenity": "fast_food", "cuisine": "burger", "takeaway": "yes", "addr:street_address": "6059 S LAGRANGE RD", "addr:city": "Countryside", "addr:state": "IL", "addr:postcode": "60525", "name": "CHIC 36", "phone": "7083520305", "website": "https://www.whitecastle.com/locations/68", "opening_hours": "24/7", "brand": "White Castle", "brand:wikidata": "Q1244034", "nsi_id": "whitecastle-4d2ff4"}, "geometry": {"type": "Point", "coordinates": [-87.867606, 41.7796]}},
{"type": "Feature", "id": "sLXDsOxd7PKxcWpA1K5HLg1gsRA=", "properties": {"ref": "1185", "@spider": "whitecastle", "amenity": "fast_food", "cuisine": "burger", "takeaway": "yes", "addr:street_address": "6646 South Halsted Street", "addr:city": "Chicago", "addr:state": "IL", "addr:postcode": "60621", "name": "CHIC 90", "phone": "7738731855", "website": "https://www.whitecastle.com/locations/1185", "opening_hours": "24/7", "brand": "White Castle", "brand:wikidata": "Q1244034", "nsi_id": "whitecastle-4d2ff4"}, "geometry": {"type": "Point", "coordinates": [-87.645057, 41.772886]}},
{"type": "Feature", "id": "cUXa76pZvMIbCZRKgfeuZ2cOqZI=", "properties": {"ref": "89", "@spider": "whitecastle", "amenity": "fast_food", "cuisine": "burger", "takeaway": "yes", "addr:street_address": "6901 S. Western Ave.", "addr:city": "Chicago", "addr:state": "IL", "addr:postcode": "60636", "name": "CHIC 57", "phone": "7737760622", "website": "https://www.whitecastle.com/locations/89", "opening_hours": "24/7", "brand": "White Castle", "brand:wikidata": "Q1244034", "nsi_id": "whitecastle-4d2ff4"}, "geometry": {"type": "Point", "coordinates": [-87.682611, 41.768129]}},
{"type": "Feature", "id": "tq6hiEUObUGs6S_i1MnH34JD5Ws=", "properties": {"ref": "56", "@spider": "whitecastle", "amenity": "fast_food", "cuisine": "burger", "takeaway": "yes", "addr:street_address": "7912 S PULASKI RD", "addr:city": "Chicago", "addr:state": "IL", "addr:postcode": "60652", "name": "CHIC 24", "phone": "7735851296", "website": "https://www.whitecastle.com/locations/56", "opening_hours": "24/7", "brand": "White Castle", "brand:wikidata": "Q1244034", "nsi_id": "whitecastle-4d2ff4"}, "geometry": {"type": "Point", "coordinates": [-87.722206, 41.748973]}},
{"type": "Feature", "id": "z99GZMFqp5ULHKhVjUd3_lyAUOg=", "properties": {"ref": "85", "@spider": "whitecastle", "amenity": "fast_food", "cuisine": "burger", "takeaway": "yes", "addr:street_address": "1400 W 79TH ST", "addr:city": "Chicago", "addr:state": "IL", "addr:postcode": "60620", "name": "CHIC 53", "phone": "7736511763", "website": "https://www.whitecastle.com/locations/85", "opening_hours": "24/7", "brand": "White Castle", "brand:wikidata": "Q1244034", "nsi_id": "whitecastle-4d2ff4"}, "geometry": {"type": "Point", "coordinates": [-87.658937, 41.750772]}},
{"type": "Feature", "id": "oRhOTFOVz-m3sFmKEyWECjfPMio=", "properties": {"ref": "61", "@spider": "whitecastle", "amenity": "fast_food", "cuisine": "burger", "takeaway": "yes", "addr:street_address": "7900 S HARLEM AVE", "addr:city": "Bridgeview", "addr:state": "IL", "addr:postcode": "60455", "name": "CHIC 29", "phone": "7085947060", "website": "https://www.whitecastle.com/locations/61", "opening_hours": "24/7", "brand": "White Castle", "brand:wikidata": "Q1244034", "nsi_id": "whitecastle-4d2ff4"}, "geometry": {"type": "Point", "coordinates": [-87.800252, 41.747691]}},
{"type": "Feature", "id": "JJE4pBDVHTPmbU6P1jDavOnDs4Q=", "properties": {"ref": "59", "@spider": "whitecastle", "amenity": "fast_food", "cuisine": "burger", "takeaway": "yes", "addr:street_address": "1550 E 79TH Street", "addr:city": "Chicago", "addr:state": "IL", "addr:postcode": "60619", "name": "CHIC 27", "phone": "7737682453", "website": "https://www.whitecastle.com/locations/59", "opening_hours": "24/7", "brand": "White Castle", "brand:wikidata": "Q1244034", "nsi_id": "whitecastle-4d2ff4"}, "geometry": {"type": "Point", "coordinates": [-87.586777, 41.751815]}},
{"type": "Feature", "id": "_c530UFcmA53na54yDQRLk3FB-4=", "properties": {"ref": "84", "@spider": "whitecastle", "amenity": "fast_food", "cuisine": "burger", "takeaway": "yes", "addr:street_address": "1204 75TH ST", "addr:city": "Downers Grove", "addr:state": "IL", "addr:postcode": "60516", "name": "CHIC 52", "phone": "6309603892", "website": "https://www.whitecastle.com/locations/84", "opening_hours": "Mo-We 07:00-01:00; Th-Fr 07:00-03:00; Sa-Su 07:00-01:00", "brand": "White Castle", "brand:wikidata": "Q1244034", "nsi_id": "whitecastle-4d2ff4"}, "geometry": {"type": "Point", "coordinates": [-88.013262, 41.752666]}},
{"type": "Feature", "id": "0zJfX_3vgkhydh-eAxnB1MoPFZc=", "properties": {"ref": "52", "@spider": "whitecastle", "amenity": "fast_food", "cuisine": "burger", "takeaway": "yes", "addr:street_address": "9501 S CICERO AVE", "addr:city": "Oak Lawn", "addr:state": "IL", "addr:postcode": "60453", "name": "CHIC 20", "phone": "7086366221", "website": "https://www.whitecastle.com/locations/52", "opening_hours": "24/7", "brand": "White Castle", "brand:wikidata": "Q1244034", "nsi_id": "whitecastle-4d2ff4"}, "geometry": {"type": "Point", "coordinates": [-87.74023, 41.719725]}},
{"type": "Feature", "id": "8-lzK5VXJx9nQvjJhwvyEcYuXaw=", "properties": {"ref": "78", "@spider": "whitecastle", "amenity": "fast_food", "cuisine": "burger", "takeaway": "yes", "addr:street_address": "2555 W 95TH ST", "addr:city": "Evergreen Park", "addr:state": "IL", "addr:postcode": "60805", "name": "CHIC 46", "phone": "7084247077", "website": "https://www.whitecastle.com/locations/78", "opening_hours": "24/7", "brand": "White Castle", "brand:wikidata": "Q1244034", "nsi_id": "whitecastle-4d2ff4"}, "geometry": {"type": "Point", "coordinates": [-87.687341, 41.720555]}},
{"type": "Feature", "id": "6Mc_nOOzQVR_LJS-rZd9h67aQLM=", "properties": {"ref": "87", "@spider": "whitecastle", "amenity": "fast_food", "cuisine": "burger", "takeaway": "yes", "addr:street_address": "9450 S JEFFERY AVE", "addr:city": "Chicago", "addr:state": "IL", "addr:postcode": "60617", "name": "CHIC 55", "phone": "7737688328", "website": "https://www.whitecastle.com/locations/87", "opening_hours": "24/7", "brand": "White Castle", "brand:wikidata": "Q1244034", "nsi_id": "whitecastle-4d2ff4"}, "geometry": {"type": "Point", "coordinates": [-87.57577, 41.722838]}},
{"type": "Feature", "id": "Ug1FuCMJrLonafAKZVdnN0pAGLc=", "properties": {"ref": "90", "@spider": "whitecastle", "amenity": "fast_food", "cuisine": "burger", "takeaway": "yes", "addr:street_address": "10301 S MICHIGAN AVE", "addr:city": "Chicago", "addr:state": "IL", "addr:postcode": "60628", "name": "CHIC 58", "phone": "7739956618", "website": "https://www.whitecastle.com/locations/90", "opening_hours": "24/7", "brand": "White Castle", "brand:wikidata": "Q1244034", "nsi_id": "whitecastle-4d2ff4"}, "geometry": {"type": "Point", "coordinates": [-87.619776, 41.706976]}},
{"type": "Feature", "id": "X6G39ylz7E3BQ_rYexR4E3epFr8=", "properties": {"ref": "1194", "@spider": "whitecastle", "amenity": "fast_food", "cuisine": "burger", "takeaway": "yes", "addr:street_address": "10555 Harlem", "addr:city": "Chicago Ridge", "addr:state": "IL", "addr:postcode": "60415", "name": "CHIC 91", "phone": "7089231821", "website": "https://www.whitecastle.com/locations/1194", "opening_hours": "24/7", "brand": "White Castle", "brand:wikidata": "Q1244034", "nsi_id": "whitecastle-4d2ff4"}, "geometry": {"type": "Point", "coordinates": [-87.797217, 41.699378]}},
{"type": "Feature", "id": "yh8EydN_QBakGmYLAIUgHAXJQOo=", "properties": {"ref": "81", "@spider": "whitecastle", "amenity": "fast_food", "cuisine": "burger", "takeaway": "yes", "addr:street_address": "11050 S HALSTED", "addr:city": "Chicago", "addr:state": "IL", "addr:postcode": "60628", "name": "CHIC 49", "phone": "7737852517", "website": "https://www.whitecastle.com/locations/81", "opening_hours": "24/7", "brand": "White Castle", "brand:wikidata": "Q1244034", "nsi_id": "whitecastle-4d2ff4"}, "geometry": {"type": "Point", "coordinates": [-87.642813, 41.692649]}},
{"type": "Feature", "id": "qfniW6FEPAluAb_85IKMbwh_W3M=", "properties": {"ref": "67", "@spider": "whitecastle", "amenity": "fast_food", "cuisine": "burger", "takeaway": "yes", "addr:street_address": "1219 LAKE ST", "addr:city": "Aurora", "addr:state": "IL", "addr:postcode": "60506", "name": "CHIC 35", "phone": "6308590130", "website": "https://www.whitecastle.com/locations/67", "opening_hours": "24/7", "brand": "White Castle", "brand:wikidata": "Q1244034", "nsi_id": "whitecastle-4d2ff4"}, "geometry": {"type": "Point", "coordinates": [-88.316813, 41.78157]}},
{"type": "Feature", "id": "38q_lj53aIg7gnMz2O8DMqxiMeM=", "properties": {"ref": "1277", "@spider": "whitecastle", "amenity": "fast_food", "cuisine": "burger", "takeaway": "yes", "addr:street_address": "4340 US Highway 41", "addr:city": "Terre Haute", "addr:state": "IN", "addr:postcode": "47802", "name": "INDP 57", "phone": "8122355100", "website": "https://www.whitecastle.com/locations/1277", "opening_hours": "Mo-We 07:00-00:00; Th-Fr 07:00-02:00; Sa-Su 07:00-00:00", "brand": "White Castle", "brand:wikidata": "Q1244034", "nsi_id": "whitecastle-4d2ff4"}, "geometry": {"type": "Point", "coordinates": [-87.415056, 39.4157]}},
{"type": "Feature", "id": "z4tybGjFkqK11-s5YhBRo4s5WLM=", "properties": {"ref": "1066", "@spider": "whitecastle", "amenity": "fast_food", "cuisine": "burger", "takeaway": "yes", "addr:street_address": "3060 WILMA RUDOLPH BLVD", "addr:city": "Clarksville", "addr:state": "TN", "addr:postcode": "37040", "name": "NASH 09", "phone": "9316489911", "website": "https://www.whitecastle.com/locations/1066", "opening_hours": "24/7", "brand": "White Castle", "brand:wikidata": "Q1244034", "nsi_id": "whitecastle-4d2ff4"}, "geometry": {"type": "Point", "coordinates": [-87.288991, 36.594324]}},
{"type": "Feature", "id": "RzNcnTZcISZcI4iiNz2Tz-XmWBM=", "properties": {"ref": "680", "@spider": "whitecastle", "amenity": "fast_food", "cuisine": "burger", "takeaway": "yes", "addr:street_address": "1404 BROADWAY", "addr:city": "Nashville", "addr:state": "TN", "addr:postcode": "37203", "name": "NASH 07", "phone": "6153212291", "website": "https://www.whitecastle.com/locations/680", "opening_hours": "Mo-Tu 09:00-10:00; We-Th 09:00-02:00; Fr-Sa 09:00-03:00; Su 09:00-10:00", "brand": "White Castle", "brand:wikidata": "Q1244034", "nsi_id": "whitecastle-4d2ff4"}, "geometry": {"type": "Point", "coordinates": [-86.790459, 36.156277]}},
{"type": "Feature", "id": "QCCiOxDiOQlAPH6bwK-k66_2bs0=", "properties": {"ref": "288", "@spider": "whitecastle", "amenity": "fast_food", "cuisine": "burger", "takeaway": "yes", "addr:street_address": "2901 NOLENSVILLE RD", "addr:city": "Nashville", "addr:state": "TN", "addr:postcode": "37211", "name": "NASH 03", "phone": "6158340156", "website": "https://www.whitecastle.com/locations/288", "opening_hours": "24/7", "brand": "White Castle", "brand:wikidata": "Q1244034", "nsi_id": "whitecastle-4d2ff4"}, "geometry": {"type": "Point", "coordinates": [-86.745468, 36.110476]}},
{"type": "Feature", "id": "Ncsy4HEluSqwpjya8FhL2uStVuo=", "properties": {"ref": "551", "@spider": "whitecastle", "amenity": "fast_food", "cuisine": "burger", "takeaway": "yes", "addr:street_address": "1801 MARKLAND AVE", "addr:city": "Kokomo", "addr:state": "IN", "addr:postcode": "46901", "name": "INDP 40", "phone": "7658682731", "website": "https://www.whitecastle.com/locations/551", "opening_hours": "24/7", "brand": "White Castle", "brand:wikidata": "Q1244034", "nsi_id": "whitecastle-4d2ff4"}, "geometry": {"type": "Point", "coordinates": [-86.155497, 40.476268]}},
{"type": "Feature", "id": "6JJEu7cyT2mMiBEp5iqFyB4ne2Y=", "properties": {"ref": "562", "@spider": "whitecastle", "amenity": "fast_food", "cuisine": "burger", "takeaway": "yes", "addr:street_address": "4723 MEIJER CT", "addr:city": "Lafayette", "addr:state": "IN", "addr:postcode": "47905", "name": "INDP 42", "phone": "7654460707", "website": "https://www.whitecastle.com/locations/562", "opening_hours": "24/7", "brand": "White Castle", "brand:wikidata": "Q1244034", "nsi_id": "whitecastle-4d2ff4"}, "geometry": {"type": "Point", "coordinates": [-86.816052, 40.416868]}},
{"type": "Feature", "id": "9jbUMh6cUGXvMoUliDkfaH-i6ic=", "properties": {"ref": "877", "@spider": "whitecastle", "amenity": "fast_food", "cuisine": "burger", "takeaway": "yes", "addr:street_address": "153 MORTHLAND DR", "addr:city": "Valparaiso", "addr:state": "IN", "addr:postcode": "46383", "name": "CHIC 72", "phone": "2194775535", "website": "https://www.whitecastle.com/locations/877", "opening_hours": "Mo-We 08:00-11:00; Th-Fr 08:00-01:00; Sa 08:00-00:00; Su 08:00-11:00", "brand": "White Castle", "brand:wikidata": "Q1244034", "nsi_id": "whitecastle-4d2ff4"}, "geometry": {"type": "Point", "coordinates": [-87.063051, 41.458352]}},
{"type": "Feature", "id": "O3HABVs_tI4GsKuNRn-AuUwKmK8=", "properties": {"ref": "925", "@spider": "whitecastle", "amenity": "fast_food", "cuisine": "burger", "takeaway": "yes", "addr:street_address": "101 E U.S. 20", "addr:city": "Michigan City", "addr:state": "IN", "addr:postcode": "46360", "name": "CHIC 73", "phone": "2198795837", "website": "https://www.whitecastle.com/locations/925", "opening_hours": "Mo-We 08:00-11:00; Th-Fr 08:00-01:00; Sa 08:00-00:00; Su 08:00-11:00", "brand": "White Castle", "brand:wikidata": "Q1244034", "nsi_id": "whitecastle-4d2ff4"}, "geometry": {"type": "Point", "coordinates": [-86.893271, 41.679494]}},
{"type": "Feature", "id": "pJS8lMEJVGq4LA3qzqyj1Xg6MnU=", "properties": {"ref": "74", "@spider": "whitecastle", "amenity": "fast_food", "cuisine": "burger", "takeaway": "yes", "addr:street_address": "1 E 81ST AVE", "addr:city": "Merrillville", "addr:state": "IN", "addr:postcode": "46410", "name": "CHIC 42", "phone": "2197698051", "website": "https://www.whitecastle.com/locations/74", "opening_hours": "24/7", "brand": "White Castle", "brand:wikidata": "Q1244034", "nsi_id": "whitecastle-4d2ff4"}, "geometry": {"type": "Point", "coordinates": [-87.335035, 41.470474]}},
{"type": "Feature", "id": "ttBOxAHs-NIDpYuvhY9ZEvBIZjA=", "properties": {"ref": "1230", "@spider": "whitecastle", "amenity": "fast_food", "cuisine": "burger", "takeaway": "yes", "addr:street_address": "7996 East Ridge Road", "addr:city": "Hobart", "addr:state": "IN", "addr:postcode": "46342", "name": "CHIC 101", "phone": "2199473698", "website": "https://www.whitecastle.com/locations/1230", "opening_hours": "24/7", "brand": "White Castle", "brand:wikidata": "Q1244034", "nsi_id": "whitecastle-4d2ff4"}, "geometry": {"type": "Point", "coordinates": [-87.241191, 41.551001]}},
{"type": "Feature", "id": "kHZ420NYYCUQeEpM0r6A1Sl3sEg=", "properties": {"ref": "1086", "@spider": "whitecastle", "amenity": "fast_food", "cuisine": "burger", "takeaway": "yes", "addr:street_address": "1304 BROADWAY", "addr:city": "Gary", "addr:state": "IN", "addr:postcode": "46407", "name": "CHIC 80", "phone": "2198821368", "website": "https://www.whitecastle.com/locations/1086", "opening_hours": "24/7", "brand": "White Castle", "brand:wikidata": "Q1244034", "nsi_id": "whitecastle-4d2ff4"}, "geometry": {"type": "Point", "coordinates": [-87.337383, 41.589847]}},
{"type": "Feature", "id": "lKMynRf4Ff3Ev9-x8XQNFtRFapE=", "properties": {"ref": "265", "@spider": "whitecastle", "amenity": "fast_food", "cuisine": "burger", "takeaway": "yes", "addr:street_address": "2006 N MULBERRY ST", "addr:city": "Elizabethtown", "addr:state": "KY", "addr:postcode": "42701", "name": "LVLE 27", "phone": "2707691243", "website": "https://www.whitecastle.com/locations/265", "opening_hours": "24/7", "brand": "White Castle", "brand:wikidata": "Q1244034", "nsi_id": "whitecastle-4d2ff4"}, "geometry": {"type": "Point", "coordinates": [-85.827546, 37.715371]}},
{"type": "Feature", "id": "OT0Se6SMsPvpoGmFRzjJEIKHGQ8=", "properties": {"ref": "1337", "@spider": "whitecastle", "amenity": "fast_food", "cuisine": "burger", "takeaway": "yes", "addr:street_address": "3179 Scottsville Road", "addr:city": "Bowling Green", "addr:state": "KY", "addr:postcode": "42101", "name": "NASH 14", "phone": "2708436111", "website": "https://www.whitecastle.com/locations/1337", "opening_hours": "24/7", "brand": "White Castle", "brand:wikidata": "Q1244034", "nsi_id": "whitecastle-4d2ff4"}, "geometry": {"type": "Point", "coordinates": [-86.421544, 36.940432]}},
{"type": "Feature", "id": "ZkjwmxvnDoihnN5dZziLAMVKs1o=", "properties": {"ref": "1161", "@spider": "whitecastle", "amenity": "fast_food", "cuisine": "burger", "takeaway": "yes", "addr:street_address": "12006 Dixie Highway", "addr:city": "Louisville", "addr:state": "KY", "addr:postcode": "40272", "name": "LVLE 36", "phone": "5029373633", "website": "https://www.whitecastle.com/locations/1161", "opening_hours": "24/7", "brand": "White Castle", "brand:wikidata": "Q1244034", "nsi_id": "whitecastle-4d2ff4"}, "geometry": {"type": "Point", "coordinates": [-85.882962, 38.081155]}},
{"type": "Feature", "id": "ORP74aa4RGTMqpGpPSrjwbBWKf8=", "properties": {"ref": "1151", "@spider": "whitecastle", "amenity": "fast_food", "cuisine": "burger", "takeaway": "yes", "addr:street_address": "2430 Landmark Ave.", "addr:city": "Corydon", "addr:state": "IN", "addr:postcode": "47112", "name": "LVLE 35", "phone": "8127386551", "website": "https://www.whitecastle.com/locations/1151", "opening_hours": "Mo-Th 06:00-01:00; Fr-Sa 06:00-03:30; Su 06:00-01:00", "brand": "White Castle", "brand:wikidata": "Q1244034", "nsi_id": "whitecastle-4d2ff4"}, "geometry": {"type": "Point", "coordinates": [-86.125859, 38.236756]}},
{"type": "Feature", "id": "qSks4Es3P56ROAfy3v6KTCd7DEY=", "properties": {"ref": "263", "@spider": "whitecastle", "amenity": "fast_food", "cuisine": "burger", "takeaway": "yes", "addr:street_address": "175 KEYSTONE CROSS RD", "addr:city": "Shepherdsville", "addr:state": "KY", "addr:postcode": "40165", "name": "LVLE 25", "phone": "5029557103", "website": "https://www.whitecastle.com/locations/263", "opening_hours": "24/7", "brand": "White Castle", "brand:wikidata": "Q1244034", "nsi_id": "whitecastle-4d2ff4"}, "geometry": {"type": "Point", "coordinates": [-85.707392, 37.991848]}},
{"type": "Feature", "id": "J7KvXxSh8FGjtP5ukWdCN-f9mjI=", "properties": {"ref": "257", "@spider": "whitecastle", "amenity": "fast_food", "cuisine": "burger", "takeaway": "yes", "addr:street_address": "7400 DIXIE HWY", "addr:city": "Louisville", "addr:state": "KY", "addr:postcode": "40258", "name": "LVLE 19", "phone": "5029373984", "website": "https://www.whitecastle.com/locations/257", "opening_hours": "24/7", "brand": "White Castle", "brand:wikidata": "Q1244034", "nsi_id": "whitecastle-4d2ff4"}, "geometry": {"type": "Point", "coordinates": [-85.840365, 38.143043]}},
{"type": "Feature", "id": "caNrwevwbwc_lmDz5j5WOB97Css=", "properties": {"ref": "1164", "@spider": "whitecastle", "amenity": "fast_food", "cuisine": "burger", "takeaway": "yes", "addr:street_address": "924 W. Main St.", "addr:city": "Glasgow", "addr:state": "KY", "addr:postcode": "42141", "name": "NASH 11", "phone": "2706590773", "website": "https://www.whitecastle.com/locations/1164", "opening_hours": "24/7", "brand": "White Castle", "brand:wikidata": "Q1244034", "nsi_id": "whitecastle-4d2ff4"}, "geometry": {"type": "Point", "coordinates": [-85.926083, 37.001424]}},
{"type": "Feature", "id": "HZFg0FwSS37l0ri_AWWEIcIa4Kg=", "properties": {"ref": "1073", "@spider": "whitecastle", "amenity": "fast_food", "cuisine": "burger", "takeaway": "yes", "addr:street_address": "5520 NATIONAL TPKE", "addr:city": "Louisville", "addr:state": "KY", "addr:postcode": "40214", "name": "LVLE 31", "phone": "5023618414", "website": "https://www.whitecastle.com/locations/1073", "opening_hours": "24/7", "brand": "White Castle", "brand:wikidata": "Q1244034", "nsi_id": "whitecastle-4d2ff4"}, "geometry": {"type": "Point", "coordinates": [-85.764322, 38.15125]}},
{"type": "Feature", "id": "NtFEHLlUXky2muG3ehP9tHXbAyM=", "properties": {"ref": "251", "@spider": "whitecastle", "amenity": "fast_food", "cuisine": "burger", "takeaway": "yes", "addr:street_address": "3701 7TH STREET", "addr:city": "Louisville", "addr:state": "KY", "addr:postcode": "40216", "name": "LVLE 13", "phone": "5023632605", "website": "https://www.whitecastle.com/locations/251", "opening_hours": "24/7", "brand": "White Castle", "brand:wikidata": "Q1244034", "nsi_id": "whitecastle-4d2ff4"}, "geometry": {"type": "Point", "coordinates": [-85.799442, 38.196349]}},
{"type": "Feature", "id": "uSG2cNYi0DrNYqm7zyrN5VlI2yo=", "properties": {"ref": "1008", "@spider": "whitecastle", "amenity": "fast_food", "cuisine": "burger", "takeaway": "yes", "addr:street_address": "2711 Fern Valley Road", "addr:city": "Louisville", "addr:state": "KY", "addr:postcode": "40213", "name": "LVLE 30", "phone": "5029628438", "website": "https://www.whitecastle.com/locations/1008", "opening_hours": "24/7", "brand": "White Castle", "brand:wikidata": "Q1244034", "nsi_id": "whitecastle-4d2ff4"}, "geometry": {"type": "Point", "coordinates": [-85.714774, 38.157758]}},
{"type": "Feature", "id": "-cK18F9MKXRSnYRCt5M0XqjzK6Q=", "properties": {"ref": "1063", "@spider": "whitecastle", "amenity": "fast_food", "cuisine": "burger", "takeaway": "yes", "addr:street_address": "4108 OUTER LOOP", "addr:city": "Louisville", "addr:state": "KY", "addr:postcode": "40219", "name": "LVLE 29", "phone": "5029683065", "website": "https://www.whitecastle.com/locations/1063", "opening_hours": "24/7", "brand": "White Castle", "brand:wikidata": "Q1244034", "nsi_id": "whitecastle-4d2ff4"}, "geometry": {"type": "Point", "coordinates": [-85.685451, 38.137984]}},
{"type": "Feature", "id": "zNQzxPdrv9Q5Rvxs6VxG9KyJtqw=", "properties": {"ref": "249", "@spider": "whitecastle", "amenity": "fast_food", "cuisine": "burger", "takeaway": "yes", "addr:street_address": "1922 S 7TH ST", "addr:city": "Louisville", "addr:state": "KY", "addr:postcode": "40208", "name": "LVLE 11", "phone": "5026343717", "website": "https://www.whitecastle.com/locations/249", "opening_hours": "24/7", "brand": "White Castle", "brand:wikidata": "Q1244034", "nsi_id": "whitecastle-4d2ff4"}, "geometry": {"type": "Point", "coordinates": [-85.777257, 38.220564]}},
{"type": "Feature", "id": "k1SKw6huRjaPrQryz-TP1hb1KoI=", "properties": {"ref": "248", "@spider": "whitecastle", "amenity": "fast_food", "cuisine": "burger", "takeaway": "yes", "addr:street_address": "793 EASTERN PKY", "addr:city": "Louisville", "addr:state": "KY", "addr:postcode": "40217", "name": "LVLE 10", "phone": "5026343601", "website": "https://www.whitecastle.com/locations/248", "opening_hours": "24/7", "brand": "White Castle", "brand:wikidata": "Q1244034", "nsi_id": "whitecastle-4d2ff4"}, "geometry": {"type": "Point", "coordinates": [-85.743186, 38.215]}},
{"type": "Feature", "id": "F6tWfUHM8c0q7REI16Sv28hxMSQ=", "properties": {"ref": "1215", "@spider": "whitecastle", "amenity": "fast_food", "cuisine": "burger", "takeaway": "yes", "addr:street_address": "6840 Logan Drive Suite J", "addr:city": "Evansville", "addr:state": "IN", "addr:postcode": "47715", "name": "LVLE 37", "phone": "8124749901", "website": "https://www.whitecastle.com/locations/1215", "opening_hours": "Mo-Th 08:00-01:00; Fr-Sa 08:00-03:00; Su 09:00-01:00", "brand": "White Castle", "brand:wikidata": "Q1244034", "nsi_id": "whitecastle-4d2ff4"}, "geometry": {"type": "Point", "coordinates": [-87.468175, 37.995526]}},
{"type": "Feature", "id": "hSPbSwMaBDex5dnBmQsnjchHLmA=", "properties": {"ref": "253", "@spider": "whitecastle", "amenity": "fast_food", "cuisine": "burger", "takeaway": "yes", "addr:street_address": "700 W BROADWAY", "addr:city": "Louisville", "addr:state": "KY", "addr:postcode": "40202", "name": "LVLE 15", "phone": "5025841531", "website": "https://www.whitecastle.com/locations/253", "opening_hours": "24/7", "brand": "White Castle", "brand:wikidata": "Q1244034", "nsi_id": "whitecastle-4d2ff4"}, "geometry": {"type": "Point", "coordinates": [-85.763801, 38.246127]}},
{"type": "Feature", "id": "qvXGmvpl2BzmmiTP5k7xLXtXorA=", "properties": {"ref": "246", "@spider": "whitecastle", "amenity": "fast_food", "cuisine": "burger", "takeaway": "yes", "addr:street_address": "105 E. Market St.", "addr:city": "Louisville", "addr:state": "KY", "addr:postcode": "40202", "name": "LVLE 07", "phone": "5025841529", "website": "https://www.whitecastle.com/locations/246", "opening_hours": "24/7", "brand": "White Castle", "brand:wikidata": "Q1244034", "nsi_id": "whitecastle-4d2ff4"}, "geometry": {"type": "Point", "coordinates": [-85.751263, 38.254849]}},
{"type": "Feature", "id": "zFPT6WUibkW2FWztVWqYD7g6GKI=", "properties": {"ref": "252", "@spider": "whitecastle", "amenity": "fast_food", "cuisine": "burger", "takeaway": "yes", "addr:street_address": "1701 E SPRING ST", "addr:city": "New Albany", "addr:state": "IN", "addr:postcode": "47150", "name": "LVLE 14", "phone": "8129457864", "website": "https://www.whitecastle.com/locations/252", "opening_hours": "24/7", "brand": "White Castle", "brand:wikidata": "Q1244034", "nsi_id": "whitecastle-4d2ff4"}, "geometry": {"type": "Point", "coordinates": [-85.80716, 38.293126]}},
{"type": "Feature", "id": "KJMSUN6ZU2CpcSkGgPXe_x9YpIk=", "properties": {"ref": "255", "@spider": "whitecastle", "amenity": "fast_food", "cuisine": "burger", "takeaway": "yes", "addr:street_address": "3705 BARDSTOWN RD", "addr:city": "Louisville", "addr:state": "KY", "addr:postcode": "40218", "name": "LVLE 17", "phone": "5024564326", "website": "https://www.whitecastle.com/locations/255", "opening_hours": "24/7", "brand": "White Castle", "brand:wikidata": "Q1244034", "nsi_id": "whitecastle-4d2ff4"}, "geometry": {"type": "Point", "coordinates": [-85.659281, 38.198984]}},
{"type": "Feature", "id": "OWBP57bEBLLuD-5dPL-rjktBofQ=", "properties": {"ref": "873", "@spider": "whitecastle", "amenity": "fast_food", "cuisine": "burger", "takeaway": "yes", "addr:street_address": "10910   NEW HAVEN RD", "addr:city": "Harrison", "addr:state": "OH", "addr:postcode": "45030", "name": "CINC 48", "phone": "5133675553", "website": "https://www.whitecastle.com/locations/873", "opening_hours": "24/7", "brand": "White Castle", "brand:wikidata": "Q1244034", "nsi_id": "whitecastle-4d2ff4"}, "geometry": {"type": "Point", "coordinates": [-84.800365, 39.259389]}},
{"type": "Feature", "id": "x7cvpv1NsUBYyQtCkUTqWAC0yBE=", "properties": {"ref": "1321", "@spider": "whitecastle", "amenity": "fast_food", "cuisine": "burger", "takeaway": "yes", "addr:street_address": "1157 Eads Parkway East", "addr:city": "Greendale", "addr:state": "IN", "addr:postcode": "47025", "name": "CINC 73", "phone": "8125370351", "website": "https://www.whitecastle.com/locations/1321", "opening_hours": "24/7", "brand": "White Castle", "brand:wikidata": "Q1244034", "nsi_id": "whitecastle-4d2ff4"}, "geometry": {"type": "Point", "coordinates": [-84.848493, 39.123267]}},
{"type": "Feature", "id": "KOLAvasy4j_YCeEmzTfQFn7p3Zk=", "properties": {"ref": "1296", "@spider": "whitecastle", "amenity": "fast_food", "cuisine": "burger", "takeaway": "yes", "addr:street_address": "1830 Marketplace Boulevard", "addr:city": "Shelbyville", "addr:state": "IN", "addr:postcode": "46176", "name": "INDP 60", "phone": "3174210161", "website": "https://www.whitecastle.com/locations/1296", "opening_hours": "Mo-Th 07:00-01:00; Fr 07:00-05:45; Sa 06:00-01:00; Su 07:00-01:00", "brand": "White Castle", "brand:wikidata": "Q1244034", "nsi_id": "whitecastle-4d2ff4"}, "geometry": {"type": "Point", "coordinates": [-85.747337, 39.521188]}},
{"type": "Feature", "id": "5I8cvQ71_eFBfPYAxkxl-K5Yyis=", "properties": {"ref": "1209", "@spider": "whitecastle", "amenity": "fast_food", "cuisine": "burger", "takeaway": "yes", "addr:street_address": "6517 Harrison Avenue", "addr:city": "Cincinnati", "addr:state": "OH", "addr:postcode": "45247", "name": "CINC 65", "phone": "5135740851", "website": "https://www.whitecastle.com/locations/1209", "opening_hours": "Mo-We 07:00-11:00; Th 07:00-05:45; Fr-Sa 00:00-24:00; Su 06:00-00:00", "brand": "White Castle", "brand:wikidata": "Q1244034", "nsi_id": "whitecastle-4d2ff4"}, "geometry": {"type": "Point", "coordinates": [-84.659711, 39.192799]}},
{"type": "Feature", "id": "KY41W9S9AlMCoIxanowfZdjC-qo=", "properties": {"ref": "220", "@spider": "whitecastle", "amenity": "fast_food", "cuisine": "burger", "takeaway": "yes", "addr:street_address": "1686 NATIONAL RD", "addr:city": "Columbus", "addr:state": "IN", "addr:postcode": "47201", "name": "INDP 23", "phone": "8123781077", "website": "https://www.whitecastle.com/locations/220", "opening_hours": "24/7", "brand": "White Castle", "brand:wikidata": "Q1244034", "nsi_id": "whitecastle-4d2ff4"}, "geometry": {"type": "Point", "coordinates": [-85.88429, 39.216505]}},
{"type": "Feature", "id": "0InEI_YUR90eTFvxvEwJPpT7YnI=", "properties": {"ref": "119", "@spider": "whitecastle", "amenity": "fast_food", "cuisine": "burger", "takeaway": "yes", "addr:street_address": "9740 COLERAIN AVE", "addr:city": "Colerain Twp", "addr:state": "OH", "addr:postcode": "45251", "name": "CINC 25", "phone": "5133855464", "website": "https://www.whitecastle.com/locations/119", "opening_hours": "24/7", "brand": "White Castle", "brand:wikidata": "Q1244034", "nsi_id": "whitecastle-4d2ff4"}, "geometry": {"type": "Point", "coordinates": [-84.596351, 39.248495]}},
{"type": "Feature", "id": "YNOVY-VX9ML2iko0HsydGW62y1Q=", "properties": {"ref": "1159", "@spider": "whitecastle", "amenity": "fast_food", "cuisine": "burger", "takeaway": "yes", "addr:street_address": "1742 Wildcat Blvd.", "addr:city": "Burlington", "addr:state": "KY", "addr:postcode": "41005", "name": "CINC 59", "phone": "8592828150", "website": "https://www.whitecastle.com/locations/1159", "opening_hours": "Mo-Su 07:00-11:00", "brand": "White Castle", "brand:wikidata": "Q1244034", "nsi_id": "whitecastle-4d2ff4"}, "geometry": {"type": "Point", "coordinates": [-84.689688, 39.019888]}},
{"type": "Feature", "id": "yL9S04Q8CPtQYWh2aq8m0bgXekY=", "properties": {"ref": "111", "@spider": "whitecastle", "amenity": "fast_food", "cuisine": "burger", "takeaway": "yes", "addr:street_address": "3201 HARRISON AVE", "addr:city": "Cincinnati", "addr:state": "OH", "addr:postcode": "45211", "name": "CINC 17", "phone": "5136626000", "website": "https://www.whitecastle.com/locations/111", "opening_hours": "24/7", "brand": "White Castle", "brand:wikidata": "Q1244034", "nsi_id": "whitecastle-4d2ff4"}, "geometry": {"type": "Point", "coordinates": [-84.603497, 39.153683]}},
{"type": "Feature", "id": "jTTKTbjgThEGf2TbFxjKZ_YdwpU=", "properties": {"ref": "1055", "@spider": "whitecastle", "amenity": "fast_food", "cuisine": "burger", "takeaway": "yes", "addr:street_address": "5301 DELHI PIKE", "addr:city": "Delhi", "addr:state": "OH", "addr:postcode": "45238", "name": "CINC 53", "phone": "5134513720", "website": "https://www.whitecastle.com/locations/1055", "opening_hours": "Mo-We 11:00-07:00; Th-Sa 07:00-11:00; Su 11:00-07:00", "brand": "White Castle", "brand:wikidata": "Q1244034", "nsi_id": "whitecastle-4d2ff4"}, "geometry": {"type": "Point", "coordinates": [-84.61861, 39.093465]}},
{"type": "Feature", "id": "chwyTLmILefK95n4q7M6t_B-zDo=", "properties": {"ref": "1083", "@spider": "whitecastle", "amenity": "fast_food", "cuisine": "burger", "takeaway": "yes", "addr:street_address": "7315 HAMILTON AVE", "addr:city": "Cincinnati", "addr:state": "OH", "addr:postcode": "45231", "name": "CINC 54", "phone": "5135229800", "website": "https://www.whitecastle.com/locations/1083", "opening_hours": "Mo-We 07:00-11:00; Th 07:00-05:45; Fr 00:00-24:00; Sa 06:00-00:00; Su 07:00-11:00", "brand": "White Castle", "brand:wikidata": "Q1244034", "nsi_id": "whitecastle-4d2ff4"}, "geometry": {"type": "Point", "coordinates": [-84.549027, 39.227944]}},
{"type": "Feature", "id": "Rt-LMQAqD_lipAJeo3bqMLCjpPM=", "properties": {"ref": "1281", "@spider": "whitecastle", "amenity": "fast_food", "cuisine": "burger", "takeaway": "yes", "addr:street_address": "851 High Street", "addr:city": "Hamilton", "addr:state": "OH", "addr:postcode": "45011", "name": "CINC 70", "phone": "5137375504", "website": "https://www.whitecastle.com/locations/1281", "opening_hours": "24/7", "brand": "White Castle", "brand:wikidata": "Q1244034", "nsi_id": "whitecastle-4d2ff4"}, "geometry": {"type": "Point", "coordinates": [-84.551928, 39.396397]}},
{"type": "Feature", "id": "g9Zr8KdbN7xWfrdBZrvkpfaelfI=", "properties": {"ref": "1166", "@spider": "whitecastle", "amenity": "fast_food", "cuisine": "burger", "takeaway": "yes", "addr:street_address": "5590 Dixie Highway", "addr:city": "Hamilton", "addr:state": "OH", "addr:postcode": "45014", "name": "CINC 61", "phone": "5139421186", "website": "https://www.whitecastle.com/locations/1166", "opening_hours": "Mo-Th 07:00-10:00; Fr 07:00-05:45; Sa 00:00-24:00; Su 06:00-10:00", "brand": "White Castle", "brand:wikidata": "Q1244034", "nsi_id": "whitecastle-4d2ff4"}, "geometry": {"type": "Point", "coordinates": [-84.521757, 39.333082]}},
{"type": "Feature", "id": "AjHwoG_LmILcPhvPJSrCQkcRS8U=", "properties": {"ref": "121", "@spider": "whitecastle", "amenity": "fast_food", "cuisine": "burger", "takeaway": "yes", "addr:street_address": "8101 U.S. 42", "addr:city": "Florence", "addr:state": "KY", "addr:postcode": "41042", "name": "CINC 27", "phone": "8593718090", "website": "https://www.whitecastle.com/locations/121", "opening_hours": "24/7", "brand": "White Castle", "brand:wikidata": "Q1244034", "nsi_id": "whitecastle-4d2ff4"}, "geometry": {"type": "Point", "coordinates": [-84.645164, 38.982302]}},
{"type": "Feature", "id": "7LZDoAapy26FpObVybLkVpozWzE=", "properties": {"ref": "112", "@spider": "whitecastle", "amenity": "fast_food", "cuisine": "burger", "takeaway": "yes", "addr:street_address": "3940 LUDLOW AVE", "addr:city": "Cincinnati", "addr:state": "OH", "addr:postcode": "45223", "name": "CINC 18", "phone": "5135427291", "website": "https://www.whitecastle.com/locations/112", "opening_hours": "Mo-We 07:00-11:00; Th 07:00-05:45; Fr-Sa 00:00-24:00; Su 06:00-11:00", "brand": "White Castle", "brand:wikidata": "Q1244034", "nsi_id": "whitecastle-4d2ff4"}, "geometry": {"type": "Point", "coordinates": [-84.539031, 39.158378]}},
{"type": "Feature", "id": "RQTs_uizOh62nZp3H9QQH_6YhUU=", "properties": {"ref": "133", "@spider": "whitecastle", "amenity": "fast_food", "cuisine": "burger", "takeaway": "yes", "addr:street_address": "3030 CENTRAL PARKWAY", "addr:city": "Cincinnati", "addr:state": "OH", "addr:postcode": "45225", "name": "CINC 39", "phone": "5138613222", "website": "https://www.whitecastle.com/locations/133", "opening_hours": "24/7", "brand": "White Castle", "brand:wikidata": "Q1244034", "nsi_id": "whitecastle-4d2ff4"}, "geometry": {"type": "Point", "coordinates": [-84.532581, 39.138926]}},
{"type": "Feature", "id": "-hb1L3TAfYwIqIvTBhRG7H9RZcI=", "properties": {"ref": "137", "@spider": "whitecastle", "amenity": "fast_food", "cuisine": "burger", "takeaway": "yes", "addr:street_address": "3150 DIXIE HWY", "addr:city": "Erlanger", "addr:state": "KY", "addr:postcode": "41018", "name": "CINC 43", "phone": "8593449772", "website": "https://www.whitecastle.com/locations/137", "opening_hours": "Mo-Su 10:00-11:00", "brand": "White Castle", "brand:wikidata": "Q1244034", "nsi_id": "whitecastle-4d2ff4"}, "geometry": {"type": "Point", "coordinates": [-84.593222, 39.020414]}},
{"type": "Feature", "id": "t20s-KXfu3VTaMbEIPtmexAuoig=", "properties": {"ref": "1286", "@spider": "whitecastle", "amenity": "fast_food", "cuisine": "burger", "takeaway": "yes", "addr:street_address": "1970 East Tipton Street", "addr:city": "Seymour", "addr:state": "IN", "addr:postcode": "47274", "name": "INDP 59", "phone": "8125233275", "website": "https://www.whitecastle.com/locations/1286", "opening_hours": "24/7", "brand": "White Castle", "brand:wikidata": "Q1244034", "nsi_id": "whitecastle-4d2ff4"}, "geometry": {"type": "Point", "coordinates": [-85.855941, 38.957621]}},
{"type": "Feature", "id": "YoC1xpSp5t3Y8RUmg2X083ozCRQ=", "properties": {"ref": "120", "@spider": "whitecastle", "amenity": "fast_food", "cuisine": "burger", "takeaway": "yes", "addr:street_address": "11575 SPRINGFIELD PIKE", "addr:city": "Springdale", "addr:state": "OH", "addr:postcode": "45246", "name": "CINC 26", "phone": "5137714355", "website": "https://www.whitecastle.com/locations/120", "opening_hours": "24/7", "brand": "White Castle", "brand:wikidata": "Q1244034", "nsi_id": "whitecastle-4d2ff4"}, "geometry": {"type": "Point", "coordinates": [-84.485571, 39.286269]}},
{"type": "Feature", "id": "pTUsOiqFPnnUJUmP4UYfvURFiIk=", "properties": {"ref": "1165", "@spider": "whitecastle", "amenity": "fast_food", "cuisine": "burger", "takeaway": "yes", "addr:street_address": "64 W. Mitchell", "addr:city": "Cincinnati", "addr:state": "OH", "addr:postcode": "45217", "name": "CINC 60", "phone": "5136414000", "website": "https://www.whitecastle.com/locations/1165", "opening_hours": "Mo-Tu 07:00-11:00; We 07:00-05:45; Th-Fr 00:00-24:00; Sa 06:00-00:00; Su 07:00-11:00", "brand": "White Castle", "brand:wikidata": "Q1244034", "nsi_id": "whitecastle-4d2ff4"}, "geometry": {"type": "Point", "coordinates": [-84.506565, 39.161645]}},
{"type": "Feature", "id": "Tkx2DFLpbcc8PRczu8Es38HgCHk=", "properties": {"ref": "1206", "@spider": "whitecastle", "amenity": "fast_food", "cuisine": "burger", "takeaway": "yes", "addr:street_address": "811 West 8th Street", "addr:city": "Cincinnati", "addr:state": "OH", "addr:postcode": "45203", "name": "CINC 64", "phone": "5133812300", "website": "https://www.whitecastle.com/locations/1206", "opening_hours": "24/7", "brand": "White Castle", "brand:wikidata": "Q1244034", "nsi_id": "whitecastle-4d2ff4"}, "geometry": {"type": "Point", "coordinates": [-84.528977, 39.102753]}},
{"type": "Feature", "id": "7uEe1KjJRnfpoW1Y6Vp5ip32JKk=", "properties": {"ref": "138", "@spider": "whitecastle", "amenity": "fast_food", "cuisine": "burger", "takeaway": "yes", "addr:street_address": "596 3RD ST", "addr:city": "Covington", "addr:state": "KY", "addr:postcode": "41011", "name": "CINC 44", "phone": "8594314632", "website": "https://www.whitecastle.com/locations/138", "opening_hours": "24/7", "brand": "White Castle", "brand:wikidata": "Q1244034", "nsi_id": "whitecastle-4d2ff4"}, "geometry": {"type": "Point", "coordinates": [-84.5197, 39.087736]}},
{"type": "Feature", "id": "fZo06j5yE_R12Kgqq6NMU0iwV24=", "properties": {"ref": "110", "@spider": "whitecastle", "amenity": "fast_food", "cuisine": "burger", "takeaway": "yes", "addr:street_address": "2650 READING RD", "addr:city": "Cincinnati", "addr:state": "OH", "addr:postcode": "45206", "name": "CINC 16", "phone": "5139612426", "website": "https://www.whitecastle.com/locations/110", "opening_hours": "Mo-Su 07:00-10:00", "brand": "White Castle", "brand:wikidata": "Q1244034", "nsi_id": "whitecastle-4d2ff4"}, "geometry": {"type": "Point", "coordinates": [-84.498519, 39.128711]}},
{"type": "Feature", "id": "uFUbJL5F1uXjS5oH2p1mkBWzweI=", "properties": {"ref": "481", "@spider": "whitecastle", "amenity": "fast_food", "cuisine": "burger", "takeaway": "yes", "addr:street_address": "7400 VINE ST", "addr:city": "Cincinnati", "addr:state": "OH", "addr:postcode": "45216", "name": "CINC 45", "phone": "5139481171", "website": "https://www.whitecastle.com/locations/481", "opening_hours": "24/7", "brand": "White Castle", "brand:wikidata": "Q1244034", "nsi_id": "whitecastle-4d2ff4"}, "geometry": {"type": "Point", "coordinates": [-84.476715, 39.197207]}},
{"type": "Feature", "id": "cFdjNAMM28goOSCyCTl3ZamPdPc=", "properties": {"ref": "1237", "@spider": "whitecastle", "amenity": "fast_food", "cuisine": "burger", "takeaway": "yes", "addr:street_address": "482 Orphanage Road", "addr:city": "Ft. Wright", "addr:state": "KY", "addr:postcode": "41017", "name": "CINC 68", "phone": "8593310067", "website": "https://www.whitecastle.com/locations/1237", "opening_hours": "Mo-We 07:00-11:00; Th 07:00-05:45; Fr 00:00-24:00; Sa 06:00-00:00; Su 07:00-11:00", "brand": "White Castle", "brand:wikidata": "Q1244034", "nsi_id": "whitecastle-4d2ff4"}, "geometry": {"type": "Point", "coordinates": [-84.537019, 39.032437]}},
{"type": "Feature", "id": "5Ac2-SYwxIK3nV83k_qb-TDHivw=", "properties": {"ref": "903", "@spider": "whitecastle", "amenity": "fast_food", "cuisine": "burger", "takeaway": "yes", "addr:street_address": "169 WINNING COLORS DR", "addr:city": "Richwood", "addr:state": "KY", "addr:postcode": "41094", "name": "CINC 50", "phone": "8594858595", "website": "https://www.whitecastle.com/locations/903", "opening_hours": "Mo 06:00-11:00; Tu 07:00-11:00; We 07:00-05:45; Th-Su 00:00-24:00", "brand": "White Castle", "brand:wikidata": "Q1244034", "nsi_id": "whitecastle-4d2ff4"}, "geometry": {"type": "Point", "coordinates": [-84.627494, 38.918394]}},
{"type": "Feature", "id": "pF0HAUf6tkV8nhRZWuVLvKFAkl0=", "properties": {"ref": "106", "@spider": "whitecastle", "amenity": "fast_food", "cuisine": "burger", "takeaway": "yes", "addr:street_address": "8853 READING RD", "addr:city": "Reading", "addr:state": "OH", "addr:postcode": "45215", "name": "CINC 11", "phone": "5138213440", "website": "https://www.whitecastle.com/locations/106", "opening_hours": "Mo-Su 07:00-11:00", "brand": "White Castle", "brand:wikidata": "Q1244034", "nsi_id": "whitecastle-4d2ff4"}, "geometry": {"type": "Point", "coordinates": [-84.441656, 39.22214]}},
{"type": "Feature", "id": "JG8YfHxWwaI7kw-L9xJ4LxiJ9GU=", "properties": {"ref": "118", "@spider": "whitecastle", "amenity": "fast_food", "cuisine": "burger", "takeaway": "yes", "addr:street_address": "5075 MONTGOMERY RD", "addr:city": "Norwood", "addr:state": "OH", "addr:postcode": "45212", "name": "CINC 24", "phone": "5136314450", "website": "https://www.whitecastle.com/locations/118", "opening_hours": "24/7", "brand": "White Castle", "brand:wikidata": "Q1244034", "nsi_id": "whitecastle-4d2ff4"}, "geometry": {"type": "Point", "coordinates": [-84.45355, 39.16725]}},
{"type": "Feature", "id": "TiI04wBasIpchAWI-d8iOTjZcXU=", "properties": {"ref": "231", "@spider": "whitecastle", "amenity": "fast_food", "cuisine": "burger", "takeaway": "yes", "addr:street_address": "2283 N STATE ST", "addr:city": "Greenfield", "addr:state": "IN", "addr:postcode": "46140", "name": "INDP 34", "phone": "3174670865", "website": "https://www.whitecastle.com/locations/231", "opening_hours": "24/7", "brand": "White Castle", "brand:wikidata": "Q1244034", "nsi_id": "whitecastle-4d2ff4"}, "geometry": {"type": "Point", "coordinates": [-85.769128, 39.818253]}},
{"type": "Feature", "id": "g9eQs-Wb02ko4XAt5xs3pRpk8Bo=", "properties": {"ref": "123", "@spider": "whitecastle", "amenity": "fast_food", "cuisine": "burger", "takeaway": "yes", "addr:street_address": "3980 HAUCK RD", "addr:city": "Sharonville", "addr:state": "OH", "addr:postcode": "45241", "name": "CINC 29", "phone": "5137690939", "website": "https://www.whitecastle.com/locations/123", "opening_hours": "24/7", "brand": "White Castle", "brand:wikidata": "Q1244034", "nsi_id": "whitecastle-4d2ff4"}, "geometry": {"type": "Point", "coordinates": [-84.394919, 39.291222]}},
{"type": "Feature", "id": "8yv951hCjpJaOGCRczfAGd8RVSI=", "properties": {"ref": "1266", "@spider": "whitecastle", "amenity": "fast_food", "cuisine": "burger", "takeaway": "yes", "addr:street_address": "1129 N. Morton Street", "addr:city": "Franklin", "addr:state": "IN", "addr:postcode": "46131", "name": "INDP 56", "phone": "3177382839", "website": "https://www.whitecastle.com/locations/1266", "opening_hours": "Mo-We 08:00-10:00; Th-Sa 08:00-00:00; Su 08:00-10:00", "brand": "White Castle", "brand:wikidata": "Q1244034", "nsi_id": "whitecastle-4d2ff4"}, "geometry": {"type": "Point", "coordinates": [-86.063813, 39.491837]}},
{"type": "Feature", "id": "VtCTEHANK6tCteM2NdfqY3zC8wM=", "properties": {"ref": "1282", "@spider": "whitecastle", "amenity": "fast_food", "cuisine": "burger", "takeaway": "yes", "addr:street_address": "8111 HIGHLAND POINTE DRIVE", "addr:city": "West Chester", "addr:state": "OH", "addr:postcode": "45069", "name": "CINC 71", "phone": "5137556000", "website": "https://www.whitecastle.com/locations/1282", "opening_hours": "Mo-Su 10:00-10:00", "brand": "White Castle", "brand:wikidata": "Q1244034", "nsi_id": "whitecastle-4d2ff4"}, "geometry": {"type": "Point", "coordinates": [-84.39483, 39.349433]}},
{"type": "Feature", "id": "1yL9z4PtDw1pwGefWsXBcOgvRwI=", "properties": {"ref": "1198", "@spider": "whitecastle", "amenity": "fast_food", "cuisine": "burger", "takeaway": "yes", "addr:street_address": "125 Plaza Drive", "addr:city": "Cold Spring", "addr:state": "KY", "addr:postcode": "41076", "name": "CINC 62", "phone": "8594427698", "website": "https://www.whitecastle.com/locations/1198", "opening_hours": "24/7", "brand": "White Castle", "brand:wikidata": "Q1244034", "nsi_id": "whitecastle-4d2ff4"}, "geometry": {"type": "Point", "coordinates": [-84.42432, 39.00302]}},
{"type": "Feature", "id": "lpq_YwuC6F5IiNUOfnieEsUXmFo=", "properties": {"ref": "1121", "@spider": "whitecastle", "amenity": "fast_food", "cuisine": "burger", "takeaway": "yes", "addr:street_address": "4780 Roosevelt Boulevard", "addr:city": "Middletown", "addr:state": "OH", "addr:postcode": "45044", "name": "CINC 56", "phone": "5134238870", "website": "https://www.whitecastle.com/locations/1121", "opening_hours": "Mo-Su 07:00-11:00", "brand": "White Castle", "brand:wikidata": "Q1244034", "nsi_id": "whitecastle-4d2ff4"}, "geometry": {"type": "Point", "coordinates": [-84.344572, 39.499295]}},
{"type": "Feature", "id": "yfaRofuxnSl0JbQA0x4F7Tj16_c=", "properties": {"ref": "1053", "@spider": "whitecastle", "amenity": "fast_food", "cuisine": "burger", "takeaway": "yes", "addr:street_address": "10053 East Washington St", "addr:city": "Indianapolis", "addr:state": "IN", "addr:postcode": "46229", "name": "INDP 47", "phone": "3178971247", "website": "https://www.whitecastle.com/locations/1053", "opening_hours": "Mo-We 07:00-11:00; Th-Fr 07:00-02:00; Sa 07:00-00:00; Su 07:00-11:00", "brand": "White Castle", "brand:wikidata": "Q1244034", "nsi_id": "whitecastle-4d2ff4"}, "geometry": {"type": "Point", "coordinates": [-85.989199, 39.773562]}},
{"type": "Feature", "id": "mQcj4Zn0H9DWh6jZykrxUdOYx5E=", "properties": {"ref": "222", "@spider": "whitecastle", "amenity": "fast_food", "cuisine": "burger", "takeaway": "yes", "addr:street_address": "4520 S EMERSON AVE", "addr:city": "Indianapolis", "addr:state": "IN", "addr:postcode": "46107", "name": "INDP 25", "phone": "3177837449", "website": "https://www.whitecastle.com/locations/222", "opening_hours": "24/7", "brand": "White Castle", "brand:wikidata": "Q1244034", "nsi_id": "whitecastle-4d2ff4"}, "geometry": {"type": "Point", "coordinates": [-86.083153, 39.701536]}},
{"type": "Feature", "id": "v2KZYxrZt6cMg8MMQGLyBJElM0w=", "properties": {"ref": "1229", "@spider": "whitecastle", "amenity": "fast_food", "cuisine": "burger", "takeaway": "yes", "addr:street_address": "4010 Williams Drive", "addr:city": "Cincinnati", "addr:state": "OH", "addr:postcode": "45255", "name": "CINC 67", "phone": "5135280266", "website": "https://www.whitecastle.com/locations/1229", "opening_hours": "24/7", "brand": "White Castle", "brand:wikidata": "Q1244034", "nsi_id": "whitecastle-4d2ff4"}, "geometry": {"type": "Point", "coordinates": [-84.302609, 39.069511]}},
{"type": "Feature", "id": "GfYw3JRAsUy5cghQcS-c6e-A8XI=", "properties": {"ref": "1021", "@spider": "whitecastle", "amenity": "fast_food", "cuisine": "burger", "takeaway": "yes", "addr:street_address": "6901 SR 123", "addr:city": "Franklin", "addr:state": "OH", "addr:postcode": "45005", "name": "CINC 52", "phone": "9377432646", "website": "https://www.whitecastle.com/locations/1021", "opening_hours": "Mo-Su 08:00-11:00", "brand": "White Castle", "brand:wikidata": "Q1244034", "nsi_id": "whitecastle-4d2ff4"}, "geometry": {"type": "Point", "coordinates": [-84.294078, 39.544237]}},
{"type": "Feature", "id": "8FeVZn5BfiSva3wX2pUIDwi7-xQ=", "properties": {"ref": "215", "@spider": "whitecastle", "amenity": "fast_food", "cuisine": "burger", "takeaway": "yes", "addr:street_address": "7630 Shelby Street", "addr:city": "Indianapolis", "addr:state": "IN", "addr:postcode": "46227", "name": "INDP 18", "phone": "3178886796", "website": "https://www.whitecastle.com/locations/215", "opening_hours": "24/7", "brand": "White Castle", "brand:wikidata": "Q1244034", "nsi_id": "whitecastle-4d2ff4"}, "geometry": {"type": "Point", "coordinates": [-86.140088, 39.655043]}},
{"type": "Feature", "id": "Pl4QqfYftAMvhaRu_wlM04DVEyM=", "properties": {"ref": "1243", "@spider": "whitecastle", "amenity": "fast_food", "cuisine": "burger", "takeaway": "yes", "addr:street_address": "1073 St. Rt. 28", "addr:city": "Milford", "addr:state": "OH", "addr:postcode": "45150", "name": "CINC 69", "phone": "5138310306", "website": "https://www.whitecastle.com/locations/1243", "opening_hours": "Mo-Tu 07:00-11:00; We 07:00-05:45; Th-Fr 00:00-24:00; Sa 06:00-00:00; Su 07:00-11:00", "brand": "White Castle", "brand:wikidata": "Q1244034", "nsi_id": "whitecastle-4d2ff4"}, "geometry": {"type": "Point", "coordinates": [-84.23838, 39.193985]}},
{"type": "Feature", "id": "4aonIGzhAS_Y17bs-dMqLzXj6bU=", "properties": {"ref": "132", "@spider": "whitecastle", "amenity": "fast_food", "cuisine": "burger", "takeaway": "yes", "addr:street_address": "864 EASTGATE SOUTH DR", "addr:city": "Cincinnati", "addr:state": "OH", "addr:postcode": "45245", "name": "CINC 38", "phone": "5137534474", "website": "https://www.whitecastle.com/locations/132", "opening_hours": "24/7", "brand": "White Castle", "brand:wikidata": "Q1244034", "nsi_id": "whitecastle-4d2ff4"}, "geometry": {"type": "Point", "coordinates": [-84.263456, 39.094362]}},
{"type": "Feature", "id": "PP3RGJeuCELgKkVK0bm3kVCb148=", "properties": {"ref": "1241", "@spider": "whitecastle", "amenity": "fast_food", "cuisine": "burger", "takeaway": "yes", "addr:street_address": "10303 Pendleton Pike", "addr:city": "Indianapolis", "addr:state": "IN", "addr:postcode": "46236", "name": "INDP 54", "phone": "3178235872", "website": "https://www.whitecastle.com/locations/1241", "opening_hours": "24/7", "brand": "White Castle", "brand:wikidata": "Q1244034", "nsi_id": "whitecastle-4d2ff4"}, "geometry": {"type": "Point", "coordinates": [-85.984027, 39.856534]}},
{"type": "Feature", "id": "_UpixRDcqKjj08OfDFXvg063coA=", "properties": {"ref": "1302", "@spider": "whitecastle", "amenity": "fast_food", "cuisine": "burger", "takeaway": "yes", "addr:street_address": "614 Corwin Nixon Boulevard", "addr:city": "South Lebanon", "addr:state": "OH", "addr:postcode": "45065", "name": "CINC 72", "phone": "5132297685", "website": "https://www.whitecastle.com/locations/1302", "opening_hours": "Mo-We 07:00-11:00; Th 07:00-05:45; Fr 00:00-24:00; Sa 06:00-00:00; Su 07:00-11:00", "brand": "White Castle", "brand:wikidata": "Q1244034", "nsi_id": "whitecastle-4d2ff4"}, "geometry": {"type": "Point", "coordinates": [-84.222013, 39.379365]}},
{"type": "Feature", "id": "DU2pTdrZKLjSffupnjLkROXwZms=", "properties": {"ref": "211", "@spider": "whitecastle", "amenity": "fast_food", "cuisine": "burger", "takeaway": "yes", "addr:street_address": "6901 PENDLETON PIKE", "addr:city": "Indianapolis", "addr:state": "IN", "addr:postcode": "46226", "name": "INDP 14", "phone": "3175456564", "website": "https://www.whitecastle.com/locations/211", "opening_hours": "24/7", "brand": "White Castle", "brand:wikidata": "Q1244034", "nsi_id": "whitecastle-4d2ff4"}, "geometry": {"type": "Point", "coordinates": [-86.048041, 39.826018]}},
{"type": "Feature", "id": "GyYv2kQ5elZn6sBS0DMg_u2nVFY=", "properties": {"ref": "219", "@spider": "whitecastle", "amenity": "fast_food", "cuisine": "burger", "takeaway": "yes", "addr:street_address": "3210 E WASHINGTON ST", "addr:city": "Indianapolis", "addr:state": "IN", "addr:postcode": "46201", "name": "INDP 22", "phone": "3176379334", "website": "https://www.whitecastle.com/locations/219", "opening_hours": "24/7", "brand": "White Castle", "brand:wikidata": "Q1244034", "nsi_id": "whitecastle-4d2ff4"}, "geometry": {"type": "Point", "coordinates": [-86.109848, 39.769161]}},
{"type": "Feature", "id": "IacCBvdOPZvUGWbmnBuQG0L7i4M=", "properties": {"ref": "558", "@spider": "whitecastle", "amenity": "fast_food", "cuisine": "burger", "takeaway": "yes", "addr:street_address": "2165 SHELBY ST", "addr:city": "Indianapolis", "addr:state": "IN", "addr:postcode": "46203", "name": "INDP 41", "phone": "3177886690", "website": "https://www.whitecastle.com/locations/558", "brand": "White Castle", "brand:wikidata": "Q1244034", "nsi_id": "whitecastle-4d2ff4"}, "geometry": {"type": "Point", "coordinates": [-86.139421, 39.73801]}},
{"type": "Feature", "id": "evVVzw_P6GFNuKJb8to4Pg7uvX0=", "properties": {"ref": "224", "@spider": "whitecastle", "amenity": "fast_food", "cuisine": "burger", "takeaway": "yes", "addr:street_address": "5523 SCATTERFIELD RD", "addr:city": "Anderson", "addr:state": "IN", "addr:postcode": "46013", "name": "INDP 27", "phone": "7656427122", "website": "https://www.whitecastle.com/locations/224", "opening_hours": "24/7", "brand": "White Castle", "brand:wikidata": "Q1244034", "nsi_id": "whitecastle-4d2ff4"}, "geometry": {"type": "Point", "coordinates": [-85.653431, 40.059184]}},
{"type": "Feature", "id": "3EHJasCEc32VVxC6kMmD3aHiA5g=", "properties": {"ref": "232", "@spider": "whitecastle", "amenity": "fast_food", "cuisine": "burger", "takeaway": "yes", "addr:street_address": "1414 W THOMPSON RD", "addr:city": "Indianapolis", "addr:state": "IN", "addr:postcode": "46217", "name": "INDP 35", "phone": "3177837298", "website": "https://www.whitecastle.com/locations/232", "opening_hours": "24/7", "brand": "White Castle", "brand:wikidata": "Q1244034", "nsi_id": "whitecastle-4d2ff4"}, "geometry": {"type": "Point", "coordinates": [-86.185637, 39.692943]}},
{"type": "Feature", "id": "ua7FAphBDT6ZeheVrhCrDeU2CG0=", "properties": {"ref": "1074", "@spider": "whitecastle", "amenity": "fast_food", "cuisine": "burger", "takeaway": "yes", "addr:street_address": "55 W SOUTH ST", "addr:city": "Indianapolis", "addr:state": "IN", "addr:postcode": "46225", "name": "INDP 49", "phone": "3174230014", "website": "https://www.whitecastle.com/locations/1074", "opening_hours": "24/7", "brand": "White Castle", "brand:wikidata": "Q1244034", "nsi_id": "whitecastle-4d2ff4"}, "geometry": {"type": "Point", "coordinates": [-86.159643, 39.761169]}},
{"type": "Feature", "id": "v2NSaVJjIMyCVKWLbJd4MyZauUA=", "properties": {"ref": "1087", "@spider": "whitecastle", "amenity": "fast_food", "cuisine": "burger", "takeaway": "yes", "addr:street_address": "8801 W MARKET SQUARE DR", "addr:city": "Daleville", "addr:state": "IN", "addr:postcode": "47334", "name": "INDP 50", "phone": "7653781179", "website": "https://www.whitecastle.com/locations/1087", "opening_hours": "24/7", "brand": "White Castle", "brand:wikidata": "Q1244034", "nsi_id": "whitecastle-4d2ff4"}, "geometry": {"type": "Point", "coordinates": [-85.566095, 40.114259]}},
{"type": "Feature", "id": "V7zY4Gm6D1neMgzZZaQ9qG8N4pk=", "properties": {"ref": "233", "@spider": "whitecastle", "amenity": "fast_food", "cuisine": "burger", "takeaway": "yes", "addr:street_address": "2368 E 38TH ST", "addr:city": "Indianapolis", "addr:state": "IN", "addr:postcode": "46218", "name": "INDP 36", "phone": "3175419805", "website": "https://www.whitecastle.com/locations/233", "opening_hours": "24/7", "brand": "White Castle", "brand:wikidata": "Q1244034", "nsi_id": "whitecastle-4d2ff4"}, "geometry": {"type": "Point", "coordinates": [-86.122396, 39.825662]}},
{"type": "Feature", "id": "FtZ_OhWiMHsuzogz4DH3NGjxzy0=", "properties": {"ref": "208", "@spider": "whitecastle", "amenity": "fast_food", "cuisine": "burger", "takeaway": "yes", "addr:street_address": "102 W 16TH ST", "addr:city": "Indianapolis", "addr:state": "IN", "addr:postcode": "46202", "name": "INDP 11", "phone": "3179261424", "website": "https://www.whitecastle.com/locations/208", "opening_hours": "24/7", "brand": "White Castle", "brand:wikidata": "Q1244034", "nsi_id": "whitecastle-4d2ff4"}, "geometry": {"type": "Point", "coordinates": [-86.159637, 39.788734]}},
{"type": "Feature", "id": "WpQtuetTDVnfvTSKCJzVOOp7XsE=", "properties": {"ref": "218", "@spider": "whitecastle", "amenity": "fast_food", "cuisine": "burger", "takeaway": "yes", "addr:street_address": "5440 E 82ND ST", "addr:city": "Indianapolis", "addr:state": "IN", "addr:postcode": "46250", "name": "INDP 21", "phone": "3178495929", "website": "https://www.whitecastle.com/locations/218", "opening_hours": "Mo-We 07:00-01:00; Th-Fr 07:00-03:00; Sa-Su 07:00-01:00", "brand": "White Castle", "brand:wikidata": "Q1244034", "nsi_id": "whitecastle-4d2ff4"}, "geometry": {"type": "Point", "coordinates": [-86.076341, 39.905626]}},
{"type": "Feature", "id": "C329s2pzcHpr2Ot7culx4SuPhC4=", "properties": {"ref": "216", "@spider": "whitecastle", "amenity": "fast_food", "cuisine": "burger", "takeaway": "yes", "addr:street_address": "5301 W WASHINGTON ST", "addr:city": "Indianapolis", "addr:state": "IN", "addr:postcode": "46241", "name": "INDP 19", "phone": "3172480011", "website": "https://www.whitecastle.com/locations/216", "opening_hours": "24/7", "brand": "White Castle", "brand:wikidata": "Q1244034", "nsi_id": "whitecastle-4d2ff4"}, "geometry": {"type": "Point", "coordinates": [-86.250877, 39.752267]}},
{"type": "Feature", "id": "_TeM4Xnon0jq-dhp2R2UUJMS_Yo=", "properties": {"ref": "1272", "@spider": "whitecastle", "amenity": "fast_food", "cuisine": "burger", "takeaway": "yes", "addr:street_address": "1090 Lydia Drive", "addr:city": "Marysville", "addr:state": "OH", "addr:postcode": "43040", "name": "COLS 41", "phone": "9376427454", "website": "https://www.whitecastle.com/locations/1272", "opening_hours": "Mo-Su 07:00-10:00", "brand": "White Castle", "brand:wikidata": "Q1244034", "nsi_id": "whitecastle-4d2ff4"}, "geometry": {"type": "Point", "coordinates": [-83.347901, 40.238773]}},
{"type": "Feature", "id": "w2V1YvZYPSszh1g_wvp4GXMct58=", "properties": {"ref": "1244", "@spider": "whitecastle", "amenity": "fast_food", "cuisine": "burger", "takeaway": "yes", "addr:street_address": "808 Eastern Bypass", "addr:city": "Richmond", "addr:state": "KY", "addr:postcode": "40475", "name": "LVLE 39", "phone": "8596235655", "website": "https://www.whitecastle.com/locations/1244", "opening_hours": "Mo-Th 08:00-01:00; Fr-Sa 08:00-02:00; Su 08:00-01:00", "brand": "White Castle", "brand:wikidata": "Q1244034", "nsi_id": "whitecastle-4d2ff4"}, "geometry": {"type": "Point", "coordinates": [-84.285073, 37.730582]}},
{"type": "Feature", "id": "XCx_xBKwJKiUEgQweai8rAEDaXc=", "properties": {"ref": "1248", "@spider": "whitecastle", "amenity": "fast_food", "cuisine": "burger", "takeaway": "yes", "addr:street_address": "405 West Highway 80", "addr:city": "London", "addr:state": "KY", "addr:postcode": "40741", "name": "LVLE 41", "phone": "6063300508", "website": "https://www.whitecastle.com/locations/1248", "opening_hours": "Mo-Th 06:00-03:00; Fr-Sa 06:00-04:00; Su 06:00-03:00", "brand": "White Castle", "brand:wikidata": "Q1244034", "nsi_id": "whitecastle-4d2ff4"}, "geometry": {"type": "Point", "coordinates": [-84.077396, 37.130673]}},
{"type": "Feature", "id": "4llk2WzEkycsRdbNVqUdJsJfGV0=", "properties": {"ref": "260", "@spider": "whitecastle", "amenity": "fast_food", "cuisine": "burger", "takeaway": "yes", "addr:street_address": "179 E REYNOLDS RD", "addr:city": "Lexington", "addr:state": "KY", "addr:postcode": "40517", "name": "LVLE 22", "phone": "8592726176", "website": "https://www.whitecastle.com/locations/260", "opening_hours": "24/7", "brand": "White Castle", "brand:wikidata": "Q1244034", "nsi_id": "whitecastle-4d2ff4"}, "geometry": {"type": "Point", "coordinates": [-84.51972, 37.990142]}},
{"type": "Feature", "id": "w_CN56Ib2cIYQ59sJM7BWsX3WsI=", "properties": {"ref": "259", "@spider": "whitecastle", "amenity": "fast_food", "cuisine": "burger", "takeaway": "yes", "addr:street_address": "307 E NEW CIRCLE RD NE", "addr:city": "Lexington", "addr:state": "KY", "addr:postcode": "40505", "name": "LVLE 21", "phone": "8592932314", "website": "https://www.whitecastle.com/locations/259", "opening_hours": "24/7", "brand": "White Castle", "brand:wikidata": "Q1244034", "nsi_id": "whitecastle-4d2ff4"}, "geometry": {"type": "Point", "coordinates": [-84.463985, 38.05976]}},
{"type": "Feature", "id": "k-t6HgCioy0AFFRdCynHRT_Qty8=", "properties": {"ref": "1269", "@spider": "whitecastle", "amenity": "fast_food", "cuisine": "burger", "takeaway": "yes", "addr:street_address": "25 Madison Drive", "addr:city": "Somerset", "addr:state": "KY", "addr:postcode": "42501", "name": "LVLE 42", "phone": "6064510395", "website": "https://www.whitecastle.com/locations/1269", "opening_hours": "Mo-Th 09:00-00:00; Fr-Sa 09:00-01:00; Su 09:00-00:00", "brand": "White Castle", "brand:wikidata": "Q1244034", "nsi_id": "whitecastle-4d2ff4"}, "geometry": {"type": "Point", "coordinates": [-84.620134, 37.06869]}},
{"type": "Feature", "id": "vP3OziyKhlKVXPH4td4HoQBMQEQ=", "properties": {"ref": "262", "@spider": "whitecastle", "amenity": "fast_food", "cuisine": "burger", "takeaway": "yes", "addr:street_address": "448 VERSAILLES RD", "addr:city": "Frankfort", "addr:state": "KY", "addr:postcode": "40601", "name": "LVLE 24", "phone": "5026953368", "website": "https://www.whitecastle.com/locations/262", "opening_hours": "24/7", "brand": "White Castle", "brand:wikidata": "Q1244034", "nsi_id": "whitecastle-4d2ff4"}, "geometry": {"type": "Point", "coordinates": [-84.828423, 38.195618]}},
{"type": "Feature", "id": "NPa0mSmTxQGdfXEJGPtD40qJbzM=", "properties": {"ref": "180", "@spider": "whitecastle", "amenity": "fast_food", "cuisine": "burger", "takeaway": "yes", "addr:street_address": "27760 23-MILE RD", "addr:city": "New Baltimore", "addr:state": "MI", "addr:postcode": "48051", "name": "DETR 25", "phone": "5869496290", "website": "https://www.whitecastle.com/locations/180", "opening_hours": "Mo-Su 08:00-03:00", "brand": "White Castle", "brand:wikidata": "Q1244034", "nsi_id": "whitecastle-4d2ff4"}, "geometry": {"type": "Point", "coordinates": [-82.830192, 42.674089]}},
{"type": "Feature", "id": "Luzu4rynut2UkDsMmQoUA6OmQZ0=", "properties": {"ref": "177", "@spider": "whitecastle", "amenity": "fast_food", "cuisine": "burger", "takeaway": "yes", "addr:street_address": "26900 GRATIOT AVE", "addr:city": "Roseville", "addr:state": "MI", "addr:postcode": "48066", "name": "DETR 22", "phone": "5867769560", "website": "https://www.whitecastle.com/locations/177", "opening_hours": "24/7", "brand": "White Castle", "brand:wikidata": "Q1244034", "nsi_id": "whitecastle-4d2ff4"}, "geometry": {"type": "Point", "coordinates": [-82.938119, 42.493601]}},
{"type": "Feature", "id": "6rB1I0k71N-FEI12AeachxUg2Vw=", "properties": {"ref": "168", "@spider": "whitecastle", "amenity": "fast_food", "cuisine": "burger", "takeaway": "yes", "addr:street_address": "20703 GRATIOT AVE", "addr:city": "Eastpointe", "addr:state": "MI", "addr:postcode": "48021", "name": "DETR 13", "phone": "5867747218", "website": "https://www.whitecastle.com/locations/168", "opening_hours": "24/7", "brand": "White Castle", "brand:wikidata": "Q1244034", "nsi_id": "whitecastle-4d2ff4"}, "geometry": {"type": "Point", "coordinates": [-82.96824, 42.450377]}},
{"type": "Feature", "id": "c2wVVQ1QZQDa5B2JydT3lmTeodI=", "properties": {"ref": "1181", "@spider": "whitecastle", "amenity": "fast_food", "cuisine": "burger", "takeaway": "yes", "addr:street_address": "16737 Harper Avenue", "addr:city": "Detroit", "addr:state": "MI", "addr:postcode": "48224", "name": "DETR 59", "phone": "3138841164", "website": "https://www.whitecastle.com/locations/1181", "opening_hours": "24/7", "brand": "White Castle", "brand:wikidata": "Q1244034", "nsi_id": "whitecastle-4d2ff4"}, "geometry": {"type": "Point", "coordinates": [-82.939883, 42.414659]}},
{"type": "Feature", "id": "qv6bzNmLOH96_yD4kFZB6uZB6x8=", "properties": {"ref": "185", "@spider": "whitecastle", "amenity": "fast_food", "cuisine": "burger", "takeaway": "yes", "addr:street_address": "31803 VAN DYKE AVE", "addr:city": "Warren", "addr:state": "MI", "addr:postcode": "48092", "name": "DETR 30", "phone": "5862640024", "website": "https://www.whitecastle.com/locations/185", "opening_hours": "24/7", "brand": "White Castle", "brand:wikidata": "Q1244034", "nsi_id": "whitecastle-4d2ff4"}, "geometry": {"type": "Point", "coordinates": [-83.02955, 42.526465]}},
{"type": "Feature", "id": "DWjsoiwUGZ26rX8hTnHGz1ZWHOU=", "properties": {"ref": "1280", "@spider": "whitecastle", "amenity": "fast_food", "cuisine": "burger", "takeaway": "yes", "addr:street_address": "12245 23 Mile Road", "addr:city": "Shelby Township", "addr:state": "MI", "addr:postcode": "48315", "name": "DETR 64", "phone": "5867268202", "website": "https://www.whitecastle.com/locations/1280", "opening_hours": "Mo-Su 09:00-10:00", "brand": "White Castle", "brand:wikidata": "Q1244034", "nsi_id": "whitecastle-4d2ff4"}, "geometry": {"type": "Point", "coordinates": [-83.008336, 42.670266]}},
{"type": "Feature", "id": "uswJYx9BtVE7WkP8Whbr96SuXZU=", "properties": {"ref": "196", "@spider": "whitecastle", "amenity": "fast_food", "cuisine": "burger", "takeaway": "yes", "addr:street_address": "6711 E 8 MILE RD", "addr:city": "Warren", "addr:state": "MI", "addr:postcode": "48091", "name": "DETR 41", "phone": "5867582731", "website": "https://www.whitecastle.com/locations/196", "opening_hours": "24/7", "brand": "White Castle", "brand:wikidata": "Q1244034", "nsi_id": "whitecastle-4d2ff4"}, "geometry": {"type": "Point", "coordinates": [-83.034145, 42.448593]}},
{"type": "Feature", "id": "BVroDdW4ht-Z8PkqFPbmej3oFf4=", "properties": {"ref": "946", "@spider": "whitecastle", "amenity": "fast_food", "cuisine": "burger", "takeaway": "yes", "addr:street_address": "10500 GRATIOT", "addr:city": "Detroit", "addr:state": "MI", "addr:postcode": "48213", "name": "DETR 48", "phone": "3135799093", "website": "https://www.whitecastle.com/locations/946", "opening_hours": "24/7", "brand": "White Castle", "brand:wikidata": "Q1244034", "nsi_id": "whitecastle-4d2ff4"}, "geometry": {"type": "Point", "coordinates": [-82.999899, 42.400379]}},
{"type": "Feature", "id": "z1R6D79VJSYHYcW8MKr-oAsK1Rg=", "properties": {"ref": "172", "@spider": "whitecastle", "amenity": "fast_food", "cuisine": "burger", "takeaway": "yes", "addr:street_address": "28840 DEQUINDRE RD", "addr:city": "Warren", "addr:state": "MI", "addr:postcode": "48092", "name": "DETR 17", "phone": "5865742076", "website": "https://www.whitecastle.com/locations/172", "opening_hours": "24/7", "brand": "White Castle", "brand:wikidata": "Q1244034", "nsi_id": "whitecastle-4d2ff4"}, "geometry": {"type": "Point", "coordinates": [-83.085145, 42.504563]}},
{"type": "Feature", "id": "1Ls34H7OgDIhokhm2jgikzZbljQ=", "properties": {"ref": "178", "@spider": "whitecastle", "amenity": "fast_food", "cuisine": "burger", "takeaway": "yes", "addr:street_address": "2930 JOHN R. RD", "addr:city": "Troy", "addr:state": "MI", "addr:postcode": "48084", "name": "DETR 23", "phone": "2486897546", "website": "https://www.whitecastle.com/locations/178", "opening_hours": "Mo-Su 09:00-10:00", "brand": "White Castle", "brand:wikidata": "Q1244034", "nsi_id": "whitecastle-4d2ff4"}, "geometry": {"type": "Point", "coordinates": [-83.107655, 42.562519]}},
{"type": "Feature", "id": "mYTOLihwvwa2Zo5QlLmA4VDSoB4=", "properties": {"ref": "166", "@spider": "whitecastle", "amenity": "fast_food", "cuisine": "burger", "takeaway": "yes", "addr:street_address": "21400 WOODWARD AVE", "addr:city": "Ferndale City", "addr:state": "MI", "addr:postcode": "48220", "name": "DETR 11", "phone": "2485417220", "website": "https://www.whitecastle.com/locations/166", "opening_hours": "24/7", "brand": "White Castle", "brand:wikidata": "Q1244034", "nsi_id": "whitecastle-4d2ff4"}, "geometry": {"type": "Point", "coordinates": [-83.12647, 42.449513]}},
{"type": "Feature", "id": "Y8X7rDjrteaFNnc3YZdwNaEAlHo=", "properties": {"ref": "199", "@spider": "whitecastle", "amenity": "fast_food", "cuisine": "burger", "takeaway": "yes", "addr:street_address": "6364 WOODWARD AVE", "addr:city": "Detroit", "addr:state": "MI", "addr:postcode": "48202", "name": "DETR 44", "phone": "3139725556", "website": "https://www.whitecastle.com/locations/199", "opening_hours": "24/7", "brand": "White Castle", "brand:wikidata": "Q1244034", "nsi_id": "whitecastle-4d2ff4"}, "geometry": {"type": "Point", "coordinates": [-83.071434, 42.368397]}},
{"type": "Feature", "id": "2qspYjqmn4T5GWdjzumSK4hLwqI=", "properties": {"ref": "1046", "@spider": "whitecastle", "amenity": "fast_food", "cuisine": "burger", "takeaway": "yes", "addr:street_address": "2735 W DAVISON", "addr:city": "Detroit", "addr:state": "MI", "addr:postcode": "48238", "name": "DETR 51", "phone": "3138656079", "website": "https://www.whitecastle.com/locations/1046", "opening_hours": "24/7", "brand": "White Castle", "brand:wikidata": "Q1244034", "nsi_id": "whitecastle-4d2ff4"}, "geometry": {"type": "Point", "coordinates": [-83.12383, 42.39202]}},
{"type": "Feature", "id": "plnVHoMPppP5KZF8asZ4u2QA1OY=", "properties": {"ref": "174", "@spider": "whitecastle", "amenity": "fast_food", "cuisine": "burger", "takeaway": "yes", "addr:street_address": "1930 MICHIGAN AVE", "addr:city": "Detroit", "addr:state": "MI", "addr:postcode": "48216", "name": "DETR 19", "phone": "3139635424", "website": "https://www.whitecastle.com/locations/174", "opening_hours": "24/7", "brand": "White Castle", "brand:wikidata": "Q1244034", "nsi_id": "whitecastle-4d2ff4"}, "geometry": {"type": "Point", "coordinates": [-83.072914, 42.331734]}},
{"type": "Feature", "id": "RoCEoOpyLi35_QxNdka9Bfgc3Ps=", "properties": {"ref": "1154", "@spider": "whitecastle", "amenity": "fast_food", "cuisine": "burger", "takeaway": "yes", "addr:street_address": "26500 Greenfield Rd.", "addr:city": "Oak Park", "addr:state": "MI", "addr:postcode": "48237", "name": "DETR 56", "phone": "2489680051", "website": "https://www.whitecastle.com/locations/1154", "opening_hours": "24/7", "brand": "White Castle", "brand:wikidata": "Q1244034", "nsi_id": "whitecastle-4d2ff4"}, "geometry": {"type": "Point", "coordinates": [-83.201759, 42.485744]}},
{"type": "Feature", "id": "Oq_FXhARabohwvlv1tu3HMI4LrI=", "properties": {"ref": "198", "@spider": "whitecastle", "amenity": "fast_food", "cuisine": "burger", "takeaway": "yes", "addr:street_address": "15365 WYOMING AVE", "addr:city": "Detroit", "addr:state": "MI", "addr:postcode": "48238", "name": "DETR 43", "phone": "3138647597", "website": "https://www.whitecastle.com/locations/198", "opening_hours": "24/7", "brand": "White Castle", "brand:wikidata": "Q1244034", "nsi_id": "whitecastle-4d2ff4"}, "geometry": {"type": "Point", "coordinates": [-83.160022, 42.403594]}},
{"type": "Feature", "id": "ajmWTsNHWhUd7lH9QycfUCMc-9g=", "properties": {"ref": "193", "@spider": "whitecastle", "amenity": "fast_food", "cuisine": "burger", "takeaway": "yes", "addr:street_address": "20409 JAMES COUZENS", "addr:city": "Detroit", "addr:state": "MI", "addr:postcode": "48235", "name": "DETR 38", "phone": "3132724006", "website": "https://www.whitecastle.com/locations/193", "opening_hours": "24/7", "brand": "White Castle", "brand:wikidata": "Q1244034", "nsi_id": "whitecastle-4d2ff4"}, "geometry": {"type": "Point", "coordinates": [-83.200776, 42.441857]}},
{"type": "Feature", "id": "T3wFb6kQQM2PwxJqBkWCquFIizk=", "properties": {"ref": "1180", "@spider": "whitecastle", "amenity": "fast_food", "cuisine": "burger", "takeaway": "yes", "addr:street_address": "17739 Grand River", "addr:city": "Detroit", "addr:state": "MI", "addr:postcode": "48227", "name": "DETR 58", "phone": "3136599602", "website": "https://www.whitecastle.com/locations/1180", "opening_hours": "24/7", "brand": "White Castle", "brand:wikidata": "Q1244034", "nsi_id": "whitecastle-4d2ff4"}, "geometry": {"type": "Point", "coordinates": [-83.217072, 42.399984]}},
{"type": "Feature", "id": "aFzQepPXr99weVBnN_hL8KXk2ek=", "properties": {"ref": "1016", "@spider": "whitecastle", "amenity": "fast_food", "cuisine": "burger", "takeaway": "yes", "addr:street_address": "335 MARTIN LUTHER KING BLVD", "addr:city": "Pontiac", "addr:state": "MI", "addr:postcode": "48342", "name": "DETR 47", "phone": "2487450679", "website": "https://www.whitecastle.com/locations/1016", "opening_hours": "24/7", "brand": "White Castle", "brand:wikidata": "Q1244034", "nsi_id": "whitecastle-4d2ff4"}, "geometry": {"type": "Point", "coordinates": [-83.271109, 42.647438]}},
{"type": "Feature", "id": "mUvpCzbn1qH_6Kcw_M8GeFqe7j8=", "properties": {"ref": "195", "@spider": "whitecastle", "amenity": "fast_food", "cuisine": "burger", "takeaway": "yes", "addr:street_address": "8811 GREENFIELD AVE", "addr:city": "Detroit", "addr:state": "MI", "addr:postcode": "48228", "name": "DETR 40", "phone": "3138355618", "website": "https://www.whitecastle.com/locations/195", "opening_hours": "24/7", "brand": "White Castle", "brand:wikidata": "Q1244034", "nsi_id": "whitecastle-4d2ff4"}, "geometry": {"type": "Point", "coordinates": [-83.197428, 42.358444]}},
{"type": "Feature", "id": "T547DF5dW2c0gDfbI4kykmAhXm0=", "properties": {"ref": "190", "@spider": "whitecastle", "amenity": "fast_food", "cuisine": "burger", "takeaway": "yes", "addr:street_address": "23000 TELEGRAPH RD", "addr:city": "Southfield", "addr:state": "MI", "addr:postcode": "48034", "name": "DETR 35", "phone": "2483520842", "website": "https://www.whitecastle.com/locations/190", "opening_hours": "24/7", "brand": "White Castle", "brand:wikidata": "Q1244034", "nsi_id": "whitecastle-4d2ff4"}, "geometry": {"type": "Point", "coordinates": [-83.277819, 42.457944]}},
{"type": "Feature", "id": "MoC6f4sNkjNKbYRpVJ1AngVXraA=", "properties": {"ref": "192", "@spider": "whitecastle", "amenity": "fast_food", "cuisine": "burger", "takeaway": "yes", "addr:street_address": "24000 SCHOOLCRAFT", "addr:city": "Redford", "addr:state": "MI", "addr:postcode": "48239", "name": "DETR 37", "phone": "3135339843", "website": "https://www.whitecastle.com/locations/192", "opening_hours": "24/7", "brand": "White Castle", "brand:wikidata": "Q1244034", "nsi_id": "whitecastle-4d2ff4"}, "geometry": {"type": "Point", "coordinates": [-83.277234, 42.386114]}},
{"type": "Feature", "id": "G7MbBGD6edQXeyWAmgrR0TNG4xE=", "properties": {"ref": "188", "@spider": "whitecastle", "amenity": "fast_food", "cuisine": "burger", "takeaway": "yes", "addr:street_address": "28130 W 8 MILE RD", "addr:city": "Farmington", "addr:state": "MI", "addr:postcode": "48336", "name": "DETR 33", "phone": "2484713286", "website": "https://www.whitecastle.com/locations/188", "opening_hours": "24/7", "brand": "White Castle", "brand:wikidata": "Q1244034", "nsi_id": "whitecastle-4d2ff4"}, "geometry": {"type": "Point", "coordinates": [-83.323783, 42.442215]}},
{"type": "Feature", "id": "IopaS4UlNmDVGu27R__WurzTzzg=", "properties": {"ref": "170", "@spider": "whitecastle", "amenity": "fast_food", "cuisine": "burger", "takeaway": "yes", "addr:street_address": "2115 FORT ST", "addr:city": "Lincoln Park", "addr:state": "MI", "addr:postcode": "48146", "name": "DETR 15", "phone": "3133891681", "website": "https://www.whitecastle.com/locations/170", "opening_hours": "24/7", "brand": "White Castle", "brand:wikidata": "Q1244034", "nsi_id": "whitecastle-4d2ff4"}, "geometry": {"type": "Point", "coordinates": [-83.177252, 42.248671]}},
{"type": "Feature", "id": "XLRDYm5bU546e0b6zd9v0xVhHBg=", "properties": {"ref": "186", "@spider": "whitecastle", "amenity": "fast_food", "cuisine": "burger", "takeaway": "yes", "addr:street_address": "2226 S TELEGRAPH RD", "addr:city": "Dearborn", "addr:state": "MI", "addr:postcode": "48124", "name": "DETR 31", "phone": "3132770129", "website": "https://www.whitecastle.com/locations/186", "opening_hours": "24/7", "brand": "White Castle", "brand:wikidata": "Q1244034", "nsi_id": "whitecastle-4d2ff4"}, "geometry": {"type": "Point", "coordinates": [-83.272141, 42.294998]}},
{"type": "Feature", "id": "4G-OvUwNDLOENfb-5UjRHmFJN4I=", "properties": {"ref": "179", "@spider": "whitecastle", "amenity": "fast_food", "cuisine": "burger", "takeaway": "yes", "addr:street_address": "30105 PLYMOUTH RD", "addr:city": "Livonia", "addr:state": "MI", "addr:postcode": "48150", "name": "DETR 24", "phone": "7344222730", "website": "https://www.whitecastle.com/locations/179", "opening_hours": "Mo-Su 09:00-10:00", "brand": "White Castle", "brand:wikidata": "Q1244034", "nsi_id": "whitecastle-4d2ff4"}, "geometry": {"type": "Point", "coordinates": [-83.340322, 42.368601]}},
{"type": "Feature", "id": "XpOnhqbjXII78iJeJ48sPxTfKz0=", "properties": {"ref": "1118", "@spider": "whitecastle", "amenity": "fast_food", "cuisine": "burger", "takeaway": "yes", "addr:street_address": "27325 FORD RD", "addr:city": "Dearborn Heights", "addr:state": "MI", "addr:postcode": "48127", "name": "DETR 53", "phone": "3132771273", "website": "https://www.whitecastle.com/locations/1118", "opening_hours": "24/7", "brand": "White Castle", "brand:wikidata": "Q1244034", "nsi_id": "whitecastle-4d2ff4"}, "geometry": {"type": "Point", "coordinates": [-83.310979, 42.325868]}},
{"type": "Feature", "id": "pWRamcYVpU6lWaeXKjHLIZB1ub4=", "properties": {"ref": "1208", "@spider": "whitecastle", "amenity": "fast_food", "cuisine": "burger", "takeaway": "yes", "addr:street_address": "22340 Ecorse", "addr:city": "Taylor", "addr:state": "MI", "addr:postcode": "48180", "name": "DETR 61", "phone": "3132955648", "website": "https://www.whitecastle.com/locations/1208", "opening_hours": "Mo-We 09:00-00:00; Th 09:00-05:45; Fr-Sa 00:00-24:00; Su 06:00-00:00", "brand": "White Castle", "brand:wikidata": "Q1244034", "nsi_id": "whitecastle-4d2ff4"}, "geometry": {"type": "Point", "coordinates": [-83.253737, 42.256267]}},
{"type": "Feature", "id": "FC4kX5sGT_9ThMF1oEH9GqmsUys=", "properties": {"ref": "175", "@spider": "whitecastle", "amenity": "fast_food", "cuisine": "burger", "takeaway": "yes", "addr:street_address": "16795 FORT ST", "addr:city": "Southgate", "addr:state": "MI", "addr:postcode": "48195", "name": "DETR 20", "phone": "7342854878", "website": "https://www.whitecastle.com/locations/175", "opening_hours": "24/7", "brand": "White Castle", "brand:wikidata": "Q1244034", "nsi_id": "whitecastle-4d2ff4"}, "geometry": {"type": "Point", "coordinates": [-83.18845, 42.185964]}},
{"type": "Feature", "id": "oeBxpM9bSsoSPeWFTUyWLF5nMp8=", "properties": {"ref": "183", "@spider": "whitecastle", "amenity": "fast_food", "cuisine": "burger", "takeaway": "yes", "addr:street_address": "13000 TELEGRAPH RD", "addr:city": "Taylor", "addr:state": "MI", "addr:postcode": "48180", "name": "DETR 28", "phone": "7349466460", "website": "https://www.whitecastle.com/locations/183", "opening_hours": "24/7", "brand": "White Castle", "brand:wikidata": "Q1244034", "nsi_id": "whitecastle-4d2ff4"}, "geometry": {"type": "Point", "coordinates": [-83.269521, 42.211483]}},
{"type": "Feature", "id": "TdtQ5kLY4x3ZLfyy1Lw69CR9ruU=", "properties": {"ref": "189", "@spider": "whitecastle", "amenity": "fast_food", "cuisine": "burger", "takeaway": "yes", "addr:street_address": "32925 MICHIGAN AVE", "addr:city": "Wayne", "addr:state": "MI", "addr:postcode": "48184", "name": "DETR 34", "phone": "7347214584", "website": "https://www.whitecastle.com/locations/189", "opening_hours": "24/7", "brand": "White Castle", "brand:wikidata": "Q1244034", "nsi_id": "whitecastle-4d2ff4"}, "geometry": {"type": "Point", "coordinates": [-83.363722, 42.282674]}},
{"type": "Feature", "id": "5HuwXhxr3xFdQ9slORh45o-qU5I=", "properties": {"ref": "191", "@spider": "whitecastle", "amenity": "fast_food", "cuisine": "burger", "takeaway": "yes", "addr:street_address": "20090 WEST RD", "addr:city": "Woodhaven", "addr:state": "MI", "addr:postcode": "48183", "name": "DETR 36", "phone": "7346768415", "website": "https://www.whitecastle.com/locations/191", "opening_hours": "24/7", "brand": "White Castle", "brand:wikidata": "Q1244034", "nsi_id": "whitecastle-4d2ff4"}, "geometry": {"type": "Point", "coordinates": [-83.228559, 42.140919]}},
{"type": "Feature", "id": "LLQKZwcKTXuKQw8wAPrqz_Atvdk=", "properties": {"ref": "176", "@spider": "whitecastle", "amenity": "fast_food", "cuisine": "burger", "takeaway": "yes", "addr:street_address": "41205 FORD RD", "addr:city": "Canton", "addr:state": "MI", "addr:postcode": "48188", "name": "DETR 21", "phone": "7348440229", "website": "https://www.whitecastle.com/locations/176", "opening_hours": "24/7", "brand": "White Castle", "brand:wikidata": "Q1244034", "nsi_id": "whitecastle-4d2ff4"}, "geometry": {"type": "Point", "coordinates": [-83.44691, 42.322515]}},
{"type": "Feature", "id": "xWl7rjyA0i7BIVD5rSzkfBlq0zo=", "properties": {"ref": "181", "@spider": "whitecastle", "amenity": "fast_food", "cuisine": "burger", "takeaway": "yes", "addr:street_address": "3953 PACKARD RD", "addr:city": "Ann Arbor", "addr:state": "MI", "addr:postcode": "48108", "name": "DETR 26", "phone": "7349736811", "website": "https://www.whitecastle.com/locations/181", "opening_hours": "Mo-Th 08:00-10:00; Fr-Sa 08:00-03:00; Su 08:00-10:00", "brand": "White Castle", "brand:wikidata": "Q1244034", "nsi_id": "whitecastle-4d2ff4"}, "geometry": {"type": "Point", "coordinates": [-83.681588, 42.245971]}},
{"type": "Feature", "id": "TPwh_YquoZAmV5-30HSW20QB1-4=", "properties": {"ref": "1267", "@spider": "whitecastle", "amenity": "fast_food", "cuisine": "burger", "takeaway": "yes", "addr:street_address": "3832 E. Grand River", "addr:city": "Howell", "addr:state": "MI", "addr:postcode": "48843", "name": "DETR 63", "phone": "5175525284", "website": "https://www.whitecastle.com/locations/1267", "opening_hours": "Mo-Th 09:00-10:00; Fr-Sa 09:00-11:00; Su 09:00-10:00", "brand": "White Castle", "brand:wikidata": "Q1244034", "nsi_id": "whitecastle-4d2ff4"}, "geometry": {"type": "Point", "coordinates": [-83.878072, 42.587712]}},
{"type": "Feature", "id": "JlXdaOZkpOPiPtWJenUtwLVtnPU=", "properties": {"ref": "1227", "@spider": "whitecastle", "amenity": "fast_food", "cuisine": "burger", "takeaway": "yes", "addr:street_address": "4250 Corunna Road", "addr:city": "Flint", "addr:state": "MI", "addr:postcode": "48532", "name": "DETR 62", "phone": "8107201425", "website": "https://www.whitecastle.com/locations/1227", "opening_hours": "Mo-Su 10:00-10:00", "brand": "White Castle", "brand:wikidata": "Q1244034", "nsi_id": "whitecastle-4d2ff4"}, "geometry": {"type": "Point", "coordinates": [-83.762645, 43.00253]}},
{"type": "Feature", "id": "iFeLOZs4iW5SOcMwnMYR-TH5DWM=", "properties": {"ref": "1263", "@spider": "whitecastle", "amenity": "fast_food", "cuisine": "burger", "takeaway": "yes", "addr:street_address": "1000 N. Bridge Street", "addr:city": "Chillicothe", "addr:state": "OH", "addr:postcode": "45601", "name": "COLS 42", "phone": "7407755025", "website": "https://www.whitecastle.com/locations/1263", "opening_hours": "Mo-Su 08:00-11:00", "brand": "White Castle", "brand:wikidata": "Q1244034", "nsi_id": "whitecastle-4d2ff4"}, "geometry": {"type": "Point", "coordinates": [-82.97689, 39.355569]}},
{"type": "Feature", "id": "o2Gjv2edZi34_y8kbzT6c6g_3LM=", "properties": {"ref": "1081", "@spider": "whitecastle", "amenity": "fast_food", "cuisine": "burger", "takeaway": "yes", "addr:street_address": "24599 US RT. 23 S", "addr:city": "Circleville", "addr:state": "OH", "addr:postcode": "43113", "name": "COLS 31", "phone": "7404209493", "website": "https://www.whitecastle.com/locations/1081", "opening_hours": "Mo-Su 07:00-11:00", "brand": "White Castle", "brand:wikidata": "Q1244034", "nsi_id": "whitecastle-4d2ff4"}, "geometry": {"type": "Point", "coordinates": [-82.949595, 39.587245]}},
{"type": "Feature", "id": "kjq69_P1V589nbyrIDX-7ajkHdo=", "properties": {"ref": "1069", "@spider": "whitecastle", "amenity": "fast_food", "cuisine": "burger", "takeaway": "yes", "addr:street_address": "2125 SCHORRWAY DR", "addr:city": "Lancaster", "addr:state": "OH", "addr:postcode": "43130", "name": "COLS 30", "phone": "7406875905", "website": "https://www.whitecastle.com/locations/1069", "opening_hours": "Mo-Th 06:00-11:00; Fr-Sa 06:00-01:00; Su 06:00-11:00", "brand": "White Castle", "brand:wikidata": "Q1244034", "nsi_id": "whitecastle-4d2ff4"}, "geometry": {"type": "Point", "coordinates": [-82.626043, 39.735032]}},
{"type": "Feature", "id": "GcmdJgH5fa-jck56K70ueJ1LHlo=", "properties": {"ref": "1251", "@spider": "whitecastle", "amenity": "fast_food", "cuisine": "burger", "takeaway": "yes", "addr:street_address": "3751 S. Hamilton Road", "addr:city": "Columbus", "addr:state": "OH", "addr:postcode": "43232", "name": "COLS 39", "phone": "6148350413", "website": "https://www.whitecastle.com/locations/1251", "opening_hours": "24/7", "brand": "White Castle", "brand:wikidata": "Q1244034", "nsi_id": "whitecastle-4d2ff4"}, "geometry": {"type": "Point", "coordinates": [-82.88294, 39.898027]}},
{"type": "Feature", "id": "CGFbkvcNZ7EtB3VU-6fwgutTLls=", "properties": {"ref": "1168", "@spider": "whitecastle", "amenity": "fast_food", "cuisine": "burger", "takeaway": "yes", "addr:street_address": "3615 S. High Street", "addr:city": "Columbus", "addr:state": "OH", "addr:postcode": "43207", "name": "COLS 34", "phone": "6144093264", "website": "https://www.whitecastle.com/locations/1168", "opening_hours": "24/7", "brand": "White Castle", "brand:wikidata": "Q1244034", "nsi_id": "whitecastle-4d2ff4"}, "geometry": {"type": "Point", "coordinates": [-82.998639, 39.888449]}},
{"type": "Feature", "id": "5QWHhBr-Ifk9BR0lJboqOFp_RE0=", "properties": {"ref": "158", "@spider": "whitecastle", "amenity": "fast_food", "cuisine": "burger", "takeaway": "yes", "addr:street_address": "1620 STRINGTOWN RD", "addr:city": "Grove City", "addr:state": "OH", "addr:postcode": "43123", "name": "COLS 23", "phone": "6148712546", "website": "https://www.whitecastle.com/locations/158", "opening_hours": "24/7", "brand": "White Castle", "brand:wikidata": "Q1244034", "nsi_id": "whitecastle-4d2ff4"}, "geometry": {"type": "Point", "coordinates": [-83.045997, 39.879088]}},
{"type": "Feature", "id": "e5i8zs3jl9dQVTi4X_vmHXQ91-o=", "properties": {"ref": "150", "@spider": "whitecastle", "amenity": "fast_food", "cuisine": "burger", "takeaway": "yes", "addr:street_address": "1080 S HAMILTON RD", "addr:city": "Columbus", "addr:state": "OH", "addr:postcode": "43227", "name": "COLS 15", "phone": "6148618950", "website": "https://www.whitecastle.com/locations/150", "opening_hours": "Mo-Su 07:00-11:00", "brand": "White Castle", "brand:wikidata": "Q1244034", "nsi_id": "whitecastle-4d2ff4"}, "geometry": {"type": "Point", "coordinates": [-82.876533, 39.954626]}},
{"type": "Feature", "id": "v_KWQi-RoMhkjFylhy2CZqZpFRI=", "properties": {"ref": "157", "@spider": "whitecastle", "amenity": "fast_food", "cuisine": "burger", "takeaway": "yes", "addr:street_address": "1025 ALUM CREEK DR", "addr:city": "Columbus", "addr:state": "OH", "addr:postcode": "43209", "name": "COLS 22", "phone": "6142523050", "website": "https://www.whitecastle.com/locations/157", "opening_hours": "24/7", "brand": "White Castle", "brand:wikidata": "Q1244034", "nsi_id": "whitecastle-4d2ff4"}, "geometry": {"type": "Point", "coordinates": [-82.945513, 39.946791]}},
{"type": "Feature", "id": "o103TeScicNAlV7v8R2sLpUcnF8=", "properties": {"ref": "147", "@spider": "whitecastle", "amenity": "fast_food", "cuisine": "burger", "takeaway": "yes", "addr:street_address": "1111 S HIGH ST", "addr:city": "Columbus", "addr:state": "OH", "addr:postcode": "43206", "name": "COLS 12", "phone": "6144448661", "website": "https://www.whitecastle.com/locations/147", "opening_hours": "24/7", "brand": "White Castle", "brand:wikidata": "Q1244034", "nsi_id": "whitecastle-4d2ff4"}, "geometry": {"type": "Point", "coordinates": [-82.996645, 39.939091]}},
{"type": "Feature", "id": "KS1JB07sgIZ2XWW0y23GGGT_HbY=", "properties": {"ref": "984", "@spider": "whitecastle", "amenity": "fast_food", "cuisine": "burger", "takeaway": "yes", "addr:street_address": "6791 E BROAD ST", "addr:city": "Columbus", "addr:state": "OH", "addr:postcode": "43213", "name": "COLS 29", "phone": "6148615679", "website": "https://www.whitecastle.com/locations/984", "opening_hours": "Mo-We 10:00-08:00; Th-Sa 06:00-10:00; Su 10:00-08:00", "brand": "White Castle", "brand:wikidata": "Q1244034", "nsi_id": "whitecastle-4d2ff4"}, "geometry": {"type": "Point", "coordinates": [-82.822944, 39.981207]}},
{"type": "Feature", "id": "QYKobXAIV82THDe8-k5qvDL_QNQ=", "properties": {"ref": "1140", "@spider": "whitecastle", "amenity": "fast_food", "cuisine": "burger", "takeaway": "yes", "addr:street_address": "1617 HOLT RD", "addr:city": "Columbus", "addr:state": "OH", "addr:postcode": "43228", "name": "COLS 33", "phone": "6148534550", "website": "https://www.whitecastle.com/locations/1140", "opening_hours": "Mo-We 07:00-00:00; Th 07:00-05:45; Fr-Sa 00:00-24:00; Su 06:00-00:00", "brand": "White Castle", "brand:wikidata": "Q1244034", "nsi_id": "whitecastle-4d2ff4"}, "geometry": {"type": "Point", "coordinates": [-83.123076, 39.919321]}},
{"type": "Feature", "id": "KDoTkVhc6dCdnVZ9BG7BJb-O3Ws=", "properties": {"ref": "146", "@spider": "whitecastle", "amenity": "fast_food", "cuisine": "burger", "takeaway": "yes", "addr:street_address": "3540 W BROAD ST", "addr:city": "Columbus", "addr:state": "OH", "addr:postcode": "43228", "name": "COLS 11", "phone": "6142797750", "website": "https://www.whitecastle.com/locations/146", "opening_hours": "Mo-We 07:00-10:00; Th 07:00-05:45; Fr-Sa 00:00-24:00; Su 06:00-10:00", "brand": "White Castle", "brand:wikidata": "Q1244034", "nsi_id": "whitecastle-4d2ff4"}, "geometry": {"type": "Point", "coordinates": [-83.095227, 39.954275]}},
{"type": "Feature", "id": "fqXRBqgtqdNt39MFKzb6WuwS37g=", "properties": {"ref": "156", "@spider": "whitecastle", "amenity": "fast_food", "cuisine": "burger", "takeaway": "yes", "addr:street_address": "801 E FIFTH AVE", "addr:city": "Columbus", "addr:state": "OH", "addr:postcode": "43201", "name": "COLS 21", "phone": "6142992180", "website": "https://www.whitecastle.com/locations/156", "opening_hours": "24/7", "brand": "White Castle", "brand:wikidata": "Q1244034", "nsi_id": "whitecastle-4d2ff4"}, "geometry": {"type": "Point", "coordinates": [-82.983546, 39.985887]}},
{"type": "Feature", "id": "9NReEK7DmqhXznt_beYUlxHcWu0=", "properties": {"ref": "148", "@spider": "whitecastle", "amenity": "fast_food", "cuisine": "burger", "takeaway": "yes", "addr:street_address": "965 N HIGH ST", "addr:city": "Columbus", "addr:state": "OH", "addr:postcode": "43201", "name": "COLS 13", "phone": "6142919189", "website": "https://www.whitecastle.com/locations/148", "opening_hours": "Mo-We 10:00-01:00; Th-Fr 10:00-03:00; Sa-Su 10:00-01:00", "brand": "White Castle", "brand:wikidata": "Q1244034", "nsi_id": "whitecastle-4d2ff4"}, "geometry": {"type": "Point", "coordinates": [-83.004687, 39.981954]}},
{"type": "Feature", "id": "mhY1n0-AYoMjVgOTydgTzAJZxQ0=", "properties": {"ref": "161", "@spider": "whitecastle", "amenity": "fast_food", "cuisine": "burger", "takeaway": "yes", "addr:street_address": "1550 HILLIARD-ROME RD", "addr:city": "Columbus", "addr:state": "OH", "addr:postcode": "43026", "name": "COLS 26", "phone": "6147771590", "website": "https://www.whitecastle.com/locations/161", "opening_hours": "24/7", "brand": "White Castle", "brand:wikidata": "Q1244034", "nsi_id": "whitecastle-4d2ff4"}, "geometry": {"type": "Point", "coordinates": [-83.150117, 39.983247]}},
{"type": "Feature", "id": "_75e7tTBXcf_Xx5JvDC0wmLR9oA=", "properties": {"ref": "159", "@spider": "whitecastle", "amenity": "fast_food", "cuisine": "burger", "takeaway": "yes", "addr:street_address": "904 HEBRON RD", "addr:city": "Heath", "addr:state": "OH", "addr:postcode": "43056", "name": "COLS 24", "phone": "7405226467", "website": "https://www.whitecastle.com/locations/159", "opening_hours": "Mo-Su 07:00-10:00", "brand": "White Castle", "brand:wikidata": "Q1244034", "nsi_id": "whitecastle-4d2ff4"}, "geometry": {"type": "Point", "coordinates": [-82.445211, 40.026907]}},
{"type": "Feature", "id": "GnV0YILiZA4-oyv5H1Kci-BfnoI=", "properties": {"ref": "152", "@spider": "whitecastle", "amenity": "fast_food", "cuisine": "burger", "takeaway": "yes", "addr:street_address": "4525 KENNY RD", "addr:city": "Columbus", "addr:state": "OH", "addr:postcode": "43220", "name": "COLS 17", "phone": "6144578491", "website": "https://www.whitecastle.com/locations/152", "opening_hours": "Mo-Su 06:00-10:00", "brand": "White Castle", "brand:wikidata": "Q1244034", "nsi_id": "whitecastle-4d2ff4"}, "geometry": {"type": "Point", "coordinates": [-83.050212, 40.05267]}},
{"type": "Feature", "id": "vB1xMLanhJMYBSZXDYHSlP9ztLw=", "properties": {"ref": "149", "@spider": "whitecastle", "amenity": "fast_food", "cuisine": "burger", "takeaway": "yes", "addr:street_address": "1435 DUBLIN-GRANVILLE RD", "addr:city": "Columbus", "addr:state": "OH", "addr:postcode": "43229", "name": "COLS 14", "phone": "6148464791", "website": "https://www.whitecastle.com/locations/149", "opening_hours": "24/7", "brand": "White Castle", "brand:wikidata": "Q1244034", "nsi_id": "whitecastle-4d2ff4"}, "geometry": {"type": "Point", "coordinates": [-82.978171, 40.08684]}},
{"type": "Feature", "id": "VJXP9-_l9wglCH06hs6tGAvlN20=", "properties": {"ref": "1171", "@spider": "whitecastle", "amenity": "fast_food", "cuisine": "burger", "takeaway": "yes", "addr:street_address": "8787 Owenfield Drive", "addr:city": "Powell", "addr:state": "OH", "addr:postcode": "43035", "name": "COLS 35", "phone": "7405491321", "website": "https://www.whitecastle.com/locations/1171", "opening_hours": "Mo-Sa 06:00-09:00; Su 07:00-09:00", "brand": "White Castle", "brand:wikidata": "Q1244034", "nsi_id": "whitecastle-4d2ff4"}, "geometry": {"type": "Point", "coordinates": [-83.020381, 40.16355]}},
{"type": "Feature", "id": "Q_8wlLRQE1lKb_qL6gxEuobP4oM=", "properties": {"ref": "1303", "@spider": "whitecastle", "amenity": "fast_food", "cuisine": "burger", "takeaway": "yes", "addr:street_address": "1280 MacArthur Road", "addr:city": "Whitehall", "addr:state": "PA", "addr:postcode": "18052", "name": "NEWJ 43", "phone": "6104331417", "website": "https://www.whitecastle.com/locations/1303", "opening_hours": "24/7", "brand": "White Castle", "brand:wikidata": "Q1244034", "nsi_id": "whitecastle-4d2ff4"}, "geometry": {"type": "Point", "coordinates": [-75.482467, 40.623846]}},
{"type": "Feature", "id": "wlUsIrRA5B-e7D7jsSCwQ2kS7ns=", "properties": {"ref": "355", "@spider": "whitecastle", "amenity": "fast_food", "cuisine": "burger", "takeaway": "yes", "addr:street_address": "257 S BROADWAY", "addr:city": "Yonkers", "addr:state": "NY", "addr:postcode": "10705", "name": "NEWY 43", "phone": "9143760247", "website": "https://www.whitecastle.com/locations/355", "opening_hours": "24/7", "brand": "White Castle", "brand:wikidata": "Q1244034", "nsi_id": "whitecastle-4d2ff4"}, "geometry": {"type": "Point", "coordinates": [-73.895771, 40.924985]}},
{"type": "Feature", "id": "H2JRmo8b2WHPkiwgr9vCZB8l_dw=", "properties": {"ref": "1160", "@spider": "whitecastle", "amenity": "fast_food", "cuisine": "burger", "takeaway": "yes", "addr:street_address": "310 Bergen Turnpike", "addr:city": "Little Ferry", "addr:state": "NJ", "addr:postcode": "07643", "name": "NEWJ 36", "phone": "2016417552", "website": "https://www.whitecastle.com/locations/1160", "opening_hours": "24/7", "brand": "White Castle", "brand:wikidata": "Q1244034", "nsi_id": "whitecastle-4d2ff4"}, "geometry": {"type": "Point", "coordinates": [-74.03575, 40.858402]}},
{"type": "Feature", "id": "9kzB5jyowXVCgOvsdlGf6rNhZNU=", "properties": {"ref": "318", "@spider": "whitecastle", "amenity": "fast_food", "cuisine": "burger", "takeaway": "yes", "addr:street_address": "550 E FORDHAM RD", "addr:city": "Bronx", "addr:state": "NY", "addr:postcode": "10458", "name": "NEWY 02", "phone": "7185845310", "website": "https://www.whitecastle.com/locations/318", "opening_hours": "24/7", "brand": "White Castle", "brand:wikidata": "Q1244034", "nsi_id": "whitecastle-4d2ff4"}, "geometry": {"type": "Point", "coordinates": [-73.886446, 40.858855]}},
{"type": "Feature", "id": "o4_ohflIqWbSLRISunPgJfIAplU=", "properties": {"ref": "337", "@spider": "whitecastle", "amenity": "fast_food", "cuisine": "burger", "takeaway": "yes", "addr:street_address": "1831 WEBSTER AVE", "addr:city": "Bronx", "addr:state": "NY", "addr:postcode": "10457", "name": "NEWY 25", "phone": "7182941205", "website": "https://www.whitecastle.com/locations/337", "opening_hours": "24/7", "brand": "White Castle", "brand:wikidata": "Q1244034", "nsi_id": "whitecastle-4d2ff4"}, "geometry": {"type": "Point", "coordinates": [-73.902133, 40.846187]}},
{"type": "Feature", "id": "Am0p7y-MH8Z-Vwo3wGY6nw0BjQE=", "properties": {"ref": "319", "@spider": "whitecastle", "amenity": "fast_food", "cuisine": "burger", "takeaway": "yes", "addr:street_address": "2701 BOSTON RD", "addr:city": "Bronx", "addr:state": "NY", "addr:postcode": "10467", "name": "NEWY 03", "phone": "7182314978", "website": "https://www.whitecastle.com/locations/319", "opening_hours": "24/7", "brand": "White Castle", "brand:wikidata": "Q1244034", "nsi_id": "whitecastle-4d2ff4"}, "geometry": {"type": "Point", "coordinates": [-73.862175, 40.866052]}},
{"type": "Feature", "id": "sYdQkaR9aNedSUuDKeAyvSKGtbM=", "properties": {"ref": "347", "@spider": "whitecastle", "amenity": "fast_food", "cuisine": "burger", "takeaway": "yes", "addr:street_address": "3663 BOSTON RD", "addr:city": "Bronx", "addr:state": "NY", "addr:postcode": "10466", "name": "NEWY 35", "phone": "7182311347", "website": "https://www.whitecastle.com/locations/347", "opening_hours": "24/7", "brand": "White Castle", "brand:wikidata": "Q1244034", "nsi_id": "whitecastle-4d2ff4"}, "geometry": {"type": "Point", "coordinates": [-73.841929, 40.880298]}},
{"type": "Feature", "id": "vjrmofKttsq922b42EVq4OxI8_I=", "properties": {"ref": "305", "@spider": "whitecastle", "amenity": "fast_food", "cuisine": "burger", "takeaway": "yes", "addr:street_address": "37 STATE ROUTE 17", "addr:city": "Hasbrouck Heights", "addr:state": "NJ", "addr:postcode": "07604", "name": "NEWJ 19", "phone": "2012886835", "website": "https://www.whitecastle.com/locations/305", "opening_hours": "Mo-Su 07:00-02:00", "brand": "White Castle", "brand:wikidata": "Q1244034", "nsi_id": "whitecastle-4d2ff4"}, "geometry": {"type": "Point", "coordinates": [-74.075519, 40.850131]}},
{"type": "Feature", "id": "a-LmWz8cs8cBr46eGTGThrQUx84=", "properties": {"ref": "295", "@spider": "whitecastle", "amenity": "fast_food", "cuisine": "burger", "takeaway": "yes", "addr:street_address": "1341 MAIN AVE", "addr:city": "Clifton", "addr:state": "NJ", "addr:postcode": "07011", "name": "NEWJ 08", "phone": "9737720335", "website": "https://www.whitecastle.com/locations/295", "opening_hours": "24/7", "brand": "White Castle", "brand:wikidata": "Q1244034", "nsi_id": "whitecastle-4d2ff4"}, "geometry": {"type": "Point", "coordinates": [-74.144989, 40.880158]}},
{"type": "Feature", "id": "i2iqeH8ThuJ84RmoYAIfoT0KwM4=", "properties": {"ref": "296", "@spider": "whitecastle", "amenity": "fast_food", "cuisine": "burger", "takeaway": "yes", "addr:street_address": "9271 Kennedy Blvd.", "addr:city": "North Bergen", "addr:state": "NJ", "addr:postcode": "07047", "name": "NEWJ 09", "phone": "2018693477", "website": "https://www.whitecastle.com/locations/296", "opening_hours": "24/7", "brand": "White Castle", "brand:wikidata": "Q1244034", "nsi_id": "whitecastle-4d2ff4"}, "geometry": {"type": "Point", "coordinates": [-74.001321, 40.809968]}},
{"type": "Feature", "id": "Z4NcSLsiWBU7K1zxjmQyOCFV0V0=", "properties": {"ref": "363", "@spider": "whitecastle", "amenity": "fast_food", "cuisine": "burger", "takeaway": "yes", "addr:street_address": "931 WESTCHESTER AVE", "addr:city": "Bronx", "addr:state": "NY", "addr:postcode": "10459", "name": "NEWY 51", "phone": "7185422101", "website": "https://www.whitecastle.com/locations/363", "opening_hours": "24/7", "brand": "White Castle", "brand:wikidata": "Q1244034", "nsi_id": "whitecastle-4d2ff4"}, "geometry": {"type": "Point", "coordinates": [-73.897471, 40.822076]}},
{"type": "Feature", "id": "jRPbeUV8P_N8A9NDXaTMVFC3Yo4=", "properties": {"ref": "368", "@spider": "whitecastle", "amenity": "fast_food", "cuisine": "burger", "takeaway": "yes", "addr:street_address": "2092-2094 7TH AVE", "addr:city": "New York", "addr:state": "NY", "addr:postcode": "10029", "name": "NEWY 56", "phone": "2126663556", "website": "https://www.whitecastle.com/locations/368", "opening_hours": "Mo-We 09:00-05:00; Th 09:00-05:45; Fr 06:00-05:45; Sa 06:00-05:00; Su 09:00-05:00", "brand": "White Castle", "brand:wikidata": "Q1244034", "nsi_id": "whitecastle-4d2ff4"}, "geometry": {"type": "Point", "coordinates": [-73.948825, 40.808799]}},
{"type": "Feature", "id": "Xrlrf1pgzbVAIvf9SiwgzKYPaM4=", "properties": {"ref": "334", "@spider": "whitecastle", "amenity": "fast_food", "cuisine": "burger", "takeaway": "yes", "addr:street_address": "1677 BRUCKNER BLVD", "addr:city": "Bronx", "addr:state": "NY", "addr:postcode": "10472", "name": "NEWY 22", "phone": "7188934494", "website": "https://www.whitecastle.com/locations/334", "opening_hours": "24/7", "brand": "White Castle", "brand:wikidata": "Q1244034", "nsi_id": "whitecastle-4d2ff4"}, "geometry": {"type": "Point", "coordinates": [-73.871102, 40.825118]}},
{"type": "Feature", "id": "q1S0SwU88maU1KTCwz_cdBcailQ=", "properties": {"ref": "591", "@spider": "whitecastle", "amenity": "fast_food", "cuisine": "burger", "takeaway": "yes", "addr:street_address": "220 BROADWAY", "addr:city": "Paterson", "addr:state": "NJ", "addr:postcode": "07522", "name": "NEWJ 32", "phone": "9733458928", "website": "https://www.whitecastle.com/locations/591", "opening_hours": "24/7", "brand": "White Castle", "brand:wikidata": "Q1244034", "nsi_id": "whitecastle-4d2ff4"}, "geometry": {"type": "Point", "coordinates": [-74.180568, 40.924131]}},
{"type": "Feature", "id": "MWhc4kG20ZxvjIiKIUpc1mwym7w=", "properties": {"ref": "359", "@spider": "whitecastle", "amenity": "fast_food", "cuisine": "burger", "takeaway": "yes", "addr:street_address": "2900 E TREMONT AVE", "addr:city": "Bronx", "addr:state": "NY", "addr:postcode": "10461", "name": "NEWY 47", "phone": "7187927659", "website": "https://www.whitecastle.com/locations/359", "opening_hours": "24/7", "brand": "White Castle", "brand:wikidata": "Q1244034", "nsi_id": "whitecastle-4d2ff4"}, "geometry": {"type": "Point", "coordinates": [-73.841332, 40.840243]}},
{"type": "Feature", "id": "ZBIgQrhI3YyUU1dGFuWMTTNsoSM=", "properties": {"ref": "369", "@spider": "whitecastle", "amenity": "fast_food", "cuisine": "burger", "takeaway": "yes", "addr:street_address": "351 E 103RD ST", "addr:city": "New York", "addr:state": "NY", "addr:postcode": "10029", "name": "NEWY 57", "phone": "2128766737", "website": "https://www.whitecastle.com/locations/369", "opening_hours": "24/7", "brand": "White Castle", "brand:wikidata": "Q1244034", "nsi_id": "whitecastle-4d2ff4"}, "geometry": {"type": "Point", "coordinates": [-73.9417, 40.788056]}},
{"type": "Feature", "id": "ZcwuH5X1WxdDwWNYf1CduClJ9Zc=", "properties": {"ref": "935", "@spider": "whitecastle", "amenity": "fast_food", "cuisine": "burger", "takeaway": "yes", "addr:street_address": "3810 KENNEDY BLVD", "addr:city": "Union City", "addr:state": "NJ", "addr:postcode": "07087", "name": "NEWJ 34", "phone": "2018676888", "website": "https://www.whitecastle.com/locations/935", "opening_hours": "24/7", "brand": "White Castle", "brand:wikidata": "Q1244034", "nsi_id": "whitecastle-4d2ff4"}, "geometry": {"type": "Point", "coordinates": [-74.028704, 40.776684]}},
{"type": "Feature", "id": "s5ksEV1GG_tzwIOfvZ3Mg2CY89w=", "properties": {"ref": "330", "@spider": "whitecastle", "amenity": "fast_food", "cuisine": "burger", "takeaway": "yes", "addr:street_address": "43-02 QUEENS BLVD", "addr:city": "Sunnyside", "addr:state": "NY", "addr:postcode": "11104", "name": "NEWY 18", "phone": "7187862475", "website": "https://www.whitecastle.com/locations/330", "opening_hours": "24/7", "brand": "White Castle", "brand:wikidata": "Q1244034", "nsi_id": "whitecastle-4d2ff4"}, "geometry": {"type": "Point", "coordinates": [-73.921355, 40.74299]}},
{"type": "Feature", "id": "VMY6GcfmUy3Noy52ekQ25R4E_n4=", "properties": {"ref": "301", "@spider": "whitecastle", "amenity": "fast_food", "cuisine": "burger", "takeaway": "yes", "addr:street_address": "2995 KENNEDY BLVD", "addr:city": "Jersey City", "addr:state": "NJ", "addr:postcode": "07306", "name": "NEWJ 14", "phone": "2017923645", "website": "https://www.whitecastle.com/locations/301", "opening_hours": "24/7", "brand": "White Castle", "brand:wikidata": "Q1244034", "nsi_id": "whitecastle-4d2ff4"}, "geometry": {"type": "Point", "coordinates": [-74.063449, 40.735815]}},
{"type": "Feature", "id": "P22bqIgbHWyk-QIwoO54MDJuelg=", "properties": {"ref": "314", "@spider": "whitecastle", "amenity": "fast_food", "cuisine": "burger", "takeaway": "yes", "addr:street_address": "642-654 BROADWAY", "addr:city": "Newark", "addr:state": "NJ", "addr:postcode": "07104", "name": "NEWJ 28", "phone": "9734853250", "website": "https://www.whitecastle.com/locations/314", "opening_hours": "24/7", "brand": "White Castle", "brand:wikidata": "Q1244034", "nsi_id": "whitecastle-4d2ff4"}, "geometry": {"type": "Point", "coordinates": [-74.161865, 40.772602]}},
{"type": "Feature", "id": "b6312BAmOfRayuxjWasfwdt3wVs=", "properties": {"ref": "328", "@spider": "whitecastle", "amenity": "fast_food", "cuisine": "burger", "takeaway": "yes", "addr:street_address": "89-03 57TH AVE", "addr:city": "Elmhurst", "addr:state": "NY", "addr:postcode": "11373", "name": "NEWY 16", "phone": "7184260618", "website": "https://www.whitecastle.com/locations/328", "opening_hours": "24/7", "brand": "White Castle", "brand:wikidata": "Q1244034", "nsi_id": "whitecastle-4d2ff4"}, "geometry": {"type": "Point", "coordinates": [-73.87317, 40.734761]}},
{"type": "Feature", "id": "160I5QMsaU-liMstSA15Lb1MuH4=", "properties": {"ref": "320", "@spider": "whitecastle", "amenity": "fast_food", "cuisine": "burger", "takeaway": "yes", "addr:street_address": "213-17 NORTHERN BLVD", "addr:city": "Bayside Queens", "addr:state": "NY", "addr:postcode": "11361", "name": "NEWY 07", "phone": "7182247333", "website": "https://www.whitecastle.com/locations/320", "opening_hours": "Mo-We 09:00-11:00; Th-Fr 09:00-05:00; Sa 09:00-00:00; Su 09:00-11:00", "brand": "White Castle", "brand:wikidata": "Q1244034", "nsi_id": "whitecastle-4d2ff4"}, "geometry": {"type": "Point", "coordinates": [-73.769826, 40.760558]}},
{"type": "Feature", "id": "xg-cjTOD09yMpwILIRRvW0jHlrI=", "properties": {"ref": "1141", "@spider": "whitecastle", "amenity": "fast_food", "cuisine": "burger", "takeaway": "yes", "addr:street_address": "1545 Myrtle Ave.", "addr:city": "Brooklyn", "addr:state": "NY", "addr:postcode": "11237", "name": "NEWY 61", "phone": "7184187387", "website": "https://www.whitecastle.com/locations/1141", "opening_hours": "24/7", "brand": "White Castle", "brand:wikidata": "Q1244034", "nsi_id": "whitecastle-4d2ff4"}, "geometry": {"type": "Point", "coordinates": [-73.912878, 40.699549]}},
{"type": "Feature", "id": "iqX-JbZKNJQvdHXIWZTU0M4UI_I=", "properties": {"ref": "297", "@spider": "whitecastle", "amenity": "fast_food", "cuisine": "burger", "takeaway": "yes", "addr:street_address": "467 CENTRAL AVE", "addr:city": "Orange", "addr:state": "NJ", "addr:postcode": "07050", "name": "NEWJ 10", "phone": "9736737991", "website": "https://www.whitecastle.com/locations/297", "opening_hours": "24/7", "brand": "White Castle", "brand:wikidata": "Q1244034", "nsi_id": "whitecastle-4d2ff4"}, "geometry": {"type": "Point", "coordinates": [-74.239965, 40.768512]}},
{"type": "Feature", "id": "-Xns3tPHARkIYX69t41aA9RH-5E=", "properties": {"ref": "1221", "@spider": "whitecastle", "amenity": "fast_food", "cuisine": "burger", "takeaway": "yes", "addr:street_address": "951 South Orange Avenue", "addr:city": "East Orange", "addr:state": "NJ", "addr:postcode": "07018", "name": "NEWJ 39", "phone": "9736737207", "website": "https://www.whitecastle.com/locations/1221", "opening_hours": "24/7", "brand": "White Castle", "brand:wikidata": "Q1244034", "nsi_id": "whitecastle-4d2ff4"}, "geometry": {"type": "Point", "coordinates": [-74.227294, 40.746589]}},
{"type": "Feature", "id": "C7GT9A5KcN5lQF8VMqQefXHnSGM=", "properties": {"ref": "358", "@spider": "whitecastle", "amenity": "fast_food", "cuisine": "burger", "takeaway": "yes", "addr:street_address": "175-28 HILLSIDE AVE", "addr:city": "Jamaica Queens", "addr:state": "NY", "addr:postcode": "11432", "name": "NEWY 46", "phone": "7186576470", "website": "https://www.whitecastle.com/locations/358", "opening_hours": "Mo-Su 09:00-05:00", "brand": "White Castle", "brand:wikidata": "Q1244034", "nsi_id": "whitecastle-4d2ff4"}, "geometry": {"type": "Point", "coordinates": [-73.786533, 40.711784]}},
{"type": "Feature", "id": "ycJ8DZHCffbOZ811O7-O2TctiuM=", "properties": {"ref": "332", "@spider": "whitecastle", "amenity": "fast_food", "cuisine": "burger", "takeaway": "yes", "addr:street_address": "3101 ATLANTIC AVE", "addr:city": "Brooklyn", "addr:state": "NY", "addr:postcode": "11208", "name": "NEWY 20", "phone": "7188276057", "website": "https://www.whitecastle.com/locations/332", "opening_hours": "24/7", "brand": "White Castle", "brand:wikidata": "Q1244034", "nsi_id": "whitecastle-4d2ff4"}, "geometry": {"type": "Point", "coordinates": [-73.88124, 40.679243]}},
{"type": "Feature", "id": "Z5cutqomElnBB45uH7XioAyTHg8=", "properties": {"ref": "292", "@spider": "whitecastle", "amenity": "fast_food", "cuisine": "burger", "takeaway": "yes", "addr:street_address": "307 ELIZABETH AVE", "addr:city": "Newark", "addr:state": "NJ", "addr:postcode": "07112", "name": "NEWJ 01", "phone": "9732425307", "website": "https://www.whitecastle.com/locations/292", "opening_hours": "24/7", "brand": "White Castle", "brand:wikidata": "Q1244034", "nsi_id": "whitecastle-4d2ff4"}, "geometry": {"type": "Point", "coordinates": [-74.194613, 40.712957]}},
{"type": "Feature", "id": "ifZNnHf5ii7coW54pnkN3JKs_PE=", "properties": {"ref": "329", "@spider": "whitecastle", "amenity": "fast_food", "cuisine": "burger", "takeaway": "yes", "addr:street_address": "846 LEFFERTS BLVD", "addr:city": "Brooklyn", "addr:state": "NY", "addr:postcode": "11213", "name": "NEWY 17", "phone": "7187563377", "website": "https://www.whitecastle.com/locations/329", "opening_hours": "24/7", "brand": "White Castle", "brand:wikidata": "Q1244034", "nsi_id": "whitecastle-4d2ff4"}, "geometry": {"type": "Point", "coordinates": [-73.93218, 40.663228]}},
{"type": "Feature", "id": "XZ0CZGHf6-ajTnIdpyQOEb6_FW4=", "properties": {"ref": "357", "@spider": "whitecastle", "amenity": "fast_food", "cuisine": "burger", "takeaway": "yes", "addr:street_address": "9808 ROCKAWAY BLVD", "addr:city": "Ozone Park Queens", "addr:state": "NY", "addr:postcode": "11417", "name": "NEWY 45", "phone": "7186416870", "website": "https://www.whitecastle.com/locations/357", "opening_hours": "24/7", "brand": "White Castle", "brand:wikidata": "Q1244034", "nsi_id": "whitecastle-4d2ff4"}, "geometry": {"type": "Point", "coordinates": [-73.840459, 40.67981]}},
{"type": "Feature", "id": "K8vtArLnWNgz6DVQb40f9ZFJFgM=", "properties": {"ref": "315", "@spider": "whitecastle", "amenity": "fast_food", "cuisine": "burger", "takeaway": "yes", "addr:street_address": "480 LYONS AVE", "addr:city": "Irvington", "addr:state": "NJ", "addr:postcode": "07111", "name": "NEWJ 29", "phone": "9732820913", "website": "https://www.whitecastle.com/locations/315", "opening_hours": "24/7", "brand": "White Castle", "brand:wikidata": "Q1244034", "nsi_id": "whitecastle-4d2ff4"}, "geometry": {"type": "Point", "coordinates": [-74.224513, 40.715089]}},
{"type": "Feature", "id": "GRX0WQVAHuol7yCod4LfFJAV2dU=", "properties": {"ref": "345", "@spider": "whitecastle", "amenity": "fast_food", "cuisine": "burger", "takeaway": "yes", "addr:street_address": "900 PENNSYLVANIA AVE", "addr:city": "Brooklyn", "addr:state": "NY", "addr:postcode": "11207", "name": "NEWY 33", "phone": "7182721664", "website": "https://www.whitecastle.com/locations/345", "opening_hours": "24/7", "brand": "White Castle", "brand:wikidata": "Q1244034", "nsi_id": "whitecastle-4d2ff4"}, "geometry": {"type": "Point", "coordinates": [-73.889052, 40.655806]}},
{"type": "Feature", "id": "O4DCVA9fjIwzmp7u2QS-B9DUnB8=", "properties": {"ref": "350", "@spider": "whitecastle", "amenity": "fast_food", "cuisine": "burger", "takeaway": "yes", "addr:street_address": "112-11 SPRINGFIELD BLVD", "addr:city": "Queens", "addr:state": "NY", "addr:postcode": "11429", "name": "NEWY 38", "phone": "7184648334", "website": "https://www.whitecastle.com/locations/350", "opening_hours": "24/7", "brand": "White Castle", "brand:wikidata": "Q1244034", "nsi_id": "whitecastle-4d2ff4"}, "geometry": {"type": "Point", "coordinates": [-73.739488, 40.705261]}},
{"type": "Feature", "id": "c8LEaeL02Ex4tPA18JeYIgcd55U=", "properties": {"ref": "1270", "@spider": "whitecastle", "amenity": "fast_food", "cuisine": "burger", "takeaway": "yes", "addr:street_address": "2238 Forest Avenue", "addr:city": "Staten Island", "addr:state": "NY", "addr:postcode": "10303", "name": "NEWY 66", "phone": "7188161610", "website": "https://www.whitecastle.com/locations/1270", "opening_hours": "24/7", "brand": "White Castle", "brand:wikidata": "Q1244034", "nsi_id": "whitecastle-4d2ff4"}, "geometry": {"type": "Point", "coordinates": [-74.164342, 40.626728]}},
{"type": "Feature", "id": "7Xfpm95QYXbdI4S0VoBZ_LKIeSQ=", "properties": {"ref": "325", "@spider": "whitecastle", "amenity": "fast_food", "cuisine": "burger", "takeaway": "yes", "addr:street_address": "19 HEMPSTEAD TPKE", "addr:city": "West Hempstead", "addr:state": "NY", "addr:postcode": "11552", "name": "NEWY 13", "phone": "5164837468", "website": "https://www.whitecastle.com/locations/325", "opening_hours": "24/7", "brand": "White Castle", "brand:wikidata": "Q1244034", "nsi_id": "whitecastle-4d2ff4"}, "geometry": {"type": "Point", "coordinates": [-73.638697, 40.704418]}},
{"type": "Feature", "id": "FbTInIRQho7Zrl3W0Mghuch_-q8=", "properties": {"ref": "304", "@spider": "whitecastle", "amenity": "fast_food", "cuisine": "burger", "takeaway": "yes", "addr:street_address": "2458 ROUTE 22", "addr:city": "Union", "addr:state": "NJ", "addr:postcode": "07083", "name": "NEWJ 17", "phone": "9089640745", "website": "https://www.whitecastle.com/locations/304", "opening_hours": "24/7", "brand": "White Castle", "brand:wikidata": "Q1244034", "nsi_id": "whitecastle-4d2ff4"}, "geometry": {"type": "Point", "coordinates": [-74.298048, 40.689262]}},
{"type": "Feature", "id": "J4HjHrZzk-cLL-IhpGjiTf5vXZk=", "properties": {"ref": "600", "@spider": "whitecastle", "amenity": "fast_food", "cuisine": "burger", "takeaway": "yes", "addr:street_address": "2001 EDGAR RD", "addr:city": "Linden", "addr:state": "NJ", "addr:postcode": "07036", "name": "NEWJ 33", "phone": "9085870632", "website": "https://www.whitecastle.com/locations/600", "opening_hours": "24/7", "brand": "White Castle", "brand:wikidata": "Q1244034", "nsi_id": "whitecastle-4d2ff4"}, "geometry": {"type": "Point", "coordinates": [-74.226714, 40.645901]}},
{"type": "Feature", "id": "0Otv8jf3j0kCGkkej3QADacJG54=", "properties": {"ref": "322", "@spider": "whitecastle", "amenity": "fast_food", "cuisine": "burger", "takeaway": "yes", "addr:street_address": "490 SUNRISE HWY", "addr:city": "Lynbrook", "addr:state": "NY", "addr:postcode": "11563", "name": "NEWY 09", "phone": "5165938542", "website": "https://www.whitecastle.com/locations/322", "opening_hours": "24/7", "brand": "White Castle", "brand:wikidata": "Q1244034", "nsi_id": "whitecastle-4d2ff4"}, "geometry": {"type": "Point", "coordinates": [-73.673189, 40.655374]}}]}