{"type":"FeatureCollection","features":[{"type": "Feature", "id": "atF3nmxkgeFlp_k61jlkwJkBNTk=", "properties": {"ref": "1111", "type": "store", "shop": "newsagent", "@spider": "whsmith_uk", "addr:street_address": "Aberdeen Airport, Dyce", "addr:city": "Aberdeen", "addr:state": "Aberdeenshire", "addr:postcode": "AB21 7DU", "addr:country": "GB", "name": "WHSmith, Airside, Aberdeen Airport ", "phone": "01224 729779", "website": "https://www.whsmith.co.uk/stores/details/?StoreID=1111", "opening_hours": "Mo-Fr 04:30-21:00; Sa 04:30-21:30; Su 04:30-21:00", "brand": "WHSmith", "brand:wikidata": "Q1548712"}, "geometry": {"type": "Point", "coordinates": [-2.203099, 57.201705]}},
{"type": "Feature", "id": "jvPTPJiWyOWyi5W76GWEFN0kZCs=", "properties": {"ref": "1145", "type": "store", "shop": "newsagent", "@spider": "whsmith_uk", "addr:street_address": "Aberdeen Royal Infirmary , Foresterhill ", "addr:city": "Aberdeen", "addr:state": "Aberdeenshire", "addr:postcode": "AB25 2ZN", "addr:country": "GB", "name": "WHSmith, Aberdeen Royal Infirmary ", "phone": "Unavailable - Customer Services: 0333 6005000", "website": "https://www.whsmith.co.uk/stores/details/?StoreID=1145", "opening_hours": "Mo-Fr 07:00-20:00; Sa-Su 08:00-19:00", "brand": "WHSmith", "brand:wikidata": "Q1548712"}, "geometry": {"type": "Point", "coordinates": [-2.137463, 57.154201]}},
{"type": "Feature", "id": "yQ0MtwVgJjf7DBCB9jv_92DbZNQ=", "properties": {"ref": "1076", "type": "store", "shop": "newsagent", "@spider": "whsmith_uk", "addr:street_address": "408 - 412 Union Street", "addr:city": "Aberdeen", "addr:state": "Aberdeenshire", "addr:postcode": "AB10 1PD", "addr:country": "GB", "name": "WHSmith, Union Street, Aberdeen", "phone": "01224 639806", "website": "https://www.whsmith.co.uk/stores/details/?StoreID=1076", "opening_hours": "Mo-Sa 09:00-17:30; Su 11:30-15:30", "brand": "WHSmith", "brand:wikidata": "Q1548712"}, "geometry": {"type": "Point", "coordinates": [-2.109284, 57.143734]}},
{"type": "Feature", "id": "hssjSMw7vYj4i7tHxjGOaSF5-q8=", "properties": {"ref": "1038", "type": "store", "shop": "newsagent", "@spider": "whsmith_uk", "addr:street_address": "St Nicholas Shopping Centre, George Street", "addr:city": "Aberdeen", "addr:state": "Aberdeenshire", "addr:postcode": "AB10 1HW", "addr:country": "GB", "name": "WHSmith, St Nicholas Centre, Aberdeen", "phone": "01224 647301", "website": "https://www.whsmith.co.uk/stores/details/?StoreID=1038", "opening_hours": "Mo-Sa 08:30-18:00; Su 10:00-17:00", "brand": "WHSmith", "brand:wikidata": "Q1548712"}, "geometry": {"type": "Point", "coordinates": [-2.098496, 57.147995]}},
{"type": "Feature", "id": "ck3CYQn1TF947lwrphXPfEQDRFA=", "properties": {"ref": "1657", "type": "store", "shop": "newsagent", "@spider": "whsmith_uk", "addr:street_address": "Aberdeen Railway Station, Guild Street", "addr:city": "Aberdeen", "addr:state": "Aberdeenshire", "addr:postcode": "AB11 6LX", "addr:country": "GB", "name": "WHSmith, Aberdeen Railway Station", "phone": "01224 589230", "website": "https://www.whsmith.co.uk/stores/details/?StoreID=1657", "opening_hours": "Mo-Sa 07:00-21:00; Su 09:00-18:00", "brand": "WHSmith", "brand:wikidata": "Q1548712"}, "geometry": {"type": "Point", "coordinates": [-2.097317, 57.145]}},
{"type": "Feature", "id": "OTiD4C_6JcXDZqfD8HLm_bT-MGE=", "properties": {"ref": "1501", "type": "store", "shop": "newsagent", "@spider": "whsmith_uk", "addr:street_address": "Guild Street, Guild Street", "addr:city": "Aberdeen", "addr:state": "Aberdeenshire", "addr:postcode": "AB11 6NA", "addr:country": "GB", "name": "WHSmith, Aberdeen Bus Station", "phone": "01224 572009", "website": "https://www.whsmith.co.uk/stores/details/?StoreID=1501", "opening_hours": "Mo-Sa 07:00-19:00; Su 10:00-18:00", "brand": "WHSmith", "brand:wikidata": "Q1548712"}, "geometry": {"type": "Point", "coordinates": [-2.096607, 57.145043]}},
{"type": "Feature", "id": "kcFNL3wuuSHok_wkMwWpbK2bNXU=", "properties": {"ref": "1244", "type": "store", "shop": "newsagent", "@spider": "whsmith_uk", "addr:street_address": "33 High Street", "addr:city": "Banchory", "addr:state": "Aberdeenshire", "addr:postcode": "AB31 5TJ", "addr:country": "GB", "name": "WHSmith, High Street, Banchory", "phone": "01330 822753", "website": "https://www.whsmith.co.uk/stores/details/?StoreID=1244", "opening_hours": "Mo-Fr 08:00-18:00; Sa 08:00-17:30; Su 09:00-16:30", "brand": "WHSmith", "brand:wikidata": "Q1548712"}, "geometry": {"type": "Point", "coordinates": [-2.503971, 57.051453]}},
{"type": "Feature", "id": "4fjzk2PTe8Bl-h8o8eTz4rPJsiM=", "properties": {"ref": "5612", "type": "store", "shop": "newsagent", "@spider": "whsmith_uk", "addr:street_address": "57 Marischal Street", "addr:city": "Peterhead\t", "addr:state": "Aberdeenshire", "addr:postcode": "AB42 1PR", "addr:country": "GB", "name": "WHSmith, Marischal Street, Peterhead", "phone": "01779 478191", "website": "https://www.whsmith.co.uk/stores/details/?StoreID=5612", "opening_hours": "Mo-Fr 08:30-17:30; Sa 09:00-17:30; Su 11:00-15:00", "brand": "WHSmith", "brand:wikidata": "Q1548712"}, "geometry": {"type": "Point", "coordinates": [-1.777257, 57.505044]}},
{"type": "Feature", "id": "QH8chZaM83xmIMOG9lsp3HwRdng=", "properties": {"ref": "5058", "type": "store", "shop": "newsagent", "@spider": "whsmith_uk", "addr:street_address": "59 - 61 High Street", "addr:city": "Montrose\t", "addr:state": "Angus", "addr:postcode": "DD10 8QZ", "addr:country": "GB", "name": "WHSmith, High Street, Montrose", "phone": "01674 673892", "website": "https://www.whsmith.co.uk/stores/details/?StoreID=5058", "opening_hours": "Mo-Fr 08:30-17:30; Sa 09:00-17:00; Su 11:00-15:00", "brand": "WHSmith", "brand:wikidata": "Q1548712"}, "geometry": {"type": "Point", "coordinates": [-2.467953, 56.712106]}},
{"type": "Feature", "id": "zIiB2zoHJfsT9xpN0RbWxc6qDew=", "properties": {"ref": "3004", "type": "store", "shop": "newsagent", "@spider": "whsmith_uk", "addr:street_address": "St Giles Shopping Centre", "addr:city": "Elgin\t", "addr:state": "County of Moray", "addr:postcode": "IV30 1EA", "addr:country": "GB", "name": "WHSmith, St Giles Centre, Elgin", "phone": "01343 550002", "website": "https://www.whsmith.co.uk/stores/details/?StoreID=3004", "opening_hours": "Mo-Sa 08:30-17:30; Su 11:00-16:00", "brand": "WHSmith", "brand:wikidata": "Q1548712"}, "geometry": {"type": "Point", "coordinates": [-3.315736, 57.64855]}},
{"type": "Feature", "id": "tJv_J84AoerDatTvyTz4N-Mf6pU=", "properties": {"ref": "1152", "type": "store", "shop": "newsagent", "@spider": "whsmith_uk", "addr:street_address": "196 High Street", "addr:city": "Arbroath", "addr:state": "Angus", "addr:postcode": "DD11 1HY", "addr:country": "GB", "name": "WHSmith, High Street, Arbroath", "phone": "01241 873528", "website": "https://www.whsmith.co.uk/stores/details/?StoreID=1152", "opening_hours": "Mo-Sa 08:30-17:30; Su 11:00-15:00", "brand": "WHSmith", "brand:wikidata": "Q1548712"}, "geometry": {"type": "Point", "coordinates": [-2.583208, 56.560848]}},
{"type": "Feature", "id": "TnUPIXuhR3Xfg-JassSyxBUP0Tg=", "properties": {"ref": "2874", "type": "store", "shop": "newsagent", "@spider": "whsmith_uk", "addr:street_address": "61 - 63 Murraygate", "addr:city": "Dundee\t", "addr:state": "Angus", "addr:postcode": "DD1 2EA", "addr:country": "GB", "name": "WHSmith, Murraygate, Dundee", "phone": "01382 225464", "website": "https://www.whsmith.co.uk/stores/details/?StoreID=2874", "opening_hours": "Mo-Sa 08:30-17:00; Su 12:00-16:00", "brand": "WHSmith", "brand:wikidata": "Q1548712"}, "geometry": {"type": "Point", "coordinates": [-2.968159, 56.463049]}},
{"type": "Feature", "id": "-w_AoL6AgxJ-q1Oce4mqEkE5n1I=", "properties": {"ref": "1052", "type": "store", "shop": "newsagent", "@spider": "whsmith_uk", "addr:street_address": "Ninewells Hospital", "addr:city": "Dundee\t", "addr:state": "Angus", "addr:postcode": "DD1 9SY", "addr:country": "GB", "name": "WHSmith, Ninewells Hospital, Dundee", "phone": "01382 668002", "website": "https://www.whsmith.co.uk/stores/details/?StoreID=1052", "opening_hours": "Mo-Fr 06:30-21:00; Sa-Su 09:00-20:00", "brand": "WHSmith", "brand:wikidata": "Q1548712"}, "geometry": {"type": "Point", "coordinates": [-3.040236, 56.464115]}},
{"type": "Feature", "id": "Mbalcxk2_9cE-7oWBUA-MJrhQv8=", "properties": {"ref": "4115", "type": "store", "shop": "newsagent", "@spider": "whsmith_uk", "addr:street_address": "Inverness Airport, Dalcross", "addr:city": "Inverness\t", "addr:state": "Inverness-shire", "addr:postcode": "IV2 7JB", "addr:country": "GB", "name": "WHSmith, Airside, Inverness Airport ", "phone": "01667 464081", "website": "https://www.whsmith.co.uk/stores/details/?StoreID=4115", "opening_hours": "Mo 05:45-17:00; Tu-Th 05:45-17:30; Fr 05:45-20:45; Sa 05:45-14:15; Su 05:45-20:45", "brand": "WHSmith", "brand:wikidata": "Q1548712"}, "geometry": {"type": "Point", "coordinates": [-4.06187, 57.539369]}},
{"type": "Feature", "id": "0bUz12v0qzt8rgcSdj03DKapFT4=", "properties": {"ref": "5632", "type": "store", "shop": "newsagent", "@spider": "whsmith_uk", "addr:street_address": "83 Atholl Road", "addr:city": "Pitlochry\t", "addr:state": "Perth and Kinross", "addr:postcode": "PH16 5AB", "addr:country": "GB", "name": "WHSmith, Atholl Road, Pitlochry", "phone": "01796 472929", "website": "https://www.whsmith.co.uk/stores/details/?StoreID=5632", "opening_hours": "Mo-Sa 09:00-17:30; Su 12:00-16:00", "brand": "WHSmith", "brand:wikidata": "Q1548712"}, "geometry": {"type": "Point", "coordinates": [-3.735349, 56.703581]}},
{"type": "Feature", "id": "AmIdqY1i9lxZINocbGEnxh10JO4=", "properties": {"ref": "6056", "type": "store", "shop": "newsagent", "@spider": "whsmith_uk", "addr:street_address": "90 - 92 South Street", "addr:city": "St Andrews\t", "addr:state": "Fife", "addr:postcode": "KY16 9QD", "addr:country": "GB", "name": "WHSmith, South Street, St Andrews", "phone": "01334 472621", "website": "https://www.whsmith.co.uk/stores/details/?StoreID=6056", "opening_hours": "Mo-Sa 08:30-17:30; Su 12:00-16:00", "brand": "WHSmith", "brand:wikidata": "Q1548712"}, "geometry": {"type": "Point", "coordinates": [-2.796004, 56.339172]}},
{"type": "Feature", "id": "YxM_npZluQDQCMRL4yzLxWy8zb4=", "properties": {"ref": "4118", "type": "store", "shop": "newsagent", "@spider": "whsmith_uk", "addr:street_address": "25 - 33 High Street", "addr:city": "Inverness\t", "addr:state": "Inverness-shire", "addr:postcode": "IV1 1HT", "addr:country": "GB", "name": "WHSmith, High Street, Inverness", "phone": "01463 233885", "website": "https://www.whsmith.co.uk/stores/details/?StoreID=4118", "opening_hours": "Mo-Sa 08:30-17:30; Su 10:30-17:00", "brand": "WHSmith", "brand:wikidata": "Q1548712"}, "geometry": {"type": "Point", "coordinates": [-4.224213, 57.477873]}},
{"type": "Feature", "id": "BHwomiCLUViOnvE7OtZ7xeOlTVM=", "properties": {"ref": "1578", "type": "store", "shop": "newsagent", "@spider": "whsmith_uk", "addr:street_address": "Inverness Railway Station", "addr:city": "Inverness\t", "addr:state": "Inverness-shire", "addr:postcode": "IV1 1LE", "addr:country": "GB", "name": "WHSmith, Inverness Railway Station", "phone": "01463 222756", "website": "https://www.whsmith.co.uk/stores/details/?StoreID=1578", "opening_hours": "Mo-Sa 07:45-19:00; Su 09:30-18:00", "brand": "WHSmith", "brand:wikidata": "Q1548712"}, "geometry": {"type": "Point", "coordinates": [-4.2242, 57.479674]}},
{"type": "Feature", "id": "P9C18V9-CRQ-rlCJsnjsP596qyE=", "properties": {"ref": "2588", "type": "store", "shop": "newsagent", "@spider": "whsmith_uk", "addr:street_address": "20 Crossgate", "addr:city": "Cupar\t", "addr:state": "Fife", "addr:postcode": "KY15 5HH", "addr:country": "GB", "name": "WHSmith, Crossgate, Cupar", "phone": "01334 655856", "website": "https://www.whsmith.co.uk/stores/details/?StoreID=2588", "opening_hours": "Mo-Sa 08:30-17:30; Su 12:00-16:00", "brand": "WHSmith", "brand:wikidata": "Q1548712"}, "geometry": {"type": "Point", "coordinates": [-3.011057, 56.319034]}},
{"type": "Feature", "id": "xRmEKwqLmIggj2XMqrFx4yZc2W4=", "properties": {"ref": "5602", "type": "store", "shop": "newsagent", "@spider": "whsmith_uk", "addr:street_address": "91 - 97 High Street", "addr:city": "Perth\t", "addr:state": "Perth and Kinross", "addr:postcode": "PH1 5TJ", "addr:country": "GB", "name": "WHSmith, High Street, Perth", "phone": "01738 621425", "website": "https://www.whsmith.co.uk/stores/details/?StoreID=5602", "opening_hours": "Mo-Sa 08:30-17:30; Su 10:30-16:30", "brand": "WHSmith", "brand:wikidata": "Q1548712"}, "geometry": {"type": "Point", "coordinates": [-3.429421, 56.39661]}},
{"type": "Feature", "id": "txEFMmoBV9Tc2pe3dK1Ypl4g5z4=", "properties": {"ref": "3384", "type": "store", "shop": "newsagent", "@spider": "whsmith_uk", "addr:street_address": "Kingdom Shopping Centre, 21 Unicorn Way", "addr:city": "Glenrothes\t", "addr:state": "Fife", "addr:postcode": "KY7 5ND", "addr:country": "GB", "name": "WHSmith, Kingdom Centre, Glenrothes", "phone": "01592 750992", "website": "https://www.whsmith.co.uk/stores/details/?StoreID=3384", "opening_hours": "Mo-Sa 08:30-17:30; Su 11:00-15:00", "brand": "WHSmith", "brand:wikidata": "Q1548712"}, "geometry": {"type": "Point", "coordinates": [-3.173777, 56.195806]}},
{"type": "Feature", "id": "zsp6ti_Gzr9x3ERsms-JSrPB-6w=", "properties": {"ref": "4463", "type": "store", "shop": "newsagent", "@spider": "whsmith_uk", "addr:street_address": "Victoria Hospital, Hayfield Road", "addr:city": "Kirkcaldy\t", "addr:state": "Fife", "addr:postcode": "KY2 5AH", "addr:country": "GB", "name": "WHSmith, Maternity Victoria Hospital, Kirkcaldy", "phone": "01592 643394", "website": "https://www.whsmith.co.uk/stores/details/?StoreID=4463", "opening_hours": "Mo-Fr 07:00-20:00; Sa-Su 09:00-17:00", "brand": "WHSmith", "brand:wikidata": "Q1548712"}, "geometry": {"type": "Point", "coordinates": [-3.160879, 56.125905]}},
{"type": "Feature", "id": "pZFOsPED_CwC23iYGC2epzstcak=", "properties": {"ref": "3880", "type": "store", "shop": "newsagent", "@spider": "whsmith_uk", "addr:street_address": "139 - 141 Telegraph Road", "addr:city": "Heswall\t", "addr:state": "Merseyside", "addr:postcode": "CH60 7SE", "addr:country": "GB", "name": "WHSmith, Telegraph Road, Wirral", "phone": "0151 342 3804", "website": "https://www.whsmith.co.uk/stores/details/?StoreID=3880", "opening_hours": "Mo-Sa 09:00-17:30; Su 11:00-15:00", "brand": "WHSmith", "brand:wikidata": "Q1548712"}, "geometry": {"type": "Point", "coordinates": [-3.100206, 53.328575]}},
{"type": "Feature", "id": "PH71_JpaOLGXK5PXOL_aF1JT53w=", "properties": {"ref": "4320", "type": "store", "shop": "newsagent", "@spider": "whsmith_uk", "addr:street_address": "22 - 24 Princess Street", "addr:city": "Knutsford\t", "addr:state": "Cheshire", "addr:postcode": "WA16 6BU", "addr:country": "GB", "name": "WHSmith, Princess Street, Knutsford", "phone": "01565 625816", "website": "https://www.whsmith.co.uk/stores/details/?StoreID=4320", "opening_hours": "Mo-Sa 09:00-17:30; Su 10:00-16:00", "brand": "WHSmith", "brand:wikidata": "Q1548712"}, "geometry": {"type": "Point", "coordinates": [-2.375276, 53.304025]}},
{"type": "Feature", "id": "VkRBJJZfkWK-EoVktHUY6f2NIRI=", "properties": {"ref": "6278", "type": "store", "shop": "newsagent", "@spider": "whsmith_uk", "addr:street_address": "Crystal Peaks Shopping Centre, Mosborough", "addr:city": "Sheffield", "addr:state": "South Yorkshire", "addr:postcode": "S20 7PN", "addr:country": "GB", "name": "WHSmith, Crystal Peaks Shopping Centre, Sheffield", "phone": "0114 247 8818", "website": "https://www.whsmith.co.uk/stores/details/?StoreID=6278", "opening_hours": "Mo-Sa 09:00-17:30; Su 10:00-16:00", "brand": "WHSmith", "brand:wikidata": "Q1548712"}, "geometry": {"type": "Point", "coordinates": [-1.351292, 53.341905]}},
{"type": "Feature", "id": "K55867uAv1vJpviy8x-0TiJEyKM=", "properties": {"ref": "3302", "type": "store", "shop": "newsagent", "@spider": "whsmith_uk", "addr:street_address": "16 Church Street", "addr:city": "Frodsham\t", "addr:state": "Cheshire", "addr:postcode": "WA6 6QL", "addr:country": "GB", "name": "WHSmith, Church Street, Frodsham", "phone": "01928 735498", "website": "https://www.whsmith.co.uk/stores/details/?StoreID=3302", "opening_hours": "Mo-Sa 09:00-17:30; Su 11:00-15:00", "brand": "WHSmith", "brand:wikidata": "Q1548712"}, "geometry": {"type": "Point", "coordinates": [-2.724974, 53.295069]}},
{"type": "Feature", "id": "oNpIjlHVs9va-PDJLfSjP9GHClA=", "properties": {"ref": "5898", "type": "store", "shop": "newsagent", "@spider": "whsmith_uk", "addr:street_address": "37 High Street", "addr:city": "Rhyl\t", "addr:state": "Denbighshire", "addr:postcode": "LL18 1ER", "addr:country": "GB", "name": "WHSmith, High Street, Rhyl", "phone": "01745 351211", "website": "https://www.whsmith.co.uk/stores/details/?StoreID=5898", "opening_hours": "Mo-Sa 09:00-17:30; Su 10:30-15:30", "brand": "WHSmith", "brand:wikidata": "Q1548712"}, "geometry": {"type": "Point", "coordinates": [-3.490654, 53.321512]}},
{"type": "Feature", "id": "4PrzhYfApl780nFGmYMm_D0xJh0=", "properties": {"ref": "5340", "type": "store", "shop": "newsagent", "@spider": "whsmith_uk", "addr:street_address": "32 Witton Street", "addr:city": "Northwich\t", "addr:state": "Cheshire", "addr:postcode": "CW9 5AH", "addr:country": "GB", "name": "WHSmith, Witton Street, Northwich", "phone": "01606 42046", "website": "https://www.whsmith.co.uk/stores/details/?StoreID=5340", "opening_hours": "Mo-Sa 09:00-17:30; Su 10:00-16:00", "brand": "WHSmith", "brand:wikidata": "Q1548712"}, "geometry": {"type": "Point", "coordinates": [-2.509915, 53.262198]}},
{"type": "Feature", "id": "bSf22WV40odRAPogX1LEkghvwIw=", "properties": {"ref": "4762", "type": "store", "shop": "newsagent", "@spider": "whsmith_uk", "addr:street_address": "51 Mill Street", "addr:city": "Macclesfield\t", "addr:state": "Cheshire", "addr:postcode": "SK11 6NE", "addr:country": "GB", "name": "WHSmith, Mill Street, Macclesfield", "phone": "01625 427741", "website": "https://www.whsmith.co.uk/stores/details/?StoreID=4762", "opening_hours": "Mo-Sa 09:00-17:30; Su 10:00-16:00", "brand": "WHSmith", "brand:wikidata": "Q1548712"}, "geometry": {"type": "Point", "coordinates": [-2.126034, 53.259041]}},
{"type": "Feature", "id": "mMmjiihTswbz4jTypmcOWZQPZF8=", "properties": {"ref": "2014", "type": "store", "shop": "newsagent", "@spider": "whsmith_uk", "addr:street_address": "The Springs Shopping Centre", "addr:city": "Buxton", "addr:state": "Derbyshire", "addr:postcode": "SK17 6DF", "addr:country": "GB", "name": "WHSmith, Spring Gardens Centre, Buxton", "phone": "01298 70551", "website": "https://www.whsmith.co.uk/stores/details/?StoreID=2014", "opening_hours": "Mo-Sa 09:00-17:30; Su 10:00-16:00", "brand": "WHSmith", "brand:wikidata": "Q1548712"}, "geometry": {"type": "Point", "coordinates": [-1.911801, 53.259622]}},
{"type": "Feature", "id": "yFO7FJKJfnpEUZpke5yFD9Ho6dU=", "properties": {"ref": "4622", "type": "store", "shop": "newsagent", "@spider": "whsmith_uk", "addr:street_address": "Penrhyn House, 101 Mostyn Street", "addr:city": "Llandudno\t", "addr:state": "Gwynedd", "addr:postcode": "LL30 2NY", "addr:country": "GB", "name": "WHSmith, Penrhyn House, Llandudno", "phone": "01492 876377", "website": "https://www.whsmith.co.uk/stores/details/?StoreID=4622", "opening_hours": "Mo-Sa 09:00-17:30; Su 10:30-16:30", "brand": "WHSmith", "brand:wikidata": "Q1548712"}, "geometry": {"type": "Point", "coordinates": [-3.831042, 53.324907]}},
{"type": "Feature", "id": "XM4bpWeHOa-ZNu_9sKwrC4LRN2s=", "properties": {"ref": "2954", "type": "store", "shop": "newsagent", "@spider": "whsmith_uk", "addr:street_address": "40 - 44 Carolgate", "addr:city": "East Retford\t", "addr:state": "Nottinghamshire", "addr:postcode": "DN22 6DY", "addr:country": "GB", "name": "WHSmith, Carolgate, East Retford", "phone": "01777 708356", "website": "https://www.whsmith.co.uk/stores/details/?StoreID=2954", "opening_hours": "Mo-Sa 09:00-17:30; Su 10:00-16:00", "brand": "WHSmith", "brand:wikidata": "Q1548712"}, "geometry": {"type": "Point", "coordinates": [-0.941981, 53.320888]}},
{"type": "Feature", "id": "3ObomhoAZoccJbFUDbauKcRZstc=", "properties": {"ref": "2272", "type": "store", "shop": "newsagent", "@spider": "whsmith_uk", "addr:street_address": "4 Middle Pavement, The Pavements", "addr:city": "Chesterfield", "addr:state": "Derbyshire", "addr:postcode": "S40 1PA", "addr:country": "GB", "name": "WHSmith, Middle Pavement, Chesterfield", "phone": "01246 206774", "website": "https://www.whsmith.co.uk/stores/details/?StoreID=2272", "opening_hours": "Mo-Sa 09:00-17:30; Su 10:00-16:00", "brand": "WHSmith", "brand:wikidata": "Q1548712"}, "geometry": {"type": "Point", "coordinates": [-1.429285, 53.23491]}},
{"type": "Feature", "id": "OU9lFOsD-_07J6uKGCIfqcGy3ao=", "properties": {"ref": "2519", "type": "store", "shop": "newsagent", "@spider": "whsmith_uk", "addr:street_address": "Chester  Railway Station, Station Road ", "addr:city": "Chester", "addr:state": "Cheshire", "addr:postcode": "CH1 3DR", "addr:country": "GB", "name": "WHSmith, Chester Railway Station", "phone": "01244 318902", "website": "https://www.whsmith.co.uk/stores/details/?StoreID=2519", "opening_hours": "Mo-Fr 06:00-20:00; Sa 07:00-21:00; Su 08:00-18:00", "brand": "WHSmith", "brand:wikidata": "Q1548712"}, "geometry": {"type": "Point", "coordinates": [-2.882416, 53.197132]}},
{"type": "Feature", "id": "bm7zLJckaVyZtvAsQ8WFZHtsso8=", "properties": {"ref": "2292", "type": "store", "shop": "newsagent", "@spider": "whsmith_uk", "addr:street_address": "5 - 7 Foregate Street", "addr:city": "Chester", "addr:state": "Cheshire", "addr:postcode": "CH1 1HH", "addr:country": "GB", "name": "WHSmith, Foregate Street, Chester", "phone": "01244 321106", "website": "https://www.whsmith.co.uk/stores/details/?StoreID=2292", "opening_hours": "Mo-Sa 09:00-18:00; Su 11:00-17:00", "brand": "WHSmith", "brand:wikidata": "Q1548712"}, "geometry": {"type": "Point", "coordinates": [-2.88861, 53.191152]}},
{"type": "Feature", "id": "PZDm5zP19yFo-IssLJy3NwubIrw=", "properties": {"ref": "2476", "type": "store", "shop": "newsagent", "@spider": "whsmith_uk", "addr:street_address": "39 - 41 High Street", "addr:city": "Congleton\t", "addr:state": "Cheshire", "addr:postcode": "CW12 1AU", "addr:country": "GB", "name": "WHSmith, High Street, Congleton", "phone": "01260 278302", "website": "https://www.whsmith.co.uk/stores/details/?StoreID=2476", "opening_hours": "Mo-Sa 09:00-17:30; Su 10:00-16:00", "brand": "WHSmith", "brand:wikidata": "Q1548712"}, "geometry": {"type": "Point", "coordinates": [-2.212991, 53.163274]}},
{"type": "Feature", "id": "kD2tNruHaDpB_d-tAeaO5bPT8SI=", "properties": {"ref": "1892", "type": "store", "shop": "newsagent", "@spider": "whsmith_uk", "addr:street_address": "Broughton Park, Broughton Mills Road", "addr:city": "Chester", "addr:state": "Flintshire", "addr:postcode": "CH4 0BY", "addr:country": "GB", "name": "WHSmith, Broughton Park, Chester", "phone": "01244 532188", "website": "https://www.whsmith.co.uk/stores/details/?StoreID=1892", "opening_hours": "Mo-Fr 09:00-20:00; Sa 09:00-19:00; Su 11:00-17:00", "brand": "WHSmith", "brand:wikidata": "Q1548712"}, "geometry": {"type": "Point", "coordinates": [-2.972643, 53.169002]}},
{"type": "Feature", "id": "DH-bcgkrPyAGfbvZ-v7eGy-D_hE=", "properties": {"ref": "5044", "type": "store", "shop": "newsagent", "@spider": "whsmith_uk", "addr:street_address": "24 High Street, St David", "addr:city": "Mold\t", "addr:state": "Flintshire", "addr:postcode": "CH7 1AZ", "addr:country": "GB", "name": "WHSmith, High Street, Mold", "phone": "01352 754569", "website": "https://www.whsmith.co.uk/stores/details/?StoreID=5044", "opening_hours": "Mo-Sa 08:30-17:30; Su 10:00-14:00", "brand": "WHSmith", "brand:wikidata": "Q1548712"}, "geometry": {"type": "Point", "coordinates": [-3.142116, 53.167183]}},
{"type": "Feature", "id": "as3tJ6CITJRPENikdQCaTUYhixg=", "properties": {"ref": "6168", "type": "store", "shop": "newsagent", "@spider": "whsmith_uk", "addr:street_address": "12 High Street", "addr:city": "Sandbach\t", "addr:state": "Cheshire", "addr:postcode": "CW11 1AX", "addr:country": "GB", "name": "WHSmith, High Street, Sandbach", "phone": "01270 762414", "website": "https://www.whsmith.co.uk/stores/details/?StoreID=6168", "opening_hours": "Mo-Sa 09:00-17:30; Su 10:00-16:00", "brand": "WHSmith", "brand:wikidata": "Q1548712"}, "geometry": {"type": "Point", "coordinates": [-2.363058, 53.144394]}},
{"type": "Feature", "id": "jnNhUd9M0bzdPw4Le-wkoq6cJq8=", "properties": {"ref": "4686", "type": "store", "shop": "newsagent", "@spider": "whsmith_uk", "addr:street_address": "24 Market Place", "addr:city": "Louth\t", "addr:state": "Lincolnshire", "addr:postcode": "LN11 9PD", "addr:country": "GB", "name": "WHSmith, Market Place, Louth", "phone": "01507 611256", "website": "https://www.whsmith.co.uk/stores/details/?StoreID=4686", "opening_hours": "Mo-Sa 09:00-17:30; Su 10:30-15:00", "brand": "WHSmith", "brand:wikidata": "Q1548712"}, "geometry": {"type": "Point", "coordinates": [-0.004565, 53.36636]}},
{"type": "Feature", "id": "YFH9ap1XPpUFVdc3amPFzIuAVUo=", "properties": {"ref": "7454", "type": "store", "shop": "newsagent", "@spider": "whsmith_uk", "addr:street_address": "30 The Howard Shopping Centre", "addr:city": "Welwyn Garden City\t", "addr:state": "Hertfordshire", "addr:postcode": "AL8 6HA", "addr:country": "GB", "name": "WHSmith, The Howard Centre, Welwyn Garden City", "phone": "01707 373686", "website": "https://www.whsmith.co.uk/stores/details/?StoreID=7454", "opening_hours": "Mo-Sa 09:00-17:30; Su 10:00-16:00", "brand": "WHSmith", "brand:wikidata": "Q1548712"}, "geometry": {"type": "Point", "coordinates": [-0.204572, 51.801207]}},
{"type": "Feature", "id": "LvuCTwJDnAkpjhn4Nd8zOuw5EY8=", "properties": {"ref": "7264", "type": "store", "shop": "newsagent", "@spider": "whsmith_uk", "addr:street_address": "92 Woodcote Road", "addr:city": "Wallington\t", "addr:state": "Greater London (South)", "addr:postcode": "SM6 0NG", "addr:country": "GB", "name": "WHSmith, Wallington", "phone": "020 8669 7739", "website": "https://www.whsmith.co.uk/stores/details/?StoreID=7264", "opening_hours": "Mo-Sa 09:00-17:30; Su 10:00-16:00", "brand": "WHSmith", "brand:wikidata": "Q1548712"}, "geometry": {"type": "Point", "coordinates": [-0.149587, 51.358541]}},
{"type": "Feature", "id": "sMTwPxQmGU6ThItCk1TPxCRMTkg=", "properties": {"ref": "3138", "type": "store", "shop": "newsagent", "@spider": "whsmith_uk", "addr:street_address": "Princes Mead Shopping Centre", "addr:city": "Farnborough\t", "addr:state": "Hampshire", "addr:postcode": "GU14 6YA", "addr:country": "GB", "name": "WHSmith, Princes Mead Centre, Farnborough", "phone": "01252 378530", "website": "https://www.whsmith.co.uk/stores/details/?StoreID=3138", "opening_hours": "Mo-Sa 09:00-17:30; Su 10:00-16:00", "brand": "WHSmith", "brand:wikidata": "Q1548712"}, "geometry": {"type": "Point", "coordinates": [-0.757974, 51.291952]}},
{"type": "Feature", "id": "0-slZoKvvE9AWcgFOF3svpHRBTE=", "properties": {"ref": "5442", "type": "store", "shop": "newsagent", "@spider": "whsmith_uk", "addr:street_address": "Nugent Retail Park", "addr:city": "Orpington\t ", "addr:state": "Kent", "addr:postcode": "BR5 3RP", "addr:country": "GB", "name": "WHSmith, Nugent Retail Park, Orpington", "phone": "01689 896965", "website": "https://www.whsmith.co.uk/stores/details/?StoreID=5442", "opening_hours": "Mo-Sa 09:00-17:30; Su 11:00-17:00", "brand": "WHSmith", "brand:wikidata": "Q1548712"}, "geometry": {"type": "Point", "coordinates": [0.11155, 51.39304]}},
{"type": "Feature", "id": "MwA9hZMSB89p8yPPDK5x1xty1y8=", "properties": {"ref": "3220", "type": "store", "shop": "newsagent", "@spider": "whsmith_uk", "addr:street_address": "The Hart Shopping Centre", "addr:city": "Fleet\t", "addr:state": "Hampshire", "addr:postcode": "GU51 3LA", "addr:country": "GB", "name": "WHSmith, The Hart Centre, Fleet", "phone": "01252 812388", "website": "https://www.whsmith.co.uk/stores/details/?StoreID=3220", "opening_hours": "Mo-Sa 09:00-17:30; Su 10:00-16:00", "brand": "WHSmith", "brand:wikidata": "Q1548712"}, "geometry": {"type": "Point", "coordinates": [-0.841723, 51.280787]}},
{"type": "Feature", "id": "Z_81EunNcqKO21_krJTkLyEqnXM=", "properties": {"ref": "7442", "type": "store", "shop": "newsagent", "@spider": "whsmith_uk", "addr:street_address": "45 High Street", "addr:city": "Wells\t", "addr:state": "Somerset", "addr:postcode": "BA5 2AE", "addr:country": "GB", "name": "WHSmith, High Street, Wells", "phone": "01749 674056", "website": "https://www.whsmith.co.uk/stores/details/?StoreID=7442", "opening_hours": "Mo-Sa 08:30-17:30; Su 10:00-16:00", "brand": "WHSmith", "brand:wikidata": "Q1548712"}, "geometry": {"type": "Point", "coordinates": [-2.647539, 51.208384]}},
{"type": "Feature", "id": "CKXqfNl9nq3Ft91_3FxUM3t4rfM=", "properties": {"ref": "3042", "type": "store", "shop": "newsagent", "@spider": "whsmith_uk", "addr:street_address": "36 The Ashley Shopping Centre", "addr:city": "Epsom\t", "addr:state": "Surrey", "addr:postcode": "KT18 5DB", "addr:country": "GB", "name": "WHSmith, The Ashley Shopping Centre, Epsom", "phone": "01372 728292", "website": "https://www.whsmith.co.uk/stores/details/?StoreID=3042", "opening_hours": "Mo-Sa 09:00-18:00; Su 10:30-16:30", "brand": "WHSmith", "brand:wikidata": "Q1548712"}, "geometry": {"type": "Point", "coordinates": [-0.269337, 51.33147]}},
{"type": "Feature", "id": "8esJTFwqicJV-yRRg4XD_8Sccog=", "properties": {"ref": "7318", "type": "store", "shop": "newsagent", "@spider": "whsmith_uk", "addr:street_address": "8 - 10 Three Horseshoes Mall", "addr:city": "Warminster\t", "addr:state": "Wiltshire", "addr:postcode": "BA12 9BT", "addr:country": "GB", "name": "WHSmith, Three Horseshoes Mall, Warminster", "phone": "01985 846757", "website": "https://www.whsmith.co.uk/stores/details/?StoreID=7318", "opening_hours": "Mo-Sa 09:00-17:30; Su 10:00-16:00", "brand": "WHSmith", "brand:wikidata": "Q1548712"}, "geometry": {"type": "Point", "coordinates": [-2.180049, 51.205313]}},
{"type": "Feature", "id": "meuxqM7h3eVwTd0HA5jAkuM3iPc=", "properties": {"ref": "5440", "type": "store", "shop": "newsagent", "@spider": "whsmith_uk", "addr:street_address": "189 - 193 High Street", "addr:city": "Orpington\t", "addr:state": "Kent", "addr:postcode": "BR6 0PF", "addr:country": "GB", "name": "WHSmith, High Street, Orpington", "phone": "01689 871516", "website": "https://www.whsmith.co.uk/stores/details/?StoreID=5440", "opening_hours": "Mo-Sa 09:00-17:30; Su 10:00-16:00", "brand": "WHSmith", "brand:wikidata": "Q1548712"}, "geometry": {"type": "Point", "coordinates": [0.100052, 51.376691]}},
{"type": "Feature", "id": "j7ALdi2_vaTeTi269FU_i2yH_IE=", "properties": {"ref": "3039", "type": "store", "shop": "newsagent", "@spider": "whsmith_uk", "addr:street_address": "Epsom General Hospital, Dorking Road", "addr:city": "Epsom\t", "addr:state": "Surrey", "addr:postcode": "KT18 7EG", "addr:country": "GB", "name": "WHSmith, Epsom General Hospital, Surrey", "phone": "01372 722351", "website": "https://www.whsmith.co.uk/stores/details/?StoreID=3039", "opening_hours": "Mo-Fr 07:00-20:00; Sa-Su 09:00-19:00", "brand": "WHSmith", "brand:wikidata": "Q1548712"}, "geometry": {"type": "Point", "coordinates": [-0.273412, 51.325033]}},
{"type": "Feature", "id": "oQAt2XVNrWzGoWATvKvN5eomsGY=", "properties": {"ref": "2449", "type": "store", "shop": "newsagent", "@spider": "whsmith_uk", "addr:street_address": "M25 Junction 9/10 Services, Between Junctions 9 and 10", "addr:city": "Cobham\t", "addr:state": "Surrey", "addr:postcode": "KT11 3DB", "addr:country": "GB", "name": "WHSmith, Motorway Services, M25 Junction 9/10, Cobham ", "phone": "01932 584851", "website": "https://www.whsmith.co.uk/stores/details/?StoreID=2449", "opening_hours": "Mo-Fr 05:00-23:00; Sa-Su 07:00-22:00", "brand": "WHSmith", "brand:wikidata": "Q1548712"}, "geometry": {"type": "Point", "coordinates": [-0.405752, 51.304695]}},
{"type": "Feature", "id": "WgZ12m8D7vdjcCUv76iET-YsEAY=", "properties": {"ref": "1134", "type": "store", "shop": "newsagent", "@spider": "whsmith_uk", "addr:street_address": "31 High Street", "addr:city": "Andover", "addr:state": "Hampshire", "addr:postcode": "SP10 1LJ", "addr:country": "GB", "name": "WHSmith, High Street, Andover", "phone": "01264 363154", "website": "https://www.whsmith.co.uk/stores/details/?StoreID=1134", "opening_hours": "Mo-Sa 09:00-17:30; Su 10:00-16:00", "brand": "WHSmith", "brand:wikidata": "Q1548712"}, "geometry": {"type": "Point", "coordinates": [-1.479291, 51.207157]}},
{"type": "Feature", "id": "v2dGPJIFfRQd27B1lCRp8rCU_Yg=", "properties": {"ref": "4382", "type": "store", "shop": "newsagent", "@spider": "whsmith_uk", "addr:street_address": "15 Swan Shopping Centre", "addr:city": "Leatherhead\t", "addr:state": "Surrey", "addr:postcode": "KT22 8AH", "addr:country": "GB", "name": "WHSmith, Swan Shopping Centre, Leatherhead", "phone": "01372 378011", "website": "https://www.whsmith.co.uk/stores/details/?StoreID=4382", "opening_hours": "Mo-Sa 09:00-17:30; Su 10:00-16:00", "brand": "WHSmith", "brand:wikidata": "Q1548712"}, "geometry": {"type": "Point", "coordinates": [-0.327648, 51.29576]}}]}