{"type":"FeatureCollection","features":[{"type": "Feature", "id": "PMVZjHSLf4mTaGnctpCZZ3aLz0Y=", "properties": {"ref": "8053", "@spider": "wickes_gb", "shop": "doityourself", "addr:street_address": "120 LEADS ROAD", "addr:city": "HULL", "addr:postcode": "HU7 0DP", "addr:country": "GB", "name": "Wickes Hull", "phone": "01482 839575", "website": "https://www.wickes.co.uk/store/8053", "image": "https://prod1-wx-wickesprod03-aws-travisperkins-cloud-public.s3.amazonaws.com/sys-master/images/hef/h68/12499868516382/wickes-store.jpg", "brand": "Wickes", "brand:wikidata": "Q7998350", "nsi_id": "wickes-ae8e02"}, "geometry": {"type": "Point", "coordinates": [-0.323088, 53.771933]}},
{"type": "Feature", "id": "-mfuSzq7twm35qI4c9pVCBBa8ag=", "properties": {"ref": "8251", "@spider": "wickes_gb", "shop": "doityourself", "addr:street_address": "SUNNYCLIFF RETAIL PARK", "addr:city": "MORECAMBE", "addr:postcode": "LA3 3FE", "addr:country": "GB", "name": "Wickes Lancaster", "phone": "01524 848148", "website": "https://www.wickes.co.uk/store/8251", "image": "https://prod1-wx-wickesprod03-aws-travisperkins-cloud-public.s3.amazonaws.com/sys-master/images/hef/h68/12499868516382/wickes-store.jpg", "brand": "Wickes", "brand:wikidata": "Q7998350", "nsi_id": "wickes-ae8e02"}, "geometry": {"type": "Point", "coordinates": [-2.842197, 54.054602]}},
{"type": "Feature", "id": "rd3GmNZrT0-9uz9N3gH5D9o-w2o=", "properties": {"ref": "8250", "@spider": "wickes_gb", "shop": "doityourself", "addr:street_address": "LOCKITT STREET", "addr:city": "Cheshire", "addr:postcode": "CW2 7BB", "addr:country": "GB", "name": "Wickes Crewe", "phone": "01270 251784", "website": "https://www.wickes.co.uk/store/8250", "image": "https://prod1-wx-wickesprod03-aws-travisperkins-cloud-public.s3.amazonaws.com/sys-master/images/hef/h68/12499868516382/wickes-store.jpg", "brand": "Wickes", "brand:wikidata": "Q7998350", "nsi_id": "wickes-ae8e02"}, "geometry": {"type": "Point", "coordinates": [-2.437882, 53.092653]}},
{"type": "Feature", "id": "Ha0WFut72_1iQX_4BK72PKxF9Iw=", "properties": {"ref": "8248", "@spider": "wickes_gb", "shop": "doityourself", "addr:street_address": "1 ST CATHERINES RETAIL PARK", "addr:city": "PERTH", "addr:postcode": "PH1 5XD", "addr:country": "GB", "name": "Wickes Perth", "phone": "01738 643985", "website": "https://www.wickes.co.uk/store/8248", "image": "https://prod1-wx-wickesprod03-aws-travisperkins-cloud-public.s3.amazonaws.com/sys-master/images/hef/h68/12499868516382/wickes-store.jpg", "brand": "Wickes", "brand:wikidata": "Q7998350", "nsi_id": "wickes-ae8e02"}, "geometry": {"type": "Point", "coordinates": [-3.441978, 56.397588]}},
{"type": "Feature", "id": "uHxYmr60WNj4-5VOkdfCnfvpHoo=", "properties": {"ref": "8247", "@spider": "wickes_gb", "shop": "doityourself", "addr:street_address": "OLD MILL LANE", "addr:city": "YORKSHIRE", "addr:postcode": "S71 1LS", "addr:country": "GB", "name": "Wickes Barnsley", "phone": "01226 770659", "website": "https://www.wickes.co.uk/store/8247", "image": "https://prod1-wx-wickesprod03-aws-travisperkins-cloud-public.s3.amazonaws.com/sys-master/images/hef/h68/12499868516382/wickes-store.jpg", "brand": "Wickes", "brand:wikidata": "Q7998350", "nsi_id": "wickes-ae8e02"}, "geometry": {"type": "Point", "coordinates": [-1.470569, 53.561854]}},
{"type": "Feature", "id": "OusMmuJqp76wPCTrg8Qe2am_7fw=", "properties": {"ref": "8246", "@spider": "wickes_gb", "shop": "doityourself", "addr:street_address": "UNIT 1 TURBARY RETAIL PARK", "addr:city": "BOURNEMOUTH", "addr:postcode": "BH11 8LL", "addr:country": "GB", "name": "Wickes Bournemouth", "phone": "01202 590709", "website": "https://www.wickes.co.uk/store/8246", "image": "https://prod1-wx-wickesprod03-aws-travisperkins-cloud-public.s3.amazonaws.com/sys-master/images/hef/h68/12499868516382/wickes-store.jpg", "brand": "Wickes", "brand:wikidata": "Q7998350", "nsi_id": "wickes-ae8e02"}, "geometry": {"type": "Point", "coordinates": [-1.926757, 50.7569]}},
{"type": "Feature", "id": "Wa216qSlJcDkVMt_EtfpYRJgI_w=", "properties": {"ref": "8243", "@spider": "wickes_gb", "shop": "doityourself", "addr:street_address": "STURLAS WAY", "addr:city": "Hertfordshire", "addr:postcode": "EN8 7BF", "addr:country": "GB", "name": "Wickes Waltham Cross", "phone": "01992 622223", "website": "https://www.wickes.co.uk/store/8243", "image": "https://prod1-wx-wickesprod03-aws-travisperkins-cloud-public.s3.amazonaws.com/sys-master/images/hef/h68/12499868516382/wickes-store.jpg", "brand": "Wickes", "brand:wikidata": "Q7998350", "nsi_id": "wickes-ae8e02"}, "geometry": {"type": "Point", "coordinates": [-0.033776, 51.688017]}},
{"type": "Feature", "id": "1dpK_386vDlIOMIm5CxsbNYunhY=", "properties": {"ref": "8240", "@spider": "wickes_gb", "shop": "doityourself", "addr:street_address": "VINCENT LANE", "addr:city": "SURREY", "addr:postcode": "RH4 3HQ", "addr:country": "GB", "name": "Wickes Dorking", "phone": "01306 877687", "website": "https://www.wickes.co.uk/store/8240", "image": "https://prod1-wx-wickesprod03-aws-travisperkins-cloud-public.s3.amazonaws.com/sys-master/images/hef/h68/12499868516382/wickes-store.jpg", "brand": "Wickes", "brand:wikidata": "Q7998350", "nsi_id": "wickes-ae8e02"}, "geometry": {"type": "Point", "coordinates": [-0.337039, 51.228742]}},
{"type": "Feature", "id": "DXEcUmoNGGhdiV2bW5wK9frLvU4=", "properties": {"ref": "8239", "@spider": "wickes_gb", "shop": "doityourself", "addr:street_address": "LEGER WAY", "addr:city": "South Yorkshire", "addr:postcode": "DN2 6AZ", "addr:country": "GB", "name": "Wickes Doncaster", "phone": "01302 367867", "website": "https://www.wickes.co.uk/store/8239", "image": "https://prod1-wx-wickesprod03-aws-travisperkins-cloud-public.s3.amazonaws.com/sys-master/images/hef/h68/12499868516382/wickes-store.jpg", "brand": "Wickes", "brand:wikidata": "Q7998350", "nsi_id": "wickes-ae8e02"}, "geometry": {"type": "Point", "coordinates": [-1.102284, 53.523091]}},
{"type": "Feature", "id": "z69ijhtUGvWNevwWaihTPrnopEw=", "properties": {"ref": "8238", "@spider": "wickes_gb", "shop": "doityourself", "addr:street_address": "ACREWOOD WAY", "addr:city": "Hertfordshire", "addr:postcode": "AL4 0JY", "addr:country": "GB", "name": "Wickes St Albans", "phone": "01727 857545", "website": "https://www.wickes.co.uk/store/8238", "image": "https://prod1-wx-wickesprod03-aws-travisperkins-cloud-public.s3.amazonaws.com/sys-master/images/hef/h68/12499868516382/wickes-store.jpg", "brand": "Wickes", "brand:wikidata": "Q7998350", "nsi_id": "wickes-ae8e02"}, "geometry": {"type": "Point", "coordinates": [-0.279523, 51.751403]}},
{"type": "Feature", "id": "Z4Whd-DgX4oQ4YBcqAYvKRR9nNI=", "properties": {"ref": "8237", "@spider": "wickes_gb", "shop": "doityourself", "addr:street_address": "QUILL STREET", "addr:city": "LONDON", "addr:postcode": "W5 1DN", "addr:country": "GB", "name": "Wickes Hanger Lane", "phone": "020 8810 6793", "website": "https://www.wickes.co.uk/store/8237", "image": "https://prod1-wx-wickesprod03-aws-travisperkins-cloud-public.s3.amazonaws.com/sys-master/images/hef/h68/12499868516382/wickes-store.jpg", "brand": "Wickes", "brand:wikidata": "Q7998350", "nsi_id": "wickes-ae8e02"}, "geometry": {"type": "Point", "coordinates": [-0.297406, 51.53414]}},
{"type": "Feature", "id": "lkRm-3lDHJdfiCbU9Hr2x95S19w=", "properties": {"ref": "8236", "@spider": "wickes_gb", "shop": "doityourself", "addr:street_address": "WYNNE AVENUE", "addr:city": "GREATER MANCHESTER", "addr:postcode": "M27 8FU", "addr:country": "GB", "name": "Wickes Clifton", "phone": "0161 727 9277", "website": "https://www.wickes.co.uk/store/8236", "image": "https://prod1-wx-wickesprod03-aws-travisperkins-cloud-public.s3.amazonaws.com/sys-master/images/hef/h68/12499868516382/wickes-store.jpg", "brand": "Wickes", "brand:wikidata": "Q7998350", "nsi_id": "wickes-ae8e02"}, "geometry": {"type": "Point", "coordinates": [-2.335116, 53.52533]}},
{"type": "Feature", "id": "2gpd9ZyPh-3xBEF_nJ1B-QqKMwk=", "properties": {"ref": "8235", "@spider": "wickes_gb", "shop": "doityourself", "addr:street_address": "1151 STRATFORD ROAD", "addr:city": "BIRMINGHAM", "addr:postcode": "B28 8BX", "addr:country": "GB", "name": "Wickes Hall Green", "phone": "0121 7782225", "website": "https://www.wickes.co.uk/store/8235", "image": "https://prod1-wx-wickesprod03-aws-travisperkins-cloud-public.s3.amazonaws.com/sys-master/images/hef/h68/12499868516382/wickes-store.jpg", "brand": "Wickes", "brand:wikidata": "Q7998350", "nsi_id": "wickes-ae8e02"}, "geometry": {"type": "Point", "coordinates": [-1.847631, 52.437037]}},
{"type": "Feature", "id": "n0TbCSZm7IuNjvQxrvklmKb_Vqo=", "properties": {"ref": "8234", "@spider": "wickes_gb", "shop": "doityourself", "addr:street_address": "BOTLEY ROAD", "addr:city": "Oxfordshire", "addr:postcode": "OX2 0HA", "addr:country": "GB", "name": "Wickes Oxford", "phone": "01865 202030", "website": "https://www.wickes.co.uk/store/8234", "image": "https://prod1-wx-wickesprod03-aws-travisperkins-cloud-public.s3.amazonaws.com/sys-master/images/hef/h68/12499868516382/wickes-store.jpg", "brand": "Wickes", "brand:wikidata": "Q7998350", "nsi_id": "wickes-ae8e02"}, "geometry": {"type": "Point", "coordinates": [-1.2896, 51.752634]}},
{"type": "Feature", "id": "fBXPves8G8Q4-DxjB2h67avyOMs=", "properties": {"ref": "8233", "@spider": "wickes_gb", "shop": "doityourself", "addr:street_address": "NEW CUT", "addr:city": "Kent", "addr:postcode": "ME4 6AA", "addr:country": "GB", "name": "Wickes Chatham", "phone": "01634 406060", "website": "https://www.wickes.co.uk/store/8233", "image": "https://prod1-wx-wickesprod03-aws-travisperkins-cloud-public.s3.amazonaws.com/sys-master/images/hef/h68/12499868516382/wickes-store.jpg", "brand": "Wickes", "brand:wikidata": "Q7998350", "nsi_id": "wickes-ae8e02"}, "geometry": {"type": "Point", "coordinates": [0.521308, 51.381508]}},
{"type": "Feature", "id": "xom2rTrVI7nd8svNuVZc7PDgeWM=", "properties": {"ref": "8231", "@spider": "wickes_gb", "shop": "doityourself", "addr:street_address": "RAVENSIDE RETAIL PARK", "addr:city": "STOKE-ON-TRENT", "addr:postcode": "ST4 2HT", "addr:country": "GB", "name": "Wickes Stoke", "phone": "01782 747661", "website": "https://www.wickes.co.uk/store/8231", "image": "https://prod1-wx-wickesprod03-aws-travisperkins-cloud-public.s3.amazonaws.com/sys-master/images/hef/h68/12499868516382/wickes-store.jpg", "brand": "Wickes", "brand:wikidata": "Q7998350", "nsi_id": "wickes-ae8e02"}, "geometry": {"type": "Point", "coordinates": [-2.167405, 53.009194]}},
{"type": "Feature", "id": "khx8hTQ8eKs_YlBk5fblqWsgfrY=", "properties": {"ref": "8565", "@spider": "wickes_gb", "shop": "doityourself", "addr:street_address": "UNIT 1A , BOLTON SHOPPING PARK", "addr:city": "BOLTON", "addr:postcode": "BL3 6DH", "addr:country": "GB", "name": "Bolton", "phone": "01204 808518", "website": "https://www.wickes.co.uk/store/8565", "image": "https://prod1-wx-wickesprod03-aws-travisperkins-cloud-public.s3.amazonaws.com/sys-master/images/hef/h68/12499868516382/wickes-store.jpg", "brand": "Wickes", "brand:wikidata": "Q7998350", "nsi_id": "wickes-ae8e02"}, "geometry": {"type": "Point", "coordinates": [-2.43193, 53.57327]}},
{"type": "Feature", "id": "GlKCWi1fBQqR8CbNUtg6krLhKcM=", "properties": {"ref": "8714", "@spider": "wickes_gb", "shop": "doityourself", "addr:street_address": "4 WELLSPRING ROAD SUNDERLAND", "addr:city": "SUNDERLAND", "addr:postcode": "SR4 9FA", "addr:country": "GB", "name": "Sunderland", "phone": "0191 2058603", "website": "https://www.wickes.co.uk/store/8714", "image": "https://prod1-wx-wickesprod03-aws-travisperkins-cloud-public.s3.amazonaws.com/sys-master/images/hef/h68/12499868516382/wickes-store.jpg", "brand": "Wickes", "brand:wikidata": "Q7998350", "nsi_id": "wickes-ae8e02"}, "geometry": {"type": "Point", "coordinates": [-1.453333607, 54.89236163]}},
{"type": "Feature", "id": "_zop--Y7Bqj5_sI5A__4JlCA7zk=", "properties": {"ref": "8501", "@spider": "wickes_gb", "shop": "doityourself", "addr:street_address": "UNIT 1, DRAGON RETAIL PARK", "addr:city": "CARDIFF", "addr:postcode": "CF23 9AD", "addr:country": "GB", "name": "Wickes Cardiff Newport Road", "phone": "029 20114606", "website": "https://www.wickes.co.uk/store/8501", "image": "https://prod1-wx-wickesprod03-aws-travisperkins-cloud-public.s3.amazonaws.com/sys-master/images/hef/h68/12499868516382/wickes-store.jpg", "brand": "Wickes", "brand:wikidata": "Q7998350", "nsi_id": "wickes-ae8e02"}, "geometry": {"type": "Point", "coordinates": [-3.142862, 51.499408]}},
{"type": "Feature", "id": "iKaeM9sOeEZHzfpk2fzRJr9yE6o=", "properties": {"ref": "8510", "@spider": "wickes_gb", "shop": "doityourself", "addr:street_address": "UNIT 2, HAWTHORN TRADE PARK", "addr:city": "STAINES", "addr:postcode": "TW18 3AY", "addr:country": "GB", "name": "Wickes Staines", "phone": "01784 843111", "website": "https://www.wickes.co.uk/store/8510", "image": "https://prod1-wx-wickesprod03-aws-travisperkins-cloud-public.s3.amazonaws.com/sys-master/images/hef/h68/12499868516382/wickes-store.jpg", "brand": "Wickes", "brand:wikidata": "Q7998350", "nsi_id": "wickes-ae8e02"}, "geometry": {"type": "Point", "coordinates": [-0.531219, 51.43251]}},
{"type": "Feature", "id": "VTHGKsHHJAXYqW04_cLdUArrFLU=", "properties": {"ref": "8520", "@spider": "wickes_gb", "shop": "doityourself", "addr:street_address": "UNIT 5, WESTMORELAND AVENUE", "addr:city": "LEICESTER", "addr:postcode": "LE4 8PH", "addr:country": "GB", "name": "Wickes Leicester Thurmaston", "phone": "0116 201 8450", "website": "https://www.wickes.co.uk/store/8520", "image": "https://prod1-wx-wickesprod03-aws-travisperkins-cloud-public.s3.amazonaws.com/sys-master/images/hef/h68/12499868516382/wickes-store.jpg", "brand": "Wickes", "brand:wikidata": "Q7998350", "nsi_id": "wickes-ae8e02"}, "geometry": {"type": "Point", "coordinates": [-1.098074, 52.6833]}},
{"type": "Feature", "id": "y0r2e7mPdDrN8-CHBfjTsJIMdhk=", "properties": {"ref": "8500", "@spider": "wickes_gb", "shop": "doityourself", "addr:street_address": "1 BESSEMER ROAD", "addr:city": "Hertfordshire", "addr:postcode": "AL7 1GF", "addr:country": "GB", "name": "Wickes Welwyn Garden City", "phone": "01707 428652", "website": "https://www.wickes.co.uk/store/8500", "image": "https://prod1-wx-wickesprod03-aws-travisperkins-cloud-public.s3.amazonaws.com/sys-master/images/hef/h68/12499868516382/wickes-store.jpg", "brand": "Wickes", "brand:wikidata": "Q7998350", "nsi_id": "wickes-ae8e02"}, "geometry": {"type": "Point", "coordinates": [-0.1991081, 51.802922]}},
{"type": "Feature", "id": "sKyIh5yWeYqCP6cPpA-5NGxKAG8=", "properties": {"ref": "8388", "@spider": "wickes_gb", "shop": "doityourself", "addr:street_address": "UNIT 5, THE COLONNADES", "addr:city": "CROYDON", "addr:postcode": "CR0 4RQ", "addr:country": "GB", "name": "Wickes Croydon Purley Way", "phone": "0203 251 0117", "website": "https://www.wickes.co.uk/store/8388", "image": "https://prod1-wx-wickesprod03-aws-travisperkins-cloud-public.s3.amazonaws.com/sys-master/images/hef/h68/12499868516382/wickes-store.jpg", "brand": "Wickes", "brand:wikidata": "Q7998350", "nsi_id": "wickes-ae8e02"}, "geometry": {"type": "Point", "coordinates": [-0.1141159, 51.356635]}},
{"type": "Feature", "id": "0EwSSuwdyvuYQabRqSqz0qZHow8=", "properties": {"ref": "8049", "@spider": "wickes_gb", "shop": "doityourself", "addr:street_address": "13 INVINCIBLE ROAD", "addr:city": "HAMPSHIRE", "addr:postcode": "GU14 7QU", "addr:country": "GB", "name": "Wickes Farnborough", "phone": "01252 510251", "website": "https://www.wickes.co.uk/store/8049", "image": "https://prod1-wx-wickesprod03-aws-travisperkins-cloud-public.s3.amazonaws.com/sys-master/images/hef/h68/12499868516382/wickes-store.jpg", "brand": "Wickes", "brand:wikidata": "Q7998350", "nsi_id": "wickes-ae8e02"}, "geometry": {"type": "Point", "coordinates": [-0.763052, 51.288846]}},
{"type": "Feature", "id": "vnAxuG21kUmpuu-CQUgO3dklW3Y=", "properties": {"ref": "8048", "@spider": "wickes_gb", "shop": "doityourself", "addr:street_address": "PRIORY FIELDS", "addr:city": "SOMERSET", "addr:postcode": "TA1 1QS", "addr:country": "GB", "name": "Wickes Taunton", "phone": "01823 326943", "website": "https://www.wickes.co.uk/store/8048", "image": "https://prod1-wx-wickesprod03-aws-travisperkins-cloud-public.s3.amazonaws.com/sys-master/images/hef/h68/12499868516382/wickes-store.jpg", "brand": "Wickes", "brand:wikidata": "Q7998350", "nsi_id": "wickes-ae8e02"}, "geometry": {"type": "Point", "coordinates": [-3.091676, 51.02082]}},
{"type": "Feature", "id": "5Qd2SGT_tM3S2Lqv5ae_yKi8BuQ=", "properties": {"ref": "8393", "@spider": "wickes_gb", "shop": "doityourself", "addr:street_address": "BLABY ROAD", "addr:city": "Leicestershire", "addr:postcode": "LE18 4SE", "addr:country": "GB", "name": "Wickes Leicester Wigston", "phone": "0116 3552 489", "website": "https://www.wickes.co.uk/store/8393", "image": "https://prod1-wx-wickesprod03-aws-travisperkins-cloud-public.s3.amazonaws.com/sys-master/images/hef/h68/12499868516382/wickes-store.jpg", "brand": "Wickes", "brand:wikidata": "Q7998350", "nsi_id": "wickes-ae8e02"}, "geometry": {"type": "Point", "coordinates": [-1.125402, 52.582105]}},
{"type": "Feature", "id": "YJFT9HIO0Buf0fD13mvwjSKkins=", "properties": {"ref": "8041", "@spider": "wickes_gb", "shop": "doityourself", "addr:street_address": "SANDOWN ROAD", "addr:city": "Cambridgeshire", "addr:postcode": "PE14 0SL", "addr:country": "GB", "name": "Wickes Wisbech", "phone": "01945 819415", "website": "https://www.wickes.co.uk/store/8041", "image": "https://prod1-wx-wickesprod03-aws-travisperkins-cloud-public.s3.amazonaws.com/sys-master/images/hef/h68/12499868516382/wickes-store.jpg", "brand": "Wickes", "brand:wikidata": "Q7998350", "nsi_id": "wickes-ae8e02"}, "geometry": {"type": "Point", "coordinates": [0.1477978, 52.653045]}},
{"type": "Feature", "id": "RgY5wTIVa2G9vUnmnBcSmTd2Uxs=", "properties": {"ref": "8398", "@spider": "wickes_gb", "shop": "doityourself", "addr:street_address": "GIPSY LANE", "addr:city": "Bedfordshire", "addr:postcode": "LU1 3JH", "addr:country": "GB", "name": "Wickes Luton", "phone": "01582 448040", "website": "https://www.wickes.co.uk/store/8398", "image": "https://prod1-wx-wickesprod03-aws-travisperkins-cloud-public.s3.amazonaws.com/sys-master/images/hef/h68/12499868516382/wickes-store.jpg", "brand": "Wickes", "brand:wikidata": "Q7998350", "nsi_id": "wickes-ae8e02"}, "geometry": {"type": "Point", "coordinates": [-0.39734, 51.872421]}},
{"type": "Feature", "id": "jbhQ-OeHiINzTdLsLSnSFM88KFc=", "properties": {"ref": "8397", "@spider": "wickes_gb", "shop": "doityourself", "addr:street_address": "OTTERSPOOL WAY", "addr:city": "HERTFORDSHIRE", "addr:postcode": "WD25 8HL", "addr:country": "GB", "name": "Wickes Watford", "phone": "01923 225554", "website": "https://www.wickes.co.uk/store/8397", "image": "https://prod1-wx-wickesprod03-aws-travisperkins-cloud-public.s3.amazonaws.com/sys-master/images/hef/h68/12499868516382/wickes-store.jpg", "brand": "Wickes", "brand:wikidata": "Q7998350", "nsi_id": "wickes-ae8e02"}, "geometry": {"type": "Point", "coordinates": [-0.3658466, 51.667215]}},
{"type": "Feature", "id": "AssqW7_flDG5AiR_2eF9b0HmyTg=", "properties": {"ref": "8361", "@spider": "wickes_gb", "shop": "doityourself", "addr:street_address": "WILLIE SNAITH ROAD", "addr:city": "NEWMARKET", "addr:postcode": "CB8 7TG", "addr:country": "GB", "name": "Wickes Newmarket", "phone": "01638 389590", "website": "https://www.wickes.co.uk/store/8361", "image": "https://prod1-wx-wickesprod03-aws-travisperkins-cloud-public.s3.amazonaws.com/sys-master/images/hef/h68/12499868516382/wickes-store.jpg", "brand": "Wickes", "brand:wikidata": "Q7998350", "nsi_id": "wickes-ae8e02"}, "geometry": {"type": "Point", "coordinates": [0.3975116, 52.2600857]}},
{"type": "Feature", "id": "7o_h84ed1Dr8bFS49R83g7uJPws=", "properties": {"ref": "8037", "@spider": "wickes_gb", "shop": "doityourself", "addr:street_address": "UNIT 25 CASTLEFIELDS IND EST", "addr:city": "BRIDGWATER", "addr:postcode": "TA6 4DH", "addr:country": "GB", "name": "Wickes Bridgwater", "phone": "01278 446380", "website": "https://www.wickes.co.uk/store/8037", "image": "https://prod1-wx-wickesprod03-aws-travisperkins-cloud-public.s3.amazonaws.com/sys-master/images/hef/h68/12499868516382/wickes-store.jpg", "brand": "Wickes", "brand:wikidata": "Q7998350", "nsi_id": "wickes-ae8e02"}, "geometry": {"type": "Point", "coordinates": [-2.92623, 51.105097]}},
{"type": "Feature", "id": "x0jEupgLTw7kIH_0Qn9uSsEjHhg=", "properties": {"ref": "8399", "@spider": "wickes_gb", "shop": "doityourself", "addr:street_address": "YAFFORTH ROAD", "addr:city": "NORTH YORKSHIRE", "addr:postcode": "DL6 2XG", "addr:country": "GB", "name": "Wickes Northallerton", "phone": "01609 776223", "website": "https://www.wickes.co.uk/store/8399", "image": "https://prod1-wx-wickesprod03-aws-travisperkins-cloud-public.s3.amazonaws.com/sys-master/images/hef/h68/12499868516382/wickes-store.jpg", "brand": "Wickes", "brand:wikidata": "Q7998350", "nsi_id": "wickes-ae8e02"}, "geometry": {"type": "Point", "coordinates": [-1.441762, 54.345946]}},
{"type": "Feature", "id": "KyZ2DCiP64DIS0SHNo5c3cgiST0=", "properties": {"ref": "8390", "@spider": "wickes_gb", "shop": "doityourself", "addr:street_address": "BETTS WAY", "addr:city": "West Sussex", "addr:postcode": "RH10 9BQ", "addr:country": "GB", "name": "Wickes Crawley", "phone": "01293 465300", "website": "https://www.wickes.co.uk/store/8390", "image": "https://prod1-wx-wickesprod03-aws-travisperkins-cloud-public.s3.amazonaws.com/sys-master/images/hef/h68/12499868516382/wickes-store.jpg", "brand": "Wickes", "brand:wikidata": "Q7998350", "nsi_id": "wickes-ae8e02"}, "geometry": {"type": "Point", "coordinates": [-0.1871726, 51.134511]}},
{"type": "Feature", "id": "t3jJ_wQs8G6Q4LMQIKKhNdkJcfk=", "properties": {"ref": "8044", "@spider": "wickes_gb", "shop": "doityourself", "addr:street_address": "ANSON ROAD", "addr:city": "IPSWICH", "addr:postcode": "IP5 3RU", "addr:country": "GB", "name": "Wickes Martlesham Heath", "phone": "01473 200168", "website": "https://www.wickes.co.uk/store/8044", "image": "https://prod1-wx-wickesprod03-aws-travisperkins-cloud-public.s3.amazonaws.com/sys-master/images/hef/h68/12499868516382/wickes-store.jpg", "brand": "Wickes", "brand:wikidata": "Q7998350", "nsi_id": "wickes-ae8e02"}, "geometry": {"type": "Point", "coordinates": [1.278424, 52.065987]}},
{"type": "Feature", "id": "SNOpa6eb9ccDilFMDgLocBSCkW4=", "properties": {"ref": "8495", "@spider": "wickes_gb", "shop": "doityourself", "addr:street_address": "UNIT 1, CANAL VIEW ROAD", "addr:city": "BERKSHIRE", "addr:postcode": "RG14 5XF", "addr:country": "GB", "name": "Wickes Newbury", "phone": "01635 569970", "website": "https://www.wickes.co.uk/store/8495", "image": "https://prod1-wx-wickesprod03-aws-travisperkins-cloud-public.s3.amazonaws.com/sys-master/images/hef/h68/12499868516382/wickes-store.jpg", "brand": "Wickes", "brand:wikidata": "Q7998350", "nsi_id": "wickes-ae8e02"}, "geometry": {"type": "Point", "coordinates": [-1.299447, 51.400237]}},
{"type": "Feature", "id": "wTZVQBn0k9-0uFxsPgR9ifOCmjY=", "properties": {"ref": "8378", "@spider": "wickes_gb", "shop": "doityourself", "addr:street_address": "1 COURIER ROAD", "addr:city": "NORTHANTS", "addr:postcode": "NN17 5AT", "addr:country": "GB", "name": "Wickes Corby", "phone": "01536 388300", "website": "https://www.wickes.co.uk/store/8378", "image": "https://prod1-wx-wickesprod03-aws-travisperkins-cloud-public.s3.amazonaws.com/sys-master/images/hef/h68/12499868516382/wickes-store.jpg", "brand": "Wickes", "brand:wikidata": "Q7998350", "nsi_id": "wickes-ae8e02"}, "geometry": {"type": "Point", "coordinates": [-0.6794252, 52.49737]}},
{"type": "Feature", "id": "lzF4UFOWfKm_Nk6eXGul2x-FP_w=", "properties": {"ref": "8498", "@spider": "wickes_gb", "shop": "doityourself", "addr:street_address": "2 TURNPIKE CLOSE", "addr:city": "Norfolk", "addr:postcode": "NR6 5BD", "addr:country": "GB", "name": "Wickes Norwich", "phone": "01603 418 000", "website": "https://www.wickes.co.uk/store/8498", "image": "https://prod1-wx-wickesprod03-aws-travisperkins-cloud-public.s3.amazonaws.com/sys-master/images/hef/h68/12499868516382/wickes-store.jpg", "brand": "Wickes", "brand:wikidata": "Q7998350", "nsi_id": "wickes-ae8e02"}, "geometry": {"type": "Point", "coordinates": [1.2583879, 52.647376]}},
{"type": "Feature", "id": "ChvcLiviRouZ3HA7gRzmFhK5BT0=", "properties": {"ref": "8497", "@spider": "wickes_gb", "shop": "doityourself", "addr:street_address": "UNIT A, 363 ROUNDHAY ROAD", "addr:city": "WEST YORKSHIRE", "addr:postcode": "LS8 4BU", "addr:country": "GB", "name": "Wickes Leeds - Roundhay", "phone": "01132403524", "website": "https://www.wickes.co.uk/store/8497", "image": "https://prod1-wx-wickesprod03-aws-travisperkins-cloud-public.s3.amazonaws.com/sys-master/images/hef/h68/12499868516382/wickes-store.jpg", "brand": "Wickes", "brand:wikidata": "Q7998350", "nsi_id": "wickes-ae8e02"}, "geometry": {"type": "Point", "coordinates": [-1.511603, 53.821949]}},
{"type": "Feature", "id": "y0RPEaNjo_WPJtVWTTAKcDqXF70=", "properties": {"ref": "8494", "@spider": "wickes_gb", "shop": "doityourself", "addr:street_address": "GOLDSTONE HOUSE, LANGSTON ROAD", "addr:city": "LOUGHTON", "addr:postcode": "IG10 3TQ", "addr:country": "GB", "name": "Wickes Loughton", "phone": "020 8508 4923", "website": "https://www.wickes.co.uk/store/8494", "image": "https://prod1-wx-wickesprod03-aws-travisperkins-cloud-public.s3.amazonaws.com/sys-master/images/hef/h68/12499868516382/wickes-store.jpg", "brand": "Wickes", "brand:wikidata": "Q7998350", "nsi_id": "wickes-ae8e02"}, "geometry": {"type": "Point", "coordinates": [0.088893, 51.645084]}},
{"type": "Feature", "id": "kuEI3mfOxqGhI9JRMENQIIul6gc=", "properties": {"ref": "8493", "@spider": "wickes_gb", "shop": "doityourself", "addr:street_address": "GIPPING WAY", "addr:city": "SUFFOLK", "addr:postcode": "IP14 1EY", "addr:country": "GB", "name": "Wickes Stowmarket", "phone": "01449 601 069", "website": "https://www.wickes.co.uk/store/8493", "image": "https://prod1-wx-wickesprod03-aws-travisperkins-cloud-public.s3.amazonaws.com/sys-master/images/hef/h68/12499868516382/wickes-store.jpg", "brand": "Wickes", "brand:wikidata": "Q7998350", "nsi_id": "wickes-ae8e02"}, "geometry": {"type": "Point", "coordinates": [1.002427, 52.185599]}},
{"type": "Feature", "id": "T3E5SUHVU8Epq4XzAmFhcCB8suE=", "properties": {"ref": "8492", "@spider": "wickes_gb", "shop": "doityourself", "addr:street_address": "UNIT 1 RAILSIDE RETAIL PARK", "addr:city": "BOGNOR REGIS", "addr:postcode": "PO22 9NG", "addr:country": "GB", "name": "Wickes Bognor Regis", "phone": "01243 628086", "website": "https://www.wickes.co.uk/store/8492", "image": "https://prod1-wx-wickesprod03-aws-travisperkins-cloud-public.s3.amazonaws.com/sys-master/images/hef/h68/12499868516382/wickes-store.jpg", "brand": "Wickes", "brand:wikidata": "Q7998350", "nsi_id": "wickes-ae8e02"}, "geometry": {"type": "Point", "coordinates": [-0.670025, 50.797013]}},
{"type": "Feature", "id": "AbC8BtmwuDGUy5Cjc0ZzziiJHZM=", "properties": {"ref": "8488", "@spider": "wickes_gb", "shop": "doityourself", "addr:street_address": "UNIT 1 TECHNOLOGY RETAIL PARK", "addr:city": "RUGBY", "addr:postcode": "CV21 1GN", "addr:country": "GB", "name": "Wickes Rugby", "phone": "01788 536592", "website": "https://www.wickes.co.uk/store/8488", "image": "https://prod1-wx-wickesprod03-aws-travisperkins-cloud-public.s3.amazonaws.com/sys-master/images/hef/h68/12499868516382/wickes-store.jpg", "brand": "Wickes", "brand:wikidata": "Q7998350", "nsi_id": "wickes-ae8e02"}, "geometry": {"type": "Point", "coordinates": [-1.259136, 52.385436]}},
{"type": "Feature", "id": "V3_jBNgtoC0Sa_OyMZHClGts_bw=", "properties": {"ref": "8483", "@spider": "wickes_gb", "shop": "doityourself", "addr:street_address": "UNIT 4 LOWER HOLME MILL", "addr:city": "BAILDON, WEST YORKSHIRE", "addr:postcode": "BD17 7EY", "addr:country": "GB", "name": "Wickes Shipley", "phone": "01274 809351", "website": "https://www.wickes.co.uk/store/8483", "image": "https://prod1-wx-wickesprod03-aws-travisperkins-cloud-public.s3.amazonaws.com/sys-master/images/hef/h68/12499868516382/wickes-store.jpg", "brand": "Wickes", "brand:wikidata": "Q7998350", "nsi_id": "wickes-ae8e02"}, "geometry": {"type": "Point", "coordinates": [-1.769635, 53.839633]}},
{"type": "Feature", "id": "M8VY1LSpg-NBocoSCm8hYjOYMao=", "properties": {"ref": "8486", "@spider": "wickes_gb", "shop": "doityourself", "addr:street_address": "MIDSOMER NORTON", "addr:city": "MIDSOMER NORTON,PAULTON", "addr:postcode": "BS39 7SW", "addr:country": "GB", "name": "Wickes Midsomer Norton", "phone": "01761 418674", "website": "https://www.wickes.co.uk/store/8486", "image": "https://prod1-wx-wickesprod03-aws-travisperkins-cloud-public.s3.amazonaws.com/sys-master/images/hef/h68/12499868516382/wickes-store.jpg", "brand": "Wickes", "brand:wikidata": "Q7998350", "nsi_id": "wickes-ae8e02"}, "geometry": {"type": "Point", "coordinates": [-2.500087, 51.293434]}},
{"type": "Feature", "id": "o8sLa5yWfHYKuoO6xZTaqLIWWx8=", "properties": {"ref": "8484", "@spider": "wickes_gb", "shop": "doityourself", "addr:street_address": "UNIT 1 LONGFIELD TRADE PARK", "addr:city": "TUNBRIDGE WELLS", "addr:postcode": "TN2 3UG", "addr:country": "GB", "name": "Wickes Tunbridge Wells", "phone": "01892 321400", "website": "https://www.wickes.co.uk/store/8484", "image": "https://prod1-wx-wickesprod03-aws-travisperkins-cloud-public.s3.amazonaws.com/sys-master/images/hef/h68/12499868516382/wickes-store.jpg", "brand": "Wickes", "brand:wikidata": "Q7998350", "nsi_id": "wickes-ae8e02"}, "geometry": {"type": "Point", "coordinates": [0.289285, 51.155981]}},
{"type": "Feature", "id": "3DnESQ9MQaWK6a7qhj9JqlDN4KM=", "properties": {"ref": "8481", "@spider": "wickes_gb", "shop": "doityourself", "addr:street_address": "137-139 SOMERFORD ROAD", "addr:city": "CHRISTCHURCH", "addr:postcode": "BH23 3PY", "addr:country": "GB", "name": "Wickes Christchurch", "phone": "01202 487 968", "website": "https://www.wickes.co.uk/store/8481", "image": "https://prod1-wx-wickesprod03-aws-travisperkins-cloud-public.s3.amazonaws.com/sys-master/images/hef/h68/12499868516382/wickes-store.jpg", "brand": "Wickes", "brand:wikidata": "Q7998350", "nsi_id": "wickes-ae8e02"}, "geometry": {"type": "Point", "coordinates": [-1.746275, 50.740311]}},
{"type": "Feature", "id": "prt9P-m4cw_cO4epNr1G5vaD7yk=", "properties": {"ref": "8485", "@spider": "wickes_gb", "shop": "doityourself", "addr:street_address": "UNIT 1-2 EASTON LANE", "addr:city": "HAMPSHIRE", "addr:postcode": "SO23 7RU", "addr:country": "GB", "name": "Wickes Winchester", "phone": "01962 869783", "website": "https://www.wickes.co.uk/store/8485", "image": "https://prod1-wx-wickesprod03-aws-travisperkins-cloud-public.s3.amazonaws.com/sys-master/images/hef/h68/12499868516382/wickes-store.jpg", "brand": "Wickes", "brand:wikidata": "Q7998350", "nsi_id": "wickes-ae8e02"}, "geometry": {"type": "Point", "coordinates": [-1.300238, 51.06883]}},
{"type": "Feature", "id": "7tEEF6pNohG1CPrdz7BY8LGtIq8=", "properties": {"ref": "8482", "@spider": "wickes_gb", "shop": "doityourself", "addr:street_address": "UNIT 1, K2 TRADE PARK", "addr:city": "SUTTON", "addr:postcode": "SM3 9QS", "addr:country": "GB", "name": "Wickes Sutton London", "phone": "020 8641 8765", "website": "https://www.wickes.co.uk/store/8482", "image": "https://prod1-wx-wickesprod03-aws-travisperkins-cloud-public.s3.amazonaws.com/sys-master/images/hef/h68/12499868516382/wickes-store.jpg", "brand": "Wickes", "brand:wikidata": "Q7998350", "nsi_id": "wickes-ae8e02"}, "geometry": {"type": "Point", "coordinates": [-0.205715, 51.376991]}},
{"type": "Feature", "id": "Kpm0-PL6VJBAiaVe9a0PqlpGi6E=", "properties": {"ref": "8479", "@spider": "wickes_gb", "shop": "doityourself", "addr:street_address": "PARK FARM ROAD, PARK FARM IND", "addr:city": "KENT", "addr:postcode": "CT19 5GA", "addr:country": "GB", "name": "Wickes Folkestone", "phone": "01303 277258", "website": "https://www.wickes.co.uk/store/8479", "image": "https://prod1-wx-wickesprod03-aws-travisperkins-cloud-public.s3.amazonaws.com/sys-master/images/hef/h68/12499868516382/wickes-store.jpg", "brand": "Wickes", "brand:wikidata": "Q7998350", "nsi_id": "wickes-ae8e02"}, "geometry": {"type": "Point", "coordinates": [1.163689, 51.095626]}},
{"type": "Feature", "id": "VrPCFvGRGuKgW66QehPm2pwj_1s=", "properties": {"ref": "8480", "@spider": "wickes_gb", "shop": "doityourself", "addr:street_address": "14 ANERLEY STATION ROAD", "addr:city": "LONDON", "addr:postcode": "SE20 8PY", "addr:country": "GB", "name": "Wickes Anerley", "phone": "020 8778 4881", "website": "https://www.wickes.co.uk/store/8480", "image": "https://prod1-wx-wickesprod03-aws-travisperkins-cloud-public.s3.amazonaws.com/sys-master/images/hef/h68/12499868516382/wickes-store.jpg", "brand": "Wickes", "brand:wikidata": "Q7998350", "nsi_id": "wickes-ae8e02"}, "geometry": {"type": "Point", "coordinates": [-0.065231, 51.412711]}},
{"type": "Feature", "id": "z4oQR9KX0Me_ZyqT-WKHQdEzPB8=", "properties": {"ref": "8729", "@spider": "wickes_gb", "shop": "doityourself", "addr:street_address": "491 BATTERSEA PARK ROAD", "addr:city": "LONDON", "addr:postcode": "SW11 4LW", "addr:country": "GB", "name": "Battersea Kitchens &amp; Bathrooms", "phone": "020 7228 3109", "website": "https://www.wickes.co.uk/store/8729", "image": "https://prod1-wx-wickesprod03-aws-travisperkins-cloud-public.s3.amazonaws.com/sys-master/images/hef/h68/12499868516382/wickes-store.jpg", "brand": "Wickes", "brand:wikidata": "Q7998350", "nsi_id": "wickes-ae8e02"}, "geometry": {"type": "Point", "coordinates": [-0.163955, 51.472431]}},
{"type": "Feature", "id": "cdLC93lShZtsUnk5ohNA1bhOBhA=", "properties": {"ref": "8728", "@spider": "wickes_gb", "shop": "doityourself", "addr:street_address": "28 FORTIS GREEN ROAD", "addr:city": "LONDON", "addr:postcode": "N10 3HN", "addr:country": "GB", "name": "Muswell Hill Kitchen &amp; Bathroom Showroom", "phone": "020 8219 0700", "website": "https://www.wickes.co.uk/store/8728", "image": "https://prod1-wx-wickesprod03-aws-travisperkins-cloud-public.s3.amazonaws.com/sys-master/images/hef/h68/12499868516382/wickes-store.jpg", "brand": "Wickes", "brand:wikidata": "Q7998350", "nsi_id": "wickes-ae8e02"}, "geometry": {"type": "Point", "coordinates": [-0.145762, 51.589879]}},
{"type": "Feature", "id": "COqZqXWxyAvNbEtzApFjzCusT2I=", "properties": {"ref": "8721", "@spider": "wickes_gb", "shop": "doityourself", "addr:street_address": "TORQUAY ROAD", "addr:city": "DEVON", "addr:postcode": "TQ3 2HW", "addr:country": "GB", "name": "Paignton Kitchens &amp; Bathrooms", "phone": "01803 551499", "website": "https://www.wickes.co.uk/store/8721", "image": "https://prod1-wx-wickesprod03-aws-travisperkins-cloud-public.s3.amazonaws.com/sys-master/images/hef/h68/12499868516382/wickes-store.jpg", "brand": "Wickes", "brand:wikidata": "Q7998350", "nsi_id": "wickes-ae8e02"}, "geometry": {"type": "Point", "coordinates": [-3.564214, 50.443974]}},
{"type": "Feature", "id": "RB7RDcMvtqVNVVJGLMyl99Bw65I=", "properties": {"ref": "8719", "@spider": "wickes_gb", "shop": "doityourself", "addr:street_address": "UNIT 4/A, KEW RETAIL PARK", "addr:city": "SOUTHPORT", "addr:postcode": "PR8 5RG", "addr:country": "GB", "name": "Southport Kitchens &amp; Bathrooms Showroom", "phone": "01704 537 741", "website": "https://www.wickes.co.uk/store/8719", "image": "https://prod1-wx-wickesprod03-aws-travisperkins-cloud-public.s3.amazonaws.com/sys-master/images/hef/h68/12499868516382/wickes-store.jpg", "brand": "Wickes", "brand:wikidata": "Q7998350", "nsi_id": "wickes-ae8e02"}, "geometry": {"type": "Point", "coordinates": [-2.967749, 53.632074]}},
{"type": "Feature", "id": "4O4cjljvBDRke2u4Rhgr9MspiuY=", "properties": {"ref": "8718", "@spider": "wickes_gb", "shop": "doityourself", "addr:street_address": "22 COTEN END", "addr:city": "Warwickshire", "addr:postcode": "CV34 4NP", "addr:country": "GB", "name": "Warwick Kitchens &amp; Bathrooms", "phone": "01926 304500", "website": "https://www.wickes.co.uk/store/8718", "image": "https://prod1-wx-wickesprod03-aws-travisperkins-cloud-public.s3.amazonaws.com/sys-master/images/hef/h68/12499868516382/wickes-store.jpg", "brand": "Wickes", "brand:wikidata": "Q7998350", "nsi_id": "wickes-ae8e02"}, "geometry": {"type": "Point", "coordinates": [-1.578226, 52.284491]}},
{"type": "Feature", "id": "V-QMYpEHxQo9aPTvI2j-IoG_MRE=", "properties": {"ref": "8475", "@spider": "wickes_gb", "shop": "doityourself", "addr:street_address": "UNIT 1, ALTON RETAIL PARK", "addr:city": "ALTON", "addr:postcode": "GU34 2QS", "addr:country": "GB", "name": "Wickes Alton", "phone": "01420 80386", "website": "https://www.wickes.co.uk/store/8475", "image": "https://prod1-wx-wickesprod03-aws-travisperkins-cloud-public.s3.amazonaws.com/sys-master/images/hef/h68/12499868516382/wickes-store.jpg", "brand": "Wickes", "brand:wikidata": "Q7998350", "nsi_id": "wickes-ae8e02"}, "geometry": {"type": "Point", "coordinates": [-0.956997, 51.157364]}},
{"type": "Feature", "id": "7pNBqRc_Bj8L41cXdt1jQCshwTI=", "properties": {"ref": "8474", "@spider": "wickes_gb", "shop": "doityourself", "addr:street_address": "UNIT 1, MANATON WAY", "addr:city": "SOUTHAMPTON", "addr:postcode": "SO30 2XW", "addr:country": "GB", "name": "Wickes Hedge End", "phone": "01489 789333", "website": "https://www.wickes.co.uk/store/8474", "image": "https://prod1-wx-wickesprod03-aws-travisperkins-cloud-public.s3.amazonaws.com/sys-master/images/hef/h68/12499868516382/wickes-store.jpg", "brand": "Wickes", "brand:wikidata": "Q7998350", "nsi_id": "wickes-ae8e02"}, "geometry": {"type": "Point", "coordinates": [-1.308318, 50.924341]}},
{"type": "Feature", "id": "rgqdFupbK5WAM6OgBb-Wgf8MPS4=", "properties": {"ref": "8473", "@spider": "wickes_gb", "shop": "doityourself", "addr:street_address": "UNIT 2, SILK BRG RETAIL PARK", "addr:city": "LONDON", "addr:postcode": "NW9 7TH", "addr:country": "GB", "name": "Wickes Hendon", "phone": "020 8200 7739", "website": "https://www.wickes.co.uk/store/8473", "image": "https://prod1-wx-wickesprod03-aws-travisperkins-cloud-public.s3.amazonaws.com/sys-master/images/hef/h68/12499868516382/wickes-store.jpg", "brand": "Wickes", "brand:wikidata": "Q7998350", "nsi_id": "wickes-ae8e02"}, "geometry": {"type": "Point", "coordinates": [-0.24518, 51.58074]}},
{"type": "Feature", "id": "VwsBBjXPqrFE95gB4WEcArk1Jqw=", "properties": {"ref": "8471", "@spider": "wickes_gb", "shop": "doityourself", "addr:street_address": "UNIT 3, LYSANDER CLOSE", "addr:city": "YORK", "addr:postcode": "YO30 4XB", "addr:country": "GB", "name": "Wickes York", "phone": "01904 692799", "website": "https://www.wickes.co.uk/store/8471", "image": "https://prod1-wx-wickesprod03-aws-travisperkins-cloud-public.s3.amazonaws.com/sys-master/images/hef/h68/12499868516382/wickes-store.jpg", "brand": "Wickes", "brand:wikidata": "Q7998350", "nsi_id": "wickes-ae8e02"}, "geometry": {"type": "Point", "coordinates": [-1.09432, 53.988673]}},
{"type": "Feature", "id": "A3ahLLhCT98C6C4QAltW-c9h40s=", "properties": {"ref": "8469", "@spider": "wickes_gb", "shop": "doityourself", "addr:street_address": "BIRCHIN WAY", "addr:city": "GRIMSBY", "addr:postcode": "DN31 2SG", "addr:country": "GB", "name": "Wickes Grimsby", "phone": "01472 352086", "website": "https://www.wickes.co.uk/store/8469", "image": "https://prod1-wx-wickesprod03-aws-travisperkins-cloud-public.s3.amazonaws.com/sys-master/images/hef/h68/12499868516382/wickes-store.jpg", "brand": "Wickes", "brand:wikidata": "Q7998350", "nsi_id": "wickes-ae8e02"}, "geometry": {"type": "Point", "coordinates": [-0.09974, 53.575973]}},
{"type": "Feature", "id": "UnwKC1dyYkNElDyhOi0V_QtSqj8=", "properties": {"ref": "8468", "@spider": "wickes_gb", "shop": "doityourself", "addr:street_address": "UNIT 1B, DRAKEHOUSE RETAIL PK", "addr:city": "SHEFFIELD", "addr:postcode": "S20 7JJ", "addr:country": "GB", "name": "Wickes Sheffield Crystal Peaks", "phone": "01142 514624", "website": "https://www.wickes.co.uk/store/8468", "image": "https://prod1-wx-wickesprod03-aws-travisperkins-cloud-public.s3.amazonaws.com/sys-master/images/hef/h68/12499868516382/wickes-store.jpg", "brand": "Wickes", "brand:wikidata": "Q7998350", "nsi_id": "wickes-ae8e02"}, "geometry": {"type": "Point", "coordinates": [-1.355905, 53.345117]}},
{"type": "Feature", "id": "34ecqQSBAtpR7NKS9M8dm59yZKs=", "properties": {"ref": "8467", "@spider": "wickes_gb", "shop": "doityourself", "addr:street_address": "UNIT 1 ELSTREE TRADE PARK", "addr:city": "HERTFORDSHIRE", "addr:postcode": "WD6 1GJ", "addr:country": "GB", "name": "Wickes Borehamwood", "phone": "020 8953 2500", "website": "https://www.wickes.co.uk/store/8467", "image": "https://prod1-wx-wickesprod03-aws-travisperkins-cloud-public.s3.amazonaws.com/sys-master/images/hef/h68/12499868516382/wickes-store.jpg", "brand": "Wickes", "brand:wikidata": "Q7998350", "nsi_id": "wickes-ae8e02"}, "geometry": {"type": "Point", "coordinates": [-0.253398, 51.657708]}},
{"type": "Feature", "id": "9dk5LbHGDeGAUUhm1CQtkT-TGTA=", "properties": {"ref": "8465", "@spider": "wickes_gb", "shop": "doityourself", "addr:street_address": "1 GAZELLE CLOSE", "addr:city": "WOKINGHAM", "addr:postcode": "RG41 5HH", "addr:country": "GB", "name": "Wickes Winnersh", "phone": "01189 893717", "website": "https://www.wickes.co.uk/store/8465", "image": "https://prod1-wx-wickesprod03-aws-travisperkins-cloud-public.s3.amazonaws.com/sys-master/images/hef/h68/12499868516382/wickes-store.jpg", "brand": "Wickes", "brand:wikidata": "Q7998350", "nsi_id": "wickes-ae8e02"}, "geometry": {"type": "Point", "coordinates": [-0.894052, 51.435578]}},
{"type": "Feature", "id": "h6q9BfqgnMJl3QLC9QpXSkArets=", "properties": {"ref": "8464", "@spider": "wickes_gb", "shop": "doityourself", "addr:street_address": "38 ST. PETERS ROAD", "addr:city": "CAMBS", "addr:postcode": "PE29 7DA", "addr:country": "GB", "name": "Wickes Huntingdon", "phone": "01480 455061", "website": "https://www.wickes.co.uk/store/8464", "image": "https://prod1-wx-wickesprod03-aws-travisperkins-cloud-public.s3.amazonaws.com/sys-master/images/hef/h68/12499868516382/wickes-store.jpg", "brand": "Wickes", "brand:wikidata": "Q7998350", "nsi_id": "wickes-ae8e02"}, "geometry": {"type": "Point", "coordinates": [-0.185237, 52.34022]}},
{"type": "Feature", "id": "v7a7MU85ml5rKkG0Jfg7Bt5GRlo=", "properties": {"ref": "8461", "@spider": "wickes_gb", "shop": "doityourself", "addr:street_address": "38-40 CROYDON ROAD", "addr:city": "WICKHAM", "addr:postcode": "BR4 9HR", "addr:country": "GB", "name": "Wickes West Wickham", "phone": "020 8462 9209", "website": "https://www.wickes.co.uk/store/8461", "image": "https://prod1-wx-wickesprod03-aws-travisperkins-cloud-public.s3.amazonaws.com/sys-master/images/hef/h68/12499868516382/wickes-store.jpg", "brand": "Wickes", "brand:wikidata": "Q7998350", "nsi_id": "wickes-ae8e02"}, "geometry": {"type": "Point", "coordinates": [0.000413, 51.369517]}},
{"type": "Feature", "id": "-_rt0pNn_9rP9K_5tZV9L2XujVM=", "properties": {"ref": "8460", "@spider": "wickes_gb", "shop": "doityourself", "addr:street_address": "CROWN WAY", "addr:city": "NORTHANTS", "addr:postcode": "NN10 6BT", "addr:country": "GB", "name": "Wickes Rushden", "phone": "01933 359499", "website": "https://www.wickes.co.uk/store/8460", "image": "https://prod1-wx-wickesprod03-aws-travisperkins-cloud-public.s3.amazonaws.com/sys-master/images/hef/h68/12499868516382/wickes-store.jpg", "brand": "Wickes", "brand:wikidata": "Q7998350", "nsi_id": "wickes-ae8e02"}, "geometry": {"type": "Point", "coordinates": [-0.61677, 52.29934]}},
{"type": "Feature", "id": "1Ww70lGvsZj_7TG08KCLVRW7PRo=", "properties": {"ref": "8459", "@spider": "wickes_gb", "shop": "doityourself", "addr:street_address": "WHARTON RETAIL PARK", "addr:city": "WINSFORD", "addr:postcode": "CW7 3DB", "addr:country": "GB", "name": "Wickes Winsford", "phone": "01606 861388", "website": "https://www.wickes.co.uk/store/8459", "image": "https://prod1-wx-wickesprod03-aws-travisperkins-cloud-public.s3.amazonaws.com/sys-master/images/hef/h68/12499868516382/wickes-store.jpg", "brand": "Wickes", "brand:wikidata": "Q7998350", "nsi_id": "wickes-ae8e02"}, "geometry": {"type": "Point", "coordinates": [-2.51378, 53.20084]}},
{"type": "Feature", "id": "TjZNph5gRXeT_sNklppkSGxIZrc=", "properties": {"ref": "8458", "@spider": "wickes_gb", "shop": "doityourself", "addr:street_address": "SWORD DRIVE", "addr:city": "Leicestershire", "addr:postcode": "LE10 0GL", "addr:country": "GB", "name": "Wickes Hinckley", "phone": "01455 613385", "website": "https://www.wickes.co.uk/store/8458", "image": "https://prod1-wx-wickesprod03-aws-travisperkins-cloud-public.s3.amazonaws.com/sys-master/images/hef/h68/12499868516382/wickes-store.jpg", "brand": "Wickes", "brand:wikidata": "Q7998350", "nsi_id": "wickes-ae8e02"}, "geometry": {"type": "Point", "coordinates": [-1.38728, 52.55457]}},
{"type": "Feature", "id": "pSYOpTTeElD1dcWvKeO2L85M0qg=", "properties": {"ref": "8457", "@spider": "wickes_gb", "shop": "doityourself", "addr:street_address": "GOODLIFFE PARK, STANSTED ROAD", "addr:city": "BISHOP'S STORTFORD", "addr:postcode": "CM23 5PP", "addr:country": "GB", "name": "Wickes Bishops Stortford", "phone": "01279 654267", "website": "https://www.wickes.co.uk/store/8457", "image": "https://prod1-wx-wickesprod03-aws-travisperkins-cloud-public.s3.amazonaws.com/sys-master/images/hef/h68/12499868516382/wickes-store.jpg", "brand": "Wickes", "brand:wikidata": "Q7998350", "nsi_id": "wickes-ae8e02"}, "geometry": {"type": "Point", "coordinates": [0.17408, 51.88354]}},
{"type": "Feature", "id": "2gTSa_qkuHXiuxXXekZlPPuIAtQ=", "properties": {"ref": "8456", "@spider": "wickes_gb", "shop": "doityourself", "addr:street_address": "TOWNSEND ROAD", "addr:city": "BUCKINGHAMSHIRE", "addr:postcode": "HP5 2AA", "addr:country": "GB", "name": "Wickes Chesham", "phone": "01494 776932", "website": "https://www.wickes.co.uk/store/8456", "image": "https://prod1-wx-wickesprod03-aws-travisperkins-cloud-public.s3.amazonaws.com/sys-master/images/hef/h68/12499868516382/wickes-store.jpg", "brand": "Wickes", "brand:wikidata": "Q7998350", "nsi_id": "wickes-ae8e02"}, "geometry": {"type": "Point", "coordinates": [-0.61131, 51.70922]}},
{"type": "Feature", "id": "ldIzDmBSCYffbldkha8825WzM7k=", "properties": {"ref": "8455", "@spider": "wickes_gb", "shop": "doityourself", "addr:street_address": "UNIT 1 MARLBOROUGH ROAD", "addr:city": "STOKE ON TRENT", "addr:postcode": "ST6 5ED", "addr:country": "GB", "name": "Wickes Tunstall", "phone": "01782 818251", "website": "https://www.wickes.co.uk/store/8455", "image": "https://prod1-wx-wickesprod03-aws-travisperkins-cloud-public.s3.amazonaws.com/sys-master/images/hef/h68/12499868516382/wickes-store.jpg", "brand": "Wickes", "brand:wikidata": "Q7998350", "nsi_id": "wickes-ae8e02"}, "geometry": {"type": "Point", "coordinates": [-2.21772, 53.06918]}},
{"type": "Feature", "id": "Hh2cHZNQ9OO7-LhnmHcUlp77fbk=", "properties": {"ref": "8454", "@spider": "wickes_gb", "shop": "doityourself", "addr:street_address": "SWINEMOOR LANE", "addr:city": "EAST YORKSHIRE", "addr:postcode": "HU17 0JU", "addr:country": "GB", "name": "Wickes Beverley", "phone": "01482 860064", "website": "https://www.wickes.co.uk/store/8454", "image": "https://prod1-wx-wickesprod03-aws-travisperkins-cloud-public.s3.amazonaws.com/sys-master/images/hef/h68/12499868516382/wickes-store.jpg", "brand": "Wickes", "brand:wikidata": "Q7998350", "nsi_id": "wickes-ae8e02"}, "geometry": {"type": "Point", "coordinates": [-0.40825, 53.84489]}},
{"type": "Feature", "id": "0MYr87YPZ9KnVObhUKvxi3OImRA=", "properties": {"ref": "8453", "@spider": "wickes_gb", "shop": "doityourself", "addr:street_address": "UNIT 1 MADFORD RETAIL PARK", "addr:city": "HERTFORDSHIRE", "addr:postcode": "SG13 7RQ", "addr:country": "GB", "name": "Wickes Hertford", "phone": "01992 537678", "website": "https://www.wickes.co.uk/store/8453", "image": "https://prod1-wx-wickesprod03-aws-travisperkins-cloud-public.s3.amazonaws.com/sys-master/images/hef/h68/12499868516382/wickes-store.jpg", "brand": "Wickes", "brand:wikidata": "Q7998350", "nsi_id": "wickes-ae8e02"}, "geometry": {"type": "Point", "coordinates": [-0.068975, 51.79753]}},
{"type": "Feature", "id": "RENDqB22slZ-dTsTb9wT5gM2hyo=", "properties": {"ref": "8452", "@spider": "wickes_gb", "shop": "doityourself", "addr:street_address": "WEDDINGTON ROAD", "addr:city": "Warwickshire", "addr:postcode": "CV10 0AD", "addr:country": "GB", "name": "Wickes Nuneaton", "phone": "02476 352919", "website": "https://www.wickes.co.uk/store/8452", "image": "https://prod1-wx-wickesprod03-aws-travisperkins-cloud-public.s3.amazonaws.com/sys-master/images/hef/h68/12499868516382/wickes-store.jpg", "brand": "Wickes", "brand:wikidata": "Q7998350", "nsi_id": "wickes-ae8e02"}, "geometry": {"type": "Point", "coordinates": [-1.46191, 52.52839]}},
{"type": "Feature", "id": "V6Ef5lQy1JPd9ua2jAEjsXqsyNA=", "properties": {"ref": "8451", "@spider": "wickes_gb", "shop": "doityourself", "addr:street_address": "DIPLOCKS WAY", "addr:city": "SUSSEX", "addr:postcode": "BN27 3JF", "addr:country": "GB", "name": "Wickes Hailsham", "phone": "01323 842390", "website": "https://www.wickes.co.uk/store/8451", "image": "https://prod1-wx-wickesprod03-aws-travisperkins-cloud-public.s3.amazonaws.com/sys-master/images/hef/h68/12499868516382/wickes-store.jpg", "brand": "Wickes", "brand:wikidata": "Q7998350", "nsi_id": "wickes-ae8e02"}, "geometry": {"type": "Point", "coordinates": [0.24427, 50.86168]}},
{"type": "Feature", "id": "u_y2VOURvzzqy8TQYSAsg5VcnhM=", "properties": {"ref": "8449", "@spider": "wickes_gb", "shop": "doityourself", "addr:street_address": "WYCKE HILL", "addr:city": "ESSEX", "addr:postcode": "CM9 6UZ", "addr:country": "GB", "name": "Wickes Maldon", "phone": "01621 856453", "website": "https://www.wickes.co.uk/store/8449", "image": "https://prod1-wx-wickesprod03-aws-travisperkins-cloud-public.s3.amazonaws.com/sys-master/images/hef/h68/12499868516382/wickes-store.jpg", "brand": "Wickes", "brand:wikidata": "Q7998350", "nsi_id": "wickes-ae8e02"}, "geometry": {"type": "Point", "coordinates": [0.663296, 51.720027]}},
{"type": "Feature", "id": "qBgttLVVsTft5giBC2Aq63P8BrA=", "properties": {"ref": "8448", "@spider": "wickes_gb", "shop": "doityourself", "addr:street_address": "256-269 LONDON ROAD", "addr:city": "West Sussex", "addr:postcode": "RH15 9QU", "addr:country": "GB", "name": "Wickes Burgess Hill", "phone": "01444 235649", "website": "https://www.wickes.co.uk/store/8448", "image": "https://prod1-wx-wickesprod03-aws-travisperkins-cloud-public.s3.amazonaws.com/sys-master/images/hef/h68/12499868516382/wickes-store.jpg", "brand": "Wickes", "brand:wikidata": "Q7998350", "nsi_id": "wickes-ae8e02"}, "geometry": {"type": "Point", "coordinates": [-0.13963, 50.95507]}},
{"type": "Feature", "id": "8yI_bgRQ3Rm7BglDjlbYsySYSMg=", "properties": {"ref": "8444", "@spider": "wickes_gb", "shop": "doityourself", "addr:street_address": "BROAD PIECE", "addr:city": "WEST SUSSEX", "addr:postcode": "BN17 5RA", "addr:country": "GB", "name": "Wickes Littlehampton", "phone": "01903 723229", "website": "https://www.wickes.co.uk/store/8444", "image": "https://prod1-wx-wickesprod03-aws-travisperkins-cloud-public.s3.amazonaws.com/sys-master/images/hef/h68/12499868516382/wickes-store.jpg", "brand": "Wickes", "brand:wikidata": "Q7998350", "nsi_id": "wickes-ae8e02"}, "geometry": {"type": "Point", "coordinates": [-0.556126, 50.814721]}},
{"type": "Feature", "id": "plnk-bBpaFrTnQO8NKwdka9K2TE=", "properties": {"ref": "8443", "@spider": "wickes_gb", "shop": "doityourself", "addr:street_address": "GONERBY ROAD", "addr:city": "LINCOLNSHIRE", "addr:postcode": "NG31 8HX", "addr:country": "GB", "name": "Wickes Grantham", "phone": "01476 570666", "website": "https://www.wickes.co.uk/store/8443", "image": "https://prod1-wx-wickesprod03-aws-travisperkins-cloud-public.s3.amazonaws.com/sys-master/images/hef/h68/12499868516382/wickes-store.jpg", "brand": "Wickes", "brand:wikidata": "Q7998350", "nsi_id": "wickes-ae8e02"}, "geometry": {"type": "Point", "coordinates": [-0.649501, 52.919941]}},
{"type": "Feature", "id": "-AuomGRkOwa_DD5vW__0XyINeos=", "properties": {"ref": "8441", "@spider": "wickes_gb", "shop": "doityourself", "addr:street_address": "STATION ROAD", "addr:city": "Tyne and Wear", "addr:postcode": "NE33 1RD", "addr:country": "GB", "name": "Wickes South Shields", "phone": "0191 4546160", "website": "https://www.wickes.co.uk/store/8441", "image": "https://prod1-wx-wickesprod03-aws-travisperkins-cloud-public.s3.amazonaws.com/sys-master/images/hef/h68/12499868516382/wickes-store.jpg", "brand": "Wickes", "brand:wikidata": "Q7998350", "nsi_id": "wickes-ae8e02"}, "geometry": {"type": "Point", "coordinates": [-1.436574, 54.994225]}},
{"type": "Feature", "id": "AOoSBAdWeP-NTBajvwAF41Gd02Q=", "properties": {"ref": "8437", "@spider": "wickes_gb", "shop": "doityourself", "addr:street_address": "WEST STREET", "addr:city": "WOLVERHAMPTON", "addr:postcode": "WV10 6HT", "addr:country": "GB", "name": "Wickes Wolverhampton", "phone": "01902 313980", "website": "https://www.wickes.co.uk/store/8437", "image": "https://prod1-wx-wickesprod03-aws-travisperkins-cloud-public.s3.amazonaws.com/sys-master/images/hef/h68/12499868516382/wickes-store.jpg", "brand": "Wickes", "brand:wikidata": "Q7998350", "nsi_id": "wickes-ae8e02"}, "geometry": {"type": "Point", "coordinates": [-2.130214, 52.596892]}},
{"type": "Feature", "id": "xzrIyp-DI2f5p0C5BHvSOhqkoPU=", "properties": {"ref": "8436", "@spider": "wickes_gb", "shop": "doityourself", "addr:street_address": "PROSPECT ROAD", "addr:city": "WEST MIDLANDS", "addr:postcode": "B62 8DU", "addr:country": "GB", "name": "Wickes Halesowen", "phone": "0121 550 9980", "website": "https://www.wickes.co.uk/store/8436", "image": "https://prod1-wx-wickesprod03-aws-travisperkins-cloud-public.s3.amazonaws.com/sys-master/images/hef/h68/12499868516382/wickes-store.jpg", "brand": "Wickes", "brand:wikidata": "Q7998350", "nsi_id": "wickes-ae8e02"}, "geometry": {"type": "Point", "coordinates": [-2.04077, 52.453818]}},
{"type": "Feature", "id": "I6vbPoM594ybTVhvblQYWHA8ers=", "properties": {"ref": "8434", "@spider": "wickes_gb", "shop": "doityourself", "addr:street_address": "BABBAGE WAY", "addr:city": "NOTTINGHAMSHIRE", "addr:postcode": "S80 1UJ", "addr:country": "GB", "name": "Wickes Worksop", "phone": "01909 473444", "website": "https://www.wickes.co.uk/store/8434", "image": "https://prod1-wx-wickesprod03-aws-travisperkins-cloud-public.s3.amazonaws.com/sys-master/images/hef/h68/12499868516382/wickes-store.jpg", "brand": "Wickes", "brand:wikidata": "Q7998350", "nsi_id": "wickes-ae8e02"}, "geometry": {"type": "Point", "coordinates": [-1.128292, 53.31217]}},
{"type": "Feature", "id": "wCvTdeb2L5i5VpxCXZajMpld3mU=", "properties": {"ref": "8431", "@spider": "wickes_gb", "shop": "doityourself", "addr:street_address": "UNIT 1, CHORLEY RETAIL PARK", "addr:city": "LANCASHIRE", "addr:postcode": "PR7 2BN", "addr:country": "GB", "name": "Wickes Chorley", "phone": "01257 234995", "website": "https://www.wickes.co.uk/store/8431", "image": "https://prod1-wx-wickesprod03-aws-travisperkins-cloud-public.s3.amazonaws.com/sys-master/images/hef/h68/12499868516382/wickes-store.jpg", "brand": "Wickes", "brand:wikidata": "Q7998350", "nsi_id": "wickes-ae8e02"}, "geometry": {"type": "Point", "coordinates": [-2.628592, 53.649871]}},
{"type": "Feature", "id": "vAguATg12sxMLA0dxf1i5zqpw2I=", "properties": {"ref": "8430", "@spider": "wickes_gb", "shop": "doityourself", "addr:street_address": "BOURNE RETAIL PARK", "addr:city": "SALISBURY", "addr:postcode": "SP1 2NZ", "addr:country": "GB", "name": "Wickes Salisbury", "phone": "01722 435100", "website": "https://www.wickes.co.uk/store/8430", "image": "https://prod1-wx-wickesprod03-aws-travisperkins-cloud-public.s3.amazonaws.com/sys-master/images/hef/h68/12499868516382/wickes-store.jpg", "brand": "Wickes", "brand:wikidata": "Q7998350", "nsi_id": "wickes-ae8e02"}, "geometry": {"type": "Point", "coordinates": [-1.774503, 51.063176]}},
{"type": "Feature", "id": "wDDJ5EStt7m5AnYF3jURDkhfufg=", "properties": {"ref": "8429", "@spider": "wickes_gb", "shop": "doityourself", "addr:street_address": "SNOWDON DRIVE", "addr:city": "MILTON KEYNES", "addr:postcode": "MK6 1AP", "addr:country": "GB", "name": "Wickes Milton Keynes", "phone": "01908 696632", "website": "https://www.wickes.co.uk/store/8429", "image": "https://prod1-wx-wickesprod03-aws-travisperkins-cloud-public.s3.amazonaws.com/sys-master/images/hef/h68/12499868516382/wickes-store.jpg", "brand": "Wickes", "brand:wikidata": "Q7998350", "nsi_id": "wickes-ae8e02"}, "geometry": {"type": "Point", "coordinates": [-0.762929, 52.028242]}},
{"type": "Feature", "id": "wEq2zuwmbvhpghVVOE97TIBAo8k=", "properties": {"ref": "8428", "@spider": "wickes_gb", "shop": "doityourself", "addr:street_address": "ST. NICHOLAS RETAIL PARK", "addr:city": "KING'S LYNN", "addr:postcode": "PE30 2HW", "addr:country": "GB", "name": "Wickes Kings Lynn", "phone": "01553 667450", "website": "https://www.wickes.co.uk/store/8428", "image": "https://prod1-wx-wickesprod03-aws-travisperkins-cloud-public.s3.amazonaws.com/sys-master/images/hef/h68/12499868516382/wickes-store.jpg", "brand": "Wickes", "brand:wikidata": "Q7998350", "nsi_id": "wickes-ae8e02"}, "geometry": {"type": "Point", "coordinates": [0.399796, 52.762538]}},
{"type": "Feature", "id": "0XU1YMg0pWppQbjdwmwSZs62VjI=", "properties": {"ref": "8418", "@spider": "wickes_gb", "shop": "doityourself", "addr:street_address": "150 WINTERSTOKE ROAD", "addr:city": "BRISTOL", "addr:postcode": "BS3 2LQ", "addr:country": "GB", "name": "Wickes Ashton Gate", "phone": "01179 637298", "website": "https://www.wickes.co.uk/store/8418", "image": "https://prod1-wx-wickesprod03-aws-travisperkins-cloud-public.s3.amazonaws.com/sys-master/images/hef/h68/12499868516382/wickes-store.jpg", "brand": "Wickes", "brand:wikidata": "Q7998350", "nsi_id": "wickes-ae8e02"}, "geometry": {"type": "Point", "coordinates": [-2.622314, 51.43903]}},
{"type": "Feature", "id": "32Gn_3ZwHhIiQcF9JRk2q3eDVLE=", "properties": {"ref": "8417", "@spider": "wickes_gb", "shop": "doityourself", "addr:street_address": "1 ASH TREE ROAD", "addr:city": "BIRMINGHAM", "addr:postcode": "B30 2BJ", "addr:country": "GB", "name": "Wickes Stirchley", "phone": "01214 598908", "website": "https://www.wickes.co.uk/store/8417", "image": "https://prod1-wx-wickesprod03-aws-travisperkins-cloud-public.s3.amazonaws.com/sys-master/images/hef/h68/12499868516382/wickes-store.jpg", "brand": "Wickes", "brand:wikidata": "Q7998350", "nsi_id": "wickes-ae8e02"}, "geometry": {"type": "Point", "coordinates": [-1.922053, 52.422974]}},
{"type": "Feature", "id": "p9vvc8j5xnHi1X6EuqgyUWRyycc=", "properties": {"ref": "8416", "@spider": "wickes_gb", "shop": "doityourself", "addr:street_address": "MONKSWOOD WAY", "addr:city": "STEVENAGE", "addr:postcode": "SG1 1XP", "addr:country": "GB", "name": "Wickes Stevenage", "phone": "01438 314477", "website": "https://www.wickes.co.uk/store/8416", "image": "https://prod1-wx-wickesprod03-aws-travisperkins-cloud-public.s3.amazonaws.com/sys-master/images/hef/h68/12499868516382/wickes-store.jpg", "brand": "Wickes", "brand:wikidata": "Q7998350", "nsi_id": "wickes-ae8e02"}, "geometry": {"type": "Point", "coordinates": [-0.195358, 51.888972]}},
{"type": "Feature", "id": "dUY7LzpW3D44u6KcwBMBH18sbLQ=", "properties": {"ref": "8415", "@spider": "wickes_gb", "shop": "doityourself", "addr:street_address": "HULLEY ROAD", "addr:city": "Cheshire", "addr:postcode": "SK10 2SF", "addr:country": "GB", "name": "Wickes Macclesfield", "phone": "01625 427777", "website": "https://www.wickes.co.uk/store/8415", "image": "https://prod1-wx-wickesprod03-aws-travisperkins-cloud-public.s3.amazonaws.com/sys-master/images/hef/h68/12499868516382/wickes-store.jpg", "brand": "Wickes", "brand:wikidata": "Q7998350", "nsi_id": "wickes-ae8e02"}, "geometry": {"type": "Point", "coordinates": [-2.118722, 53.272865]}},
{"type": "Feature", "id": "B7lUoKm-8HmBfmR-1O_W1htVqAs=", "properties": {"ref": "8414", "@spider": "wickes_gb", "shop": "doityourself", "addr:street_address": "89 SOUTH EALING ROAD", "addr:city": "LONDON", "addr:postcode": "W5 4QS", "addr:country": "GB", "name": "Wickes Ealing", "phone": "020 8840 0669", "website": "https://www.wickes.co.uk/store/8414", "image": "https://prod1-wx-wickesprod03-aws-travisperkins-cloud-public.s3.amazonaws.com/sys-master/images/hef/h68/12499868516382/wickes-store.jpg", "brand": "Wickes", "brand:wikidata": "Q7998350", "nsi_id": "wickes-ae8e02"}, "geometry": {"type": "Point", "coordinates": [-0.306431, 51.500324]}},
{"type": "Feature", "id": "p5lrIf1BAFSbdsV3eBWH0PGZl4M=", "properties": {"ref": "8412", "@spider": "wickes_gb", "shop": "doityourself", "addr:street_address": "2 RUTLAND ROAD", "addr:city": "South Yorkshire", "addr:postcode": "S3 8DQ", "addr:country": "GB", "name": "Wickes Sheffield North", "phone": "01142 752756", "website": "https://www.wickes.co.uk/store/8412", "image": "https://prod1-wx-wickesprod03-aws-travisperkins-cloud-public.s3.amazonaws.com/sys-master/images/hef/h68/12499868516382/wickes-store.jpg", "brand": "Wickes", "brand:wikidata": "Q7998350", "nsi_id": "wickes-ae8e02"}, "geometry": {"type": "Point", "coordinates": [-1.478865, 53.391454]}},
{"type": "Feature", "id": "OOCLFLAJBcGinATKzIiDdPmfDek=", "properties": {"ref": "8411", "@spider": "wickes_gb", "shop": "doityourself", "addr:street_address": "OTFORD ROAD", "addr:city": "Kent", "addr:postcode": "TN14 5DE", "addr:country": "GB", "name": "Wickes Sevenoaks", "phone": "01732 460434", "website": "https://www.wickes.co.uk/store/8411", "image": "https://prod1-wx-wickesprod03-aws-travisperkins-cloud-public.s3.amazonaws.com/sys-master/images/hef/h68/12499868516382/wickes-store.jpg", "brand": "Wickes", "brand:wikidata": "Q7998350", "nsi_id": "wickes-ae8e02"}, "geometry": {"type": "Point", "coordinates": [0.190205, 51.292055]}},
{"type": "Feature", "id": "mVF7OQO6-mJpHfAIcWnV-xs753w=", "properties": {"ref": "8410", "@spider": "wickes_gb", "shop": "doityourself", "addr:street_address": "STUART ROAD", "addr:city": "Kent", "addr:postcode": "DA11 0BZ", "addr:country": "GB", "name": "Wickes Gravesend", "phone": "01474 564040", "website": "https://www.wickes.co.uk/store/8410", "image": "https://prod1-wx-wickesprod03-aws-travisperkins-cloud-public.s3.amazonaws.com/sys-master/images/hef/h68/12499868516382/wickes-store.jpg", "brand": "Wickes", "brand:wikidata": "Q7998350", "nsi_id": "wickes-ae8e02"}, "geometry": {"type": "Point", "coordinates": [0.364371, 51.444419]}},
{"type": "Feature", "id": "NWltjgd7FpGH8bH6AR0s1gB-Bzw=", "properties": {"ref": "8409", "@spider": "wickes_gb", "shop": "doityourself", "addr:street_address": "BROOK STREET", "addr:city": "ESSEX", "addr:postcode": "CM14 5LX", "addr:country": "GB", "name": "Wickes Brentwood", "phone": "01277 233899", "website": "https://www.wickes.co.uk/store/8409", "image": "https://prod1-wx-wickesprod03-aws-travisperkins-cloud-public.s3.amazonaws.com/sys-master/images/hef/h68/12499868516382/wickes-store.jpg", "brand": "Wickes", "brand:wikidata": "Q7998350", "nsi_id": "wickes-ae8e02"}, "geometry": {"type": "Point", "coordinates": [0.273968, 51.611586]}},
{"type": "Feature", "id": "8pq1GgojKgW2OJhCp9ikfpXabNg=", "properties": {"ref": "8407", "@spider": "wickes_gb", "shop": "doityourself", "addr:street_address": "THREEMILESTONE RETAIL PARK, GR", "addr:city": "TRURO", "addr:postcode": "TR4 8GA", "addr:country": "GB", "name": "Wickes Truro", "phone": "01872 561101", "website": "https://www.wickes.co.uk/store/8407", "image": "https://prod1-wx-wickesprod03-aws-travisperkins-cloud-public.s3.amazonaws.com/sys-master/images/hef/h68/12499868516382/wickes-store.jpg", "brand": "Wickes", "brand:wikidata": "Q7998350", "nsi_id": "wickes-ae8e02"}, "geometry": {"type": "Point", "coordinates": [-5.123544, 50.263957]}},
{"type": "Feature", "id": "GucduCbbvPSerLIMZjm_tUScPhE=", "properties": {"ref": "8406", "@spider": "wickes_gb", "shop": "doityourself", "addr:street_address": "UNIT 4, SHRUB HILL RETAIL PARK", "addr:city": "WORCESTER", "addr:postcode": "WR5 1HE", "addr:country": "GB", "name": "Wickes Worcester", "phone": "01905 726707", "website": "https://www.wickes.co.uk/store/8406", "image": "https://prod1-wx-wickesprod03-aws-travisperkins-cloud-public.s3.amazonaws.com/sys-master/images/hef/h68/12499868516382/wickes-store.jpg", "brand": "Wickes", "brand:wikidata": "Q7998350", "nsi_id": "wickes-ae8e02"}, "geometry": {"type": "Point", "coordinates": [-2.212196, 52.193576]}},
{"type": "Feature", "id": "W3q1ENuc3JQdYUdsufYnB6VVF_c=", "properties": {"ref": "8404", "@spider": "wickes_gb", "shop": "doityourself", "addr:street_address": "WELLINGTON ROAD", "addr:city": "Staffordshire", "addr:postcode": "DE14 2AP", "addr:country": "GB", "name": "Wickes Burton South", "phone": "01283 516809", "website": "https://www.wickes.co.uk/store/8404", "image": "https://prod1-wx-wickesprod03-aws-travisperkins-cloud-public.s3.amazonaws.com/sys-master/images/hef/h68/12499868516382/wickes-store.jpg", "brand": "Wickes", "brand:wikidata": "Q7998350", "nsi_id": "wickes-ae8e02"}, "geometry": {"type": "Point", "coordinates": [-1.649905, 52.803865]}},
{"type": "Feature", "id": "SLSaKRLLvLh0SA-fsD7F49VI0Mk=", "properties": {"ref": "8385", "@spider": "wickes_gb", "shop": "doityourself", "addr:street_address": "WOODBRIDGE BUSINESS PARK", "addr:city": "GUILDFORD", "addr:postcode": "GU1 1EH", "addr:country": "GB", "name": "Wickes Guildford", "phone": "01483 459397", "website": "https://www.wickes.co.uk/store/8385", "image": "https://prod1-wx-wickesprod03-aws-travisperkins-cloud-public.s3.amazonaws.com/sys-master/images/hef/h68/12499868516382/wickes-store.jpg", "brand": "Wickes", "brand:wikidata": "Q7998350", "nsi_id": "wickes-ae8e02"}, "geometry": {"type": "Point", "coordinates": [-0.580441, 51.2461]}},
{"type": "Feature", "id": "0n57dChuJxOQeNX6S7KzJCwCRpA=", "properties": {"ref": "8382", "@spider": "wickes_gb", "shop": "doityourself", "addr:street_address": "UNIT A BRIDGE PARK", "addr:city": "EAST GRINSTEAD", "addr:postcode": "RH19 1QX", "addr:country": "GB", "name": "Wickes East Grinstead", "phone": "01342 328165", "website": "https://www.wickes.co.uk/store/8382", "image": "https://prod1-wx-wickesprod03-aws-travisperkins-cloud-public.s3.amazonaws.com/sys-master/images/hef/h68/12499868516382/wickes-store.jpg", "brand": "Wickes", "brand:wikidata": "Q7998350", "nsi_id": "wickes-ae8e02"}, "geometry": {"type": "Point", "coordinates": [-0.03626, 51.13682]}},
{"type": "Feature", "id": "NOGlrEaOc9brH9m37bV7YLwzobo=", "properties": {"ref": "8381", "@spider": "wickes_gb", "shop": "doityourself", "addr:street_address": "CENTURY DRIVE", "addr:city": "ESSEX", "addr:postcode": "CM77 8YL", "addr:country": "GB", "name": "Wickes Braintree", "phone": "01376 306600", "website": "https://www.wickes.co.uk/store/8381", "image": "https://prod1-wx-wickesprod03-aws-travisperkins-cloud-public.s3.amazonaws.com/sys-master/images/hef/h68/12499868516382/wickes-store.jpg", "brand": "Wickes", "brand:wikidata": "Q7998350", "nsi_id": "wickes-ae8e02"}, "geometry": {"type": "Point", "coordinates": [0.567245, 51.873962]}},
{"type": "Feature", "id": "VU48DMiijeMRaCm4JylAcfcM-vY=", "properties": {"ref": "8377", "@spider": "wickes_gb", "shop": "doityourself", "addr:street_address": "WOODROW WAY", "addr:city": "Gloucestershire", "addr:postcode": "GL2 5DX", "addr:country": "GB", "name": "Wickes Gloucester", "phone": "01452 307330", "website": "https://www.wickes.co.uk/store/8377", "image": "https://prod1-wx-wickesprod03-aws-travisperkins-cloud-public.s3.amazonaws.com/sys-master/images/hef/h68/12499868516382/wickes-store.jpg", "brand": "Wickes", "brand:wikidata": "Q7998350", "nsi_id": "wickes-ae8e02"}, "geometry": {"type": "Point", "coordinates": [-2.270441, 51.836693]}},
{"type": "Feature", "id": "znYP5jBVBcOLA2ybD7gcksoasrk=", "properties": {"ref": "8374", "@spider": "wickes_gb", "shop": "doityourself", "addr:street_address": "LARCH STREET", "addr:city": "GREATER MANCHESTER", "addr:postcode": "OL8 1TA", "addr:country": "GB", "name": "Wickes Oldham", "phone": "0161 904 2700", "website": "https://www.wickes.co.uk/store/8374", "image": "https://prod1-wx-wickesprod03-aws-travisperkins-cloud-public.s3.amazonaws.com/sys-master/images/hef/h68/12499868516382/wickes-store.jpg", "brand": "Wickes", "brand:wikidata": "Q7998350", "nsi_id": "wickes-ae8e02"}, "geometry": {"type": "Point", "coordinates": [-2.125054, 53.537446]}},
{"type": "Feature", "id": "xzL0dRChxtjTnVThlv3yeltPi1g=", "properties": {"ref": "8372", "@spider": "wickes_gb", "shop": "doityourself", "addr:street_address": "850 HIGH ROAD", "addr:city": "ROMFORD", "addr:postcode": "RM6 4HX", "addr:country": "GB", "name": "Wickes Chadwell Heath", "phone": "020 8590 1116", "website": "https://www.wickes.co.uk/store/8372", "image": "https://prod1-wx-wickesprod03-aws-travisperkins-cloud-public.s3.amazonaws.com/sys-master/images/hef/h68/12499868516382/wickes-store.jpg", "brand": "Wickes", "brand:wikidata": "Q7998350", "nsi_id": "wickes-ae8e02"}, "geometry": {"type": "Point", "coordinates": [0.116448, 51.567227]}},
{"type": "Feature", "id": "yPeOdX5iwBKUrdYL55Mv_XYSlSg=", "properties": {"ref": "8371", "@spider": "wickes_gb", "shop": "doityourself", "addr:street_address": "UNIT A, READING RETAIL PARK", "addr:city": "BERKSHIRE", "addr:postcode": "RG30 1PR", "addr:country": "GB", "name": "Wickes Reading", "phone": "01189 588288", "website": "https://www.wickes.co.uk/store/8371", "image": "https://prod1-wx-wickesprod03-aws-travisperkins-cloud-public.s3.amazonaws.com/sys-master/images/hef/h68/12499868516382/wickes-store.jpg", "brand": "Wickes", "brand:wikidata": "Q7998350", "nsi_id": "wickes-ae8e02"}, "geometry": {"type": "Point", "coordinates": [-1.014435, 51.461073]}},
{"type": "Feature", "id": "-lKJ7PBcVv_kQZlTt5ccUdcdYmo=", "properties": {"ref": "8370", "@spider": "wickes_gb", "shop": "doityourself", "addr:street_address": "94 KINGS HIGHWAY", "addr:city": "LONDON", "addr:postcode": "SE18 2BG", "addr:country": "GB", "name": "Wickes Plumstead", "phone": "020 8276 5500", "website": "https://www.wickes.co.uk/store/8370", "image": "https://prod1-wx-wickesprod03-aws-travisperkins-cloud-public.s3.amazonaws.com/sys-master/images/hef/h68/12499868516382/wickes-store.jpg", "brand": "Wickes", "brand:wikidata": "Q7998350", "nsi_id": "wickes-ae8e02"}, "geometry": {"type": "Point", "coordinates": [0.103355, 51.478816]}},
{"type": "Feature", "id": "BDvx7I8EAtBCFdusiQ5XDLpVB0s=", "properties": {"ref": "8367", "@spider": "wickes_gb", "shop": "doityourself", "addr:street_address": "WIDEMARSH STREET", "addr:city": "Herefordshire", "addr:postcode": "HR4 9EZ", "addr:country": "GB", "name": "Wickes Hereford", "phone": "01432 422700", "website": "https://www.wickes.co.uk/store/8367", "image": "https://prod1-wx-wickesprod03-aws-travisperkins-cloud-public.s3.amazonaws.com/sys-master/images/hef/h68/12499868516382/wickes-store.jpg", "brand": "Wickes", "brand:wikidata": "Q7998350", "nsi_id": "wickes-ae8e02"}, "geometry": {"type": "Point", "coordinates": [-2.715163, 52.060498]}},
{"type": "Feature", "id": "S90Ve53_rUhTEjlPmSinnbvcuZo=", "properties": {"ref": "8366", "@spider": "wickes_gb", "shop": "doityourself", "addr:street_address": "UNIT 3, WREN NEST RETAIL", "addr:city": "GLOSSOP", "addr:postcode": "SK13 8GN", "addr:country": "GB", "name": "Wickes Glossop", "phone": "01457 726600", "website": "https://www.wickes.co.uk/store/8366", "image": "https://prod1-wx-wickesprod03-aws-travisperkins-cloud-public.s3.amazonaws.com/sys-master/images/hef/h68/12499868516382/wickes-store.jpg", "brand": "Wickes", "brand:wikidata": "Q7998350", "nsi_id": "wickes-ae8e02"}, "geometry": {"type": "Point", "coordinates": [-1.957617, 53.444929]}},
{"type": "Feature", "id": "QBy1VIpHU-JSeFzt0Ihi0qZuItc=", "properties": {"ref": "8365", "@spider": "wickes_gb", "shop": "doityourself", "addr:street_address": "UNIT 1 COLLEGE MAINS ROAD", "addr:city": "DUMFRIES", "addr:postcode": "DG2 0NU", "addr:country": "GB", "name": "Wickes Dumfries", "phone": "01387 222 100", "website": "https://www.wickes.co.uk/store/8365", "image": "https://prod1-wx-wickesprod03-aws-travisperkins-cloud-public.s3.amazonaws.com/sys-master/images/hef/h68/12499868516382/wickes-store.jpg", "brand": "Wickes", "brand:wikidata": "Q7998350", "nsi_id": "wickes-ae8e02"}, "geometry": {"type": "Point", "coordinates": [-3.6235349285777345, 55.078094247582946]}},
{"type": "Feature", "id": "kYPG2z7Yd38sbm6cAeyapyhnrtA=", "properties": {"ref": "8364", "@spider": "wickes_gb", "shop": "doityourself", "addr:street_address": "SPRINGFIELD RETAIL PARK, HUCKN", "addr:city": "NOTTINGHAM", "addr:postcode": "NG6 8AJ", "addr:country": "GB", "name": "Wickes Bulwell", "phone": "01159 805200", "website": "https://www.wickes.co.uk/store/8364", "image": "https://prod1-wx-wickesprod03-aws-travisperkins-cloud-public.s3.amazonaws.com/sys-master/images/hef/h68/12499868516382/wickes-store.jpg", "brand": "Wickes", "brand:wikidata": "Q7998350", "nsi_id": "wickes-ae8e02"}, "geometry": {"type": "Point", "coordinates": [-1.191954, 53.005703]}},
{"type": "Feature", "id": "Svoc77bHfC1wZOutGyucbjkb2Bc=", "properties": {"ref": "8360", "@spider": "wickes_gb", "shop": "doityourself", "addr:street_address": "3 DENTS ROAD", "addr:city": "ASHBY DE LA ZOUCH", "addr:postcode": "LE65 1JS", "addr:country": "GB", "name": "Wickes Ashby De La Zouch", "phone": "01530 503 200", "website": "https://www.wickes.co.uk/store/8360", "image": "https://prod1-wx-wickesprod03-aws-travisperkins-cloud-public.s3.amazonaws.com/sys-master/images/hef/h68/12499868516382/wickes-store.jpg", "brand": "Wickes", "brand:wikidata": "Q7998350", "nsi_id": "wickes-ae8e02"}, "geometry": {"type": "Point", "coordinates": [-1.452842, 52.750562]}},
{"type": "Feature", "id": "idDb0KXGcHV2VZnzdl9Wu7ILO1M=", "properties": {"ref": "8359", "@spider": "wickes_gb", "shop": "doityourself", "addr:street_address": "UNIT E, LICHFIELD RETAIL PARK", "addr:city": "LICHFIELD, STAFFORDSHIRE", "addr:postcode": "WS13 6GB", "addr:country": "GB", "name": "Wickes Lichfield", "phone": "01543 516900", "website": "https://www.wickes.co.uk/store/8359", "image": "https://prod1-wx-wickesprod03-aws-travisperkins-cloud-public.s3.amazonaws.com/sys-master/images/hef/h68/12499868516382/wickes-store.jpg", "brand": "Wickes", "brand:wikidata": "Q7998350", "nsi_id": "wickes-ae8e02"}, "geometry": {"type": "Point", "coordinates": [-1.806559, 52.68917]}},
{"type": "Feature", "id": "VkRYnekqkSm4Q4MKmv5VL1OReyc=", "properties": {"ref": "8357", "@spider": "wickes_gb", "shop": "doityourself", "addr:street_address": "LONDON ROAD", "addr:city": "Norfolk", "addr:postcode": "IP24 3HZ", "addr:country": "GB", "name": "Wickes Thetford", "phone": "01842 765 141", "website": "https://www.wickes.co.uk/store/8357", "image": "https://prod1-wx-wickesprod03-aws-travisperkins-cloud-public.s3.amazonaws.com/sys-master/images/hef/h68/12499868516382/wickes-store.jpg", "brand": "Wickes", "brand:wikidata": "Q7998350", "nsi_id": "wickes-ae8e02"}, "geometry": {"type": "Point", "coordinates": [0.73046, 52.406422]}},
{"type": "Feature", "id": "vkQFTTVHUcTGyx-UenLO1DzjM30=", "properties": {"ref": "8355", "@spider": "wickes_gb", "shop": "doityourself", "addr:street_address": "WEST STREET", "addr:city": "Lincolnshire", "addr:postcode": "PE21 8QN", "addr:country": "GB", "name": "Wickes Boston", "phone": "01205 310186", "website": "https://www.wickes.co.uk/store/8355", "image": "https://prod1-wx-wickesprod03-aws-travisperkins-cloud-public.s3.amazonaws.com/sys-master/images/hef/h68/12499868516382/wickes-store.jpg", "brand": "Wickes", "brand:wikidata": "Q7998350", "nsi_id": "wickes-ae8e02"}, "geometry": {"type": "Point", "coordinates": [-0.028112, 52.975807]}},
{"type": "Feature", "id": "KKHVejrtA-g9F7D7dT-FvP_1P-4=", "properties": {"ref": "8354", "@spider": "wickes_gb", "shop": "doityourself", "addr:street_address": "45 STEVENSON ROAD", "addr:city": "EDINBURGH", "addr:postcode": "EH11 2SL", "addr:country": "GB", "name": "Wickes Edinburgh", "phone": "0131 346 0541", "website": "https://www.wickes.co.uk/store/8354", "image": "https://prod1-wx-wickesprod03-aws-travisperkins-cloud-public.s3.amazonaws.com/sys-master/images/hef/h68/12499868516382/wickes-store.jpg", "brand": "Wickes", "brand:wikidata": "Q7998350", "nsi_id": "wickes-ae8e02"}, "geometry": {"type": "Point", "coordinates": [-3.243309, 55.937267]}},
{"type": "Feature", "id": "7CZxXUj77LfxlhlXOfqJlCsGMRc=", "properties": {"ref": "8353", "@spider": "wickes_gb", "shop": "doityourself", "addr:street_address": "UNIT B SPRINGFIELD RETAIL PARK", "addr:city": "PEMBROKESHIRE", "addr:postcode": "SA61 2AT", "addr:country": "GB", "name": "Wickes Haverfordwest", "phone": "01437 823300", "website": "https://www.wickes.co.uk/store/8353", "image": "https://prod1-wx-wickesprod03-aws-travisperkins-cloud-public.s3.amazonaws.com/sys-master/images/hef/h68/12499868516382/wickes-store.jpg", "brand": "Wickes", "brand:wikidata": "Q7998350", "nsi_id": "wickes-ae8e02"}, "geometry": {"type": "Point", "coordinates": [-4.962747, 51.812912]}},
{"type": "Feature", "id": "3RSjGQTjHdplKoFUjXfWZOGHXK8=", "properties": {"ref": "8352", "@spider": "wickes_gb", "shop": "doityourself", "addr:street_address": "2345 LONDON ROAD", "addr:city": "GLASGOW", "addr:postcode": "G32 8XP", "addr:country": "GB", "name": "Wickes Glasgow", "phone": "0141 763 2830", "website": "https://www.wickes.co.uk/store/8352", "image": "https://prod1-wx-wickesprod03-aws-travisperkins-cloud-public.s3.amazonaws.com/sys-master/images/hef/h68/12499868516382/wickes-store.jpg", "brand": "Wickes", "brand:wikidata": "Q7998350", "nsi_id": "wickes-ae8e02"}, "geometry": {"type": "Point", "coordinates": [-4.154848, 55.836999]}},
{"type": "Feature", "id": "uGf4soX5SyZTYwCsvsXal97v5Cs=", "properties": {"ref": "8351", "@spider": "wickes_gb", "shop": "doityourself", "addr:street_address": "METRIC TRADE PARK", "addr:city": "CIRENCESTER", "addr:postcode": "GL7 1YQ", "addr:country": "GB", "name": "Wickes Cirencester", "phone": "01285 644349", "website": "https://www.wickes.co.uk/store/8351", "image": "https://prod1-wx-wickesprod03-aws-travisperkins-cloud-public.s3.amazonaws.com/sys-master/images/hef/h68/12499868516382/wickes-store.jpg", "brand": "Wickes", "brand:wikidata": "Q7998350", "nsi_id": "wickes-ae8e02"}, "geometry": {"type": "Point", "coordinates": [-1.962455, 51.70667]}},
{"type": "Feature", "id": "EmPFMbM3pGCQHl1jYIF3V5s5tYA=", "properties": {"ref": "8350", "@spider": "wickes_gb", "shop": "doityourself", "addr:street_address": "UNIT 2, ORWELL RETAIL PARK", "addr:city": "IPSWICH", "addr:postcode": "IP2 0AQ", "addr:country": "GB", "name": "Wickes Ipswich", "phone": "01473 212091", "website": "https://www.wickes.co.uk/store/8350", "image": "https://prod1-wx-wickesprod03-aws-travisperkins-cloud-public.s3.amazonaws.com/sys-master/images/hef/h68/12499868516382/wickes-store.jpg", "brand": "Wickes", "brand:wikidata": "Q7998350", "nsi_id": "wickes-ae8e02"}, "geometry": {"type": "Point", "coordinates": [1.133739, 52.056831]}},
{"type": "Feature", "id": "7lTlPvSiI0VDY52BYKrPgEfUG5w=", "properties": {"ref": "8349", "@spider": "wickes_gb", "shop": "doityourself", "addr:street_address": "UNIT 1, CHIPPENHAM RETAIL PARK", "addr:city": "CHIPPENHAM", "addr:postcode": "SN14 6LH", "addr:country": "GB", "name": "Wickes Chippenham", "phone": "01249 426600", "website": "https://www.wickes.co.uk/store/8349", "image": "https://prod1-wx-wickesprod03-aws-travisperkins-cloud-public.s3.amazonaws.com/sys-master/images/hef/h68/12499868516382/wickes-store.jpg", "brand": "Wickes", "brand:wikidata": "Q7998350", "nsi_id": "wickes-ae8e02"}, "geometry": {"type": "Point", "coordinates": [-2.142772, 51.467935]}},
{"type": "Feature", "id": "RwN-HJ1rAIwYf-HakPQg8PMTtXw=", "properties": {"ref": "8348", "@spider": "wickes_gb", "shop": "doityourself", "addr:street_address": "UNIT 1, ST. JAMES RETAIL PARK", "addr:city": "NEWCASTLE UPON TYNE", "addr:postcode": "NE5 2SF", "addr:country": "GB", "name": "Wickes Newcastle Extra", "phone": "0191 228 8050", "website": "https://www.wickes.co.uk/store/8348", "image": "https://prod1-wx-wickesprod03-aws-travisperkins-cloud-public.s3.amazonaws.com/sys-master/images/hef/h68/12499868516382/wickes-store.jpg", "brand": "Wickes", "brand:wikidata": "Q7998350", "nsi_id": "wickes-ae8e02"}, "geometry": {"type": "Point", "coordinates": [-1.674411, 54.989834]}},
{"type": "Feature", "id": "cPVOUNyqjuBACMamPmvNDovwuNk=", "properties": {"ref": "8347", "@spider": "wickes_gb", "shop": "doityourself", "addr:street_address": "GALLAGHER RETAIL PARK", "addr:city": "CAERPHILLY", "addr:postcode": "CF83 3GX", "addr:country": "GB", "name": "Wickes Caerphilly", "phone": "029 2083 6800", "website": "https://www.wickes.co.uk/store/8347", "image": "https://prod1-wx-wickesprod03-aws-travisperkins-cloud-public.s3.amazonaws.com/sys-master/images/hef/h68/12499868516382/wickes-store.jpg", "brand": "Wickes", "brand:wikidata": "Q7998350", "nsi_id": "wickes-ae8e02"}, "geometry": {"type": "Point", "coordinates": [-3.217061, 51.591118]}},
{"type": "Feature", "id": "RNZQlavovVQSC9wQDB4rIIguuRw=", "properties": {"ref": "8344", "@spider": "wickes_gb", "shop": "doityourself", "addr:street_address": "UNIT 1, BROADSTAIRS RETAIL PAR", "addr:city": "BROADSTAIRS", "addr:postcode": "CT10 2QW", "addr:country": "GB", "name": "Wickes Broadstairs", "phone": "01843 866512", "website": "https://www.wickes.co.uk/store/8344", "image": "https://prod1-wx-wickesprod03-aws-travisperkins-cloud-public.s3.amazonaws.com/sys-master/images/hef/h68/12499868516382/wickes-store.jpg", "brand": "Wickes", "brand:wikidata": "Q7998350", "nsi_id": "wickes-ae8e02"}, "geometry": {"type": "Point", "coordinates": [1.399137, 51.357687]}},
{"type": "Feature", "id": "lNgnI7dJMOWKxN1VBCqjrX11LWk=", "properties": {"ref": "8343", "@spider": "wickes_gb", "shop": "doityourself", "addr:street_address": "SNEDSHILL TRADING ESTATE", "addr:city": "TELFORD", "addr:postcode": "TF2 6DN", "addr:country": "GB", "name": "Wickes Telford", "phone": "01952 612 717", "website": "https://www.wickes.co.uk/store/8343", "image": "https://prod1-wx-wickesprod03-aws-travisperkins-cloud-public.s3.amazonaws.com/sys-master/images/hef/h68/12499868516382/wickes-store.jpg", "brand": "Wickes", "brand:wikidata": "Q7998350", "nsi_id": "wickes-ae8e02"}, "geometry": {"type": "Point", "coordinates": [-2.444322, 52.688169]}},
{"type": "Feature", "id": "-iZh3-gkUBzv-OcUUu5LoMtaggs=", "properties": {"ref": "8342", "@spider": "wickes_gb", "shop": "doityourself", "addr:street_address": "57 GIPSY LANE", "addr:city": "Wiltshire", "addr:postcode": "SN2 8DH", "addr:country": "GB", "name": "Wickes Swindon Extra", "phone": "01793 610701", "website": "https://www.wickes.co.uk/store/8342", "image": "https://prod1-wx-wickesprod03-aws-travisperkins-cloud-public.s3.amazonaws.com/sys-master/images/hef/h68/12499868516382/wickes-store.jpg", "brand": "Wickes", "brand:wikidata": "Q7998350", "nsi_id": "wickes-ae8e02"}, "geometry": {"type": "Point", "coordinates": [-1.769018, 51.57244]}},
{"type": "Feature", "id": "Id_nQsSOx5OfE47CNlPP5UzACeQ=", "properties": {"ref": "8340", "@spider": "wickes_gb", "shop": "doityourself", "addr:street_address": "SLOUGH TRADING ESTATE", "addr:city": "SLOUGH", "addr:postcode": "SL1 4UN", "addr:country": "GB", "name": "Wickes Slough", "phone": "01753 511212", "website": "https://www.wickes.co.uk/store/8340", "image": "https://prod1-wx-wickesprod03-aws-travisperkins-cloud-public.s3.amazonaws.com/sys-master/images/hef/h68/12499868516382/wickes-store.jpg", "brand": "Wickes", "brand:wikidata": "Q7998350", "nsi_id": "wickes-ae8e02"}, "geometry": {"type": "Point", "coordinates": [-0.615884, 51.521174]}},
{"type": "Feature", "id": "L8INv48DZFL5pIx7QhVgiZMwHKA=", "properties": {"ref": "8338", "@spider": "wickes_gb", "shop": "doityourself", "addr:street_address": "POTASH TERRACE", "addr:city": "HAVANT", "addr:postcode": "PO9 1HH", "addr:country": "GB", "name": "Wickes Havant Extra", "phone": "02392 442980", "website": "https://www.wickes.co.uk/store/8338", "image": "https://prod1-wx-wickesprod03-aws-travisperkins-cloud-public.s3.amazonaws.com/sys-master/images/hef/h68/12499868516382/wickes-store.jpg", "brand": "Wickes", "brand:wikidata": "Q7998350", "nsi_id": "wickes-ae8e02"}, "geometry": {"type": "Point", "coordinates": [-0.986043, 50.854351]}},
{"type": "Feature", "id": "QgLKHG5M6ZtH0bRlYkt3FvoUcHE=", "properties": {"ref": "8337", "@spider": "wickes_gb", "shop": "doityourself", "addr:street_address": "PRINCES GATE RETAIL PARK", "addr:city": "ESSEX", "addr:postcode": "CM20 2SU", "addr:country": "GB", "name": "Wickes Harlow Extra", "phone": "01279 422322", "website": "https://www.wickes.co.uk/store/8337", "image": "https://prod1-wx-wickesprod03-aws-travisperkins-cloud-public.s3.amazonaws.com/sys-master/images/hef/h68/12499868516382/wickes-store.jpg", "brand": "Wickes", "brand:wikidata": "Q7998350", "nsi_id": "wickes-ae8e02"}, "geometry": {"type": "Point", "coordinates": [0.107051, 51.780906]}},
{"type": "Feature", "id": "I7q29MBffp6V4t8OVxcqoSR2RRI=", "properties": {"ref": "8336", "@spider": "wickes_gb", "shop": "doityourself", "addr:street_address": "EAGLE WAY", "addr:city": "EXETER", "addr:postcode": "EX2 7HY", "addr:country": "GB", "name": "Wickes Exeter", "phone": "01392 605500", "website": "https://www.wickes.co.uk/store/8336", "image": "https://prod1-wx-wickesprod03-aws-travisperkins-cloud-public.s3.amazonaws.com/sys-master/images/hef/h68/12499868516382/wickes-store.jpg", "brand": "Wickes", "brand:wikidata": "Q7998350", "nsi_id": "wickes-ae8e02"}, "geometry": {"type": "Point", "coordinates": [-3.465322, 50.718167]}},
{"type": "Feature", "id": "B5VLS0DPnEZEWu_jjFJIep7erBg=", "properties": {"ref": "8334", "@spider": "wickes_gb", "shop": "doityourself", "addr:street_address": "TAMESIDE BUSINESS PARK", "addr:city": "BIRMINGHAM", "addr:postcode": "B42 2ET", "addr:country": "GB", "name": "Wickes Perry Barr Extra", "phone": "0121 332 4330", "website": "https://www.wickes.co.uk/store/8334", "image": "https://prod1-wx-wickesprod03-aws-travisperkins-cloud-public.s3.amazonaws.com/sys-master/images/hef/h68/12499868516382/wickes-store.jpg", "brand": "Wickes", "brand:wikidata": "Q7998350", "nsi_id": "wickes-ae8e02"}, "geometry": {"type": "Point", "coordinates": [-1.895533, 52.525718]}},
{"type": "Feature", "id": "f8SC2GU86xe4e1X_iNNCaEu_S9g=", "properties": {"ref": "8332", "@spider": "wickes_gb", "shop": "doityourself", "addr:street_address": "MILLENIUM COURT", "addr:city": "BASINGSTOKE", "addr:postcode": "RG21 6AA", "addr:country": "GB", "name": "Wickes Basingstoke", "phone": "01256 726300", "website": "https://www.wickes.co.uk/store/8332", "image": "https://prod1-wx-wickesprod03-aws-travisperkins-cloud-public.s3.amazonaws.com/sys-master/images/hef/h68/12499868516382/wickes-store.jpg", "brand": "Wickes", "brand:wikidata": "Q7998350", "nsi_id": "wickes-ae8e02"}, "geometry": {"type": "Point", "coordinates": [-1.104503, 51.265708]}},
{"type": "Feature", "id": "aIC4BlGKe_yojdDZNa-aLq7n7hc=", "properties": {"ref": "8331", "@spider": "wickes_gb", "shop": "doityourself", "addr:street_address": "12A-12B MAGNUS", "addr:city": "TAMWORTH", "addr:postcode": "B77 5BY", "addr:country": "GB", "name": "Wickes Tamworth", "phone": "01827 253520", "website": "https://www.wickes.co.uk/store/8331", "image": "https://prod1-wx-wickesprod03-aws-travisperkins-cloud-public.s3.amazonaws.com/sys-master/images/hef/h68/12499868516382/wickes-store.jpg", "brand": "Wickes", "brand:wikidata": "Q7998350", "nsi_id": "wickes-ae8e02"}, "geometry": {"type": "Point", "coordinates": [-1.674152, 52.604108]}},
{"type": "Feature", "id": "liWH-Z0AmcAAgWRJF2mgeSqRRVM=", "properties": {"ref": "8329", "@spider": "wickes_gb", "shop": "doityourself", "addr:street_address": "WESTON RETAIL PARK", "addr:city": "WESTON SUPER MARE", "addr:postcode": "BS23 3YG", "addr:country": "GB", "name": "Wickes Weston Super Mare", "phone": "01934 421070", "website": "https://www.wickes.co.uk/store/8329", "image": "https://prod1-wx-wickesprod03-aws-travisperkins-cloud-public.s3.amazonaws.com/sys-master/images/hef/h68/12499868516382/wickes-store.jpg", "brand": "Wickes", "brand:wikidata": "Q7998350", "nsi_id": "wickes-ae8e02"}, "geometry": {"type": "Point", "coordinates": [-2.960895, 51.339326]}},
{"type": "Feature", "id": "6Ru7ZWOqkG1QmOO1PIs8WPBG6Cs=", "properties": {"ref": "8328", "@spider": "wickes_gb", "shop": "doityourself", "addr:street_address": "271 WINCHESTER ROAD", "addr:city": "Hampshire", "addr:postcode": "SO16 6TP", "addr:country": "GB", "name": "Wickes Southampton Extra", "phone": "02380 515080", "website": "https://www.wickes.co.uk/store/8328", "image": "https://prod1-wx-wickesprod03-aws-travisperkins-cloud-public.s3.amazonaws.com/sys-master/images/hef/h68/12499868516382/wickes-store.jpg", "brand": "Wickes", "brand:wikidata": "Q7998350", "nsi_id": "wickes-ae8e02"}, "geometry": {"type": "Point", "coordinates": [-1.42471, 50.930304]}},
{"type": "Feature", "id": "MKkcoreI3zfjKB2tiIj-IOFErXI=", "properties": {"ref": "8327", "@spider": "wickes_gb", "shop": "doityourself", "addr:street_address": "ALBION MILLS RETAIL PARK", "addr:city": "WEST YORKSHIRE", "addr:postcode": "WF2 9SA", "addr:country": "GB", "name": "Wickes Wakefield", "phone": "01924 206670", "website": "https://www.wickes.co.uk/store/8327", "image": "https://prod1-wx-wickesprod03-aws-travisperkins-cloud-public.s3.amazonaws.com/sys-master/images/hef/h68/12499868516382/wickes-store.jpg", "brand": "Wickes", "brand:wikidata": "Q7998350", "nsi_id": "wickes-ae8e02"}, "geometry": {"type": "Point", "coordinates": [-1.505519, 53.679739]}},
{"type": "Feature", "id": "ucutM7O9_YGWA4Doy8e9mDSRcJ4=", "properties": {"ref": "8326", "@spider": "wickes_gb", "shop": "doityourself", "addr:street_address": "NORTHFIELD AVE", "addr:city": "NORTHAMPTONSHIRE", "addr:postcode": "NN16 9TS", "addr:country": "GB", "name": "Wickes Kettering Extra", "phone": "01536 517389", "website": "https://www.wickes.co.uk/store/8326", "image": "https://prod1-wx-wickesprod03-aws-travisperkins-cloud-public.s3.amazonaws.com/sys-master/images/hef/h68/12499868516382/wickes-store.jpg", "brand": "Wickes", "brand:wikidata": "Q7998350", "nsi_id": "wickes-ae8e02"}, "geometry": {"type": "Point", "coordinates": [-0.735264, 52.403643]}},
{"type": "Feature", "id": "gFNP5TMs1lCSrLEzlg9cuA1KY0U=", "properties": {"ref": "8323", "@spider": "wickes_gb", "shop": "doityourself", "addr:street_address": "CWMDU INDUSTRIAL ESTATE", "addr:city": "SWANSEA", "addr:postcode": "SA5 8LD", "addr:country": "GB", "name": "Wickes Swansea Extra", "phone": "01792 306880", "website": "https://www.wickes.co.uk/store/8323", "image": "https://prod1-wx-wickesprod03-aws-travisperkins-cloud-public.s3.amazonaws.com/sys-master/images/hef/h68/12499868516382/wickes-store.jpg", "brand": "Wickes", "brand:wikidata": "Q7998350", "nsi_id": "wickes-ae8e02"}, "geometry": {"type": "Point", "coordinates": [-3.959042, 51.634637]}},
{"type": "Feature", "id": "c0-Trjr2fz6g0G3rbSJw4sEKiXY=", "properties": {"ref": "8322", "@spider": "wickes_gb", "shop": "doityourself", "addr:street_address": "RAVENSIDE RETAIL PARK", "addr:city": "LONDON", "addr:postcode": "N18 3HA", "addr:country": "GB", "name": "Wickes Edmonton Extra", "phone": "020 8803 0111", "website": "https://www.wickes.co.uk/store/8322", "image": "https://prod1-wx-wickesprod03-aws-travisperkins-cloud-public.s3.amazonaws.com/sys-master/images/hef/h68/12499868516382/wickes-store.jpg", "brand": "Wickes", "brand:wikidata": "Q7998350", "nsi_id": "wickes-ae8e02"}, "geometry": {"type": "Point", "coordinates": [-0.042235, 51.610711]}},
{"type": "Feature", "id": "jHhS04Q_8zf3SW4PH0s0xB1llWA=", "properties": {"ref": "8321", "@spider": "wickes_gb", "shop": "doityourself", "addr:street_address": "NORTHERN AVENUE RETAIL PARK", "addr:city": "HAMPSHIRE", "addr:postcode": "SP10 4AU", "addr:country": "GB", "name": "Wickes Andover", "phone": "01264 721800", "website": "https://www.wickes.co.uk/store/8321", "image": "https://prod1-wx-wickesprod03-aws-travisperkins-cloud-public.s3.amazonaws.com/sys-master/images/hef/h68/12499868516382/wickes-store.jpg", "brand": "Wickes", "brand:wikidata": "Q7998350", "nsi_id": "wickes-ae8e02"}, "geometry": {"type": "Point", "coordinates": [-1.478117, 51.216343]}},
{"type": "Feature", "id": "58E2mAi2Irwg254N5Tl3P-Lo-CY=", "properties": {"ref": "8320", "@spider": "wickes_gb", "shop": "doityourself", "addr:street_address": "CRYALLS LANE", "addr:city": "SITTINGBOURNE", "addr:postcode": "ME10 1NU", "addr:country": "GB", "name": "Wickes Sittingbourne", "phone": "01795 562700", "website": "https://www.wickes.co.uk/store/8320", "image": "https://prod1-wx-wickesprod03-aws-travisperkins-cloud-public.s3.amazonaws.com/sys-master/images/hef/h68/12499868516382/wickes-store.jpg", "brand": "Wickes", "brand:wikidata": "Q7998350", "nsi_id": "wickes-ae8e02"}, "geometry": {"type": "Point", "coordinates": [0.716354, 51.343099]}},
{"type": "Feature", "id": "Zg-7l90BAvEwDS4pft-_8db40Yo=", "properties": {"ref": "8319", "@spider": "wickes_gb", "shop": "doityourself", "addr:street_address": "RAVENSIDE RETAIL PARK", "addr:city": "EAST SUSSEX", "addr:postcode": "TN40 2JS", "addr:country": "GB", "name": "Wickes Bexhill", "phone": "01424 229880", "website": "https://www.wickes.co.uk/store/8319", "image": "https://prod1-wx-wickesprod03-aws-travisperkins-cloud-public.s3.amazonaws.com/sys-master/images/hef/h68/12499868516382/wickes-store.jpg", "brand": "Wickes", "brand:wikidata": "Q7998350", "nsi_id": "wickes-ae8e02"}, "geometry": {"type": "Point", "coordinates": [0.498369, 50.844602]}},
{"type": "Feature", "id": "4aReZLdv9yTZozGZ2_Xe3D63gg8=", "properties": {"ref": "8318", "@spider": "wickes_gb", "shop": "doityourself", "addr:street_address": "LAUNTON ROAD", "addr:city": "Oxfordshire", "addr:postcode": "OX26 6PZ", "addr:country": "GB", "name": "Wickes Bicester", "phone": "01869 356200", "website": "https://www.wickes.co.uk/store/8318", "image": "https://prod1-wx-wickesprod03-aws-travisperkins-cloud-public.s3.amazonaws.com/sys-master/images/hef/h68/12499868516382/wickes-store.jpg", "brand": "Wickes", "brand:wikidata": "Q7998350", "nsi_id": "wickes-ae8e02"}, "geometry": {"type": "Point", "coordinates": [-1.140099, 51.899287]}},
{"type": "Feature", "id": "rV_isl6ByzT5f4_9cUvRohGdWAs=", "properties": {"ref": "8317", "@spider": "wickes_gb", "shop": "doityourself", "addr:street_address": "PETO WAY", "addr:city": "SUFFOLK", "addr:postcode": "NR32 2ED", "addr:country": "GB", "name": "Wickes Lowestoft", "phone": "01502 533320", "website": "https://www.wickes.co.uk/store/8317", "image": "https://prod1-wx-wickesprod03-aws-travisperkins-cloud-public.s3.amazonaws.com/sys-master/images/hef/h68/12499868516382/wickes-store.jpg", "brand": "Wickes", "brand:wikidata": "Q7998350", "nsi_id": "wickes-ae8e02"}, "geometry": {"type": "Point", "coordinates": [1.733207, 52.47635]}},
{"type": "Feature", "id": "EDbJtIiTZJezJDrKShysq7WX0VA=", "properties": {"ref": "8316", "@spider": "wickes_gb", "shop": "doityourself", "addr:street_address": "UNIT 12, AYLESBURY SHOPPING PK", "addr:city": "AYLESBURY", "addr:postcode": "HP20 1DG", "addr:country": "GB", "name": "Wickes Aylesbury Extra", "phone": "01296 399599", "website": "https://www.wickes.co.uk/store/8316", "image": "https://prod1-wx-wickesprod03-aws-travisperkins-cloud-public.s3.amazonaws.com/sys-master/images/hef/h68/12499868516382/wickes-store.jpg", "brand": "Wickes", "brand:wikidata": "Q7998350", "nsi_id": "wickes-ae8e02"}, "geometry": {"type": "Point", "coordinates": [-0.808354, 51.820859]}},
{"type": "Feature", "id": "yIO1Yn7F34DVnUSuoJOu_6Vvm3o=", "properties": {"ref": "8314", "@spider": "wickes_gb", "shop": "doityourself", "addr:street_address": "ST PETERS STREET", "addr:city": "KENT", "addr:postcode": "ME16 0SN", "addr:country": "GB", "name": "Wickes Maidstone Extra", "phone": "01622 690346", "website": "https://www.wickes.co.uk/store/8314", "image": "https://prod1-wx-wickesprod03-aws-travisperkins-cloud-public.s3.amazonaws.com/sys-master/images/hef/h68/12499868516382/wickes-store.jpg", "brand": "Wickes", "brand:wikidata": "Q7998350", "nsi_id": "wickes-ae8e02"}, "geometry": {"type": "Point", "coordinates": [0.515566, 51.27414]}},
{"type": "Feature", "id": "Ib704X2tqMLKGJ8zBHXkoiQGJGU=", "properties": {"ref": "8313", "@spider": "wickes_gb", "shop": "doityourself", "addr:street_address": "WYCOMBE RETAIL PARK", "addr:city": "HIGH WYCOMBE", "addr:postcode": "HP11 1FY", "addr:country": "GB", "name": "Wickes High Wycombe", "phone": "01494 435400", "website": "https://www.wickes.co.uk/store/8313", "image": "https://prod1-wx-wickesprod03-aws-travisperkins-cloud-public.s3.amazonaws.com/sys-master/images/hef/h68/12499868516382/wickes-store.jpg", "brand": "Wickes", "brand:wikidata": "Q7998350", "nsi_id": "wickes-ae8e02"}, "geometry": {"type": "Point", "coordinates": [-0.720002, 51.618444]}},
{"type": "Feature", "id": "_25R4XCN_pe4cskSVKEQRP1BzTM=", "properties": {"ref": "8312", "@spider": "wickes_gb", "shop": "doityourself", "addr:street_address": "WESTERN ROAD", "addr:city": "BERKSHIRE", "addr:postcode": "RG12 1NS", "addr:country": "GB", "name": "Wickes Bracknell", "phone": "01344 317400", "website": "https://www.wickes.co.uk/store/8312", "image": "https://prod1-wx-wickesprod03-aws-travisperkins-cloud-public.s3.amazonaws.com/sys-master/images/hef/h68/12499868516382/wickes-store.jpg", "brand": "Wickes", "brand:wikidata": "Q7998350", "nsi_id": "wickes-ae8e02"}, "geometry": {"type": "Point", "coordinates": [-0.763146, 51.41703]}},
{"type": "Feature", "id": "A2YYbeMWD43__R75at5p1excrZg=", "properties": {"ref": "8310", "@spider": "wickes_gb", "shop": "doityourself", "addr:street_address": "FRASER ROAD", "addr:city": "Kent", "addr:postcode": "DA8 1QX", "addr:country": "GB", "name": "Wickes Erith", "phone": "01322 439762", "website": "https://www.wickes.co.uk/store/8310", "image": "https://prod1-wx-wickesprod03-aws-travisperkins-cloud-public.s3.amazonaws.com/sys-master/images/hef/h68/12499868516382/wickes-store.jpg", "brand": "Wickes", "brand:wikidata": "Q7998350", "nsi_id": "wickes-ae8e02"}, "geometry": {"type": "Point", "coordinates": [0.168232, 51.481771]}},
{"type": "Feature", "id": "17Has0uVhZtOjWKv2Wy9tnbw1-Y=", "properties": {"ref": "8309", "@spider": "wickes_gb", "shop": "doityourself", "addr:street_address": "KILN LANE", "addr:city": "SURREY", "addr:postcode": "KT17 1EQ", "addr:country": "GB", "name": "Wickes Epsom", "phone": "01372 748890", "website": "https://www.wickes.co.uk/store/8309", "image": "https://prod1-wx-wickesprod03-aws-travisperkins-cloud-public.s3.amazonaws.com/sys-master/images/hef/h68/12499868516382/wickes-store.jpg", "brand": "Wickes", "brand:wikidata": "Q7998350", "nsi_id": "wickes-ae8e02"}, "geometry": {"type": "Point", "coordinates": [-0.257385, 51.340048]}},
{"type": "Feature", "id": "5gkyyPOq6F7oJIXWslBLX8dsWPY=", "properties": {"ref": "8308", "@spider": "wickes_gb", "shop": "doityourself", "addr:street_address": "BORDER RETAIL PARK", "addr:city": "WREXHAM", "addr:postcode": "LL13 8NG", "addr:country": "GB", "name": "Wickes Wrexham", "phone": "01978 314538", "website": "https://www.wickes.co.uk/store/8308", "image": "https://prod1-wx-wickesprod03-aws-travisperkins-cloud-public.s3.amazonaws.com/sys-master/images/hef/h68/12499868516382/wickes-store.jpg", "brand": "Wickes", "brand:wikidata": "Q7998350", "nsi_id": "wickes-ae8e02"}, "geometry": {"type": "Point", "coordinates": [-2.985456, 53.048232]}},
{"type": "Feature", "id": "jKt-S0XsvyG_O_w0bprggb14UIM=", "properties": {"ref": "8303", "@spider": "wickes_gb", "shop": "doityourself", "addr:street_address": "WADE STREET", "addr:city": "WEST YORKSHIRE", "addr:postcode": "HX1 1SN", "addr:country": "GB", "name": "Wickes Halifax", "phone": "01422 330170", "website": "https://www.wickes.co.uk/store/8303", "image": "https://prod1-wx-wickesprod03-aws-travisperkins-cloud-public.s3.amazonaws.com/sys-master/images/hef/h68/12499868516382/wickes-store.jpg", "brand": "Wickes", "brand:wikidata": "Q7998350", "nsi_id": "wickes-ae8e02"}, "geometry": {"type": "Point", "coordinates": [-1.854994, 53.725076]}},
{"type": "Feature", "id": "n5kKH4IwiXS8OMDLv8lWe0plCP0=", "properties": {"ref": "8301", "@spider": "wickes_gb", "shop": "doityourself", "addr:street_address": "UNIT B", "addr:city": "PINNERS BROW, WARRINGTON", "addr:postcode": "WA2 7XA", "addr:country": "GB", "name": "Wickes Warrington", "phone": "01925 632263", "website": "https://www.wickes.co.uk/store/8301", "image": "https://prod1-wx-wickesprod03-aws-travisperkins-cloud-public.s3.amazonaws.com/sys-master/images/hef/h68/12499868516382/wickes-store.jpg", "brand": "Wickes", "brand:wikidata": "Q7998350", "nsi_id": "wickes-ae8e02"}, "geometry": {"type": "Point", "coordinates": [-2.593557, 53.394245]}},
{"type": "Feature", "id": "rGfnqUKUoc6wgR1e6JFOjaRegy0=", "properties": {"ref": "8299", "@spider": "wickes_gb", "shop": "doityourself", "addr:street_address": "MADFORD RETAIL PARK", "addr:city": "STAFFORD", "addr:postcode": "ST16 2QY", "addr:country": "GB", "name": "Wickes Stafford", "phone": "01785 242833", "website": "https://www.wickes.co.uk/store/8299", "image": "https://prod1-wx-wickesprod03-aws-travisperkins-cloud-public.s3.amazonaws.com/sys-master/images/hef/h68/12499868516382/wickes-store.jpg", "brand": "Wickes", "brand:wikidata": "Q7998350", "nsi_id": "wickes-ae8e02"}, "geometry": {"type": "Point", "coordinates": [-2.121116, 52.811422]}},
{"type": "Feature", "id": "S9bQk7ww4qqiJaESGJJWbMuyEII=", "properties": {"ref": "8298", "@spider": "wickes_gb", "shop": "doityourself", "addr:street_address": "UNIT 1", "addr:city": "BIRKENHEAD", "addr:postcode": "CH41 9DF", "addr:country": "GB", "name": "Wickes Birkenhead", "phone": "0151 647 0922", "website": "https://www.wickes.co.uk/store/8298", "image": "https://prod1-wx-wickesprod03-aws-travisperkins-cloud-public.s3.amazonaws.com/sys-master/images/hef/h68/12499868516382/wickes-store.jpg", "brand": "Wickes", "brand:wikidata": "Q7998350", "nsi_id": "wickes-ae8e02"}, "geometry": {"type": "Point", "coordinates": [-3.016001, 53.384917]}},
{"type": "Feature", "id": "5eU3FMYj-3A3Cwa6272S_nitPGs=", "properties": {"ref": "8297", "@spider": "wickes_gb", "shop": "doityourself", "addr:street_address": "HERTFORD ROAD", "addr:city": "Greater London", "addr:postcode": "IG11 8BL", "addr:country": "GB", "name": "Wickes Barking Extra", "phone": "020 8507 7869", "website": "https://www.wickes.co.uk/store/8297", "image": "https://prod1-wx-wickesprod03-aws-travisperkins-cloud-public.s3.amazonaws.com/sys-master/images/hef/h68/12499868516382/wickes-store.jpg", "brand": "Wickes", "brand:wikidata": "Q7998350", "nsi_id": "wickes-ae8e02"}, "geometry": {"type": "Point", "coordinates": [0.069306, 51.538078]}},
{"type": "Feature", "id": "N2idJVqiVI7C9sXpJqZTD3r-fLc=", "properties": {"ref": "8296", "@spider": "wickes_gb", "shop": "doityourself", "addr:street_address": "PRESTON NEW ROAD", "addr:city": "Lancashire", "addr:postcode": "FY3 9TN", "addr:country": "GB", "name": "Wickes Blackpool", "phone": "01253 791146", "website": "https://www.wickes.co.uk/store/8296", "image": "https://prod1-wx-wickesprod03-aws-travisperkins-cloud-public.s3.amazonaws.com/sys-master/images/hef/h68/12499868516382/wickes-store.jpg", "brand": "Wickes", "brand:wikidata": "Q7998350", "nsi_id": "wickes-ae8e02"}, "geometry": {"type": "Point", "coordinates": [-3.006314, 53.802681]}},
{"type": "Feature", "id": "OfIIbgH5xMYzZ9fBTidi-OIJv38=", "properties": {"ref": "8295", "@spider": "wickes_gb", "shop": "doityourself", "addr:street_address": "11 LONGMAN ROAD", "addr:city": "Inverness", "addr:postcode": "IV1 1SD", "addr:country": "GB", "name": "Wickes Inverness", "phone": "01463 717235", "website": "https://www.wickes.co.uk/store/8295", "image": "https://prod1-wx-wickesprod03-aws-travisperkins-cloud-public.s3.amazonaws.com/sys-master/images/hef/h68/12499868516382/wickes-store.jpg", "brand": "Wickes", "brand:wikidata": "Q7998350", "nsi_id": "wickes-ae8e02"}, "geometry": {"type": "Point", "coordinates": [-4.219767, 57.488075]}},
{"type": "Feature", "id": "bDEEwEqE37TinLFbj9ItYBK8wV0=", "properties": {"ref": "8293", "@spider": "wickes_gb", "shop": "doityourself", "addr:street_address": "18 TYNE ROAD", "addr:city": "NORTHAMPTON", "addr:postcode": "NN5 5AF", "addr:country": "GB", "name": "Wickes Northampton", "phone": "01604 753221", "website": "https://www.wickes.co.uk/store/8293", "image": "https://prod1-wx-wickesprod03-aws-travisperkins-cloud-public.s3.amazonaws.com/sys-master/images/hef/h68/12499868516382/wickes-store.jpg", "brand": "Wickes", "brand:wikidata": "Q7998350", "nsi_id": "wickes-ae8e02"}, "geometry": {"type": "Point", "coordinates": [-0.929333, 52.239295]}},
{"type": "Feature", "id": "WE4JPm9Y9L6MbzrjARWHrHD8UIk=", "properties": {"ref": "8292", "@spider": "wickes_gb", "shop": "doityourself", "addr:street_address": "14 MARSH MILLS PARK", "addr:city": "PLYMOUTH", "addr:postcode": "PL6 8LX", "addr:country": "GB", "name": "Wickes Plymouth", "phone": "01752 671738", "website": "https://www.wickes.co.uk/store/8292", "image": "https://prod1-wx-wickesprod03-aws-travisperkins-cloud-public.s3.amazonaws.com/sys-master/images/hef/h68/12499868516382/wickes-store.jpg", "brand": "Wickes", "brand:wikidata": "Q7998350", "nsi_id": "wickes-ae8e02"}, "geometry": {"type": "Point", "coordinates": [-4.089649, 50.394059]}},
{"type": "Feature", "id": "pELTJEjSuMlvXuWhKgp-ugNy7UY=", "properties": {"ref": "8291", "@spider": "wickes_gb", "shop": "doityourself", "addr:street_address": "456 ALTRINCHAM ROAD", "addr:city": "Greater Manchester", "addr:postcode": "M23 9BL", "addr:country": "GB", "name": "Wickes Baguley", "phone": "0161 945 1225", "website": "https://www.wickes.co.uk/store/8291", "image": "https://prod1-wx-wickesprod03-aws-travisperkins-cloud-public.s3.amazonaws.com/sys-master/images/hef/h68/12499868516382/wickes-store.jpg", "brand": "Wickes", "brand:wikidata": "Q7998350", "nsi_id": "wickes-ae8e02"}, "geometry": {"type": "Point", "coordinates": [-2.298919, 53.402747]}},
{"type": "Feature", "id": "u08S24xcwHRS6iYVoAk5dJlCXQ8=", "properties": {"ref": "8290", "@spider": "wickes_gb", "shop": "doityourself", "addr:street_address": "UNIT 2, DISCOVERY PARK", "addr:city": "NEWPORT", "addr:postcode": "NP20 5GN", "addr:country": "GB", "name": "Wickes Newport", "phone": "01633 850555", "website": "https://www.wickes.co.uk/store/8290", "image": "https://prod1-wx-wickesprod03-aws-travisperkins-cloud-public.s3.amazonaws.com/sys-master/images/hef/h68/12499868516382/wickes-store.jpg", "brand": "Wickes", "brand:wikidata": "Q7998350", "nsi_id": "wickes-ae8e02"}, "geometry": {"type": "Point", "coordinates": [-2.999572, 51.595077]}},
{"type": "Feature", "id": "OCK1dWgkDOg0UFCoTV_GRmYdWR4=", "properties": {"ref": "8289", "@spider": "wickes_gb", "shop": "doityourself", "addr:street_address": "39 LOIRE DRIVE", "addr:city": "WIGAN", "addr:postcode": "WN5 0UH", "addr:country": "GB", "name": "Wickes Wigan", "phone": "01942 212100", "website": "https://www.wickes.co.uk/store/8289", "image": "https://prod1-wx-wickesprod03-aws-travisperkins-cloud-public.s3.amazonaws.com/sys-master/images/hef/h68/12499868516382/wickes-store.jpg", "brand": "Wickes", "brand:wikidata": "Q7998350", "nsi_id": "wickes-ae8e02"}, "geometry": {"type": "Point", "coordinates": [-2.651152, 53.544375]}},
{"type": "Feature", "id": "0ipOcU5OmKn41JBnSBKNiK64YDE=", "properties": {"ref": "8287", "@spider": "wickes_gb", "shop": "doityourself", "addr:street_address": "CLARENDON WAY", "addr:city": "Essex", "addr:postcode": "CO1 1XF", "addr:country": "GB", "name": "Wickes Colchester", "phone": "01206 763563", "website": "https://www.wickes.co.uk/store/8287", "image": "https://prod1-wx-wickesprod03-aws-travisperkins-cloud-public.s3.amazonaws.com/sys-master/images/hef/h68/12499868516382/wickes-store.jpg", "brand": "Wickes", "brand:wikidata": "Q7998350", "nsi_id": "wickes-ae8e02"}, "geometry": {"type": "Point", "coordinates": [0.895767, 51.899093]}},
{"type": "Feature", "id": "j23t1Adwdr3RVTmWG-hZecv0RYY=", "properties": {"ref": "8284", "@spider": "wickes_gb", "shop": "doityourself", "addr:street_address": "MOOR STREET", "addr:city": "Greater Manchester", "addr:postcode": "BL9 5AQ", "addr:country": "GB", "name": "Wickes Bury", "phone": "0161 7639960", "website": "https://www.wickes.co.uk/store/8284", "image": "https://prod1-wx-wickesprod03-aws-travisperkins-cloud-public.s3.amazonaws.com/sys-master/images/hef/h68/12499868516382/wickes-store.jpg", "brand": "Wickes", "brand:wikidata": "Q7998350", "nsi_id": "wickes-ae8e02"}, "geometry": {"type": "Point", "coordinates": [-2.291129, 53.597593]}},
{"type": "Feature", "id": "RFAnA1Rs33XcxS1r_1a0FE3VZsM=", "properties": {"ref": "8283", "@spider": "wickes_gb", "shop": "doityourself", "addr:street_address": "WHEATBRIDGE ROAD", "addr:city": "CHESTERFIELD", "addr:postcode": "S40 2AB", "addr:country": "GB", "name": "Wickes Chesterfield", "phone": "01246 558620", "website": "https://www.wickes.co.uk/store/8283", "image": "https://prod1-wx-wickesprod03-aws-travisperkins-cloud-public.s3.amazonaws.com/sys-master/images/hef/h68/12499868516382/wickes-store.jpg", "brand": "Wickes", "brand:wikidata": "Q7998350", "nsi_id": "wickes-ae8e02"}, "geometry": {"type": "Point", "coordinates": [-1.43766, 53.234405]}},
{"type": "Feature", "id": "AqHGZlIDUBPDfUg-N6ZfxKDKYfM=", "properties": {"ref": "8282", "@spider": "wickes_gb", "shop": "doityourself", "addr:street_address": "SPRINGKERSE RETAIL PARK", "addr:city": "Stirling", "addr:postcode": "FK7 7TL", "addr:country": "GB", "name": "Wickes Stirling", "phone": "01786 451809", "website": "https://www.wickes.co.uk/store/8282", "image": "https://prod1-wx-wickesprod03-aws-travisperkins-cloud-public.s3.amazonaws.com/sys-master/images/hef/h68/12499868516382/wickes-store.jpg", "brand": "Wickes", "brand:wikidata": "Q7998350", "nsi_id": "wickes-ae8e02"}, "geometry": {"type": "Point", "coordinates": [-3.908657, 56.112254]}},
{"type": "Feature", "id": "mPjrGVPX9oiUPsdSl7SGY0nWhJg=", "properties": {"ref": "8281", "@spider": "wickes_gb", "shop": "doityourself", "addr:street_address": "UNIT A", "addr:city": "LONDON", "addr:postcode": "SE10 8DA", "addr:country": "GB", "name": "Wickes Blackheath", "phone": "020 8692 1352", "website": "https://www.wickes.co.uk/store/8281", "image": "https://prod1-wx-wickesprod03-aws-travisperkins-cloud-public.s3.amazonaws.com/sys-master/images/hef/h68/12499868516382/wickes-store.jpg", "brand": "Wickes", "brand:wikidata": "Q7998350", "nsi_id": "wickes-ae8e02"}, "geometry": {"type": "Point", "coordinates": [-0.016378, 51.472616]}},
{"type": "Feature", "id": "_8ZyYkSO_-MtsiHayrQWLYV8KDA=", "properties": {"ref": "8279", "@spider": "wickes_gb", "shop": "doityourself", "addr:street_address": "126 WATLING STREET", "addr:city": "MILTON KEYNES", "addr:postcode": "MK1 1BX", "addr:country": "GB", "name": "Wickes Bletchley", "phone": "01908 365712", "website": "https://www.wickes.co.uk/store/8279", "image": "https://prod1-wx-wickesprod03-aws-travisperkins-cloud-public.s3.amazonaws.com/sys-master/images/hef/h68/12499868516382/wickes-store.jpg", "brand": "Wickes", "brand:wikidata": "Q7998350", "nsi_id": "wickes-ae8e02"}, "geometry": {"type": "Point", "coordinates": [-0.72322, 52.002085]}},
{"type": "Feature", "id": "PoaQR-tVc2CYgfLWdgjHpJfz-uM=", "properties": {"ref": "8278", "@spider": "wickes_gb", "shop": "doityourself", "addr:street_address": "BELTON ROAD", "addr:city": "LEICESTERSHIRE", "addr:postcode": "LE11 1LW", "addr:country": "GB", "name": "Wickes Loughborough", "phone": "01509 611273", "website": "https://www.wickes.co.uk/store/8278", "image": "https://prod1-wx-wickesprod03-aws-travisperkins-cloud-public.s3.amazonaws.com/sys-master/images/hef/h68/12499868516382/wickes-store.jpg", "brand": "Wickes", "brand:wikidata": "Q7998350", "nsi_id": "wickes-ae8e02"}, "geometry": {"type": "Point", "coordinates": [-1.212646, 52.779483]}},
{"type": "Feature", "id": "bJNpJm-UVphpqmJSWhhrbh2oiaE=", "properties": {"ref": "8277", "@spider": "wickes_gb", "shop": "doityourself", "addr:street_address": "SOUTHAM ROAD", "addr:city": "Oxfordshire", "addr:postcode": "OX16 2RR", "addr:country": "GB", "name": "Wickes Banbury", "phone": "01295 278288", "website": "https://www.wickes.co.uk/store/8277", "image": "https://prod1-wx-wickesprod03-aws-travisperkins-cloud-public.s3.amazonaws.com/sys-master/images/hef/h68/12499868516382/wickes-store.jpg", "brand": "Wickes", "brand:wikidata": "Q7998350", "nsi_id": "wickes-ae8e02"}, "geometry": {"type": "Point", "coordinates": [-1.336526, 52.071097]}},
{"type": "Feature", "id": "mp3G7eB1j17BWvcE67mpCbRLbLs=", "properties": {"ref": "8276", "@spider": "wickes_gb", "shop": "doityourself", "addr:street_address": "ORMSKIRK ROAD", "addr:city": "LIVERPOOL", "addr:postcode": "L9 5AE", "addr:country": "GB", "name": "Wickes Aintree", "phone": "0151 5240108", "website": "https://www.wickes.co.uk/store/8276", "image": "https://prod1-wx-wickesprod03-aws-travisperkins-cloud-public.s3.amazonaws.com/sys-master/images/hef/h68/12499868516382/wickes-store.jpg", "brand": "Wickes", "brand:wikidata": "Q7998350", "nsi_id": "wickes-ae8e02"}, "geometry": {"type": "Point", "coordinates": [-2.953422, 53.4815]}},
{"type": "Feature", "id": "piaWEUGUMV-YJDAV1Yb4dMZ7xmE=", "properties": {"ref": "8275", "@spider": "wickes_gb", "shop": "doityourself", "addr:street_address": "UNIT 10, KENNET WAY", "addr:city": "TROWBRIDGE", "addr:postcode": "BA14 8RN", "addr:country": "GB", "name": "Wickes Trowbridge", "phone": "01225 776580", "website": "https://www.wickes.co.uk/store/8275", "image": "https://prod1-wx-wickesprod03-aws-travisperkins-cloud-public.s3.amazonaws.com/sys-master/images/hef/h68/12499868516382/wickes-store.jpg", "brand": "Wickes", "brand:wikidata": "Q7998350", "nsi_id": "wickes-ae8e02"}, "geometry": {"type": "Point", "coordinates": [-2.201447, 51.335258]}},
{"type": "Feature", "id": "QSs0VDGdvF8DzvtCg250HNqesLU=", "properties": {"ref": "8274", "@spider": "wickes_gb", "shop": "doityourself", "addr:street_address": "BRYMPTON WAY", "addr:city": "YEOVIL", "addr:postcode": "BA20 2HP", "addr:country": "GB", "name": "Wickes Yeovil", "phone": "01935 432054", "website": "https://www.wickes.co.uk/store/8274", "image": "https://prod1-wx-wickesprod03-aws-travisperkins-cloud-public.s3.amazonaws.com/sys-master/images/hef/h68/12499868516382/wickes-store.jpg", "brand": "Wickes", "brand:wikidata": "Q7998350", "nsi_id": "wickes-ae8e02"}, "geometry": {"type": "Point", "coordinates": [-2.665597, 50.934448]}},
{"type": "Feature", "id": "4I8bWPHa-W98C28tt1lbG3r7_gI=", "properties": {"ref": "8273", "@spider": "wickes_gb", "shop": "doityourself", "addr:street_address": "1 AQUEDUCT STREET", "addr:city": "Lancashire", "addr:postcode": "PR1 7RF", "addr:country": "GB", "name": "Wickes Preston", "phone": "01772 556487", "website": "https://www.wickes.co.uk/store/8273", "image": "https://prod1-wx-wickesprod03-aws-travisperkins-cloud-public.s3.amazonaws.com/sys-master/images/hef/h68/12499868516382/wickes-store.jpg", "brand": "Wickes", "brand:wikidata": "Q7998350", "nsi_id": "wickes-ae8e02"}, "geometry": {"type": "Point", "coordinates": [-2.705776, 53.768148]}},
{"type": "Feature", "id": "fN2HnFLVkzJvGQBkf8Zi64mdz2c=", "properties": {"ref": "8271", "@spider": "wickes_gb", "shop": "doityourself", "addr:street_address": "WATERTON LINK CENTRE", "addr:city": "BRIDGEND", "addr:postcode": "CF31 3XX", "addr:country": "GB", "name": "Wickes Bridgend", "phone": "01656 662697", "website": "https://www.wickes.co.uk/store/8271", "image": "https://prod1-wx-wickesprod03-aws-travisperkins-cloud-public.s3.amazonaws.com/sys-master/images/hef/h68/12499868516382/wickes-store.jpg", "brand": "Wickes", "brand:wikidata": "Q7998350", "nsi_id": "wickes-ae8e02"}, "geometry": {"type": "Point", "coordinates": [-3.563978, 51.495103]}},
{"type": "Feature", "id": "zYNHTTlhCU7wH8HoxLiCK-0lzOo=", "properties": {"ref": "8270", "@spider": "wickes_gb", "shop": "doityourself", "addr:street_address": "UNIT 2", "addr:city": "LETCHWORTH GARDEN CITY", "addr:postcode": "SG6 1UP", "addr:country": "GB", "name": "Wickes Letchworth", "phone": "01462 484366", "website": "https://www.wickes.co.uk/store/8270", "image": "https://prod1-wx-wickesprod03-aws-travisperkins-cloud-public.s3.amazonaws.com/sys-master/images/hef/h68/12499868516382/wickes-store.jpg", "brand": "Wickes", "brand:wikidata": "Q7998350", "nsi_id": "wickes-ae8e02"}, "geometry": {"type": "Point", "coordinates": [-0.202246, 51.983072]}},
{"type": "Feature", "id": "5-9bX7XwXVULc86ZmAqyzsSN4bw=", "properties": {"ref": "8268", "@spider": "wickes_gb", "shop": "doityourself", "addr:street_address": "KENDAL ROAD", "addr:city": "Shropshire", "addr:postcode": "SY1 4EN", "addr:country": "GB", "name": "Wickes Shrewsbury", "phone": "01743 440627", "website": "https://www.wickes.co.uk/store/8268", "image": "https://prod1-wx-wickesprod03-aws-travisperkins-cloud-public.s3.amazonaws.com/sys-master/images/hef/h68/12499868516382/wickes-store.jpg", "brand": "Wickes", "brand:wikidata": "Q7998350", "nsi_id": "wickes-ae8e02"}, "geometry": {"type": "Point", "coordinates": [-2.729022, 52.733335]}},
{"type": "Feature", "id": "AMdw7WD1MkaDybpdiho0MIXC6Vg=", "properties": {"ref": "8267", "@spider": "wickes_gb", "shop": "doityourself", "addr:street_address": "UNIT A, PARK ROAD RETAIL PARK", "addr:city": "PONTEFRACT", "addr:postcode": "WF8 4PR", "addr:country": "GB", "name": "Wickes Pontefract", "phone": "01977 602902", "website": "https://www.wickes.co.uk/store/8267", "image": "https://prod1-wx-wickesprod03-aws-travisperkins-cloud-public.s3.amazonaws.com/sys-master/images/hef/h68/12499868516382/wickes-store.jpg", "brand": "Wickes", "brand:wikidata": "Q7998350", "nsi_id": "wickes-ae8e02"}, "geometry": {"type": "Point", "coordinates": [-1.321157, 53.697761]}},
{"type": "Feature", "id": "63o0WFvbD06Nae2EtTPZlqHW5Xg=", "properties": {"ref": "8265", "@spider": "wickes_gb", "shop": "doityourself", "addr:street_address": "1 HAMMONDS DRIVE", "addr:city": "East Sussex", "addr:postcode": "BN23 6PW", "addr:country": "GB", "name": "Wickes Eastbourne", "phone": "01323 431631", "website": "https://www.wickes.co.uk/store/8265", "image": "https://prod1-wx-wickesprod03-aws-travisperkins-cloud-public.s3.amazonaws.com/sys-master/images/hef/h68/12499868516382/wickes-store.jpg", "brand": "Wickes", "brand:wikidata": "Q7998350", "nsi_id": "wickes-ae8e02"}, "geometry": {"type": "Point", "coordinates": [0.300859, 50.787671]}},
{"type": "Feature", "id": "OxSivupZ_vU0WmgmRluyoE4YAFE=", "properties": {"ref": "8264", "@spider": "wickes_gb", "shop": "doityourself", "addr:street_address": "RIVERFIELD DRIVE", "addr:city": "Bedfordshire", "addr:postcode": "MK41 0UE", "addr:country": "GB", "name": "Wickes Bedford", "phone": "01234 271569", "website": "https://www.wickes.co.uk/store/8264", "image": "https://prod1-wx-wickesprod03-aws-travisperkins-cloud-public.s3.amazonaws.com/sys-master/images/hef/h68/12499868516382/wickes-store.jpg", "brand": "Wickes", "brand:wikidata": "Q7998350", "nsi_id": "wickes-ae8e02"}, "geometry": {"type": "Point", "coordinates": [-0.42061, 52.1438]}},
{"type": "Feature", "id": "P5IOhMfXri1Bh2qtuSJktieKLAk=", "properties": {"ref": "8263", "@spider": "wickes_gb", "shop": "doityourself", "addr:street_address": "MANCHESTER ROAD", "addr:city": "West Yorkshire", "addr:postcode": "HD1 3LE", "addr:country": "GB", "name": "Wickes Huddersfield", "phone": "01484 518295", "website": "https://www.wickes.co.uk/store/8263", "image": "https://prod1-wx-wickesprod03-aws-travisperkins-cloud-public.s3.amazonaws.com/sys-master/images/hef/h68/12499868516382/wickes-store.jpg", "brand": "Wickes", "brand:wikidata": "Q7998350", "nsi_id": "wickes-ae8e02"}, "geometry": {"type": "Point", "coordinates": [-1.79383, 53.64181]}},
{"type": "Feature", "id": "GEGMLal8vHRRhsbKeLrOkAHZ200=", "properties": {"ref": "8262", "@spider": "wickes_gb", "shop": "doityourself", "addr:street_address": "SEALAND ROAD", "addr:city": "Cheshire", "addr:postcode": "CH1 4LS", "addr:country": "GB", "name": "Wickes Chester", "phone": "01244 370941", "website": "https://www.wickes.co.uk/store/8262", "image": "https://prod1-wx-wickesprod03-aws-travisperkins-cloud-public.s3.amazonaws.com/sys-master/images/hef/h68/12499868516382/wickes-store.jpg", "brand": "Wickes", "brand:wikidata": "Q7998350", "nsi_id": "wickes-ae8e02"}, "geometry": {"type": "Point", "coordinates": [-2.91668, 53.195516]}},
{"type": "Feature", "id": "BgId3vM1Ke5c94G4QOXKklJvD3I=", "properties": {"ref": "8261", "@spider": "wickes_gb", "shop": "doityourself", "addr:street_address": "HOLLIES PARK ROAD", "addr:city": "STAFFORDSHIRE", "addr:postcode": "WS11 1DB", "addr:country": "GB", "name": "Wickes Cannock", "phone": "01543 570237", "website": "https://www.wickes.co.uk/store/8261", "image": "https://prod1-wx-wickesprod03-aws-travisperkins-cloud-public.s3.amazonaws.com/sys-master/images/hef/h68/12499868516382/wickes-store.jpg", "brand": "Wickes", "brand:wikidata": "Q7998350", "nsi_id": "wickes-ae8e02"}, "geometry": {"type": "Point", "coordinates": [-2.022731, 52.688526]}},
{"type": "Feature", "id": "O-6GEzLnH67Hp8YNpxVsCd4SL_4=", "properties": {"ref": "8260", "@spider": "wickes_gb", "shop": "doityourself", "addr:street_address": "UNIT 1, APEX RETAIL PARK", "addr:city": "FELTHAM", "addr:postcode": "TW13 6JH", "addr:country": "GB", "name": "Wickes Hanworth", "phone": "020 8893 3011", "website": "https://www.wickes.co.uk/store/8260", "image": "https://prod1-wx-wickesprod03-aws-travisperkins-cloud-public.s3.amazonaws.com/sys-master/images/hef/h68/12499868516382/wickes-store.jpg", "brand": "Wickes", "brand:wikidata": "Q7998350", "nsi_id": "wickes-ae8e02"}, "geometry": {"type": "Point", "coordinates": [-0.381337, 51.436608]}},
{"type": "Feature", "id": "Zg8GtGKE3fYX7CRI7pQ2iPtAt8Q=", "properties": {"ref": "8259", "@spider": "wickes_gb", "shop": "doityourself", "addr:street_address": "HAUGHTON ROAD", "addr:city": "Durham", "addr:postcode": "DL1 2BJ", "addr:country": "GB", "name": "Wickes Darlington", "phone": "01325 360555", "website": "https://www.wickes.co.uk/store/8259", "image": "https://prod1-wx-wickesprod03-aws-travisperkins-cloud-public.s3.amazonaws.com/sys-master/images/hef/h68/12499868516382/wickes-store.jpg", "brand": "Wickes", "brand:wikidata": "Q7998350", "nsi_id": "wickes-ae8e02"}, "geometry": {"type": "Point", "coordinates": [-1.530732, 54.53437]}},
{"type": "Feature", "id": "bND5aPXlcDYhNULA-XelpOORHII=", "properties": {"ref": "8258", "@spider": "wickes_gb", "shop": "doityourself", "addr:street_address": "MILTON OF CRAIGIE ROAD NORTH", "addr:city": "Angus", "addr:postcode": "DD4 7XE", "addr:country": "GB", "name": "Wickes Dundee", "phone": "01382 456468", "website": "https://www.wickes.co.uk/store/8258", "image": "https://prod1-wx-wickesprod03-aws-travisperkins-cloud-public.s3.amazonaws.com/sys-master/images/hef/h68/12499868516382/wickes-store.jpg", "brand": "Wickes", "brand:wikidata": "Q7998350", "nsi_id": "wickes-ae8e02"}, "geometry": {"type": "Point", "coordinates": [-2.92995, 56.477277]}},
{"type": "Feature", "id": "jraO9sqaXn2TByvZg0k0ZU1v1Ac=", "properties": {"ref": "8257", "@spider": "wickes_gb", "shop": "doityourself", "addr:street_address": "MANSFIELD ROAD", "addr:city": "NOTTINGHAMSHIRE", "addr:postcode": "NG5 6GY", "addr:country": "GB", "name": "Wickes Nottingham", "phone": "01159 673617", "website": "https://www.wickes.co.uk/store/8257", "image": "https://prod1-wx-wickesprod03-aws-travisperkins-cloud-public.s3.amazonaws.com/sys-master/images/hef/h68/12499868516382/wickes-store.jpg", "brand": "Wickes", "brand:wikidata": "Q7998350", "nsi_id": "wickes-ae8e02"}, "geometry": {"type": "Point", "coordinates": [-1.138158, 53.001828]}},
{"type": "Feature", "id": "e5X7UTvAiNpYpf5fweG0O4VOJmQ=", "properties": {"ref": "8256", "@spider": "wickes_gb", "shop": "doityourself", "addr:street_address": "ROSE LANE", "addr:city": "Devon", "addr:postcode": "EX32 8PG", "addr:country": "GB", "name": "Wickes Barnstaple", "phone": "01271 321303", "website": "https://www.wickes.co.uk/store/8256", "image": "https://prod1-wx-wickesprod03-aws-travisperkins-cloud-public.s3.amazonaws.com/sys-master/images/hef/h68/12499868516382/wickes-store.jpg", "brand": "Wickes", "brand:wikidata": "Q7998350", "nsi_id": "wickes-ae8e02"}, "geometry": {"type": "Point", "coordinates": [-4.040182, 51.073705]}},
{"type": "Feature", "id": "V-3840JLDA0x3pGVNY1YQoknSCY=", "properties": {"ref": "8253", "@spider": "wickes_gb", "shop": "doityourself", "addr:street_address": "DUKES ROAD", "addr:city": "Cumbria", "addr:postcode": "CA1 1JD", "addr:country": "GB", "name": "Wickes Carlisle", "phone": "01228 596880", "website": "https://www.wickes.co.uk/store/8253", "image": "https://prod1-wx-wickesprod03-aws-travisperkins-cloud-public.s3.amazonaws.com/sys-master/images/hef/h68/12499868516382/wickes-store.jpg", "brand": "Wickes", "brand:wikidata": "Q7998350", "nsi_id": "wickes-ae8e02"}, "geometry": {"type": "Point", "coordinates": [-2.932837, 54.898009]}},
{"type": "Feature", "id": "g7hVWySGZnzyNqbmstn2fZRP_sA=", "properties": {"ref": "8252", "@spider": "wickes_gb", "shop": "doityourself", "addr:street_address": "OAK PARK", "addr:city": "BRIERLEY HILL", "addr:postcode": "DY5 1HR", "addr:country": "GB", "name": "Wickes Dudley", "phone": "01384 481381", "website": "https://www.wickes.co.uk/store/8252", "image": "https://prod1-wx-wickesprod03-aws-travisperkins-cloud-public.s3.amazonaws.com/sys-master/images/hef/h68/12499868516382/wickes-store.jpg", "brand": "Wickes", "brand:wikidata": "Q7998350", "nsi_id": "wickes-ae8e02"}, "geometry": {"type": "Point", "coordinates": [-2.120085, 52.484503]}},
{"type": "Feature", "id": "rv_qAyLpmwNumivA1oZfL6BS_0c=", "properties": {"ref": "8230", "@spider": "wickes_gb", "shop": "doityourself", "addr:street_address": "PEACOCK INDUSTRIAL ESTATE", "addr:city": "HOVE", "addr:postcode": "BN3 1SF", "addr:country": "GB", "name": "Wickes Brighton", "phone": "01273 207766", "website": "https://www.wickes.co.uk/store/8230", "image": "https://prod1-wx-wickesprod03-aws-travisperkins-cloud-public.s3.amazonaws.com/sys-master/images/hef/h68/12499868516382/wickes-store.jpg", "brand": "Wickes", "brand:wikidata": "Q7998350", "nsi_id": "wickes-ae8e02"}, "geometry": {"type": "Point", "coordinates": [-0.158487, 50.832615]}},
{"type": "Feature", "id": "xqui3ZitfzF4fTa5Oi-g1kwqlMk=", "properties": {"ref": "8229", "@spider": "wickes_gb", "shop": "doityourself", "addr:street_address": "MIDDLE ENGINE LANE", "addr:city": "TYNE & WEAR", "addr:postcode": "NE28 9NT", "addr:country": "GB", "name": "Wickes Wallsend", "phone": "0191 2635878", "website": "https://www.wickes.co.uk/store/8229", "image": "https://prod1-wx-wickesprod03-aws-travisperkins-cloud-public.s3.amazonaws.com/sys-master/images/hef/h68/12499868516382/wickes-store.jpg", "brand": "Wickes", "brand:wikidata": "Q7998350", "nsi_id": "wickes-ae8e02"}, "geometry": {"type": "Point", "coordinates": [-1.50625, 55.008101]}},
{"type": "Feature", "id": "CsQkxgmm1S5TY9eQ4yfDrC7SYf8=", "properties": {"ref": "8228", "@spider": "wickes_gb", "shop": "doityourself", "addr:street_address": "SPEEDFIELDS PARK", "addr:city": "Hampshire", "addr:postcode": "PO14 1TS", "addr:country": "GB", "name": "Wickes Fareham", "phone": "01329 827667", "website": "https://www.wickes.co.uk/store/8228", "image": "https://prod1-wx-wickesprod03-aws-travisperkins-cloud-public.s3.amazonaws.com/sys-master/images/hef/h68/12499868516382/wickes-store.jpg", "brand": "Wickes", "brand:wikidata": "Q7998350", "nsi_id": "wickes-ae8e02"}, "geometry": {"type": "Point", "coordinates": [-1.184534, 50.835661]}},
{"type": "Feature", "id": "XwYkn3Li2rviLVY7Jn8rtOjUW8k=", "properties": {"ref": "8227", "@spider": "wickes_gb", "shop": "doityourself", "addr:street_address": "ROCKVILLE DRIVE", "addr:city": "Hampshire", "addr:postcode": "PO7 7HR", "addr:country": "GB", "name": "Wickes Waterlooville", "phone": "023 9223 1919", "website": "https://www.wickes.co.uk/store/8227", "image": "https://prod1-wx-wickesprod03-aws-travisperkins-cloud-public.s3.amazonaws.com/sys-master/images/hef/h68/12499868516382/wickes-store.jpg", "brand": "Wickes", "brand:wikidata": "Q7998350", "nsi_id": "wickes-ae8e02"}, "geometry": {"type": "Point", "coordinates": [-1.033196, 50.877623]}},
{"type": "Feature", "id": "c5x2ECTHrq4g-EosVEpNq0SmfXc=", "properties": {"ref": "8226", "@spider": "wickes_gb", "shop": "doityourself", "addr:street_address": "PORTRACK LANE", "addr:city": "CLEVELAND", "addr:postcode": "TS18 2RB", "addr:country": "GB", "name": "Wickes Stockton", "phone": "01642 633136", "website": "https://www.wickes.co.uk/store/8226", "image": "https://prod1-wx-wickesprod03-aws-travisperkins-cloud-public.s3.amazonaws.com/sys-master/images/hef/h68/12499868516382/wickes-store.jpg", "brand": "Wickes", "brand:wikidata": "Q7998350", "nsi_id": "wickes-ae8e02"}, "geometry": {"type": "Point", "coordinates": [-1.276528, 54.576594]}},
{"type": "Feature", "id": "kMJ93puhHHs55Lmf1WBcb9rdz8I=", "properties": {"ref": "8225", "@spider": "wickes_gb", "shop": "doityourself", "addr:street_address": "WALMLEY ASH ROAD", "addr:city": "SUTTON COLDFIELD", "addr:postcode": "B76 1FG", "addr:country": "GB", "name": "Wickes Minworth", "phone": "0121 3131666", "website": "https://www.wickes.co.uk/store/8225", "image": "https://prod1-wx-wickesprod03-aws-travisperkins-cloud-public.s3.amazonaws.com/sys-master/images/hef/h68/12499868516382/wickes-store.jpg", "brand": "Wickes", "brand:wikidata": "Q7998350", "nsi_id": "wickes-ae8e02"}, "geometry": {"type": "Point", "coordinates": [-1.778093, 52.531677]}},
{"type": "Feature", "id": "QO1EyfRjH4ypsWOs-9rIEXDL7QU=", "properties": {"ref": "8222", "@spider": "wickes_gb", "shop": "doityourself", "addr:street_address": "ELYSTAN BUSINESS CENTRE", "addr:city": "HAYES", "addr:postcode": "UB4 0UP", "addr:country": "GB", "name": "Wickes Hayes", "phone": "020 8813 7441", "website": "https://www.wickes.co.uk/store/8222", "image": "https://prod1-wx-wickesprod03-aws-travisperkins-cloud-public.s3.amazonaws.com/sys-master/images/hef/h68/12499868516382/wickes-store.jpg", "brand": "Wickes", "brand:wikidata": "Q7998350", "nsi_id": "wickes-ae8e02"}, "geometry": {"type": "Point", "coordinates": [-0.396605, 51.514387]}},
{"type": "Feature", "id": "TwPAgWfbt0YFTjSopeXjEokh85w=", "properties": {"ref": "8221", "@spider": "wickes_gb", "shop": "doityourself", "addr:street_address": "114 DOMINION ROAD", "addr:city": "West Sussex", "addr:postcode": "BN14 8JP", "addr:country": "GB", "name": "Wickes Worthing", "phone": "01903 219121", "website": "https://www.wickes.co.uk/store/8221", "image": "https://prod1-wx-wickesprod03-aws-travisperkins-cloud-public.s3.amazonaws.com/sys-master/images/hef/h68/12499868516382/wickes-store.jpg", "brand": "Wickes", "brand:wikidata": "Q7998350", "nsi_id": "wickes-ae8e02"}, "geometry": {"type": "Point", "coordinates": [-0.359774, 50.82351]}},
{"type": "Feature", "id": "AdvXrwHmObomEYBeMT0Gs8GotTw=", "properties": {"ref": "8220", "@spider": "wickes_gb", "shop": "doityourself", "addr:street_address": "REDDITCH RINGWAY", "addr:city": "REDDITCH", "addr:postcode": "B98 8DU", "addr:country": "GB", "name": "Wickes Redditch", "phone": "01527 595688", "website": "https://www.wickes.co.uk/store/8220", "image": "https://prod1-wx-wickesprod03-aws-travisperkins-cloud-public.s3.amazonaws.com/sys-master/images/hef/h68/12499868516382/wickes-store.jpg", "brand": "Wickes", "brand:wikidata": "Q7998350", "nsi_id": "wickes-ae8e02"}, "geometry": {"type": "Point", "coordinates": [-1.934807, 52.305607]}},
{"type": "Feature", "id": "eXOLs5P1GIFzaj5H4pBMZWaDqNE=", "properties": {"ref": "8216", "@spider": "wickes_gb", "shop": "doityourself", "addr:street_address": "122 HOLYHEAD ROAD", "addr:city": "BIRMINGHAM", "addr:postcode": "B21 0LL", "addr:country": "GB", "name": "Wickes Handsworth", "phone": "0121 5154252", "website": "https://www.wickes.co.uk/store/8216", "image": "https://prod1-wx-wickesprod03-aws-travisperkins-cloud-public.s3.amazonaws.com/sys-master/images/hef/h68/12499868516382/wickes-store.jpg", "brand": "Wickes", "brand:wikidata": "Q7998350", "nsi_id": "wickes-ae8e02"}, "geometry": {"type": "Point", "coordinates": [-1.954784, 52.508921]}},
{"type": "Feature", "id": "dC5v7ZBfWIBJ6HNyJWi3g_yldaU=", "properties": {"ref": "8215", "@spider": "wickes_gb", "shop": "doityourself", "addr:street_address": "114 BEDDINGTON LANE", "addr:city": "Surrey", "addr:postcode": "CR0 4TB", "addr:country": "GB", "name": "Wickes Croydon", "phone": "020 8665 6755", "website": "https://www.wickes.co.uk/store/8215", "image": "https://prod1-wx-wickesprod03-aws-travisperkins-cloud-public.s3.amazonaws.com/sys-master/images/hef/h68/12499868516382/wickes-store.jpg", "brand": "Wickes", "brand:wikidata": "Q7998350", "nsi_id": "wickes-ae8e02"}, "geometry": {"type": "Point", "coordinates": [-0.131769, 51.374466]}},
{"type": "Feature", "id": "Wis9cfz4Wx1hibOtE0e94s7mP4U=", "properties": {"ref": "8214", "@spider": "wickes_gb", "shop": "doityourself", "addr:street_address": "JUBILEE WAY", "addr:city": "Surrey", "addr:postcode": "SW19 3XD", "addr:country": "GB", "name": "Wickes Merton", "phone": "020 8543 6971", "website": "https://www.wickes.co.uk/store/8214", "image": "https://prod1-wx-wickesprod03-aws-travisperkins-cloud-public.s3.amazonaws.com/sys-master/images/hef/h68/12499868516382/wickes-store.jpg", "brand": "Wickes", "brand:wikidata": "Q7998350", "nsi_id": "wickes-ae8e02"}, "geometry": {"type": "Point", "coordinates": [-0.191102, 51.412157]}},
{"type": "Feature", "id": "HI386chdjhn_Beo4d41UinunhQQ=", "properties": {"ref": "8209", "@spider": "wickes_gb", "shop": "doityourself", "addr:street_address": "FORTY ACRE ROAD", "addr:city": "Cambridgeshire", "addr:postcode": "PE1 5PS", "addr:country": "GB", "name": "Wickes Peterborough", "phone": "01733 342937", "website": "https://www.wickes.co.uk/store/8209", "image": "https://prod1-wx-wickesprod03-aws-travisperkins-cloud-public.s3.amazonaws.com/sys-master/images/hef/h68/12499868516382/wickes-store.jpg", "brand": "Wickes", "brand:wikidata": "Q7998350", "nsi_id": "wickes-ae8e02"}, "geometry": {"type": "Point", "coordinates": [-0.217968, 52.572737]}},
{"type": "Feature", "id": "l3a_Scqxy7VV-AcfLiYm6CLgVnQ=", "properties": {"ref": "8208", "@spider": "wickes_gb", "shop": "doityourself", "addr:street_address": "300 MANOR ROAD", "addr:city": "LONDON", "addr:postcode": "E16 4PA", "addr:country": "GB", "name": "Wickes Canning Town", "phone": "020 7511 0291", "website": "https://www.wickes.co.uk/store/8208", "image": "https://prod1-wx-wickesprod03-aws-travisperkins-cloud-public.s3.amazonaws.com/sys-master/images/hef/h68/12499868516382/wickes-store.jpg", "brand": "Wickes", "brand:wikidata": "Q7998350", "nsi_id": "wickes-ae8e02"}, "geometry": {"type": "Point", "coordinates": [0.007808, 51.515633]}},
{"type": "Feature", "id": "Fi_6_ekZIVuAVoMx3ZQ4bNGgwPc=", "properties": {"ref": "8097", "@spider": "wickes_gb", "shop": "doityourself", "addr:street_address": "55 MOORE STREET", "addr:city": "SHEFFIELD", "addr:postcode": "S3 7UW", "addr:country": "GB", "name": "Wickes Sheffield Central", "phone": "01142 781100", "website": "https://www.wickes.co.uk/store/8097", "image": "https://prod1-wx-wickesprod03-aws-travisperkins-cloud-public.s3.amazonaws.com/sys-master/images/hef/h68/12499868516382/wickes-store.jpg", "brand": "Wickes", "brand:wikidata": "Q7998350", "nsi_id": "wickes-ae8e02"}, "geometry": {"type": "Point", "coordinates": [-1.476907, 53.374571]}},
{"type": "Feature", "id": "8Y1mwaxfBCevB02-WzwrRdeeGf8=", "properties": {"ref": "8096", "@spider": "wickes_gb", "shop": "doityourself", "addr:street_address": "UNIT 2", "addr:city": "HERTFORDSHIRE", "addr:postcode": "HP3 9SR", "addr:country": "GB", "name": "Wickes Hemel Hempstead", "phone": "01442 216000", "website": "https://www.wickes.co.uk/store/8096", "image": "https://prod1-wx-wickesprod03-aws-travisperkins-cloud-public.s3.amazonaws.com/sys-master/images/hef/h68/12499868516382/wickes-store.jpg", "brand": "Wickes", "brand:wikidata": "Q7998350", "nsi_id": "wickes-ae8e02"}, "geometry": {"type": "Point", "coordinates": [-0.467093, 51.737265]}},
{"type": "Feature", "id": "21ayzyzZD7-Q1ojLs3q607r5fm8=", "properties": {"ref": "8093", "@spider": "wickes_gb", "shop": "doityourself", "addr:street_address": "50 OVERY STREET", "addr:city": "Kent", "addr:postcode": "DA1 1UP", "addr:country": "GB", "name": "Wickes Dartford", "phone": "01322 292828", "website": "https://www.wickes.co.uk/store/8093", "image": "https://prod1-wx-wickesprod03-aws-travisperkins-cloud-public.s3.amazonaws.com/sys-master/images/hef/h68/12499868516382/wickes-store.jpg", "brand": "Wickes", "brand:wikidata": "Q7998350", "nsi_id": "wickes-ae8e02"}, "geometry": {"type": "Point", "coordinates": [0.221925, 51.446565]}},
{"type": "Feature", "id": "79SlEVqDbkbvHnX9W6BSLCIdaDs=", "properties": {"ref": "8091", "@spider": "wickes_gb", "shop": "doityourself", "addr:street_address": "734-736 SEVEN SISTERS ROAD", "addr:city": "LONDON", "addr:postcode": "N15 5NH", "addr:country": "GB", "name": "Wickes Tottenham", "phone": "020 8800 9966", "website": "https://www.wickes.co.uk/store/8091", "image": "https://prod1-wx-wickesprod03-aws-travisperkins-cloud-public.s3.amazonaws.com/sys-master/images/hef/h68/12499868516382/wickes-store.jpg", "brand": "Wickes", "brand:wikidata": "Q7998350", "nsi_id": "wickes-ae8e02"}, "geometry": {"type": "Point", "coordinates": [-0.07659, 51.580862]}},
{"type": "Feature", "id": "3hTnfhMko21Fn6BJyfHJAmOfY8Y=", "properties": {"ref": "8090", "@spider": "wickes_gb", "shop": "doityourself", "addr:street_address": "UNIT 1, FOSTER ROAD", "addr:city": "ASHFORD", "addr:postcode": "TN24 0SH", "addr:country": "GB", "name": "Wickes Ashford", "phone": "01233 502088", "website": "https://www.wickes.co.uk/store/8090", "image": "https://prod1-wx-wickesprod03-aws-travisperkins-cloud-public.s3.amazonaws.com/sys-master/images/hef/h68/12499868516382/wickes-store.jpg", "brand": "Wickes", "brand:wikidata": "Q7998350", "nsi_id": "wickes-ae8e02"}, "geometry": {"type": "Point", "coordinates": [0.903811, 51.131443]}},
{"type": "Feature", "id": "bxXZ2RLd8hc0g3ee2_vw7V6VQg0=", "properties": {"ref": "8088", "@spider": "wickes_gb", "shop": "doityourself", "addr:street_address": "PUDSEY ROAD", "addr:city": "LEEDS", "addr:postcode": "LS13 4HX", "addr:country": "GB", "name": "Wickes Pudsey", "phone": "01132 554633", "website": "https://www.wickes.co.uk/store/8088", "image": "https://prod1-wx-wickesprod03-aws-travisperkins-cloud-public.s3.amazonaws.com/sys-master/images/hef/h68/12499868516382/wickes-store.jpg", "brand": "Wickes", "brand:wikidata": "Q7998350", "nsi_id": "wickes-ae8e02"}, "geometry": {"type": "Point", "coordinates": [-1.629056, 53.79842]}},
{"type": "Feature", "id": "OsdwEKWS35zNcawqljJkY9OPnDU=", "properties": {"ref": "8083", "@spider": "wickes_gb", "shop": "doityourself", "addr:street_address": "7 CATFORD HILL", "addr:city": "LONDON", "addr:postcode": "SE6 4NU", "addr:country": "GB", "name": "Wickes Catford", "phone": "020 8690 9872", "website": "https://www.wickes.co.uk/store/8083", "image": "https://prod1-wx-wickesprod03-aws-travisperkins-cloud-public.s3.amazonaws.com/sys-master/images/hef/h68/12499868516382/wickes-store.jpg", "brand": "Wickes", "brand:wikidata": "Q7998350", "nsi_id": "wickes-ae8e02"}, "geometry": {"type": "Point", "coordinates": [-0.02573, 51.442542]}},
{"type": "Feature", "id": "IboqnrHmQBhWkOcHV7D2eqTU668=", "properties": {"ref": "8082", "@spider": "wickes_gb", "shop": "doityourself", "addr:street_address": "1 RAT LANE", "addr:city": "Essex", "addr:postcode": "SS6 7TS", "addr:country": "GB", "name": "Wickes Rayleigh", "phone": "01268 776262", "website": "https://www.wickes.co.uk/store/8082", "image": "https://prod1-wx-wickesprod03-aws-travisperkins-cloud-public.s3.amazonaws.com/sys-master/images/hef/h68/12499868516382/wickes-store.jpg", "brand": "Wickes", "brand:wikidata": "Q7998350", "nsi_id": "wickes-ae8e02"}, "geometry": {"type": "Point", "coordinates": [0.602719, 51.575903]}},
{"type": "Feature", "id": "e5i7I8VM9CYGpFs4x6rrCuOqskA=", "properties": {"ref": "8081", "@spider": "wickes_gb", "shop": "doityourself", "addr:street_address": "4 MANCHESTER ROAD", "addr:city": "Greater Manchester", "addr:postcode": "SK4 1TN", "addr:country": "GB", "name": "Wickes Stockport", "phone": "0161 4809725", "website": "https://www.wickes.co.uk/store/8081", "image": "https://prod1-wx-wickesprod03-aws-travisperkins-cloud-public.s3.amazonaws.com/sys-master/images/hef/h68/12499868516382/wickes-store.jpg", "brand": "Wickes", "brand:wikidata": "Q7998350", "nsi_id": "wickes-ae8e02"}, "geometry": {"type": "Point", "coordinates": [-2.161502, 53.420256]}},
{"type": "Feature", "id": "7HYXwn3az7ieVOlYajRTKJ7E01k=", "properties": {"ref": "8080", "@spider": "wickes_gb", "shop": "doityourself", "addr:street_address": "102 INKERMAN ROAD", "addr:city": "WOKING", "addr:postcode": "GU21 2WB", "addr:country": "GB", "name": "Wickes Woking", "phone": "01483 489801", "website": "https://www.wickes.co.uk/store/8080", "image": "https://prod1-wx-wickesprod03-aws-travisperkins-cloud-public.s3.amazonaws.com/sys-master/images/hef/h68/12499868516382/wickes-store.jpg", "brand": "Wickes", "brand:wikidata": "Q7998350", "nsi_id": "wickes-ae8e02"}, "geometry": {"type": "Point", "coordinates": [-0.607757, 51.313102]}},
{"type": "Feature", "id": "sFJ89HT0pbqS53UqK8ihg0oehvY=", "properties": {"ref": "8079", "@spider": "wickes_gb", "shop": "doityourself", "addr:street_address": "806 LONDON ROAD", "addr:city": "DERBY", "addr:postcode": "DE24 8WA", "addr:country": "GB", "name": "Wickes Derby", "phone": "01332 754424", "website": "https://www.wickes.co.uk/store/8079", "image": "https://prod1-wx-wickesprod03-aws-travisperkins-cloud-public.s3.amazonaws.com/sys-master/images/hef/h68/12499868516382/wickes-store.jpg", "brand": "Wickes", "brand:wikidata": "Q7998350", "nsi_id": "wickes-ae8e02"}, "geometry": {"type": "Point", "coordinates": [-1.444967, 52.903961]}},
{"type": "Feature", "id": "Oq-wBxMCn84uvcjwc2feiKx9Bu0=", "properties": {"ref": "8078", "@spider": "wickes_gb", "shop": "doityourself", "addr:street_address": "VICTORIA ROAD", "addr:city": "Middlesex", "addr:postcode": "HA4 0QB", "addr:country": "GB", "name": "Wickes Ruislip", "phone": "020 8422 7090", "website": "https://www.wickes.co.uk/store/8078", "image": "https://prod1-wx-wickesprod03-aws-travisperkins-cloud-public.s3.amazonaws.com/sys-master/images/hef/h68/12499868516382/wickes-store.jpg", "brand": "Wickes", "brand:wikidata": "Q7998350", "nsi_id": "wickes-ae8e02"}, "geometry": {"type": "Point", "coordinates": [-0.382825, 51.558777]}},
{"type": "Feature", "id": "Obwu-re9-71hOLvLKSfeRtu-Gy0=", "properties": {"ref": "8077", "@spider": "wickes_gb", "shop": "doityourself", "addr:street_address": "UNIT 2, ALDERMOOR WAY", "addr:city": "BRISTOL", "addr:postcode": "BS30 7DA", "addr:country": "GB", "name": "Wickes Bristol", "phone": "01179 609716", "website": "https://www.wickes.co.uk/store/8077", "image": "https://prod1-wx-wickesprod03-aws-travisperkins-cloud-public.s3.amazonaws.com/sys-master/images/hef/h68/12499868516382/wickes-store.jpg", "brand": "Wickes", "brand:wikidata": "Q7998350", "nsi_id": "wickes-ae8e02"}, "geometry": {"type": "Point", "coordinates": [-2.500437, 51.443724]}},
{"type": "Feature", "id": "OVbSa9nNrrKitvRKT2JA6CaOhZw=", "properties": {"ref": "8075", "@spider": "wickes_gb", "shop": "doityourself", "addr:street_address": "2 RADFORD ROAD", "addr:city": "West Midlands", "addr:postcode": "CV1 4BY", "addr:country": "GB", "name": "Wickes Coventry", "phone": "024 7655 3525", "website": "https://www.wickes.co.uk/store/8075", "image": "https://prod1-wx-wickesprod03-aws-travisperkins-cloud-public.s3.amazonaws.com/sys-master/images/hef/h68/12499868516382/wickes-store.jpg", "brand": "Wickes", "brand:wikidata": "Q7998350", "nsi_id": "wickes-ae8e02"}, "geometry": {"type": "Point", "coordinates": [-1.51398, 52.412436]}},
{"type": "Feature", "id": "odIZmk84yrBbOjD5FqGccDkT0BU=", "properties": {"ref": "8074", "@spider": "wickes_gb", "shop": "doityourself", "addr:street_address": "TEWKESBURY ROAD", "addr:city": "GLOUCESTERSHIRE", "addr:postcode": "GL51 9AD", "addr:country": "GB", "name": "Wickes Cheltenham", "phone": "01242 579447", "website": "https://www.wickes.co.uk/store/8074", "image": "https://prod1-wx-wickesprod03-aws-travisperkins-cloud-public.s3.amazonaws.com/sys-master/images/hef/h68/12499868516382/wickes-store.jpg", "brand": "Wickes", "brand:wikidata": "Q7998350", "nsi_id": "wickes-ae8e02"}, "geometry": {"type": "Point", "coordinates": [-2.086976, 51.907728]}},
{"type": "Feature", "id": "MK-yOPdtpYY0nUXhdU0U_QF7Q0g=", "properties": {"ref": "8072", "@spider": "wickes_gb", "shop": "doityourself", "addr:street_address": "317 CRICKLEWOOD BROADWAY", "addr:city": "LONDON", "addr:postcode": "NW2 6JN", "addr:country": "GB", "name": "Wickes Cricklewood", "phone": "020 8450 9025", "website": "https://www.wickes.co.uk/store/8072", "image": "https://prod1-wx-wickesprod03-aws-travisperkins-cloud-public.s3.amazonaws.com/sys-master/images/hef/h68/12499868516382/wickes-store.jpg", "brand": "Wickes", "brand:wikidata": "Q7998350", "nsi_id": "wickes-ae8e02"}, "geometry": {"type": "Point", "coordinates": [-0.221675, 51.561229]}},
{"type": "Feature", "id": "g6HvdfJOXRFMnhhmj21HCENMAho=", "properties": {"ref": "8071", "@spider": "wickes_gb", "shop": "doityourself", "addr:street_address": "CASTLE PARK INDUSTRIAL ESTATE", "addr:city": "NOTTINGHAM", "addr:postcode": "NG2 1GW", "addr:country": "GB", "name": "Wickes Nottingham Central", "phone": "01159 865983", "website": "https://www.wickes.co.uk/store/8071", "image": "https://prod1-wx-wickesprod03-aws-travisperkins-cloud-public.s3.amazonaws.com/sys-master/images/hef/h68/12499868516382/wickes-store.jpg", "brand": "Wickes", "brand:wikidata": "Q7998350", "nsi_id": "wickes-ae8e02"}, "geometry": {"type": "Point", "coordinates": [-1.158585, 52.93724]}},
{"type": "Feature", "id": "itfdxJJx24KIUrV-08uEaWGbeEo=", "properties": {"ref": "8067", "@spider": "wickes_gb", "shop": "doityourself", "addr:street_address": "44 STATION ROAD", "addr:city": "NOTTINGHAMSHIRE", "addr:postcode": "NG17 5FH", "addr:country": "GB", "name": "Wickes Sutton Ashfield", "phone": "01623 517515", "website": "https://www.wickes.co.uk/store/8067", "image": "https://prod1-wx-wickesprod03-aws-travisperkins-cloud-public.s3.amazonaws.com/sys-master/images/hef/h68/12499868516382/wickes-store.jpg", "brand": "Wickes", "brand:wikidata": "Q7998350", "nsi_id": "wickes-ae8e02"}, "geometry": {"type": "Point", "coordinates": [-1.252909, 53.12105]}},
{"type": "Feature", "id": "Pw2jq-TIPYYPpPZEdi7aiuFoiak=", "properties": {"ref": "8066", "@spider": "wickes_gb", "shop": "doityourself", "addr:street_address": "WILTON STREET", "addr:city": "West Yorkshire", "addr:postcode": "WF12 8AB", "addr:country": "GB", "name": "Wickes Dewsbury", "phone": "01924 460744", "website": "https://www.wickes.co.uk/store/8066", "image": "https://prod1-wx-wickesprod03-aws-travisperkins-cloud-public.s3.amazonaws.com/sys-master/images/hef/h68/12499868516382/wickes-store.jpg", "brand": "Wickes", "brand:wikidata": "Q7998350", "nsi_id": "wickes-ae8e02"}, "geometry": {"type": "Point", "coordinates": [-1.628956, 53.688744]}},
{"type": "Feature", "id": "46XsLmsO9uCZu8WdfvFN7p401JY=", "properties": {"ref": "8065", "@spider": "wickes_gb", "shop": "doityourself", "addr:street_address": "CANKLOW MDWS INDUST EST", "addr:city": "ROTHERHAM", "addr:postcode": "S60 2XL", "addr:country": "GB", "name": "Wickes Rotherham", "phone": "01709 374971", "website": "https://www.wickes.co.uk/store/8065", "image": "https://prod1-wx-wickesprod03-aws-travisperkins-cloud-public.s3.amazonaws.com/sys-master/images/hef/h68/12499868516382/wickes-store.jpg", "brand": "Wickes", "brand:wikidata": "Q7998350", "nsi_id": "wickes-ae8e02"}, "geometry": {"type": "Point", "coordinates": [-1.358725, 53.406526]}},
{"type": "Feature", "id": "d3WG2fUXVPlRPZoV0sUfvNABbcQ=", "properties": {"ref": "8064", "@spider": "wickes_gb", "shop": "doityourself", "addr:street_address": "GLEBE ROAD", "addr:city": "Lincolnshire", "addr:postcode": "DN15 6AF", "addr:country": "GB", "name": "Wickes Scunthorpe", "phone": "01724 845880", "website": "https://www.wickes.co.uk/store/8064", "image": "https://prod1-wx-wickesprod03-aws-travisperkins-cloud-public.s3.amazonaws.com/sys-master/images/hef/h68/12499868516382/wickes-store.jpg", "brand": "Wickes", "brand:wikidata": "Q7998350", "nsi_id": "wickes-ae8e02"}, "geometry": {"type": "Point", "coordinates": [-0.643943, 53.594982]}},
{"type": "Feature", "id": "LjgDOrdG8Tinb2NGEclx6-lEdos=", "properties": {"ref": "8062", "@spider": "wickes_gb", "shop": "doityourself", "addr:street_address": "EASTERN AVE INDUST EST", "addr:city": "BEDFORDSHIRE", "addr:postcode": "LU5 4JY", "addr:country": "GB", "name": "Wickes Dunstable", "phone": "01582 606864", "website": "https://www.wickes.co.uk/store/8062", "image": "https://prod1-wx-wickesprod03-aws-travisperkins-cloud-public.s3.amazonaws.com/sys-master/images/hef/h68/12499868516382/wickes-store.jpg", "brand": "Wickes", "brand:wikidata": "Q7998350", "nsi_id": "wickes-ae8e02"}, "geometry": {"type": "Point", "coordinates": [-0.509065, 51.887019]}},
{"type": "Feature", "id": "NN7i5Ag6Mr_R0tjrgoGKr63dC6w=", "properties": {"ref": "8061", "@spider": "wickes_gb", "shop": "doityourself", "addr:street_address": "OUTER CIRCLE ROAD", "addr:city": "LINCOLNSHIRE", "addr:postcode": "LN2 4HU", "addr:country": "GB", "name": "Wickes Lincoln", "phone": "01522 539539", "website": "https://www.wickes.co.uk/store/8061", "image": "https://prod1-wx-wickesprod03-aws-travisperkins-cloud-public.s3.amazonaws.com/sys-master/images/hef/h68/12499868516382/wickes-store.jpg", "brand": "Wickes", "brand:wikidata": "Q7998350", "nsi_id": "wickes-ae8e02"}, "geometry": {"type": "Point", "coordinates": [-0.507827, 53.234736]}},
{"type": "Feature", "id": "Grx5zfGQk9s6dDVnQy3yTelSuHs=", "properties": {"ref": "8059", "@spider": "wickes_gb", "shop": "doityourself", "addr:street_address": "53 PLOUGH LANE", "addr:city": "Surrey", "addr:postcode": "SW17 0BW", "addr:country": "GB", "name": "Wickes Wimbledon", "phone": "020 8947 9818", "website": "https://www.wickes.co.uk/store/8059", "image": "https://prod1-wx-wickesprod03-aws-travisperkins-cloud-public.s3.amazonaws.com/sys-master/images/hef/h68/12499868516382/wickes-store.jpg", "brand": "Wickes", "brand:wikidata": "Q7998350", "nsi_id": "wickes-ae8e02"}, "geometry": {"type": "Point", "coordinates": [-0.185248, 51.429326]}},
{"type": "Feature", "id": "tiaJD7mcBODSm0crNPdHgOkK0nA=", "properties": {"ref": "8055", "@spider": "wickes_gb", "shop": "doityourself", "addr:street_address": "PRINCEROYD WAY", "addr:city": "West Yorkshire", "addr:postcode": "BD7 2BH", "addr:country": "GB", "name": "Wickes Bradford", "phone": "01274 501515", "website": "https://www.wickes.co.uk/store/8055", "image": "https://prod1-wx-wickesprod03-aws-travisperkins-cloud-public.s3.amazonaws.com/sys-master/images/hef/h68/12499868516382/wickes-store.jpg", "brand": "Wickes", "brand:wikidata": "Q7998350", "nsi_id": "wickes-ae8e02"}, "geometry": {"type": "Point", "coordinates": [-1.78288, 53.79427]}}]}