{"type":"FeatureCollection","features":[{"type": "Feature", "id": "W2t7hx60X280qxbDFaym8wB3ewU=", "properties": {"ref": "452", "@spider": "wilcofarm", "alt_name": "Wilco Farm Stores", "shop": "supermarket", "addr:full": "815 W Main St", "addr:city": "Battle Ground", "addr:state": "WA", "addr:postcode": "98604", "name": "Battle Ground Farm Store", "phone": "360-687-3113", "opening_hours": "Monday - Saturday 8am-8pm, Sunday 9am - 6pm ", "brand": "Wilco Farm", "brand:wikidata": "Q8000290", "nsi_id": "wilco-a4e693"}, "geometry": {"type": "Point", "coordinates": [-122.5462191, 45.7792475]}},
{"type": "Feature", "id": "SSUyROQisxbM7CK5-AnRa35rIxo=", "properties": {"ref": "469", "@spider": "wilcofarm", "alt_name": "Wilco Farm Stores", "shop": "supermarket", "addr:full": "2717 E Highway 20", "addr:city": "Bend", "addr:state": "OR", "addr:postcode": "97701", "name": "Bend Farm Store", "phone": "541-388-7439", "opening_hours": "Monday - Saturday 8am-8pm, Sunday 9am - 6pm", "brand": "Wilco Farm", "brand:wikidata": "Q8000290", "nsi_id": "wilco-a4e693"}, "geometry": {"type": "Point", "coordinates": [-121.2630148, 44.0547104]}},
{"type": "Feature", "id": "aWQEhRJIBTvJClTly2M8ewX-y1Y=", "properties": {"ref": "93702", "@spider": "wilcofarm", "alt_name": "Wilco Farm Stores", "shop": "supermarket", "addr:full": "4330 Wheaton Way", "addr:city": "Bremerton", "addr:state": "WA", "addr:postcode": "98310", "name": "Bremerton Farm Store", "phone": "360-627-7822", "opening_hours": "Monday - Saturday 8am-8pm, Sunday 9am - 6pm", "brand": "Wilco Farm", "brand:wikidata": "Q8000290", "nsi_id": "wilco-a4e693"}, "geometry": {"type": "Point", "coordinates": [-122.6303297, 47.6063326]}},
{"type": "Feature", "id": "h0mmaACXAIH4zpMq5OahMdcdW9Y=", "properties": {"ref": "454", "@spider": "wilcofarm", "alt_name": "Wilco Farm Stores", "shop": "supermarket", "addr:full": "197 SE Hazeldell Way", "addr:city": "Canby", "addr:state": "OR", "addr:postcode": "97013", "name": "Canby Farm Store", "phone": "503-266-2213", "opening_hours": "Monday - Saturday 8am-8pm, Sunday 9am - 6pm ", "brand": "Wilco Farm", "brand:wikidata": "Q8000290", "nsi_id": "wilco-a4e693"}, "geometry": {"type": "Point", "coordinates": [-122.673846, 45.266539]}},
{"type": "Feature", "id": "32hZD3oQlOq05iZV_-ZhV2Xsqhc=", "properties": {"ref": "471", "@spider": "wilcofarm", "alt_name": "Wilco Farm Stores", "shop": "supermarket", "addr:full": "664 Baseline St", "addr:city": "Cornelius", "addr:state": "OR", "addr:postcode": "97113", "name": "Cornelius Farm Store", "phone": "503-992-1346", "opening_hours": "Monday - Saturday 8am-8pm, Sunday 9am - 6pm ", "brand": "Wilco Farm", "brand:wikidata": "Q8000290", "nsi_id": "wilco-a4e693"}, "geometry": {"type": "Point", "coordinates": [-123.0638412, 45.5204764]}},
{"type": "Feature", "id": "qliV5P9owLfp5FZfiKTc9vUx7sQ=", "properties": {"ref": "466", "@spider": "wilcofarm", "alt_name": "Wilco Farm Stores", "shop": "supermarket", "addr:full": "1905 NE Four Acre Place", "addr:city": "Corvallis", "addr:state": "OR", "addr:postcode": "97330", "name": "Corvallis Farm Store", "phone": "541-753-4100", "opening_hours": "Monday - Saturday 8am-8pm, Sunday 9am - 6pm ", "brand": "Wilco Farm", "brand:wikidata": "Q8000290", "nsi_id": "wilco-a4e693"}, "geometry": {"type": "Point", "coordinates": [-123.2504705, 44.5883691]}},
{"type": "Feature", "id": "3RFouG4cAvH8dG0pUpa9lS9qZDc=", "properties": {"ref": "456", "@spider": "wilcofarm", "alt_name": "Wilco Farm Stores", "shop": "supermarket", "addr:full": "3408 Hunt Street NW", "addr:city": "Gig Harbor", "addr:state": "WA", "addr:postcode": "98335", "name": "Gig Harbor Farm Store", "phone": "253-858-5213", "opening_hours": "Monday - Saturday 8am-8pm, Sunday 9am - 6pm ", "brand": "Wilco Farm", "brand:wikidata": "Q8000290", "nsi_id": "wilco-a4e693"}, "geometry": {"type": "Point", "coordinates": [-122.583218, 47.316076]}},
{"type": "Feature", "id": "DWBOGxtlcVWDty6q2_JoUGutxmc=", "properties": {"ref": "473", "@spider": "wilcofarm", "alt_name": "Wilco Farm Stores", "shop": "supermarket", "addr:full": "200 South Kelso Drive", "addr:city": "Kelso", "addr:state": "WA", "addr:postcode": "98626", "name": "Kelso Farm Store", "phone": "360-423-0767", "opening_hours": "Monday - Saturday 8am-8pm, Sunday 9am - 6pm ", "brand": "Wilco Farm", "brand:wikidata": "Q8000290", "nsi_id": "wilco-a4e693"}, "geometry": {"type": "Point", "coordinates": [-122.8941323, 46.1435053]}},
{"type": "Feature", "id": "votsNs7-zxQM0JU-mySKcRKjEM8=", "properties": {"ref": "243477", "@spider": "wilcofarm", "alt_name": "Wilco Farm Stores", "shop": "supermarket", "addr:full": "17711 Jean Way", "addr:city": "Lake Oswego", "addr:state": "OR", "addr:postcode": "97035", "name": "Lake Oswego Farm Store", "phone": "503-343-6577", "opening_hours": "Monday - Saturday 8am-8pm, Sunday 9am - 6pm ", "brand": "Wilco Farm", "brand:wikidata": "Q8000290", "nsi_id": "wilco-a4e693"}, "geometry": {"type": "Point", "coordinates": [-122.739176, 45.397984]}},
{"type": "Feature", "id": "UU4AG52igo1EYHwYJB_q3bHQ1x4=", "properties": {"ref": "458", "@spider": "wilcofarm", "alt_name": "Wilco Farm Stores", "shop": "supermarket", "addr:full": "2950 S Santiam Hwy", "addr:city": "Lebanon", "addr:state": "OR", "addr:postcode": "97355", "name": "Lebanon Farm Store", "phone": "541-258-5085", "opening_hours": "Monday - Saturday 8am-8pm, Sunday 9am - 6pm ", "brand": "Wilco Farm", "brand:wikidata": "Q8000290", "nsi_id": "wilco-a4e693"}, "geometry": {"type": "Point", "coordinates": [-122.9042047, 44.5190788]}},
{"type": "Feature", "id": "i7qeY1Sa97YGG98qYCAUReTzLPw=", "properties": {"ref": "475", "@spider": "wilcofarm", "alt_name": "Wilco Farm Stores", "shop": "supermarket", "addr:full": "2741 N Hwy 99W", "addr:city": "McMinnville", "addr:state": "OR", "addr:postcode": "97128", "name": "McMinnville Farm Store", "phone": "503-472-6154", "opening_hours": "Monday - Saturday 8am-8pm, Sunday 9am - 6pm ", "brand": "Wilco Farm", "brand:wikidata": "Q8000290", "nsi_id": "wilco-a4e693"}, "geometry": {"type": "Point", "coordinates": [-123.1703055, 45.2302919]}},
{"type": "Feature", "id": "_vzs8XhYLjXmBxfJsxmekHEjJlg=", "properties": {"ref": "460", "@spider": "wilcofarm", "alt_name": "Wilco Farm Stores", "shop": "supermarket", "addr:full": "2300 East Hancock", "addr:city": "Newberg", "addr:state": "OR", "addr:postcode": "97132", "name": "Newberg Farm Store", "phone": "503-537-2659", "opening_hours": "Monday - Saturday 8am-8pm, Sunday 9am - 6pm ", "brand": "Wilco Farm", "brand:wikidata": "Q8000290", "nsi_id": "wilco-a4e693"}, "geometry": {"type": "Point", "coordinates": [-122.9563507, 45.3008349]}},
{"type": "Feature", "id": "msPRNTEaYQgc28reQQze0ebLie8=", "properties": {"ref": "477", "@spider": "wilcofarm", "alt_name": "Wilco Farm Stores", "shop": "supermarket", "addr:full": "19224 S Molalla Ave", "addr:city": "Oregon City", "addr:state": "OR", "addr:postcode": "97045", "name": "Oregon City Farm Store", "phone": "503-656-0616", "opening_hours": "Monday - Saturday 8am-8pm, Sunday 9am - 6pm ", "brand": "Wilco Farm", "brand:wikidata": "Q8000290", "nsi_id": "wilco-a4e693"}, "geometry": {"type": "Point", "coordinates": [-122.584031, 45.3285225]}},
{"type": "Feature", "id": "K-7llN_-mKwgnN3IR4KbfX8URqc=", "properties": {"ref": "970798", "@spider": "wilcofarm", "alt_name": "Wilco Farm Stores", "shop": "supermarket", "addr:full": "6705 Chapel Hill Blvd", "addr:city": "Pasco", "addr:state": "WA", "addr:postcode": "99301", "name": "Pasco Farm Store", "phone": "509-547-5577", "opening_hours": "Monday - Saturday 8am-8pm, Sunday 9am - 6pm ", "brand": "Wilco Farm", "brand:wikidata": "Q8000290", "nsi_id": "wilco-a4e693"}, "geometry": {"type": "Point", "coordinates": [-119.17885449823495, 46.26180300210348]}},
{"type": "Feature", "id": "JrI2ll5wmORZNinxxP2sFIM_YOA=", "properties": {"ref": "502729", "@spider": "wilcofarm", "alt_name": "Wilco Farm Stores", "shop": "supermarket", "addr:full": "1390 N Mcdowell Blvd", "addr:city": "Petaluma", "addr:state": "CA", "addr:postcode": "94954", "name": "Petaluma Farm Store", "phone": "707-238-5566", "opening_hours": "Monday - Saturday 8am-8pm, Sunday 9am - 6pm ", "brand": "Wilco Farm", "brand:wikidata": "Q8000290", "nsi_id": "wilco-a4e693"}, "geometry": {"type": "Point", "coordinates": [-122.667762, 38.274685]}},
{"type": "Feature", "id": "yFeP-4JUq9Xc72HLbli0shqd6hQ=", "properties": {"ref": "462", "@spider": "wilcofarm", "alt_name": "Wilco Farm Stores", "shop": "supermarket", "addr:full": "1225 NW Gardner Road", "addr:city": "Prineville", "addr:state": "OR", "addr:postcode": "97754", "name": "Prineville Farm Store", "phone": "541-447-1718", "opening_hours": "Monday - Saturday 8am-6pm, Sunday 9am - 6pm", "brand": "Wilco Farm", "brand:wikidata": "Q8000290", "nsi_id": "wilco-a4e693"}, "geometry": {"type": "Point", "coordinates": [-120.869754, 44.314049]}},
{"type": "Feature", "id": "vPToJ3VImbqUcv85tGKAXXUffvk=", "properties": {"ref": "485", "@spider": "wilcofarm", "alt_name": "Wilco Farm Stores", "shop": "supermarket", "addr:full": "10409 E Canyon Rd", "addr:city": "Puyallup", "addr:state": "WA", "addr:postcode": "98373", "name": "Puyallup Farm Store", "phone": "253-864-4480", "opening_hours": "Monday - Saturday 8am-8pm, Sunday 9am - 6pm", "brand": "Wilco Farm", "brand:wikidata": "Q8000290", "nsi_id": "wilco-a4e693"}, "geometry": {"type": "Point", "coordinates": [-122.355942, 47.161195]}},
{"type": "Feature", "id": "UOETUr6Ja4C0Kshd74e2-RH194Q=", "properties": {"ref": "95874", "@spider": "wilcofarm", "alt_name": "Wilco Farm Stores", "shop": "supermarket", "addr:full": "1649 Odem Medo Way", "addr:city": "Redmond", "addr:state": "OR", "addr:postcode": "97756", "name": "Redmond Farm Store", "phone": "541-548-8345", "opening_hours": "Monday - Saturday 8am-8pm, Sunday 9am - 6pm", "brand": "Wilco Farm", "brand:wikidata": "Q8000290", "nsi_id": "wilco-a4e693"}, "geometry": {"type": "Point", "coordinates": [-121.18609, 44.25415]}},
{"type": "Feature", "id": "G4VV9UqZxZRaHQM2zuwJ-xfiKbI=", "properties": {"ref": "488", "@spider": "wilcofarm", "alt_name": "Wilco Farm Stores", "shop": "supermarket", "addr:full": "3285 Commercial St SE", "addr:city": "Salem", "addr:state": "OR", "addr:postcode": "97302", "name": "Salem Farm Store", "phone": "503-364-0840", "opening_hours": "Monday - Saturday 8am-8pm, Sunday 9am - 6pm", "brand": "Wilco Farm", "brand:wikidata": "Q8000290", "nsi_id": "wilco-a4e693"}, "geometry": {"type": "Point", "coordinates": [-123.045283, 44.909123]}},
{"type": "Feature", "id": "Z2W9k7OImraFwL-o1ScxrwluPs8=", "properties": {"ref": "479", "@spider": "wilcofarm", "alt_name": "Wilco Farm Stores", "shop": "supermarket", "addr:full": "734 McClaine St", "addr:city": "Silverton", "addr:state": "OR", "addr:postcode": "97381", "name": "Silverton Farm Store", "phone": "503-873-8318", "opening_hours": "Monday - Saturday 8am-8pm, Sunday 9am - 6pm ", "brand": "Wilco Farm", "brand:wikidata": "Q8000290", "nsi_id": "wilco-a4e693"}, "geometry": {"type": "Point", "coordinates": [-122.7932979, 45.0064424]}},
{"type": "Feature", "id": "Jbft37dQ6tEyQXP1me8XCpWbYZg=", "properties": {"ref": "671498", "@spider": "wilcofarm", "alt_name": "Wilco Farm Stores", "shop": "supermarket", "addr:full": "750 Mono Way", "addr:city": "Sonora", "addr:state": "CA", "addr:postcode": "95370", "name": "Sonora Farm Store", "phone": "209-682-5262", "opening_hours": "Monday - Saturday 8am-8pm, Sunday 9am - 6pm ", "brand": "Wilco Farm", "brand:wikidata": "Q8000290", "nsi_id": "wilco-a4e693"}, "geometry": {"type": "Point", "coordinates": [-120.37049976826232, 37.97528520406538]}},
{"type": "Feature", "id": "Jfwz7h25c-08HTeufiRGqmhtyG0=", "properties": {"ref": "464", "@spider": "wilcofarm", "alt_name": "Wilco Farm Stores", "shop": "supermarket", "addr:full": "1401 21st St", "addr:city": "Springfield", "addr:state": "OR", "addr:postcode": "97477", "name": "Springfield Farm Store", "phone": "541-726-0950", "opening_hours": "Monday - Saturday 8am-8pm, Sunday 9am - 6pm ", "brand": "Wilco Farm", "brand:wikidata": "Q8000290", "nsi_id": "wilco-a4e693"}, "geometry": {"type": "Point", "coordinates": [-122.9934223, 44.0577237]}},
{"type": "Feature", "id": "aHDAUUIw31rPCUrsssj0YjRvqfc=", "properties": {"ref": "481", "@spider": "wilcofarm", "alt_name": "Wilco Farm Stores", "shop": "supermarket", "addr:full": "1385 N First Ave", "addr:city": "Stayton", "addr:state": "OR", "addr:postcode": "97383", "name": "Stayton Farm Store", "phone": "503-769-6301", "opening_hours": "Monday - Saturday 8am-8pm, Sunday 9am - 6pm ", "brand": "Wilco Farm", "brand:wikidata": "Q8000290", "nsi_id": "wilco-a4e693"}, "geometry": {"type": "Point", "coordinates": [-122.7943329, 44.8049571]}},
{"type": "Feature", "id": "0m-RyR5COqodwDwX88P87ARNFYc=", "properties": {"ref": "483", "@spider": "wilcofarm", "alt_name": "Wilco Farm Stores", "shop": "supermarket", "addr:full": "1901 NE 162nd Ave", "addr:city": "Vancouver", "addr:state": "WA", "addr:postcode": "98684", "name": "Vancouver Farm Store", "phone": "360-256-4233", "opening_hours": "Monday - Saturday 8am-8pm, Sunday 9am - 6pm ", "brand": "Wilco Farm", "brand:wikidata": "Q8000290", "nsi_id": "wilco-a4e693"}, "geometry": {"type": "Point", "coordinates": [-122.5045997, 45.6366851]}},
{"type": "Feature", "id": "GPoJ5nQbAvbZCuhM554i_pAU5V4=", "properties": {"ref": "807200", "@spider": "wilcofarm", "alt_name": "Wilco Farm Stores", "shop": "supermarket", "addr:full": "5801 Summitview Avenue Suite A.", "addr:city": "Yakima", "addr:state": "WA", "addr:postcode": "98908", "name": "Yakima Farm Store", "phone": "509-388-2500", "opening_hours": "Monday - Saturday 8am-8pm, Sunday 9am - 6pm ", "brand": "Wilco Farm", "brand:wikidata": "Q8000290", "nsi_id": "wilco-a4e693"}, "geometry": {"type": "Point", "coordinates": [-120.58749930713408, 46.60096998773229]}}]}