{"type":"FeatureCollection","features":[{"type": "Feature", "id": "DBCdvi2PFViuNYKEsoy1au58TrQ=", "properties": {"ref": "8827024", "@spider": "woods_coffee", "addr:full": "428 W. Bakerview Rd., Bellingham, WA, 98226, United States", "addr:street_address": "428 W. Bakerview Rd.", "addr:city": "Bellingham", "addr:state": "WA", "addr:postcode": "98226", "addr:country": "US", "name": "Bakerview Square - Woods Coffee", "phone": "(360) 738-7742", "opening_hours": "Mo-Sa 05:30-18:00; Su 06:30-18:00", "brand": "Woods Coffee", "brand:wikidata": "Q8033255"}, "geometry": {"type": "Point", "coordinates": [-122.49597903, 48.79040028]}},
{"type": "Feature", "id": "2DukBY5YtcRrrrZa793tCJEnzZ4=", "properties": {"ref": "8827017", "@spider": "woods_coffee", "addr:full": "3008 Cinema Place, Bellingham, WA, 98273, United States", "addr:street_address": "3008 Cinema Place", "addr:city": "Bellingham", "addr:state": "WA", "addr:postcode": "98273", "addr:country": "US", "name": "Barkley Village - Woods Coffee", "phone": "(360) 933-1695", "opening_hours": "Mo-Su 05:30-18:00", "brand": "Woods Coffee", "brand:wikidata": "Q8033255"}, "geometry": {"type": "Point", "coordinates": [-122.44832609, 48.77002459]}},
{"type": "Feature", "id": "s2Tw86ltY5LRM7KYFtGXQUz_oa4=", "properties": {"ref": "8827014", "@spider": "woods_coffee", "addr:full": "2002 Bellevue Square, Bellevue, WA, 98004, United States", "addr:street_address": "2002 Bellevue Square", "addr:city": "Bellevue", "addr:state": "WA", "addr:postcode": "98004", "addr:country": "US", "name": "Bellevue Square - Woods Coffee", "phone": "(425) 429-7276", "opening_hours": "Mo-Sa 08:00-21:00; Su 09:00-19:00", "brand": "Woods Coffee", "brand:wikidata": "Q8033255"}, "geometry": {"type": "Point", "coordinates": [-122.20496587, 47.61620644]}},
{"type": "Feature", "id": "ghYdCOfYR3PvEeXTVxi6ccz5Llc=", "properties": {"ref": "8827027", "@spider": "woods_coffee", "addr:full": "8874 Bender Rd., Lynden, WA, 98264, United States", "addr:street_address": "8874 Bender Rd.", "addr:city": "Lynden", "addr:state": "WA", "addr:postcode": "98264", "addr:country": "US", "name": "Bender Plaza - Woods Coffee", "phone": "(360) 354-0900", "opening_hours": "Mo-Fr 05:30-18:00; Sa-Su 06:00-18:00", "brand": "Woods Coffee", "brand:wikidata": "Q8033255"}, "geometry": {"type": "Point", "coordinates": [-122.43997353, 48.96346656]}},
{"type": "Feature", "id": "o_wRcSQ6vL2j4DddHztcb4xOMok=", "properties": {"ref": "8827020", "@spider": "woods_coffee", "addr:full": "8130 Birch Bay Square St., Blaine, WA, 98230, United States", "addr:street_address": "8130 Birch Bay Square St.", "addr:city": "Blaine", "addr:state": "WA", "addr:postcode": "98230", "addr:country": "US", "name": "Birch Bay Square - Woods Coffee", "phone": "(360) 393-4761", "opening_hours": "Mo-Fr 05:00-18:00; Sa-Su 05:30-18:00", "brand": "Woods Coffee", "brand:wikidata": "Q8033255"}, "geometry": {"type": "Point", "coordinates": [-122.66773995, 48.93733467]}},
{"type": "Feature", "id": "MHJyu-PlXGfKWO7_nVyfv1kKhQg=", "properties": {"ref": "8827023", "@spider": "woods_coffee", "addr:full": "470 Bayview Dr., Bellingham, WA, 98225, United States", "addr:street_address": "470 Bayview Dr.", "addr:city": "Bellingham", "addr:state": "WA", "addr:postcode": "98225", "addr:country": "US", "name": "Boulevard Park - Woods Coffee", "phone": "(360) 738-4771", "opening_hours": "Mo-Su 07:00-18:00", "brand": "Woods Coffee", "brand:wikidata": "Q8033255"}, "geometry": {"type": "Point", "coordinates": [-122.50306437, 48.73120499]}},
{"type": "Feature", "id": "KRzUxJCyAhTF1sNftI8pPaWKdE8=", "properties": {"ref": "8827016", "@spider": "woods_coffee", "addr:full": "1626 Freeway Dr., Mount Vernon, WA, 98273, United States", "addr:street_address": "1626 Freeway Dr.", "addr:city": "Mount Vernon", "addr:state": "WA", "addr:postcode": "98273", "addr:country": "US", "name": "College Way - Woods Coffee", "phone": "(360) 419-5908", "opening_hours": "Mo-Fr 04:30-18:00; Sa-Su 05:30-18:00", "brand": "Woods Coffee", "brand:wikidata": "Q8033255"}, "geometry": {"type": "Point", "coordinates": [-122.34238, 48.43557]}},
{"type": "Feature", "id": "6LSo6CBmsuxGiur3Xv9MutXPR4U=", "properties": {"ref": "8827010", "@spider": "woods_coffee", "addr:full": "22019 Highway 99 Suite #100, Edmonds, WA, 98026, United States", "addr:street_address": "22019 Highway 99 Suite #100", "addr:city": "Edmonds", "addr:state": "WA", "addr:postcode": "98026", "addr:country": "US", "name": "Edmonds - Woods Coffee", "phone": "(425) 977-0258", "opening_hours": "Mo-Fr 05:00-18:00; Sa-Su 06:00-18:00", "brand": "Woods Coffee", "brand:wikidata": "Q8033255"}, "geometry": {"type": "Point", "coordinates": [-122.33158, 47.79892]}},
{"type": "Feature", "id": "M4CIblZBkhwFlz3jPHN3kcjjSUw=", "properties": {"ref": "12420339", "@spider": "woods_coffee", "addr:full": "10318 Evergreen Way, Everett, WA, 98204, United States", "addr:street_address": "10318 Evergreen Way", "addr:city": "Everett", "addr:state": "WA", "addr:postcode": "98204", "addr:country": "US", "name": "Evergreen Way - Woods Coffee", "phone": "(360) 815-8034", "opening_hours": "Mo-Fr 04:30-18:00; Sa-Su 05:00-18:00", "brand": "Woods Coffee", "brand:wikidata": "Q8033255"}, "geometry": {"type": "Point", "coordinates": [-122.24522104, 47.90413401]}},
{"type": "Feature", "id": "mchwY5V5wDGERn-9YKmVmZHfHZM=", "properties": {"ref": "8827026", "@spider": "woods_coffee", "addr:full": "1758 Front St., Lynden, WA, 98264, United States", "addr:street_address": "1758 Front St.", "addr:city": "Lynden", "addr:state": "WA", "addr:postcode": "98264", "addr:country": "US", "name": "Fairway Center - Woods Coffee", "phone": "(360) 3542100", "opening_hours": "Mo-Fr 05:30-20:00; Sa-Su 06:00-20:00", "brand": "Woods Coffee", "brand:wikidata": "Q8033255"}, "geometry": {"type": "Point", "coordinates": [-122.47201, 48.93963]}},
{"type": "Feature", "id": "ngweRDS5eT330ixWS6r94vsian4=", "properties": {"ref": "8827021", "@spider": "woods_coffee", "addr:full": "1867 Main St., Ferndale, WA, 98248, United States", "addr:street_address": "1867 Main St.", "addr:city": "Ferndale", "addr:state": "WA", "addr:postcode": "98248", "addr:country": "US", "name": "Ferndale Station - Woods Coffee", "phone": "(360) 7783128", "opening_hours": "Mo-Sa 05:00-19:00; Su 06:00-18:00", "brand": "Woods Coffee", "brand:wikidata": "Q8033255"}, "geometry": {"type": "Point", "coordinates": [-122.58273871, 48.84439126]}},
{"type": "Feature", "id": "WZZFfTm8kX0qHmX7YpJwsLigzyg=", "properties": {"ref": "8827015", "@spider": "woods_coffee", "addr:full": "1779 S. Burlington Blvd., Burlington, WA, 98233, United States", "addr:street_address": "1779 S. Burlington Blvd.", "addr:city": "Burlington", "addr:state": "WA", "addr:postcode": "98233", "addr:country": "US", "name": "George Hopper - Woods Coffee", "phone": "(360) 419-4564", "opening_hours": "Mo-Su 06:00-18:00", "brand": "Woods Coffee", "brand:wikidata": "Q8033255"}, "geometry": {"type": "Point", "coordinates": [-122.33691051, 48.45272727]}},
{"type": "Feature", "id": "qrUmEjS8XMi9baBYLGY1e0V8ZAY=", "properties": {"ref": "8827012", "@spider": "woods_coffee", "addr:full": "625 116th Ave. NE, Bellevue, WA, 98004, United States", "addr:street_address": "625 116th Ave. NE", "addr:city": "Bellevue", "addr:state": "WA", "addr:postcode": "98004", "addr:country": "US", "name": "Hotel 116 - Woods Coffee", "phone": "(425) 800-4426", "opening_hours": "Mo-Fr 04:30-20:00; Sa 05:30-20:00; Su 06:00-20:00", "brand": "Woods Coffee", "brand:wikidata": "Q8033255"}, "geometry": {"type": "Point", "coordinates": [-122.18635, 47.61606]}},
{"type": "Feature", "id": "8ujiUzORuGjSYkitSPDh1qdoFjE=", "properties": {"ref": "8827025", "@spider": "woods_coffee", "addr:full": "1901 King St., Bellingham, WA, 98225, United States", "addr:street_address": "1901 King St.", "addr:city": "Bellingham", "addr:state": "WA", "addr:postcode": "98225", "addr:country": "US", "name": "King St. - Woods Coffee", "phone": "(360) 738-3260", "opening_hours": "Mo-Fr 05:00-17:00; Sa-Su 06:00-17:00", "brand": "Woods Coffee", "brand:wikidata": "Q8033255"}, "geometry": {"type": "Point", "coordinates": [-122.4639, 48.75546]}},
{"type": "Feature", "id": "EUmx-ssdHjnK4UAb9X_SGPCRN7s=", "properties": {"ref": "8827011", "@spider": "woods_coffee", "addr:full": "24118 Bothell Everett Hwy Suite 500, Bothell, WA, 98021, United States", "addr:street_address": "24118 Bothell Everett Hwy Suite 500", "addr:city": "Bothell", "addr:state": "WA", "addr:postcode": "98021", "addr:country": "US", "name": "Lakeside-Bothell - Woods Coffee", "phone": "(425) 217-2802", "opening_hours": "Mo-Fr 05:00-18:00; Sa-Su 06:00-18:00", "brand": "Woods Coffee", "brand:wikidata": "Q8033255"}, "geometry": {"type": "Point", "coordinates": [-122.21908035, 47.77880952]}},
{"type": "Feature", "id": "gS0yPxk-5QEByRED_pzYwS-Zq1o=", "properties": {"ref": "8827018", "@spider": "woods_coffee", "addr:full": "813 Lakeway Dr., Bellingham, WA, 98229, United States", "addr:street_address": "813 Lakeway Dr.", "addr:city": "Bellingham", "addr:state": "WA", "addr:postcode": "98229", "addr:country": "US", "name": "Lakeway - Woods Coffee", "phone": "(360) 325-7837", "opening_hours": "Mo-Sa 04:30-20:00; Su 05:30-19:00", "brand": "Woods Coffee", "brand:wikidata": "Q8033255"}, "geometry": {"type": "Point", "coordinates": [-122.46414, 48.74521]}},
{"type": "Feature", "id": "Cn9Wt08WgV1I9LhBYleVHDApkA0=", "properties": {"ref": "8827013", "@spider": "woods_coffee", "addr:full": "700 Bellevue Way NE #140, Bellevue, WA, 98004, United States", "addr:street_address": "700 Bellevue Way NE #140", "addr:city": "Bellevue", "addr:state": "WA", "addr:postcode": "98004", "addr:country": "US", "name": "Lincoln Square - Woods Coffee", "phone": "(425) 279-8860", "opening_hours": "Mo-Fr 07:30-21:00; Sa 08:00-21:00; Su 09:00-19:00", "brand": "Woods Coffee", "brand:wikidata": "Q8033255"}, "geometry": {"type": "Point", "coordinates": [-122.20123, 47.61697]}},
{"type": "Feature", "id": "FhoHhdkO2uKUiY4uWtGRNRyFalc=", "properties": {"ref": "8827019", "@spider": "woods_coffee", "addr:full": "102 W. Stuart Rd., Bellingham, WA, 98226, United States", "addr:street_address": "102 W. Stuart Rd.", "addr:city": "Bellingham", "addr:state": "WA", "addr:postcode": "98226", "addr:country": "US", "name": "Meridian - Woods Coffee", "phone": "(360) 733-9570", "opening_hours": "Mo-Fr 05:30-19:00; Sa 06:00-19:00; Su 06:00-18:00", "brand": "Woods Coffee", "brand:wikidata": "Q8033255"}, "geometry": {"type": "Point", "coordinates": [-122.48644975, 48.80084738]}},
{"type": "Feature", "id": "fhcAeXFLFIJRgPvvMXxHna0ViGU=", "properties": {"ref": "8827022", "@spider": "woods_coffee", "addr:full": "1135 Railroad Ave., Bellingham, WA, 98225, United States", "addr:street_address": "1135 Railroad Ave.", "addr:city": "Bellingham", "addr:state": "WA", "addr:postcode": "98225", "addr:country": "US", "name": "Railroad - Woods Coffee", "phone": "(360) 306-8291", "opening_hours": "Mo-Su 06:30-17:00", "brand": "Woods Coffee", "brand:wikidata": "Q8033255"}, "geometry": {"type": "Point", "coordinates": [-122.47973251, 48.74802361]}}]}