{"type":"FeatureCollection","features":[{"type": "Feature", "id": "1UMwDsIU6DwSw41AJE9xqgbyVs8=", "properties": {"ref": "crawley", "@spider": "wrenkitchens_gb", "shop": "kitchen", "addr:street_address": "County Oak Retail Park,", "addr:city": "Crawley", "addr:state": "Sussex", "addr:postcode": "RH11 7XN", "addr:country": "GB", "name": "Crawley showroom", "phone": "03451277008", "website": "https://www.wrenkitchens.com/showrooms/crawley", "opening_hours": "Mo-Fr 09:00-20:00; Sa 09:00-18:00; Su 10:30-17:00", "image": "https://image.wrenkitchens.com/location/Crawley.jpg?q=70&amp;w=0&amp;h=0&amp;s=3fe74f24e9f44ceeb0f7e443f40060fc", "brand": "Wren Kitchens", "brand:wikidata": "Q8037744", "nsi_id": "wrenkitchens-26c64e"}},
{"type": "Feature", "id": "sweqlUrO_R6fm316Hksgfhy6wrk=", "properties": {"ref": "carlisle", "@spider": "wrenkitchens_gb", "shop": "kitchen", "addr:street_address": "Unit 6, Gateway 44,", "addr:city": "Carlisle", "addr:state": "Cumbria", "addr:postcode": "CA30GW", "addr:country": "GB", "name": "Wren Kitchens Carlisle showroom", "phone": "01228 869999", "website": "https://www.wrenkitchens.com/showrooms/carlisle", "opening_hours": "Mo-Fr 09:00-20:00; Sa 09:00-18:00; Su 10:30-17:00", "image": "https://image.wrenkitchens.com/location/carlisle.jpg?q=70&amp;w=0&amp;h=0&amp;s=a2c006ff0d38454dcc74c4796a8312ef", "brand": "Wren Kitchens", "brand:wikidata": "Q8037744", "nsi_id": "wrenkitchens-26c64e"}},
{"type": "Feature", "id": "gAQYtlcMLxLxWznJ8RhGv_flNNM=", "properties": {"ref": "bolton", "@spider": "wrenkitchens_gb", "shop": "kitchen", "addr:street_address": "Unit A, Bolton Gate Retail Park", "addr:city": "Bolton", "addr:state": "Greater Manchester", "addr:postcode": "BL12SL", "addr:country": "GB", "name": "Wren Kitchens Bolton showroom", "phone": "01204 827136", "website": "https://www.wrenkitchens.com/showrooms/bolton", "opening_hours": "Mo-Fr 09:00-20:00; Sa 09:00-18:00; Su 10:30-17:00", "image": "https://image.wrenkitchens.com/location/bolton.jpg?q=100&amp;w=0&amp;h=0&amp;fit=contain&amp;s=9d1f3e4ae301668686dc863bacf5ed4a", "brand": "Wren Kitchens", "brand:wikidata": "Q8037744", "nsi_id": "wrenkitchens-26c64e"}, "geometry": {"type": "Point", "coordinates": [-2.426118115876851, 53.58504038558196]}},
{"type": "Feature", "id": "bnQ5Ye2v_El_-0X8Eu7PUgvxiAg=", "properties": {"ref": "blackburn", "@spider": "wrenkitchens_gb", "shop": "kitchen", "addr:street_address": "The Peel Centre, Whitebirk Drive", "addr:city": "Blackburn", "addr:state": "Lancashire", "addr:postcode": "BB1 3HT", "addr:country": "GB", "name": "Wren Kitchens Blackburn showroom", "phone": "01254 970006", "website": "https://www.wrenkitchens.com/showrooms/blackburn", "opening_hours": "Mo-Fr 09:00-20:00; Sa 09:00-18:00; Su 10:30-17:00", "image": "https://image.wrenkitchens.com/location/blackburn.jpg?q=70&amp;w=0&amp;h=0&amp;s=df9f149a27dbc640eb8352a1cd74f84c", "brand": "Wren Kitchens", "brand:wikidata": "Q8037744", "nsi_id": "wrenkitchens-26c64e"}},
{"type": "Feature", "id": "JTNaXscZHZSBl_-unXFYfMc2QaM=", "properties": {"ref": "ashton", "@spider": "wrenkitchens_gb", "shop": "kitchen", "addr:street_address": "Snipe Retail Park, Snipe Way", "addr:city": "Ashton-under-Lyne", "addr:state": "Greater Manchester", "addr:postcode": "OL7 0DN", "addr:country": "GB", "name": "Wren Kitchens Ashton-under-Lyne showroom", "phone": "01618 709706", "website": "https://www.wrenkitchens.com/showrooms/ashton", "opening_hours": "Mo-Fr 09:00-20:00; Sa 09:00-18:00; Su 10:30-17:00", "image": "https://image.wrenkitchens.com/location/ashton_under_lyne.jpg?q=100&amp;w=0&amp;h=0&amp;fit=contain&amp;s=e87b90b0065fba01b5d9cd05b2c06a0d", "brand": "Wren Kitchens", "brand:wikidata": "Q8037744", "nsi_id": "wrenkitchens-26c64e"}, "geometry": {"type": "Point", "coordinates": [-2.126791810650708, 53.47702769966748]}},
{"type": "Feature", "id": "6Pf7rGkTiEcve6Sqq6mq7MNnveI=", "properties": {"ref": "altrincham", "@spider": "wrenkitchens_gb", "shop": "kitchen", "addr:street_address": "Altrincham Retail Park,", "addr:city": "Altrincham", "addr:state": "Greater Manchester", "addr:postcode": "WA14 5GR", "addr:country": "GB", "name": "Wren Kitchens Altrincham showroom", "phone": "0161 297 0087", "website": "https://www.wrenkitchens.com/showrooms/altrincham", "opening_hours": "Mo-Fr 09:00-20:00; Sa 09:00-18:00; Su 10:30-17:00", "image": "https://image.wrenkitchens.com/location/altrincham.jpg?q=70&amp;w=0&amp;h=0&amp;s=1d2127538fe2389f868504f0d2f8802f", "brand": "Wren Kitchens", "brand:wikidata": "Q8037744", "nsi_id": "wrenkitchens-26c64e"}},
{"type": "Feature", "id": "WWgit_dE3uicBXPNYoFbFISu7hA=", "properties": {"ref": "sunderland", "@spider": "wrenkitchens_gb", "shop": "kitchen", "addr:street_address": "Trimdon Street,", "addr:city": "Sunderland", "addr:state": "Tyne and Wear", "addr:postcode": "SR4 6DW", "addr:country": "GB", "name": "Wren Kitchens Sunderland showroom", "phone": "01915 580007", "website": "https://www.wrenkitchens.com/showrooms/sunderland", "opening_hours": "Mo-Fr 09:00-20:00; Sa 09:00-18:00; Su 10:30-17:00", "image": "https://image.wrenkitchens.com/location/sunderland.jpg?q=100&amp;w=0&amp;h=0&amp;fit=contain&amp;s=b07b3d1ee062dfdb58d5df0e24016d4c", "brand": "Wren Kitchens", "brand:wikidata": "Q8037744", "nsi_id": "wrenkitchens-26c64e"}, "geometry": {"type": "Point", "coordinates": [-1.394372031055354, 54.91003261235595]}},
{"type": "Feature", "id": "6I7CXqRXJydWUwXMd8vn55OCE4Q=", "properties": {"ref": "stockton", "@spider": "wrenkitchens_gb", "shop": "kitchen", "addr:street_address": "Lustrum Retail Park, Portrack Lane", "addr:city": "Stockon-on-Tees", "addr:state": "County Durham", "addr:postcode": "TS18 2RB", "addr:country": "GB", "name": "Wren Kitchens Stockton showroom", "phone": "01642 690044", "website": "https://www.wrenkitchens.com/showrooms/stockton", "opening_hours": "Mo-Fr 09:00-20:00; Sa 09:00-18:00; Su 10:30-17:00", "image": "https://image.wrenkitchens.com/location/stockton.jpg?q=70&amp;w=0&amp;h=0&amp;s=9de5419f50de80b4e1d0c83dec0ed72a", "brand": "Wren Kitchens", "brand:wikidata": "Q8037744", "nsi_id": "wrenkitchens-26c64e"}, "geometry": {"type": "Point", "coordinates": [-1.29463352621292, 54.57142104417111]}},
{"type": "Feature", "id": "x80NmfDBOIIcBzcxc-hArsfrftg=", "properties": {"ref": "durham", "@spider": "wrenkitchens_gb", "shop": "kitchen", "addr:street_address": "Unit 3 Durham City Retail Park,", "addr:city": "Durham", "addr:state": "County Durham", "addr:postcode": "DH12RP", "addr:country": "GB", "name": "Wren Kitchens Durham showroom", "phone": "01913810029", "website": "https://www.wrenkitchens.com/showrooms/durham", "opening_hours": "Mo-Fr 09:00-20:00; Sa 09:00-18:00; Su 10:30-17:00", "image": "https://image.wrenkitchens.com/location/durham.jpg?q=70&amp;w=0&amp;h=0&amp;s=5ca752ead43f53e9e0a40e135d63a032", "brand": "Wren Kitchens", "brand:wikidata": "Q8037744", "nsi_id": "wrenkitchens-26c64e"}, "geometry": {"type": "Point", "coordinates": [-1.536107908279542, 54.78038592376167]}},
{"type": "Feature", "id": "EP2doW5Wj0KRUicwPtVGG9cerCo=", "properties": {"ref": "romford", "@spider": "wrenkitchens_gb", "shop": "kitchen", "addr:street_address": "Eastern Avenue West A12,", "addr:city": "Romford", "addr:state": "Greater London", "addr:postcode": "RM77EX", "addr:country": "GB", "name": "Wren Kitchens Romford showroom", "phone": "01708 202126", "website": "https://www.wrenkitchens.com/showrooms/romford", "opening_hours": "Mo-Fr 09:00-20:00; Sa 09:00-18:00; Su 10:30-17:00", "image": "https://image.wrenkitchens.com/location/romford.jpg?q=100&amp;w=0&amp;h=0&amp;fit=contain&amp;s=f5e98dc7f3d36a1b6cf51477f6331a98", "brand": "Wren Kitchens", "brand:wikidata": "Q8037744", "nsi_id": "wrenkitchens-26c64e"}, "geometry": {"type": "Point", "coordinates": [0.16689135211235, 51.58242107509565]}},
{"type": "Feature", "id": "0eGFmmSor-dPrOd6zHsg_ubN5tY=", "properties": {"ref": "orpington", "@spider": "wrenkitchens_gb", "shop": "kitchen", "addr:street_address": "Springvale Retail Park, Sevenoaks Way", "addr:city": "Orpington", "addr:state": "Kent", "addr:postcode": "BR5 3SG", "addr:country": "GB", "name": "Wren Kitchens Orpington showroom", "phone": "01689 414878", "website": "https://www.wrenkitchens.com/showrooms/orpington", "opening_hours": "Mo-Fr 09:00-20:00; Sa 09:00-18:00; Su 10:30-17:00", "image": "https://image.wrenkitchens.com/location/orpington.jpg?q=100&amp;w=0&amp;h=0&amp;fit=contain&amp;s=3b3de0d73606433d7df925943d423cc7", "brand": "Wren Kitchens", "brand:wikidata": "Q8037744", "nsi_id": "wrenkitchens-26c64e"}, "geometry": {"type": "Point", "coordinates": [0.1140003458511692, 51.39803566547774]}},
{"type": "Feature", "id": "HxGpfH4JdwYuls4qJ3pwk-JKwU8=", "properties": {"ref": "hayes", "@spider": "wrenkitchens_gb", "shop": "kitchen", "addr:street_address": "Uxbridge Road Retail Park, Uxbridge Road", "addr:city": "Hayes", "addr:state": "Middlesex", "addr:postcode": "UB4 0TU", "addr:country": "GB", "name": "Wren Kitchens Hayes showroom", "phone": "02081 818921", "website": "https://www.wrenkitchens.com/showrooms/hayes", "opening_hours": "Mo-Fr 09:00-20:00; Sa 09:00-18:00; Su 10:30-17:00", "image": "https://image.wrenkitchens.com/location/hayes.jpg?q=100&amp;w=0&amp;h=0&amp;fit=contain&amp;s=22c15879c0dfdf9ad1b7b5e9d16a0989", "brand": "Wren Kitchens", "brand:wikidata": "Q8037744", "nsi_id": "wrenkitchens-26c64e"}, "geometry": {"type": "Point", "coordinates": [-0.3974603078222151, 51.51495015716395]}},
{"type": "Feature", "id": "IcMRFVf1HQmLK8EYdjI3heE84hI=", "properties": {"ref": "greenwich", "@spider": "wrenkitchens_gb", "shop": "kitchen", "addr:street_address": "Unit B, Brocklebank Retail Park, Brocklebank Road", "addr:city": "Greenwich", "addr:state": "London", "addr:postcode": "SE77FR", "addr:country": "GB", "name": "Wren Kitchens Greenwich showroom", "phone": "02080 903898", "website": "https://www.wrenkitchens.com/showrooms/greenwich", "opening_hours": "Mo-Fr 09:00-20:00; Sa 09:00-18:00; Su 10:30-17:00", "image": "https://image.wrenkitchens.com/location/greenwich.jpg?q=70&amp;w=0&amp;h=0&amp;s=48fbe601e70ed17f45e0779daaace650", "brand": "Wren Kitchens", "brand:wikidata": "Q8037744", "nsi_id": "wrenkitchens-26c64e"}},
{"type": "Feature", "id": "qWsNmD1OIbgj6nvO6x9vb7TtZ5s=", "properties": {"ref": "enfield", "@spider": "wrenkitchens_gb", "shop": "kitchen", "addr:street_address": "Enfield Retail Park,", "addr:city": "Enfield", "addr:state": "Middlesex", "addr:postcode": "EN1 3RW", "addr:country": "GB", "name": "Wren Kitchens Enfield showroom", "phone": "02032 920045", "website": "https://www.wrenkitchens.com/showrooms/enfield", "opening_hours": "Mo-Fr 09:00-20:00; Sa 09:00-18:00; Su 10:30-17:00", "image": "https://image.wrenkitchens.com/location/enfield.jpg?q=70&amp;w=0&amp;h=0&amp;s=da2999df6b1bdf1892dae38f03c442cb", "brand": "Wren Kitchens", "brand:wikidata": "Q8037744", "nsi_id": "wrenkitchens-26c64e"}, "geometry": {"type": "Point", "coordinates": [-0.0582188, 51.65432149999999]}},
{"type": "Feature", "id": "v2zHhiD9MwE0eO6SO5oRDmjECOc=", "properties": {"ref": "edmonton", "@spider": "wrenkitchens_gb", "shop": "kitchen", "addr:street_address": "Unit 1, Ravenside Retail Park, Angel Road", "addr:city": "Edmonton", "addr:state": "London", "addr:postcode": "N18 3HA", "addr:country": "GB", "name": "Wren Kitchens Edmonton showroom", "phone": "02032 920044", "website": "https://www.wrenkitchens.com/showrooms/edmonton", "opening_hours": "Mo-Fr 09:00-20:00; Sa 09:00-18:00; Su 10:30-17:00", "image": "https://image.wrenkitchens.com/location/edmonton.jpg?q=70&amp;w=0&amp;h=0&amp;s=4f076982e2170d5df77b2e750041dcf9", "brand": "Wren Kitchens", "brand:wikidata": "Q8037744", "nsi_id": "wrenkitchens-26c64e"}, "geometry": {"type": "Point", "coordinates": [-0.0407677, 51.612086]}},
{"type": "Feature", "id": "_u8I6E9d6K8h76C1VXKoCeCEoDQ=", "properties": {"ref": "croydon", "@spider": "wrenkitchens_gb", "shop": "kitchen", "addr:street_address": "Thornton Road, Thornton Heath", "addr:city": "Croydon", "addr:state": "Greater London", "addr:postcode": "CR03EW", "addr:country": "GB", "name": "Wren Kitchens Croydon showroom", "phone": "02038 247469", "website": "https://www.wrenkitchens.com/showrooms/croydon", "opening_hours": "Mo-Fr 09:00-20:00; Sa 09:00-18:00; Su 10:30-17:00", "image": "https://image.wrenkitchens.com/location/croydon.jpg?q=100&amp;w=0&amp;h=0&amp;fit=contain&amp;s=d81733e656f799fd9d232f3654618faf", "brand": "Wren Kitchens", "brand:wikidata": "Q8037744", "nsi_id": "wrenkitchens-26c64e"}, "geometry": {"type": "Point", "coordinates": [-0.1216806701877034, 51.38975321193193]}},
{"type": "Feature", "id": "HYl_iN7XwCbV_Iohdzm9De1XAKU=", "properties": {"ref": "https://www.wrenkitchens.com/showrooms/leeds-crown-point", "@spider": "wrenkitchens_gb", "shop": "kitchen", "addr:street_address": "11 Junction St, Crown Point Shopping Park", "addr:city": "Leeds", "addr:state": "West Yorkshire", "addr:postcode": "LS10 1ET", "addr:country": "GB", "name": "Wren Kitchens Leeds showroom", "phone": "01134 878312", "website": "https://www.wrenkitchens.com/showrooms/leeds-crown-point", "opening_hours": "Mo-Fr 09:00-20:00; Sa 09:00-18:00; Su 10:30-17:00", "image": "https://image.wrenkitchens.com/location/leeds.jpg?q=100&amp;w=0&amp;h=0&amp;fit=contain&amp;s=46357b8c210a8e03152c069d6f5b3009", "brand": "Wren Kitchens", "brand:wikidata": "Q8037744", "nsi_id": "wrenkitchens-26c64e"}, "geometry": {"type": "Point", "coordinates": [-1.541143379024408, 53.78772859028155]}},
{"type": "Feature", "id": "u-WtCjFIsKIJUHHRQe6OnTQ8F4k=", "properties": {"ref": "https://www.wrenkitchens.com/showrooms/leeds-birstall", "@spider": "wrenkitchens_gb", "shop": "kitchen", "addr:street_address": "Birstall Shopping Park, Birstall", "addr:city": "Batley", "addr:state": "West Yorkshire", "addr:postcode": "WF17 9DT", "addr:country": "GB", "name": "Wren Kitchens Birstall showroom", "phone": "01924 663949", "website": "https://www.wrenkitchens.com/showrooms/leeds-birstall", "opening_hours": "Mo-Fr 09:00-20:00; Sa 09:00-18:00; Su 10:30-17:00", "image": "https://image.wrenkitchens.com/location/birstall.jpg?q=100&amp;w=0&amp;h=0&amp;fit=contain&amp;s=4f0eb0bfa398dbe75baaf049990430f9", "brand": "Wren Kitchens", "brand:wikidata": "Q8037744", "nsi_id": "wrenkitchens-26c64e"}, "geometry": {"type": "Point", "coordinates": [-1.64654947263633, 53.74394908003579]}},
{"type": "Feature", "id": "OyVP3KDMWBfP0-BQUJP1Vj_WBig=", "properties": {"ref": "https://www.wrenkitchens.com/showrooms/bristol-cribbs-causeway", "@spider": "wrenkitchens_gb", "shop": "kitchen", "addr:street_address": "Cribbs Causeway Retail Park, Lysander Road", "addr:city": "Bristol", "addr:state": "Bristol", "addr:postcode": "BS345UL", "addr:country": "GB", "name": "Wren Kitchens Bristol Cribbs Causeway showroom", "phone": "01172 443168", "website": "https://www.wrenkitchens.com/showrooms/bristol-cribbs-causeway", "opening_hours": "Mo-Fr 09:00-20:00; Sa 09:00-18:00; Su 10:30-17:00", "image": "https://image.wrenkitchens.com/location/bristol_cribbs_causeway.jpg?q=100&amp;w=0&amp;h=0&amp;fit=contain&amp;s=0544f6b52f4d1163388dd794d0fbe513", "brand": "Wren Kitchens", "brand:wikidata": "Q8037744", "nsi_id": "wrenkitchens-26c64e"}, "geometry": {"type": "Point", "coordinates": [-2.601376659187898, 51.52572353253061]}},
{"type": "Feature", "id": "7BNtL117Xc8ARmR6r5yksU6v5cs=", "properties": {"ref": "https://www.wrenkitchens.com/showrooms/milton-keynes", "@spider": "wrenkitchens_gb", "shop": "kitchen", "addr:street_address": "Grafton Court, Winterhill", "addr:city": "Milton Keynes", "addr:state": "Buckinghamshire", "addr:postcode": "MK6 1AJ", "addr:country": "GB", "name": "Wren Kitchens Milton Keynes showroom", "phone": "01908 768330", "website": "https://www.wrenkitchens.com/showrooms/milton-keynes", "opening_hours": "Mo-Fr 09:00-20:00; Sa 09:00-18:00; Su 10:30-17:00", "image": "https://image.wrenkitchens.com/location/milton_keynes.jpg?q=100&amp;w=0&amp;h=0&amp;fit=contain&amp;s=6c792b3a0bfa8824ed7621d526178736", "brand": "Wren Kitchens", "brand:wikidata": "Q8037744", "nsi_id": "wrenkitchens-26c64e"}, "geometry": {"type": "Point", "coordinates": [-0.7660782675794436, 52.03117032688494]}},
{"type": "Feature", "id": "fAWDviysTB9sTYpkG-PN-K7E8zU=", "properties": {"ref": "https://www.wrenkitchens.com/showrooms/uddingston-glasgow", "@spider": "wrenkitchens_gb", "shop": "kitchen", "addr:street_address": "1 Rannoch Road, Uddingston", "addr:city": "Glasgow", "addr:state": "South Lanarkshire", "addr:postcode": "G71 5PR", "addr:country": "GB", "name": "Wren Kitchens Uddingston showroom", "phone": "01698 622270", "website": "https://www.wrenkitchens.com/showrooms/uddingston-glasgow", "opening_hours": "Mo-Fr 09:00-20:00; Sa 09:00-18:00; Su 10:30-17:00", "image": "https://image.wrenkitchens.com/location/uddingston.jpg?q=100&amp;w=0&amp;h=0&amp;fit=contain&amp;s=71cee8eee822d148abe8e8ae197efaba", "brand": "Wren Kitchens", "brand:wikidata": "Q8037744", "nsi_id": "wrenkitchens-26c64e"}, "geometry": {"type": "Point", "coordinates": [-4.082932233349204, 55.8362683547559]}},
{"type": "Feature", "id": "GoIfiWYo-EocIkCJQz4g1wbkkuA=", "properties": {"ref": "https://www.wrenkitchens.com/showrooms/kirkcaldy-fife", "@spider": "wrenkitchens_gb", "shop": "kitchen", "addr:street_address": "Central Retail Park,", "addr:city": "Kirkcaldy", "addr:state": "Fife", "addr:postcode": "KY2 6QL", "addr:country": "GB", "name": "Wren Kitchens Kirkcaldy showroom", "phone": "01592 803000", "website": "https://www.wrenkitchens.com/showrooms/kirkcaldy-fife", "opening_hours": "Mo-Fr 09:00-20:00; Sa 09:00-18:00; Su 10:30-17:00", "image": "https://image.wrenkitchens.com/location/kirkcaldy.jpg?q=100&amp;w=0&amp;h=0&amp;fit=contain&amp;s=1d448f046aa7cf7520dc3982190fc852", "brand": "Wren Kitchens", "brand:wikidata": "Q8037744", "nsi_id": "wrenkitchens-26c64e"}, "geometry": {"type": "Point", "coordinates": [-3.201382017306604, 56.13497041195255]}},
{"type": "Feature", "id": "Igw5GWzfwzSAkJ66Xl-wUv3M7bU=", "properties": {"ref": "https://www.wrenkitchens.com/showrooms/hermiston-gait-edinburgh", "@spider": "wrenkitchens_gb", "shop": "kitchen", "addr:street_address": "Hermiston Gait Retail Park, Cultins Road", "addr:city": "Edinburgh", "addr:state": "Edinburgh", "addr:postcode": "EH114DF", "addr:country": "GB", "name": "Wren Kitchens Edinburgh showroom", "phone": "0131 3228818", "website": "https://www.wrenkitchens.com/showrooms/hermiston-gait-edinburgh", "opening_hours": "Mo-Fr 09:00-20:00; Sa 09:00-18:00; Su 10:30-17:00", "image": "https://image.wrenkitchens.com/location/edinburgh.jpg?q=100&amp;w=0&amp;h=0&amp;fit=contain&amp;s=86cb0cd39baaf450311088bd07f5e68f", "brand": "Wren Kitchens", "brand:wikidata": "Q8037744", "nsi_id": "wrenkitchens-26c64e"}, "geometry": {"type": "Point", "coordinates": [-3.306445892621517, 55.92560940464806]}},
{"type": "Feature", "id": "RsX37gja2-O_zA9Q1C3vEdYlM44=", "properties": {"ref": "https://www.wrenkitchens.com/showrooms/north-shields", "@spider": "wrenkitchens_gb", "shop": "kitchen", "addr:street_address": "Silverlink Point Retail Park,", "addr:city": "North Shields", "addr:state": "Tyne and Wear", "addr:postcode": "NE289PD", "addr:country": "GB", "name": "Wren Kitchens North Shields showroom", "phone": "01913 009019", "website": "https://www.wrenkitchens.com/showrooms/north-shields", "opening_hours": "Mo-Fr 09:00-20:00; Sa 09:00-18:00; Su 10:30-17:00", "image": "https://image.wrenkitchens.com/location/north_shields.jpg?q=100&amp;w=0&amp;h=0&amp;fit=contain&amp;s=6d2df022788c2b0d54d2e9eee1658201", "brand": "Wren Kitchens", "brand:wikidata": "Q8037744", "nsi_id": "wrenkitchens-26c64e"}},
{"type": "Feature", "id": "JMZSLRKVxbWHCE3Pc_rXC0BGAPw=", "properties": {"ref": "https://www.wrenkitchens.com/showrooms/gateshead-newcastle", "@spider": "wrenkitchens_gb", "shop": "kitchen", "addr:street_address": "Retail World, Team Valley", "addr:city": "Gateshead", "addr:state": "Tyne And Wear", "addr:postcode": "NE11 0BD", "addr:country": "GB", "name": "Wren Kitchens Gateshead showroom", "phone": "01914 061450", "website": "https://www.wrenkitchens.com/showrooms/gateshead-newcastle", "opening_hours": "Mo-Fr 09:00-20:00; Sa 09:00-18:00; Su 10:30-17:00", "image": "https://image.wrenkitchens.com/location/gateshead.jpg?q=100&amp;w=0&amp;h=0&amp;fit=contain&amp;s=0d92987bc3433a043e2a2bf5b09aa95c", "brand": "Wren Kitchens", "brand:wikidata": "Q8037744", "nsi_id": "wrenkitchens-26c64e"}, "geometry": {"type": "Point", "coordinates": [-1.617197145361704, 54.92325648053131]}},
{"type": "Feature", "id": "89-VoR9xnSLSoEF5sq_ygX7xIvM=", "properties": {"ref": "https://www.wrenkitchens.com/showrooms/staples-corner", "@spider": "wrenkitchens_gb", "shop": "kitchen", "addr:street_address": "Staples Corner Retail Park, Geron Way", "addr:city": "London", "addr:state": "Middlesex", "addr:postcode": "NW2 6LW", "addr:country": "GB", "name": "Wren Kitchens Staples Corner showroom", "phone": "02084 322041", "website": "https://www.wrenkitchens.com/showrooms/staples-corner", "opening_hours": "Mo-Fr 09:00-20:00; Sa 09:00-18:00; Su 10:30-17:00", "image": "https://image.wrenkitchens.com/location/staples_corner.jpg?q=100&amp;w=0&amp;h=0&amp;fit=contain&amp;s=17101eff56f558dcc7274ff4486a94bc", "brand": "Wren Kitchens", "brand:wikidata": "Q8037744", "nsi_id": "wrenkitchens-26c64e"}, "geometry": {"type": "Point", "coordinates": [-0.2276298781898183, 51.56799868027668]}},
{"type": "Feature", "id": "SRysatVZD2M1ppxFpwlb-diDRdk=", "properties": {"ref": "https://www.wrenkitchens.com/showrooms/bromley-catford", "@spider": "wrenkitchens_gb", "shop": "kitchen", "addr:street_address": "Bromley Road Retail Park,", "addr:city": "Catford", "addr:state": "Greater London", "addr:postcode": "SE62QU", "addr:country": "GB", "name": "Wren Kitchens Bromley showroom", "phone": "02034 357665", "website": "https://www.wrenkitchens.com/showrooms/bromley-catford", "opening_hours": "Mo-Fr 09:00-20:00; Sa 09:00-18:00; Su 10:30-17:00", "image": "https://image.wrenkitchens.com/location/bromley.jpg?q=100&amp;w=0&amp;h=0&amp;fit=contain&amp;s=900d77cbe5b22a12a80bb2b6a6a64b44", "brand": "Wren Kitchens", "brand:wikidata": "Q8037744", "nsi_id": "wrenkitchens-26c64e"}, "geometry": {"type": "Point", "coordinates": [-0.01934131574885901, 51.43695458928361]}},
{"type": "Feature", "id": "ed7PNWAMVVLIMuuLxiKfK2hcYUk=", "properties": {"ref": "https://www.wrenkitchens.com/showrooms/hemel-hempstead", "@spider": "wrenkitchens_gb", "shop": "kitchen", "addr:street_address": "Apsley Mill Retail Park, London Road", "addr:city": "Hemel Hempstead", "addr:state": "Hertfordshire", "addr:postcode": "HP3 9QN", "addr:country": "GB", "name": "Wren Kitchens Hemel Hempstead showroom", "phone": "01442 502215", "website": "https://www.wrenkitchens.com/showrooms/hemel-hempstead", "opening_hours": "Mo-Fr 09:00-20:00; Sa 09:00-18:00; Su 10:30-17:00", "image": "https://image.wrenkitchens.com/location/hemel_hempstead.jpg?q=100&amp;w=0&amp;h=0&amp;fit=contain&amp;s=348790b1d6f8c4363fc8a663fd5b83f0", "brand": "Wren Kitchens", "brand:wikidata": "Q8037744", "nsi_id": "wrenkitchens-26c64e"}, "geometry": {"type": "Point", "coordinates": [-0.4631094644155875, 51.73456927367252]}},
{"type": "Feature", "id": "QYfmKyapjfYr6gRj440c34k0ZgM=", "properties": {"ref": "https://www.wrenkitchens.com/showrooms/merry-hill-dudley", "@spider": "wrenkitchens_gb", "shop": "kitchen", "addr:street_address": "Merry Hill Retail Park,", "addr:city": "Dudley", "addr:state": "West Midlands", "addr:postcode": "DY5 1SY", "addr:country": "GB", "name": "Wren Kitchens Merry Hill showroom", "phone": "01384 887999", "website": "https://www.wrenkitchens.com/showrooms/merry-hill-dudley", "opening_hours": "Mo-Fr 09:00-20:00; Sa 09:00-18:00; Su 10:30-17:00", "image": "https://image.wrenkitchens.com/location/merry_hill.jpg?q=100&amp;w=0&amp;h=0&amp;fit=contain&amp;s=93e0d7370ea4fe2c466f42004b0d0214", "brand": "Wren Kitchens", "brand:wikidata": "Q8037744", "nsi_id": "wrenkitchens-26c64e"}},
{"type": "Feature", "id": "lWjRKRm7gmLF4tSMi6g6GSwkPGU=", "properties": {"ref": "york", "@spider": "wrenkitchens_gb", "shop": "kitchen", "addr:street_address": "Clifton Moor Centre, Stirling Road", "addr:city": "York", "addr:state": "Yorkshire", "addr:postcode": "YO30 4XZ", "addr:country": "GB", "name": "Wren Kitchens York showroom", "phone": "01904 232313", "website": "https://www.wrenkitchens.com/showrooms/york", "opening_hours": "Mo-Fr 09:00-20:00; Sa 09:00-18:00; Su 10:30-17:00", "image": "https://image.wrenkitchens.com/location/york.jpg?q=100&amp;w=0&amp;h=0&amp;fit=contain&amp;s=337cc8d3d4a329a9a567c8ff933ec043", "brand": "Wren Kitchens", "brand:wikidata": "Q8037744", "nsi_id": "wrenkitchens-26c64e"}, "geometry": {"type": "Point", "coordinates": [-1.102189396477323, 53.99224149059244]}},
{"type": "Feature", "id": "uhTD55uwX5mrXphgHt51QGlHC30=", "properties": {"ref": "https://www.wrenkitchens.com/showrooms/rushden-lakes", "@spider": "wrenkitchens_gb", "shop": "kitchen", "addr:street_address": "Rushden Lakes Shopping Centre,", "addr:city": "Rushden", "addr:state": "Northamptonshire", "addr:postcode": "NN10 6FH", "addr:country": "GB", "name": "Wren Kitchens Rushden Lakes showroom", "phone": "01933 450000", "website": "https://www.wrenkitchens.com/showrooms/rushden-lakes", "opening_hours": "Mo-Fr 09:00-20:00; Sa 09:00-18:00; Su 10:30-17:00", "image": "https://image.wrenkitchens.com/location/rushden_lakes.jpg?q=100&amp;w=0&amp;h=0&amp;fit=contain&amp;s=6de0d574be3faca35fa239c9fba2c455", "brand": "Wren Kitchens", "brand:wikidata": "Q8037744", "nsi_id": "wrenkitchens-26c64e"}, "geometry": {"type": "Point", "coordinates": [-0.6184657715460823, 52.30191055302191]}},
{"type": "Feature", "id": "zZOdWa1BZhrRF8pfiFlEO_hUwF4=", "properties": {"ref": "wakefield", "@spider": "wrenkitchens_gb", "shop": "kitchen", "addr:street_address": "Unit 1a Westgate Retail Park,", "addr:city": "Wakefield", "addr:state": "Yorkshire", "addr:postcode": "WF2 9SD", "addr:country": "GB", "name": "Wren Kitchens Wakefield showroom", "phone": "01924 640036", "website": "https://www.wrenkitchens.com/showrooms/wakefield", "opening_hours": "Mo-Fr 09:00-20:00; Sa 09:00-18:00; Su 10:30-17:00", "image": "https://image.wrenkitchens.com/location/wakefield.jpg?q=70&amp;w=0&amp;h=0&amp;s=5ee10c8324ca4b96e3a61539df25cf6f", "brand": "Wren Kitchens", "brand:wikidata": "Q8037744", "nsi_id": "wrenkitchens-26c64e"}},
{"type": "Feature", "id": "eC-BTJzHqcmVzjPBpgbXbe9Ul-8=", "properties": {"ref": "sheffield", "@spider": "wrenkitchens_gb", "shop": "kitchen", "addr:street_address": "Drake House Way, Waterthorpe", "addr:city": "Sheffield", "addr:state": "South Yorkshire", "addr:postcode": "S207JJ", "addr:country": "GB", "name": "Wren Kitchens Sheffield showroom", "phone": "01142 245530", "website": "https://www.wrenkitchens.com/showrooms/sheffield", "opening_hours": "Mo-Fr 09:00-20:00; Sa 09:00-18:00; Su 10:30-17:00", "image": "https://image.wrenkitchens.com/location/sheffield.jpg?q=100&amp;w=0&amp;h=0&amp;fit=contain&amp;s=06666b54ca7358a50d9a13050ba96c8d", "brand": "Wren Kitchens", "brand:wikidata": "Q8037744", "nsi_id": "wrenkitchens-26c64e"}, "geometry": {"type": "Point", "coordinates": [-1.464024076128651, 53.37457868331377]}},
{"type": "Feature", "id": "ufBtyeTlCqPF9VR8_Rj0DjBUzIw=", "properties": {"ref": "scunthorpe", "@spider": "wrenkitchens_gb", "shop": "kitchen", "addr:street_address": "Gallagher Retail Park, Doncaster Road", "addr:city": "Scunthorpe", "addr:state": "North Lincolnshire", "addr:postcode": "DN158GR", "addr:country": "GB", "name": "Wren Kitchens Scunthorpe showroom", "phone": "01724 260030", "website": "https://www.wrenkitchens.com/showrooms/scunthorpe", "opening_hours": "Mo-Fr 09:00-20:00; Sa 09:00-18:00; Su 10:30-17:00", "image": "https://image.wrenkitchens.com/location/scunthorpe.jpg?q=70&amp;w=0&amp;h=0&amp;s=75b529efdf47966f51316306232bd723", "brand": "Wren Kitchens", "brand:wikidata": "Q8037744", "nsi_id": "wrenkitchens-26c64e"}, "geometry": {"type": "Point", "coordinates": [-0.6938099000000001, 53.5903819]}},
{"type": "Feature", "id": "0umvJsaAuF1g_LbQQwMl8kwfENo=", "properties": {"ref": "rotherham", "@spider": "wrenkitchens_gb", "shop": "kitchen", "addr:street_address": "Great Eastern Way Retail Park, Great Eastern Way", "addr:city": "Rotherham", "addr:state": "South Yorkshire", "addr:postcode": "S62 6EJ", "addr:country": "GB", "name": "Wren Kitchens Rotherham showroom", "phone": "01709 319049", "website": "https://www.wrenkitchens.com/showrooms/rotherham", "opening_hours": "Mo-Fr 09:00-20:00; Sa 09:00-18:00; Su 10:30-17:00", "image": "https://image.wrenkitchens.com/location/rotherham.jpg?q=100&amp;w=0&amp;h=0&amp;fit=contain&amp;s=69b4c1bd38a78c1ef2cf3ca620019c52", "brand": "Wren Kitchens", "brand:wikidata": "Q8037744", "nsi_id": "wrenkitchens-26c64e"}, "geometry": {"type": "Point", "coordinates": [-1.341303703458014, 53.44971098849362]}},
{"type": "Feature", "id": "qIIGTZL5yBKJLsbw2S9HCzUcbog=", "properties": {"ref": "https://www.wrenkitchens.com/showrooms/fort-kinnaird-edinburgh", "@spider": "wrenkitchens_gb", "shop": "kitchen", "addr:street_address": "Fort Kinnaird Retail Park,", "addr:city": "Edinburgh", "addr:state": "Midlothian", "addr:postcode": "EH15 3RD", "addr:country": "GB", "name": "Wren Kitchens Fort Kinnaird showroom", "phone": "01312 240007", "website": "https://www.wrenkitchens.com/showrooms/fort-kinnaird-edinburgh", "opening_hours": "Mo-Fr 09:00-20:00; Sa 09:00-18:00; Su 10:30-17:00", "image": "https://image.wrenkitchens.com/location/fort_kinnaird.jpg?q=70&amp;w=0&amp;h=0&amp;s=2e88a1a1d23a5b3c07c346da137da0e3", "brand": "Wren Kitchens", "brand:wikidata": "Q8037744", "nsi_id": "wrenkitchens-26c64e"}},
{"type": "Feature", "id": "0AZTythqkTdb_BVp3z3Dyc-92SY=", "properties": {"ref": "hull", "@spider": "wrenkitchens_gb", "shop": "kitchen", "addr:street_address": "St. Andrews Quay,", "addr:city": "Hull", "addr:state": "East Riding Of Yorkshire", "addr:postcode": "HU34SA", "addr:country": "GB", "name": "Wren Kitchens Hull showroom", "phone": "01482 810026", "website": "https://www.wrenkitchens.com/showrooms/hull", "opening_hours": "Mo-Fr 09:00-20:00; Sa 09:00-18:00; Su 10:30-17:00", "image": "https://image.wrenkitchens.com/location/hull.jpg?q=100&amp;w=0&amp;h=0&amp;fit=contain&amp;s=45b12b8cbd72271edbf8f62265276c17", "brand": "Wren Kitchens", "brand:wikidata": "Q8037744", "nsi_id": "wrenkitchens-26c64e"}},
{"type": "Feature", "id": "7utIA44RI1exMc7vJ8leppcy4Zs=", "properties": {"ref": "huddersfield", "@spider": "wrenkitchens_gb", "shop": "kitchen", "addr:street_address": "Leeds Road Retail Park, Leeds Road", "addr:city": "Huddersfield", "addr:state": "West Yorkshire", "addr:postcode": "HD1 6PF", "addr:country": "GB", "name": "Wren Kitchens Huddersfield showroom", "phone": "01484 822480", "website": "https://www.wrenkitchens.com/showrooms/huddersfield", "opening_hours": "Mo-Fr 09:00-20:00; Sa 09:00-18:00; Su 10:30-17:00", "image": "https://image.wrenkitchens.com/location/huddersfield.jpg?q=100&amp;w=0&amp;h=0&amp;fit=contain&amp;s=c9193b89c360fdfeb3756ed839179950", "brand": "Wren Kitchens", "brand:wikidata": "Q8037744", "nsi_id": "wrenkitchens-26c64e"}, "geometry": {"type": "Point", "coordinates": [-1.767768041088368, 53.65779141935962]}},
{"type": "Feature", "id": "zYdLksBjIDqd3Zej0CrEMF3yu1M=", "properties": {"ref": "harrogate", "@spider": "wrenkitchens_gb", "shop": "kitchen", "addr:street_address": "Unit 2 Hookstone Retail Park,", "addr:city": "Harrogate", "addr:state": "Yorkshire", "addr:postcode": "HG2 7LD", "addr:country": "GB", "name": "Wren Kitchens Harrogate showroom", "phone": "01423 210017", "website": "https://www.wrenkitchens.com/showrooms/harrogate", "opening_hours": "Mo-Fr 09:00-20:00; Sa 09:00-18:00; Su 10:30-17:00", "image": "https://image.wrenkitchens.com/location/harrogate.jpg?q=70&amp;w=0&amp;h=0&amp;s=6ffb3b96c3dfd31a4a1ebd840ee3c111", "brand": "Wren Kitchens", "brand:wikidata": "Q8037744", "nsi_id": "wrenkitchens-26c64e"}, "geometry": {"type": "Point", "coordinates": [-1.496779420436313, 53.99349454053822]}},
{"type": "Feature", "id": "A6TzPjucrPyQ3KlwTup3HCvtOxA=", "properties": {"ref": "doncaster", "@spider": "wrenkitchens_gb", "shop": "kitchen", "addr:street_address": "Unit 5b, Danum Retail Park", "addr:city": "Doncaster", "addr:state": "South Yorkshire", "addr:postcode": "DN58AS", "addr:country": "GB", "name": "Wren Kitchens Doncaster showroom", "phone": "01302 511006", "website": "https://www.wrenkitchens.com/showrooms/doncaster", "opening_hours": "Mo-Fr 09:00-20:00; Sa 09:00-18:00; Su 10:30-17:00", "image": "https://image.wrenkitchens.com/location/doncaster.jpg?q=100&amp;w=0&amp;h=0&amp;fit=contain&amp;s=52f4d07575a0ca6690967a2aee460a23", "brand": "Wren Kitchens", "brand:wikidata": "Q8037744", "nsi_id": "wrenkitchens-26c64e"}},
{"type": "Feature", "id": "crAcZAGvKyPmOHJNkcmxGRSCnms=", "properties": {"ref": "bradford", "@spider": "wrenkitchens_gb", "shop": "kitchen", "addr:street_address": "Forster Square Retail Park, Valley Road", "addr:city": "Bradford", "addr:state": "Yorkshire", "addr:postcode": "BD1 4AG", "addr:country": "GB", "name": "Wren Kitchens Bradford showroom", "phone": "01274 280088", "website": "https://www.wrenkitchens.com/showrooms/bradford", "opening_hours": "Mo-Fr 09:00-20:00; Sa 09:00-18:00; Su 10:30-17:00", "image": "https://image.wrenkitchens.com/location/bradford.jpg?q=70&amp;w=0&amp;h=0&amp;s=f9c82c3bc1e9e26e9a913dd3c127a9db", "brand": "Wren Kitchens", "brand:wikidata": "Q8037744", "nsi_id": "wrenkitchens-26c64e"}, "geometry": {"type": "Point", "coordinates": [-1.7532569, 53.79900199999999]}},
{"type": "Feature", "id": "9-U8HCmnuWsyaXeupm-nsIGy5Es=", "properties": {"ref": "worcester", "@spider": "wrenkitchens_gb", "shop": "kitchen", "addr:street_address": "Unit D Elgar Retail Park,", "addr:city": "Worcester", "addr:state": "Worcestershire", "addr:postcode": "WR3 8HP", "addr:country": "GB", "name": "Wren Kitchens Worcester showroom", "phone": "01905 560058", "website": "https://www.wrenkitchens.com/showrooms/worcester", "opening_hours": "Mo-Fr 09:00-20:00; Sa 09:00-18:00; Su 10:30-17:00", "image": "https://image.wrenkitchens.com/location/worcester.jpg?q=100&amp;w=0&amp;h=0&amp;fit=contain&amp;s=3216ea581d7ca0380caf30d4197af1ab", "brand": "Wren Kitchens", "brand:wikidata": "Q8037744", "nsi_id": "wrenkitchens-26c64e"}},
{"type": "Feature", "id": "5DlDVfKaSYGulTBN6ru0Oy6guoI=", "properties": {"ref": "wolverhampton", "@spider": "wrenkitchens_gb", "shop": "kitchen", "addr:street_address": "St Johns Retail Park, Church Lane", "addr:city": "Wolverhampton", "addr:state": "West Midlands", "addr:postcode": "WV2 4SJ", "addr:country": "GB", "name": "Wren Kitchens Wolverhampton showroom", "phone": "01902 580002", "website": "https://www.wrenkitchens.com/showrooms/wolverhampton", "opening_hours": "Mo-Fr 09:00-20:00; Sa 09:00-18:00; Su 10:30-17:00", "image": "https://image.wrenkitchens.com/location/wolverhampton.jpg?q=70&amp;w=0&amp;h=0&amp;s=c33055a4b70c2c688598152f22aa898b", "brand": "Wren Kitchens", "brand:wikidata": "Q8037744", "nsi_id": "wrenkitchens-26c64e"}, "geometry": {"type": "Point", "coordinates": [-2.126705048813591, 52.57996474120452]}},
{"type": "Feature", "id": "9ZxDr3ZJAEowyWdIHzAgId2F4aA=", "properties": {"ref": "tamworth", "@spider": "wrenkitchens_gb", "shop": "kitchen", "addr:street_address": "Ventura Retail Park, Ventura Park Road", "addr:city": "Tamworth", "addr:state": "Staffordshire", "addr:postcode": "B78 3HB", "addr:country": "GB", "name": "Wren Kitchens Tamworth showroom", "phone": "01827 219806", "website": "https://www.wrenkitchens.com/showrooms/tamworth", "opening_hours": "Mo-Fr 09:00-20:00; Sa 09:00-18:00; Su 10:30-17:00", "image": "https://image.wrenkitchens.com/location/tamworth.jpg?q=100&amp;w=0&amp;h=0&amp;fit=contain&amp;s=33127396607cb53a85f2721062527272", "brand": "Wren Kitchens", "brand:wikidata": "Q8037744", "nsi_id": "wrenkitchens-26c64e"}, "geometry": {"type": "Point", "coordinates": [-1.702227828450987, 52.62775335898078]}},
{"type": "Feature", "id": "SqwyxmM0CxFS0dHKXjl1mJnemvA=", "properties": {"ref": "stoke", "@spider": "wrenkitchens_gb", "shop": "kitchen", "addr:street_address": "Octagon Retail Park,", "addr:city": "Stoke-on-trent", "addr:state": "Staffordshire", "addr:postcode": "ST1 5RR", "addr:country": "GB", "name": "Wren Kitchens Stoke showroom", "phone": "01782 948189", "website": "https://www.wrenkitchens.com/showrooms/stoke", "opening_hours": "Mo-Fr 09:00-20:00; Sa 09:00-18:00; Su 10:30-17:00", "image": "https://image.wrenkitchens.com/location/stoke.jpg?q=100&amp;w=0&amp;h=0&amp;fit=contain&amp;s=8eda331e5d3128f56824a9b8ee7d996d", "brand": "Wren Kitchens", "brand:wikidata": "Q8037744", "nsi_id": "wrenkitchens-26c64e"}, "geometry": {"type": "Point", "coordinates": [-2.1868704, 53.0262218]}},
{"type": "Feature", "id": "Mn_Jrw26RDnDSh_HUesYAPMuwr8=", "properties": {"ref": "solihull", "@spider": "wrenkitchens_gb", "shop": "kitchen", "addr:street_address": "Solihull Gate Retail Park, Marshall Lake Road", "addr:city": "Shirley", "addr:state": "Solihull", "addr:postcode": "B904BP", "addr:country": "GB", "name": "Wren Kitchens Solihull showroom", "phone": "01212 271887", "website": "https://www.wrenkitchens.com/showrooms/solihull", "opening_hours": "Mo-Fr 09:00-20:00; Sa 09:00-18:00; Su 10:30-17:00", "image": "https://image.wrenkitchens.com/location/solihull.jpg?q=100&amp;w=0&amp;h=0&amp;fit=contain&amp;s=2f9403991c20c9582b5a92a21e3577aa", "brand": "Wren Kitchens", "brand:wikidata": "Q8037744", "nsi_id": "wrenkitchens-26c64e"}},
{"type": "Feature", "id": "MAwyLxtwtR4ZM0aVmLAvN_cKsuk=", "properties": {"ref": "shrewsbury", "@spider": "wrenkitchens_gb", "shop": "kitchen", "addr:street_address": "Sundorne Retail Park, Arlington Way", "addr:city": "Shrewsbury", "addr:state": "Shropshire", "addr:postcode": "SY1 4YA", "addr:country": "GB", "name": "Wren Kitchens Shrewsbury showroom", "phone": "01743 770006", "website": "https://www.wrenkitchens.com/showrooms/shrewsbury", "opening_hours": "Mo-Fr 09:00-20:00; Sa 09:00-18:00; Su 10:30-17:00", "image": "https://image.wrenkitchens.com/location/shrewsbury.jpg?q=70&amp;w=0&amp;h=0&amp;s=b3f4db78eb8b3082d4cde10ff947e206", "brand": "Wren Kitchens", "brand:wikidata": "Q8037744", "nsi_id": "wrenkitchens-26c64e"}, "geometry": {"type": "Point", "coordinates": [-2.720096693362166, 52.73876906962425]}},
{"type": "Feature", "id": "xxSWgEzq5peah_j2RQm51JBrtzs=", "properties": {"ref": "erdington", "@spider": "wrenkitchens_gb", "shop": "kitchen", "addr:street_address": "Ravenside Retail Park, Kingsbury Road", "addr:city": "Erdington", "addr:state": "West Midlands", "addr:postcode": "B24 9QB", "addr:country": "GB", "name": "Wren Kitchens Erdington showroom", "phone": "01216 474445", "website": "https://www.wrenkitchens.com/showrooms/erdington", "opening_hours": "Mo-Fr 09:00-20:00; Sa 09:00-18:00; Su 10:30-17:00", "image": "https://image.wrenkitchens.com/location/erdington.jpg?q=100&amp;w=0&amp;h=0&amp;fit=contain&amp;s=c971243661fdf7d7de76dba6ea43af6d", "brand": "Wren Kitchens", "brand:wikidata": "Q8037744", "nsi_id": "wrenkitchens-26c64e"}, "geometry": {"type": "Point", "coordinates": [-1.803511441378239, 52.51774462358135]}},
{"type": "Feature", "id": "Hcg4ow4HcGfpSFtPvo5bidurjLM=", "properties": {"ref": "coventry", "@spider": "wrenkitchens_gb", "shop": "kitchen", "addr:street_address": "Gallagher Retail Park, Stoney Stanton Road", "addr:city": "Coventry", "addr:state": "Warwickshire", "addr:postcode": "CV6 5QE", "addr:country": "GB", "name": "Wren Kitchens Coventry showroom", "phone": "02476 018161", "website": "https://www.wrenkitchens.com/showrooms/coventry", "opening_hours": "Mo-Fr 09:00-20:00; Sa 09:00-18:00; Su 10:30-17:00", "image": "https://image.wrenkitchens.com/location/coventry.jpg?q=100&amp;w=0&amp;h=0&amp;fit=contain&amp;s=32fb8164eb9e01878289320d16f410b6", "brand": "Wren Kitchens", "brand:wikidata": "Q8037744", "nsi_id": "wrenkitchens-26c64e"}},
{"type": "Feature", "id": "85z7yPyfXqtpOebIrS86blzIcck=", "properties": {"ref": "swansea", "@spider": "wrenkitchens_gb", "shop": "kitchen", "addr:street_address": "Swansea Enterprise Park, Nantyffin North", "addr:city": "Swansea", "addr:state": "Swansea", "addr:postcode": "SA7 9RF", "addr:country": "GB", "name": "Wren Kitchens Swansea showroom", "phone": "01792 343645", "website": "https://www.wrenkitchens.com/showrooms/swansea", "opening_hours": "Mo-Fr 09:00-20:00; Sa 09:00-18:00; Su 10:30-17:00", "image": "https://image.wrenkitchens.com/location/swansea.jpg?q=70&amp;w=0&amp;h=0&amp;s=1c78c7862f4babbfbd8fdd13c19ca2ed", "brand": "Wren Kitchens", "brand:wikidata": "Q8037744", "nsi_id": "wrenkitchens-26c64e"}},
{"type": "Feature", "id": "S2vwIKlj73zdqvH-2b9uLu17z1A=", "properties": {"ref": "newport", "@spider": "wrenkitchens_gb", "shop": "kitchen", "addr:street_address": "28 East Retail Park, Docks Way", "addr:city": "Newport", "addr:state": "Newport", "addr:postcode": "NP202NW", "addr:country": "GB", "name": "Wren Kitchens Newport showroom", "phone": "01633 740386", "website": "https://www.wrenkitchens.com/showrooms/newport", "opening_hours": "Mo-Fr 09:00-20:00; Sa 09:00-18:00; Su 10:30-17:00", "image": "https://image.wrenkitchens.com/location/newport.jpg?q=100&amp;w=0&amp;h=0&amp;fit=contain&amp;s=e05137888a7dbb588ce3cb3aa2f722c1", "brand": "Wren Kitchens", "brand:wikidata": "Q8037744", "nsi_id": "wrenkitchens-26c64e"}, "geometry": {"type": "Point", "coordinates": [-2.999016848305361, 51.56915281366212]}},
{"type": "Feature", "id": "6QvIXFAp3vz4i2i5x8jm6avGJLc=", "properties": {"ref": "llandudno", "@spider": "wrenkitchens_gb", "shop": "kitchen", "addr:street_address": "Unit D1 Mostyn Champneys, Charlotte Road", "addr:city": "Llandudno", "addr:state": "Caernarfonshire", "addr:postcode": "LL30 1RY", "addr:country": "GB", "name": "Wren Kitchens Llandudno showroom", "phone": "01492859999", "website": "https://www.wrenkitchens.com/showrooms/llandudno", "opening_hours": "Mo-Fr 09:00-20:00; Sa 09:00-18:00; Su 10:30-17:00", "image": "https://image.wrenkitchens.com/location/llandudno.jpg?q=70&amp;w=0&amp;h=0&amp;s=3c2325ccb8523bff10daa8224a01aafd", "brand": "Wren Kitchens", "brand:wikidata": "Q8037744", "nsi_id": "wrenkitchens-26c64e"}, "geometry": {"type": "Point", "coordinates": [-3.820587808519233, 53.31896624208309]}},
{"type": "Feature", "id": "WlMCgHPxa6xcB8u-pbTLsBNH-Zk=", "properties": {"ref": "cardiff", "@spider": "wrenkitchens_gb", "shop": "kitchen", "addr:street_address": "Cardiff Gate Retail Park, Dering Road", "addr:city": "Cardiff", "addr:state": "South Glamorgan", "addr:postcode": "CF238NL", "addr:country": "GB", "name": "Wren Kitchens Cardiff showroom", "phone": "02920 601861", "website": "https://www.wrenkitchens.com/showrooms/cardiff", "opening_hours": "Mo-Fr 09:00-20:00; Sa 09:00-18:00; Su 10:30-17:00", "image": "https://image.wrenkitchens.com/location/cardiff.jpg?q=100&amp;w=0&amp;h=0&amp;fit=contain&amp;s=7bcaaa6870bea2d24035de7c1843136b", "brand": "Wren Kitchens", "brand:wikidata": "Q8037744", "nsi_id": "wrenkitchens-26c64e"}},
{"type": "Feature", "id": "ej7DqSKrop8MD37qsWjcM-X8wKc=", "properties": {"ref": "swindon", "@spider": "wrenkitchens_gb", "shop": "kitchen", "addr:street_address": "Ashworth Road, Bridgemead", "addr:city": "Swindon", "addr:state": "Wiltshire", "addr:postcode": "SN57YF", "addr:country": "GB", "name": "Wren Kitchens Swindon showroom", "phone": "01793 683528", "website": "https://www.wrenkitchens.com/showrooms/swindon", "opening_hours": "Mo-Fr 09:00-20:00; Sa 09:00-18:00; Su 10:30-17:00", "image": "https://image.wrenkitchens.com/location/swindon.jpg?q=100&amp;w=0&amp;h=0&amp;fit=contain&amp;s=a68e4e4370e441928d8b1ee9de25da5c", "brand": "Wren Kitchens", "brand:wikidata": "Q8037744", "nsi_id": "wrenkitchens-26c64e"}},
{"type": "Feature", "id": "XfMQ5JNU6s8bOYlYGmcRuDZqpTY=", "properties": {"ref": "poole", "@spider": "wrenkitchens_gb", "shop": "kitchen", "addr:street_address": "Poole Retail Park, Fleets Lane", "addr:city": "Fleetsbridge, Poole", "addr:state": "Dorset", "addr:postcode": "BH153BZ", "addr:country": "GB", "name": "Wren Kitchens Poole showroom", "phone": "01202 238557", "website": "https://www.wrenkitchens.com/showrooms/poole", "opening_hours": "Mo-Fr 09:00-20:00; Sa 09:00-18:00; Su 10:30-17:00", "image": "https://image.wrenkitchens.com/location/poole.jpg?q=100&amp;w=0&amp;h=0&amp;fit=contain&amp;s=741f36e71ad517bbe390185b6aaf4164", "brand": "Wren Kitchens", "brand:wikidata": "Q8037744", "nsi_id": "wrenkitchens-26c64e"}, "geometry": {"type": "Point", "coordinates": [-1.987711871082765, 50.73756679130615]}},
{"type": "Feature", "id": "C8J8FaRW94ePrVFRpQvMwUu5b2c=", "properties": {"ref": "plymouth", "@spider": "wrenkitchens_gb", "shop": "kitchen", "addr:street_address": "Plymouth Gateway Retail Park,", "addr:city": "Plymouth", "addr:state": "Devon", "addr:postcode": "PL68ET", "addr:country": "GB", "name": "Wren Kitchens Plymouth showroom", "phone": "01752 424218", "website": "https://www.wrenkitchens.com/showrooms/plymouth", "opening_hours": "Mo-Fr 09:00-20:00; Sa 09:00-18:00; Su 10:30-17:00", "image": "https://image.wrenkitchens.com/location/plymouth.jpg?q=100&amp;w=0&amp;h=0&amp;fit=contain&amp;s=d23a897764501089ff18f3e16527780a", "brand": "Wren Kitchens", "brand:wikidata": "Q8037744", "nsi_id": "wrenkitchens-26c64e"}, "geometry": {"type": "Point", "coordinates": [-4.087452369870625, 50.39260736997436]}},
{"type": "Feature", "id": "b7_jHX-T6tVmefXchhPOCwTinNc=", "properties": {"ref": "gloucester", "@spider": "wrenkitchens_gb", "shop": "kitchen", "addr:street_address": "St Oswald&#039;s Retail Park, St Oswald&#039;s Road", "addr:city": "Gloucester", "addr:state": "Gloucestershire", "addr:postcode": "GL12UE", "addr:country": "GB", "name": "Wren Kitchens Gloucester showroom", "phone": "01452 223759", "website": "https://www.wrenkitchens.com/showrooms/gloucester", "opening_hours": "Mo-Fr 09:00-20:00; Sa 09:00-18:00; Su 10:30-17:00", "image": "https://image.wrenkitchens.com/location/gloucester.jpg?q=100&amp;w=0&amp;h=0&amp;fit=contain&amp;s=7cd8055b1d896793779aa76cedcebf0a", "brand": "Wren Kitchens", "brand:wikidata": "Q8037744", "nsi_id": "wrenkitchens-26c64e"}, "geometry": {"type": "Point", "coordinates": [-2.246788416029091, 51.87459706911417]}},
{"type": "Feature", "id": "5t7KisYUF5A5g31gTW4V3eCD00w=", "properties": {"ref": "exeter", "@spider": "wrenkitchens_gb", "shop": "kitchen", "addr:street_address": "Exeter Retail Park, Marsh Barton Lane", "addr:city": "Exeter", "addr:state": "Devon", "addr:postcode": "EX2 8LH", "addr:country": "GB", "name": "Wren Kitchens Exeter showroom", "phone": "01392 770007", "website": "https://www.wrenkitchens.com/showrooms/exeter", "opening_hours": "Mo-Fr 09:00-20:00; Sa 09:00-18:00; Su 10:30-17:00", "image": "https://image.wrenkitchens.com/location/exeter.jpg?q=100&amp;w=0&amp;h=0&amp;fit=contain&amp;s=ef2994da3f5639f5e531d77a4992350c", "brand": "Wren Kitchens", "brand:wikidata": "Q8037744", "nsi_id": "wrenkitchens-26c64e"}, "geometry": {"type": "Point", "coordinates": [-3.537134574952802, 50.70902871618551]}},
{"type": "Feature", "id": "jmJOudJXOjeU03Ut4ZV3wuGIJnE=", "properties": {"ref": "worthing", "@spider": "wrenkitchens_gb", "shop": "kitchen", "addr:street_address": "Lyons Farm Retail Park,", "addr:city": "Worthing", "addr:state": "Sussex", "addr:postcode": "BN14 9LA", "addr:country": "GB", "name": "Wren Kitchens Worthing showroom", "phone": "01903 259908", "website": "https://www.wrenkitchens.com/showrooms/worthing", "opening_hours": "Mo-Fr 09:00-20:00; Sa 09:00-18:00; Su 10:30-17:00", "image": "https://image.wrenkitchens.com/location/worthing.jpg?q=100&amp;w=0&amp;h=0&amp;fit=contain&amp;s=bf3d732f426d9f4c040df5ccb288edad", "brand": "Wren Kitchens", "brand:wikidata": "Q8037744", "nsi_id": "wrenkitchens-26c64e"}, "geometry": {"type": "Point", "coordinates": [-0.3658497315089786, 50.83459422129673]}},
{"type": "Feature", "id": "fL0dD-01xpwB2MjYi82wiOwB1cY=", "properties": {"ref": "southampton", "@spider": "wrenkitchens_gb", "shop": "kitchen", "addr:street_address": "Mountbatten Retail Park, Western Esplanade", "addr:city": "Southampton", "addr:state": "Hampshire", "addr:postcode": "SO15 1QJ", "addr:country": "GB", "name": "Wren Kitchens Southampton showroom", "phone": "02380 089131", "website": "https://www.wrenkitchens.com/showrooms/southampton", "opening_hours": "Mo-Fr 09:00-20:00; Sa 09:00-18:00; Su 10:30-17:00", "image": "https://image.wrenkitchens.com/location/southampton.jpg?q=100&amp;w=0&amp;h=0&amp;fit=contain&amp;s=d694425eab34eec5885fe811d9c0241d", "brand": "Wren Kitchens", "brand:wikidata": "Q8037744", "nsi_id": "wrenkitchens-26c64e"}},
{"type": "Feature", "id": "hQmQ442Z58LDq5pRbd1IsJF_0Kc=", "properties": {"ref": "slough", "@spider": "wrenkitchens_gb", "shop": "kitchen", "addr:street_address": "Slough Retail Park, Twinches Lane", "addr:city": "Slough", "addr:state": "Berkshire", "addr:postcode": "SL15AL", "addr:country": "GB", "name": "Wren Kitchens Slough showroom", "phone": "01753 314227", "website": "https://www.wrenkitchens.com/showrooms/slough", "opening_hours": "Mo-Fr 09:00-20:00; Sa 09:00-18:00; Su 10:30-17:00", "image": "https://image.wrenkitchens.com/location/slough.jpg?q=100&amp;w=0&amp;h=0&amp;fit=contain&amp;s=da7fb0c734b03d1f6e92bd614e2237c1", "brand": "Wren Kitchens", "brand:wikidata": "Q8037744", "nsi_id": "wrenkitchens-26c64e"}, "geometry": {"type": "Point", "coordinates": [-0.621043314204334, 51.51384372134687]}},
{"type": "Feature", "id": "Sv3AB6h0JK7LTkB500CmVuqh6P8=", "properties": {"ref": "reading", "@spider": "wrenkitchens_gb", "shop": "kitchen", "addr:street_address": "Worton Grange,", "addr:city": "Reading", "addr:state": "Berkshire", "addr:postcode": "RG20GG", "addr:country": "GB", "name": "Wren Kitchens Reading showroom", "phone": "01189 144599", "website": "https://www.wrenkitchens.com/showrooms/reading", "opening_hours": "Mo-Fr 09:00-20:00; Sa 09:00-18:00; Su 10:30-17:00", "image": "https://image.wrenkitchens.com/location/reading.jpg?q=100&amp;w=0&amp;h=0&amp;fit=contain&amp;s=1935a39183b364e22a19545325fe6f09", "brand": "Wren Kitchens", "brand:wikidata": "Q8037744", "nsi_id": "wrenkitchens-26c64e"}, "geometry": {"type": "Point", "coordinates": [-0.9744728504696588, 51.41825117107398]}},
{"type": "Feature", "id": "ywLtF6V-AnJiE7oruwF10O6noAE=", "properties": {"ref": "portsmouth", "@spider": "wrenkitchens_gb", "shop": "kitchen", "addr:street_address": "Ocean Park,", "addr:city": "Portsmouth", "addr:state": "Hampshire", "addr:postcode": "PO3 5NP", "addr:country": "GB", "name": "Wren Kitchens Portsmouth showroom", "phone": "02392 008446", "website": "https://www.wrenkitchens.com/showrooms/portsmouth", "opening_hours": "Mo-Fr 09:00-20:00; Sa 09:00-18:00; Su 10:30-17:00", "image": "https://image.wrenkitchens.com/location/portsmouth.jpg?q=100&amp;w=0&amp;h=0&amp;fit=contain&amp;s=3598d75669b01bf0b8b18078d0d74044", "brand": "Wren Kitchens", "brand:wikidata": "Q8037744", "nsi_id": "wrenkitchens-26c64e"}, "geometry": {"type": "Point", "coordinates": [-1.0551718, 50.8180097]}},
{"type": "Feature", "id": "64HCDvh0SCHsTlcesPJGfQd8x_g=", "properties": {"ref": "oxford", "@spider": "wrenkitchens_gb", "shop": "kitchen", "addr:street_address": "Botley Road Retail Park, Botley Road", "addr:city": "Oxford", "addr:state": "Oxfordshire", "addr:postcode": "OX2 0HA", "addr:country": "GB", "name": "Wren Kitchens Oxford showroom", "phone": "01865 598299", "website": "https://www.wrenkitchens.com/showrooms/oxford", "opening_hours": "Mo-Fr 09:00-20:00; Sa 09:00-18:00; Su 10:30-17:00", "image": "https://image.wrenkitchens.com/location/oxford.jpg?q=100&amp;w=0&amp;h=0&amp;fit=contain&amp;s=d2fbac6653fbf602cddf18b2bf9ffbbc", "brand": "Wren Kitchens", "brand:wikidata": "Q8037744", "nsi_id": "wrenkitchens-26c64e"}, "geometry": {"type": "Point", "coordinates": [-1.286600627037892, 51.75178192282183]}},
{"type": "Feature", "id": "-gngByiWyGsEapTg7299LbBXQ1A=", "properties": {"ref": "maidstone", "@spider": "wrenkitchens_gb", "shop": "kitchen", "addr:street_address": "Aylesford Retail Park, Quarry Wood", "addr:city": "Aylesford", "addr:state": "Kent", "addr:postcode": "ME20 7TP", "addr:country": "GB", "name": "Wren Kitchens Maidstone showroom", "phone": "01622 231420", "website": "https://www.wrenkitchens.com/showrooms/maidstone", "opening_hours": "Mo-Fr 09:00-20:00; Sa 09:00-18:00; Su 10:30-17:00", "image": "https://image.wrenkitchens.com/location/maidstone.jpg?q=100&amp;w=0&amp;h=0&amp;fit=contain&amp;s=ad07f0c3596138936540c8d89d8e72e4", "brand": "Wren Kitchens", "brand:wikidata": "Q8037744", "nsi_id": "wrenkitchens-26c64e"}},
{"type": "Feature", "id": "JRj1MBGu8UxajhZ0IXIax0cn47A=", "properties": {"ref": "guildford", "@spider": "wrenkitchens_gb", "shop": "kitchen", "addr:street_address": "Woodbridge Road Retail Park,", "addr:city": "Guildford", "addr:state": "Surrey", "addr:postcode": "GU1 1DX", "addr:country": "GB", "name": "Wren Kitchens Guildford showroom", "phone": "01483 339468", "website": "https://www.wrenkitchens.com/showrooms/guildford", "opening_hours": "Mo-Fr 09:00-20:00; Sa 09:00-18:00; Su 10:30-17:00", "image": "https://image.wrenkitchens.com/location/guildford.jpg?q=100&amp;w=0&amp;h=0&amp;fit=contain&amp;s=317acaa71f6a420b14b48d0d39b5be26", "brand": "Wren Kitchens", "brand:wikidata": "Q8037744", "nsi_id": "wrenkitchens-26c64e"}, "geometry": {"type": "Point", "coordinates": [-0.5783576087698782, 51.24702661194395]}},
{"type": "Feature", "id": "CNe5If2czC1Kik31Nu7sJNJP80k=", "properties": {"ref": "farnborough", "@spider": "wrenkitchens_gb", "shop": "kitchen", "addr:street_address": "Solartron Rd, Horizon Shopping Park", "addr:city": "Farnborough", "addr:state": "Hampshire", "addr:postcode": "GU147GY", "addr:country": "GB", "name": "Wren Kitchens Farnborough showroom", "phone": "01252 941815", "website": "https://www.wrenkitchens.com/showrooms/farnborough", "opening_hours": "Mo-Fr 09:00-20:00; Sa 09:00-18:00; Su 10:30-17:00", "image": "https://image.wrenkitchens.com/location/farnborough.jpg?q=100&amp;w=0&amp;h=0&amp;fit=contain&amp;s=9d29250f41caf093c6b444400d7d5371", "brand": "Wren Kitchens", "brand:wikidata": "Q8037744", "nsi_id": "wrenkitchens-26c64e"}, "geometry": {"type": "Point", "coordinates": [-0.7596991146456852, 51.28976893111211]}},
{"type": "Feature", "id": "VK8NUIwoo0M6Xn17Pr-OnoCWXHE=", "properties": {"ref": "eastbourne", "@spider": "wrenkitchens_gb", "shop": "kitchen", "addr:street_address": "Lottbridge Drove,", "addr:city": "Eastbourne", "addr:state": "East Sussex", "addr:postcode": "BN22 7SG", "addr:country": "GB", "name": "Wren Kitchens Eastbourne showroom", "phone": "01323 660003", "website": "https://www.wrenkitchens.com/showrooms/eastbourne", "opening_hours": "Mo-Fr 09:00-20:00; Sa 09:00-18:00; Su 10:30-17:00", "image": "https://image.wrenkitchens.com/location/eastbourne.jpg?q=100&amp;w=0&amp;h=0&amp;fit=contain&amp;s=7e4368a1ba6b4cb323b1e1a80d911fc3", "brand": "Wren Kitchens", "brand:wikidata": "Q8037744", "nsi_id": "wrenkitchens-26c64e"}},
{"type": "Feature", "id": "mdwkuNLw2SDC3k-UvgW4LBZny2U=", "properties": {"ref": "broadstairs", "@spider": "wrenkitchens_gb", "shop": "kitchen", "addr:street_address": "Westwood Retail Park, Broadstairs", "addr:city": "Thanet", "addr:state": "Kent", "addr:postcode": "CT10 2FG", "addr:country": "GB", "name": "Wren Kitchens Broadstairs showroom", "phone": "01843 265710", "website": "https://www.wrenkitchens.com/showrooms/broadstairs", "opening_hours": "Mo-Fr 09:00-20:00; Sa 09:00-18:00; Su 10:30-17:00", "image": "https://image.wrenkitchens.com/location/broadstairs.jpg?q=100&amp;w=0&amp;h=0&amp;fit=contain&amp;s=4b8d1476b0aba897185431a053df223c", "brand": "Wren Kitchens", "brand:wikidata": "Q8037744", "nsi_id": "wrenkitchens-26c64e"}, "geometry": {"type": "Point", "coordinates": [1.395279102760452, 51.36201777066415]}},
{"type": "Feature", "id": "Y4igqmFA1_iW33rc9HpKcoC6nCA=", "properties": {"ref": "basingstoke", "@spider": "wrenkitchens_gb", "shop": "kitchen", "addr:street_address": "St. Michael&#039;s Retail Park, The Harrow Way", "addr:city": "Basingstoke", "addr:state": "Hampshire", "addr:postcode": "RG22 4AN", "addr:country": "GB", "name": "Wren Kitchens Basingstoke showroom", "phone": "01256 220069", "website": "https://www.wrenkitchens.com/showrooms/basingstoke", "opening_hours": "Mo-Fr 09:00-20:00; Sa 09:00-18:00; Su 10:30-17:00", "image": "https://image.wrenkitchens.com/location/basingstoke.jpg?q=100&amp;w=0&amp;h=0&amp;fit=contain&amp;s=5dc1cd15f9a9cedbb98a473661f3fa1d", "brand": "Wren Kitchens", "brand:wikidata": "Q8037744", "nsi_id": "wrenkitchens-26c64e"}, "geometry": {"type": "Point", "coordinates": [-1.107047389200993, 51.25177637381353]}},
{"type": "Feature", "id": "MiqB11ErRW_G6b-esRY4Z6swIJg=", "properties": {"ref": "banbury", "@spider": "wrenkitchens_gb", "shop": "kitchen", "addr:street_address": "Unit 10 Banbury Cross Retail Park, Ruscote Avenue", "addr:city": "Banbury", "addr:state": "Oxfordshire", "addr:postcode": "OX16 1LX", "addr:country": "GB", "name": "Wren Kitchens Banbury showroom", "phone": "01295 889999", "website": "https://www.wrenkitchens.com/showrooms/banbury", "opening_hours": "Mo-Fr 09:00-20:00; Sa 09:00-18:00; Su 10:30-17:00", "image": "https://image.wrenkitchens.com/location/banbury.jpg?q=100&amp;w=0&amp;h=0&amp;fit=contain&amp;s=be6d0dd1e21fecc075498e62979db94e", "brand": "Wren Kitchens", "brand:wikidata": "Q8037744", "nsi_id": "wrenkitchens-26c64e"}, "geometry": {"type": "Point", "coordinates": [-1.342916707036398, 52.0741731857312]}},
{"type": "Feature", "id": "CbOfe2mE6yuBxytwuNA5lUN50Kc=", "properties": {"ref": "stirling", "@spider": "wrenkitchens_gb", "shop": "kitchen", "addr:street_address": "Springkerse Retail Park, Kerse Road", "addr:city": "Stirling", "addr:state": "Stirlingshire", "addr:postcode": "FK7 7TL", "addr:country": "GB", "name": "Wren Kitchens Stirling showroom", "phone": "01786 241397", "website": "https://www.wrenkitchens.com/showrooms/stirling", "opening_hours": "Mo-Fr 09:00-20:00; Sa 09:00-18:00; Su 10:30-17:00", "image": "https://image.wrenkitchens.com/location/stirling.jpg?q=100&amp;w=0&amp;h=0&amp;fit=contain&amp;s=43d049c586f626a09e3fd72ff538417c", "brand": "Wren Kitchens", "brand:wikidata": "Q8037744", "nsi_id": "wrenkitchens-26c64e"}, "geometry": {"type": "Point", "coordinates": [-3.911633951378453, 56.11298374935595]}},
{"type": "Feature", "id": "EjlvZsASYaMzDirzhaMXO5joaU8=", "properties": {"ref": "paisley", "@spider": "wrenkitchens_gb", "shop": "kitchen", "addr:street_address": "Abbotsinch Retail Park, Washington Road", "addr:city": "Paisley", "addr:state": "Renfrewshire", "addr:postcode": "PA34EP", "addr:country": "GB", "name": "Wren Kitchens Paisley showroom", "phone": "01412 128143", "website": "https://www.wrenkitchens.com/showrooms/paisley", "opening_hours": "Mo-Fr 09:00-20:00; Sa 09:00-18:00; Su 10:30-17:00", "image": "https://image.wrenkitchens.com/location/paisley.jpg?q=100&amp;w=0&amp;h=0&amp;fit=contain&amp;s=902462431c9f25205cb6dc84df34c5ae", "brand": "Wren Kitchens", "brand:wikidata": "Q8037744", "nsi_id": "wrenkitchens-26c64e"}},
{"type": "Feature", "id": "MvPcJ-h5iX2FhdqcDWeKeVa4Nls=", "properties": {"ref": "inverness", "@spider": "wrenkitchens_gb", "shop": "kitchen", "addr:street_address": "Unit 7 Inverness Retail Park, Eastfield Way", "addr:city": "Inverness", "addr:state": "Inverness-shire", "addr:postcode": "IV2 7GD", "addr:country": "GB", "name": "Wren Kitchens Inverness showroom", "phone": "01463699999", "website": "https://www.wrenkitchens.com/showrooms/inverness", "opening_hours": "Mo-Fr 09:00-20:00; Sa 09:00-18:00; Su 10:30-17:00", "image": "https://image.wrenkitchens.com/location/inverness.jpg?q=70&amp;w=0&amp;h=0&amp;s=e7f2b868d5d7eedbced586d40a576d65", "brand": "Wren Kitchens", "brand:wikidata": "Q8037744", "nsi_id": "wrenkitchens-26c64e"}},
{"type": "Feature", "id": "2rInpjZOXkv94LWuOPzKpL2QdLI=", "properties": {"ref": "glasgow", "@spider": "wrenkitchens_gb", "shop": "kitchen", "addr:street_address": "Great Western Road Retail Park, Great Western Road", "addr:city": "Drumchapel", "addr:state": "Glasgow", "addr:postcode": "G156RX", "addr:country": "GB", "name": "Wren Kitchens Glasgow showroom", "phone": "01416 119503", "website": "https://www.wrenkitchens.com/showrooms/glasgow", "opening_hours": "Mo-Fr 09:00-20:00; Sa 09:00-18:00; Su 10:30-17:00", "image": "https://image.wrenkitchens.com/location/glasgow.jpg?q=100&amp;w=0&amp;h=0&amp;fit=contain&amp;s=e5dde2f3494f403882db53b0db3bd81d", "brand": "Wren Kitchens", "brand:wikidata": "Q8037744", "nsi_id": "wrenkitchens-26c64e"}, "geometry": {"type": "Point", "coordinates": [-4.376562401337276, 55.90489708794651]}},
{"type": "Feature", "id": "8FyRK2rl66S21aLO46jm82Y0Yfg=", "properties": {"ref": "dundee", "@spider": "wrenkitchens_gb", "shop": "kitchen", "addr:street_address": "Kingsway West Retail Park, Kingsway West", "addr:city": "Dundee", "addr:state": "Angus", "addr:postcode": "DD3 8RX", "addr:country": "GB", "name": "Wren Kitchens Dundee showroom", "phone": "01382 281333", "website": "https://www.wrenkitchens.com/showrooms/dundee", "opening_hours": "Mo-Fr 09:00-20:00; Sa 09:00-18:00; Su 10:30-17:00", "image": "https://image.wrenkitchens.com/location/dundee.jpg?q=100&amp;w=0&amp;h=0&amp;fit=contain&amp;s=31a28f7e0d22a5796b508be8ce604316", "brand": "Wren Kitchens", "brand:wikidata": "Q8037744", "nsi_id": "wrenkitchens-26c64e"}, "geometry": {"type": "Point", "coordinates": [-2.994367485087456, 56.48083403412216]}},
{"type": "Feature", "id": "M_GuacZH0Q-FcSLs_jremnXf2pA=", "properties": {"ref": "ayr", "@spider": "wrenkitchens_gb", "shop": "kitchen", "addr:street_address": "Heathfield Retail Park, Liberator Drive", "addr:city": "Ayr", "addr:state": "Ayrshire", "addr:postcode": "KA8 9BF", "addr:country": "GB", "name": "Wren Kitchens Ayr showroom", "phone": "01292 340020", "website": "https://www.wrenkitchens.com/showrooms/ayr", "opening_hours": "Mo-Fr 09:00-20:00; Sa 09:00-18:00; Su 10:30-17:00", "image": "https://image.wrenkitchens.com/location/ayr.jpg?q=100&amp;w=0&amp;h=0&amp;fit=contain&amp;s=5872c83b3db72a54831514af07ca477d", "brand": "Wren Kitchens", "brand:wikidata": "Q8037744", "nsi_id": "wrenkitchens-26c64e"}, "geometry": {"type": "Point", "coordinates": [-4.593573150731705, 55.48003684045553]}},
{"type": "Feature", "id": "8lPN1mbyMBBoeTt6dXNzBR7-Kpo=", "properties": {"ref": "aberdeen", "@spider": "wrenkitchens_gb", "shop": "kitchen", "addr:street_address": "Kittybrewster Retail Park, Bedford Rd", "addr:city": "Aberdeen", "addr:state": "Aberdeenshire", "addr:postcode": "AB243LJ", "addr:country": "GB", "name": "Wren Kitchens Aberdeen showroom", "phone": "01224 432025", "website": "https://www.wrenkitchens.com/showrooms/aberdeen", "opening_hours": "Mo-Fr 09:00-20:00; Sa 09:00-18:00; Su 10:30-17:00", "image": "https://image.wrenkitchens.com/location/aberdeen.jpg?q=100&amp;w=0&amp;h=0&amp;fit=contain&amp;s=995735a1fcce118551eff3af14b90df0", "brand": "Wren Kitchens", "brand:wikidata": "Q8037744", "nsi_id": "wrenkitchens-26c64e"}, "geometry": {"type": "Point", "coordinates": [-2.112280197246622, 57.16097110580501]}},
{"type": "Feature", "id": "LUnXg4t70oYjttjPdD9s_yWQkGI=", "properties": {"ref": "warrington", "@spider": "wrenkitchens_gb", "shop": "kitchen", "addr:street_address": "Junction Nine Retail Park, Winwick Road", "addr:city": "Warrington", "addr:state": "Cheshire", "addr:postcode": "WA28TW", "addr:country": "GB", "name": "Wren Kitchens Warrington showroom", "phone": "01925 591000", "website": "https://www.wrenkitchens.com/showrooms/warrington", "opening_hours": "Mo-Fr 09:00-20:00; Sa 09:00-18:00; Su 10:30-17:00", "image": "https://image.wrenkitchens.com/location/warrington.jpg?q=70&amp;w=0&amp;h=0&amp;s=74c476e1369b5ec50544aa23d51f2152", "brand": "Wren Kitchens", "brand:wikidata": "Q8037744", "nsi_id": "wrenkitchens-26c64e"}},
{"type": "Feature", "id": "V7zAORb3Sw9ZpzNCBexbrGOrl_8=", "properties": {"ref": "preston", "@spider": "wrenkitchens_gb", "shop": "kitchen", "addr:street_address": "Deepdale Shopping Centre, Blackpool Road", "addr:city": "Preston", "addr:state": "Lancashire", "addr:postcode": "PR1 6QY", "addr:country": "GB", "name": "Wren Kitchens Preston showroom", "phone": "01772 282795", "website": "https://www.wrenkitchens.com/showrooms/preston", "opening_hours": "Mo-Fr 09:00-20:00; Sa 09:00-18:00; Su 10:30-17:00", "image": "https://image.wrenkitchens.com/location/preston.jpg?q=100&amp;w=0&amp;h=0&amp;fit=contain&amp;s=b93a3da14dff398de1242a3ef3aa3066", "brand": "Wren Kitchens", "brand:wikidata": "Q8037744", "nsi_id": "wrenkitchens-26c64e"}, "geometry": {"type": "Point", "coordinates": [-2.680040619846147, 53.77390535650696]}},
{"type": "Feature", "id": "pVLFrCWAsRsicnDZH8b67paou8Y=", "properties": {"ref": "oldham", "@spider": "wrenkitchens_gb", "shop": "kitchen", "addr:street_address": "Elk Mill Retail Park,", "addr:city": "Oldham", "addr:state": "Lancashire", "addr:postcode": "OL2 5HX", "addr:country": "GB", "name": "Wren Kitchens Oldham showroom", "phone": "01612970339", "website": "https://www.wrenkitchens.com/showrooms/oldham", "opening_hours": "Mo-Fr 09:00-20:00; Sa 09:00-18:00; Su 10:30-17:00", "image": "https://image.wrenkitchens.com/location/oldham.jpg?q=70&amp;w=0&amp;h=0&amp;s=e4ba488233ddb8bca3e342388f6a5c6d", "brand": "Wren Kitchens", "brand:wikidata": "Q8037744", "nsi_id": "wrenkitchens-26c64e"}},
{"type": "Feature", "id": "vGIIQgBDb1x_r-oOXcWEPXkPlDo=", "properties": {"ref": "manchester", "@spider": "wrenkitchens_gb", "shop": "kitchen", "addr:street_address": "White City Retail Park,", "addr:city": "Manchester", "addr:state": "Greater Manchester", "addr:postcode": "M16 0RP", "addr:country": "GB", "name": "Wren Kitchens Manchester showroom", "phone": "01612 416095", "website": "https://www.wrenkitchens.com/showrooms/manchester", "opening_hours": "Mo-Fr 09:00-20:00; Sa 09:00-18:00; Su 10:30-17:00", "image": "https://image.wrenkitchens.com/location/manchester.jpg?q=100&amp;w=0&amp;h=0&amp;fit=contain&amp;s=ba3afff80bbed576e5ef6dfe5e9a098e", "brand": "Wren Kitchens", "brand:wikidata": "Q8037744", "nsi_id": "wrenkitchens-26c64e"}, "geometry": {"type": "Point", "coordinates": [-2.28289407220886, 53.46151538795512]}},
{"type": "Feature", "id": "dGVNeO71sbH0DFKljkmmglOD2tA=", "properties": {"ref": "liverpool", "@spider": "wrenkitchens_gb", "shop": "kitchen", "addr:street_address": "Ormskirk Road, Aintree", "addr:city": "Liverpool", "addr:state": "Merseyside", "addr:postcode": "L95AE", "addr:country": "GB", "name": "Wren Kitchens Liverpool showroom", "phone": "01515 150006", "website": "https://www.wrenkitchens.com/showrooms/liverpool", "opening_hours": "Mo-Fr 09:00-20:00; Sa 09:00-18:00; Su 10:30-17:00", "image": "https://image.wrenkitchens.com/location/liverpool.jpg?q=100&amp;w=0&amp;h=0&amp;fit=contain&amp;s=b718499f34e7ec199ad6475dd0d594c2", "brand": "Wren Kitchens", "brand:wikidata": "Q8037744", "nsi_id": "wrenkitchens-26c64e"}, "geometry": {"type": "Point", "coordinates": [-2.952644564098591, 53.48263248141641]}},
{"type": "Feature", "id": "SRgM80cvvMOTVfCGZ-T_jS2uc0I=", "properties": {"ref": "chester", "@spider": "wrenkitchens_gb", "shop": "kitchen", "addr:street_address": "Greyhound Retail Park, 6 Sealand Rd", "addr:city": "Chester", "addr:state": "Cheshire", "addr:postcode": "CH1 4QG", "addr:country": "GB", "name": "Wren Kitchens Chester showroom", "phone": "01244 439834", "website": "https://www.wrenkitchens.com/showrooms/chester", "opening_hours": "Mo-Fr 09:00-20:00; Sa 09:00-18:00; Su 10:30-17:00", "image": "https://image.wrenkitchens.com/location/chester.jpg?q=100&amp;w=0&amp;h=0&amp;fit=contain&amp;s=0bc6a5d1090b52bbf473faa3aeac43f2", "brand": "Wren Kitchens", "brand:wikidata": "Q8037744", "nsi_id": "wrenkitchens-26c64e"}, "geometry": {"type": "Point", "coordinates": [-2.914013378570796, 53.19744641656941]}},
{"type": "Feature", "id": "VANqM7xhBnM2qxggZSJ7R3IssQs=", "properties": {"ref": "beckton", "@spider": "wrenkitchens_gb", "shop": "kitchen", "addr:street_address": "Gateway Retail Park, Claps Gate Lane", "addr:city": "Beckton", "addr:state": "Greater London", "addr:postcode": "E6 6LG", "addr:country": "GB", "name": "Wren Kitchens Beckton showroom", "phone": "02031 304923", "website": "https://www.wrenkitchens.com/showrooms/beckton", "opening_hours": "Mo-Fr 09:00-20:00; Sa 09:00-18:00; Su 10:30-17:00", "image": "https://image.wrenkitchens.com/location/beckton.jpg?q=100&amp;w=0&amp;h=0&amp;fit=contain&amp;s=ee034e4e7715542042f360d9e5fea073", "brand": "Wren Kitchens", "brand:wikidata": "Q8037744", "nsi_id": "wrenkitchens-26c64e"}, "geometry": {"type": "Point", "coordinates": [0.07089384459285855, 51.52092602399622]}},
{"type": "Feature", "id": "8DjX6FupDrWzCUbkB3j9L8LZX4c=", "properties": {"ref": "acton", "@spider": "wrenkitchens_gb", "shop": "kitchen", "addr:street_address": "West Five Centre, Alliance Road, Acton", "addr:city": "London", "addr:state": "Greater London", "addr:postcode": "W30RZ", "addr:country": "GB", "name": "Wren Kitchens Acton showroom", "phone": "02032 920596", "website": "https://www.wrenkitchens.com/showrooms/acton", "opening_hours": "Mo-Fr 09:00-20:00; Sa 09:00-18:00; Su 10:30-17:00", "image": "https://image.wrenkitchens.com/location/acton.jpg?q=70&amp;w=0&amp;h=0&amp;s=947fbf30ab5575180609bc6ddf8c60d0", "brand": "Wren Kitchens", "brand:wikidata": "Q8037744", "nsi_id": "wrenkitchens-26c64e"}},
{"type": "Feature", "id": "mY_ZDSlITK36-ZB8BOgzSXrsOWY=", "properties": {"ref": "stevenage", "@spider": "wrenkitchens_gb", "shop": "kitchen", "addr:street_address": "Roaring Meg Retail Park, Great N Rd", "addr:city": "Stevenage", "addr:state": "Hertfordshire", "addr:postcode": "SG1 1XN", "addr:country": "GB", "name": "Wren Kitchens Stevenage showroom", "phone": "01438 518846", "website": "https://www.wrenkitchens.com/showrooms/stevenage", "opening_hours": "Mo-Fr 09:00-20:00; Sa 09:00-18:00; Su 10:30-17:00", "image": "https://image.wrenkitchens.com/location/stevenage.jpg?q=100&amp;w=0&amp;h=0&amp;fit=contain&amp;s=d912ef2eecf076567b7ab109a4baeb8b", "brand": "Wren Kitchens", "brand:wikidata": "Q8037744", "nsi_id": "wrenkitchens-26c64e"}},
{"type": "Feature", "id": "kDxCmhiU6CEPIY15SJGMWhkNveU=", "properties": {"ref": "southend", "@spider": "wrenkitchens_gb", "shop": "kitchen", "addr:street_address": "Fossetts Park,", "addr:city": "Southend", "addr:state": "Essex", "addr:postcode": "SS24HF", "addr:country": "GB", "name": "Wren Kitchens Southend showroom", "phone": "01702 837086", "website": "https://www.wrenkitchens.com/showrooms/southend", "opening_hours": "Mo-Fr 09:00-20:00; Sa 09:00-18:00; Su 10:30-17:00", "image": "https://image.wrenkitchens.com/location/southend.jpg?q=100&amp;w=0&amp;h=0&amp;fit=contain&amp;s=da202fa6394890536ff5ff1f90c39e02", "brand": "Wren Kitchens", "brand:wikidata": "Q8037744", "nsi_id": "wrenkitchens-26c64e"}, "geometry": {"type": "Point", "coordinates": [0.7275120181082033, 51.55555607416011]}},
{"type": "Feature", "id": "zNCi0LV7ndMGCR6GnqvepoeauaM=", "properties": {"ref": "norwich", "@spider": "wrenkitchens_gb", "shop": "kitchen", "addr:street_address": "Sprowston Retail Park, Salhouse Road", "addr:city": "Norwich", "addr:state": "Norfolk", "addr:postcode": "NR7 9AZ", "addr:country": "GB", "name": "Wren Kitchens Norwich showroom", "phone": "01603 294686", "website": "https://www.wrenkitchens.com/showrooms/norwich", "opening_hours": "Mo-Fr 09:00-20:00; Sa 09:00-18:00; Su 10:30-17:00", "image": "https://image.wrenkitchens.com/location/norwich.jpg?q=100&amp;w=0&amp;h=0&amp;fit=contain&amp;s=d66bdb56bb57c0f3098bf8ef5d2bbb9f", "brand": "Wren Kitchens", "brand:wikidata": "Q8037744", "nsi_id": "wrenkitchens-26c64e"}, "geometry": {"type": "Point", "coordinates": [1.325889293808124, 52.64642181910985]}},
{"type": "Feature", "id": "SA0XRLIQogvXY-hwcZPs4l5KNRw=", "properties": {"ref": "luton", "@spider": "wrenkitchens_gb", "shop": "kitchen", "addr:street_address": "Luton Retail Park,", "addr:city": "Luton", "addr:state": "Bedfordshire", "addr:postcode": "LU1 3JH", "addr:country": "GB", "name": "Wren Kitchens Luton showroom", "phone": "01582 853596", "website": "https://www.wrenkitchens.com/showrooms/luton", "opening_hours": "Mo-Fr 09:00-20:00; Sa 09:00-18:00; Su 10:30-17:00", "image": "https://image.wrenkitchens.com/location/luton.jpg?q=100&amp;w=0&amp;h=0&amp;fit=contain&amp;s=ddb609da6875e37dff0979b0d7fe0205", "brand": "Wren Kitchens", "brand:wikidata": "Q8037744", "nsi_id": "wrenkitchens-26c64e"}, "geometry": {"type": "Point", "coordinates": [-0.3988293708244508, 51.87367849658172]}},
{"type": "Feature", "id": "p5aVb8oq18B6UstUqisAM8Ip0oQ=", "properties": {"ref": "lakeside", "@spider": "wrenkitchens_gb", "shop": "kitchen", "addr:street_address": "Lakeside Retail Park, Claps Gate Lane", "addr:city": "Thurrock", "addr:state": "Essex", "addr:postcode": "RM20 1WN", "addr:country": "GB", "name": "Wren Kitchens Lakeside showroom", "phone": "01708 209209", "website": "https://www.wrenkitchens.com/showrooms/lakeside", "opening_hours": "Mo-Fr 09:00-20:00; Sa 09:00-18:00; Su 10:30-17:00", "image": "https://image.wrenkitchens.com/location/lakeside.jpg?q=100&amp;w=0&amp;h=0&amp;fit=contain&amp;s=e3c3556338e62b11c6a3e40712873eae", "brand": "Wren Kitchens", "brand:wikidata": "Q8037744", "nsi_id": "wrenkitchens-26c64e"}, "geometry": {"type": "Point", "coordinates": [0.2763976917372115, 51.48729747369266]}},
{"type": "Feature", "id": "dxGfLQlt44CYiQ5Bac2t61ZnukE=", "properties": {"ref": "ipswich", "@spider": "wrenkitchens_gb", "shop": "kitchen", "addr:street_address": "Ransomes Euro Retail Park, The Sandlings", "addr:city": "Ipswich", "addr:state": "Suffolk", "addr:postcode": "IP3 9SN", "addr:country": "GB", "name": "Wren Kitchens Ipswich showroom", "phone": "01473 353105", "website": "https://www.wrenkitchens.com/showrooms/ipswich", "opening_hours": "Mo-Fr 09:00-20:00; Sa 09:00-18:00; Su 10:30-17:00", "image": "https://image.wrenkitchens.com/location/ipswich.jpg?q=100&amp;w=0&amp;h=0&amp;fit=contain&amp;s=a97aecd64352cda61a0174e675167224", "brand": "Wren Kitchens", "brand:wikidata": "Q8037744", "nsi_id": "wrenkitchens-26c64e"}},
{"type": "Feature", "id": "KlcXTXp5HHsqEFDdTdhj8Fea8Wo=", "properties": {"ref": "harlow", "@spider": "wrenkitchens_gb", "shop": "kitchen", "addr:street_address": "The Queensgate Centre, Edinburgh Way", "addr:city": "Harlow", "addr:state": "Essex", "addr:postcode": "CM20 2DA", "addr:country": "GB", "name": "Wren Kitchens Harlow showroom", "phone": "01279 215345", "website": "https://www.wrenkitchens.com/showrooms/harlow", "opening_hours": "Mo-Fr 09:00-20:00; Sa 09:00-18:00; Su 10:30-17:00", "image": "https://image.wrenkitchens.com/location/harlow.jpg?q=100&amp;w=0&amp;h=0&amp;fit=contain&amp;s=e92725a3977e0477355308efb887b221", "brand": "Wren Kitchens", "brand:wikidata": "Q8037744", "nsi_id": "wrenkitchens-26c64e"}, "geometry": {"type": "Point", "coordinates": [0.1096053880606154, 51.78408471032204]}},
{"type": "Feature", "id": "-PML4JbLo5WJfwEic0texWvemck=", "properties": {"ref": "colchester", "@spider": "wrenkitchens_gb", "shop": "kitchen", "addr:street_address": "Tollgate Centre Retail Park, Stanway", "addr:city": "Colchester", "addr:state": "Essex", "addr:postcode": "CO3 8RG", "addr:country": "GB", "name": "Wren Kitchens Colchester showroom", "phone": "01206 585121", "website": "https://www.wrenkitchens.com/showrooms/colchester", "opening_hours": "Mo-Fr 09:00-20:00; Sa 09:00-18:00; Su 10:30-17:00", "image": "https://image.wrenkitchens.com/location/colchester.jpg?q=100&amp;w=0&amp;h=0&amp;fit=contain&amp;s=66ba03255867f10c1ae6d9637b7e9448", "brand": "Wren Kitchens", "brand:wikidata": "Q8037744", "nsi_id": "wrenkitchens-26c64e"}, "geometry": {"type": "Point", "coordinates": [0.8345334125518412, 51.88455269223394]}},
{"type": "Feature", "id": "UITcez9LehnNsNU-O6IpDJWSdTU=", "properties": {"ref": "chelmsford", "@spider": "wrenkitchens_gb", "shop": "kitchen", "addr:street_address": "Chelmer Village Retail Park, Chelmer Village Way", "addr:city": "Chelmsford", "addr:state": "Essex", "addr:postcode": "CM2 6XE", "addr:country": "GB", "name": "Wren Kitchens Chelmsford showroom", "phone": "01245 200903", "website": "https://www.wrenkitchens.com/showrooms/chelmsford", "opening_hours": "Mo-Fr 09:00-20:00; Sa 09:00-18:00; Su 10:30-17:00", "image": "https://image.wrenkitchens.com/location/chelmsford.jpg?q=100&amp;w=0&amp;h=0&amp;fit=contain&amp;s=922f3470c3a3ffca918683d2a89e71c1", "brand": "Wren Kitchens", "brand:wikidata": "Q8037744", "nsi_id": "wrenkitchens-26c64e"}, "geometry": {"type": "Point", "coordinates": [0.4940828990946172, 51.73217869047362]}},
{"type": "Feature", "id": "0AVVCLrn1bM58zzYC8tE4KBnFOo=", "properties": {"ref": "cambridge", "@spider": "wrenkitchens_gb", "shop": "kitchen", "addr:street_address": "The Beehive Centre, Coldhams Lane", "addr:city": "Cambridge", "addr:state": "Cambridgeshire", "addr:postcode": "CB1 3ER", "addr:country": "GB", "name": "Wren Kitchens Cambridge showroom", "phone": "01223 929010", "website": "https://www.wrenkitchens.com/showrooms/cambridge", "opening_hours": "Mo-Fr 09:00-20:00; Sa 09:00-18:00; Su 10:30-17:00", "image": "https://image.wrenkitchens.com/location/cambridge.jpg?q=100&amp;w=0&amp;h=0&amp;fit=contain&amp;s=d1727b9d2ecd2bc4325e5c234f249bb0", "brand": "Wren Kitchens", "brand:wikidata": "Q8037744", "nsi_id": "wrenkitchens-26c64e"}},
{"type": "Feature", "id": "UqIhaOPKUSwHeANVeIExWl4HEr8=", "properties": {"ref": "bedford", "@spider": "wrenkitchens_gb", "shop": "kitchen", "addr:street_address": "St. Johns Centre, Rope Walk", "addr:city": "Bedford", "addr:state": "Bedfordshire", "addr:postcode": "MK42 0XE", "addr:country": "GB", "name": "Wren Kitchens Bedford showroom", "phone": "01234 866444", "website": "https://www.wrenkitchens.com/showrooms/bedford", "opening_hours": "Mo-Fr 09:00-20:00; Sa 09:00-18:00; Su 10:30-17:00", "image": "https://image.wrenkitchens.com/location/bedford.jpg?q=100&amp;w=0&amp;h=0&amp;fit=contain&amp;s=fbbd3c840ba83493b779376dabbc2400", "brand": "Wren Kitchens", "brand:wikidata": "Q8037744", "nsi_id": "wrenkitchens-26c64e"}, "geometry": {"type": "Point", "coordinates": [-0.4592673359463761, 52.13042798893827]}},
{"type": "Feature", "id": "AznmAQfw-GP5YHDPpzQH8yH5YO8=", "properties": {"ref": "basildon", "@spider": "wrenkitchens_gb", "shop": "kitchen", "addr:street_address": "Pipps Hill Retail Park, Miles Gray Road", "addr:city": "Basildon", "addr:state": "Essex", "addr:postcode": "SS14 3AF", "addr:country": "GB", "name": "Wren Kitchens Basildon showroom", "phone": "01268 921846", "website": "https://www.wrenkitchens.com/showrooms/basildon", "opening_hours": "Mo-Fr 09:00-20:00; Sa 09:00-18:00; Su 10:30-17:00", "image": "https://image.wrenkitchens.com/location/basildon.jpg?q=100&amp;w=0&amp;h=0&amp;fit=contain&amp;s=9931aaa36fc88cee7682bdba2306021c", "brand": "Wren Kitchens", "brand:wikidata": "Q8037744", "nsi_id": "wrenkitchens-26c64e"}, "geometry": {"type": "Point", "coordinates": [0.4438098970802301, 51.58111388008034]}},
{"type": "Feature", "id": "xbmgjSQG_Fiyt2zdNTilPOafohA=", "properties": {"ref": "peterborough", "@spider": "wrenkitchens_gb", "shop": "kitchen", "addr:street_address": "Boulevard Retail Park, Maskew Avenue", "addr:city": "Peterborough", "addr:state": "Cambridgeshire", "addr:postcode": "PE1 2HS", "addr:country": "GB", "name": "Wren Kitchens Peterborough showroom", "phone": "01733 490099", "website": "https://www.wrenkitchens.com/showrooms/peterborough", "opening_hours": "Mo-Fr 09:00-20:00; Sa 09:00-18:00; Su 10:30-17:00", "image": "https://image.wrenkitchens.com/location/peterborough.jpg?q=70&amp;w=0&amp;h=0&amp;s=288abf8d8255f4ac39e7c7587e087332", "brand": "Wren Kitchens", "brand:wikidata": "Q8037744", "nsi_id": "wrenkitchens-26c64e"}},
{"type": "Feature", "id": "JHlKrxeUxoY24ZhDML34Oanka0g=", "properties": {"ref": "nottingham", "@spider": "wrenkitchens_gb", "shop": "kitchen", "addr:street_address": "Castle Meadows Retail Park, Castle Bridge Road", "addr:city": "Nottingham", "addr:state": "Nottinghamshire", "addr:postcode": "NG7 1GX", "addr:country": "GB", "name": "Wren Kitchens Nottingham showroom", "phone": "01158 962452", "website": "https://www.wrenkitchens.com/showrooms/nottingham", "opening_hours": "Mo-Fr 09:00-20:00; Sa 09:00-18:00; Su 10:30-17:00", "image": "https://image.wrenkitchens.com/location/nottingham.jpg?q=100&amp;w=0&amp;h=0&amp;fit=contain&amp;s=f3e314eedc7391139ad7d38a4b1cd2ad", "brand": "Wren Kitchens", "brand:wikidata": "Q8037744", "nsi_id": "wrenkitchens-26c64e"}},
{"type": "Feature", "id": "R9jnU3TPI04pZCFJawdX2AEH_cw=", "properties": {"ref": "northampton", "@spider": "wrenkitchens_gb", "shop": "kitchen", "addr:street_address": "Unit 4b Nene Valley Retail Park, Towcester Road", "addr:city": "Northampton", "addr:state": "Northamptonshire", "addr:postcode": "NN1 1ET", "addr:country": "GB", "name": "Wren Kitchens Northampton showroom", "phone": "01604 333999", "website": "https://www.wrenkitchens.com/showrooms/northampton", "opening_hours": "Mo-Fr 09:00-20:00; Sa 09:00-18:00; Su 10:30-17:00", "image": "https://image.wrenkitchens.com/location/northampton.jpg?q=70&amp;w=0&amp;h=0&amp;s=e4fd88803b9ef5f2813a7e4cee7b9ed2", "brand": "Wren Kitchens", "brand:wikidata": "Q8037744", "nsi_id": "wrenkitchens-26c64e"}, "geometry": {"type": "Point", "coordinates": [-0.9053930591028987, 52.23163038438565]}},
{"type": "Feature", "id": "hOitj1kFKkk7KWb_UDF0jXzU9Gc=", "properties": {"ref": "mansfield", "@spider": "wrenkitchens_gb", "shop": "kitchen", "addr:street_address": "Portland Retail Park, Midland Way", "addr:city": "Mansfield", "addr:state": "Nottinghamshire", "addr:postcode": "NG18 1HA", "addr:country": "GB", "name": "Wren Kitchens Mansfield showroom", "phone": "01623 730744", "website": "https://www.wrenkitchens.com/showrooms/mansfield", "opening_hours": "Mo-Fr 09:00-20:00; Sa 09:00-18:00; Su 10:30-17:00", "image": "https://image.wrenkitchens.com/location/mansfield.jpg?q=70&amp;w=0&amp;h=0&amp;s=7b0c6e866353a82adf6bbe3dcfab0479", "brand": "Wren Kitchens", "brand:wikidata": "Q8037744", "nsi_id": "wrenkitchens-26c64e"}, "geometry": {"type": "Point", "coordinates": [-1.203252282574618, 53.1383226214662]}},
{"type": "Feature", "id": "B0ZAn4d3FIwr09D7AaWnRo1ILKs=", "properties": {"ref": "lincoln", "@spider": "wrenkitchens_gb", "shop": "kitchen", "addr:street_address": "Valentine Retail Park, Tritton Road", "addr:city": "Lincoln", "addr:state": "Lincolnshire", "addr:postcode": "LN6 7BH", "addr:country": "GB", "name": "Wren Kitchens Lincoln showroom", "phone": "01522 848225", "website": "https://www.wrenkitchens.com/showrooms/lincoln", "opening_hours": "Mo-Fr 09:00-20:00; Sa 09:00-18:00; Su 10:30-17:00", "image": "https://image.wrenkitchens.com/location/lincoln.jpg?q=100&amp;w=0&amp;h=0&amp;fit=contain&amp;s=6ca13abee6eed3ad5b887cab6896ff87", "brand": "Wren Kitchens", "brand:wikidata": "Q8037744", "nsi_id": "wrenkitchens-26c64e"}, "geometry": {"type": "Point", "coordinates": [-0.5585914791344676, 53.22113234117468]}},
{"type": "Feature", "id": "ANegAfVAqVHrMI7OrlPGVcsahWE=", "properties": {"ref": "leicester", "@spider": "wrenkitchens_gb", "shop": "kitchen", "addr:street_address": "Unit 10a, St. Georges Retail Park", "addr:city": "Leicester", "addr:state": "Leicestershire", "addr:postcode": "LE11SG", "addr:country": "GB", "name": "Wren Kitchens Leicester showroom", "phone": "01163 667920", "website": "https://www.wrenkitchens.com/showrooms/leicester", "opening_hours": "Mo-Fr 09:00-20:00; Sa 09:00-18:00; Su 10:30-17:00", "image": "https://image.wrenkitchens.com/location/leicester.jpg?q=100&amp;w=0&amp;h=0&amp;fit=contain&amp;s=dc8891fa971c25a685ef0659aae5683e", "brand": "Wren Kitchens", "brand:wikidata": "Q8037744", "nsi_id": "wrenkitchens-26c64e"}, "geometry": {"type": "Point", "coordinates": [-1.121236879538361, 52.63672585482485]}},
{"type": "Feature", "id": "YnbyFWf9RLZNr6wKPFjBioLX9n8=", "properties": {"ref": "hereford", "@spider": "wrenkitchens_gb", "shop": "kitchen", "addr:street_address": "Unit 3 - Hereford Retail Park, Newtown Road", "addr:city": "Hereford", "addr:state": "Herefordshire", "addr:postcode": "HR4 9NY", "addr:country": "GB", "name": "Wren Kitchens Hereford showroom", "phone": "01432 804482", "website": "https://www.wrenkitchens.com/showrooms/hereford", "opening_hours": "Mo-Fr 09:00-20:00; Sa 09:00-18:00; Su 10:30-17:00", "image": "https://image.wrenkitchens.com/location/hereford.jpg?q=70&amp;w=0&amp;h=0&amp;s=491a8beb04bae84655f663f419946bf8", "brand": "Wren Kitchens", "brand:wikidata": "Q8037744", "nsi_id": "wrenkitchens-26c64e"}},
{"type": "Feature", "id": "iy8cfAvVu3LOWoxp2wKNgO4f0go=", "properties": {"ref": "derby", "@spider": "wrenkitchens_gb", "shop": "kitchen", "addr:street_address": "Unit 2b Meteor Retail Park, Mansfield Road", "addr:city": "Derby", "addr:state": "Derbyshire", "addr:postcode": "DE21 4SY", "addr:country": "GB", "name": "Wren Kitchens Derby showroom", "phone": "01332 960094", "website": "https://www.wrenkitchens.com/showrooms/derby", "opening_hours": "Mo-Fr 09:00-20:00; Sa 09:00-18:00; Su 10:30-17:00", "image": "https://image.wrenkitchens.com/location/derby.jpg?q=100&amp;w=0&amp;h=0&amp;fit=contain&amp;s=a0bd3ba263e102e9845b5b2f1cbac5b7", "brand": "Wren Kitchens", "brand:wikidata": "Q8037744", "nsi_id": "wrenkitchens-26c64e"}, "geometry": {"type": "Point", "coordinates": [-1.464795965447825, 52.9408776927277]}}]}