{"type":"FeatureCollection","features":[{"type": "Feature", "id": "iVlOmBEK3TWFBTBBYzpnkgp3b5s=", "properties": {"ref": "bg100000090", "@spider": "yettel_bg", "shop": "telecommunication", "addr:street_address": "\u0443\u043b. \u0413\u0435\u043e\u0440\u0433\u0438 \u0414\u0438\u043c\u0438\u0442\u0440\u043e\u0432 9", "addr:city": "\u0420\u0430\u0434\u043d\u0435\u0432\u043e", "addr:country": "BG", "name": "Yettel", "phone": "0417/39551", "brand": "Yettel", "brand:wikidata": "Q14915070", "nsi_id": "yettel-5ceaa9"}, "geometry": {"type": "Point", "coordinates": [25.933971, 42.289993]}},
{"type": "Feature", "id": "qSI6hTPTWflnYSJRiU6WxOWiEvM=", "properties": {"ref": "bg100000091", "@spider": "yettel_bg", "shop": "telecommunication", "addr:street_address": "\u0443\u043b. \u041a\u043d\u044f\u0437 \u0411\u043e\u0440\u0438\u0441 I 16", "addr:city": "\u041f\u044a\u0440\u0432\u043e\u043c\u0430\u0439", "addr:country": "BG", "name": "Yettel", "phone": "033690050, 0898192888", "brand": "Yettel", "brand:wikidata": "Q14915070", "nsi_id": "yettel-5ceaa9"}, "geometry": {"type": "Point", "coordinates": [25.224854, 42.099249]}},
{"type": "Feature", "id": "jmxbBKoj7Xzw0uinmhuvl-4L-0s=", "properties": {"ref": "bg100000099", "@spider": "yettel_bg", "shop": "telecommunication", "addr:street_address": "\u0443\u043b. \u041a\u043d\u044f\u0437 \u0411\u043e\u0440\u0438\u0441 I 1", "addr:city": "\u0413\u043e\u0440\u043d\u0430 \u041e\u0440\u044f\u0445\u043e\u0432\u0438\u0446\u0430", "addr:country": "BG", "name": "Yettel", "phone": "061899059, 0898192697", "brand": "Yettel", "brand:wikidata": "Q14915070", "nsi_id": "yettel-5ceaa9"}, "geometry": {"type": "Point", "coordinates": [25.69191, 43.1225]}},
{"type": "Feature", "id": "GCShv_b9WhIC2oi6axWgaC0kAeA=", "properties": {"ref": "bg100000093", "@spider": "yettel_bg", "shop": "telecommunication", "addr:street_address": "\u0443\u043b. \u0411\u0435\u043b\u043e\u0432\u0438\u0434\u043e\u0432\u043e, \u0431\u043b. 192", "addr:city": "\u0417\u043b\u0430\u0442\u043e\u0433\u0440\u0430\u0434", "addr:country": "BG", "name": "Yettel", "phone": "030719122, 0898196989", "brand": "Yettel", "brand:wikidata": "Q14915070", "nsi_id": "yettel-5ceaa9"}, "geometry": {"type": "Point", "coordinates": [25.097242, 41.379276]}},
{"type": "Feature", "id": "j4dEpE-V-WPoT4io2TCQeKyONeM=", "properties": {"ref": "bg100000095", "@spider": "yettel_bg", "shop": "telecommunication", "addr:street_address": "\u0443\u043b. \u0426\u0430\u0440 \u0411\u043e\u0440\u0438\u0441 III 20", "addr:city": "\u041f\u0435\u0442\u0440\u0438\u0447", "addr:country": "BG", "name": "Yettel", "phone": "0745/90771, 0898196771", "brand": "Yettel", "brand:wikidata": "Q14915070", "nsi_id": "yettel-5ceaa9"}, "geometry": {"type": "Point", "coordinates": [23.20751, 41.39471]}},
{"type": "Feature", "id": "UpQcm_tP0Nh_h5t9CphE9PR_AHw=", "properties": {"ref": "bg100000097", "@spider": "yettel_bg", "shop": "telecommunication", "addr:street_address": "\u0443\u043b. \u0428\u0435\u0439\u043d\u043e\u0432\u043e 6 (\u0411\u0438\u0437\u043d\u0435\u0441 \u0446\u0435\u043d\u0442\u044a\u0440-\u043f\u0430\u0440\u0442\u0435\u0440)", "addr:city": "\u0420\u0430\u0437\u043b\u043e\u0433", "addr:country": "BG", "name": "Yettel", "phone": "074799057, 0898192943", "brand": "Yettel", "brand:wikidata": "Q14915070", "nsi_id": "yettel-5ceaa9"}, "geometry": {"type": "Point", "coordinates": [23.4669, 41.88514]}},
{"type": "Feature", "id": "TQrqkIBgWL0BfMXccrPerlYMn8w=", "properties": {"ref": "bg100000098", "@spider": "yettel_bg", "shop": "telecommunication", "addr:street_address": "\u0443\u043b. \u0413\u0435\u043e\u0440\u0433\u0438 \u0411\u0435\u043d\u043a\u043e\u0432\u0441\u043a\u0438 32", "addr:city": "\u041f\u0430\u043d\u0430\u0433\u044e\u0440\u0438\u0449\u0435", "addr:country": "BG", "name": "Yettel", "phone": "035795005, 0898194705", "brand": "Yettel", "brand:wikidata": "Q14915070", "nsi_id": "yettel-5ceaa9"}, "geometry": {"type": "Point", "coordinates": [24.18782, 42.500329]}},
{"type": "Feature", "id": "1JUDm1MmX02-DA8Lv98mArReIKs=", "properties": {"ref": "bg100000094", "@spider": "yettel_bg", "shop": "telecommunication", "addr:street_address": "\u0431\u0443\u043b. \u0422\u044a\u0440\u0433\u043e\u0432\u0441\u043a\u0438 1", "addr:city": "\u0421\u0442\u0430\u043c\u0431\u043e\u043b\u0438\u0439\u0441\u043a\u0438", "addr:country": "BG", "name": "Yettel", "phone": "033990050, 0898196150", "brand": "Yettel", "brand:wikidata": "Q14915070", "nsi_id": "yettel-5ceaa9"}, "geometry": {"type": "Point", "coordinates": [24.53537, 42.1325]}},
{"type": "Feature", "id": "Wsuswhorz-HDaIFIaX3CmXcNHO0=", "properties": {"ref": "bg100000096", "@spider": "yettel_bg", "shop": "telecommunication", "addr:street_address": "\u0443\u043b. \u0415\u043b\u0435\u043a\u0442\u0440\u0430, \u0435\u0442. 1, \u043e\u0431\u0435\u043a\u0442 8 \u0411\u0438\u043b\u043b\u0430 \u041f\u0430\u0440\u043a", "addr:city": "\u041a\u043e\u0441\u0442\u0438\u043d\u0431\u0440\u043e\u0434", "addr:country": "BG", "name": "Yettel", "phone": "072191010, 0898198410", "brand": "Yettel", "brand:wikidata": "Q14915070", "nsi_id": "yettel-5ceaa9"}, "geometry": {"type": "Point", "coordinates": [23.2102776, 42.8092664]}},
{"type": "Feature", "id": "fqJBpXek1QlCp19IXasguUjEaUc=", "properties": {"ref": "bg100000092", "@spider": "yettel_bg", "shop": "telecommunication", "addr:street_address": "\u0443\u043b. \u0413\u0435\u043d. \u041a\u0430\u0440\u0446\u043e\u0432 43", "addr:city": "\u041a\u0430\u0440\u043b\u043e\u0432\u043e", "addr:country": "BG", "name": "Yettel", "phone": "033559050, 0898196050", "brand": "Yettel", "brand:wikidata": "Q14915070", "nsi_id": "yettel-5ceaa9"}, "geometry": {"type": "Point", "coordinates": [24.80789, 42.64191]}},
{"type": "Feature", "id": "LW0KV7rwoMtgMhbUPfbfo5VgDuY=", "properties": {"ref": "bg100000102", "@spider": "yettel_bg", "shop": "telecommunication", "addr:street_address": "\u0443\u043b. \u0410\u043b\u0435\u043a\u0441\u0430\u043d\u0434\u044a\u0440 \u0421\u0442\u0430\u043c\u0431\u043e\u043b\u0438\u0439\u0441\u043a\u0438 32", "addr:city": "\u041b\u0435\u0432\u0441\u043a\u0438", "addr:country": "BG", "name": "Yettel", "phone": "065090003, 0898194872", "brand": "Yettel", "brand:wikidata": "Q14915070", "nsi_id": "yettel-5ceaa9"}, "geometry": {"type": "Point", "coordinates": [25.14265, 43.36025]}},
{"type": "Feature", "id": "ox-34y18KLQOL_CNwP4rTqnSpgw=", "properties": {"ref": "bg100000103", "@spider": "yettel_bg", "shop": "telecommunication", "addr:street_address": "\u0443\u043b. \u041c\u0430\u043a\u0435\u0434\u043e\u043d\u0438\u044f 1", "addr:city": "\u0421\u0438\u043c\u0438\u0442\u043b\u0438", "addr:country": "BG", "name": "Yettel", "phone": "074859090, 0898196090", "brand": "Yettel", "brand:wikidata": "Q14915070", "nsi_id": "yettel-5ceaa9"}, "geometry": {"type": "Point", "coordinates": [23.11217, 41.89208]}},
{"type": "Feature", "id": "zKxVQXRUxdrdWPepQ3X-M4PyDUU=", "properties": {"ref": "bg100000104", "@spider": "yettel_bg", "shop": "telecommunication", "addr:street_address": "\u0443\u043b. \u0426\u0430\u0440 \u041e\u0441\u0432\u043e\u0431\u043e\u0434\u0438\u0442\u0435\u043b 2", "addr:city": "\u041e\u043c\u0443\u0440\u0442\u0430\u0433", "addr:country": "BG", "name": "Yettel", "phone": "060587050, 0898194950", "brand": "Yettel", "brand:wikidata": "Q14915070", "nsi_id": "yettel-5ceaa9"}, "geometry": {"type": "Point", "coordinates": [26.41698, 43.10854]}},
{"type": "Feature", "id": "52GRyeHWzdU7Ro9JFor6GfKB8so=", "properties": {"ref": "bg100000105", "@spider": "yettel_bg", "shop": "telecommunication", "addr:street_address": "\u0431\u0443\u043b. \u0411\u044a\u043b\u0433\u0430\u0440\u0438\u044f 78", "addr:city": "\u041f\u043e\u043f\u043e\u0432\u043e", "addr:country": "BG", "name": "Yettel", "phone": "060857235, 0898194563", "brand": "Yettel", "brand:wikidata": "Q14915070", "nsi_id": "yettel-5ceaa9"}, "geometry": {"type": "Point", "coordinates": [26.2249, 43.34893]}},
{"type": "Feature", "id": "bSElmyPsDgc7oQQ-fDLF6ciF56Q=", "properties": {"ref": "bg100000106", "@spider": "yettel_bg", "shop": "telecommunication", "addr:street_address": "\u0443\u043b. \u0411\u044a\u043b\u0433\u0430\u0440\u0438\u044f 59", "addr:city": "\u041a\u0430\u0432\u0430\u0440\u043d\u0430", "addr:country": "BG", "name": "Yettel", "phone": "0570/84440", "brand": "Yettel", "brand:wikidata": "Q14915070", "nsi_id": "yettel-5ceaa9"}, "geometry": {"type": "Point", "coordinates": [28.33801, 43.43551]}},
{"type": "Feature", "id": "euTKMqV36USzjLRfx_wyuRW1JzE=", "properties": {"ref": "bg100000107", "@spider": "yettel_bg", "shop": "telecommunication", "addr:street_address": "\u0443\u043b. \u0427\u0435\u0440\u043d\u043e \u043c\u043e\u0440\u0435 32 \u0410", "addr:city": "\u0411\u0430\u043b\u0447\u0438\u043a", "addr:country": "BG", "name": "Yettel", "phone": "057990059, 0898194459", "brand": "Yettel", "brand:wikidata": "Q14915070", "nsi_id": "yettel-5ceaa9"}, "geometry": {"type": "Point", "coordinates": [28.16553, 43.40944]}},
{"type": "Feature", "id": "C_wv-dRU-ytEtFuGD28cRcyyVuM=", "properties": {"ref": "bg100000089", "@spider": "yettel_bg", "shop": "telecommunication", "addr:street_address": "\u0431\u0443\u043b. \u0420\u0435\u043f\u0443\u0431\u043b\u0438\u043a\u0430, \u0431\u043b. 4", "addr:city": "\u0413\u044a\u043b\u044a\u0431\u043e\u0432\u043e", "addr:country": "BG", "name": "Yettel", "phone": "0418/93500", "brand": "Yettel", "brand:wikidata": "Q14915070", "nsi_id": "yettel-5ceaa9"}, "geometry": {"type": "Point", "coordinates": [25.86653, 42.13875]}},
{"type": "Feature", "id": "w5MxGAVCLumM71by1TiwrmZGHn0=", "properties": {"ref": "bg100000087", "@spider": "yettel_bg", "shop": "telecommunication", "addr:street_address": "\u043f\u043b. \u0421\u0432\u043e\u0431\u043e\u0434\u0430 5", "addr:city": "\u0421\u0435\u0432\u043b\u0438\u0435\u0432\u043e", "addr:country": "BG", "name": "Yettel", "phone": "067594914, 0898192696", "brand": "Yettel", "brand:wikidata": "Q14915070", "nsi_id": "yettel-5ceaa9"}, "geometry": {"type": "Point", "coordinates": [25.103399, 43.0266]}},
{"type": "Feature", "id": "SKN_MZGxvdl-4fwQkz3UJrupQMU=", "properties": {"ref": "bg100000088", "@spider": "yettel_bg", "shop": "telecommunication", "addr:street_address": "\u0443\u043b. \u0425\u0430\u0434\u0436\u0438 \u0414\u0438\u043c\u0438\u0442\u044a\u0440 6", "addr:city": "\u0411\u044f\u043b\u0430", "addr:country": "BG", "name": "Yettel", "phone": "0817/99540", "brand": "Yettel", "brand:wikidata": "Q14915070", "nsi_id": "yettel-5ceaa9"}, "geometry": {"type": "Point", "coordinates": [25.7393, 43.45868]}},
{"type": "Feature", "id": "5z4d2GqYtMFkKWYz_Q3aWkP1GZI=", "properties": {"ref": "bg100258001", "@spider": "yettel_bg", "shop": "telecommunication", "addr:street_address": "\u0443\u043b. \u041f\u0430\u0443\u0442\u0430\u043b\u0438\u044f 20-22", "addr:city": "\u041a\u044e\u0441\u0442\u0435\u043d\u0434\u0438\u043b", "addr:country": "BG", "name": "Yettel", "phone": "078920788, 0898194788", "brand": "Yettel", "brand:wikidata": "Q14915070", "nsi_id": "yettel-5ceaa9"}, "geometry": {"type": "Point", "coordinates": [22.69008, 42.28045]}},
{"type": "Feature", "id": "aggFWrKlS7ZX0yAo89Uxs8S8RGI=", "properties": {"ref": "bg100000083", "@spider": "yettel_bg", "shop": "telecommunication", "addr:street_address": "\u043f\u043b. \u0421\u0432\u043e\u0431\u043e\u0434\u0430 19", "addr:city": "\u0420\u0430\u0434\u043e\u043c\u0438\u0440", "addr:country": "BG", "name": "Yettel", "phone": "077790049, 0898196049", "brand": "Yettel", "brand:wikidata": "Q14915070", "nsi_id": "yettel-5ceaa9"}, "geometry": {"type": "Point", "coordinates": [22.96464, 42.54727]}},
{"type": "Feature", "id": "4AiGGLdh0R1S3TMHjr5D4to7Hhk=", "properties": {"ref": "bg100000085", "@spider": "yettel_bg", "shop": "telecommunication", "addr:street_address": "\u0443\u043b. \u0412\u0430\u0441\u0438\u043b \u041b\u0435\u0432\u0441\u043a\u0438 16", "addr:city": "\u0414\u0443\u043b\u043e\u0432\u043e", "addr:country": "BG", "name": "Yettel", "phone": "086420820, 0898194720", "brand": "Yettel", "brand:wikidata": "Q14915070", "nsi_id": "yettel-5ceaa9"}, "geometry": {"type": "Point", "coordinates": [27.14083, 43.82361]}},
{"type": "Feature", "id": "MSEDJKJNAU1Qqy2nCnQVnDPd5l0=", "properties": {"ref": "bg100000086", "@spider": "yettel_bg", "shop": "telecommunication", "addr:street_address": "\u0443\u043b. \u0413\u0435\u043e \u041c\u0438\u043b\u0435\u0432 1", "addr:city": "\u0422\u0443\u0442\u0440\u0430\u043a\u0430\u043d", "addr:country": "BG", "name": "Yettel", "phone": "086600110, 0898194510", "brand": "Yettel", "brand:wikidata": "Q14915070", "nsi_id": "yettel-5ceaa9"}, "geometry": {"type": "Point", "coordinates": [26.61658, 44.0463]}},
{"type": "Feature", "id": "p64a1WIA1bxxw0WKbxi3vit5TSw=", "properties": {"ref": "bg100240001", "@spider": "yettel_bg", "shop": "telecommunication", "addr:street_address": "\u0443\u043b, \u0411\u0435\u043b\u043c\u0435\u043a\u0435\u043d 4", "addr:city": "\u041a\u043e\u0441\u0442\u0435\u043d\u0435\u0446", "addr:country": "BG", "name": "Yettel", "phone": "071429009, 0898194309", "brand": "Yettel", "brand:wikidata": "Q14915070", "nsi_id": "yettel-5ceaa9"}, "geometry": {"type": "Point", "coordinates": [23.85766, 42.30721]}},
{"type": "Feature", "id": "PSdBNVRZOIzD9tR2lbr0z2B528w=", "properties": {"ref": "bg100241001", "@spider": "yettel_bg", "shop": "telecommunication", "addr:street_address": "\u0443\u043b. \u0413\u0435\u043e\u0440\u0433\u0438 \u0411\u0435\u043d\u043a\u043e\u0432\u0441\u043a\u0438 32", "addr:city": "\u041f\u0430\u043d\u0430\u0433\u044e\u0440\u0438\u0449\u0435", "addr:postcode": "4500", "addr:country": "BG", "name": "Yettel", "phone": "035795005, 0898194705", "brand": "Yettel", "brand:wikidata": "Q14915070", "nsi_id": "yettel-5ceaa9"}, "geometry": {"type": "Point", "coordinates": [24.18782, 42.50033]}},
{"type": "Feature", "id": "IJiS1PFTVGdzBMlfRgKYOkD56wA=", "properties": {"ref": "bg100243001", "@spider": "yettel_bg", "shop": "telecommunication", "addr:street_address": "\u043a\u0432. \u0421\u0435\u043a\u0438\u0440\u043e\u0432\u043e, \u0443\u043b. \u041f\u0435\u0442\u044a\u0440 \u0411\u043e\u0433\u0434\u0430\u043d 77\u0410", "addr:city": "\u0420\u0430\u043a\u043e\u0432\u0441\u043a\u0438", "addr:country": "BG", "name": "Yettel", "phone": "031510950, 0898196950", "brand": "Yettel", "brand:wikidata": "Q14915070", "nsi_id": "yettel-5ceaa9"}, "geometry": {"type": "Point", "coordinates": [24.94341, 42.27167]}},
{"type": "Feature", "id": "Akag01YVhlPoMl-TyRx7tT0tEXA=", "properties": {"ref": "bg100244001", "@spider": "yettel_bg", "shop": "telecommunication", "addr:street_address": "\u0443\u043b. \u0413\u0435\u043d. \u041a\u0430\u0440\u0446\u043e\u0432 43", "addr:city": "\u041a\u0430\u0440\u043b\u043e\u0432\u043e", "addr:postcode": "4300", "addr:country": "BG", "name": "Yettel", "phone": "033559050, 0898196050", "brand": "Yettel", "brand:wikidata": "Q14915070", "nsi_id": "yettel-5ceaa9"}, "geometry": {"type": "Point", "coordinates": [24.80789, 42.64191]}},
{"type": "Feature", "id": "l-swA5mPY1-LD2t8IxoTVogXD3Y=", "properties": {"ref": "bg100245001", "@spider": "yettel_bg", "shop": "telecommunication", "addr:street_address": "\u0443\u043b. \u0414\u0438\u043c\u0438\u0442\u044a\u0440 \u0413\u0440\u044a\u043d\u0447\u0430\u0440\u043e\u0432 14", "addr:city": "\u041f\u0440\u043e\u0432\u0430\u0434\u0438\u044f", "addr:country": "BG", "name": "Yettel", "phone": "051859080, 0898194880", "brand": "Yettel", "brand:wikidata": "Q14915070", "nsi_id": "yettel-5ceaa9"}, "geometry": {"type": "Point", "coordinates": [27.4439, 43.18014]}},
{"type": "Feature", "id": "-tH3TUP2GyW-u2HgCADixNUAj1U=", "properties": {"ref": "bg100250001", "@spider": "yettel_bg", "shop": "telecommunication", "addr:street_address": "\u043f\u043b. \u0412\u044a\u0437\u0440\u0430\u0436\u0434\u0430\u043d\u0435 2", "addr:city": "\u041a\u0443\u0431\u0440\u0430\u0442", "addr:country": "BG", "name": "Yettel", "phone": "084890824, 0898194565", "brand": "Yettel", "brand:wikidata": "Q14915070", "nsi_id": "yettel-5ceaa9"}, "geometry": {"type": "Point", "coordinates": [26.49927, 43.7966]}},
{"type": "Feature", "id": "XwD3iuZwWt5ZotcCVoCgnLD-yJY=", "properties": {"ref": "bg100251001", "@spider": "yettel_bg", "shop": "telecommunication", "addr:street_address": "\u0443\u043b. \u0418\u0432\u0430\u043d \u0412\u0430\u0437\u043e\u0432 36", "addr:city": "\u0425\u0438\u0441\u0430\u0440\u044f", "addr:country": "BG", "name": "Yettel", "phone": "35933790290, 0898196290", "brand": "Yettel", "brand:wikidata": "Q14915070", "nsi_id": "yettel-5ceaa9"}, "geometry": {"type": "Point", "coordinates": [24.7015, 42.50618]}},
{"type": "Feature", "id": "_KUL-7eVKe5CMQyTsyXUVWsXRxg=", "properties": {"ref": "bg100252001", "@spider": "yettel_bg", "shop": "telecommunication", "addr:street_address": "\u0431\u0443\u043b. \u0422\u044a\u0440\u0433\u043e\u0432\u0441\u043a\u0438 1", "addr:city": "\u0421\u0442\u0430\u043c\u0431\u043e\u043b\u0438\u0439\u0441\u043a\u0438", "addr:postcode": "4210", "addr:country": "BG", "name": "Yettel", "phone": "033990050, 0898196150", "brand": "Yettel", "brand:wikidata": "Q14915070", "nsi_id": "yettel-5ceaa9"}, "geometry": {"type": "Point", "coordinates": [24.5353136, 42.1326906]}},
{"type": "Feature", "id": "yCGpWGTtS3_a0Zx1tuF4TC76cro=", "properties": {"ref": "bg100253001", "@spider": "yettel_bg", "shop": "telecommunication", "addr:street_address": "\u0431\u0443\u043b. \u0420\u0435\u043f\u0443\u0431\u043b\u0438\u043a\u0430, \u0431\u043b. 4", "addr:city": "\u0413\u044a\u043b\u044a\u0431\u043e\u0432\u043e", "addr:postcode": "6280", "addr:country": "BG", "name": "Yettel", "phone": "0418/93500", "brand": "Yettel", "brand:wikidata": "Q14915070", "nsi_id": "yettel-5ceaa9"}, "geometry": {"type": "Point", "coordinates": [25.86653, 42.13875]}},
{"type": "Feature", "id": "OO6MRYNxsffl8DS1H6NbW1JTs6M=", "properties": {"ref": "bg100248002", "@spider": "yettel_bg", "shop": "telecommunication", "addr:street_address": "\u0431\u0443\u043b. \u0421\u044a\u0435\u0434\u0438\u043d\u0435\u043d\u0438\u0435 206", "addr:city": "\u0412\u0435\u043b\u0438\u043d\u0433\u0440\u0430\u0434", "addr:country": "BG", "name": "Yettel", "phone": "0359/79001, 0898196001", "brand": "Yettel", "brand:wikidata": "Q14915070", "nsi_id": "yettel-5ceaa9"}, "geometry": {"type": "Point", "coordinates": [23.991336, 42.025351]}},
{"type": "Feature", "id": "0f_vPjJrNjKfYpOF4XxjZkOokhQ=", "properties": {"ref": "bg100242002", "@spider": "yettel_bg", "shop": "telecommunication", "addr:street_address": "\u043f\u043b. \u0411\u044a\u043b\u0433\u0430\u0440\u0438\u044f (\u0422\u044a\u0440\u0433\u043e\u0432\u0441\u043a\u0438 \u0446\u0435\u043d\u0442\u044a\u0440)", "addr:city": "\u041f\u0435\u0449\u0435\u0440\u0430", "addr:country": "BG", "name": "Yettel", "phone": "035099005, 0898196105", "brand": "Yettel", "brand:wikidata": "Q14915070", "nsi_id": "yettel-5ceaa9"}, "geometry": {"type": "Point", "coordinates": [24.30185, 42.03178]}},
{"type": "Feature", "id": "yavsjrq08EXfcNpQibn4g-I4xnQ=", "properties": {"ref": "bg100255001", "@spider": "yettel_bg", "shop": "telecommunication", "addr:street_address": "\u0443\u043b. \u0413\u0435\u043e\u0440\u0433\u0438 \u0414\u0438\u043c\u0438\u0442\u0440\u043e\u0432 9", "addr:city": "\u0420\u0430\u0434\u043d\u0435\u0432\u043e", "addr:postcode": "6260", "addr:country": "BG", "name": "Yettel", "phone": "0417/39551", "brand": "Yettel", "brand:wikidata": "Q14915070", "nsi_id": "yettel-5ceaa9"}, "geometry": {"type": "Point", "coordinates": [25.933971, 42.289993]}},
{"type": "Feature", "id": "fr4MVj2hnHOjsgohSi0K_xh1744=", "properties": {"ref": "bg100254001", "@spider": "yettel_bg", "shop": "telecommunication", "addr:street_address": "\u0443\u043b. \u0425\u0430\u043d \u041a\u0440\u0443\u043c 11", "addr:city": "\u041d\u0435\u0441\u0435\u0431\u044a\u0440", "addr:country": "BG", "name": "Yettel", "phone": "055459449, 0898192438", "brand": "Yettel", "brand:wikidata": "Q14915070", "nsi_id": "yettel-5ceaa9"}, "geometry": {"type": "Point", "coordinates": [27.71849, 42.66322]}},
{"type": "Feature", "id": "ztlydhMwSJMJMCk_XL2c9iM6RoI=", "properties": {"ref": "bg100256001", "@spider": "yettel_bg", "shop": "telecommunication", "addr:street_address": "\u0443\u043b. \u041a\u043d\u044f\u0437 \u0411\u043e\u0440\u0438\u0441 I 60", "addr:city": "\u041f\u043e\u043c\u043e\u0440\u0438\u0435", "addr:country": "BG", "name": "Yettel", "phone": "059653063, 0898194063", "brand": "Yettel", "brand:wikidata": "Q14915070", "nsi_id": "yettel-5ceaa9"}, "geometry": {"type": "Point", "coordinates": [27.6399, 42.557098]}},
{"type": "Feature", "id": "4Vyt1Vzpae29Ic8giI4oFLiwSgg=", "properties": {"ref": "bg100257001", "@spider": "yettel_bg", "shop": "telecommunication", "addr:street_address": "\u0443\u043b. \u041a\u043d\u044f\u0437 \u0411\u043e\u0440\u0438\u0441 I 16", "addr:city": "\u041f\u044a\u0440\u0432\u043e\u043c\u0430\u0439", "addr:postcode": "4270", "addr:country": "BG", "name": "Yettel", "phone": "033690050, 0898192888", "brand": "Yettel", "brand:wikidata": "Q14915070", "nsi_id": "yettel-5ceaa9"}, "geometry": {"type": "Point", "coordinates": [25.224854, 42.099249]}},
{"type": "Feature", "id": "yArgXJAql3qv28VhvwPi8BwtZWQ=", "properties": {"ref": "bg100000084", "@spider": "yettel_bg", "shop": "telecommunication", "addr:street_address": "\u0443\u043b. \u0426\u0430\u0440 \u0421\u0438\u043c\u0435\u043e\u043d 43", "addr:city": "\u0411\u0430\u043d\u0441\u043a\u043e", "addr:country": "BG", "name": "Yettel", "phone": "07495/9022, 0898196122", "brand": "Yettel", "brand:wikidata": "Q14915070", "nsi_id": "yettel-5ceaa9"}, "geometry": {"type": "Point", "coordinates": [23.48723, 41.83958]}},
{"type": "Feature", "id": "4JnqkmlKpDUaRFVEaAWXyKq0W_Q=", "properties": {"ref": "bg100246001", "@spider": "yettel_bg", "shop": "telecommunication", "addr:street_address": "\u0443\u043b.\u041b\u0443\u0434\u043e\u0433\u043e\u0440\u0438\u0435 28", "addr:city": "\u0418\u0441\u043f\u0435\u0440\u0438\u0445", "addr:country": "BG", "name": "Yettel", "phone": "084319754, 0898194564", "brand": "Yettel", "brand:wikidata": "Q14915070", "nsi_id": "yettel-5ceaa9"}, "geometry": {"type": "Point", "coordinates": [26.82938, 43.71483]}},
{"type": "Feature", "id": "fHHYoIQeYGG-aTB8-5iRJT_vdik=", "properties": {"ref": "bg100249001", "@spider": "yettel_bg", "shop": "telecommunication", "addr:street_address": "\u0431\u0443\u043b. \u0411\u044a\u043b\u0433\u0430\u0440\u0438\u044f 78", "addr:city": "\u041f\u043e\u043f\u043e\u0432\u043e", "addr:postcode": "7800", "addr:country": "BG", "name": "Yettel", "phone": "060857235, 0898194563", "brand": "Yettel", "brand:wikidata": "Q14915070", "nsi_id": "yettel-5ceaa9"}, "geometry": {"type": "Point", "coordinates": [26.2249, 43.34893]}},
{"type": "Feature", "id": "th56n8hP3D-NwkrfidHQLpNxhFE=", "properties": {"ref": "bg100000082", "@spider": "yettel_bg", "shop": "telecommunication", "addr:street_address": "\u0443\u043b. \u201e\u0421\u0432.\u0421\u0432. \u041a\u0438\u0440\u0438\u043b \u0438 \u041c\u0435\u0442\u043e\u0434\u0438\u0439\u201c \u2116 53, \u0435\u04421", "addr:city": "\u0412\u0430\u0440\u043d\u0430", "addr:country": "BG", "name": "Yettel", "phone": "052915051; 0898192381", "brand": "Yettel", "brand:wikidata": "Q14915070", "nsi_id": "yettel-5ceaa9"}, "geometry": {"type": "Point", "coordinates": [27.896994, 43.179371]}},
{"type": "Feature", "id": "qtHfcBa1NzqYe7br6uh1yrK7SEg=", "properties": {"ref": "bg100000073", "@spider": "yettel_bg", "shop": "telecommunication", "addr:street_address": "\u0431\u0443\u043b. \u0421\u043b\u0438\u0432\u043d\u0438\u0446\u0430 185", "addr:city": "\u0412\u0430\u0440\u043d\u0430", "addr:country": "BG", "name": "Yettel", "phone": "052915064, 0898194064", "brand": "Yettel", "brand:wikidata": "Q14915070", "nsi_id": "yettel-5ceaa9"}, "geometry": {"type": "Point", "coordinates": [27.8746748, 43.22772545]}},
{"type": "Feature", "id": "oSLM727vb3k8DUyfF3yfK87JBF4=", "properties": {"ref": "bg100000081", "@spider": "yettel_bg", "shop": "telecommunication", "addr:street_address": "\u0430\u043a\u0430\u0434. \u0414\u043c\u0438\u0442\u0440\u0438\u0439 \u041b\u0438\u0445\u0430\u0447\u043e\u0432\u201c 58, \u0442\u044a\u0440\u0433. \u0446\u0435\u043d\u0442\u044a\u0440 \"\u0421\u0430\u043d\u0442\u0430\u0440\u0430\"", "addr:city": "\u0421\u043e\u0444\u0438\u044f", "addr:country": "BG", "name": "Yettel", "phone": "024152170;0898192170", "brand": "Yettel", "brand:wikidata": "Q14915070", "nsi_id": "yettel-5ceaa9"}, "geometry": {"type": "Point", "coordinates": [23.27729, 42.74162]}},
{"type": "Feature", "id": "zikYx1JbJfqwrKLr0HguHaAx8DI=", "properties": {"ref": "bg100000080", "@spider": "yettel_bg", "shop": "telecommunication", "addr:street_address": "\u0411\u0440\u0435\u0437\u043e\u0432\u0441\u043a\u043e \u0448\u043e\u0441\u0435 127", "addr:city": "\u041f\u043b\u043e\u0432\u0434\u0438\u0432", "addr:country": "BG", "name": "Yettel", "brand": "Yettel", "brand:wikidata": "Q14915070", "nsi_id": "yettel-5ceaa9"}, "geometry": {"type": "Point", "coordinates": [24.749267, 42.167727]}},
{"type": "Feature", "id": "jBnYLPBjTo40bx7FcawhYV_l8ZM=", "properties": {"ref": "bg100000079", "@spider": "yettel_bg", "shop": "telecommunication", "addr:street_address": "\u0443\u043b. \u041c\u0430\u043a\u0435\u0434\u043e\u043d\u0438\u044f 97\u0411", "addr:city": "\u041f\u043b\u043e\u0432\u0434\u0438\u0432", "addr:country": "BG", "name": "Yettel", "phone": "032515078;0898194078", "brand": "Yettel", "brand:wikidata": "Q14915070", "nsi_id": "yettel-5ceaa9"}, "geometry": {"type": "Point", "coordinates": [24.741208, 42.122947]}},
{"type": "Feature", "id": "9GkiSYrdJLtbj8GcTZeL-D92wDY=", "properties": {"ref": "bg100000078", "@spider": "yettel_bg", "shop": "telecommunication", "addr:street_address": "\u0431\u0443\u043b. \u041b\u0438\u043f\u043d\u0438\u043a 8", "addr:city": "\u0420\u0443\u0441\u0435", "addr:country": "BG", "name": "Yettel", "brand": "Yettel", "brand:wikidata": "Q14915070", "nsi_id": "yettel-5ceaa9"}, "geometry": {"type": "Point", "coordinates": [25.965881, 43.845814]}},
{"type": "Feature", "id": "eBcO4wE9oWkZDLB93-pPbo6Hk5o=", "properties": {"ref": "bg100000072", "@spider": "yettel_bg", "shop": "telecommunication", "addr:street_address": "\u0443\u043b. \u041e\u0442\u0435\u0446 \u041f\u0430\u0438\u0441\u0438\u0439 1", "addr:city": "\u0421\u0438\u043b\u0438\u0441\u0442\u0440\u0430", "addr:country": "BG", "name": "Yettel", "phone": "086520120; 0898196120", "brand": "Yettel", "brand:wikidata": "Q14915070", "nsi_id": "yettel-5ceaa9"}, "geometry": {"type": "Point", "coordinates": [27.26072, 44.11686]}},
{"type": "Feature", "id": "e8h5zTIiip-t1siKhUVQLyk5Fco=", "properties": {"ref": "bg100000056", "@spider": "yettel_bg", "shop": "telecommunication", "addr:street_address": "\u0431\u0443\u043b.\u0420\u0443\u0441\u043a\u0438 54, \u041c\u043e\u043b \u041c\u0430\u0440\u043a\u043e\u0432\u043e \u0422\u0435\u043f\u0435", "addr:city": "\u041f\u043b\u043e\u0432\u0434\u0438\u0432", "addr:country": "BG", "name": "Yettel", "phone": "032515059, 0898194059", "brand": "Yettel", "brand:wikidata": "Q14915070", "nsi_id": "yettel-5ceaa9"}, "geometry": {"type": "Point", "coordinates": [24.74149, 42.14135]}},
{"type": "Feature", "id": "lE_JXu_xue_mIjl3rcn60MvC_LA=", "properties": {"ref": "bg100000047", "@spider": "yettel_bg", "shop": "telecommunication", "addr:street_address": "\u043f\u043b. \u0418\u0432\u0430\u043d \u041c\u0438\u043d\u0434\u0438\u043b\u0438\u043a\u043e\u0432 1", "addr:city": "\u041f\u043b\u0435\u0432\u0435\u043d", "addr:country": "BG", "name": "Yettel", "phone": 35964990064, "brand": "Yettel", "brand:wikidata": "Q14915070", "nsi_id": "yettel-5ceaa9"}, "geometry": {"type": "Point", "coordinates": [24.61419, 43.4195]}},
{"type": "Feature", "id": "CnX78L2u04tA8DitDy7J6_nVvHE=", "properties": {"ref": "bg100000045", "@spider": "yettel_bg", "shop": "telecommunication", "addr:street_address": "\u041e\u043a\u043e\u043b\u043e\u0432\u0440\u044a\u0441\u0442\u0435\u043d \u043f\u044a\u0442 214", "addr:city": "\u0421\u043e\u0444\u0438\u044f", "addr:country": "BG", "name": "Yettel", "phone": "024152860, 0898192860", "brand": "Yettel", "brand:wikidata": "Q14915070", "nsi_id": "yettel-5ceaa9"}, "geometry": {"type": "Point", "coordinates": [23.352753, 42.624078]}},
{"type": "Feature", "id": "4l9TzesWF6z9KskVurax7uzd5TA=", "properties": {"ref": "bg100201001", "@spider": "yettel_bg", "shop": "telecommunication", "addr:street_address": "\u0443\u043b. \u0410\u043d\u0433\u0435\u043b \u041a\u044a\u043d\u0447\u0435\u0432 13", "addr:city": "\u0422\u0440\u044f\u0432\u043d\u0430", "addr:country": "BG", "name": "Yettel", "phone": "35967799080, 0898196880", "brand": "Yettel", "brand:wikidata": "Q14915070", "nsi_id": "yettel-5ceaa9"}, "geometry": {"type": "Point", "coordinates": [25.49127006, 42.86654468]}},
{"type": "Feature", "id": "_1jLDnOq8jmxLHtBONhhAoq3qaA=", "properties": {"ref": "bg100131040", "@spider": "yettel_bg", "shop": "telecommunication", "addr:street_address": "Serdika Center, \u0431\u0443\u043b. \u0421\u0438\u0442\u043d\u044f\u043a\u043e\u0432\u043e 48", "addr:city": "\u0421\u043e\u0444\u0438\u044f", "addr:country": "BG", "name": "Yettel", "phone": "02/4152015", "brand": "Yettel", "brand:wikidata": "Q14915070", "nsi_id": "yettel-5ceaa9"}, "geometry": {"type": "Point", "coordinates": [23.353399, 42.691002]}},
{"type": "Feature", "id": "JjY0TOtU-u8ERaqIIbdoVLTdwZc=", "properties": {"ref": "bg110000145", "@spider": "yettel_bg", "shop": "telecommunication", "addr:street_address": "\u0443\u043b. \u0426\u0430\u0440 \u0421\u0438\u043c\u0435\u043e\u043d \u0412\u0435\u043b\u0438\u043a\u0438 119", "addr:city": "\u0421\u0442\u0430\u0440\u0430 \u0417\u0430\u0433\u043e\u0440\u0430", "addr:country": "BG", "name": "Yettel", "phone": "042990055, 0898196055", "brand": "Yettel", "brand:wikidata": "Q14915070", "nsi_id": "yettel-5ceaa9"}, "geometry": {"type": "Point", "coordinates": [25.6313721, 42.4251158]}},
{"type": "Feature", "id": "mvffPB9IPXyNSZO2HYJoyPOTThQ=", "properties": {"ref": "bg110000162", "@spider": "yettel_bg", "shop": "telecommunication", "addr:street_address": "Mall Galeria Stara Zagora, \u0443\u043b. \u0425\u0430\u043d \u0410\u0441\u043f\u0430\u0440\u0443\u0445 30", "addr:city": "\u0421\u0442\u0430\u0440\u0430 \u0417\u0430\u0433\u043e\u0440\u0430", "addr:country": "BG", "name": "Yettel", "phone": "042/990068", "brand": "Yettel", "brand:wikidata": "Q14915070", "nsi_id": "yettel-5ceaa9"}, "geometry": {"type": "Point", "coordinates": [25.63178, 42.4382]}},
{"type": "Feature", "id": "IkXlGD04oTAPz0VlkLAfjq4S4sA=", "properties": {"ref": "bg100000051", "@spider": "yettel_bg", "shop": "telecommunication", "addr:street_address": "\u0443\u043b. \u0421\u0432. \u041a\u043d\u044f\u0437 \u0411\u043e\u0440\u0438\u0441 110 \u0411", "addr:city": "\u0421\u0442\u0430\u0440\u0430 \u0417\u0430\u0433\u043e\u0440\u0430", "addr:country": "BG", "name": "Yettel", "phone": "042990069, 0898194874", "brand": "Yettel", "brand:wikidata": "Q14915070", "nsi_id": "yettel-5ceaa9"}, "geometry": {"type": "Point", "coordinates": [25.63144, 42.42637]}},
{"type": "Feature", "id": "9p-jiytw3-rVs9PC7xwpsQJmxNg=", "properties": {"ref": "bg100000006", "@spider": "yettel_bg", "shop": "telecommunication", "addr:street_address": "\u0431\u0443\u043b. \u0426\u0430\u0440 \u0421\u0438\u043c\u0435\u043e\u043d \u0412\u0435\u043b\u0438\u043a\u0438 92", "addr:city": "\u0421\u0442\u0430\u0440\u0430 \u0417\u0430\u0433\u043e\u0440\u0430", "addr:country": "BG", "name": "Yettel", "phone": "042/990050", "brand": "Yettel", "brand:wikidata": "Q14915070", "nsi_id": "yettel-5ceaa9"}, "geometry": {"type": "Point", "coordinates": [25.623899, 42.424]}},
{"type": "Feature", "id": "dnV2ZJKJuDgS8sMvmnqh3M6T0H4=", "properties": {"ref": "bg100183001", "@spider": "yettel_bg", "shop": "telecommunication", "addr:street_address": "\u0443\u043b. \u0418\u0432\u0430\u043d \u0412\u0430\u0437\u0430\u043e\u0432 37", "addr:city": "\u0422\u0435\u0442\u0435\u0432\u0435\u043d", "addr:country": "BG", "name": "Yettel", "phone": "067899144, 0898192907", "brand": "Yettel", "brand:wikidata": "Q14915070", "nsi_id": "yettel-5ceaa9"}, "geometry": {"type": "Point", "coordinates": [24.26362, 42.91817]}},
{"type": "Feature", "id": "en0QvOV4DzDrvfs1Kra503Rzd88=", "properties": {"ref": "bg100229001", "@spider": "yettel_bg", "shop": "telecommunication", "addr:street_address": "\u0443\u043b. \u0412\u0430\u0441\u0438\u043b \u041b\u0435\u0432\u0441\u043a\u0438 74", "addr:city": "\u0422\u0440\u043e\u044f\u043d", "addr:country": "BG", "name": "Yettel", "phone": "0670/99199", "brand": "Yettel", "brand:wikidata": "Q14915070", "nsi_id": "yettel-5ceaa9"}, "geometry": {"type": "Point", "coordinates": [24.710899, 42.887199]}},
{"type": "Feature", "id": "teswgxjX61_vhGTeOAs0WkvQy9c=", "properties": {"ref": "bg100000062", "@spider": "yettel_bg", "shop": "telecommunication", "addr:street_address": "\u0443\u043b. \u0426\u0430\u0440 \u0421\u0438\u043c\u0435\u043e\u043d 4, \u0435\u0442. 1", "addr:city": "\u0422\u044a\u0440\u0433\u043e\u0432\u0438\u0449\u0435", "addr:country": "BG", "name": "Yettel", "phone": "0601/79060, 0898198060", "brand": "Yettel", "brand:wikidata": "Q14915070", "nsi_id": "yettel-5ceaa9"}, "geometry": {"type": "Point", "coordinates": [26.5714224, 43.2505145]}},
{"type": "Feature", "id": "tyRvaVjfA-IsfBDTbuGlhN9_HTo=", "properties": {"ref": "bg100000028", "@spider": "yettel_bg", "shop": "telecommunication", "addr:street_address": "\u0443\u043b. \u0412\u0430\u0441\u0438\u043b \u041b\u0435\u0432\u0441\u043a\u0438 28", "addr:city": "\u0422\u044a\u0440\u0433\u043e\u0432\u0438\u0449\u0435", "addr:country": "BG", "name": "Yettel", "phone": "0601/79050", "brand": "Yettel", "brand:wikidata": "Q14915070", "nsi_id": "yettel-5ceaa9"}, "geometry": {"type": "Point", "coordinates": [26.5728, 43.24761]}},
{"type": "Feature", "id": "6IBHpTjBgD6yBBKPmJaiXLYF8xo=", "properties": {"ref": "bg100000077", "@spider": "yettel_bg", "shop": "telecommunication", "addr:street_address": "\u0431\u0443\u043b. \u0411\u044a\u043b\u0433\u0430\u0440\u0438\u044f 10", "addr:city": "\u0425\u0430\u0440\u043c\u0430\u043d\u043b\u0438", "addr:country": "BG", "name": "Yettel", "phone": "037399002, 0898196302", "brand": "Yettel", "brand:wikidata": "Q14915070", "nsi_id": "yettel-5ceaa9"}, "geometry": {"type": "Point", "coordinates": [25.90385, 41.929846]}},
{"type": "Feature", "id": "iQYjAgzBli4HJsQLEtoPGBYBWA4=", "properties": {"ref": "bg100000071", "@spider": "yettel_bg", "shop": "telecommunication", "addr:street_address": "\u0443\u043b. \u0412\u0435\u043b\u0438\u043a\u043e \u0422\u044a\u0440\u043d\u043e\u0432\u043e 12", "addr:city": "\u0425\u0430\u0441\u043a\u043e\u0432\u043e", "addr:country": "BG", "name": "Yettel", "phone": "038590708, 0898196708", "brand": "Yettel", "brand:wikidata": "Q14915070", "nsi_id": "yettel-5ceaa9"}, "geometry": {"type": "Point", "coordinates": [25.556, 41.932201]}},
{"type": "Feature", "id": "Lnu5sXGqjwb-GEnXz2x2hzgEe5I=", "properties": {"ref": "bg100190001", "@spider": "yettel_bg", "shop": "telecommunication", "addr:street_address": "\u0443\u043b. \u0425\u0430\u043d \u0410\u0441\u043f\u0430\u0440\u0443\u0445 43", "addr:city": "\u0426\u0430\u0440\u0435\u0432\u043e", "addr:country": "BG", "name": "Yettel", "phone": "059099010, 0898192093", "brand": "Yettel", "brand:wikidata": "Q14915070", "nsi_id": "yettel-5ceaa9"}, "geometry": {"type": "Point", "coordinates": [27.846901, 42.169498]}},
{"type": "Feature", "id": "ItAqpEhcWlWnpZfkTUieuxoKbL4=", "properties": {"ref": "bg100200002", "@spider": "yettel_bg", "shop": "telecommunication", "addr:street_address": "\u0443\u043b. \u0421\u0442\u0435\u0444\u0430\u043d \u041a\u0430\u0440\u0430\u0434\u0436\u0430 4", "addr:city": "\u0427\u0435\u0440\u0432\u0435\u043d \u0431\u0440\u044f\u0433", "addr:country": "BG", "name": "Yettel", "brand": "Yettel", "brand:wikidata": "Q14915070", "nsi_id": "yettel-5ceaa9"}, "geometry": {"type": "Point", "coordinates": [24.08077, 43.2814]}},
{"type": "Feature", "id": "Q_Ol79JoUtnl6imBDgOe5HkoRqc=", "properties": {"ref": "bg100000074", "@spider": "yettel_bg", "shop": "telecommunication", "addr:street_address": "\u0443\u043b. \u0413\u0435\u043e\u0440\u0433\u0438 \u0414\u0438\u043c\u0438\u0442\u0440\u043e\u0432 22", "addr:city": "\u0427\u0438\u0440\u043f\u0430\u043d", "addr:country": "BG", "name": "Yettel", "phone": "041684058, 0898196870", "brand": "Yettel", "brand:wikidata": "Q14915070", "nsi_id": "yettel-5ceaa9"}, "geometry": {"type": "Point", "coordinates": [25.325199, 42.198502]}},
{"type": "Feature", "id": "7YjVXcLQU1dwQk6fhNcYjiMX_mU=", "properties": {"ref": "bg100000064", "@spider": "yettel_bg", "shop": "telecommunication", "addr:street_address": "\u0431\u0443\u043b. \u0421\u0438\u043c\u0435\u043e\u043d \u0412\u0435\u043b\u0438\u043a\u0438 46 \u0412", "addr:city": "\u0428\u0443\u043c\u0435\u043d", "addr:country": "BG", "name": "Yettel", "phone": "054/990060, 0898196060", "brand": "Yettel", "brand:wikidata": "Q14915070", "nsi_id": "yettel-5ceaa9"}, "geometry": {"type": "Point", "coordinates": [26.927999, 43.273701]}},
{"type": "Feature", "id": "oCaGww7VcO3vvz5v4EeA3qJvh4k=", "properties": {"ref": "bg100000066", "@spider": "yettel_bg", "shop": "telecommunication", "addr:street_address": "\u0431\u0443\u043b. \u0412\u0435\u043b\u0438\u043a\u0438 \u041f\u0440\u0435\u0441\u043b\u0430\u0432 6", "addr:city": "\u0428\u0443\u043c\u0435\u043d", "addr:country": "BG", "name": "Yettel", "phone": "054990062, 0898196062", "brand": "Yettel", "brand:wikidata": "Q14915070", "nsi_id": "yettel-5ceaa9"}, "geometry": {"type": "Point", "coordinates": [26.93621, 43.270103]}},
{"type": "Feature", "id": "_p8eA4fpo-ffI-NXEJ_cX-hqyNU=", "properties": {"ref": "bg100000017", "@spider": "yettel_bg", "shop": "telecommunication", "addr:street_address": "\u0443\u043b. \u0421\u0442\u0438\u043b\u0438\u044f\u043d \u0427\u0438\u043b\u0438\u043d\u0433\u0438\u0440\u043e\u0432 2", "addr:city": "\u0428\u0443\u043c\u0435\u043d", "addr:country": "BG", "name": "Yettel", "phone": "054/990050", "brand": "Yettel", "brand:wikidata": "Q14915070", "nsi_id": "yettel-5ceaa9"}, "geometry": {"type": "Point", "coordinates": [26.9279, 43.271]}},
{"type": "Feature", "id": "TWm3bX6GogEmqRqIVpHPTCG0tVg=", "properties": {"ref": "bg110000055", "@spider": "yettel_bg", "shop": "telecommunication", "addr:street_address": "\u0443\u043b. \u0422\u044a\u0440\u0433\u043e\u0432\u0441\u043a\u0430 8", "addr:city": "\u042f\u043c\u0431\u043e\u043b", "addr:country": "BG", "name": "Yettel", "phone": "046/990111, 0898196971", "brand": "Yettel", "brand:wikidata": "Q14915070", "nsi_id": "yettel-5ceaa9"}, "geometry": {"type": "Point", "coordinates": [26.50812, 42.48288]}},
{"type": "Feature", "id": "FGuFAg041D6oNhuL8fzisn8RrsU=", "properties": {"ref": "bg100000069", "@spider": "yettel_bg", "shop": "telecommunication", "addr:street_address": "\u0443\u043b. \u0422\u044a\u0440\u0433\u043e\u0432\u0441\u043a\u0430 34", "addr:city": "\u042f\u043c\u0431\u043e\u043b", "addr:country": "BG", "name": "Yettel", "phone": "046/990110, 0898198110", "brand": "Yettel", "brand:wikidata": "Q14915070", "nsi_id": "yettel-5ceaa9"}, "geometry": {"type": "Point", "coordinates": [26.5135, 42.481602]}},
{"type": "Feature", "id": "BhKTTofiVGsWbu6Lrx7QS6ixR4I=", "properties": {"ref": "bg100155001", "@spider": "yettel_bg", "shop": "telecommunication", "addr:street_address": "\u0443\u043b. \u041c\u0430\u043a\u0435\u0434\u043e\u043d\u0438\u044f 1", "addr:city": "\u0421\u0438\u043c\u0438\u0442\u043b\u0438", "addr:postcode": "2730", "addr:country": "BG", "name": "Yettel", "phone": "074859090, 0898196090", "brand": "Yettel", "brand:wikidata": "Q14915070", "nsi_id": "yettel-5ceaa9"}, "geometry": {"type": "Point", "coordinates": [23.11217, 41.89208]}},
{"type": "Feature", "id": "wsxT8J5pEvozXYwfBArJbWcc98c=", "properties": {"ref": "bg110000023", "@spider": "yettel_bg", "shop": "telecommunication", "addr:street_address": "\u0443\u043b. \u0414\u0440. \u041a\u043e\u043d\u0441\u0442\u0430\u043d\u0442\u0438\u043d \u0421\u0442\u043e\u0438\u043b\u043e\u0432 30", "addr:city": "\u0421\u043b\u0438\u0432\u0435\u043d", "addr:country": "BG", "name": "Yettel", "phone": "044/590052", "brand": "Yettel", "brand:wikidata": "Q14915070", "nsi_id": "yettel-5ceaa9"}, "geometry": {"type": "Point", "coordinates": [26.322599, 42.678902]}},
{"type": "Feature", "id": "qJzXC3gdD1A7M6xx3Pwc8MJTBuw=", "properties": {"ref": "bg100000029", "@spider": "yettel_bg", "shop": "telecommunication", "addr:street_address": "\u0431\u0443\u043b. \u0426\u0430\u0440 \u041e\u0441\u0432\u043e\u0431\u043e\u0434\u0438\u0442\u0435\u043b 30", "addr:city": "\u0421\u043b\u0438\u0432\u0435\u043d", "addr:country": "BG", "name": "Yettel", "phone": "044590050, 0898192730", "brand": "Yettel", "brand:wikidata": "Q14915070", "nsi_id": "yettel-5ceaa9"}, "geometry": {"type": "Point", "coordinates": [26.31961, 42.68043]}},
{"type": "Feature", "id": "G3vJ-fFYUQmGzDgiY_UX0hjS-4M=", "properties": {"ref": "bg100167001", "@spider": "yettel_bg", "shop": "telecommunication", "addr:street_address": "\u0443\u043b. \u041f\u0430\u0438\u0441\u0438\u0439 \u0425\u0438\u043b\u0435\u043d\u0434\u0430\u0440\u0441\u043a\u0438 40A", "addr:city": "\u0421\u043b\u0438\u0432\u043d\u0438\u0446\u0430", "addr:country": "BG", "name": "Yettel", "phone": "072799009, 0898196609", "brand": "Yettel", "brand:wikidata": "Q14915070", "nsi_id": "yettel-5ceaa9"}, "geometry": {"type": "Point", "coordinates": [23.0373, 42.85295]}},
{"type": "Feature", "id": "VMTCuVsYdJ4E_KDHEjI9wGlEE9g=", "properties": {"ref": "bg110000156", "@spider": "yettel_bg", "shop": "telecommunication", "addr:street_address": "\u0443\u043b. \u0411\u0443\u043b\u0435\u0432\u0430\u0440\u0434 51", "addr:city": "\u0421\u043b\u044a\u043d\u0447\u0435\u0432 \u0431\u0440\u044f\u0433", "addr:country": "BG", "name": "Yettel", "phone": "055459408, 0898192437", "brand": "Yettel", "brand:wikidata": "Q14915070", "nsi_id": "yettel-5ceaa9"}, "geometry": {"type": "Point", "coordinates": [27.7096, 42.694302]}},
{"type": "Feature", "id": "XI1sUEB8G2buDqk-765S-ZyUS54=", "properties": {"ref": "bg100111001", "@spider": "yettel_bg", "shop": "telecommunication", "addr:street_address": "\u0431\u0443\u043b. \u0411\u044a\u043b\u0433\u0430\u0440\u0438\u044f 74", "addr:city": "\u0421\u043c\u043e\u043b\u044f\u043d", "addr:country": "BG", "name": "Yettel", "phone": "030152787, 0898192787", "brand": "Yettel", "brand:wikidata": "Q14915070", "nsi_id": "yettel-5ceaa9"}, "geometry": {"type": "Point", "coordinates": [24.69477, 41.57881]}},
{"type": "Feature", "id": "3pSMMMHpN7a3gi-51JbRmUcbsTI=", "properties": {"ref": "bg100190002", "@spider": "yettel_bg", "shop": "telecommunication", "addr:street_address": "\u0443\u043b. \u0420\u0435\u043f\u0443\u0431\u043b\u0438\u043a\u0430\u043d\u0441\u043a\u0430 6", "addr:city": "\u0421\u043e\u0437\u043e\u043f\u043e\u043b", "addr:country": "BG", "name": "Yettel", "phone": "055070589, 0898194589", "brand": "Yettel", "brand:wikidata": "Q14915070", "nsi_id": "yettel-5ceaa9"}, "geometry": {"type": "Point", "coordinates": [27.69499, 42.41849]}},
{"type": "Feature", "id": "ouXCdV5M3If5WzuSXdirZUX5NZ4=", "properties": {"ref": "bg100172001", "@spider": "yettel_bg", "shop": "telecommunication", "addr:street_address": "\u0443\u043b. \u0418\u0432\u0430\u043d \u0412\u0430\u0437\u043e\u0432 48, \u0431\u043b. 29", "addr:city": "\u0421\u043e\u043f\u043e\u0442", "addr:country": "BG", "name": "Yettel", "phone": "031342055, 0898194871", "brand": "Yettel", "brand:wikidata": "Q14915070", "nsi_id": "yettel-5ceaa9"}, "geometry": {"type": "Point", "coordinates": [24.754999, 42.653702]}},
{"type": "Feature", "id": "33NWp5yCZ8eeM3UFXhs_AexpobE=", "properties": {"ref": "bg110000008", "@spider": "yettel_bg", "shop": "telecommunication", "addr:street_address": "\u0443\u043b. \u0422\u043e\u0434\u043e\u0440\u0438\u043d\u0438 \u043a\u0443\u043a\u043b\u0438 \u2116 20", "addr:city": "\u0421\u043e\u0444\u0438\u044f", "addr:country": "BG", "name": "Yettel", "phone": "024152140; 0898192140", "brand": "Yettel", "brand:wikidata": "Q14915070", "nsi_id": "yettel-5ceaa9"}, "geometry": {"type": "Point", "coordinates": [23.3595129, 42.7019879]}},
{"type": "Feature", "id": "oSaEs81s15hvuoG3Zj-2E_sXAY4=", "properties": {"ref": "bg110000045", "@spider": "yettel_bg", "shop": "telecommunication", "addr:street_address": "\u0431\u0443\u043b. \u041c\u0430\u0434\u0440\u0438\u0434 14", "addr:city": "\u0421\u043e\u0444\u0438\u044f", "addr:country": "BG", "name": "Yettel", "phone": "02/4152195, 02/4152191", "brand": "Yettel", "brand:wikidata": "Q14915070", "nsi_id": "yettel-5ceaa9"}, "geometry": {"type": "Point", "coordinates": [23.34829, 42.69647]}},
{"type": "Feature", "id": "5leOJregB15SUMD8k-_8MzSGYOQ=", "properties": {"ref": "bg110000046", "@spider": "yettel_bg", "shop": "telecommunication", "addr:street_address": "\u0431\u0443\u043b. \u0413\u043e\u0446\u0435 \u0414\u0435\u043b\u0447\u0435\u0432 3", "addr:city": "\u0421\u043e\u0444\u0438\u044f", "addr:country": "BG", "name": "Yettel", "phone": "02/4152055, 02/4152058", "brand": "Yettel", "brand:wikidata": "Q14915070", "nsi_id": "yettel-5ceaa9"}, "geometry": {"type": "Point", "coordinates": [23.28604, 42.67789]}},
{"type": "Feature", "id": "vVhwHrQ4FSuciqtcJTM4_EyLRE8=", "properties": {"ref": "bg110000077", "@spider": "yettel_bg", "shop": "telecommunication", "addr:street_address": "Mall of Sofia, \u0431\u0443\u043b. \u0410\u043b. \u0421\u0442\u0430\u043c\u0431\u043e\u043b\u0438\u0439\u0441\u043a\u0438 101", "addr:city": "\u0421\u043e\u0444\u0438\u044f", "addr:country": "BG", "name": "Yettel", "phone": "02/4152571, 02/4152572", "brand": "Yettel", "brand:wikidata": "Q14915070", "nsi_id": "yettel-5ceaa9"}, "geometry": {"type": "Point", "coordinates": [23.30885, 42.69792]}},
{"type": "Feature", "id": "lpPsgcFQtJGLp5xTxjtuqhl7uB8=", "properties": {"ref": "bg110000076", "@spider": "yettel_bg", "shop": "telecommunication", "addr:street_address": "City Centre Sofia, \u0431\u0443\u043b. \u0410\u0440\u0441\u0435\u043d\u0430\u043b\u0441\u043a\u0438 2", "addr:city": "\u0421\u043e\u0444\u0438\u044f", "addr:country": "BG", "name": "Yettel", "phone": "02/4152111, 02/4152113", "brand": "Yettel", "brand:wikidata": "Q14915070", "nsi_id": "yettel-5ceaa9"}, "geometry": {"type": "Point", "coordinates": [23.320198, 42.679154]}},
{"type": "Feature", "id": "ZAlY6xMMPRdwNAxMfQ_fLkAwOUk=", "properties": {"ref": "bg110000085", "@spider": "yettel_bg", "shop": "telecommunication", "addr:street_address": "Sky City Mall, \u0436.\u043a. \u0421\u043b\u0430\u0442\u0438\u043d\u0430, \u0443\u043b. \u041a\u043e\u0441\u0442\u0430 \u041b\u0443\u043b\u0447\u0435\u0432 52", "addr:city": "\u0421\u043e\u0444\u0438\u044f", "addr:country": "BG", "name": "Yettel", "phone": "02/4152251, 02/4152252", "brand": "Yettel", "brand:wikidata": "Q14915070", "nsi_id": "yettel-5ceaa9"}, "geometry": {"type": "Point", "coordinates": [23.36716, 42.68011]}},
{"type": "Feature", "id": "t4dB_3rMAJsf3G0dKH87Laq861g=", "properties": {"ref": "bg110000099", "@spider": "yettel_bg", "shop": "telecommunication", "addr:street_address": "\u0431\u0443\u043b. \u041b\u043e\u043c\u0441\u043a\u043e \u0448\u043e\u0441\u0435, \u0431\u043b. 171 \u043c-\u043d \u211610", "addr:city": "\u0421\u043e\u0444\u0438\u044f", "addr:country": "BG", "name": "Yettel", "phone": "02/4152080, 02/4152077", "brand": "Yettel", "brand:wikidata": "Q14915070", "nsi_id": "yettel-5ceaa9"}, "geometry": {"type": "Point", "coordinates": [23.302097, 42.726429]}},
{"type": "Feature", "id": "WdbV3hLKkzxEEqMncvGXZo36Ca4=", "properties": {"ref": "bg110000098", "@spider": "yettel_bg", "shop": "telecommunication", "addr:street_address": "\u0436.\u043a. \u0421\u0442\u0443\u0434\u0435\u043d\u0442\u0441\u043a\u0438 \u0433\u0440\u0430\u0434, \u0431\u0443\u043b. \u0410\u043a\u0430\u0434\u0435\u043c\u0438\u043a \u0411. \u0421\u0442\u0435\u0444\u0430\u043d\u043e\u0432 12", "addr:city": "\u0421\u043e\u0444\u0438\u044f", "addr:country": "BG", "name": "Yettel", "phone": "02/4152120, 02/4152119", "brand": "Yettel", "brand:wikidata": "Q14915070", "nsi_id": "yettel-5ceaa9"}, "geometry": {"type": "Point", "coordinates": [23.342199, 42.6507]}},
{"type": "Feature", "id": "KF79TaR2W7yvzXXwjg4k89fndtw=", "properties": {"ref": "bg110000137", "@spider": "yettel_bg", "shop": "telecommunication", "addr:street_address": "\u0436.\u043a. \u041e\u0432\u0447\u0430 \u041a\u0443\u043f\u0435\u043b1, \u0431\u0443\u043b. \u041c\u043e\u043d\u0442\u0435\u0432\u0438\u0434\u0435\u043e \u0434\u043e \u0431\u043b. 419", "addr:city": "\u0421\u043e\u0444\u0438\u044f", "addr:country": "BG", "name": "Yettel", "phone": "02/4152090, 02/4152088", "brand": "Yettel", "brand:wikidata": "Q14915070", "nsi_id": "yettel-5ceaa9"}, "geometry": {"type": "Point", "coordinates": [23.2548, 42.688218]}},
{"type": "Feature", "id": "IDDzj1iUi67_6xlGJ9NBA981NiM=", "properties": {"ref": "bg110000141", "@spider": "yettel_bg", "shop": "telecommunication", "addr:street_address": "\u0431\u0443\u043b. \u0412\u0430\u0440\u0434\u0430\u0440 \u0438 \u0431\u0443\u043b. \u0412\u044a\u0437\u043a\u0440\u0435\u0441\u0435\u043d\u0438\u0435, \u043c\u0430\u0433\u0430\u0437\u0438\u043d 3", "addr:city": "\u0421\u043e\u0444\u0438\u044f", "addr:country": "BG", "name": "Yettel", "phone": "02/4152102, 02/4152106", "brand": "Yettel", "brand:wikidata": "Q14915070", "nsi_id": "yettel-5ceaa9"}, "geometry": {"type": "Point", "coordinates": [23.2864, 42.692799]}},
{"type": "Feature", "id": "dZQw78Qf7E0IYdMYwyO9ytWPPpw=", "properties": {"ref": "bg110000149", "@spider": "yettel_bg", "shop": "telecommunication", "addr:street_address": "\u0440\u0430\u0439\u043e\u043d \u0421\u0435\u0440\u0434\u0438\u043a\u0430, \u0443\u043b. \u0425\u0440\u0438\u0441\u0442\u043e \u0421\u0442\u0430\u043d\u0438\u0448\u0435\u0432 1", "addr:city": "\u0421\u043e\u0444\u0438\u044f", "addr:country": "BG", "name": "Yettel", "phone": "024152070, 0898192070", "brand": "Yettel", "brand:wikidata": "Q14915070", "nsi_id": "yettel-5ceaa9"}, "geometry": {"type": "Point", "coordinates": [23.3408806, 42.7163895]}},
{"type": "Feature", "id": "fnTQb56o_jaFWxwYP_ZaOGAW6Uk=", "properties": {"ref": "bg110000159", "@spider": "yettel_bg", "shop": "telecommunication", "addr:street_address": "The Mall, \u0431\u0443\u043b. \u0426\u0430\u0440\u0438\u0433\u0440\u0430\u0434\u0441\u043a\u043e \u0448\u043e\u0441\u0435 115", "addr:city": "\u0421\u043e\u0444\u0438\u044f", "addr:country": "BG", "name": "Yettel", "phone": "02/4152020, 02/4152021", "brand": "Yettel", "brand:wikidata": "Q14915070", "nsi_id": "yettel-5ceaa9"}, "geometry": {"type": "Point", "coordinates": [23.38159, 42.66021]}},
{"type": "Feature", "id": "k6RO4EX_q1250-chhFQOJhkqfpM=", "properties": {"ref": "bg100131081", "@spider": "yettel_bg", "shop": "telecommunication", "addr:street_address": "\u0436\u043a \u041c\u043b\u0430\u0434\u043e\u0441\u0442 3, \u0443\u043b. \u0411\u044a\u0434\u043d\u0438\u043d\u0430, \u0431\u043b 301", "addr:city": "\u0421\u043e\u0444\u0438\u044f", "addr:country": "BG", "name": "Yettel", "phone": "024154575, 0898194575", "brand": "Yettel", "brand:wikidata": "Q14915070", "nsi_id": "yettel-5ceaa9"}, "geometry": {"type": "Point", "coordinates": [23.37868, 42.64479]}},
{"type": "Feature", "id": "0DsLOhxMom_tDIDWoCELAqpkQ9A=", "properties": {"ref": "bg100000005", "@spider": "yettel_bg", "shop": "telecommunication", "addr:street_address": "\u0431\u0443\u043b. \u0412\u0438\u0442\u043e\u0448\u0430 64", "addr:city": "\u0421\u043e\u0444\u0438\u044f", "addr:country": "BG", "name": "Yettel", "phone": "02/4152390", "brand": "Yettel", "brand:wikidata": "Q14915070", "nsi_id": "yettel-5ceaa9"}, "geometry": {"type": "Point", "coordinates": [23.318899, 42.6889]}},
{"type": "Feature", "id": "UREwo1E-oT-QmbbzrD3muOiJPx8=", "properties": {"ref": "bg100000008", "@spider": "yettel_bg", "shop": "telecommunication", "addr:street_address": "\u0431\u0443\u043b. \u0426\u0430\u0440\u0438\u0433\u0440\u0430\u0434\u0441\u043a\u043e \u0448\u043e\u0441\u0435 14", "addr:city": "\u0421\u043e\u0444\u0438\u044f", "addr:country": "BG", "name": "Yettel", "phone": "02/4152355", "brand": "Yettel", "brand:wikidata": "Q14915070", "nsi_id": "yettel-5ceaa9"}, "geometry": {"type": "Point", "coordinates": [23.359656, 42.67472]}},
{"type": "Feature", "id": "HaROV3Fp2si03cZ3yCebCNBLEsY=", "properties": {"ref": "bg100000023", "@spider": "yettel_bg", "shop": "telecommunication", "addr:street_address": "\u0436\u043a \u041b\u044e\u043b\u0438\u043d 6 \u0431\u0443\u043b. \u0417\u0430\u0445\u0430\u0440\u0438 \u0421\u0442\u043e\u044f\u043d\u043e\u0432 \u0434\u043e \u0431\u043b. 601", "addr:city": "\u0421\u043e\u0444\u0438\u044f", "addr:country": "BG", "name": "Yettel", "phone": "02/4152560", "brand": "Yettel", "brand:wikidata": "Q14915070", "nsi_id": "yettel-5ceaa9"}, "geometry": {"type": "Point", "coordinates": [23.25203, 42.71513]}},
{"type": "Feature", "id": "URq36i2zhtuEVikX_VTtJJCogyo=", "properties": {"ref": "bg100000025", "@spider": "yettel_bg", "shop": "telecommunication", "addr:street_address": "\u0431\u0443\u043b. \u041c\u0430\u0440\u0438\u044f \u041b\u0443\u0438\u0437\u0430 55", "addr:city": "\u0421\u043e\u0444\u0438\u044f", "addr:country": "BG", "name": "Yettel", "phone": "02/4152580", "brand": "Yettel", "brand:wikidata": "Q14915070", "nsi_id": "yettel-5ceaa9"}, "geometry": {"type": "Point", "coordinates": [23.322399, 42.701801]}},
{"type": "Feature", "id": "627ws9-sdeV_krnhZlrcyyo2yXI=", "properties": {"ref": "bg100000034", "@spider": "yettel_bg", "shop": "telecommunication", "addr:street_address": "\u0436\u043a \u041c\u043b\u0430\u0434\u043e\u0441\u0442 4, \u0411\u0438\u0437\u043d\u0435\u0441 \u043f\u0430\u0440\u043a \u0421\u043e\u0444\u0438\u044f, \u0441\u0433\u0440. 4", "addr:city": "\u0421\u043e\u0444\u0438\u044f", "addr:country": "BG", "name": "Yettel", "phone": "02/4158080", "brand": "Yettel", "brand:wikidata": "Q14915070", "nsi_id": "yettel-5ceaa9"}, "geometry": {"type": "Point", "coordinates": [23.37386, 42.62842]}},
{"type": "Feature", "id": "1Crs2qeSq1YKKVTzpP7qrQxVtoU=", "properties": {"ref": "bg100000037", "@spider": "yettel_bg", "shop": "telecommunication", "addr:street_address": "\u0431\u0443\u043b. \u0412\u0438\u0442\u043e\u0448\u0430 10", "addr:city": "\u0421\u043e\u0444\u0438\u044f", "addr:country": "BG", "name": "Yettel", "phone": "02/4152298, 02/4152309", "brand": "Yettel", "brand:wikidata": "Q14915070", "nsi_id": "yettel-5ceaa9"}, "geometry": {"type": "Point", "coordinates": [23.32007, 42.6934]}},
{"type": "Feature", "id": "r50ntNwrcb9fKNAcoi9jNjJ4Z4Y=", "properties": {"ref": "bg100000038", "@spider": "yettel_bg", "shop": "telecommunication", "addr:street_address": "Paradise Center, \u0431\u0443\u043b. \u0427\u0435\u0440\u043d\u0438 \u0432\u0440\u044a\u0445 100", "addr:city": "\u0421\u043e\u0444\u0438\u044f", "addr:country": "BG", "name": "Yettel", "phone": "02/4152222,898192222", "brand": "Yettel", "brand:wikidata": "Q14915070", "nsi_id": "yettel-5ceaa9"}, "geometry": {"type": "Point", "coordinates": [23.31554, 42.65819]}},
{"type": "Feature", "id": "9LHTUWirbNtKbONkuD4t_DHfDTw=", "properties": {"ref": "bg100000039", "@spider": "yettel_bg", "shop": "telecommunication", "addr:street_address": "Bulgaria Mall, \u0431\u0443\u043b. \u0411\u044a\u043b\u0433\u0430\u0440\u0438\u044f 69", "addr:city": "\u0421\u043e\u0444\u0438\u044f", "addr:country": "BG", "name": "Yettel", "phone": "02/4152416", "brand": "Yettel", "brand:wikidata": "Q14915070", "nsi_id": "yettel-5ceaa9"}, "geometry": {"type": "Point", "coordinates": [23.288401, 42.6647]}},
{"type": "Feature", "id": "xa68ahXiMJNdmSyZZzryOISajzQ=", "properties": {"ref": "bg100000042", "@spider": "yettel_bg", "shop": "telecommunication", "addr:street_address": "\u0436\u043a. \u0414\u0440\u0443\u0436\u0431\u0430 1, \u0441\u0440\u0435\u0449\u0443 \u0431\u043b\u043e\u043a 18", "addr:city": "\u0421\u043e\u0444\u0438\u044f", "addr:country": "BG", "name": "Yettel", "phone": "024152828, 0898192828", "brand": "Yettel", "brand:wikidata": "Q14915070", "nsi_id": "yettel-5ceaa9"}, "geometry": {"type": "Point", "coordinates": [23.39557, 42.6679]}},
{"type": "Feature", "id": "EcGce_6AZdKIK4aAtr5sOP6W0fg=", "properties": {"ref": "bg100131034", "@spider": "yettel_bg", "shop": "telecommunication", "addr:street_address": "\u0443\u043b. \u0413\u0440\u0430\u0444 \u0418\u0433\u043d\u0430\u0442\u0438\u0435\u0432 32", "addr:city": "\u0421\u043e\u0444\u0438\u044f", "addr:country": "BG", "name": "Yettel", "phone": "024154550, 0898194550", "brand": "Yettel", "brand:wikidata": "Q14915070", "nsi_id": "yettel-5ceaa9"}, "geometry": {"type": "Point", "coordinates": [23.32568, 42.69088]}},
{"type": "Feature", "id": "ShPAP8GlJRcIzaq2BLLP-rmPMJs=", "properties": {"ref": "bg100000018", "@spider": "yettel_bg", "shop": "telecommunication", "addr:street_address": "\u0443\u043b. \u0410\u0441\u0435\u043d \u0417\u043b\u0430\u0442\u0430\u0440\u043e\u0432 30", "addr:city": "\u041f\u0430\u0437\u0430\u0440\u0434\u0436\u0438\u043a", "addr:country": "BG", "name": "Yettel", "phone": "034/990050", "brand": "Yettel", "brand:wikidata": "Q14915070", "nsi_id": "yettel-5ceaa9"}, "geometry": {"type": "Point", "coordinates": [24.33369, 42.19233]}},
{"type": "Feature", "id": "g2CEaRJ5Gh8UmWb5U-1EO0Cr2cs=", "properties": {"ref": "bg110000018", "@spider": "yettel_bg", "shop": "telecommunication", "addr:street_address": "\u0443\u043b. \u0422\u044a\u0440\u0433\u043e\u0432\u0441\u043a\u0430 33", "addr:city": "\u041f\u0435\u0440\u043d\u0438\u043a", "addr:country": "BG", "name": "Yettel", "phone": "076/590060", "brand": "Yettel", "brand:wikidata": "Q14915070", "nsi_id": "yettel-5ceaa9"}, "geometry": {"type": "Point", "coordinates": [23.0303, 42.603001]}},
{"type": "Feature", "id": "BnGHpwqUFNGzfm1sIyNNUknJOI4=", "properties": {"ref": "bg110000130", "@spider": "yettel_bg", "shop": "telecommunication", "addr:street_address": "\u043a\u0432. \u0418\u0437\u0442\u043e\u043a, \u0443\u043b. \u041c\u0438\u043d\u0441\u043a 15", "addr:city": "\u041f\u0435\u0440\u043d\u0438\u043a", "addr:country": "BG", "name": "Yettel", "phone": "076590052, 0898192442", "brand": "Yettel", "brand:wikidata": "Q14915070", "nsi_id": "yettel-5ceaa9"}, "geometry": {"type": "Point", "coordinates": [23.09879, 42.60845]}},
{"type": "Feature", "id": "ZCj9BZUcwzHbiGfizCX4yXYywRw=", "properties": {"ref": "bg100000012", "@spider": "yettel_bg", "shop": "telecommunication", "addr:street_address": "\u0443\u043b. \u0422\u044a\u0440\u0433\u043e\u0432\u0441\u043a\u0430 12", "addr:city": "\u041f\u0435\u0440\u043d\u0438\u043a", "addr:country": "BG", "name": "Yettel", "phone": "076/590050", "brand": "Yettel", "brand:wikidata": "Q14915070", "nsi_id": "yettel-5ceaa9"}, "geometry": {"type": "Point", "coordinates": [23.03048, 42.60471]}},
{"type": "Feature", "id": "69wLxqxV1J0RbtVwyUMTW_7tfto=", "properties": {"ref": "bg100212001", "@spider": "yettel_bg", "shop": "telecommunication", "addr:street_address": "\u0443\u043b. \u0426\u0430\u0440 \u0411\u043e\u0440\u0438\u0441 III 20", "addr:city": "\u041f\u0435\u0442\u0440\u0438\u0447", "addr:postcode": "2850", "addr:country": "BG", "name": "Yettel", "phone": "0745/90771, 0898196771", "brand": "Yettel", "brand:wikidata": "Q14915070", "nsi_id": "yettel-5ceaa9"}, "geometry": {"type": "Point", "coordinates": [23.20751, 41.39471]}},
{"type": "Feature", "id": "Jlr-zGsmnrnWYr1Z6rHI0jm323Y=", "properties": {"ref": "bg100221002", "@spider": "yettel_bg", "shop": "telecommunication", "addr:street_address": "\u0443\u043b. \u0426\u0430\u0440 \u041e\u0441\u0432\u043e\u0431\u043e\u0434\u0438\u0442\u0435\u043b 51", "addr:city": "\u041f\u0438\u0440\u0434\u043e\u043f", "addr:country": "BG", "name": "Yettel", "phone": "35971819009, 0898196509", "brand": "Yettel", "brand:wikidata": "Q14915070", "nsi_id": "yettel-5ceaa9"}, "geometry": {"type": "Point", "coordinates": [24.17887, 42.69991]}},
{"type": "Feature", "id": "KCzAsSKrccn2YSLAscwWFn8CjEI=", "properties": {"ref": "bg100000036", "@spider": "yettel_bg", "shop": "telecommunication", "addr:street_address": "\u0443\u043b. \u0412\u0430\u0441\u0438\u043b \u041b\u0435\u0432\u0441\u043a\u0438 132", "addr:city": "\u041f\u043b\u0435\u0432\u0435\u043d", "addr:country": "BG", "name": "Yettel", "phone": "064/990053", "brand": "Yettel", "brand:wikidata": "Q14915070", "nsi_id": "yettel-5ceaa9"}, "geometry": {"type": "Point", "coordinates": [24.6154, 43.412498]}},
{"type": "Feature", "id": "O3sQNXKdEiNZ7lVizRvmPAwiDo8=", "properties": {"ref": "bg110000011", "@spider": "yettel_bg", "shop": "telecommunication", "addr:street_address": "\u0431\u0443\u043b. \u0410\u043b\u0435\u043a\u0441\u0430\u043d\u0434\u044a\u0440 \u0411\u0430\u0442\u0435\u043d\u0431\u0435\u0440\u0433 I 35", "addr:city": "\u041f\u043b\u043e\u0432\u0434\u0438\u0432", "addr:country": "BG", "name": "Yettel", "phone": "032/515052, 0898192911", "brand": "Yettel", "brand:wikidata": "Q14915070", "nsi_id": "yettel-5ceaa9"}, "geometry": {"type": "Point", "coordinates": [24.749386, 42.144697]}},
{"type": "Feature", "id": "9aaaYcWQ-Ge8YRD3Lu4h4X3ZWhU=", "properties": {"ref": "bg110000039", "@spider": "yettel_bg", "shop": "telecommunication", "addr:street_address": "\u0443\u043b. \u0418\u0432\u0430\u043d \u0412\u0430\u0437\u043e\u0432 61", "addr:city": "\u041f\u043b\u043e\u0432\u0434\u0438\u0432", "addr:country": "BG", "name": "Yettel", "phone": "032/515055, 0898192912", "brand": "Yettel", "brand:wikidata": "Q14915070", "nsi_id": "yettel-5ceaa9"}, "geometry": {"type": "Point", "coordinates": [24.74219, 42.13616]}},
{"type": "Feature", "id": "Y8UQNLAVV7J41OdE1R9n9e6DnQE=", "properties": {"ref": "bg110000106", "@spider": "yettel_bg", "shop": "telecommunication", "addr:street_address": "\u0422\u044a\u0440\u0433\u043e\u0432\u043a\u0438 \u0446\u0435\u043d\u0442\u044a\u0440 Grand, \u0443\u043b. \u041a\u0430\u043f\u0438\u0442\u0430\u043d \u0420\u0430\u0439\u0447\u043e \u0438 \u0443\u043b. \u041f\u0435\u0442\u043a\u043e \u0414. \u041f\u0435\u0442\u043a\u043e\u0432", "addr:city": "\u041f\u043b\u043e\u0432\u0434\u0438\u0432", "addr:country": "BG", "name": "Yettel", "phone": "032/515062, 0898192914", "brand": "Yettel", "brand:wikidata": "Q14915070", "nsi_id": "yettel-5ceaa9"}, "geometry": {"type": "Point", "coordinates": [24.75637, 42.14174]}},
{"type": "Feature", "id": "vjJK5n7W6dGFU8Sq9avf3Dhb_ak=", "properties": {"ref": "bg110000153", "@spider": "yettel_bg", "shop": "telecommunication", "addr:street_address": "Mall Plovdiv, \u0443\u043b. \u041f\u0435\u0440\u0443\u0449\u0438\u0446\u0430 8", "addr:city": "\u041f\u043b\u043e\u0432\u0434\u0438\u0432", "addr:country": "BG", "name": "Yettel", "phone": "032/515077, 0898192916", "brand": "Yettel", "brand:wikidata": "Q14915070", "nsi_id": "yettel-5ceaa9"}, "geometry": {"type": "Point", "coordinates": [24.71967, 42.14128]}},
{"type": "Feature", "id": "Uw0MM3k1idmbtW_95ENMFilkYd4=", "properties": {"ref": "bg100000055", "@spider": "yettel_bg", "shop": "telecommunication", "addr:street_address": "\u0443\u043b. \u0414-\u0440 \u0413\u0435\u043e\u0440\u0433\u0438 \u0421\u0442\u0440\u0430\u043d\u0441\u043a\u0438 \u2116 3", "addr:city": "\u041f\u043b\u043e\u0432\u0434\u0438\u0432", "addr:country": "BG", "name": "Yettel", "phone": "032515070, 0898194375", "brand": "Yettel", "brand:wikidata": "Q14915070", "nsi_id": "yettel-5ceaa9"}, "geometry": {"type": "Point", "coordinates": [24.78467, 42.14319]}},
{"type": "Feature", "id": "xFU1dlmcXQz-9039BnZzATBr6RA=", "properties": {"ref": "bg100000058", "@spider": "yettel_bg", "shop": "telecommunication", "addr:street_address": "\u043a\u0432. \u041a\u044e\u0447\u0443\u043a \u041f\u0430\u0440\u0438\u0436, \u0443\u043b. \u041c\u0430\u043a\u0435\u0434\u043e\u043d\u0438\u044f 43", "addr:city": "\u041f\u043b\u043e\u0432\u0434\u0438\u0432", "addr:country": "BG", "name": "Yettel", "phone": "032515071, 0898198076", "brand": "Yettel", "brand:wikidata": "Q14915070", "nsi_id": "yettel-5ceaa9"}, "geometry": {"type": "Point", "coordinates": [24.74408, 42.13018]}},
{"type": "Feature", "id": "HeiHYWts6FuKu_ptxKRJCq-iRvk=", "properties": {"ref": "bg100000059", "@spider": "yettel_bg", "shop": "telecommunication", "addr:street_address": "\u0431\u0443\u043b. \u0411\u044a\u043b\u0433\u0430\u0440\u0438\u044f 63", "addr:city": "\u041f\u043b\u043e\u0432\u0434\u0438\u0432", "addr:country": "BG", "name": "Yettel", "phone": "032/515065, 0898194356", "brand": "Yettel", "brand:wikidata": "Q14915070", "nsi_id": "yettel-5ceaa9"}, "geometry": {"type": "Point", "coordinates": [24.73824, 42.15905]}},
{"type": "Feature", "id": "LnNOcpO0ufZgQl1OG4vYHcBufVo=", "properties": {"ref": "bg100000007", "@spider": "yettel_bg", "shop": "telecommunication", "addr:street_address": "\u0443\u043b. \u041a\u043d\u044f\u0437 \u0411\u043e\u0433\u043e\u0440\u0438\u0434\u0438 2", "addr:city": "\u041f\u043b\u043e\u0432\u0434\u0438\u0432", "addr:country": "BG", "name": "Yettel", "phone": "032/515053", "brand": "Yettel", "brand:wikidata": "Q14915070", "nsi_id": "yettel-5ceaa9"}, "geometry": {"type": "Point", "coordinates": [24.7469, 42.1505]}},
{"type": "Feature", "id": "IMJCBfDeFQoBaJtOAkH4YW73k9Y=", "properties": {"ref": "bg100000019", "@spider": "yettel_bg", "shop": "telecommunication", "addr:street_address": "\u0436\u043a \u0422\u0440\u0430\u043a\u0438\u044f, \u0443\u043b. \u0421\u044a\u0435\u0434\u0438\u043d\u0435\u043d\u0438\u0435 45, \u0434\u043e \u0431\u043b.100", "addr:city": "\u041f\u043b\u043e\u0432\u0434\u0438\u0432", "addr:country": "BG", "name": "Yettel", "phone": "032/515056", "brand": "Yettel", "brand:wikidata": "Q14915070", "nsi_id": "yettel-5ceaa9"}, "geometry": {"type": "Point", "coordinates": [24.794201, 42.1315]}},
{"type": "Feature", "id": "Pldcg8a2_qd9tSWiwuOGb15tffo=", "properties": {"ref": "bg110000035", "@spider": "yettel_bg", "shop": "telecommunication", "addr:street_address": "\u0431\u0443\u043b. \u0411\u044a\u043b\u0433\u0430\u0440\u0438\u044f 21", "addr:city": "\u0420\u0430\u0437\u0433\u0440\u0430\u0434", "addr:country": "BG", "name": "Yettel", "phone": "084520052, 0898194562", "brand": "Yettel", "brand:wikidata": "Q14915070", "nsi_id": "yettel-5ceaa9"}, "geometry": {"type": "Point", "coordinates": [26.52196, 43.52516]}},
{"type": "Feature", "id": "NhToC840RCPP0qg23MIay_rb8Bk=", "properties": {"ref": "bg100000026", "@spider": "yettel_bg", "shop": "telecommunication", "addr:street_address": "\u0431\u0443\u043b. \u0411\u044a\u043b\u0433\u0430\u0440\u0438\u044f 11", "addr:city": "\u0420\u0430\u0437\u0433\u0440\u0430\u0434", "addr:country": "BG", "name": "Yettel", "phone": "084/520050", "brand": "Yettel", "brand:wikidata": "Q14915070", "nsi_id": "yettel-5ceaa9"}, "geometry": {"type": "Point", "coordinates": [26.5257, 43.525101]}},
{"type": "Feature", "id": "3dyiYc1aDtU2QWsIOgckxbJPNp4=", "properties": {"ref": "bg100166001", "@spider": "yettel_bg", "shop": "telecommunication", "addr:street_address": "\u0443\u043b. \u0428\u0435\u0439\u043d\u043e\u0432\u043e 6 (\u0411\u0438\u0437\u043d\u0435\u0441 \u0446\u0435\u043d\u0442\u044a\u0440 - \u043f\u0430\u0440\u0442\u0435\u0440)", "addr:city": "\u0420\u0430\u0437\u043b\u043e\u0433", "addr:postcode": "2760", "addr:country": "BG", "name": "Yettel", "phone": "074799057, 0898192943", "brand": "Yettel", "brand:wikidata": "Q14915070", "nsi_id": "yettel-5ceaa9"}, "geometry": {"type": "Point", "coordinates": [23.4669, 41.88514]}},
{"type": "Feature", "id": "kL6SKnnhFnT-U7fgy5L0XW5BqfI=", "properties": {"ref": "bg110000163", "@spider": "yettel_bg", "shop": "telecommunication", "addr:street_address": "Mall \u0420\u0443\u0441\u0435, \u0431\u0443\u043b. \u041b\u0438\u043f\u043d\u0438\u043a 121\u0414", "addr:city": "\u0420\u0443\u0441\u0435", "addr:country": "BG", "name": "Yettel", "phone": "082590063, 0898192940", "brand": "Yettel", "brand:wikidata": "Q14915070", "nsi_id": "yettel-5ceaa9"}, "geometry": {"type": "Point", "coordinates": [25.98952, 43.85386]}},
{"type": "Feature", "id": "SLZ7w5ocKmEtqyCTM4Pu8-LjsZo=", "properties": {"ref": "bg100000011", "@spider": "yettel_bg", "shop": "telecommunication", "addr:street_address": "\u043f\u043b. \u0421\u0432\u043e\u0431\u043e\u0434\u0430 3", "addr:city": "\u0420\u0443\u0441\u0435", "addr:country": "BG", "name": "Yettel", "phone": "082/590050", "brand": "Yettel", "brand:wikidata": "Q14915070", "nsi_id": "yettel-5ceaa9"}, "geometry": {"type": "Point", "coordinates": [25.95399, 43.84983]}},
{"type": "Feature", "id": "og_ARtGV2J_btqByJGyq43EvBWc=", "properties": {"ref": "bg100219001", "@spider": "yettel_bg", "shop": "telecommunication", "addr:street_address": "\u0443\u043b. \u041c\u0430\u043a\u0435\u0434\u043e\u043d\u0438\u044f 33", "addr:city": "\u0421\u0430\u043c\u043e\u043a\u043e\u0432", "addr:country": "BG", "name": "Yettel", "phone": "0722/90650, 0898192952", "brand": "Yettel", "brand:wikidata": "Q14915070", "nsi_id": "yettel-5ceaa9"}, "geometry": {"type": "Point", "coordinates": [23.55948, 42.33717]}},
{"type": "Feature", "id": "DrOpL9s8-7jYwv1C0-Wn9v11Beg=", "properties": {"ref": "bg100214001", "@spider": "yettel_bg", "shop": "telecommunication", "addr:street_address": "\u043f\u043b. \u041c\u0430\u043a\u0435\u0434\u043e\u043d\u0438\u044f 22", "addr:city": "\u0421\u0430\u043d\u0434\u0430\u043d\u0441\u043a\u0438", "addr:country": "BG", "name": "Yettel", "phone": "0746/90277", "brand": "Yettel", "brand:wikidata": "Q14915070", "nsi_id": "yettel-5ceaa9"}, "geometry": {"type": "Point", "coordinates": [23.27872, 41.56281]}},
{"type": "Feature", "id": "AlDsHRLr9z8ZRmFuiAtyF4LcwoU=", "properties": {"ref": "bg110000075", "@spider": "yettel_bg", "shop": "telecommunication", "addr:street_address": "\u0431\u0443\u043b. \u0411\u044a\u043b\u0433\u0430\u0440\u0438\u044f 111, \u043c\u0430\u0433\u0430\u0437\u0438\u043d 2", "addr:city": "\u0421\u0432\u0438\u043b\u0435\u043d\u0433\u0440\u0430\u0434", "addr:country": "BG", "name": "Yettel", "phone": "0379/99087", "brand": "Yettel", "brand:wikidata": "Q14915070", "nsi_id": "yettel-5ceaa9"}, "geometry": {"type": "Point", "coordinates": [26.20045, 41.76609]}},
{"type": "Feature", "id": "WlctbYXWQ4JDRsDTi3tPSA7fWsg=", "properties": {"ref": "bg100131054", "@spider": "yettel_bg", "shop": "telecommunication", "addr:street_address": "\u0443\u043b. \u0426\u0430\u0440 \u041e\u0441\u0432\u043e\u0431\u043e\u0434\u0438\u0442\u0435\u043b 106", "addr:city": "\u0421\u0432\u0438\u0449\u043e\u0432", "addr:country": "BG", "name": "Yettel", "phone": "0631/99459, 0898196459", "brand": "Yettel", "brand:wikidata": "Q14915070", "nsi_id": "yettel-5ceaa9"}, "geometry": {"type": "Point", "coordinates": [25.35097, 43.61568]}},
{"type": "Feature", "id": "4-ifJ9X2MxbLtMbtHiPR4JLnnMo=", "properties": {"ref": "bg100164001", "@spider": "yettel_bg", "shop": "telecommunication", "addr:street_address": "\u0443\u043b. \u0426\u0430\u0440 \u0421\u0438\u043c\u0435\u043e\u043d 18", "addr:city": "\u0421\u0432\u043e\u0433\u0435", "addr:country": "BG", "name": "Yettel", "phone": "0726/99155", "brand": "Yettel", "brand:wikidata": "Q14915070", "nsi_id": "yettel-5ceaa9"}, "geometry": {"type": "Point", "coordinates": [23.34496, 42.96086]}},
{"type": "Feature", "id": "VIzY84zyr-v7dBlCsGuN73kHL-o=", "properties": {"ref": "bg100259001", "@spider": "yettel_bg", "shop": "telecommunication", "addr:street_address": "\u0443\u043b. \u041e\u0441\u0432\u043e\u0431\u043e\u0436\u0434\u0435\u043d\u0438\u0435 31", "addr:city": "\u0414\u0435\u0432\u0438\u043d", "addr:country": "BG", "name": "Yettel", "phone": "030152505, 0898196505", "brand": "Yettel", "brand:wikidata": "Q14915070", "nsi_id": "yettel-5ceaa9"}, "geometry": {"type": "Point", "coordinates": [24.39528, 41.74299]}},
{"type": "Feature", "id": "EJCpXNSliOYVpT3jXHHiuMhczE4=", "properties": {"ref": "bg100168001", "@spider": "yettel_bg", "shop": "telecommunication", "addr:street_address": "\u0431\u0443\u043b. \u0421\u044a\u0435\u0434\u0438\u043d\u0435\u043d\u0438\u0435 109", "addr:city": "\u0414\u0435\u0432\u043d\u044f", "addr:country": "BG", "name": "Yettel", "phone": "35951958090, 0898196690", "brand": "Yettel", "brand:wikidata": "Q14915070", "nsi_id": "yettel-5ceaa9"}, "geometry": {"type": "Point", "coordinates": [27.56945, 43.22281]}},
{"type": "Feature", "id": "_2OttejW1VXoSeLGH-f2kq32OBE=", "properties": {"ref": "bg100000076", "@spider": "yettel_bg", "shop": "telecommunication", "addr:street_address": "\u0431\u0443\u043b. \u0414\u0438\u043c\u0438\u0442\u044a\u0440 \u0411\u043b\u0430\u0433\u043e\u0435\u0432 9,\u0432\u0445.\u0412,\u0435\u0442.1", "addr:city": "\u0414\u0438\u043c\u0438\u0442\u0440\u043e\u0432\u0433\u0440\u0430\u0434", "addr:country": "BG", "name": "Yettel", "phone": "0391/94551", "brand": "Yettel", "brand:wikidata": "Q14915070", "nsi_id": "yettel-5ceaa9"}, "geometry": {"type": "Point", "coordinates": [25.59224, 42.05561]}},
{"type": "Feature", "id": "4Qk2EOK3g5WNlFn8pvDnwtA7IRg=", "properties": {"ref": "bg110000121", "@spider": "yettel_bg", "shop": "telecommunication", "addr:street_address": "\u0443\u043b. \u041e\u0442\u0435\u0446 \u041f\u0430\u0438\u0441\u0438\u0439 23", "addr:city": "\u0414\u043e\u0431\u0440\u0438\u0447", "addr:country": "BG", "name": "Yettel", "phone": "058/590052, 0898192266", "brand": "Yettel", "brand:wikidata": "Q14915070", "nsi_id": "yettel-5ceaa9"}, "geometry": {"type": "Point", "coordinates": [27.83327, 43.57043]}},
{"type": "Feature", "id": "GIVMCV_rqPxhBpiB-5zLmukU6mk=", "properties": {"ref": "bg100000061", "@spider": "yettel_bg", "shop": "telecommunication", "addr:street_address": "\u0443\u043b. \u041d\u0435\u0437\u0430\u0432\u0438\u0441\u0438\u043c\u043e\u0441\u0442 2", "addr:city": "\u0414\u043e\u0431\u0440\u0438\u0447", "addr:country": "BG", "name": "Yettel", "phone": "058590009, 0898196209", "brand": "Yettel", "brand:wikidata": "Q14915070", "nsi_id": "yettel-5ceaa9"}, "geometry": {"type": "Point", "coordinates": [27.8277, 43.56952]}},
{"type": "Feature", "id": "THILHPdZ4JfQYo_skGwDFAhDSJw=", "properties": {"ref": "bg100000015", "@spider": "yettel_bg", "shop": "telecommunication", "addr:street_address": "\u043f\u043b. \u0421\u0432\u043e\u0431\u043e\u0434\u0430 9, \u0431\u043b. 29", "addr:city": "\u0414\u043e\u0431\u0440\u0438\u0447", "addr:country": "BG", "name": "Yettel", "phone": "058/590050", "brand": "Yettel", "brand:wikidata": "Q14915070", "nsi_id": "yettel-5ceaa9"}, "geometry": {"type": "Point", "coordinates": [27.829383, 43.568916]}},
{"type": "Feature", "id": "NWxIRV1BIiCDqTjgTLtGH_r6Bjg=", "properties": {"ref": "bg100169001", "@spider": "yettel_bg", "shop": "telecommunication", "addr:street_address": "\u0443\u043b. \u0422\u0438\u0447\u0430 6", "addr:city": "\u0414\u043e\u043b\u043d\u0438 \u0427\u0438\u0444\u043b\u0438\u043a", "addr:country": "BG", "name": "Yettel", "phone": "051427551, 0898194873", "brand": "Yettel", "brand:wikidata": "Q14915070", "nsi_id": "yettel-5ceaa9"}, "geometry": {"type": "Point", "coordinates": [27.71902, 42.99217]}},
{"type": "Feature", "id": "yf26ZbSpk4QM-6Xw4HugqJQHdDI=", "properties": {"ref": "bg100225002", "@spider": "yettel_bg", "shop": "telecommunication", "addr:street_address": "\u0443\u043b. \u0425\u0438\u0441\u0430\u0440 1", "addr:city": "\u0414\u043e\u0441\u043f\u0430\u0442", "addr:country": "BG", "name": "Yettel", "phone": "030454080, 0898196080", "brand": "Yettel", "brand:wikidata": "Q14915070", "nsi_id": "yettel-5ceaa9"}, "geometry": {"type": "Point", "coordinates": [24.15885, 41.64736]}},
{"type": "Feature", "id": "tWRDCVO6ntfkLafckGKGvVOUKiU=", "properties": {"ref": "bg110000066", "@spider": "yettel_bg", "shop": "telecommunication", "addr:street_address": "\u0443\u043b. \u041d\u0438\u043a\u043e\u043b\u0430\u0435\u0432\u0441\u043a\u0430 21\u0410", "addr:city": "\u0414\u0443\u043f\u043d\u0438\u0446\u0430", "addr:country": "BG", "name": "Yettel", "phone": "0701/99052, 0898192932", "brand": "Yettel", "brand:wikidata": "Q14915070", "nsi_id": "yettel-5ceaa9"}, "geometry": {"type": "Point", "coordinates": [23.12082, 42.266]}},
{"type": "Feature", "id": "fi-eqNmezPmKrPZT0EfEFrcyF8s=", "properties": {"ref": "bg100000022", "@spider": "yettel_bg", "shop": "telecommunication", "addr:street_address": "\u0443\u043b. \u0421\u0432\u0435\u0442\u0438 \u0418\u0432\u0430\u043d \u0420\u0438\u043b\u0441\u043a\u0438 4", "addr:city": "\u0414\u0443\u043f\u043d\u0438\u0446\u0430", "addr:country": "BG", "name": "Yettel", "phone": "0701/99050", "brand": "Yettel", "brand:wikidata": "Q14915070", "nsi_id": "yettel-5ceaa9"}, "geometry": {"type": "Point", "coordinates": [23.11613, 42.26442]}},
{"type": "Feature", "id": "DSJALxmWwZjlSvfBbDlJrIAZrOI=", "properties": {"ref": "bg100174001", "@spider": "yettel_bg", "shop": "telecommunication", "addr:street_address": "\u0410\u0432\u0442\u043e\u0433\u0430\u0440\u0430, \u043c\u0430\u0433\u0430\u0437\u0438\u043d 6", "addr:city": "\u0415\u043b\u0438\u043d \u041f\u0435\u043b\u0438\u043d", "addr:country": "BG", "name": "Yettel", "phone": "35972599009, 0898196409", "brand": "Yettel", "brand:wikidata": "Q14915070", "nsi_id": "yettel-5ceaa9"}, "geometry": {"type": "Point", "coordinates": [23.59864, 42.67112]}},
{"type": "Feature", "id": "qzCyDEoSgJG3e2c0OHuyOMRryAM=", "properties": {"ref": "bg100236001", "@spider": "yettel_bg", "shop": "telecommunication", "addr:street_address": "\u0443\u043b. \u0422\u044a\u0440\u0433\u043e\u0432\u0441\u043a\u0430 21", "addr:city": "\u0415\u043b\u0445\u043e\u0432\u043e", "addr:country": "BG", "name": "Yettel", "phone": "047899001, 0898196992", "brand": "Yettel", "brand:wikidata": "Q14915070", "nsi_id": "yettel-5ceaa9"}, "geometry": {"type": "Point", "coordinates": [26.56633, 42.1718]}},
{"type": "Feature", "id": "G5isECFvoYMDT41kBpmTA65VcaM=", "properties": {"ref": "bg100177001", "@spider": "yettel_bg", "shop": "telecommunication", "addr:street_address": "\u0443\u043b. \u0411\u0435\u043b\u043e\u0432\u0438\u0434\u043e\u0432\u043e, \u0431\u043b. 192", "addr:city": "\u0417\u043b\u0430\u0442\u043e\u0433\u0440\u0430\u0434", "addr:postcode": "4980", "addr:country": "BG", "name": "Yettel", "phone": "030719122, 0898196989", "brand": "Yettel", "brand:wikidata": "Q14915070", "nsi_id": "yettel-5ceaa9"}, "geometry": {"type": "Point", "coordinates": [25.0973084, 41.3792405]}},
{"type": "Feature", "id": "txD4DN-7vq2s8VteDTctNXwUOkA=", "properties": {"ref": "bg100174002", "@spider": "yettel_bg", "shop": "telecommunication", "addr:street_address": "\u0443\u043b. \u0426\u0430\u0440 \u041e\u0441\u0432\u043e\u0431\u043e\u0434\u0438\u0442\u0435\u043b 110", "addr:city": "\u0418\u0445\u0442\u0438\u043c\u0430\u043d", "addr:country": "BG", "name": "Yettel", "phone": "072490010, 0898194810", "brand": "Yettel", "brand:wikidata": "Q14915070", "nsi_id": "yettel-5ceaa9"}, "geometry": {"type": "Point", "coordinates": [23.81655, 42.43706]}},
{"type": "Feature", "id": "EPL93ts_V7I3wdye0bYYpBG0C1c=", "properties": {"ref": "bg100189001", "@spider": "yettel_bg", "shop": "telecommunication", "addr:street_address": "\u0443\u043b. \u0411\u044a\u043b\u0433\u0430\u0440\u0438\u044f 59", "addr:city": "\u041a\u0430\u0432\u0430\u0440\u043d\u0430", "addr:postcode": "9650", "addr:country": "BG", "name": "Yettel", "phone": "0570/84440", "brand": "Yettel", "brand:wikidata": "Q14915070", "nsi_id": "yettel-5ceaa9"}, "geometry": {"type": "Point", "coordinates": [28.3358111, 43.435776]}},
{"type": "Feature", "id": "3OUpiObZZfVuG2zCcyWV2KOG5ec=", "properties": {"ref": "bg100000065", "@spider": "yettel_bg", "shop": "telecommunication", "addr:street_address": "\u0431\u0443\u043b. \u041a\u043d\u044f\u0437 \u0410\u043b\u0435\u043a\u0441\u0430\u043d\u0434\u044a\u0440 \u0411\u0430\u0442\u0435\u043d\u0431\u0435\u0440\u0433 7", "addr:city": "\u041a\u0430\u0437\u0430\u043d\u043b\u044a\u043a", "addr:country": "BG", "name": "Yettel", "phone": "043158100, 0898194100", "brand": "Yettel", "brand:wikidata": "Q14915070", "nsi_id": "yettel-5ceaa9"}, "geometry": {"type": "Point", "coordinates": [25.3955, 42.618999]}},
{"type": "Feature", "id": "BLrGLtghZtwGu1EgbzUVwwEsnyY=", "properties": {"ref": "bg100000033", "@spider": "yettel_bg", "shop": "telecommunication", "addr:street_address": "\u043f\u043b. \u0421\u0435\u0432\u0442\u043e\u043f\u043e\u043b\u0438\u0441 2", "addr:city": "\u041a\u0430\u0437\u0430\u043d\u043b\u044a\u043a", "addr:country": "BG", "name": "Yettel", "phone": "0431/58050", "brand": "Yettel", "brand:wikidata": "Q14915070", "nsi_id": "yettel-5ceaa9"}, "geometry": {"type": "Point", "coordinates": [25.39277, 42.61956]}},
{"type": "Feature", "id": "OpXyxiBiVN30eeSCORsm6c8S6MY=", "properties": {"ref": "bg100231001", "@spider": "yettel_bg", "shop": "telecommunication", "addr:street_address": "\u0431\u0443\u043b. \u0411\u044a\u043b\u0433\u0430\u0440\u0438\u044f 1", "addr:city": "\u041a\u0430\u0440\u043d\u043e\u0431\u0430\u0442", "addr:country": "BG", "name": "Yettel", "phone": "055984111, 0898196111", "brand": "Yettel", "brand:wikidata": "Q14915070", "nsi_id": "yettel-5ceaa9"}, "geometry": {"type": "Point", "coordinates": [26.9851, 42.6493]}},
{"type": "Feature", "id": "AJqJo9e_xU0k7fNdieJWDhAEu34=", "properties": {"ref": "bg100175003", "@spider": "yettel_bg", "shop": "telecommunication", "addr:street_address": "\u0443\u043b. \u041c\u0430\u0440\u0438\u043d \u0411\u043e\u0435\u0432 66", "addr:city": "\u041a\u043d\u0435\u0436\u0430", "addr:country": "BG", "name": "Yettel", "phone": "35991329090, 0898198090", "brand": "Yettel", "brand:wikidata": "Q14915070", "nsi_id": "yettel-5ceaa9"}, "geometry": {"type": "Point", "coordinates": [24.079821, 43.495515]}},
{"type": "Feature", "id": "gNK3y0XmhvKwYFlVyDnQP-5CFGM=", "properties": {"ref": "bg100223002", "@spider": "yettel_bg", "shop": "telecommunication", "addr:street_address": "\u0443\u043b. \u041a\u0438\u0440\u0438\u043b \u0438 \u041c\u0435\u0442\u043e\u0434\u0438\u0439 1", "addr:city": "\u041a\u043e\u0437\u043b\u043e\u0434\u0443\u0439", "addr:country": "BG", "name": "Yettel", "phone": "097398630, 0898194630", "brand": "Yettel", "brand:wikidata": "Q14915070", "nsi_id": "yettel-5ceaa9"}, "geometry": {"type": "Point", "coordinates": [23.72904, 43.77611]}},
{"type": "Feature", "id": "6cNgmlsZ36ieVc-4Qr9p9UgG4G0=", "properties": {"ref": "bg100219002", "@spider": "yettel_bg", "shop": "telecommunication", "addr:street_address": "\u0443\u043b. \u0415\u043b\u0435\u043a\u0442\u0440\u0430, \u0435\u0442. 1, \u043e\u0431\u0435\u043a\u0442 8 \u0411\u0438\u043b\u043b\u0430 \u041f\u0430\u0440\u043a", "addr:city": "\u041a\u043e\u0441\u0442\u0438\u043d\u0431\u0440\u043e\u0434", "addr:postcode": "2230", "addr:country": "BG", "name": "Yettel", "phone": "072191010, 0898198410", "brand": "Yettel", "brand:wikidata": "Q14915070", "nsi_id": "yettel-5ceaa9"}, "geometry": {"type": "Point", "coordinates": [23.21028, 42.80927]}},
{"type": "Feature", "id": "RsDrC-sW5M0xKJfvxR8SPmp9V0Q=", "properties": {"ref": "bg100131036", "@spider": "yettel_bg", "shop": "telecommunication", "addr:street_address": "\u0431\u0443\u043b. \u0422\u0440\u0430\u043a\u0438\u044f 1", "addr:city": "\u041a\u044a\u0440\u0434\u0436\u0430\u043b\u0438", "addr:country": "BG", "name": "Yettel", "phone": "036152840, 0898196840", "brand": "Yettel", "brand:wikidata": "Q14915070", "nsi_id": "yettel-5ceaa9"}, "geometry": {"type": "Point", "coordinates": [25.368999, 41.644798]}},
{"type": "Feature", "id": "giQjhEk5WDgXyW1ZYYy_hJcSIIE=", "properties": {"ref": "bg100207002", "@spider": "yettel_bg", "shop": "telecommunication", "addr:street_address": "\u0443\u043b. \u041b\u044e\u0431\u0435\u043d \u041a\u0430\u0440\u0430\u0432\u0435\u043b\u043e\u0432 5", "addr:city": "\u041a\u044e\u0441\u0442\u0435\u043d\u0434\u0438\u043b", "addr:country": "BG", "name": "Yettel", "phone": "078/920789, 0898192942", "brand": "Yettel", "brand:wikidata": "Q14915070", "nsi_id": "yettel-5ceaa9"}, "geometry": {"type": "Point", "coordinates": [22.692, 42.27995]}},
{"type": "Feature", "id": "TVMFNEZUDOOXY4NWcEWb_8aacWI=", "properties": {"ref": "bg100227001", "@spider": "yettel_bg", "shop": "telecommunication", "addr:street_address": "\u0443\u043b. \u0410\u043b\u0435\u043a\u0441\u0430\u043d\u0434\u044a\u0440 \u0421\u0442\u0430\u043c\u0431\u043e\u043b\u0438\u0439\u0441\u043a\u0438 32", "addr:city": "\u041b\u0435\u0432\u0441\u043a\u0438", "addr:postcode": "5900", "addr:country": "BG", "name": "Yettel", "phone": "065090003, 0898194872", "brand": "Yettel", "brand:wikidata": "Q14915070", "nsi_id": "yettel-5ceaa9"}, "geometry": {"type": "Point", "coordinates": [25.1414121, 43.3570078]}},
{"type": "Feature", "id": "iDs857sW4sefdt70G02294OBHrs=", "properties": {"ref": "bg100123001", "@spider": "yettel_bg", "shop": "telecommunication", "addr:street_address": "\u0443\u043b. \u0422\u044a\u0440\u0433\u043e\u0432\u0441\u043a\u0430 54, \u0432\u0445. \u0410, \u0435\u0442. 1", "addr:city": "\u041b\u043e\u0432\u0435\u0447", "addr:country": "BG", "name": "Yettel", "phone": "068/520005, 0898196005", "brand": "Yettel", "brand:wikidata": "Q14915070", "nsi_id": "yettel-5ceaa9"}, "geometry": {"type": "Point", "coordinates": [24.71832, 43.14073]}},
{"type": "Feature", "id": "LWK_eWWEixKSPDSrP8FdeH1HKgg=", "properties": {"ref": "bg100224001", "@spider": "yettel_bg", "shop": "telecommunication", "addr:street_address": "\u0443\u043b. \u0421\u043b\u0430\u0432\u044f\u043d\u0441\u043a\u0430 3", "addr:city": "\u041b\u043e\u043c", "addr:country": "BG", "name": "Yettel", "phone": "0971/80755, 0898192948", "brand": "Yettel", "brand:wikidata": "Q14915070", "nsi_id": "yettel-5ceaa9"}, "geometry": {"type": "Point", "coordinates": [23.23759, 43.82452]}},
{"type": "Feature", "id": "9CBlctJHmEKzCIFEXq7nVjhqe78=", "properties": {"ref": "bg100200001", "@spider": "yettel_bg", "shop": "telecommunication", "addr:street_address": "\u0443\u043b. \u0412\u044a\u0437\u0440\u0430\u0436\u0434\u0430\u043d\u0435 88", "addr:city": "\u041b\u0443\u043a\u043e\u0432\u0438\u0442", "addr:country": "BG", "name": "Yettel", "phone": "069799102, 0898192908", "brand": "Yettel", "brand:wikidata": "Q14915070", "nsi_id": "yettel-5ceaa9"}, "geometry": {"type": "Point", "coordinates": [24.16333, 43.20633]}},
{"type": "Feature", "id": "8RgkUYjlwc2tCbKMXI_BNOrsMV0=", "properties": {"ref": "bg100175001", "@spider": "yettel_bg", "shop": "telecommunication", "addr:street_address": "\u0443\u043b. \u0425\u0440\u0438\u0441\u0442\u043e \u0411\u043e\u0442\u0435\u0432 35", "addr:city": "\u041c\u0435\u0437\u0434\u0440\u0430", "addr:country": "BG", "name": "Yettel", "phone": "091050594, 0898192909", "brand": "Yettel", "brand:wikidata": "Q14915070", "nsi_id": "yettel-5ceaa9"}, "geometry": {"type": "Point", "coordinates": [23.7124, 43.1423]}},
{"type": "Feature", "id": "bDpGbAQpHffUhRlmWM3SVelX-wY=", "properties": {"ref": "bg100217001", "@spider": "yettel_bg", "shop": "telecommunication", "addr:street_address": "\u0443\u043b. \u0413\u044e\u043c\u044e\u0440\u0434\u0436\u0438\u043d\u0441\u043a\u0430 37", "addr:city": "\u041c\u043e\u043c\u0447\u0438\u043b\u0433\u0440\u0430\u0434", "addr:country": "BG", "name": "Yettel", "phone": "03631/9868, 03631/9981, 03631/9980", "brand": "Yettel", "brand:wikidata": "Q14915070", "nsi_id": "yettel-5ceaa9"}, "geometry": {"type": "Point", "coordinates": [25.407732, 41.528577]}},
{"type": "Feature", "id": "_YegBKQAC-ynHjsgouzq6KdshWk=", "properties": {"ref": "bg100000075", "@spider": "yettel_bg", "shop": "telecommunication", "addr:street_address": "\u0443\u043b. \u201e\u0413\u0440\u0430\u0444 \u0418\u0433\u043d\u0430\u0442\u0438\u0435\u0432\u201c \u2116 4, \u0435\u0442.1.", "addr:city": "\u041c\u043e\u043d\u0442\u0430\u043d\u0430", "addr:country": "BG", "name": "Yettel", "phone": "0898192902;096521999", "brand": "Yettel", "brand:wikidata": "Q14915070", "nsi_id": "yettel-5ceaa9"}, "geometry": {"type": "Point", "coordinates": [23.225759, 43.406358]}},
{"type": "Feature", "id": "Kz-3ImFH_hkoKx7QlQceWx_cYbE=", "properties": {"ref": "bg100236002", "@spider": "yettel_bg", "shop": "telecommunication", "addr:street_address": "\u0443\u043b. \u0412\u0430\u0441\u0438\u043b \u041b\u0435\u0432\u0441\u043a\u0438 49", "addr:city": "\u041d\u043e\u0432\u0430 \u0417\u0430\u0433\u043e\u0440\u0430", "addr:country": "BG", "name": "Yettel", "phone": "0457/99027", "brand": "Yettel", "brand:wikidata": "Q14915070", "nsi_id": "yettel-5ceaa9"}, "geometry": {"type": "Point", "coordinates": [26.0128, 42.493099]}},
{"type": "Feature", "id": "bzg4o75OffW0N7BA37Km8n9jPA0=", "properties": {"ref": "bg100191001", "@spider": "yettel_bg", "shop": "telecommunication", "addr:street_address": "\u0443\u043b. \u0426\u0430\u0440 \u041e\u0441\u0432\u043e\u0431\u043e\u0434\u0438\u0442\u0435\u043b 5", "addr:city": "\u041d\u043e\u0432\u0438 \u043f\u0430\u0437\u0430\u0440", "addr:country": "BG", "name": "Yettel", "phone": "053790466, 0898196466", "brand": "Yettel", "brand:wikidata": "Q14915070", "nsi_id": "yettel-5ceaa9"}, "geometry": {"type": "Point", "coordinates": [27.19483, 43.34612]}},
{"type": "Feature", "id": "Jm9uLRfxg0QkMkAr2Tb83k6NcAE=", "properties": {"ref": "bg100235001", "@spider": "yettel_bg", "shop": "telecommunication", "addr:street_address": "\u0443\u043b. \u0426\u0430\u0440 \u041e\u0441\u0432\u043e\u0431\u043e\u0434\u0438\u0442\u0435\u043b 2", "addr:city": "\u041e\u043c\u0443\u0440\u0442\u0430\u0433", "addr:postcode": "7900", "addr:country": "BG", "name": "Yettel", "phone": "060587050, 0898194950", "brand": "Yettel", "brand:wikidata": "Q14915070", "nsi_id": "yettel-5ceaa9"}, "geometry": {"type": "Point", "coordinates": [26.41698, 43.10854]}},
{"type": "Feature", "id": "esVnCMJXWYt0zZ0sLkZiZoOlI_w=", "properties": {"ref": "bg100238001", "@spider": "yettel_bg", "shop": "telecommunication", "addr:street_address": "\u0431\u0443\u043b. \u0420\u0443\u0441\u043a\u0438 1", "addr:city": "\u041f\u0430\u0432\u043b\u0438\u043a\u0435\u043d\u0438", "addr:country": "BG", "name": "Yettel", "phone": "35961099009, 0898198009", "brand": "Yettel", "brand:wikidata": "Q14915070", "nsi_id": "yettel-5ceaa9"}, "geometry": {"type": "Point", "coordinates": [25.30804, 43.23738]}},
{"type": "Feature", "id": "oW6b-rDUxyEcjNZD3T3xJohEO0o=", "properties": {"ref": "bg110000073", "@spider": "yettel_bg", "shop": "telecommunication", "addr:street_address": "\u0443\u043b. \u0410\u0441\u0435\u043d \u0417\u043b\u0430\u0442\u0430\u0440\u0435\u0432 1", "addr:city": "\u041f\u0430\u0437\u0430\u0440\u0434\u0436\u0438\u043a", "addr:country": "BG", "name": "Yettel", "phone": "034990051, 0898192491", "brand": "Yettel", "brand:wikidata": "Q14915070", "nsi_id": "yettel-5ceaa9"}, "geometry": {"type": "Point", "coordinates": [24.332399, 42.191399]}},
{"type": "Feature", "id": "Amo-ozT5wG0nJpsezGUYfZOGDgA=", "properties": {"ref": "bg100000070", "@spider": "yettel_bg", "shop": "telecommunication", "addr:street_address": "\u0431\u0443\u043b. \u0411\u044a\u043b\u0433\u0430\u0440\u0438\u044f 5", "addr:city": "\u041f\u0430\u0437\u0430\u0440\u0434\u0436\u0438\u043a", "addr:country": "BG", "name": "Yettel", "phone": "034/990060, 0898194070", "brand": "Yettel", "brand:wikidata": "Q14915070", "nsi_id": "yettel-5ceaa9"}, "geometry": {"type": "Point", "coordinates": [24.33158, 42.18867]}},
{"type": "Feature", "id": "-Pv_40Ylj0IlRsyHLyJvON59mVM=", "properties": {"ref": "bg100215001", "@spider": "yettel_bg", "shop": "telecommunication", "addr:street_address": "\u0443\u043b. \u0426\u0430\u0440 \u041e\u0441\u0432\u043e\u0431\u043e\u0434\u0438\u0442\u0435\u043b 13", "addr:city": "\u0410\u0439\u0442\u043e\u0441", "addr:country": "BG", "name": "Yettel", "phone": "055883876, 0898192434", "brand": "Yettel", "brand:wikidata": "Q14915070", "nsi_id": "yettel-5ceaa9"}, "geometry": {"type": "Point", "coordinates": [27.25438, 42.703062]}},
{"type": "Feature", "id": "M52m5pZBI8a_mnfw6lsw1J2_Mzg=", "properties": {"ref": "bg110000030", "@spider": "yettel_bg", "shop": "telecommunication", "addr:street_address": "\u0443\u043b. \u0422\u0440\u0435\u0442\u0438 \u041c\u0430\u0440\u0442 27", "addr:city": "\u0410\u0441\u0435\u043d\u043e\u0432\u0433\u0440\u0430\u0434", "addr:country": "BG", "name": "Yettel", "phone": "033199870, 0898192887", "brand": "Yettel", "brand:wikidata": "Q14915070", "nsi_id": "yettel-5ceaa9"}, "geometry": {"type": "Point", "coordinates": [24.8743, 42.00573]}},
{"type": "Feature", "id": "QIjsbKbbRchkv9XdwWKlpihCnUk=", "properties": {"ref": "bg100000067", "@spider": "yettel_bg", "shop": "telecommunication", "addr:street_address": "\u0443\u043b. \u041c\u0430\u0440\u0438\u0446\u0430 4", "addr:city": "\u0410\u0441\u0435\u043d\u043e\u0432\u0433\u0440\u0430\u0434", "addr:country": "BG", "name": "Yettel", "phone": "0331/99897, 0898196887", "brand": "Yettel", "brand:wikidata": "Q14915070", "nsi_id": "yettel-5ceaa9"}, "geometry": {"type": "Point", "coordinates": [24.871901, 42.008598]}},
{"type": "Feature", "id": "9AFfzzIxvSfIFexZFjbA66f-cgs=", "properties": {"ref": "bg100189002", "@spider": "yettel_bg", "shop": "telecommunication", "addr:street_address": "\u0443\u043b. \u0427\u0435\u0440\u043d\u043e \u043c\u043e\u0440\u0435 32 \u0410", "addr:city": "\u0411\u0430\u043b\u0447\u0438\u043a", "addr:postcode": "9600", "addr:country": "BG", "name": "Yettel", "phone": "057990059, 0898194459", "brand": "Yettel", "brand:wikidata": "Q14915070", "nsi_id": "yettel-5ceaa9"}, "geometry": {"type": "Point", "coordinates": [28.1636191, 43.40916]}},
{"type": "Feature", "id": "4tisholyAtOMcFF8cOAmMT1Sne8=", "properties": {"ref": "bg100000060", "@spider": "yettel_bg", "shop": "telecommunication", "addr:street_address": "\u0443\u043b. \u0421\u0432. \u0421\u0432. \u041a\u0438\u0440\u0438\u043b \u0438 \u041c\u0435\u0442\u043e\u0434\u0438 3", "addr:city": "\u0411\u043b\u0430\u0433\u043e\u0435\u0432\u0433\u0440\u0430\u0434", "addr:country": "BG", "name": "Yettel", "phone": "073591052, 0898194052", "brand": "Yettel", "brand:wikidata": "Q14915070", "nsi_id": "yettel-5ceaa9"}, "geometry": {"type": "Point", "coordinates": [23.094308, 42.020119]}},
{"type": "Feature", "id": "BCgYBp5SojfaXRWU4MXy9-loiDI=", "properties": {"ref": "bg100000016", "@spider": "yettel_bg", "shop": "telecommunication", "addr:street_address": "\u0443\u043b. \u0422\u043e\u0434\u043e\u0440 \u0410\u043b\u0435\u043a\u0441\u0430\u043d\u0434\u0440\u043e\u0432 3", "addr:city": "\u0411\u043b\u0430\u0433\u043e\u0435\u0432\u0433\u0440\u0430\u0434", "addr:country": "BG", "name": "Yettel", "phone": "073/591050", "brand": "Yettel", "brand:wikidata": "Q14915070", "nsi_id": "yettel-5ceaa9"}, "geometry": {"type": "Point", "coordinates": [23.100214, 42.020116]}},
{"type": "Feature", "id": "k7IpnkZNXAIdAdtKIihs0YyMQKc=", "properties": {"ref": "bg100221001", "@spider": "yettel_bg", "shop": "telecommunication", "addr:street_address": "\u043f\u043b. \u0421\u0430\u0440\u0430\u043d\u0441\u043a 7", "addr:city": "\u0411\u043e\u0442\u0435\u0432\u0433\u0440\u0430\u0434", "addr:country": "BG", "name": "Yettel", "phone": "072399198, 0898194198", "brand": "Yettel", "brand:wikidata": "Q14915070", "nsi_id": "yettel-5ceaa9"}, "geometry": {"type": "Point", "coordinates": [23.793366, 42.907651]}},
{"type": "Feature", "id": "RTcZkCiNCIG2UU_qwTofIb_yaes=", "properties": {"ref": "bg110000049", "@spider": "yettel_bg", "shop": "telecommunication", "addr:street_address": "\u0443\u043b. \u0410\u043b\u0435\u043a\u0441\u0430\u043d\u0434\u0440\u043e\u0432\u0441\u043a\u0430 107", "addr:city": "\u0411\u0443\u0440\u0433\u0430\u0441", "addr:country": "BG", "name": "Yettel", "phone": "056990052, 0898192436", "brand": "Yettel", "brand:wikidata": "Q14915070", "nsi_id": "yettel-5ceaa9"}, "geometry": {"type": "Point", "coordinates": [27.4701, 42.499916]}},
{"type": "Feature", "id": "9Y-OsHTpX4ZmFN1J2qNadhelXjA=", "properties": {"ref": "bg110000154", "@spider": "yettel_bg", "shop": "telecommunication", "addr:street_address": "Mall \u0411\u0443\u0440\u0433\u0430\u0441 \u041f\u043b\u0430\u0437\u0430, \u0443\u043b. \u0422\u0440\u0430\u043d\u0441\u043f\u043e\u0440\u0442\u043d\u0430", "addr:city": "\u0411\u0443\u0440\u0433\u0430\u0441", "addr:country": "BG", "name": "Yettel", "phone": "056/990054 , 0898192211", "brand": "Yettel", "brand:wikidata": "Q14915070", "nsi_id": "yettel-5ceaa9"}, "geometry": {"type": "Point", "coordinates": [27.4573, 42.530701]}},
{"type": "Feature", "id": "O0Wv6jLjZ7sb431MI_uffToMUTs=", "properties": {"ref": "bg100000004", "@spider": "yettel_bg", "shop": "telecommunication", "addr:street_address": "\u0443\u043b. \u0410\u043b\u0435\u043a\u0441\u0430\u043d\u0434\u0440\u043e\u0432\u0441\u043a\u0430 2", "addr:city": "\u0411\u0443\u0440\u0433\u0430\u0441", "addr:country": "BG", "name": "Yettel", "phone": "056990050, 0898192310", "brand": "Yettel", "brand:wikidata": "Q14915070", "nsi_id": "yettel-5ceaa9"}, "geometry": {"type": "Point", "coordinates": [27.4734, 42.491402]}},
{"type": "Feature", "id": "QsCR0BMo-6Uk8CuMa-O5BJyuEgk=", "properties": {"ref": "bg100131058", "@spider": "yettel_bg", "shop": "telecommunication", "addr:street_address": "\u0443\u043b. \u042f\u043d\u043a\u043e \u041a\u043e\u043c\u0438\u0442\u043e\u0432 6, Mall Galleria Burgas", "addr:city": "\u0411\u0443\u0440\u0433\u0430\u0441", "addr:country": "BG", "name": "Yettel", "phone": "056990065, 0898196215", "brand": "Yettel", "brand:wikidata": "Q14915070", "nsi_id": "yettel-5ceaa9"}, "geometry": {"type": "Point", "coordinates": [27.454901, 42.512901]}},
{"type": "Feature", "id": "yHL5IYpcitppNL_mHLLPM7o4ooc=", "properties": {"ref": "bg100131065", "@spider": "yettel_bg", "shop": "telecommunication", "addr:street_address": "\u0436\u043a \u041c\u0435\u0434\u0435\u043d \u0440\u0443\u0434\u043d\u0438\u043a, \u0443\u043b. \u0412\u044a\u0441\u0442\u0430\u043d\u0438\u0447\u0435\u0441\u043a\u0430 302", "addr:city": "\u0411\u0443\u0440\u0433\u0430\u0441", "addr:country": "BG", "name": "Yettel", "phone": "056990069, 0898196169", "brand": "Yettel", "brand:wikidata": "Q14915070", "nsi_id": "yettel-5ceaa9"}, "geometry": {"type": "Point", "coordinates": [27.419701, 42.452801]}},
{"type": "Feature", "id": "9K8MRtCd5M2lj_gXuXr3f73gdgY=", "properties": {"ref": "bg100131044", "@spider": "yettel_bg", "shop": "telecommunication", "addr:street_address": "\u0436\u043a \u0418\u0437\u0433\u0440\u0435\u0432, \u0431\u043b.109, \u0432\u0445. \u0411, e\u0442. 0, \u043e\u0431\u0435\u043a\u0442 6", "addr:city": "\u0411\u0443\u0440\u0433\u0430\u0441", "addr:country": "BG", "name": "Yettel", "phone": "056/990062", "brand": "Yettel", "brand:wikidata": "Q14915070", "nsi_id": "yettel-5ceaa9"}, "geometry": {"type": "Point", "coordinates": [27.46576, 42.5239]}},
{"type": "Feature", "id": "RgYh6OxVZaK1A7LRJj4A50c2KZs=", "properties": {"ref": "bg100195001", "@spider": "yettel_bg", "shop": "telecommunication", "addr:street_address": "\u0443\u043b. \u0425\u0440\u0438\u0441\u0442\u043e \u0411\u043e\u0442\u0435\u0432 16", "addr:city": "\u0411\u044f\u043b\u0430 \u0421\u043b\u0430\u0442\u0438\u043d\u0430", "addr:country": "BG", "name": "Yettel", "phone": "091599051, 0898194875", "brand": "Yettel", "brand:wikidata": "Q14915070", "nsi_id": "yettel-5ceaa9"}, "geometry": {"type": "Point", "coordinates": [23.944201, 43.469898]}},
{"type": "Feature", "id": "uszmFUReMyIu-NwKola8Z1LACfc=", "properties": {"ref": "bg100000063", "@spider": "yettel_bg", "shop": "telecommunication", "addr:street_address": "\u0443\u043b.\u0421\u0442\u0443\u0434\u0435\u043d\u0442\u0441\u043a\u0430 1", "addr:city": "\u0412\u0430\u0440\u043d\u0430", "addr:country": "BG", "name": "Yettel", "phone": "052915068, 0898192068", "brand": "Yettel", "brand:wikidata": "Q14915070", "nsi_id": "yettel-5ceaa9"}, "geometry": {"type": "Point", "coordinates": [27.9319363, 43.2233834]}},
{"type": "Feature", "id": "yP8P5nADxrHITVXSVYvPe5f6zh8=", "properties": {"ref": "bg110000140", "@spider": "yettel_bg", "shop": "telecommunication", "addr:street_address": "Mall Varna, \u0431\u0443\u043b. \u0412\u043b\u0430\u0434\u0438\u0441\u043b\u0430\u0432 \u0412\u0430\u0440\u043d\u0435\u043d\u0447\u0438\u043a 186", "addr:city": "\u0412\u0430\u0440\u043d\u0430", "addr:country": "BG", "name": "Yettel", "phone": "052915055, 0898196968", "brand": "Yettel", "brand:wikidata": "Q14915070", "nsi_id": "yettel-5ceaa9"}, "geometry": {"type": "Point", "coordinates": [27.8892, 43.2202]}},
{"type": "Feature", "id": "FcXXBiMQWPollP-oJKw_eHxpdJI=", "properties": {"ref": "bg110000161", "@spider": "yettel_bg", "shop": "telecommunication", "addr:street_address": "Grand Mall Varna, \u0436.\u043a. \u041c\u043b\u0430\u0434\u043e\u0441\u0442, \u0443\u043b. \u0410\u043d\u0434\u0440\u0435\u0439 \u0421\u0430\u0445\u0430\u0440\u043e\u0432 2", "addr:city": "\u0412\u0430\u0440\u043d\u0430", "addr:country": "BG", "name": "Yettel", "phone": "052/915077", "brand": "Yettel", "brand:wikidata": "Q14915070", "nsi_id": "yettel-5ceaa9"}, "geometry": {"type": "Point", "coordinates": [27.89695, 43.21714]}},
{"type": "Feature", "id": "nmhhrnwXTvmf7J9Rf2GJmszbZbI=", "properties": {"ref": "bg100000049", "@spider": "yettel_bg", "shop": "telecommunication", "addr:street_address": "\u0436\u043a. \u0412\u043b\u0430\u0434\u0438\u0441\u043b\u0430\u0432 \u0412\u0430\u0440\u043d\u0435\u043d\u0447\u0438\u043a, \u0431\u0443\u043b. \u0421\u0432. \u0415\u043b\u0435\u043d\u0430 26", "addr:city": "\u0412\u0430\u0440\u043d\u0430", "addr:country": "BG", "name": "Yettel", "phone": "052915069, 0898196059", "brand": "Yettel", "brand:wikidata": "Q14915070", "nsi_id": "yettel-5ceaa9"}, "geometry": {"type": "Point", "coordinates": [27.8496, 43.245998]}},
{"type": "Feature", "id": "ji7GByNwhr0-WXnRLQxdNdp_dyY=", "properties": {"ref": "bg100000003", "@spider": "yettel_bg", "shop": "telecommunication", "addr:street_address": "\u0443\u043b. \u0414-\u0440 \u041b\u044e\u0434\u0432\u0438\u0433 \u0417\u0430\u043c\u0435\u043d\u0445\u043e\u0444 1", "addr:city": "\u0412\u0430\u0440\u043d\u0430", "addr:country": "BG", "name": "Yettel", "phone": "052/915053", "brand": "Yettel", "brand:wikidata": "Q14915070", "nsi_id": "yettel-5ceaa9"}, "geometry": {"type": "Point", "coordinates": [27.912938, 43.203248]}},
{"type": "Feature", "id": "RK1yJmNIvIXqrnLAFKvg4AYeFT8=", "properties": {"ref": "bg100000009", "@spider": "yettel_bg", "shop": "telecommunication", "addr:street_address": "\u0431\u0443\u043b. \u0412\u043b\u0430\u0434\u0438\u0441\u043b\u0430\u0432 \u0412\u0430\u0440\u043d\u0435\u043d\u0447\u0438\u043a 81A", "addr:city": "\u0412\u0430\u0440\u043d\u0430", "addr:country": "BG", "name": "Yettel", "phone": "052/915050", "brand": "Yettel", "brand:wikidata": "Q14915070", "nsi_id": "yettel-5ceaa9"}, "geometry": {"type": "Point", "coordinates": [27.903999, 43.212799]}},
{"type": "Feature", "id": "-AZcGlxs9VEUlPQFx9743Ukfh_E=", "properties": {"ref": "bg100000030", "@spider": "yettel_bg", "shop": "telecommunication", "addr:street_address": "\u0431\u0443\u043b. 8-\u043c\u0438 \u041f\u0440\u0438\u043c\u043e\u0440\u0441\u043a\u0438 \u043f\u043e\u043b\u043a 76", "addr:city": "\u0412\u0430\u0440\u043d\u0430", "addr:country": "BG", "name": "Yettel", "phone": "052/915056", "brand": "Yettel", "brand:wikidata": "Q14915070", "nsi_id": "yettel-5ceaa9"}, "geometry": {"type": "Point", "coordinates": [27.91922, 43.20863]}},
{"type": "Feature", "id": "8boIQh7o3W5DHWeqldNQl7n10zY=", "properties": {"ref": "bg100131061", "@spider": "yettel_bg", "shop": "telecommunication", "addr:street_address": "\u0443\u043b. \u042f\u043d \u041f\u0430\u043b\u0430\u0445 10, \u0422\u044a\u0440\u0433\u043e\u0432\u0441\u043a\u0438 \u0426\u0435\u043d\u0442\u044a\u0440 \u042f\u043d \u041f\u0430\u043b\u0430\u0445", "addr:city": "\u0412\u0430\u0440\u043d\u0430", "addr:country": "BG", "name": "Yettel", "phone": "052/915061", "brand": "Yettel", "brand:wikidata": "Q14915070", "nsi_id": "yettel-5ceaa9"}, "geometry": {"type": "Point", "coordinates": [27.9142, 43.219601]}},
{"type": "Feature", "id": "QiVg0JfJdjZvnXAAeUNaylTBzNU=", "properties": {"ref": "bg100131016", "@spider": "yettel_bg", "shop": "telecommunication", "addr:street_address": "\u0443\u043b.\u0427\u0430\u0442\u0430\u043b\u0434\u0436\u0430 49", "addr:city": "\u0412\u0430\u0440\u043d\u0430", "addr:country": "BG", "name": "Yettel", "phone": "052915058, 0898196158", "brand": "Yettel", "brand:wikidata": "Q14915070", "nsi_id": "yettel-5ceaa9"}, "geometry": {"type": "Point", "coordinates": [27.92327, 43.21336]}},
{"type": "Feature", "id": "DonR6xl-ID4RaIMQdsdQqrJnh3c=", "properties": {"ref": "bg100191002", "@spider": "yettel_bg", "shop": "telecommunication", "addr:street_address": "\u0443\u043b. \u0425\u0440\u0438\u0441\u0442\u043e \u0411\u043e\u0442\u0435\u0432 2", "addr:city": "\u0412\u0435\u043b\u0438\u043a\u0438 \u041f\u0440\u0435\u0441\u043b\u0430\u0432", "addr:country": "BG", "name": "Yettel", "phone": "053890011, 0898196011", "brand": "Yettel", "brand:wikidata": "Q14915070", "nsi_id": "yettel-5ceaa9"}, "geometry": {"type": "Point", "coordinates": [26.814301, 43.161301]}},
{"type": "Feature", "id": "OlvKtsifmuDKBStz9kzXi2kar9s=", "properties": {"ref": "bg100000044", "@spider": "yettel_bg", "shop": "telecommunication", "addr:street_address": "Central Mall, \u0443\u043b. \u041e\u0431\u043e\u0440\u0438\u0449\u0435 18", "addr:city": "\u0412\u0435\u043b\u0438\u043a\u043e \u0422\u044a\u0440\u043d\u043e\u0432\u043e", "addr:country": "BG", "name": "Yettel", "phone": "062/591065", "brand": "Yettel", "brand:wikidata": "Q14915070", "nsi_id": "yettel-5ceaa9"}, "geometry": {"type": "Point", "coordinates": [25.60035, 43.07943]}},
{"type": "Feature", "id": "3RGyjF8QYOL6LyqEYUxjHAZLCPY=", "properties": {"ref": "bg100000027", "@spider": "yettel_bg", "shop": "telecommunication", "addr:street_address": "\u0443\u043b. \u0412\u0430\u0441\u0438\u043b \u041b\u0435\u0432\u0441\u043a\u0438 8", "addr:city": "\u0412\u0435\u043b\u0438\u043a\u043e \u0422\u044a\u0440\u043d\u043e\u0432\u043e", "addr:country": "BG", "name": "Yettel", "phone": "062591050, 0898196511", "brand": "Yettel", "brand:wikidata": "Q14915070", "nsi_id": "yettel-5ceaa9"}, "geometry": {"type": "Point", "coordinates": [25.6295, 43.07993]}},
{"type": "Feature", "id": "0VQUJdIZ4n7jIgAhrvx4ahfJ1QE=", "properties": {"ref": "bg110000038", "@spider": "yettel_bg", "shop": "telecommunication", "addr:street_address": "\u0443\u043b. \u0426\u0430\u0440 \u0421\u0438\u043c\u0435\u043e\u043d \u0412\u0435\u043b\u0438\u043a\u0438 55", "addr:city": "\u0412\u0438\u0434\u0438\u043d", "addr:country": "BG", "name": "Yettel", "phone": "094/990061, 0898192944", "brand": "Yettel", "brand:wikidata": "Q14915070", "nsi_id": "yettel-5ceaa9"}, "geometry": {"type": "Point", "coordinates": [22.873899, 43.9902]}},
{"type": "Feature", "id": "TCitq9NqxeXv-rQIMQUeNrIQbl0=", "properties": {"ref": "bg110000148", "@spider": "yettel_bg", "shop": "telecommunication", "addr:street_address": "Mall Vidin, \u0431\u0443\u043b. \u0426\u0430\u0440 \u0421\u0438\u043c\u0435\u043e\u043d \u0412\u0435\u043b\u0438\u043a\u0438 20\u0410", "addr:city": "\u0412\u0438\u0434\u0438\u043d", "addr:country": "BG", "name": "Yettel", "phone": "094/990060, 0898192949", "brand": "Yettel", "brand:wikidata": "Q14915070", "nsi_id": "yettel-5ceaa9"}, "geometry": {"type": "Point", "coordinates": [22.87496, 43.98698]}},
{"type": "Feature", "id": "PwT09ZZrq1ZJRQvyCMPHp59tgYo=", "properties": {"ref": "bg110000151", "@spider": "yettel_bg", "shop": "telecommunication", "addr:street_address": "\u0443\u043b. \u041d\u0438\u043a\u043e\u043b\u0430 \u0412\u043e\u0439\u0432\u043e\u0434\u043e\u0432 8", "addr:city": "\u0412\u0440\u0430\u0446\u0430", "addr:country": "BG", "name": "Yettel", "phone": "092990050, 0898192450", "brand": "Yettel", "brand:wikidata": "Q14915070", "nsi_id": "yettel-5ceaa9"}, "geometry": {"type": "Point", "coordinates": [23.5513, 43.204899]}},
{"type": "Feature", "id": "qTRb3SZrm0_kyhCfaag0lJds1mM=", "properties": {"ref": "bg100000031", "@spider": "yettel_bg", "shop": "telecommunication", "addr:street_address": "\u0443\u043b. \u041f\u0435\u0442\u043a\u043e \u041a\u0430\u0440\u0430\u0432\u0435\u043b\u043e\u0432 1", "addr:city": "\u0413\u0430\u0431\u0440\u043e\u0432\u043e", "addr:country": "BG", "name": "Yettel", "phone": "066/990050", "brand": "Yettel", "brand:wikidata": "Q14915070", "nsi_id": "yettel-5ceaa9"}, "geometry": {"type": "Point", "coordinates": [25.3193, 42.872398]}},
{"type": "Feature", "id": "phnJ6TNbrNKakVuEA48DheO6pCo=", "properties": {"ref": "bg100131025", "@spider": "yettel_bg", "shop": "telecommunication", "addr:street_address": "\u0431\u0443\u043b. \u041c\u043e\u0433\u0438\u043b\u044c\u043e\u0432 47, Terra Mall,", "addr:city": "\u0413\u0430\u0431\u0440\u043e\u0432\u043e", "addr:country": "BG", "name": "Yettel", "phone": "066/990052, 0898196152", "brand": "Yettel", "brand:wikidata": "Q14915070", "nsi_id": "yettel-5ceaa9"}, "geometry": {"type": "Point", "coordinates": [25.3132, 42.885899]}},
{"type": "Feature", "id": "4U9TfMqAfZnJWwwLSuS_3mtTKwA=", "properties": {"ref": "bg100206001", "@spider": "yettel_bg", "shop": "telecommunication", "addr:street_address": "\u0443\u043b. \u041a\u043d\u044f\u0437 \u0411\u043e\u0440\u0438\u0441 I 1", "addr:city": "\u0413\u043e\u0440\u043d\u0430 \u041e\u0440\u044f\u0445\u043e\u0432\u0438\u0446\u0430", "addr:postcode": "5100", "addr:country": "BG", "name": "Yettel", "phone": "061899059, 0898192697", "brand": "Yettel", "brand:wikidata": "Q14915070", "nsi_id": "yettel-5ceaa9"}, "geometry": {"type": "Point", "coordinates": [25.6913695, 43.1225733]}},
{"type": "Feature", "id": "jHb8UyJ-1tHb22aorzFcBCZeHTE=", "properties": {"ref": "bg100210001", "@spider": "yettel_bg", "shop": "telecommunication", "addr:street_address": "\u0443\u043b. \u0411\u044f\u043b\u043e \u043c\u043e\u0440\u0435 2", "addr:city": "\u0413\u043e\u0446\u0435 \u0414\u0435\u043b\u0447\u0435\u0432", "addr:country": "BG", "name": "Yettel", "phone": "0751/90230, 0898192934", "brand": "Yettel", "brand:wikidata": "Q14915070", "nsi_id": "yettel-5ceaa9"}, "geometry": {"type": "Point", "coordinates": [23.72624, 41.57138]}},
{"type": "Feature", "id": "aa0eLN_5n6yE5K9YqTSSOYjOUVY=", "properties": {"ref": "bg100225001", "@spider": "yettel_bg", "shop": "telecommunication", "addr:street_address": "\u0443\u043b. \u0411\u044f\u043b\u043e \u041c\u043e\u0440\u0435 15", "addr:city": "\u0413\u043e\u0446\u0435 \u0414\u0435\u043b\u0447\u0435\u0432", "addr:country": "BG", "name": "Yettel", "phone": "075190231, 0898196231", "brand": "Yettel", "brand:wikidata": "Q14915070", "nsi_id": "yettel-5ceaa9"}, "geometry": {"type": "Point", "coordinates": [23.729, 41.5714]}}]}