{"type":"FeatureCollection","features":[{"type": "Feature", "id": "QswrZNiLUwMboHYqT-b22vNprEY=", "properties": {"ref": "1481", "@spider": "zizzi_gb", "amenity": "restaurant", "cuisine": "italian", "addr:full": "Union Square, Aberdeen, AB11 5RG", "addr:state": "Scotland", "addr:postcode": "AB11 5RG", "addr:country": "GB", "name": "Aberdeen \u2013 Open", "phone": "01224 465656", "website": "https://www.zizzi.co.uk/italian/restaurants/aberdeen", "image": "https://www.zizzi.co.uk/propeller/uploads/2020/01/Zizzi-Italian-Aberdeen-Hero1-640x360.jpg", "brand": "Zizzi", "brand:wikidata": "Q8072944", "nsi_id": "zizzi-9b5453"}, "geometry": {"type": "Point", "coordinates": [-2.0969, 57.143561]}},
{"type": "Feature", "id": "310h-JoHBkI9IPbgj6eEbj39kbQ=", "properties": {"ref": "1486", "@spider": "zizzi_gb", "amenity": "restaurant", "cuisine": "italian", "addr:full": "8 The Exchange , Exchange Street , Aylesbury, HP20 1UR", "addr:state": "South East", "addr:postcode": "HP20 1UR", "addr:country": "GB", "name": "Aylesbury \u2013 Open", "phone": "01296 331857", "website": "https://www.zizzi.co.uk/italian/restaurants/aylesbury", "image": "https://www.zizzi.co.uk/propeller/uploads/2020/01/Zizzi-Italian-Aylesbury-Hero-640x360.jpg", "brand": "Zizzi", "brand:wikidata": "Q8072944", "nsi_id": "zizzi-9b5453"}, "geometry": {"type": "Point", "coordinates": [-0.811182, 51.816007]}},
{"type": "Feature", "id": "SzFmsdL1zTLR-OZdFu1_5m_RpgU=", "properties": {"ref": "1498", "@spider": "zizzi_gb", "amenity": "restaurant", "cuisine": "italian", "addr:full": "1 High Street, Banstead, SM7 2NE", "addr:state": "Greater London", "addr:postcode": "SM7 2NE", "addr:country": "GB", "name": "Banstead \u2013 Open", "phone": "01737 669738", "website": "https://www.zizzi.co.uk/italian/restaurants/banstead", "image": "https://www.zizzi.co.uk/propeller/uploads/2020/01/Zizzi-Italian-Banstead-Hero-640x360.jpg", "brand": "Zizzi", "brand:wikidata": "Q8072944", "nsi_id": "zizzi-9b5453"}, "geometry": {"type": "Point", "coordinates": [-0.203788, 51.322305]}},
{"type": "Feature", "id": "BRlsoZZDC6gXOaJBQU1uUk2Nl2c=", "properties": {"ref": "1504", "@spider": "zizzi_gb", "amenity": "restaurant", "cuisine": "italian", "addr:full": "1 London Street, Basingstoke, RG21 7NT", "addr:state": "South East", "addr:postcode": "RG21 7NT", "addr:country": "GB", "name": "Basingstoke \u2013 Open", "phone": "01256 212835", "website": "https://www.zizzi.co.uk/italian/restaurants/basingstoke", "image": "https://www.zizzi.co.uk/propeller/uploads/2020/01/zizzi-basingstoke-low-res-012-640x428.jpg", "brand": "Zizzi", "brand:wikidata": "Q8072944", "nsi_id": "zizzi-9b5453"}, "geometry": {"type": "Point", "coordinates": [-1.085751, 51.262236]}},
{"type": "Feature", "id": "3YLek3pVE4TucnUCJP9n9zh0Q88=", "properties": {"ref": "1509", "@spider": "zizzi_gb", "amenity": "restaurant", "cuisine": "italian", "addr:full": "Retail 3, 8 Saw Close, Bath \t, BA1 1EY\t\t", "addr:state": "South West", "addr:postcode": "BA1 1EY", "addr:country": "GB", "name": "Bath \u2013 Open", "phone": "01225 975959", "website": "https://www.zizzi.co.uk/italian/restaurants/bath", "image": "https://www.zizzi.co.uk/propeller/uploads/2020/01/Zizzi-Italian-Bath-3-Hero-640x360.jpg", "brand": "Zizzi", "brand:wikidata": "Q8072944", "nsi_id": "zizzi-9b5453"}, "geometry": {"type": "Point", "coordinates": [-2.364607, 51.381917]}},
{"type": "Feature", "id": "OnGqNPihZ0cUPh_HsnNXGQa464E=", "properties": {"ref": "1520", "@spider": "zizzi_gb", "amenity": "restaurant", "cuisine": "italian", "addr:full": "157 High Street, Beckenham, BR3 1AE", "addr:state": "Greater LondonSouth East", "addr:postcode": "BR3 1AE", "addr:country": "GB", "name": "Beckenham \u2013 Open", "phone": "0203 1057170", "website": "https://www.zizzi.co.uk/italian/restaurants/beckenham", "image": "https://www.zizzi.co.uk/propeller/uploads/2020/01/Zizzi-Italian-Beckenham-Hero-640x360.jpg", "brand": "Zizzi", "brand:wikidata": "Q8072944", "nsi_id": "zizzi-9b5453"}, "geometry": {"type": "Point", "coordinates": [-0.028731, 51.406369]}},
{"type": "Feature", "id": "n1w-RePZI-NimFUb0jms3nzk8TU=", "properties": {"ref": "1526", "@spider": "zizzi_gb", "amenity": "restaurant", "cuisine": "italian", "addr:full": "Unit 3A Merchant Gate, Riverside Square, Bedford , MK401AS             ", "addr:state": "South East", "addr:country": "GB", "name": "Bedford \u2013 Open", "phone": "01234 217108  ", "website": "https://www.zizzi.co.uk/italian/restaurants/bedford", "image": "https://www.zizzi.co.uk/propeller/uploads/2020/01/Zizzi-Italian-Bedford-Hero-640x360.jpg", "brand": "Zizzi", "brand:wikidata": "Q8072944", "nsi_id": "zizzi-9b5453"}, "geometry": {"type": "Point", "coordinates": [-0.469155, 52.134644]}},
{"type": "Feature", "id": "MdGs3fRJC9wtaIIw5-RFIuV4wJw=", "properties": {"ref": "1532", "@spider": "zizzi_gb", "amenity": "restaurant", "cuisine": "italian", "addr:full": "Victoria Square Shopping Centre, Belfast, BT1 4QG", "addr:state": "Northern Ireland", "addr:postcode": "BT1 4QG", "addr:country": "GB", "name": "Belfast Victoria Square \u2013 Open", "phone": "028 3898 5012", "website": "https://www.zizzi.co.uk/italian/restaurants/belfast-victoria-square", "image": "https://www.zizzi.co.uk/propeller/uploads/2020/01/Zizzi-Italian-Belfast-Hero-640x360.jpg", "brand": "Zizzi", "brand:wikidata": "Q8072944", "nsi_id": "zizzi-9b5453"}, "geometry": {"type": "Point", "coordinates": [-5.924723, 54.599545]}},
{"type": "Feature", "id": "tMZ2oWlAh_ndKUHWKgqrxAlc2UQ=", "properties": {"ref": "1538", "@spider": "zizzi_gb", "amenity": "restaurant", "cuisine": "italian", "addr:full": "28 Broadway, Bexleyheath, DA6 7LL", "addr:state": "South East", "addr:postcode": "DA6 7LL", "addr:country": "GB", "name": "Bexleyheath \u2013 Open", "phone": "0203 0928966", "website": "https://www.zizzi.co.uk/italian/restaurants/bexleyheath", "image": "https://www.zizzi.co.uk/propeller/uploads/2020/01/Zizzi-Italian-Bexleyheath-hero-640x360.jpg", "brand": "Zizzi", "brand:wikidata": "Q8072944", "nsi_id": "zizzi-9b5453"}, "geometry": {"type": "Point", "coordinates": [0.150038, 51.456275]}},
{"type": "Feature", "id": "y-I-9qwOJ8srUmIthViUNrdyY2E=", "properties": {"ref": "1543", "@spider": "zizzi_gb", "amenity": "restaurant", "cuisine": "italian", "addr:full": "The Mailbox, Birmingham, B1 1RL", "addr:state": "Midlands", "addr:postcode": "B1 1RL", "addr:country": "GB", "name": "Birmingham \u2013 Open", "phone": "01216 435605", "website": "https://www.zizzi.co.uk/italian/restaurants/birmingham-mailbox", "image": "https://www.zizzi.co.uk/propeller/uploads/2020/01/Zizzi-Italian-Birmingham_Mailbox-Hero-640x360.jpg", "brand": "Zizzi", "brand:wikidata": "Q8072944", "nsi_id": "zizzi-9b5453"}, "geometry": {"type": "Point", "coordinates": [-1.905392, 52.475923]}},
{"type": "Feature", "id": "GeGL0nWkh6kSCB4ImtbFygDETqo=", "properties": {"ref": "1549", "@spider": "zizzi_gb", "amenity": "restaurant", "cuisine": "italian", "addr:full": "3 Brindleyplace, Birmingham , B1 2JB", "addr:state": "Midlands", "addr:postcode": "B1 2JB", "addr:country": "GB", "name": "Birmingham Brindley Place \u2013 Open", "phone": "01217 923507", "website": "https://www.zizzi.co.uk/italian/restaurants/birmingham-brindleyplace", "image": "https://www.zizzi.co.uk/propeller/uploads/2020/01/Zizzi-Italian-Birmingham_Brindley_Place-Hero-640x360.jpg", "brand": "Zizzi", "brand:wikidata": "Q8072944", "nsi_id": "zizzi-9b5453"}, "geometry": {"type": "Point", "coordinates": [-1.904282, 52.478737]}},
{"type": "Feature", "id": "Gyd3I6OPXOBq-RrCHBulf4K_LrU=", "properties": {"ref": "2060", "@spider": "zizzi_gb", "amenity": "restaurant", "cuisine": "italian", "addr:full": "Resorts World, Pendigo Way, Birmingham , B40 1PU", "addr:state": "Midlands", "addr:postcode": "B40 1PU", "addr:country": "GB", "name": "Birmingham Resorts World \u2013 Open", "phone": "01212384456", "website": "https://www.zizzi.co.uk/italian/restaurants/resorts-world-birmingham", "image": "https://www.zizzi.co.uk/propeller/uploads/2020/01/Zizzi-Italian-Birmingham_Resorts_World-Hero-640x360.jpg", "brand": "Zizzi", "brand:wikidata": "Q8072944", "nsi_id": "zizzi-9b5453"}, "geometry": {"type": "Point", "coordinates": [-1.71724, 52.4522]}},
{"type": "Feature", "id": "RlU474Af8XUoXJ122HtS6NkIzmE=", "properties": {"ref": "1556", "@spider": "zizzi_gb", "amenity": "restaurant", "cuisine": "italian", "addr:full": "West Village, Bluewater, DA9 9SE", "addr:state": "South East", "addr:postcode": "DA9 9SE", "addr:country": "GB", "name": "Bluewater \u2013 Open", "phone": "01322 723149", "website": "https://www.zizzi.co.uk/italian/restaurants/bluewater", "image": "https://www.zizzi.co.uk/propeller/uploads/2020/01/Zizzi-Italian-Bluewater-hero-640x360.jpg", "brand": "Zizzi", "brand:wikidata": "Q8072944", "nsi_id": "zizzi-9b5453"}, "geometry": {"type": "Point", "coordinates": [0.270177, 51.439162]}},
{"type": "Feature", "id": "XyNuUXf5WXbZA8FX-uhKTplMc2A=", "properties": {"ref": "1562", "@spider": "zizzi_gb", "amenity": "restaurant", "cuisine": "italian", "addr:full": "5 The Square, Bournemouth, BH2 6HE", "addr:state": "South West", "addr:postcode": "BH2 6HE", "addr:country": "GB", "name": "Bournemouth \u2013 Open", "phone": "01202 073120", "website": "https://www.zizzi.co.uk/italian/restaurants/bournemouth", "image": "https://www.zizzi.co.uk/propeller/uploads/2020/01/zizzi-bournemouth-low-res-037-640x426.jpg", "brand": "Zizzi", "brand:wikidata": "Q8072944", "nsi_id": "zizzi-9b5453"}, "geometry": {"type": "Point", "coordinates": [-1.879042, 50.720506]}},
{"type": "Feature", "id": "PvewvkcdSlY2XE5fuk87BP1-PMg=", "properties": {"ref": "1574", "@spider": "zizzi_gb", "amenity": "restaurant", "cuisine": "italian", "addr:full": "Unit 6c, 9 Eagle Lane, Lexicon, Bracknell, RG12 1GB", "addr:state": "South East", "addr:postcode": "RG12 1GB", "addr:country": "GB", "name": "Bracknell \u2013 Open", "phone": "01344 531212", "website": "https://www.zizzi.co.uk/italian/restaurants/bracknell", "image": "https://www.zizzi.co.uk/propeller/uploads/2020/01/Zizzi-Italian-Bracknell-hero-640x360.jpg", "brand": "Zizzi", "brand:wikidata": "Q8072944", "nsi_id": "zizzi-9b5453"}, "geometry": {"type": "Point", "coordinates": [-0.751019, 51.417485]}},
{"type": "Feature", "id": "QYxBSmOOdCuMTxqnFH-fopx90BQ=", "properties": {"ref": "1581", "@spider": "zizzi_gb", "amenity": "restaurant", "cuisine": "italian", "addr:full": "10 Charles Street, Bradford Broadway, Bradford, BD1 1US", "addr:state": "North West", "addr:postcode": "BD1 1US", "addr:country": "GB", "name": "Bradford \u2013 Open", "phone": "01274 013664", "website": "https://www.zizzi.co.uk/italian/restaurants/bradford", "image": "https://www.zizzi.co.uk/propeller/uploads/2020/01/Zizzi-Italian-Bradford-Hero-640x360.jpg", "brand": "Zizzi", "brand:wikidata": "Q8072944", "nsi_id": "zizzi-9b5453"}, "geometry": {"type": "Point", "coordinates": [-1.751868, 53.7974]}},
{"type": "Feature", "id": "fqMBOwNbnaVtPPaWOgn7howlU7s=", "properties": {"ref": "1587", "@spider": "zizzi_gb", "amenity": "restaurant", "cuisine": "italian", "addr:full": "Unit C1 Freeport Village, Charter Way, Braintree, CM77 8YJ", "addr:state": "South East", "addr:postcode": "CM77 8YJ", "addr:country": "GB", "name": "Braintree \u2013 Open", "phone": "01376 329146", "website": "https://www.zizzi.co.uk/italian/restaurants/braintree", "image": "https://www.zizzi.co.uk/propeller/uploads/2020/01/Zizzi-Italian-Braintree-Hero-640x360.jpg", "brand": "Zizzi", "brand:wikidata": "Q8072944", "nsi_id": "zizzi-9b5453"}, "geometry": {"type": "Point", "coordinates": [0.572046, 51.868532]}},
{"type": "Feature", "id": "NUeTkwGoWVOhO0A4oNDV2LzZJjc=", "properties": {"ref": "1593", "@spider": "zizzi_gb", "amenity": "restaurant", "cuisine": "italian", "addr:full": "72 High Street, Brentwood, CM14 4AN", "addr:state": "South East", "addr:postcode": "CM14 4AN", "addr:country": "GB", "name": "Brentwood \u2013 Open", "phone": "01277 295252", "website": "https://www.zizzi.co.uk/italian/restaurants/brentwood", "image": "https://www.zizzi.co.uk/propeller/uploads/2020/01/Zizzi-Italian-Brentwood-Hero-640x360.jpg", "brand": "Zizzi", "brand:wikidata": "Q8072944", "nsi_id": "zizzi-9b5453"}, "geometry": {"type": "Point", "coordinates": [0.301274, 51.619855]}},
{"type": "Feature", "id": "r7CA-vN8Yc-liqT2rA8yyJzLnAc=", "properties": {"ref": "1599", "@spider": "zizzi_gb", "amenity": "restaurant", "cuisine": "italian", "addr:full": "7 Prince Albert Street, Brighton, BN1 1HE", "addr:state": "South East", "addr:postcode": "BN1 1HE", "addr:country": "GB", "name": "Brighton \u2013 Open", "phone": "01273 253222", "website": "https://www.zizzi.co.uk/italian/restaurants/brighton", "image": "https://www.zizzi.co.uk/propeller/uploads/2020/01/9-640x360.png", "brand": "Zizzi", "brand:wikidata": "Q8072944", "nsi_id": "zizzi-9b5453"}, "geometry": {"type": "Point", "coordinates": [-0.141243, 50.821366]}},
{"type": "Feature", "id": "nnvF02ghMrAeoUOLlvjQbutauU8=", "properties": {"ref": "1611", "@spider": "zizzi_gb", "amenity": "restaurant", "cuisine": "italian", "addr:full": "84 Glass House, Bristol, BS1 3BX", "addr:state": "South West", "addr:postcode": "BS1 3BX", "addr:country": "GB", "name": "Bristol Cabot Circus \u2013 Open", "phone": "01172 390750", "website": "https://www.zizzi.co.uk/italian/restaurants/bristol-cabot-circus", "image": "https://www.zizzi.co.uk/propeller/uploads/2020/01/zizzi-bristol-cabot-low-res-030-640x428.jpg", "brand": "Zizzi", "brand:wikidata": "Q8072944", "nsi_id": "zizzi-9b5453"}, "geometry": {"type": "Point", "coordinates": [-2.584596, 51.458152]}},
{"type": "Feature", "id": "rEF1VsxB28yjcmTsI5oO0KoAiGA=", "properties": {"ref": "1617", "@spider": "zizzi_gb", "amenity": "restaurant", "cuisine": "italian", "addr:full": "29 Princess Victoria Street, Bristol, BS8 4BX", "addr:state": "South West", "addr:postcode": "BS8 4BX", "addr:country": "GB", "name": "Bristol Clifton Village \u2013 Open", "phone": "01172 390130", "website": "https://www.zizzi.co.uk/italian/restaurants/bristol-clifton", "image": "https://www.zizzi.co.uk/propeller/uploads/2020/01/Zizzi-Italian-Bristol-Clifton-Village-hero-640x360.jpg", "brand": "Zizzi", "brand:wikidata": "Q8072944", "nsi_id": "zizzi-9b5453"}, "geometry": {"type": "Point", "coordinates": [-2.62027, 51.454426]}},
{"type": "Feature", "id": "CJBMRMar1H6QMh-irbm2mw6kPH0=", "properties": {"ref": "1623", "@spider": "zizzi_gb", "amenity": "restaurant", "cuisine": "italian", "addr:full": "11 Widmore Road, Bromley, BR1 1RL", "addr:state": "Greater LondonSouth East", "addr:postcode": "BR1 1RL", "addr:country": "GB", "name": "Bromley \u2013 Open", "phone": "0203 0922146", "website": "https://www.zizzi.co.uk/italian/restaurants/bromley", "image": "https://www.zizzi.co.uk/propeller/uploads/2020/01/Zizzi-Italian-Bromley-hero-640x360.jpg", "brand": "Zizzi", "brand:wikidata": "Q8072944", "nsi_id": "zizzi-9b5453"}, "geometry": {"type": "Point", "coordinates": [0.016079, 51.406191]}},
{"type": "Feature", "id": "7071qOBu9f4G5tPzJTHsr1_5GWY=", "properties": {"ref": "1629", "@spider": "zizzi_gb", "amenity": "restaurant", "cuisine": "italian", "addr:full": "50 Park Street, Camberley, GU15 3PL", "addr:state": "South East", "addr:postcode": "GU15 3PL", "addr:country": "GB", "name": "Camberley \u2013 Open", "phone": "01276 911055", "website": "https://www.zizzi.co.uk/italian/restaurants/camberley", "image": "https://www.zizzi.co.uk/propeller/uploads/2020/01/Zizzi-Italian-Camberley-hero-640x360.jpg", "brand": "Zizzi", "brand:wikidata": "Q8072944", "nsi_id": "zizzi-9b5453"}, "geometry": {"type": "Point", "coordinates": [-0.74848, 51.338357]}},
{"type": "Feature", "id": "t_0uMMNpwCq1G8MAl7YZPsliVsU=", "properties": {"ref": "1634", "@spider": "zizzi_gb", "amenity": "restaurant", "cuisine": "italian", "addr:full": "16 Bene't Street, Cambridge, CB2 3QN", "addr:state": "East Anglia", "addr:postcode": "CB2 3QN", "addr:country": "GB", "name": "Cambridge, Bene\u2019t Street \u2013 Open", "phone": "01223 665566", "website": "https://www.zizzi.co.uk/italian/restaurants/cambridge-benet-street", "image": "https://www.zizzi.co.uk/propeller/uploads/2020/01/Zizzi-Italian-Cambridge_Benet-Hero-640x360.jpg", "brand": "Zizzi", "brand:wikidata": "Q8072944", "nsi_id": "zizzi-9b5453"}, "geometry": {"type": "Point", "coordinates": [0.11827, 52.204113]}},
{"type": "Feature", "id": "i1fun7Yg2FNKlv0eOgEJjMvfx84=", "properties": {"ref": "1639", "@spider": "zizzi_gb", "amenity": "restaurant", "cuisine": "italian", "addr:full": "47 Regent Street, Cambridge, CB2 1AB", "addr:state": "East Anglia", "addr:postcode": "CB2 1AB", "addr:country": "GB", "name": "Cambridge, Regent Street \u2013 Open", "phone": "01223 660082", "website": "https://www.zizzi.co.uk/italian/restaurants/cambridge-regent-street", "image": "https://www.zizzi.co.uk/propeller/uploads/2020/01/Zizzi-Italian-Cambridge_Regent_Street-17-hero-640x360.jpg", "brand": "Zizzi", "brand:wikidata": "Q8072944", "nsi_id": "zizzi-9b5453"}, "geometry": {"type": "Point", "coordinates": [0.125995, 52.201015]}},
{"type": "Feature", "id": "8-vOraKV2MCRN2bAlOS5DNgEV20=", "properties": {"ref": "1651", "@spider": "zizzi_gb", "amenity": "restaurant", "cuisine": "italian", "addr:full": "53 St Peter Street, Canterbury, CT1 2BE", "addr:state": "South East", "addr:postcode": "CT1 2BE", "addr:country": "GB", "name": "Canterbury \u2013 Open", "phone": "01227 634012", "website": "https://www.zizzi.co.uk/italian/restaurants/canterbury", "image": "https://www.zizzi.co.uk/propeller/uploads/2020/01/Zizzi-Italian-Canterbury-14-hero-640x360.jpg", "brand": "Zizzi", "brand:wikidata": "Q8072944", "nsi_id": "zizzi-9b5453"}, "geometry": {"type": "Point", "coordinates": [1.077559, 51.280258]}},
{"type": "Feature", "id": "L8jSOqxA_NkhwuWsnaL7TOhOoaU=", "properties": {"ref": "1657", "@spider": "zizzi_gb", "amenity": "restaurant", "cuisine": "italian", "addr:full": "27 High Street, Cardiff, CF10 1PU", "addr:state": "Wales", "addr:postcode": "CF10 1PU", "addr:country": "GB", "name": "Cardiff \u2013 Open", "phone": "02920 645110", "website": "https://www.zizzi.co.uk/italian/restaurants/cardiff", "image": "https://www.zizzi.co.uk/propeller/uploads/2020/01/Zizzi-Italian-Cardiff-Bay-hero-640x360.jpg", "brand": "Zizzi", "brand:wikidata": "Q8072944", "nsi_id": "zizzi-9b5453"}, "geometry": {"type": "Point", "coordinates": [-3.180621, 51.480847]}},
{"type": "Feature", "id": "hxEUuqmz5SUK04EW2SMyW-gBYEU=", "properties": {"ref": "1658", "@spider": "zizzi_gb", "amenity": "restaurant", "cuisine": "italian", "addr:full": "Unit 8, Mermaid Quay, Cardiff Bay, Cardiff, CF10 5BZ", "addr:state": "Wales", "addr:postcode": "CF10 5BZ", "addr:country": "GB", "name": "Cardiff Mermaid Quay \u2013 Open", "phone": "02921 324141", "website": "https://www.zizzi.co.uk/italian/restaurants/cardiff-mermaid-quay", "image": "https://www.zizzi.co.uk/propeller/uploads/2020/01/Zizzi-Italian-Cardiff-Bay-Hero1-640x360.jpg", "brand": "Zizzi", "brand:wikidata": "Q8072944", "nsi_id": "zizzi-9b5453"}, "geometry": {"type": "Point", "coordinates": [-3.16536, 51.463474]}},
{"type": "Feature", "id": "OZL93RyN3Kg_-PqdkUL-aWGU8ck=", "properties": {"ref": "2667", "@spider": "zizzi_gb", "amenity": "restaurant", "cuisine": "italian", "addr:full": "Bridge Street Arcade, St David\u2019s Shopping centre, Cardiff, CF10 2EF", "addr:state": "Wales", "addr:postcode": "CF10 2EF", "addr:country": "GB", "name": "Cardiff St David\u2019s \u2013 Open", "phone": "02921 324015", "website": "https://www.zizzi.co.uk/italian/restaurants/cardiff-st-davids", "image": "https://www.zizzi.co.uk/propeller/uploads/2020/02/Zizzi-Italian-Cardiff-St-Davids-hero-640x360.jpg", "brand": "Zizzi", "brand:wikidata": "Q8072944", "nsi_id": "zizzi-9b5453"}, "geometry": {"type": "Point", "coordinates": [-3.174422, 51.479436]}},
{"type": "Feature", "id": "wupREoN1QcPM8kpTacqB0e6PxYY=", "properties": {"ref": "1664", "@spider": "zizzi_gb", "amenity": "restaurant", "cuisine": "italian", "addr:full": "1-5 Grays Brewery Yard Springfield Road, Chelmsford, CM2 6QR", "addr:state": "South East", "addr:postcode": "CM2 6QR", "addr:country": "GB", "name": "Chelmsford \u2013 Open", "phone": "01245 697450 ", "website": "https://www.zizzi.co.uk/italian/restaurants/chelmsford", "image": "https://www.zizzi.co.uk/propeller/uploads/2020/01/Zizzi-Italian-Chelmsford-1-640x360.jpg", "brand": "Zizzi", "brand:wikidata": "Q8072944", "nsi_id": "zizzi-9b5453"}, "geometry": {"type": "Point", "coordinates": [0.475388, 51.732809]}},
{"type": "Feature", "id": "8Pz_RT7zdHGQW3QGcHTO3rIm50I=", "properties": {"ref": "1670", "@spider": "zizzi_gb", "amenity": "restaurant", "cuisine": "italian", "addr:full": "St James Church, Cheltenham, GL50 2DR", "addr:state": "Midlands", "addr:postcode": "GL50 2DR", "addr:country": "GB", "name": "Cheltenham \u2013 Open", "phone": "01242 252493", "website": "https://www.zizzi.co.uk/italian/restaurants/cheltenham", "image": "https://www.zizzi.co.uk/propeller/uploads/2020/01/Zizzi-Italian-Cheltenham-hero-640x360.jpg", "brand": "Zizzi", "brand:wikidata": "Q8072944", "nsi_id": "zizzi-9b5453"}, "geometry": {"type": "Point", "coordinates": [-2.080967, 51.893408]}},
{"type": "Feature", "id": "-S0MMaoNhdE-pv1FbcXdTlK9nMY=", "properties": {"ref": "1676", "@spider": "zizzi_gb", "amenity": "restaurant", "cuisine": "italian", "addr:full": "Coliseum Leisure Park, Ellesmere Port, CH65 9HD", "addr:state": "North West", "addr:postcode": "CH65 9HD", "addr:country": "GB", "name": "Cheshire Oaks \u2013 Open", "phone": "01512 714051", "website": "https://www.zizzi.co.uk/italian/restaurants/cheshire-oaks", "image": "https://www.zizzi.co.uk/propeller/uploads/2020/01/Zizzi-Italian-Cheshire-Oaks-hero-640x360.jpg", "brand": "Zizzi", "brand:wikidata": "Q8072944", "nsi_id": "zizzi-9b5453"}, "geometry": {"type": "Point", "coordinates": [-2.887954, 53.26549]}},
{"type": "Feature", "id": "EZu8CSOlvkb9RZGAWZqzvnWN0iw=", "properties": {"ref": "7010", "@spider": "zizzi_gb", "amenity": "restaurant", "cuisine": "italian", "addr:full": "Unit 7, Hunter Street, Chester, CH1 2AR", "addr:state": "North West", "addr:postcode": "CH1 2AR", "addr:country": "GB", "name": "Chester \u2013 Open", "phone": "01244 956823", "website": "https://www.zizzi.co.uk/italian/restaurants/chester", "image": "https://www.zizzi.co.uk/propeller/uploads/2022/09/15-640x360.png", "brand": "Zizzi", "brand:wikidata": "Q8072944", "nsi_id": "zizzi-9b5453"}, "geometry": {"type": "Point", "coordinates": [-2.891888, 53.186849]}},
{"type": "Feature", "id": "gDUVLLWypnS9bfuEkWulC5a_ri0=", "properties": {"ref": "1682", "@spider": "zizzi_gb", "amenity": "restaurant", "cuisine": "italian", "addr:full": "43 South Street, Chichester, PO19 1DR", "addr:state": "South East", "addr:postcode": "PO19 1DR", "addr:country": "GB", "name": "Chichester \u2013 Open", "phone": "01243 278255", "website": "https://www.zizzi.co.uk/italian/restaurants/chichester", "image": "https://www.zizzi.co.uk/propeller/uploads/2020/01/Zizzi-Italian-Chichester-hero-640x360.jpg", "brand": "Zizzi", "brand:wikidata": "Q8072944", "nsi_id": "zizzi-9b5453"}, "geometry": {"type": "Point", "coordinates": [-0.77944, 50.834005]}},
{"type": "Feature", "id": "_2Jz2LGW4e8aofthQfLgH6zNwC4=", "properties": {"ref": "1687", "@spider": "zizzi_gb", "amenity": "restaurant", "cuisine": "italian", "addr:full": "19 High Street, Chislehurst, BR7 5AE", "addr:state": "South East", "addr:postcode": "BR7 5AE", "addr:country": "GB", "name": "Chislehurst \u2013 Open", "phone": "0203 0923666", "website": "https://www.zizzi.co.uk/italian/restaurants/chislehurst", "image": "https://www.zizzi.co.uk/propeller/uploads/2020/01/Zizzi-Italian-Chislehurst-hero-640x360.jpg", "brand": "Zizzi", "brand:wikidata": "Q8072944", "nsi_id": "zizzi-9b5453"}, "geometry": {"type": "Point", "coordinates": [0.067863, 51.417492]}},
{"type": "Feature", "id": "rh6fdBiuf4DHnKmj_LXdjp8ecnk=", "properties": {"ref": "1692", "@spider": "zizzi_gb", "amenity": "restaurant", "cuisine": "italian", "addr:full": "235 Chiswick High Road, london, W4 4PU", "addr:state": "Greater London", "addr:postcode": "W4 4PU", "addr:country": "GB", "name": "Chiswick \u2013 Open", "phone": "0203 3022126", "website": "https://www.zizzi.co.uk/italian/restaurants/chiswick", "image": "https://www.zizzi.co.uk/propeller/uploads/2020/01/3-640x360.png", "brand": "Zizzi", "brand:wikidata": "Q8072944", "nsi_id": "zizzi-9b5453"}, "geometry": {"type": "Point", "coordinates": [-0.261869, 51.492223]}},
{"type": "Feature", "id": "yBwGcCWQM2pywX8AaH3rIyHaTJY=", "properties": {"ref": "1698", "@spider": "zizzi_gb", "amenity": "restaurant", "cuisine": "italian", "addr:full": "12 Headgate, Colchester, CO3 3BT", "addr:state": "East Anglia", "addr:postcode": "CO3 3BT", "addr:country": "GB", "name": "Colchester \u2013 Open", "phone": "01206 370303", "website": "https://www.zizzi.co.uk/italian/restaurants/colchester", "image": "https://www.zizzi.co.uk/propeller/uploads/2020/01/Zizzi-Italian-Colchester_hero-640x360.jpg", "brand": "Zizzi", "brand:wikidata": "Q8072944", "nsi_id": "zizzi-9b5453"}, "geometry": {"type": "Point", "coordinates": [0.895186, 51.887148]}},
{"type": "Feature", "id": "kQLylo9YDqQh6xfX_BXdGiPWanQ=", "properties": {"ref": "1704", "@spider": "zizzi_gb", "amenity": "restaurant", "cuisine": "italian", "addr:full": "Cathedral Lanes Shopping Centre, Broadgate, Coventry , CV1 1LL", "addr:state": "Midlands", "addr:postcode": "CV1 1LL", "addr:country": "GB", "name": "Coventry \u2013 Open", "phone": "02477 110047", "website": "https://www.zizzi.co.uk/italian/restaurants/coventry", "image": "https://www.zizzi.co.uk/propeller/uploads/2020/01/Zizzi-Italian-Coventry-hero-640x360.jpg", "brand": "Zizzi", "brand:wikidata": "Q8072944", "nsi_id": "zizzi-9b5453"}, "geometry": {"type": "Point", "coordinates": [-1.5099982, 52.40776]}},
{"type": "Feature", "id": "2Pxo2YLGq9ojI-JFV-vJhLWmdfY=", "properties": {"ref": "1720", "@spider": "zizzi_gb", "amenity": "restaurant", "cuisine": "italian", "addr:full": "West Mall, Intu Shopping centre, Derby, DE1 2PL", "addr:state": "Midlands", "addr:postcode": "DE1 2PL", "addr:country": "GB", "name": "Derby Intu \u2013 Open", "phone": "01332 970303", "website": "https://www.zizzi.co.uk/italian/restaurants/derby-intu", "image": "https://www.zizzi.co.uk/propeller/uploads/2020/01/Zizzi-Italian-Derby_Intu-hero-640x360.jpg", "brand": "Zizzi", "brand:wikidata": "Q8072944", "nsi_id": "zizzi-9b5453"}, "geometry": {"type": "Point", "coordinates": [-1.484683, 52.923904]}},
{"type": "Feature", "id": "3y7TYFlio1uPJPSzR38gm5lyUmI=", "properties": {"ref": "1725", "@spider": "zizzi_gb", "amenity": "restaurant", "cuisine": "italian", "addr:full": "5 Eldridge Street, Dorchester, DT1 1QR", "addr:state": "South West", "addr:postcode": "DT1 1QR", "addr:country": "GB", "name": "Dorchester \u2013 Open", "phone": "01305 568110", "website": "https://www.zizzi.co.uk/italian/restaurants/dorchester", "image": "https://www.zizzi.co.uk/propeller/uploads/2020/01/zizzi-dorchester-low-res-075-640x428.jpg", "brand": "Zizzi", "brand:wikidata": "Q8072944", "nsi_id": "zizzi-9b5453"}, "geometry": {"type": "Point", "coordinates": [-2.438245, 50.710861]}},
{"type": "Feature", "id": "TO54OgWC5aK_ljiauTXDcpV4C6s=", "properties": {"ref": "1737", "@spider": "zizzi_gb", "amenity": "restaurant", "cuisine": "italian", "addr:full": "24 Suffolk St, Dublin 2 , D02 FR96, ", "addr:state": "Ireland", "addr:country": "GB", "name": "Dublin Suffolk Street \u2013 Open", "phone": "+353 1675 0841", "website": "https://www.zizzi.co.uk/italian/restaurants/dublin-suffolk-street", "image": "https://www.zizzi.co.uk/propeller/uploads/2020/01/Zizzi-Italian-Dublin_Suffolk-St-hero-640x360.jpg", "brand": "Zizzi", "brand:wikidata": "Q8072944", "nsi_id": "zizzi-9b5453"}, "geometry": {"type": "Point", "coordinates": [-6.244153, 53.288664]}},
{"type": "Feature", "id": "tkA__Aobk1spoDHgMcA-xe5GC8Q=", "properties": {"ref": "1743", "@spider": "zizzi_gb", "amenity": "restaurant", "cuisine": "italian", "addr:full": "3 Pembroke District, Dundrum Town Centre, Dublin 16, ", "addr:state": "Ireland", "addr:country": "GB", "name": "Dundrum Town Centre \u2013 Open", "phone": "+353 1296 2962", "website": "https://www.zizzi.co.uk/italian/restaurants/dundrum-town-centre", "image": "https://www.zizzi.co.uk/propeller/uploads/2020/01/Zizzi-Italian-Dundrum-hero-640x360.jpg", "brand": "Zizzi", "brand:wikidata": "Q8072944", "nsi_id": "zizzi-9b5453"}, "geometry": {"type": "Point", "coordinates": [-6.25082, 53.286637]}},
{"type": "Feature", "id": "m8BFoq5kOf9aGx7z6DPLldp5r2c=", "properties": {"ref": "1749", "@spider": "zizzi_gb", "amenity": "restaurant", "cuisine": "italian", "addr:full": "43-44 Saddler Street, Durham, County Durham, DH1 3NU", "addr:state": "North East", "addr:postcode": "DH1 3NU", "addr:country": "GB", "name": "Durham \u2013 Open", "phone": "01914 352102", "website": "https://www.zizzi.co.uk/italian/restaurants/durham", "image": "https://www.zizzi.co.uk/propeller/uploads/2020/01/Zizzi-Italian-Durham-hero-640x360.jpg", "brand": "Zizzi", "brand:wikidata": "Q8072944", "nsi_id": "zizzi-9b5453"}, "geometry": {"type": "Point", "coordinates": [-1.574513, 54.77584]}},
{"type": "Feature", "id": "xhehFANl8mz7l8QOoQLj-GbH__w=", "properties": {"ref": "1776", "@spider": "zizzi_gb", "amenity": "restaurant", "cuisine": "italian", "addr:full": "42 Queensferry Street, Edinburgh, EH2 4RA", "addr:state": "Scotland", "addr:postcode": "EH2 4RA", "addr:country": "GB", "name": "Edinburgh Queensferry Street \u2013 Open", "phone": "01312 256937", "website": "https://www.zizzi.co.uk/italian/restaurants/edinburgh-queensferry-street", "image": "https://www.zizzi.co.uk/propeller/uploads/2020/01/zizzi-edinburgh-low-res-queensferry-031-640x428.jpg", "brand": "Zizzi", "brand:wikidata": "Q8072944", "nsi_id": "zizzi-9b5453"}, "geometry": {"type": "Point", "coordinates": [-3.208867, 55.950708]}},
{"type": "Feature", "id": "PDyVKIShvKAT1Ec1Z6GZUupkk9Y=", "properties": {"ref": "1788", "@spider": "zizzi_gb", "amenity": "restaurant", "cuisine": "italian", "addr:full": "21 Gandy Street, Exeter, EX4 3LS", "addr:state": "South West", "addr:postcode": "EX4 3LS", "addr:country": "GB", "name": "Exeter \u2013 Open", "phone": "01392 920606", "website": "https://www.zizzi.co.uk/italian/restaurants/exeter", "image": "https://www.zizzi.co.uk/propeller/uploads/2020/01/Zizzi-Italian-Exeter-hero-640x360.jpg", "brand": "Zizzi", "brand:wikidata": "Q8072944", "nsi_id": "zizzi-9b5453"}, "geometry": {"type": "Point", "coordinates": [-3.531252, 50.724808]}},
{"type": "Feature", "id": "Q9zYJKDJ5zF8GaA1xIQqKtEsQ4A=", "properties": {"ref": "1798", "@spider": "zizzi_gb", "amenity": "restaurant", "cuisine": "italian", "addr:full": "68 Castle Street, Farnham, GU9 7LN", "addr:state": "South East", "addr:postcode": "GU9 7LN", "addr:country": "GB", "name": "Farnham \u2013 Open", "phone": "01483 808328", "website": "https://www.zizzi.co.uk/italian/restaurants/farnham", "image": "https://www.zizzi.co.uk/propeller/uploads/2020/01/Zizzi-Italian-Farnham-hero-640x360.jpg", "brand": "Zizzi", "brand:wikidata": "Q8072944", "nsi_id": "zizzi-9b5453"}, "geometry": {"type": "Point", "coordinates": [-0.799674, 51.216221]}},
{"type": "Feature", "id": "oXQouFziMcMgiqZ5LyFdVC4wirc=", "properties": {"ref": "1810", "@spider": "zizzi_gb", "amenity": "restaurant", "cuisine": "italian", "addr:full": "48 Buchanan Street, Glasgow, G1 3JN", "addr:state": "Scotland", "addr:postcode": "G1 3JN", "addr:country": "GB", "name": "Glasgow Princes Square \u2013 Open", "phone": "01412 485026", "website": "https://www.zizzi.co.uk/italian/restaurants/glasgow-princes-square", "image": "https://www.zizzi.co.uk/propeller/uploads/2020/01/1-640x360.png", "brand": "Zizzi", "brand:wikidata": "Q8072944", "nsi_id": "zizzi-9b5453"}, "geometry": {"type": "Point", "coordinates": [-4.253437, 55.859148]}},
{"type": "Feature", "id": "EWfKjtfyLhbk7gStU0GcL1aWFns=", "properties": {"ref": "1822", "@spider": "zizzi_gb", "amenity": "restaurant", "cuisine": "italian", "addr:full": "Silverburn Shopping Centre, 763 Barrhead Road, Glasgow, G53 6QR", "addr:state": "Scotland", "addr:postcode": "G53 6QR", "addr:country": "GB", "name": "Glasgow Silverburn \u2013 Open", "phone": "01412 611453", "website": "https://www.zizzi.co.uk/italian/restaurants/glasgow-silverburn", "image": "https://www.zizzi.co.uk/propeller/uploads/2020/01/Zizzi-Italian-Glasgow_Silverburn-hero-640x360.jpg", "brand": "Zizzi", "brand:wikidata": "Q8072944", "nsi_id": "zizzi-9b5453"}, "geometry": {"type": "Point", "coordinates": [-4.342054, 55.822891]}},
{"type": "Feature", "id": "xjgEOs4lGFmaqFK3cOPwh2xfB9Q=", "properties": {"ref": "1828", "@spider": "zizzi_gb", "amenity": "restaurant", "cuisine": "italian", "addr:full": "8 Cresswell Lane, Glasgow, G12 8AA", "addr:state": "Scotland", "addr:postcode": "G12 8AA", "addr:country": "GB", "name": "Glasgow West End \u2013 Open", "phone": "01412 611258", "website": "https://www.zizzi.co.uk/italian/restaurants/glasgow-west-end", "image": "https://www.zizzi.co.uk/propeller/uploads/2020/01/Zizzi-Italian-Glasgow_Westend-hero-640x360.jpg", "brand": "Zizzi", "brand:wikidata": "Q8072944", "nsi_id": "zizzi-9b5453"}, "geometry": {"type": "Point", "coordinates": [-4.292233, 55.875903]}},
{"type": "Feature", "id": "2Yep7kuJktKUp8-Lpg9z38UPTu0=", "properties": {"ref": "1834", "@spider": "zizzi_gb", "amenity": "restaurant", "cuisine": "italian", "addr:full": "Gloucester Quays Outlet Centre, St Ann Way, GL1 5SH", "addr:state": "South West", "addr:postcode": "GL1 5SH", "addr:country": "GB", "name": "Gloucester Quays \u2013 Open", "phone": "01452 245432", "website": "https://www.zizzi.co.uk/italian/restaurants/gloucester-quays", "image": "https://www.zizzi.co.uk/propeller/uploads/2020/01/Zizzi-Italian-Gloucester-hero-640x360.jpg", "brand": "Zizzi", "brand:wikidata": "Q8072944", "nsi_id": "zizzi-9b5453"}, "geometry": {"type": "Point", "coordinates": [-2.252575, 51.860844]}},
{"type": "Feature", "id": "5onlahiCvywO0hhKgisLmxq-vYg=", "properties": {"ref": "1841", "@spider": "zizzi_gb", "amenity": "restaurant", "cuisine": "italian", "addr:full": "274 High Street, Guildford, GU1 3JL", "addr:state": "South East", "addr:postcode": "GU1 3JL", "addr:country": "GB", "name": "Guildford \u2013 Open", "phone": "01483 664207", "website": "https://www.zizzi.co.uk/italian/restaurants/guildford", "image": "https://www.zizzi.co.uk/propeller/uploads/2020/01/Zizzi-Italian-Guildford-hero-640x360.jpg", "brand": "Zizzi", "brand:wikidata": "Q8072944", "nsi_id": "zizzi-9b5453"}, "geometry": {"type": "Point", "coordinates": [-0.566977, 51.237343]}},
{"type": "Feature", "id": "FXlYP3gsya3PuflxyvWhZHMRtyE=", "properties": {"ref": "1842", "@spider": "zizzi_gb", "amenity": "restaurant", "cuisine": "italian", "addr:full": "1 Bridge Road, East Molesey, KT8 9EU", "addr:state": "Greater LondonSouth East", "addr:postcode": "KT8 9EU", "addr:country": "GB", "name": "Hampton Court \u2013 Open", "phone": "0203 0924899", "website": "https://www.zizzi.co.uk/italian/restaurants/hampton-court", "image": "https://www.zizzi.co.uk/propeller/uploads/2020/01/Zizzi-Italian-Hampton-Court-hero-640x360.jpg", "brand": "Zizzi", "brand:wikidata": "Q8072944", "nsi_id": "zizzi-9b5453"}, "geometry": {"type": "Point", "coordinates": [-0.344391, 51.402828]}},
{"type": "Feature", "id": "R91DKZmU3s-nE5CaKTJaoG0DmEM=", "properties": {"ref": "1843", "@spider": "zizzi_gb", "amenity": "restaurant", "cuisine": "italian", "addr:full": "1 Station Parade, Harrogate, HG1 1TB", "addr:state": "North East", "addr:postcode": "HG1 1TB", "addr:country": "GB", "name": "Harrogate \u2013 Open", "phone": "01423 408376", "website": "https://www.zizzi.co.uk/italian/restaurants/harrogate", "image": "https://www.zizzi.co.uk/propeller/uploads/2020/01/Zizzi-Italian-Harrogate-1-640x360.jpg", "brand": "Zizzi", "brand:wikidata": "Q8072944", "nsi_id": "zizzi-9b5453"}, "geometry": {"type": "Point", "coordinates": [-1.538254, 53.992047]}},
{"type": "Feature", "id": "8uoGa3sbiZ3pQNwAY2VfJFRdRvo=", "properties": {"ref": "1849", "@spider": "zizzi_gb", "amenity": "restaurant", "cuisine": "italian", "addr:full": "South Road, Haywards Heath, RH16 4LU", "addr:state": "South East", "addr:postcode": "RH16 4LU", "addr:country": "GB", "name": "Haywards Heath \u2013 Open", "phone": "01444 617272", "website": "https://www.zizzi.co.uk/italian/restaurants/haywards-heath", "image": "https://www.zizzi.co.uk/propeller/uploads/2020/01/Zizzi-Italian-Haywards-Heath-hero-640x360.jpg", "brand": "Zizzi", "brand:wikidata": "Q8072944", "nsi_id": "zizzi-9b5453"}, "geometry": {"type": "Point", "coordinates": [-0.106098, 50.999184]}},
{"type": "Feature", "id": "ec0fuVa_sezEAfJBGZsmkt8e9y8=", "properties": {"ref": "1850", "@spider": "zizzi_gb", "amenity": "restaurant", "cuisine": "italian", "addr:full": "21 Hart Street, Henley On Thames, RG9 2AR", "addr:state": "South East", "addr:postcode": "RG9 2AR", "addr:country": "GB", "name": "Henley \u2013 Open", "phone": "01491 410070", "website": "https://www.zizzi.co.uk/italian/restaurants/henley", "image": "https://www.zizzi.co.uk/propeller/uploads/2020/01/Zizzi-Italian-Henley_hero-640x426.jpg", "brand": "Zizzi", "brand:wikidata": "Q8072944", "nsi_id": "zizzi-9b5453"}, "geometry": {"type": "Point", "coordinates": [-0.90308, 51.537828]}},
{"type": "Feature", "id": "sGMQxcowPj4Dk4myHQ1_3phlH_Q=", "properties": {"ref": "1855", "@spider": "zizzi_gb", "amenity": "restaurant", "cuisine": "italian", "addr:full": "Old Market Street, Hereford, HR4 9HR", "addr:state": "Midlands", "addr:postcode": "HR4 9HR", "addr:country": "GB", "name": "Hereford \u2013 Open", "phone": "01432 632228", "website": "https://www.zizzi.co.uk/italian/restaurants/hereford", "image": "https://www.zizzi.co.uk/propeller/uploads/2020/01/Zizzi-Italian-Hereford-Hero-640x360.jpg", "brand": "Zizzi", "brand:wikidata": "Q8072944", "nsi_id": "zizzi-9b5453"}, "geometry": {"type": "Point", "coordinates": [-2.716759, 52.058582]}},
{"type": "Feature", "id": "oQfAmGKgY3-zat972kvSvd9UKYA=", "properties": {"ref": "1861", "@spider": "zizzi_gb", "amenity": "restaurant", "cuisine": "italian", "addr:full": "7 Denmark Street, High Wycombe, HP11 2DB", "addr:state": "Greater London", "addr:postcode": "HP11 2DB", "addr:country": "GB", "name": "High Wycombe \u2013 Open", "phone": "01494 445387", "website": "https://www.zizzi.co.uk/italian/restaurants/high-wycombe", "image": "https://www.zizzi.co.uk/propeller/uploads/2020/01/zizzi-high-wycombe-027-640x426.jpg", "brand": "Zizzi", "brand:wikidata": "Q8072944", "nsi_id": "zizzi-9b5453"}, "geometry": {"type": "Point", "coordinates": [-0.755997, 51.630748]}},
{"type": "Feature", "id": "9Ldju2uCO3e9K0MeE8nCq_yV1Y0=", "properties": {"ref": "1867", "@spider": "zizzi_gb", "amenity": "restaurant", "cuisine": "italian", "addr:full": "21 Sun Street, Hitchin, SG5 1AH", "addr:state": "East Anglia", "addr:postcode": "SG5 1AH", "addr:country": "GB", "name": "Hitchin \u2013 Open", "phone": "01462 440708", "website": "https://www.zizzi.co.uk/italian/restaurants/hitchin", "image": "https://www.zizzi.co.uk/propeller/uploads/2020/01/Zizzi-Italian-Hitchin-hero-640x360.jpg", "brand": "Zizzi", "brand:wikidata": "Q8072944", "nsi_id": "zizzi-9b5453"}, "geometry": {"type": "Point", "coordinates": [-0.279037, 51.946441]}},
{"type": "Feature", "id": "Tu82bVft4bUS-ACKDeO22wwbpD8=", "properties": {"ref": "1872", "@spider": "zizzi_gb", "amenity": "restaurant", "cuisine": "italian", "addr:full": "41 Station Lane, Hornchurch, RM12 6JT", "addr:state": "South East", "addr:postcode": "RM12 6JT", "addr:country": "GB", "name": "Hornchurch \u2013 Open", "phone": "01708 397013", "website": "https://www.zizzi.co.uk/italian/restaurants/hornchurch", "image": "https://www.zizzi.co.uk/propeller/uploads/2020/01/zizzi-hornchurch-low-res-001-640x426.jpg", "brand": "Zizzi", "brand:wikidata": "Q8072944", "nsi_id": "zizzi-9b5453"}, "geometry": {"type": "Point", "coordinates": [0.220944, 51.560224]}},
{"type": "Feature", "id": "PLmBUMEpsPrm8W8ECFfliFHFM3E=", "properties": {"ref": "1878", "@spider": "zizzi_gb", "amenity": "restaurant", "cuisine": "italian", "addr:full": "Leisure Terrace, St Stephens Centre, 50a, 110 Ferensway, Hull, HU2 8LN", "addr:state": "North East", "addr:postcode": "HU2 8LN", "addr:country": "GB", "name": "Hull \u2013 Open", "phone": "01482 215770  ", "website": "https://www.zizzi.co.uk/italian/restaurants/hull", "image": "https://www.zizzi.co.uk/propeller/uploads/2020/01/Zizzi-Italian-Hull-hero-640x360.jpg", "brand": "Zizzi", "brand:wikidata": "Q8072944", "nsi_id": "zizzi-9b5453"}, "geometry": {"type": "Point", "coordinates": [-0.347554, 53.745442]}},
{"type": "Feature", "id": "LiRa7ke195eH81lLD3DlQyPXGe8=", "properties": {"ref": "1884", "@spider": "zizzi_gb", "amenity": "restaurant", "cuisine": "italian", "addr:full": "20 Bridge Street, Inverness, IV1 1HD", "addr:state": "Scotland", "addr:postcode": "IV1 1HD", "addr:country": "GB", "name": "Inverness \u2013 Open", "phone": "01463 570331", "website": "https://www.zizzi.co.uk/italian/restaurants/inverness", "image": "https://www.zizzi.co.uk/propeller/uploads/2020/01/Zizzi-Italian-Inverness-hero-640x360.jpg", "brand": "Zizzi", "brand:wikidata": "Q8072944", "nsi_id": "zizzi-9b5453"}, "geometry": {"type": "Point", "coordinates": [-4.226483, 57.477451]}},
{"type": "Feature", "id": "edwJrhnaXIDbCMTxmGta_wCZYbg=", "properties": {"ref": "1895", "@spider": "zizzi_gb", "amenity": "restaurant", "cuisine": "italian", "addr:full": "29 The Square, Kenilworth, CV8 1EF", "addr:state": "Midlands", "addr:postcode": "CV8 1EF", "addr:country": "GB", "name": "Kenilworth \u2013 Open", "phone": "01926 852980", "website": "https://www.zizzi.co.uk/italian/restaurants/kenilworth", "image": "https://www.zizzi.co.uk/propeller/uploads/2020/01/Zizzi-Italian-Kenilworth-hero-640x360.jpg", "brand": "Zizzi", "brand:wikidata": "Q8072944", "nsi_id": "zizzi-9b5453"}, "geometry": {"type": "Point", "coordinates": [-1.579265, 52.343229]}},
{"type": "Feature", "id": "MxSErQSu2C04qVuvqIzV-P6NviQ=", "properties": {"ref": "1896", "@spider": "zizzi_gb", "amenity": "restaurant", "cuisine": "italian", "addr:full": "43 Market Place, Kingston, KT1 1ET", "addr:state": "Greater LondonSouth East", "addr:postcode": "KT1 1ET", "addr:country": "GB", "name": "Kingston \u2013 Open", "phone": "0203 4170112", "website": "https://www.zizzi.co.uk/italian/restaurants/kingston", "image": "https://www.zizzi.co.uk/propeller/uploads/2020/01/Zizzi-Italian-Kingston-hero-640x360.jpg", "brand": "Zizzi", "brand:wikidata": "Q8072944", "nsi_id": "zizzi-9b5453"}, "geometry": {"type": "Point", "coordinates": [-0.306156, 51.408846]}},
{"type": "Feature", "id": "SECcxACLX9V9JkhIQsS0-8c4_M4=", "properties": {"ref": "1897", "@spider": "zizzi_gb", "amenity": "restaurant", "cuisine": "italian", "addr:full": "Unit 9 The Quay, Intu Lakeside, Grays, RM20 2ZW", "addr:state": "South East", "addr:postcode": "RM20 2ZW", "addr:country": "GB", "name": "Lakeside \u2013 Open", "phone": "01708 867186", "website": "https://www.zizzi.co.uk/italian/restaurants/lakeside", "brand": "Zizzi", "brand:wikidata": "Q8072944", "nsi_id": "zizzi-9b5453"}, "geometry": {"type": "Point", "coordinates": [0.281772, 51.487512]}},
{"type": "Feature", "id": "WRfugJfUu4i3DK0ojr3a46cMSj0=", "properties": {"ref": "6470", "@spider": "zizzi_gb", "amenity": "restaurant", "cuisine": "italian", "addr:full": "Unit 2, 7-17 Market Street, Lancaster, LA1 1HZ", "addr:state": "North West", "addr:postcode": "LA1 1HZ", "addr:country": "GB", "name": "Lancaster \u2013 Open", "phone": "01524 956444", "website": "https://www.zizzi.co.uk/italian/restaurants/lancaster", "image": "https://www.zizzi.co.uk/propeller/uploads/2022/04/M223533-640x427.jpg", "brand": "Zizzi", "brand:wikidata": "Q8072944", "nsi_id": "zizzi-9b5453"}, "geometry": {"type": "Point", "coordinates": [-2.800842, 54.048711]}},
{"type": "Feature", "id": "9GjM3TPsAXxvZ0pM6PWBp1G0lSw=", "properties": {"ref": "1902", "@spider": "zizzi_gb", "amenity": "restaurant", "cuisine": "italian", "addr:full": "6 Regent House, Leamington Spa, CV32 4NL", "addr:state": "Midlands", "addr:postcode": "CV32 4NL", "addr:country": "GB", "name": "Leamington Spa \u2013 Open", "phone": "01926 432532", "website": "https://www.zizzi.co.uk/italian/restaurants/leamington-spa", "image": "https://www.zizzi.co.uk/propeller/uploads/2020/01/Zizzi-Italian-Leamington-Spa-hero-640x360.jpg", "brand": "Zizzi", "brand:wikidata": "Q8072944", "nsi_id": "zizzi-9b5453"}, "geometry": {"type": "Point", "coordinates": [-1.534966, 52.289895]}},
{"type": "Feature", "id": "x5Hcf35ZjMNSNdJJV3JlqcCRVto=", "properties": {"ref": "1909", "@spider": "zizzi_gb", "amenity": "restaurant", "cuisine": "italian", "addr:full": "Birstall Retail Park, Batley, WF17 9AD", "addr:state": "North East", "addr:postcode": "WF17 9AD", "addr:country": "GB", "name": "Leeds Birstall \u2013 Open", "phone": "0192 4795170", "website": "https://www.zizzi.co.uk/italian/restaurants/leeds-birstall", "image": "https://www.zizzi.co.uk/propeller/uploads/2020/01/Zizzi-Italian-Leeds-Birstall-hero-640x360.jpg", "brand": "Zizzi", "brand:wikidata": "Q8072944", "nsi_id": "zizzi-9b5453"}, "geometry": {"type": "Point", "coordinates": [-1.64483, 53.744062]}},
{"type": "Feature", "id": "pb4vOzUTlHDyp3JgaUd_GPHL9J8=", "properties": {"ref": "1915", "@spider": "zizzi_gb", "amenity": "restaurant", "cuisine": "italian", "addr:full": "The Light Shopping Centre, The Headrow, Leeds, West Yorks, Leeds, LS1 8TL", "addr:state": "North East", "addr:postcode": "LS1 8TL", "addr:country": "GB", "name": "Leeds The Light \u2013 Open", "phone": "0113 4505075", "website": "https://www.zizzi.co.uk/italian/restaurants/leeds-the-light", "image": "https://www.zizzi.co.uk/propeller/uploads/2020/01/Zizzi-Italian-Leeds-The-Light-hero-640x360.jpg", "brand": "Zizzi", "brand:wikidata": "Q8072944", "nsi_id": "zizzi-9b5453"}, "geometry": {"type": "Point", "coordinates": [-1.54564, 53.800047]}},
{"type": "Feature", "id": "TpepXh9Q-_7zZy-mZDu8FIV0u5o=", "properties": {"ref": "5811", "@spider": "zizzi_gb", "amenity": "restaurant", "cuisine": "italian", "addr:full": "Unit 14 Food Central, Fosse Park Shopping Park, Leicester, LE19 1HY", "addr:state": "Midlands", "addr:postcode": "LE19 1HY", "addr:country": "GB", "name": "Leicester Fosse Park \u2013 Open", "phone": "0116 482 0112", "website": "https://www.zizzi.co.uk/italian/restaurants/leicester-fosse-park", "image": "https://www.zizzi.co.uk/propeller/uploads/2020/01/zizzi-the-strand-low-res-097-640x427.jpg", "brand": "Zizzi", "brand:wikidata": "Q8072944", "nsi_id": "zizzi-9b5453"}, "geometry": {"type": "Point", "coordinates": [-1.17841, 52.59907]}},
{"type": "Feature", "id": "p8LDbOVrfQSHv3YfmAzIOHyr7L4=", "properties": {"ref": "1926", "@spider": "zizzi_gb", "amenity": "restaurant", "cuisine": "italian", "addr:full": "10 Highcross Lane, Leicester, LE1 4SD", "addr:state": "Midlands", "addr:postcode": "LE1 4SD", "addr:country": "GB", "name": "Leicester Highcross \u2013 Open", "phone": "0116 2515040", "website": "https://www.zizzi.co.uk/italian/restaurants/leicester-highcross-2", "image": "https://www.zizzi.co.uk/propeller/uploads/2020/01/Zizzi-Italian-Leicester-Highcross-hero-640x360.jpg", "brand": "Zizzi", "brand:wikidata": "Q8072944", "nsi_id": "zizzi-9b5453"}, "geometry": {"type": "Point", "coordinates": [-1.138491, 52.636347]}},
{"type": "Feature", "id": "a6kl_1TRlqtYABHMBWQjUoOrU4k=", "properties": {"ref": "1765", "@spider": "zizzi_gb", "amenity": "restaurant", "cuisine": "italian", "addr:full": "Ocean Terminal Food Terrace, Leith, EH6 6JJ", "addr:state": "Scotland", "addr:postcode": "EH6 6JJ", "addr:country": "GB", "name": "Leith \u2013 Open", "phone": "01312 410345", "website": "https://www.zizzi.co.uk/italian/restaurants/edinburgh-leith", "image": "https://www.zizzi.co.uk/propeller/uploads/2020/01/Zizzi-Italian-Leith-3-hero-640x360.jpg", "brand": "Zizzi", "brand:wikidata": "Q8072944", "nsi_id": "zizzi-9b5453"}, "geometry": {"type": "Point", "coordinates": [-3.179669, 55.980059]}},
{"type": "Feature", "id": "_NABw-xz4symYK0RDYNAiXvBPZg=", "properties": {"ref": "1731", "@spider": "zizzi_gb", "amenity": "restaurant", "cuisine": "italian", "addr:full": "Ground Floor, Western End Rotunda, Liffey Valley Shopping Centre , Dublin 22, D22 R6K8", "addr:state": "Ireland", "addr:country": "GB", "name": "Liffey Valley \u2013 Open", "phone": "+353 16234188", "website": "https://www.zizzi.co.uk/italian/restaurants/dublin-liffey-valley", "image": "https://www.zizzi.co.uk/propeller/uploads/2020/01/Zizzi-Italian-Liffey-Valley-hero-640x360.jpg", "brand": "Zizzi", "brand:wikidata": "Q8072944", "nsi_id": "zizzi-9b5453"}, "geometry": {"type": "Point", "coordinates": [-6.393684, 53.352598]}},
{"type": "Feature", "id": "cAgLbW9Uk5rl9J5ynDNnufoJJFY=", "properties": {"ref": "1928", "@spider": "zizzi_gb", "amenity": "restaurant", "cuisine": "italian", "addr:full": "Unit 3 Brayford Wharf, Lincoln, LN1 1YW", "addr:state": "Midlands", "addr:postcode": "LN1 1YW", "addr:country": "GB", "name": "Lincoln \u2013 Open", "phone": "0152 2425454", "website": "https://www.zizzi.co.uk/italian/restaurants/lincoln", "image": "https://www.zizzi.co.uk/propeller/uploads/2020/01/Zizzi-Italian-Lincoln-1-hero-640x360.jpg", "brand": "Zizzi", "brand:wikidata": "Q8072944", "nsi_id": "zizzi-9b5453"}, "geometry": {"type": "Point", "coordinates": [-0.543791, 53.227244]}},
{"type": "Feature", "id": "gYeehmHfGan7bCA9iRkGGRa15bA=", "properties": {"ref": "1929", "@spider": "zizzi_gb", "amenity": "restaurant", "cuisine": "italian", "addr:full": "14 Paradise Street, Liverpool One, L1 8JF", "addr:state": "North West", "addr:postcode": "L1 8JF", "addr:country": "GB", "name": "Liverpool One \u2013 Open", "phone": "0151 7078115", "website": "https://www.zizzi.co.uk/italian/restaurants/liverpool-one-2", "brand": "Zizzi", "brand:wikidata": "Q8072944", "nsi_id": "zizzi-9b5453"}, "geometry": {"type": "Point", "coordinates": [-2.986942, 53.403823]}},
{"type": "Feature", "id": "CvPrpOQyjN-ezvfc3EN_ywOPkJo=", "properties": {"ref": "1930", "@spider": "zizzi_gb", "amenity": "restaurant", "cuisine": "italian", "addr:full": "Unit L9, New Mersey Retail, Speke Road, Liverpool, L24 8QB", "addr:state": "North West", "addr:postcode": "L24 8QB", "addr:country": "GB", "name": "Liverpool Speke \u2013 Open", "phone": "01512713181", "website": "https://www.zizzi.co.uk/italian/restaurants/liverpool-speke", "brand": "Zizzi", "brand:wikidata": "Q8072944", "nsi_id": "zizzi-9b5453"}, "geometry": {"type": "Point", "coordinates": [-2.878332, 53.350635]}},
{"type": "Feature", "id": "OubEtBC3YNXMQCyoL2qKgT7REVg=", "properties": {"ref": "1492", "@spider": "zizzi_gb", "amenity": "restaurant", "cuisine": "italian", "addr:full": "Mezzanine Level, Riverside House, Southwark Bridge Road, London, SE1 9HA", "addr:state": "Greater London", "addr:postcode": "SE1 9HA", "addr:country": "GB", "name": "London \u2013 Bankside \u2013 Open", "phone": "0203 8026060", "website": "https://www.zizzi.co.uk/italian/restaurants/bankside", "image": "https://www.zizzi.co.uk/propeller/uploads/2020/01/Zizzi-Italian-Bankside-Hero-640x360.jpg", "brand": "Zizzi", "brand:wikidata": "Q8072944", "nsi_id": "zizzi-9b5453"}, "geometry": {"type": "Point", "coordinates": [-0.095279, 51.507926]}},
{"type": "Feature", "id": "ntDtwOfWyuQuv9T-PkabBAuBeG0=", "properties": {"ref": "1568", "@spider": "zizzi_gb", "amenity": "restaurant", "cuisine": "italian", "addr:full": "20 Bow Street, London, WC2E 7AW", "addr:state": "Greater London", "addr:postcode": "WC2E 7AW", "addr:country": "GB", "name": "London \u2013 Bow Street (Covent Garden) \u2013 Open", "phone": "0203 1059071", "website": "https://www.zizzi.co.uk/italian/restaurants/bow-street-covent-garden", "image": "https://www.zizzi.co.uk/propeller/uploads/2020/01/Zizzi-Italian-Bow-Street-hero-640x360.jpg", "brand": "Zizzi", "brand:wikidata": "Q8072944", "nsi_id": "zizzi-9b5453"}, "geometry": {"type": "Point", "coordinates": [-0.122652, 51.5137]}},
{"type": "Feature", "id": "tDtkcd4M5VBxjWtdALUIHJmjzhw=", "properties": {"ref": "7005", "@spider": "zizzi_gb", "amenity": "restaurant", "cuisine": "italian", "addr:full": "Atrium Kitchen, Upper Level, Cabot Place, Canary Wharf, London, E14 4QT", "addr:state": "Greater London", "addr:postcode": "E14 4QT", "addr:country": "GB", "name": "London \u2013 Canary Wharf \u2013 Open", "phone": "020 3149 8437", "website": "https://www.zizzi.co.uk/italian/restaurants/canary-wharf", "image": "https://www.zizzi.co.uk/propeller/uploads/2022/08/9-640x360.png", "brand": "Zizzi", "brand:wikidata": "Q8072944", "nsi_id": "zizzi-9b5453"}, "geometry": {"type": "Point", "coordinates": [-0.020157893914364795, 51.50512144450475]}},
{"type": "Feature", "id": "BgBhDTx_9XRV__visrYMlNWke1s=", "properties": {"ref": "2147", "@spider": "zizzi_gb", "amenity": "restaurant", "cuisine": "italian", "addr:full": "8 Central St Giles Plaza, London, WC2H 8AB", "addr:state": "Greater London", "addr:postcode": "WC2H 8AB", "addr:country": "GB", "name": "London \u2013 Central St Giles \u2013 Open", "phone": "0203 3020019", "website": "https://www.zizzi.co.uk/italian/restaurants/st-giles-near-tottenham-court-road", "image": "https://www.zizzi.co.uk/propeller/uploads/2020/01/Zizzi-Italian-Central-St-Giles-2-640x360.jpg", "brand": "Zizzi", "brand:wikidata": "Q8072944", "nsi_id": "zizzi-9b5453"}, "geometry": {"type": "Point", "coordinates": [-0.127638, 51.516523]}},
{"type": "Feature", "id": "2198jHdR5oIW9sk5kU0iFOx-kb0=", "properties": {"ref": "1754", "@spider": "zizzi_gb", "amenity": "restaurant", "cuisine": "italian", "addr:full": "194 Earls Court Road, London, SW5 9QF", "addr:state": "Greater London", "addr:postcode": "SW5 9QF", "addr:country": "GB", "name": "London \u2013 Earl\u2019s Court \u2013 Open", "phone": "0203 8022747", "website": "https://www.zizzi.co.uk/italian/restaurants/earls-court", "image": "https://www.zizzi.co.uk/propeller/uploads/2020/01/Zizzi-Italian-Earls-Court-hero-640x360.jpg", "brand": "Zizzi", "brand:wikidata": "Q8072944", "nsi_id": "zizzi-9b5453"}, "geometry": {"type": "Point", "coordinates": [-0.194207, 51.492612]}},
{"type": "Feature", "id": "HpwSL0QxUk6nPxwV68V6OKlMSCk=", "properties": {"ref": "1835", "@spider": "zizzi_gb", "amenity": "restaurant", "cuisine": "italian", "addr:full": "Greenwich Promenade (Pier) Cutty Sark Gardens , Greenwich, London, SE10 9HT", "addr:state": "Greater London", "addr:postcode": "SE10 9HT", "addr:country": "GB", "name": "London \u2013 Greenwich \u2013 Open", "phone": "0203 5819819", "website": "https://www.zizzi.co.uk/italian/restaurants/greenwich", "image": "https://www.zizzi.co.uk/propeller/uploads/2020/01/Zizzi-Italian-Greenwich-3-640x360.jpg", "brand": "Zizzi", "brand:wikidata": "Q8072944", "nsi_id": "zizzi-9b5453"}, "geometry": {"type": "Point", "coordinates": [-0.009691, 51.483539]}},
{"type": "Feature", "id": "AdlLLirVfPy08XUZzJwuTgTLrmQ=", "properties": {"ref": "2005", "@spider": "zizzi_gb", "amenity": "restaurant", "cuisine": "italian", "addr:full": "Unit Su46, One New Change, London, EC4M 9AF", "addr:state": "Greater London", "addr:postcode": "EC4M 9AF", "addr:country": "GB", "name": "London \u2013 One New Change (St Paul\u2019s) \u2013 Open", "phone": "02033 027 374", "website": "https://www.zizzi.co.uk/italian/restaurants/one-new-change-st-pauls", "image": "https://www.zizzi.co.uk/propeller/uploads/2020/01/Zizzi-Italian-One-New-Change-hero-640x360.jpg", "brand": "Zizzi", "brand:wikidata": "Q8072944", "nsi_id": "zizzi-9b5453"}, "geometry": {"type": "Point", "coordinates": [-0.094845, 51.514529]}},
{"type": "Feature", "id": "VRFonhZ25V9aSoTehE5HAIx1sZ4=", "properties": {"ref": "2012", "@spider": "zizzi_gb", "amenity": "restaurant", "cuisine": "italian", "addr:full": "17 Sheldon Square, London, W2 6EP", "addr:state": "Greater London", "addr:postcode": "W2 6EP", "addr:country": "GB", "name": "London \u2013 Paddington Central \u2013 Open", "phone": "0203 3021895", "website": "https://www.zizzi.co.uk/italian/restaurants/paddington-central", "image": "https://www.zizzi.co.uk/propeller/uploads/2020/01/Zizzi-Italian-Paddington-central-hero-640x360.jpg", "brand": "Zizzi", "brand:wikidata": "Q8072944", "nsi_id": "zizzi-9b5453"}, "geometry": {"type": "Point", "coordinates": [-0.179218, 51.519169]}},
{"type": "Feature", "id": "z4IV_nDM0jHlGD9ayMwwtWiKnqA=", "properties": {"ref": "2153", "@spider": "zizzi_gb", "amenity": "restaurant", "cuisine": "italian", "addr:full": "12 Ivory Street, St Katherines Dock, E1W 1AT", "addr:state": "Greater London", "addr:postcode": "E1W 1AT", "addr:country": "GB", "name": "London \u2013 St Katharine\u2019s Docks \u2013 Open", "phone": "02033 022 380", "website": "https://www.zizzi.co.uk/italian/restaurants/st-katharines-docks", "image": "https://www.zizzi.co.uk/propeller/uploads/2020/01/Zizzi-Italian-St-Katherines-Dock-hero-640x360.jpg", "brand": "Zizzi", "brand:wikidata": "Q8072944", "nsi_id": "zizzi-9b5453"}, "geometry": {"type": "Point", "coordinates": [-0.071836, 51.507193]}},
{"type": "Feature", "id": "HaFBHeCEV-k4GcMUXqnqNagWsKE=", "properties": {"ref": "2194", "@spider": "zizzi_gb", "amenity": "restaurant", "cuisine": "italian", "addr:full": "The O2, London, SE10 0UZ", "addr:state": "Greater London", "addr:postcode": "SE10 0UZ", "addr:country": "GB", "name": "London \u2013 The O2 \u2013 Open", "phone": "02030 920 014", "website": "https://www.zizzi.co.uk/italian/restaurants/the-o2", "image": "https://www.zizzi.co.uk/propeller/uploads/2020/01/Zizzi-Italian-The-O2-hero-640x360.jpg", "brand": "Zizzi", "brand:wikidata": "Q8072944", "nsi_id": "zizzi-9b5453"}, "geometry": {"type": "Point", "coordinates": [0.018004, 51.489386]}},
{"type": "Feature", "id": "0IWvDtD3hZwNkZIt9sdZ8p7wNo8=", "properties": {"ref": "2200", "@spider": "zizzi_gb", "amenity": "restaurant", "cuisine": "italian", "addr:full": "73 The Strand, London, WC2R 0DE", "addr:state": "Greater London", "addr:postcode": "WC2R 0DE", "addr:country": "GB", "name": "London \u2013 The Strand (West End) \u2013 Open", "phone": "2033022734", "website": "https://www.zizzi.co.uk/italian/restaurants/the-strand-west-end", "image": "https://www.zizzi.co.uk/propeller/uploads/2020/01/zizzi-the-strand-low-res-011-640x428.jpg", "brand": "Zizzi", "brand:wikidata": "Q8072944", "nsi_id": "zizzi-9b5453"}, "geometry": {"type": "Point", "coordinates": [-0.122114, 51.50996]}},
{"type": "Feature", "id": "LX-FNS07cnMxY2QdtCAZ_oxEXyk=", "properties": {"ref": "2206", "@spider": "zizzi_gb", "amenity": "restaurant", "cuisine": "italian", "addr:full": "Plaza Level West, Tower Place, London, EC3R 5BU", "addr:state": "Greater London", "addr:postcode": "EC3R 5BU", "addr:country": "GB", "name": "London \u2013 Tower Hill \u2013 Open", "phone": "0203 4890303", "website": "https://www.zizzi.co.uk/italian/restaurants/tower-hill", "image": "https://www.zizzi.co.uk/propeller/uploads/2020/01/Zizzi-Italian-Tower-Hill-2-hero-640x360.jpg", "brand": "Zizzi", "brand:wikidata": "Q8072944", "nsi_id": "zizzi-9b5453"}, "geometry": {"type": "Point", "coordinates": [-0.080204, 51.509011]}},
{"type": "Feature", "id": "mJZKpDjuKH5SQL9CwPrIH8vP5MA=", "properties": {"ref": "2229", "@spider": "zizzi_gb", "amenity": "restaurant", "cuisine": "italian", "addr:full": "15 Cardinal Walk, Victoria, SW1E 5JE", "addr:state": "Greater London", "addr:postcode": "SW1E 5JE", "addr:country": "GB", "name": "London \u2013 Victoria \u2013 Open", "phone": "02038 022 294", "website": "https://www.zizzi.co.uk/italian/restaurants/victoria", "image": "https://www.zizzi.co.uk/propeller/uploads/2020/01/Zizzi-Italian-Victoria-hero-640x360.jpg", "brand": "Zizzi", "brand:wikidata": "Q8072944", "nsi_id": "zizzi-9b5453"}, "geometry": {"type": "Point", "coordinates": [-0.141604, 51.49742]}},
{"type": "Feature", "id": "u3751y9IwErB0eCRrMMOqOcTBsk=", "properties": {"ref": "2247", "@spider": "zizzi_gb", "amenity": "restaurant", "cuisine": "italian", "addr:full": "London Designer Outlet, Wembley, HA9 0FD", "addr:state": "Greater London", "addr:postcode": "HA9 0FD", "addr:country": "GB", "name": "London \u2013 Wembley \u2013 Open", "phone": "0203 8026676", "website": "https://www.zizzi.co.uk/italian/restaurants/wembley", "image": "https://www.zizzi.co.uk/propeller/uploads/2020/01/Zizzi-Italian-Wembley-hero-640x360.jpg", "brand": "Zizzi", "brand:wikidata": "Q8072944", "nsi_id": "zizzi-9b5453"}, "geometry": {"type": "Point", "coordinates": [-0.285853, 51.557835]}},
{"type": "Feature", "id": "R303Z8Rdf19LXiJMM2icr3CsnCY=", "properties": {"ref": "2259", "@spider": "zizzi_gb", "amenity": "restaurant", "cuisine": "italian", "addr:full": "Westfield White City, London, W12 7GB", "addr:state": "Greater London", "addr:postcode": "W12 7GB", "addr:country": "GB", "name": "London \u2013 Westfield (White City) \u2013 Open", "phone": "0203 8026615", "website": "https://www.zizzi.co.uk/italian/restaurants/westfield-london-white-city", "image": "https://www.zizzi.co.uk/propeller/uploads/2020/01/Zizzi-Italian-Westfield-White-City-hero-640x360.jpg", "brand": "Zizzi", "brand:wikidata": "Q8072944", "nsi_id": "zizzi-9b5453"}, "geometry": {"type": "Point", "coordinates": [-0.223242, 51.507202]}},
{"type": "Feature", "id": "znmFI2dCdYGgRj49VOkPoek-m0Q=", "properties": {"ref": "1931", "@spider": "zizzi_gb", "amenity": "restaurant", "cuisine": "italian", "addr:full": "2 Church Hill, Loughton, IG10 1LA", "addr:state": "Greater LondonSouth East", "addr:postcode": "IG10 1LA", "addr:country": "GB", "name": "Loughton \u2013 Open", "phone": "0203 1050605", "website": "https://www.zizzi.co.uk/italian/restaurants/loughton", "brand": "Zizzi", "brand:wikidata": "Q8072944", "nsi_id": "zizzi-9b5453"}, "geometry": {"type": "Point", "coordinates": [0.058327, 51.650708]}},
{"type": "Feature", "id": "5418Oi_9xqiwup6LMcqNIgnkdk0=", "properties": {"ref": "1936", "@spider": "zizzi_gb", "amenity": "restaurant", "cuisine": "italian", "addr:full": "46 Earl Street, Maidstone, ME14 1PS", "addr:state": "South East", "addr:postcode": "ME14 1PS", "addr:country": "GB", "name": "Maidstone \u2013 Open", "phone": "01622297732", "website": "https://www.zizzi.co.uk/italian/restaurants/maidstone", "image": "https://www.zizzi.co.uk/propeller/uploads/2020/01/Zizzi-Italian-Maidstone-1-hero-640x360.jpg", "brand": "Zizzi", "brand:wikidata": "Q8072944", "nsi_id": "zizzi-9b5453"}, "geometry": {"type": "Point", "coordinates": [0.520568, 51.274767]}},
{"type": "Feature", "id": "AfQ7ctKLtNDr5c1zbypPjcsUEcA=", "properties": {"ref": "1941", "@spider": "zizzi_gb", "amenity": "restaurant", "cuisine": "italian", "addr:full": "The Corn Exchange, Exchange Sq, Manchester, M4 3TR", "addr:state": "North West", "addr:postcode": "M4 3TR", "addr:country": "GB", "name": "Manchester Corn Exchange \u2013 Open", "phone": "0161 8349395", "website": "https://www.zizzi.co.uk/italian/restaurants/manchester-corn-exchange-formerly-triangle", "image": "https://www.zizzi.co.uk/propeller/uploads/2020/01/Zizzi-Italian-Manchester-Corn-Exchange-hero-640x360.jpg", "brand": "Zizzi", "brand:wikidata": "Q8072944", "nsi_id": "zizzi-9b5453"}, "geometry": {"type": "Point", "coordinates": [-2.243234, 53.485073]}},
{"type": "Feature", "id": "E0YISn2ORylwNpGQoLbZcuUiAE0=", "properties": {"ref": "1953", "@spider": "zizzi_gb", "amenity": "restaurant", "cuisine": "italian", "addr:full": "Piccadilly Gardens, Manchester, M1 1LU", "addr:state": "North West", "addr:postcode": "M1 1LU", "addr:country": "GB", "name": "Manchester Piccadilly \u2013 Open", "phone": "0161 4591208", "website": "https://www.zizzi.co.uk/italian/restaurants/manchester-piccadilly", "image": "https://www.zizzi.co.uk/propeller/uploads/2020/01/Zizzi-Italian-Manchester-Picadilly-hero-640x360.jpg", "brand": "Zizzi", "brand:wikidata": "Q8072944", "nsi_id": "zizzi-9b5453"}, "geometry": {"type": "Point", "coordinates": [-2.236373, 53.481602]}},
{"type": "Feature", "id": "L99BXhrxcDD03yNDMqkdcUm6N4U=", "properties": {"ref": "1959", "@spider": "zizzi_gb", "amenity": "restaurant", "cuisine": "italian", "addr:full": "120 -122 The Orient The Trafford Centre, Manchester, M17 8EH", "addr:state": "North West", "addr:postcode": "M17 8EH", "addr:country": "GB", "name": "Manchester Trafford Centre \u2013 Open", "phone": "0161 4592017", "website": "https://www.zizzi.co.uk/italian/restaurants/manchester-trafford-centre", "image": "https://www.zizzi.co.uk/propeller/uploads/2020/01/zizzi-trafford-centre-low-res-063-640x428.jpg", "brand": "Zizzi", "brand:wikidata": "Q8072944", "nsi_id": "zizzi-9b5453"}, "geometry": {"type": "Point", "coordinates": [-2.349005, 53.466178]}},
{"type": "Feature", "id": "FOKA3xfUzZNHDIZ1pM0HEgj_fa0=", "properties": {"ref": "1965", "@spider": "zizzi_gb", "amenity": "restaurant", "cuisine": "italian", "addr:full": "47 High Street, Market Harborough, LE16 7AF", "addr:state": "Midlands", "addr:postcode": "LE16 7AF", "addr:country": "GB", "name": "Market Harborough \u2013 Open", "phone": "01858 411006", "website": "https://www.zizzi.co.uk/italian/restaurants/market-harborough", "image": "https://www.zizzi.co.uk/propeller/uploads/2020/01/M222673-640x427.jpg", "brand": "Zizzi", "brand:wikidata": "Q8072944", "nsi_id": "zizzi-9b5453"}, "geometry": {"type": "Point", "coordinates": [-0.92244, 52.479623]}},
{"type": "Feature", "id": "S9LWmxaSkcHkyvgnCxOdGd99FBc=", "properties": {"ref": "1966", "@spider": "zizzi_gb", "amenity": "restaurant", "cuisine": "italian", "addr:full": "76 High Street, Marlow, SL7 1AQ", "addr:state": "South East", "addr:postcode": "SL7 1AQ", "addr:country": "GB", "name": "Marlow \u2013 Open", "phone": "01628 890200", "website": "https://www.zizzi.co.uk/italian/restaurants/marlow", "brand": "Zizzi", "brand:wikidata": "Q8072944", "nsi_id": "zizzi-9b5453"}, "geometry": {"type": "Point", "coordinates": [-0.774823, 51.569595]}},
{"type": "Feature", "id": "gXm-DusHCqbZAyBAyz0iwQexQgw=", "properties": {"ref": "1967", "@spider": "zizzi_gb", "amenity": "restaurant", "cuisine": "italian", "addr:full": "42 Garden Walk, Metro Centre, Gateshead, NE11 9XY", "addr:state": "North East", "addr:postcode": "NE11 9XY", "addr:country": "GB", "name": "Metro Centre \u2013 Open", "phone": "019146 10663", "website": "https://www.zizzi.co.uk/italian/restaurants/metro-centre", "brand": "Zizzi", "brand:wikidata": "Q8072944", "nsi_id": "zizzi-9b5453"}, "geometry": {"type": "Point", "coordinates": [-1.668555, 54.957641]}},
{"type": "Feature", "id": "puEjEitBcpM_Usz4r94MmF_9fRM=", "properties": {"ref": "1973", "@spider": "zizzi_gb", "amenity": "restaurant", "cuisine": "italian", "addr:full": "The Hub, Milton Keynes, MK9 2HP", "addr:state": "South East", "addr:postcode": "MK9 2HP", "addr:country": "GB", "name": "Milton Keynes, The Hub \u2013 Open", "phone": "01908 609980", "website": "https://www.zizzi.co.uk/italian/restaurants/milton-keynes-the-hub", "image": "https://www.zizzi.co.uk/propeller/uploads/2020/01/Zizzi-Italian-Milton-Keynes-Hub-hero-640x360.jpg", "brand": "Zizzi", "brand:wikidata": "Q8072944", "nsi_id": "zizzi-9b5453"}, "geometry": {"type": "Point", "coordinates": [-0.764766, 52.039267]}},
{"type": "Feature", "id": "zsSeQNpqBGVgyH0fQar4hA06HRA=", "properties": {"ref": "7007", "@spider": "zizzi_gb", "amenity": "restaurant", "cuisine": "italian", "addr:full": "25 Market Place, Newbury, Berkshire, RG14 5AA", "addr:state": "South East", "addr:postcode": "RG14 5AA", "addr:country": "GB", "name": "Newbury \u2013 Opening Soon", "phone": "01635635153", "website": "https://www.zizzi.co.uk/italian/restaurants/newbury", "image": "https://www.zizzi.co.uk/propeller/uploads/2022/03/P10565-804-e1644849557117-test-more-640x427.jpeg", "brand": "Zizzi", "brand:wikidata": "Q8072944", "nsi_id": "zizzi-9b5453"}, "geometry": {"type": "Point", "coordinates": [-1.32349, 51.400789]}},
{"type": "Feature", "id": "p7qGGPa5nKLWCExudxuwOTbxrXc=", "properties": {"ref": "1985", "@spider": "zizzi_gb", "amenity": "restaurant", "cuisine": "italian", "addr:full": "42 Grey Street, Newcastle Upon Tyne, NE1 6AE", "addr:state": "North East", "addr:postcode": "NE1 6AE", "addr:country": "GB", "name": "Newcastle \u2013 Open", "phone": "0191 261 8360", "website": "https://www.zizzi.co.uk/italian/restaurants/newcastle", "brand": "Zizzi", "brand:wikidata": "Q8072944", "nsi_id": "zizzi-9b5453"}, "geometry": {"type": "Point", "coordinates": [-1.610846, 54.971443]}},
{"type": "Feature", "id": "DIviChWeUXgJuJJy1WvhyHYL2yU=", "properties": {"ref": "1986", "@spider": "zizzi_gb", "amenity": "restaurant", "cuisine": "italian", "addr:full": "Unit R1B, Friars Walk Shopping Centre, Newport, NP20 1EA", "addr:state": "Wales", "addr:postcode": "NP20 1EA", "addr:country": "GB", "name": "Newport \u2013 Open", "phone": "0163 3370404", "website": "https://www.zizzi.co.uk/italian/restaurants/newport", "image": "https://www.zizzi.co.uk/propeller/uploads/2020/01/zizzi-newport-198-640x426.jpg", "brand": "Zizzi", "brand:wikidata": "Q8072944", "nsi_id": "zizzi-9b5453"}, "geometry": {"type": "Point", "coordinates": [-3.012477, 51.586918]}},
{"type": "Feature", "id": "xCC6Hq-6MPy_FlBnk6BaenG60j0=", "properties": {"ref": "1987", "@spider": "zizzi_gb", "amenity": "restaurant", "cuisine": "italian", "addr:full": "25 Tombland, Norwich, NR3 1RF", "addr:state": "East Anglia", "addr:postcode": "NR3 1RF", "addr:country": "GB", "name": "Norwich \u2013 Open", "phone": "01603291227", "website": "https://www.zizzi.co.uk/italian/restaurants/norwich", "brand": "Zizzi", "brand:wikidata": "Q8072944", "nsi_id": "zizzi-9b5453"}, "geometry": {"type": "Point", "coordinates": [1.299299, 52.631102]}},
{"type": "Feature", "id": "MIjR2OvFQzZGHcHiGtQCwcEw5bY=", "properties": {"ref": "1999", "@spider": "zizzi_gb", "amenity": "restaurant", "cuisine": "italian", "addr:full": "12 King Street, Nottingham, NG1 2AS", "addr:state": "Midlands", "addr:postcode": "NG1 2AS", "addr:country": "GB", "name": "Nottingham \u2013 Open", "phone": "01158 374035 ", "website": "https://www.zizzi.co.uk/italian/restaurants/nottingham", "image": "https://www.zizzi.co.uk/propeller/uploads/2020/01/zizzi-nottingham-low-res-003-640x426.jpg", "brand": "Zizzi", "brand:wikidata": "Q8072944", "nsi_id": "zizzi-9b5453"}, "geometry": {"type": "Point", "coordinates": [-1.149187, 52.954293]}},
{"type": "Feature", "id": "TFYKDZzylBV426l6pzbqaaQQL2Y=", "properties": {"ref": "2006", "@spider": "zizzi_gb", "amenity": "restaurant", "cuisine": "italian", "addr:full": "59 George Street, Oxford, OX1 2BE", "addr:state": "South East", "addr:postcode": "OX1 2BE", "addr:country": "GB", "name": "Oxford \u2013 Open", "phone": "01865 202 993", "website": "https://www.zizzi.co.uk/italian/restaurants/oxford", "brand": "Zizzi", "brand:wikidata": "Q8072944", "nsi_id": "zizzi-9b5453"}, "geometry": {"type": "Point", "coordinates": [-1.261868, 51.753396]}},
{"type": "Feature", "id": "4hE6eFTpkhWurhFe2hmoegqtSFE=", "properties": {"ref": "2030", "@spider": "zizzi_gb", "amenity": "restaurant", "cuisine": "italian", "addr:full": "Unit 4, 11 Bretonside, Plymouth, Plymouth, PL4 0FE", "addr:state": "South West", "addr:postcode": "PL4 0FE", "addr:country": "GB", "name": "Plymouth \u2013 Open", "phone": "01752263127", "website": "https://www.zizzi.co.uk/italian/restaurants/plymouth", "image": "https://www.zizzi.co.uk/propeller/uploads/2020/01/Zizzi-Italian-Plymouth-hero-640x360.jpg", "brand": "Zizzi", "brand:wikidata": "Q8072944", "nsi_id": "zizzi-9b5453"}, "geometry": {"type": "Point", "coordinates": [-4.119759, 50.37352]}},
{"type": "Feature", "id": "icJGFY4b6FhRPWUMfmq2IIL2FHg=", "properties": {"ref": "2036", "@spider": "zizzi_gb", "amenity": "restaurant", "cuisine": "italian", "addr:full": "33 The Boardwalk, Port Solent, PO6 4TP", "addr:state": "South East", "addr:postcode": "PO6 4TP", "addr:country": "GB", "name": "Port Solent \u2013 Open", "phone": "0238 1780702", "website": "https://www.zizzi.co.uk/italian/restaurants/port-solent", "image": "https://www.zizzi.co.uk/propeller/uploads/2020/01/Zizzi-Italian-Port-Solent-hero-640x360.jpg", "brand": "Zizzi", "brand:wikidata": "Q8072944", "nsi_id": "zizzi-9b5453"}, "geometry": {"type": "Point", "coordinates": [-1.097089, 50.840896]}},
{"type": "Feature", "id": "60Y4sLYqXTN6wq2BJDHyZ2fQFtw=", "properties": {"ref": "2042", "@spider": "zizzi_gb", "amenity": "restaurant", "cuisine": "italian", "addr:full": "Gunwharf Quays, Portsmouth, PO1 3TA", "addr:state": "South East", "addr:postcode": "PO1 3TA", "addr:country": "GB", "name": "Portsmouth \u2013 Open", "phone": "0239 2175111", "website": "https://www.zizzi.co.uk/italian/restaurants/portsmouth", "image": "https://www.zizzi.co.uk/propeller/uploads/2020/01/Zizzi-Italian-Portsmouth-hero-640x360.jpg", "brand": "Zizzi", "brand:wikidata": "Q8072944", "nsi_id": "zizzi-9b5453"}, "geometry": {"type": "Point", "coordinates": [-1.106968, 50.794318]}},
{"type": "Feature", "id": "211uPGKbV9_84XvussLduhmDVlU=", "properties": {"ref": "2054", "@spider": "zizzi_gb", "amenity": "restaurant", "cuisine": "italian", "addr:full": "20 The Riverside, The Oracle Shopping Centre\t, Reading ,  RG1 2AG\t", "addr:state": "South East", "addr:postcode": "RG1 2AG", "addr:country": "GB", "name": "Reading Oracle \u2013 Open", "phone": "01189 962111\t\t\t", "website": "https://www.zizzi.co.uk/italian/restaurants/reading-oracle", "image": "https://www.zizzi.co.uk/propeller/uploads/2020/01/Zizzi-Italian-Reading-Oracle-hero-640x360.jpg", "brand": "Zizzi", "brand:wikidata": "Q8072944", "nsi_id": "zizzi-9b5453"}, "geometry": {"type": "Point", "coordinates": [-0.965656, 51.454677]}},
{"type": "Feature", "id": "R18aCy222xvFD158cwysyTxuIbs=", "properties": {"ref": "2066", "@spider": "zizzi_gb", "amenity": "restaurant", "cuisine": "italian", "addr:full": "4 Kings Street, Richmond, TW9 1ND", "addr:state": "Greater London", "addr:postcode": "TW9 1ND", "addr:country": "GB", "name": "Richmond \u2013 Open", "phone": "0203 9523329", "website": "https://www.zizzi.co.uk/italian/restaurants/richmond", "image": "https://www.zizzi.co.uk/propeller/uploads/2020/01/Zizzi-Italian-Richmond-hero-640x360.jpg", "brand": "Zizzi", "brand:wikidata": "Q8072944", "nsi_id": "zizzi-9b5453"}, "geometry": {"type": "Point", "coordinates": [-0.306942, 51.459952]}},
{"type": "Feature", "id": "sYmoIAk61HPV3jLzLJr6NzaHR6I=", "properties": {"ref": "2072", "@spider": "zizzi_gb", "amenity": "restaurant", "cuisine": "italian", "addr:full": "Unit FR5-7, The Brewery, Romford, RM1 1AU", "addr:state": "South East", "addr:postcode": "RM1 1AU", "addr:country": "GB", "name": "Romford \u2013 Open", "phone": "0170 8935160", "website": "https://www.zizzi.co.uk/italian/restaurants/romford", "image": "https://www.zizzi.co.uk/propeller/uploads/2020/01/Zizzi-Italian-Romford-hero-640x360.jpg", "brand": "Zizzi", "brand:wikidata": "Q8072944", "nsi_id": "zizzi-9b5453"}, "geometry": {"type": "Point", "coordinates": [0.18072, 51.57619]}},
{"type": "Feature", "id": "utB6A5sLo4yKFMZU7_hRpfwqVfo=", "properties": {"ref": "2078", "@spider": "zizzi_gb", "amenity": "restaurant", "cuisine": "italian", "addr:full": " Unit L7, West Terrace, Rushden Lakes, Rushden , NN10 6FH", "addr:state": "Midlands", "addr:postcode": "NN10 6FH", "addr:country": "GB", "name": "Rushden Lakes \u2013 Open", "phone": "01933 413882", "website": "https://www.zizzi.co.uk/italian/restaurants/rushden-lakes", "image": "https://www.zizzi.co.uk/propeller/uploads/2020/01/Zizzi-Italian-Rushden-Lakes-hero-640x360.jpg", "brand": "Zizzi", "brand:wikidata": "Q8072944", "nsi_id": "zizzi-9b5453"}, "geometry": {"type": "Point", "coordinates": [-0.619552, 52.301489]}},
{"type": "Feature", "id": "LjJ1hFGbVCSp_jUXVierbd8dD04=", "properties": {"ref": "2084", "@spider": "zizzi_gb", "amenity": "restaurant", "cuisine": "italian", "addr:full": "1/3 Castle Street, Salisbury, SP1 1TT", "addr:state": "South West", "addr:postcode": "SP1 1TT", "addr:country": "GB", "name": "Salisbury \u2013 Open", "phone": "0172 2237474", "website": "https://www.zizzi.co.uk/italian/restaurants/salisbury", "image": "https://www.zizzi.co.uk/propeller/uploads/2020/01/Zizzi-Italian-Salisbury-hero-640x360.jpg", "brand": "Zizzi", "brand:wikidata": "Q8072944", "nsi_id": "zizzi-9b5453"}, "geometry": {"type": "Point", "coordinates": [-1.796653, 51.070575]}},
{"type": "Feature", "id": "9nmlhqIf0CFs9gi4KfI8xGfs7n4=", "properties": {"ref": "2090", "@spider": "zizzi_gb", "amenity": "restaurant", "cuisine": "italian", "addr:full": "35 London Road, Sevenoaks, TN13 1AR", "addr:state": "South East", "addr:postcode": "TN13 1AR", "addr:country": "GB", "name": "Sevenoaks \u2013 Open", "phone": "01732 241011", "website": "https://www.zizzi.co.uk/italian/restaurants/sevenoaks", "image": "https://www.zizzi.co.uk/propeller/uploads/2020/01/Zizzi-Italian-Sevenoaks-hero-640x360.jpg", "brand": "Zizzi", "brand:wikidata": "Q8072944", "nsi_id": "zizzi-9b5453"}, "geometry": {"type": "Point", "coordinates": [0.191351, 51.270917]}},
{"type": "Feature", "id": "oKbi-2tZMcO7-0lhVXWqoz8_hIE=", "properties": {"ref": "2096", "@spider": "zizzi_gb", "amenity": "restaurant", "cuisine": "italian", "addr:full": "8 Leopold Square, Sheffield, S1 2JG", "addr:state": "North East", "addr:postcode": "S1 2JG", "addr:country": "GB", "name": "Sheffield Leopold Square \u2013 Open", "phone": "01142 787718", "website": "https://www.zizzi.co.uk/italian/restaurants/sheffield-leopold-square", "image": "https://www.zizzi.co.uk/propeller/uploads/2020/01/M226369-640x427.jpg", "brand": "Zizzi", "brand:wikidata": "Q8072944", "nsi_id": "zizzi-9b5453"}, "geometry": {"type": "Point", "coordinates": [-1.471631, 53.381442]}},
{"type": "Feature", "id": "CKvDK_Gev34R3FdNAQpaBFstKB4=", "properties": {"ref": "2102", "@spider": "zizzi_gb", "amenity": "restaurant", "cuisine": "italian", "addr:full": "Meadowhall, Sheffield, S9 1EP", "addr:state": "North East", "addr:postcode": "S9 1EP", "addr:country": "GB", "name": "Sheffield Meadowhall \u2013 Open", "phone": "0114 2516777", "website": "https://www.zizzi.co.uk/italian/restaurants/sheffield-meadowhall", "image": "https://www.zizzi.co.uk/propeller/uploads/2020/01/Zizzi-Italian-Sheffield-Meadowhall-hero-640x360.jpg", "brand": "Zizzi", "brand:wikidata": "Q8072944", "nsi_id": "zizzi-9b5453"}, "geometry": {"type": "Point", "coordinates": [-1.412461, 53.413039]}},
{"type": "Feature", "id": "VPClJpGP3qaczCLJpeNagr_EVtY=", "properties": {"ref": "2120", "@spider": "zizzi_gb", "amenity": "restaurant", "cuisine": "italian", "addr:full": "10 Poplar Road, Solihull, B91 3AB", "addr:state": "Midlands", "addr:postcode": "B91 3AB", "addr:country": "GB", "name": "Solihull \u2013 Open", "phone": "0121 704 5030", "website": "https://www.zizzi.co.uk/italian/restaurants/solihull", "image": "https://www.zizzi.co.uk/propeller/uploads/2020/01/Zizzi-Italian-Solihul-hero-640x360.jpg", "brand": "Zizzi", "brand:wikidata": "Q8072944", "nsi_id": "zizzi-9b5453"}, "geometry": {"type": "Point", "coordinates": [-1.779319, 52.414524]}},
{"type": "Feature", "id": "2dmaoiWuwC4zg6MzfdtTLiq9Ah0=", "properties": {"ref": "2125", "@spider": "zizzi_gb", "amenity": "restaurant", "cuisine": "italian", "addr:full": "198 George Lane, London, E18 2QL", "addr:state": "South East", "addr:postcode": "E18 2QL", "addr:country": "GB", "name": "South Woodford \u2013 Open", "phone": "0203 1053752", "website": "https://www.zizzi.co.uk/italian/restaurants/south-woodford", "image": "https://www.zizzi.co.uk/propeller/uploads/2020/01/Zizzi-Italian-South-Woodford-hero-640x360.jpg", "brand": "Zizzi", "brand:wikidata": "Q8072944", "nsi_id": "zizzi-9b5453"}, "geometry": {"type": "Point", "coordinates": [0.022667, 51.59336]}},
{"type": "Feature", "id": "BwSbf4spIjokoEd2l1PS6NP8ICM=", "properties": {"ref": "2130", "@spider": "zizzi_gb", "amenity": "restaurant", "cuisine": "italian", "addr:full": "Unit WM19, Level 2, West Quay South, Southampton, SO15 1DE", "addr:state": "South East", "addr:postcode": "SO15 1DE", "addr:country": "GB", "name": "Southampton \u2013 Open", "phone": "0239 2175056", "website": "https://www.zizzi.co.uk/italian/restaurants/southampton", "image": "https://www.zizzi.co.uk/propeller/uploads/2020/01/Zizzi-Italian-Southampton-hero-640x360.jpg", "brand": "Zizzi", "brand:wikidata": "Q8072944", "nsi_id": "zizzi-9b5453"}, "geometry": {"type": "Point", "coordinates": [-1.407474, 50.903861]}},
{"type": "Feature", "id": "Z4BM5wjo9-HYyo7SHIVh_swu9j0=", "properties": {"ref": "2136", "@spider": "zizzi_gb", "amenity": "restaurant", "cuisine": "italian", "addr:full": "26 High Street, St Albans, AL3 4EL", "addr:state": "South East", "addr:postcode": "AL3 4EL", "addr:country": "GB", "name": "St Albans \u2013 Open", "phone": "0172 7530202", "website": "https://www.zizzi.co.uk/italian/restaurants/st-albans", "image": "https://www.zizzi.co.uk/propeller/uploads/2020/01/Zizzi-Italian-St-Albans-hero-640x360.jpg", "brand": "Zizzi", "brand:wikidata": "Q8072944", "nsi_id": "zizzi-9b5453"}, "geometry": {"type": "Point", "coordinates": [-0.340174, 51.751171]}},
{"type": "Feature", "id": "BKiXDk87_kcQDCGS6BmY0ECKI1A=", "properties": {"ref": "2142", "@spider": "zizzi_gb", "amenity": "restaurant", "cuisine": "italian", "addr:full": "87 South Street, St Andrews, KY16 9QW", "addr:state": "Scotland", "addr:postcode": "KY16 9QW", "addr:country": "GB", "name": "St Andrews \u2013 Open", "phone": "01334 474676", "website": "https://www.zizzi.co.uk/italian/restaurants/st-andrews", "image": "https://www.zizzi.co.uk/propeller/uploads/2020/01/Zizzi-Italian-St-Andrews-hero-640x360.jpg", "brand": "Zizzi", "brand:wikidata": "Q8072944", "nsi_id": "zizzi-9b5453"}, "geometry": {"type": "Point", "coordinates": [-2.794195, 56.339778]}},
{"type": "Feature", "id": "jwUSpxZ3mdSqdzF-dJhyEL8A3nc=", "properties": {"ref": "2159", "@spider": "zizzi_gb", "amenity": "restaurant", "cuisine": "italian", "addr:full": "Stafford Riverside, Stafford, ST16 3PT\t", "addr:state": "Midlands", "addr:postcode": "ST16 3PT", "addr:country": "GB", "name": "Stafford \u2013 Open", "phone": "01785501898", "website": "https://www.zizzi.co.uk/italian/restaurants/stafford", "image": "https://www.zizzi.co.uk/propeller/uploads/2020/01/Zizzi-Italian-Stafford-hero-640x360.jpg", "brand": "Zizzi", "brand:wikidata": "Q8072944", "nsi_id": "zizzi-9b5453"}, "geometry": {"type": "Point", "coordinates": [-2.115195, 52.804766]}},
{"type": "Feature", "id": "U0COFsiKgQIfwYbworcN-Fn3CAA=", "properties": {"ref": "2811", "@spider": "zizzi_gb", "amenity": "restaurant", "cuisine": "italian", "addr:full": "Tilly's Ln, Two Rivers, Staines-upon-Thames, TW18 4BL", "addr:state": "Greater London", "addr:postcode": "TW18 4BL", "addr:country": "GB", "name": "Staines \u2013 Open", "phone": "01784 613 376", "website": "https://www.zizzi.co.uk/italian/restaurants/staines", "image": "https://www.zizzi.co.uk/propeller/uploads/2020/02/Zizzi-Italian-Staines-2-640x360.jpg", "brand": "Zizzi", "brand:wikidata": "Q8072944", "nsi_id": "zizzi-9b5453"}, "geometry": {"type": "Point", "coordinates": [-0.608315, 51.483995]}},
{"type": "Feature", "id": "1zHzaI7pEr3-44vPqCRLjKNmNWc=", "properties": {"ref": "2165", "@spider": "zizzi_gb", "amenity": "restaurant", "cuisine": "italian", "addr:full": "4, Redrock, Bridgefield Street\t\t, Stockport, SK1 1SA\t", "addr:state": "North West", "addr:postcode": "SK1 1SA", "addr:country": "GB", "name": "Stockport \u2013 Open", "phone": "01614594040", "website": "https://www.zizzi.co.uk/italian/restaurants/stockport", "image": "https://www.zizzi.co.uk/propeller/uploads/2020/01/Zizzi-Italian-Stockport-hero-640x360.jpg", "brand": "Zizzi", "brand:wikidata": "Q8072944", "nsi_id": "zizzi-9b5453"}, "geometry": {"type": "Point", "coordinates": [-2.16354, 53.411916]}},
{"type": "Feature", "id": "fC6ODpeGwGhj971JO6Jdr1esZ0w=", "properties": {"ref": "2171", "@spider": "zizzi_gb", "amenity": "restaurant", "cuisine": "italian", "addr:full": "23 Sheep Street, Stratford-Upon-Avon, CV37 6EF", "addr:state": "Midlands", "addr:postcode": "CV37 6EF", "addr:country": "GB", "name": "Stratford-upon-Avon \u2013 Temporarily Closed for a Refurbishment", "phone": "0178 9507766", "website": "https://www.zizzi.co.uk/italian/restaurants/stratford-upon-avon", "image": "https://www.zizzi.co.uk/propeller/uploads/2020/01/Zizzi-Italian-Stratford-Upon-hero-640x360.jpg", "brand": "Zizzi", "brand:wikidata": "Q8072944", "nsi_id": "zizzi-9b5453"}, "geometry": {"type": "Point", "coordinates": [-1.705451, 52.191342]}},
{"type": "Feature", "id": "4q1ZDVWoB33kpfELJ97OEi0YVcg=", "properties": {"ref": "2178", "@spider": "zizzi_gb", "amenity": "restaurant", "cuisine": "italian", "addr:full": "13 High Street, Sutton, SM1 1DF", "addr:state": "Greater LondonSouth East", "addr:postcode": "SM1 1DF", "addr:country": "GB", "name": "Sutton \u2013 Open", "phone": "0203 0929626", "website": "https://www.zizzi.co.uk/italian/restaurants/sutton", "image": "https://www.zizzi.co.uk/propeller/uploads/2020/01/Zizzi-Italian-Sutton-hero-640x360.jpg", "brand": "Zizzi", "brand:wikidata": "Q8072944", "nsi_id": "zizzi-9b5453"}, "geometry": {"type": "Point", "coordinates": [-0.191969, 51.360063]}},
{"type": "Feature", "id": "qUsl8qC4d4MymvQ9eW7Rg0_tddA=", "properties": {"ref": "2183", "@spider": "zizzi_gb", "amenity": "restaurant", "cuisine": "italian", "addr:full": "Magdalene House, Taunton, TA1 1SB", "addr:state": "South West", "addr:postcode": "TA1 1SB", "addr:country": "GB", "name": "Taunton \u2013 Open", "phone": "0182 3617199", "website": "https://www.zizzi.co.uk/italian/restaurants/taunton", "image": "https://www.zizzi.co.uk/propeller/uploads/2020/01/Zizzi-Italian-Taunton-hero-640x360.jpg", "brand": "Zizzi", "brand:wikidata": "Q8072944", "nsi_id": "zizzi-9b5453"}, "geometry": {"type": "Point", "coordinates": [-3.100287, 51.015373]}},
{"type": "Feature", "id": "M1KevJLrvFDsG85rS9lK7rdp2fw=", "properties": {"ref": "2188", "@spider": "zizzi_gb", "amenity": "restaurant", "cuisine": "italian", "addr:full": "Southwater Leisure Hub, Telford, TF3 4JG", "addr:state": "Midlands", "addr:postcode": "TF3 4JG", "addr:country": "GB", "name": "Telford \u2013 Open", "phone": "0195 2763355", "website": "https://www.zizzi.co.uk/italian/restaurants/telford", "image": "https://www.zizzi.co.uk/propeller/uploads/2020/01/Zizzi-Italian-Telford-hero-640x360.jpg", "brand": "Zizzi", "brand:wikidata": "Q8072944", "nsi_id": "zizzi-9b5453"}, "geometry": {"type": "Point", "coordinates": [-2.446991, 52.673962]}},
{"type": "Feature", "id": "uDs7p-clKMqz5wpQlz_cURaiQHw=", "properties": {"ref": "2253", "@spider": "zizzi_gb", "amenity": "restaurant", "cuisine": "italian", "addr:full": "313 The Loft, The Gallery, Westfield Stratford City, London , E20 1ET", "addr:state": "Greater London", "addr:postcode": "E20 1ET", "addr:country": "GB", "name": "Westfield London (Stratford) \u2013 Open", "phone": "02036 095859\t\t\t", "website": "https://www.zizzi.co.uk/italian/restaurants/westfield-london-stratford", "image": "https://www.zizzi.co.uk/propeller/uploads/2020/01/Zizzi-Italian-Westfield-Stratford-hero-640x360.jpg", "brand": "Zizzi", "brand:wikidata": "Q8072944", "nsi_id": "zizzi-9b5453"}, "geometry": {"type": "Point", "coordinates": [-0.009424, 51.543146]}},
{"type": "Feature", "id": "LzvbdiLl5IhvsaWLC-genMZCWmc=", "properties": {"ref": "2265", "@spider": "zizzi_gb", "amenity": "restaurant", "cuisine": "italian", "addr:full": "Sea Street, Whitstable, CT5 1BU, ", "addr:state": "South East", "addr:postcode": "CT5 1BU", "addr:country": "GB", "name": "Whitstable \u2013 Open", "phone": "01227 504858", "website": "https://www.zizzi.co.uk/italian/restaurants/whitstable", "image": "https://www.zizzi.co.uk/propeller/uploads/2020/01/Zizzi-Italian-Whitstable-hero-640x360.jpg", "brand": "Zizzi", "brand:wikidata": "Q8072944", "nsi_id": "zizzi-9b5453"}, "geometry": {"type": "Point", "coordinates": [1.023119, 51.360991]}},
{"type": "Feature", "id": "bHvN8a7xpXhkqeURkEvgof6kGvY=", "properties": {"ref": "2754", "@spider": "zizzi_gb", "amenity": "restaurant", "cuisine": "italian", "addr:full": "57 High Street, Winchester, SO23 9BL", "addr:state": "South East", "addr:postcode": "SO23 9BL", "addr:country": "GB", "name": "Winchester \u2013 Open", "phone": "01962 809 737", "website": "https://www.zizzi.co.uk/italian/restaurants/winchester", "image": "https://www.zizzi.co.uk/propeller/uploads/2020/02/Zizzi-Italian-Winchester-hero-640x360.jpg", "brand": "Zizzi", "brand:wikidata": "Q8072944", "nsi_id": "zizzi-9b5453"}, "geometry": {"type": "Point", "coordinates": [-1.314377, 51.062339]}},
{"type": "Feature", "id": "Aqm939GPwTg8Rej5wpS_2A5vTtg=", "properties": {"ref": "2760", "@spider": "zizzi_gb", "amenity": "restaurant", "cuisine": "italian", "addr:full": "24 Thames Street, Windsor, SL4 1PL", "addr:state": "Greater London", "addr:postcode": "SL4 1PL", "addr:country": "GB", "name": "Windsor \u2013 Open", "phone": "01753206863", "website": "https://www.zizzi.co.uk/italian/restaurants/windsor", "image": "https://www.zizzi.co.uk/propeller/uploads/2020/02/Zizzi-Italian-Windsor-hero-640x360.jpg", "brand": "Zizzi", "brand:wikidata": "Q8072944", "nsi_id": "zizzi-9b5453"}, "geometry": {"type": "Point", "coordinates": [-0.608766, 51.483767]}},
{"type": "Feature", "id": "nUfebQxgO9zwYOvZl_54o0DwWSU=", "properties": {"ref": "2771", "@spider": "zizzi_gb", "amenity": "restaurant", "cuisine": "italian", "addr:full": "11 Broad Street, Wokingham, RG40 1AU", "addr:state": "South East", "addr:postcode": "RG40 1AU", "addr:country": "GB", "name": "Wokingham \u2013 Open", "phone": "01183271158", "website": "https://www.zizzi.co.uk/italian/restaurants/wokingham", "image": "https://www.zizzi.co.uk/propeller/uploads/2020/02/Zizzi-Italian-Wokingham-hero-640x360.jpg", "brand": "Zizzi", "brand:wikidata": "Q8072944", "nsi_id": "zizzi-9b5453"}, "geometry": {"type": "Point", "coordinates": [-0.835332, 51.411513]}},
{"type": "Feature", "id": "78QJJ0xjAWUuc4wAUO9xTFLC4LQ=", "properties": {"ref": "2777", "@spider": "zizzi_gb", "amenity": "restaurant", "cuisine": "italian", "addr:full": "106 High Street, Worcester, WR1 2HW", "addr:state": "Midlands", "addr:postcode": "WR1 2HW", "addr:country": "GB", "name": "Worcester \u2013 Open", "phone": "01905 936865", "website": "https://www.zizzi.co.uk/italian/restaurants/worcester", "image": "https://www.zizzi.co.uk/propeller/uploads/2020/02/Zizzi-Italian-Worcester-hero-640x360.jpg", "brand": "Zizzi", "brand:wikidata": "Q8072944", "nsi_id": "zizzi-9b5453"}, "geometry": {"type": "Point", "coordinates": [-2.220576, 52.19001]}},
{"type": "Feature", "id": "GtK8ejm4QP8cQWIDQkpTpcC2QXY=", "properties": {"ref": "2783", "@spider": "zizzi_gb", "amenity": "restaurant", "cuisine": "italian", "addr:full": "2 Lendal, York, YO1 8AA", "addr:state": "North East", "addr:postcode": "YO1 8AA", "addr:country": "GB", "name": "York \u2013 Open", "phone": "0190 4801717", "website": "https://www.zizzi.co.uk/italian/restaurants/york", "image": "https://www.zizzi.co.uk/propeller/uploads/2020/02/Zizzi-Italian-York-hero-640x360.jpg", "brand": "Zizzi", "brand:wikidata": "Q8072944", "nsi_id": "zizzi-9b5453"}, "geometry": {"type": "Point", "coordinates": [-1.085968, 53.960299]}}]}